{"type":"FeatureCollection","features":[{"type":"Feature","geometry":{"type":"Polygon","coordinates":[[[-141.42601,64.28261],[-141.42713,64.28223],[-141.42735,64.28223],[-141.42757,64.28251],[-141.42783,64.2826],[-141.42838,64.28266],[-141.42884,64.28243],[-141.4292,64.28249],[-141.42934,64.28242],[-141.42934,64.28225],[-141.43087,64.28209],[-141.43196,64.28208],[-141.43203,64.28218],[-141.43163,64.28225],[-141.43213,64.2823],[-141.43395,64.28151],[-141.43405,64.281],[-141.43369,64.28078],[-141.4337,64.28031],[-141.43345,64.28008],[-141.43373,64.27975],[-141.43367,64.27953],[-141.43389,64.27919],[-141.43466,64.27874],[-141.43511,64.27866],[-141.43541,64.27833],[-141.43594,64.27825],[-141.43606,64.27809],[-141.43684,64.2778],[-141.43744,64.27794],[-141.43725,64.278],[-141.43867,64.2788],[-141.43862,64.27909],[-141.43828,64.27931],[-141.43828,64.27946],[-141.44006,64.28005],[-141.44013,64.28017],[-141.43874,64.28103],[-141.43843,64.28155],[-141.43776,64.28194],[-141.43772,64.28203],[-141.43843,64.2826],[-141.43705,64.2836],[-141.43348,64.28471],[-141.43401,64.28553],[-141.43462,64.28597],[-141.43466,64.2862],[-141.4345,64.28661],[-141.43493,64.28693],[-141.43525,64.28669],[-141.43523,64.28635],[-141.43546,64.28591],[-141.43544,64.28513],[-141.43645,64.28583],[-141.43651,64.28637],[-141.43484,64.28756],[-141.43439,64.28772],[-141.43279,64.28743],[-141.43181,64.28759],[-141.43152,64.28745],[-141.43094,64.28743],[-141.43066,64.2877],[-141.4295,64.28793],[-141.42947,64.28784],[-141.42977,64.2877],[-141.42975,64.28756],[-141.42964,64.28732],[-141.42935,64.28727],[-141.42878,64.28744],[-141.42851,64.28791],[-141.42805,64.28819],[-141.42782,64.28821],[-141.42767,64.28799],[-141.4271,64.28786],[-141.42621,64.28789],[-141.42632,64.28796],[-141.42621,64.28818],[-141.42602,64.28823],[-141.42606,64.28848],[-141.42557,64.28872],[-141.42567,64.28882],[-141.42497,64.2891],[-141.42415,64.28903],[-141.42398,64.28918],[-141.42365,64.28904],[-141.42367,64.28875],[-141.42391,64.28875],[-141.42378,64.28862],[-141.42325,64.28859],[-141.42265,64.28837],[-141.42288,64.28818],[-141.4229,64.288],[-141.42445,64.28733],[-141.42589,64.28691],[-141.42625,64.28663],[-141.42552,64.28656],[-141.42519,64.28677],[-141.42458,64.28686],[-141.4245,64.28678],[-141.42515,64.2863],[-141.42513,64.28616],[-141.42433,64.28599],[-141.42345,64.28612],[-141.42227,64.28661],[-141.42215,64.28657],[-141.42224,64.28642],[-141.42183,64.28622],[-141.42223,64.28598],[-141.42232,64.28584],[-141.42223,64.28574],[-141.42102,64.28581],[-141.42092,64.28595],[-141.42024,64.28585],[-141.41968,64.28562],[-141.41993,64.28554],[-141.42006,64.28515],[-141.41974,64.28518],[-141.41931,64.28546],[-141.41813,64.2859],[-141.41679,64.2858],[-141.41644,64.28508],[-141.41655,64.28483],[-141.41697,64.28452],[-141.41782,64.28452],[-141.41794,64.28434],[-141.41782,64.28408],[-141.4179,64.28399],[-141.41764,64.28383],[-141.41624,64.28385],[-141.41581,64.28369],[-141.41632,64.2831],[-141.41726,64.283],[-141.41823,64.28323],[-141.4188,64.28299],[-141.41918,64.28301],[-141.41924,64.28313],[-141.42036,64.28329],[-141.42062,64.28369],[-141.42209,64.28404],[-141.423,64.28384],[-141.42301,64.28365],[-141.42323,64.28349],[-141.42463,64.28328],[-141.4249,64.28288],[-141.42542,64.28266],[-141.42601,64.28261]]]},"properties":{"fire_id":"ufid:2026-AKUYD-000228","source_collection":"ytd","source_objectid":55126,"incident_name":"Polly","mapped_acres":135.4,"mapped_acres_source":"poly_GISAcres","gis_acres":135.4,"auto_acres":135.40307032012998,"reported_acres":135.4,"percent_contained":0.0,"state":"AK","state_wfigs":"US-AK","county":"Southeast Fairbanks","discovery_time_utc":"2026-06-21T00:09:12Z","perimeter_time_utc":"2026-06-27T21:17:14Z","perimeter_edit_time_utc":"2026-07-27T18:09:55Z","incident_modified_time_utc":"2026-08-03T22:31:10Z","containment_time_utc":null,"control_time_utc":null,"fire_out_time_utc":null,"fire_cause":"Natural","fire_cause_general":null,"map_method":"GPS-Flight","source_dataset":"2026 NIFS","unique_fire_identifier":"2026-AKUYD-000228","irwin_id":"{685AA7A8-552F-4717-91BB-53FC2E2AD136}","global_id":"e62ecc33-3099-4bc6-97b6-8779f61f38fd"}},{"type":"Feature","geometry":{"type":"Polygon","coordinates":[[[-141.29175,64.66832],[-141.29159,64.66839],[-141.29169,64.6687],[-141.291,64.66893],[-141.2911,64.66921],[-141.29098,64.6694],[-141.28994,64.6696],[-141.29007,64.6698],[-141.28943,64.6697],[-141.28937,64.66958],[-141.28965,64.66936],[-141.28958,64.66919],[-141.28922,64.66904],[-141.28923,64.66874],[-141.28973,64.66824],[-141.28927,64.66811],[-141.28933,64.66803],[-141.29115,64.66789],[-141.29175,64.66832]]]},"properties":{"fire_id":"ufid:2026-AKUYD-000172","source_collection":"ytd","source_objectid":58042,"incident_name":"Star","mapped_acres":4.17,"mapped_acres_source":"poly_GISAcres","gis_acres":4.17,"auto_acres":4.165396943938699,"reported_acres":4.17,"percent_contained":null,"state":"AK","state_wfigs":"US-AK","county":"Southeast Fairbanks","discovery_time_utc":"2026-06-11T23:38:23Z","perimeter_time_utc":"2026-08-31T19:26:01Z","perimeter_edit_time_utc":null,"incident_modified_time_utc":"2026-08-25T02:32:58Z","containment_time_utc":"2026-06-14T17:00:00Z","control_time_utc":"2026-07-27T22:30:00Z","fire_out_time_utc":"2026-07-27T23:00:00Z","fire_cause":"Natural","fire_cause_general":"Natural","map_method":"Image Interpretation","source_dataset":"FFP","unique_fire_identifier":"2026-AKUYD-000172","irwin_id":"{ED87FB38-A0E4-4457-82CB-0A53F654C4F8}","global_id":"a0281689-9719-4f94-92a6-7e187d93b2b9"}},{"type":"Feature","geometry":{"type":"MultiPolygon","coordinates":[[[[-142.98186,63.34772],[-142.98203,63.34787],[-142.98148,63.34807],[-142.98135,63.34793],[-142.98101,63.34796],[-142.98134,63.34767],[-142.98186,63.34772]]],[[[-142.98499,63.34829],[-142.98451,63.34827],[-142.98452,63.34806],[-142.98507,63.34811],[-142.98499,63.34829]]],[[[-142.97807,63.35083],[-142.97817,63.351],[-142.97782,63.35077],[-142.97822,63.35077],[-142.97807,63.35083]]],[[[-143.01624,63.40029],[-143.01546,63.40006],[-143.01531,63.39986],[-143.01479,63.39969],[-143.01464,63.39914],[-143.01486,63.39895],[-143.01554,63.39894],[-143.01641,63.39921],[-143.0166,63.39905],[-143.01633,63.39888],[-143.01661,63.39882],[-143.01766,63.39916],[-143.01783,63.39866],[-143.01803,63.39851],[-143.01954,63.39818],[-143.01964,63.39809],[-143.01932,63.39799],[-143.0199,63.39779],[-143.01968,63.39767],[-143.01921,63.39771],[-143.01912,63.39784],[-143.01849,63.39785],[-143.01766,63.39751],[-143.0177,63.39732],[-143.01733,63.39717],[-143.01668,63.39729],[-143.01598,63.39706],[-143.01526,63.39719],[-143.01532,63.39739],[-143.0148,63.39766],[-143.01498,63.3978],[-143.01457,63.39787],[-143.01383,63.39765],[-143.01387,63.39746],[-143.01304,63.39733],[-143.01241,63.39706],[-143.01235,63.39694],[-143.01279,63.39694],[-143.01198,63.39648],[-143.01145,63.39637],[-143.01084,63.39582],[-143.01006,63.39596],[-143.01013,63.39576],[-143.00975,63.39566],[-143.00917,63.39587],[-143.00791,63.39567],[-143.00792,63.39577],[-143.00841,63.39597],[-143.00834,63.39614],[-143.00762,63.39625],[-143.00738,63.3964],[-143.00691,63.39638],[-143.00702,63.39656],[-143.00693,63.39662],[-143.00599,63.39651],[-143.00582,63.39673],[-143.00532,63.39697],[-143.0068,63.39714],[-143.00643,63.3973],[-143.00681,63.39744],[-143.00658,63.39766],[-143.00618,63.39776],[-143.00675,63.39799],[-143.006,63.39824],[-143.00541,63.39797],[-143.004,63.3978],[-143.00355,63.39806],[-143.00279,63.39802],[-143.00224,63.39781],[-143.0022,63.39745],[-143.00151,63.39779],[-143.00209,63.39793],[-143.00267,63.39821],[-143.00278,63.3984],[-143.00187,63.39875],[-143.00202,63.3989],[-143.00196,63.39904],[-143.00174,63.39905],[-143.00053,63.39969],[-143.00078,63.39982],[-142.99954,63.39969],[-142.99925,63.39947],[-142.99837,63.3997],[-142.998,63.39953],[-142.99791,63.39914],[-142.99735,63.39951],[-142.99678,63.39948],[-142.99509,63.39981],[-142.99346,63.39986],[-142.99372,63.39932],[-142.99325,63.39909],[-142.99379,63.39876],[-142.99396,63.39844],[-142.99185,63.39838],[-142.99147,63.39817],[-142.98991,63.39701],[-142.9901,63.39606],[-142.99003,63.39582],[-142.98967,63.39562],[-142.98877,63.39549],[-142.98804,63.39583],[-142.98774,63.3957],[-142.98647,63.39568],[-142.98522,63.39519],[-142.98535,63.39476],[-142.98462,63.39541],[-142.98399,63.39551],[-142.98374,63.3957],[-142.98376,63.39595],[-142.98362,63.39614],[-142.98412,63.39673],[-142.98298,63.39709],[-142.98258,63.39707],[-142.98253,63.39693],[-142.98285,63.39662],[-142.98186,63.39666],[-142.98176,63.39651],[-142.98204,63.39628],[-142.98165,63.39636],[-142.98027,63.39565],[-142.98045,63.39545],[-142.98161,63.39548],[-142.98175,63.39507],[-142.98152,63.39478],[-142.98227,63.39428],[-142.98313,63.39312],[-142.9826,63.39275],[-142.98259,63.39258],[-142.9831,63.39225],[-142.98397,63.39212],[-142.98518,63.38997],[-142.98522,63.38962],[-142.98493,63.38943],[-142.98541,63.38928],[-142.98546,63.38897],[-142.98461,63.38872],[-142.98392,63.38811],[-142.98437,63.38785],[-142.98423,63.3877],[-142.98431,63.38766],[-142.98376,63.38748],[-142.98198,63.3874],[-142.97822,63.38828],[-142.97773,63.38806],[-142.97776,63.38798],[-142.97733,63.38796],[-142.97681,63.38817],[-142.97698,63.3883],[-142.97659,63.38828],[-142.97654,63.38863],[-142.97619,63.3887],[-142.9758,63.3887],[-142.97567,63.38855],[-142.97535,63.38852],[-142.97473,63.38862],[-142.97441,63.38855],[-142.97409,63.38876],[-142.97371,63.38878],[-142.9736,63.38859],[-142.97368,63.38854],[-142.97286,63.38826],[-142.97279,63.38852],[-142.97262,63.3886],[-142.97195,63.38844],[-142.97111,63.38846],[-142.97065,63.38861],[-142.97014,63.38855],[-142.97002,63.38863],[-142.97031,63.389],[-142.97077,63.38884],[-142.97115,63.38889],[-142.97121,63.38905],[-142.97088,63.38936],[-142.97121,63.38973],[-142.97095,63.38979],[-142.97108,63.39018],[-142.97023,63.38992],[-142.96943,63.39018],[-142.96912,63.39054],[-142.96884,63.39055],[-142.96856,63.39031],[-142.96866,63.39004],[-142.96931,63.38986],[-142.96786,63.38913],[-142.96759,63.38913],[-142.9675,63.38924],[-142.96759,63.38932],[-142.96741,63.38934],[-142.96737,63.38954],[-142.96759,63.38963],[-142.96757,63.38976],[-142.96684,63.39006],[-142.96638,63.38991],[-142.96623,63.38967],[-142.96624,63.38933],[-142.96528,63.38931],[-142.96464,63.38919],[-142.96454,63.38906],[-142.96451,63.38891],[-142.96589,63.38887],[-142.96587,63.38866],[-142.965,63.38876],[-142.96415,63.38856],[-142.96328,63.38867],[-142.96273,63.3884],[-142.96286,63.38829],[-142.96269,63.38817],[-142.96286,63.38805],[-142.96369,63.38786],[-142.96302,63.38775],[-142.96335,63.38768],[-142.96327,63.38748],[-142.96381,63.3871],[-142.96315,63.3873],[-142.96256,63.38731],[-142.96251,63.38721],[-142.96272,63.38705],[-142.96287,63.38669],[-142.96357,63.38663],[-142.96288,63.38634],[-142.96287,63.38621],[-142.96322,63.38606],[-142.9632,63.38593],[-142.96451,63.38567],[-142.96399,63.38543],[-142.96293,63.38567],[-142.96249,63.38565],[-142.96228,63.38554],[-142.96222,63.38534],[-142.96189,63.38538],[-142.96201,63.38552],[-142.9618,63.38572],[-142.96224,63.38571],[-142.96257,63.38604],[-142.96249,63.38622],[-142.96194,63.38636],[-142.96092,63.38626],[-142.96081,63.38591],[-142.96035,63.38588],[-142.96013,63.38593],[-142.96057,63.38628],[-142.96021,63.38652],[-142.95948,63.38654],[-142.95881,63.38634],[-142.95834,63.3866],[-142.95775,63.38651],[-142.95719,63.38683],[-142.95655,63.38682],[-142.95613,63.38642],[-142.95488,63.38642],[-142.95399,63.38624],[-142.95393,63.38601],[-142.95357,63.38587],[-142.95348,63.38547],[-142.95368,63.3852],[-142.95344,63.38499],[-142.95436,63.38485],[-142.95401,63.38457],[-142.95343,63.38444],[-142.95332,63.38408],[-142.9536,63.3839],[-142.95527,63.38359],[-142.95526,63.38344],[-142.95629,63.38326],[-142.95656,63.38305],[-142.95588,63.38287],[-142.95494,63.38319],[-142.95393,63.38324],[-142.95363,63.38312],[-142.95301,63.38252],[-142.95341,63.38213],[-142.95285,63.38165],[-142.95089,63.38155],[-142.95055,63.3813],[-142.94925,63.38108],[-142.94808,63.38115],[-142.94778,63.38131],[-142.94741,63.38123],[-142.94711,63.38067],[-142.94635,63.38025],[-142.94647,63.37994],[-142.94726,63.37962],[-142.94796,63.37902],[-142.94813,63.37851],[-142.94829,63.37839],[-142.94801,63.37796],[-142.94865,63.37766],[-142.94865,63.37747],[-142.95102,63.3769],[-142.9518,63.37653],[-142.95231,63.37602],[-142.95352,63.37601],[-142.95419,63.37568],[-142.9541,63.37545],[-142.95221,63.37462],[-142.95114,63.37481],[-142.94959,63.37462],[-142.94915,63.37492],[-142.94854,63.37463],[-142.94644,63.37452],[-142.94592,63.37434],[-142.94516,63.37491],[-142.94312,63.37512],[-142.94235,63.37472],[-142.94198,63.37419],[-142.94204,63.37411],[-142.94018,63.37407],[-142.93982,63.37424],[-142.93979,63.37438],[-142.94001,63.3745],[-142.93972,63.37458],[-142.9398,63.3748],[-142.9397,63.37481],[-142.93839,63.37427],[-142.93832,63.37414],[-142.93852,63.37406],[-142.93809,63.37404],[-142.93761,63.37416],[-142.93705,63.37408],[-142.93668,63.37431],[-142.93665,63.37449],[-142.93623,63.37459],[-142.93191,63.37473],[-142.93144,63.37522],[-142.93045,63.37512],[-142.9302,63.375],[-142.93039,63.37486],[-142.93034,63.37473],[-142.92958,63.37457],[-142.9271,63.37521],[-142.92634,63.37469],[-142.92575,63.37487],[-142.92565,63.37498],[-142.92585,63.37509],[-142.9258,63.37522],[-142.92531,63.37518],[-142.92531,63.37543],[-142.92516,63.37559],[-142.92478,63.37571],[-142.92399,63.37569],[-142.92396,63.37549],[-142.92417,63.37522],[-142.923,63.37561],[-142.92268,63.37534],[-142.92176,63.37533],[-142.922,63.37556],[-142.92201,63.37581],[-142.92229,63.37624],[-142.92138,63.37628],[-142.92026,63.37685],[-142.91955,63.37683],[-142.91776,63.37636],[-142.91768,63.37617],[-142.91771,63.376],[-142.91828,63.37575],[-142.91793,63.37547],[-142.91785,63.37525],[-142.91867,63.37489],[-142.91927,63.37491],[-142.91853,63.37462],[-142.91774,63.37456],[-142.91682,63.37421],[-142.91676,63.37405],[-142.91725,63.37384],[-142.91801,63.37375],[-142.91824,63.37356],[-142.91686,63.37357],[-142.916,63.37325],[-142.91521,63.37314],[-142.91522,63.37281],[-142.91438,63.37257],[-142.91467,63.37242],[-142.9146,63.37219],[-142.91372,63.37236],[-142.9138,63.37218],[-142.91361,63.37199],[-142.91389,63.37142],[-142.9138,63.37128],[-142.91304,63.37112],[-142.91306,63.37075],[-142.91214,63.37048],[-142.912,63.37059],[-142.91214,63.37075],[-142.91206,63.37083],[-142.9112,63.37094],[-142.91071,63.37123],[-142.91145,63.37138],[-142.91172,63.37168],[-142.91219,63.37174],[-142.91214,63.37195],[-142.91241,63.37213],[-142.91327,63.37225],[-142.91265,63.37241],[-142.91273,63.37263],[-142.91294,63.3727],[-142.91275,63.37282],[-142.91293,63.37318],[-142.9127,63.37328],[-142.91275,63.37342],[-142.91227,63.37365],[-142.91152,63.37364],[-142.91144,63.37404],[-142.91078,63.37425],[-142.91049,63.37465],[-142.91051,63.37485],[-142.91155,63.37518],[-142.91149,63.37538],[-142.91063,63.37536],[-142.91093,63.37561],[-142.91077,63.37568],[-142.9108,63.37595],[-142.91048,63.37608],[-142.91175,63.3764],[-142.91169,63.37653],[-142.91103,63.37655],[-142.91109,63.37693],[-142.91042,63.3771],[-142.91031,63.37735],[-142.90965,63.37742],[-142.90966,63.37726],[-142.90952,63.37719],[-142.90908,63.37727],[-142.90886,63.37754],[-142.90803,63.37774],[-142.90642,63.37747],[-142.90667,63.3778],[-142.90726,63.37809],[-142.90715,63.37813],[-142.90632,63.37813],[-142.90547,63.37772],[-142.90546,63.3775],[-142.90518,63.37745],[-142.90478,63.3778],[-142.90395,63.3781],[-142.90363,63.37786],[-142.90408,63.37775],[-142.90456,63.3773],[-142.9025,63.37749],[-142.90225,63.37744],[-142.90217,63.37729],[-142.90317,63.37694],[-142.90297,63.37677],[-142.90293,63.37655],[-142.9037,63.37645],[-142.90396,63.37614],[-142.90376,63.37601],[-142.9038,63.37587],[-142.90452,63.37554],[-142.90417,63.37506],[-142.90595,63.37526],[-142.90615,63.37523],[-142.90626,63.37488],[-142.9052,63.37428],[-142.90422,63.37449],[-142.90426,63.37481],[-142.90372,63.3747],[-142.90389,63.37454],[-142.90383,63.37435],[-142.90426,63.37419],[-142.90383,63.37384],[-142.90265,63.37373],[-142.90207,63.37403],[-142.90149,63.37392],[-142.90148,63.37363],[-142.90186,63.37336],[-142.90162,63.37319],[-142.90189,63.37299],[-142.90145,63.37274],[-142.90155,63.37248],[-142.90135,63.37235],[-142.9015,63.37221],[-142.90126,63.37212],[-142.90133,63.372],[-142.9012,63.37182],[-142.90083,63.37166],[-142.90089,63.37157],[-142.90058,63.37132],[-142.90034,63.37083],[-142.89982,63.37052],[-142.89945,63.37065],[-142.89961,63.37135],[-142.89942,63.37145],[-142.89955,63.3717],[-142.89928,63.37224],[-142.89913,63.37229],[-142.89926,63.37272],[-142.90052,63.37292],[-142.90011,63.3733],[-142.8995,63.37337],[-142.90032,63.37381],[-142.90043,63.37406],[-142.89928,63.37388],[-142.89853,63.3743],[-142.89762,63.37399],[-142.89765,63.37369],[-142.89808,63.3733],[-142.89791,63.37301],[-142.89734,63.37289],[-142.89711,63.37244],[-142.89663,63.37222],[-142.89711,63.37174],[-142.89779,63.37156],[-142.89779,63.37145],[-142.8973,63.37134],[-142.89741,63.37106],[-142.89732,63.37093],[-142.89666,63.37066],[-142.89692,63.37048],[-142.89684,63.37022],[-142.89725,63.36964],[-142.89758,63.36949],[-142.89742,63.36926],[-142.8964,63.36904],[-142.89685,63.36852],[-142.89684,63.36837],[-142.89651,63.36814],[-142.89652,63.36797],[-142.89626,63.36762],[-142.89634,63.36748],[-142.897,63.36723],[-142.89739,63.36726],[-142.89831,63.36774],[-142.89858,63.36803],[-142.89855,63.36831],[-142.89874,63.36832],[-142.89882,63.36826],[-142.89873,63.36807],[-142.89892,63.36776],[-142.89937,63.36758],[-142.90078,63.36746],[-142.90119,63.36759],[-142.90189,63.36743],[-142.90224,63.3676],[-142.90216,63.36775],[-142.9028,63.3676],[-142.90406,63.36827],[-142.90422,63.36809],[-142.90455,63.36809],[-142.90478,63.36818],[-142.90475,63.36832],[-142.90592,63.36883],[-142.90732,63.36919],[-142.90817,63.36994],[-142.90867,63.36995],[-142.90882,63.36989],[-142.90879,63.36923],[-142.90909,63.36895],[-142.9111,63.36878],[-142.91205,63.36893],[-142.91273,63.36856],[-142.91384,63.36825],[-142.91384,63.3678],[-142.91422,63.36771],[-142.91479,63.36772],[-142.91554,63.36819],[-142.91681,63.3684],[-142.91766,63.36895],[-142.91843,63.36892],[-142.91855,63.36901],[-142.91854,63.36932],[-142.9189,63.36944],[-142.91941,63.36942],[-142.9205,63.36898],[-142.92139,63.36902],[-142.92193,63.36937],[-142.92234,63.36905],[-142.92377,63.36903],[-142.92477,63.36918],[-142.92558,63.36902],[-142.92591,63.36872],[-142.92758,63.3681],[-142.92796,63.36754],[-142.9272,63.36715],[-142.92721,63.36698],[-142.92747,63.36683],[-142.92821,63.36693],[-142.92909,63.3667],[-142.93038,63.36659],[-142.93064,63.36674],[-142.9307,63.36724],[-142.93087,63.36742],[-142.93211,63.36764],[-142.93401,63.36746],[-142.93507,63.36762],[-142.93674,63.36742],[-142.93933,63.36739],[-142.94057,63.36716],[-142.94084,63.36688],[-142.94059,63.36655],[-142.94015,63.3663],[-142.9402,63.36612],[-142.94061,63.36587],[-142.94214,63.36533],[-142.94283,63.36481],[-142.94442,63.36467],[-142.94491,63.36435],[-142.94551,63.36432],[-142.94612,63.36396],[-142.94697,63.36392],[-142.94737,63.36377],[-142.9475,63.36321],[-142.94742,63.36285],[-142.94661,63.36253],[-142.94668,63.36237],[-142.94658,63.36232],[-142.94531,63.36181],[-142.94426,63.36202],[-142.9433,63.36174],[-142.9415,63.36178],[-142.94138,63.36194],[-142.94101,63.36194],[-142.9409,63.36187],[-142.94102,63.36166],[-142.94028,63.3614],[-142.94196,63.36075],[-142.94277,63.36022],[-142.94264,63.36001],[-142.94278,63.35986],[-142.94381,63.35931],[-142.94458,63.35952],[-142.94606,63.35933],[-142.94691,63.35868],[-142.94773,63.35845],[-142.94827,63.35799],[-142.94994,63.35739],[-142.95139,63.35766],[-142.95329,63.35747],[-142.95458,63.358],[-142.95525,63.35806],[-142.95556,63.35763],[-142.95544,63.35712],[-142.95574,63.35685],[-142.95664,63.35647],[-142.95674,63.35573],[-142.95822,63.35531],[-142.95921,63.35559],[-142.96064,63.35517],[-142.96218,63.35524],[-142.96347,63.355],[-142.96527,63.35506],[-142.96716,63.35531],[-142.96869,63.35528],[-142.96959,63.35512],[-142.96984,63.35465],[-142.97137,63.35426],[-142.97303,63.35397],[-142.97417,63.35428],[-142.97481,63.35405],[-142.9749,63.3538],[-142.9752,63.35359],[-142.97493,63.35335],[-142.97523,63.35292],[-142.97408,63.35219],[-142.97509,63.35188],[-142.97527,63.35139],[-142.98402,63.35137],[-142.98429,63.35091],[-142.98418,63.35079],[-142.98425,63.35062],[-142.98485,63.35039],[-142.98495,63.3502],[-142.9857,63.34999],[-142.9863,63.35007],[-142.98751,63.34962],[-142.98867,63.34948],[-142.98935,63.3491],[-142.98932,63.34884],[-142.99002,63.34893],[-142.99054,63.3489],[-142.99077,63.34876],[-142.99096,63.34878],[-142.9912,63.34909],[-142.9924,63.34909],[-142.99247,63.34846],[-142.99204,63.34829],[-142.99223,63.34805],[-142.99188,63.34784],[-142.99117,63.34771],[-142.99072,63.34734],[-142.99062,63.34708],[-142.99071,63.347],[-142.99165,63.34686],[-142.99115,63.34639],[-142.99072,63.3463],[-142.99067,63.34565],[-142.99039,63.34544],[-142.99106,63.34527],[-142.9922,63.34521],[-142.99395,63.34454],[-142.99455,63.34452],[-142.9953,63.3447],[-142.99688,63.34462],[-142.99757,63.34421],[-142.99802,63.34418],[-142.99879,63.34436],[-143.00005,63.34422],[-143.00033,63.34425],[-143.00057,63.34455],[-143.00237,63.34439],[-143.00277,63.34445],[-143.00374,63.34498],[-143.00513,63.345],[-143.00607,63.34495],[-143.00711,63.34468],[-143.00756,63.34476],[-143.00781,63.3446],[-143.0088,63.34447],[-143.00995,63.34447],[-143.01055,63.3448],[-143.01107,63.34485],[-143.0113,63.34532],[-143.01154,63.34534],[-143.01176,63.34517],[-143.01191,63.34448],[-143.01235,63.3442],[-143.01525,63.34411],[-143.01573,63.3444],[-143.01639,63.34422],[-143.01704,63.34422],[-143.01946,63.34519],[-143.01966,63.34508],[-143.01951,63.34429],[-143.01996,63.34431],[-143.02071,63.34387],[-143.02168,63.34384],[-143.02274,63.34342],[-143.02402,63.34325],[-143.02442,63.34324],[-143.02523,63.34349],[-143.02704,63.34315],[-143.02758,63.34318],[-143.0279,63.34339],[-143.02891,63.34324],[-143.03255,63.34316],[-143.03294,63.34329],[-143.03287,63.34355],[-143.03367,63.34373],[-143.03391,63.34407],[-143.03467,63.34408],[-143.03505,63.3438],[-143.03624,63.34348],[-143.03872,63.34342],[-143.0391,63.343],[-143.04124,63.34293],[-143.04194,63.34252],[-143.04271,63.34282],[-143.04377,63.34281],[-143.0439,63.34277],[-143.04377,63.3425],[-143.04504,63.34224],[-143.04654,63.34242],[-143.04673,63.34267],[-143.04706,63.34261],[-143.04758,63.34224],[-143.04865,63.34249],[-143.04881,63.34276],[-143.04922,63.3427],[-143.04934,63.34277],[-143.04917,63.34287],[-143.04922,63.3431],[-143.0497,63.34327],[-143.04994,63.34326],[-143.05023,63.343],[-143.05013,63.34282],[-143.04975,63.34267],[-143.05018,63.34256],[-143.05039,63.34282],[-143.05092,63.34293],[-143.05111,63.34229],[-143.05415,63.34224],[-143.05455,63.34234],[-143.05442,63.34245],[-143.05453,63.3425],[-143.05511,63.34254],[-143.05482,63.34275],[-143.05486,63.34283],[-143.05466,63.3428],[-143.05456,63.34305],[-143.05602,63.3434],[-143.05646,63.34366],[-143.05689,63.34336],[-143.05638,63.34315],[-143.05691,63.34305],[-143.05696,63.34286],[-143.05743,63.34277],[-143.05859,63.34313],[-143.05839,63.34355],[-143.05913,63.34366],[-143.05929,63.34336],[-143.05868,63.34304],[-143.05904,63.34283],[-143.06066,63.34273],[-143.06169,63.34247],[-143.06213,63.34249],[-143.0623,63.34273],[-143.06315,63.3427],[-143.0634,63.34255],[-143.06397,63.34269],[-143.0642,63.34227],[-143.064,63.34219],[-143.06403,63.34176],[-143.06653,63.34197],[-143.06608,63.34289],[-143.06506,63.34287],[-143.06457,63.34303],[-143.06412,63.34353],[-143.06404,63.344],[-143.06326,63.34462],[-143.0636,63.34501],[-143.06345,63.34571],[-143.06366,63.34601],[-143.06359,63.34627],[-143.06211,63.34665],[-143.06174,63.34705],[-143.06162,63.34731],[-143.06179,63.34773],[-143.06279,63.34849],[-143.06285,63.34936],[-143.06268,63.34958],[-143.06282,63.35016],[-143.06267,63.35051],[-143.06186,63.35076],[-143.06162,63.35128],[-143.05994,63.35137],[-143.05965,63.35464],[-143.05808,63.35482],[-143.058,63.35499],[-143.05819,63.35585],[-143.05753,63.35625],[-143.05704,63.35638],[-143.0567,63.35669],[-143.05575,63.35686],[-143.05506,63.35734],[-143.05426,63.35768],[-143.05372,63.3577],[-143.05343,63.35816],[-143.05258,63.35824],[-143.05152,63.35899],[-143.05159,63.35923],[-143.05235,63.35965],[-143.05294,63.3602],[-143.05264,63.36053],[-143.05233,63.3612],[-143.05269,63.36161],[-143.05259,63.362],[-143.05149,63.36284],[-143.0515,63.36338],[-143.05073,63.36414],[-143.04929,63.36476],[-143.04962,63.36508],[-143.04945,63.36535],[-143.04956,63.36604],[-143.04888,63.36655],[-143.04828,63.36675],[-143.04822,63.36712],[-143.0475,63.36744],[-143.04744,63.3677],[-143.04697,63.36803],[-143.04683,63.36837],[-143.04643,63.36878],[-143.0459,63.36904],[-143.04572,63.36931],[-143.04472,63.37002],[-143.04466,63.37011],[-143.04489,63.37041],[-143.04416,63.37085],[-143.04399,63.37114],[-143.04319,63.37173],[-143.04356,63.37222],[-143.04247,63.37286],[-143.04238,63.37306],[-143.04185,63.3731],[-143.04194,63.37327],[-143.04177,63.37344],[-143.0417,63.37382],[-143.04131,63.37404],[-143.04153,63.37419],[-143.04251,63.37428],[-143.04349,63.37478],[-143.04479,63.37473],[-143.04562,63.375],[-143.04711,63.37515],[-143.04743,63.37546],[-143.04913,63.37564],[-143.04882,63.37639],[-143.04921,63.37705],[-143.05005,63.37729],[-143.05107,63.37731],[-143.05178,63.37801],[-143.05189,63.37853],[-143.05268,63.37914],[-143.05339,63.37947],[-143.05367,63.38],[-143.05449,63.3801],[-143.05489,63.38029],[-143.05512,63.38042],[-143.05513,63.38078],[-143.05564,63.38096],[-143.05575,63.38128],[-143.05541,63.38173],[-143.05571,63.38189],[-143.05577,63.38211],[-143.05553,63.38242],[-143.0549,63.38268],[-143.05522,63.38327],[-143.05506,63.38334],[-143.05554,63.38363],[-143.05476,63.38375],[-143.05497,63.3841],[-143.05442,63.38425],[-143.05412,63.38454],[-143.05479,63.38479],[-143.05503,63.38507],[-143.05424,63.38539],[-143.05426,63.38552],[-143.05485,63.38575],[-143.05408,63.38609],[-143.05447,63.38631],[-143.05429,63.38649],[-143.05312,63.38656],[-143.05285,63.38671],[-143.05327,63.38736],[-143.055,63.3874],[-143.05521,63.38756],[-143.0548,63.38769],[-143.05526,63.38778],[-143.05566,63.38814],[-143.05597,63.38822],[-143.0568,63.3881],[-143.05701,63.3882],[-143.05675,63.38841],[-143.05688,63.38894],[-143.0581,63.38928],[-143.05817,63.38956],[-143.05788,63.38982],[-143.05785,63.39],[-143.05824,63.3906],[-143.05816,63.39094],[-143.05793,63.39099],[-143.05742,63.39059],[-143.05671,63.3903],[-143.05655,63.39046],[-143.05673,63.39059],[-143.05657,63.39089],[-143.05702,63.39104],[-143.057,63.39116],[-143.05687,63.39115],[-143.057,63.39132],[-143.05772,63.39169],[-143.05765,63.3918],[-143.05808,63.39186],[-143.058,63.39209],[-143.05851,63.39239],[-143.05761,63.39292],[-143.05776,63.39309],[-143.05768,63.39361],[-143.05879,63.39374],[-143.05927,63.39392],[-143.05904,63.39406],[-143.05932,63.3942],[-143.06043,63.39431],[-143.06116,63.39482],[-143.062,63.39512],[-143.06218,63.39548],[-143.06149,63.39579],[-143.06216,63.39604],[-143.06221,63.39633],[-143.06193,63.39661],[-143.06194,63.39679],[-143.06149,63.39705],[-143.06105,63.39702],[-143.06062,63.39683],[-143.06057,63.39666],[-143.0601,63.39649],[-143.06014,63.39635],[-143.06003,63.39651],[-143.06016,63.39672],[-143.06034,63.39676],[-143.06017,63.39686],[-143.06048,63.39712],[-143.05946,63.39716],[-143.0591,63.39731],[-143.06027,63.39775],[-143.05951,63.39807],[-143.05889,63.39778],[-143.05791,63.39764],[-143.05793,63.39743],[-143.05816,63.39736],[-143.05801,63.39715],[-143.05774,63.39725],[-143.05782,63.39758],[-143.05716,63.39783],[-143.05655,63.39785],[-143.05618,63.39757],[-143.05611,63.39777],[-143.05544,63.39787],[-143.05547,63.39803],[-143.05478,63.39788],[-143.05486,63.39815],[-143.05475,63.39816],[-143.05341,63.39782],[-143.05267,63.39787],[-143.05263,63.39777],[-143.05237,63.39795],[-143.05158,63.39795],[-143.05103,63.39774],[-143.05037,63.39768],[-143.05033,63.39755],[-143.04999,63.39743],[-143.04954,63.39741],[-143.04935,63.39701],[-143.04869,63.39703],[-143.04864,63.39711],[-143.04878,63.39718],[-143.04862,63.39732],[-143.04791,63.39708],[-143.04729,63.39737],[-143.04806,63.39751],[-143.04786,63.39772],[-143.04756,63.39779],[-143.04817,63.39806],[-143.04862,63.39797],[-143.04847,63.39783],[-143.04894,63.3978],[-143.04908,63.39792],[-143.04872,63.39825],[-143.0492,63.39837],[-143.04923,63.39851],[-143.04878,63.39851],[-143.04874,63.39862],[-143.04839,63.39834],[-143.04793,63.39821],[-143.04631,63.39806],[-143.04626,63.39793],[-143.04589,63.39779],[-143.04517,63.39774],[-143.04465,63.39748],[-143.04343,63.39723],[-143.04359,63.3974],[-143.04288,63.3975],[-143.04287,63.39771],[-143.04343,63.39777],[-143.04364,63.39824],[-143.04337,63.39841],[-143.04376,63.39844],[-143.04395,63.39862],[-143.04394,63.39896],[-143.04381,63.39903],[-143.04409,63.39923],[-143.04407,63.39946],[-143.0437,63.39952],[-143.04318,63.39944],[-143.0432,63.39934],[-143.04302,63.39928],[-143.04297,63.39921],[-143.04329,63.39912],[-143.04325,63.39895],[-143.04277,63.39878],[-143.04233,63.3988],[-143.04229,63.39848],[-143.04286,63.39852],[-143.04262,63.39825],[-143.04141,63.39835],[-143.04177,63.3981],[-143.04181,63.39789],[-143.04193,63.39786],[-143.04216,63.3981],[-143.04243,63.39806],[-143.04233,63.39786],[-143.04263,63.39752],[-143.0419,63.3971],[-143.04204,63.39708],[-143.04202,63.39692],[-143.04085,63.39712],[-143.03984,63.39653],[-143.03953,63.39671],[-143.03975,63.39674],[-143.0398,63.39687],[-143.03936,63.39685],[-143.03782,63.3967],[-143.03712,63.39649],[-143.03709,63.39631],[-143.03675,63.39628],[-143.03669,63.39645],[-143.03467,63.39632],[-143.03456,63.39656],[-143.03439,63.39662],[-143.03413,63.39657],[-143.03386,63.39626],[-143.03321,63.39623],[-143.03304,63.39637],[-143.03259,63.39628],[-143.03288,63.39609],[-143.03219,63.39615],[-143.03236,63.39601],[-143.03211,63.39595],[-143.03244,63.39589],[-143.03241,63.39581],[-143.03085,63.39546],[-143.0295,63.39533],[-143.03106,63.39586],[-143.02953,63.39575],[-143.03065,63.39608],[-143.03014,63.3964],[-143.02917,63.39644],[-143.02917,63.39654],[-143.02877,63.3966],[-143.02886,63.39676],[-143.02863,63.39706],[-143.02877,63.39703],[-143.02885,63.39718],[-143.02865,63.39717],[-143.03031,63.39799],[-143.03117,63.39827],[-143.03039,63.39834],[-143.02947,63.39819],[-143.02929,63.39825],[-143.02953,63.39842],[-143.02885,63.39846],[-143.02857,63.3984],[-143.02843,63.39824],[-143.02856,63.39812],[-143.02836,63.39795],[-143.02781,63.39787],[-143.02815,63.39824],[-143.02795,63.39846],[-143.02759,63.39853],[-143.0277,63.39859],[-143.02767,63.3988],[-143.02698,63.39874],[-143.02695,63.39886],[-143.02737,63.39896],[-143.0273,63.39912],[-143.02754,63.39923],[-143.02741,63.39939],[-143.0277,63.39966],[-143.02766,63.39977],[-143.02732,63.39974],[-143.02725,63.3995],[-143.02632,63.39953],[-143.02597,63.39944],[-143.02604,63.39931],[-143.02588,63.39929],[-143.02574,63.39977],[-143.02543,63.39981],[-143.02535,63.39975],[-143.02559,63.39949],[-143.02553,63.39935],[-143.02522,63.39928],[-143.02509,63.3994],[-143.02517,63.39945],[-143.02493,63.39947],[-143.02493,63.39969],[-143.02478,63.39968],[-143.02467,63.3995],[-143.02444,63.39971],[-143.02355,63.39976],[-143.0235,63.40016],[-143.02289,63.40018],[-143.02337,63.40033],[-143.02323,63.40053],[-143.02114,63.40056],[-143.02083,63.40078],[-143.02113,63.40093],[-143.02117,63.40113],[-143.02083,63.40128],[-143.01819,63.40105],[-143.01774,63.40078],[-143.01694,63.40105],[-143.01622,63.40096],[-143.01596,63.40075],[-143.01624,63.40029]]],[[[-142.98339,63.39016],[-142.98383,63.3902],[-142.98411,63.39044],[-142.98303,63.39112],[-142.9827,63.39092],[-142.98278,63.39059],[-142.98339,63.39016]]],[[[-143.01492,63.39862],[-143.01493,63.39833],[-143.01547,63.39827],[-143.01553,63.39813],[-143.01621,63.39836],[-143.01629,63.39862],[-143.01558,63.3988],[-143.01492,63.39862]]],[[[-142.97568,63.34621],[-142.9752,63.34616],[-142.97523,63.34606],[-142.97568,63.34621]]],[[[-142.97437,63.34673],[-142.97396,63.34671],[-142.97414,63.34663],[-142.97437,63.34673]]],[[[-142.97454,63.35051],[-142.97445,63.35035],[-142.97476,63.35028],[-142.97507,63.35054],[-142.97584,63.35052],[-142.97611,63.35066],[-142.97595,63.35088],[-142.97547,63.35073],[-142.97514,63.35082],[-142.97512,63.35093],[-142.97438,63.35082],[-142.97399,63.35058],[-142.97454,63.35051]]],[[[-142.90302,63.37873],[-142.90267,63.37879],[-142.90272,63.37859],[-142.90302,63.37873]]],[[[-142.94399,63.38007],[-142.94345,63.38019],[-142.94299,63.38001],[-142.94354,63.37991],[-142.94399,63.38007]]],[[[-142.94545,63.38149],[-142.94513,63.38119],[-142.94527,63.38098],[-142.94564,63.38098],[-142.9459,63.38148],[-142.94545,63.38149]]]]},"properties":{"fire_id":"ufid:2026-AKTAS-613487","source_collection":"ytd","source_objectid":58112,"incident_name":"Mukluk","mapped_acres":7339.108029561699,"mapped_acres_source":"poly_GISAcres","gis_acres":7339.108029561699,"auto_acres":7339.078847966135,"reported_acres":7335.0,"percent_contained":45.0,"state":"AK","state_wfigs":"US-AK","county":"Southeast Fairbanks","discovery_time_utc":"2026-08-17T19:38:00Z","perimeter_time_utc":"2026-09-07T21:15:00Z","perimeter_edit_time_utc":"2026-09-08T22:23:12Z","incident_modified_time_utc":"2026-09-09T23:57:11Z","containment_time_utc":null,"control_time_utc":null,"fire_out_time_utc":null,"fire_cause":"Human","fire_cause_general":null,"map_method":"Mixed Methods","source_dataset":"2026 NIFS","unique_fire_identifier":"2026-AKTAS-613487","irwin_id":"{32A2F318-F175-4558-950A-FF3728B1F064}","global_id":"61ca6311-4bbc-4119-a482-9ad21070e091"}}]}
