{"type":"FeatureCollection","features":[{"type":"Feature","geometry":{"type":"Polygon","coordinates":[[[-162.23693,63.45949],[-162.23738,63.45953],[-162.23779,63.45981],[-162.23804,63.4598],[-162.23844,63.46046],[-162.23805,63.46099],[-162.23764,63.46128],[-162.23767,63.4615],[-162.23729,63.46165],[-162.237,63.46194],[-162.23702,63.46211],[-162.23773,63.46226],[-162.23736,63.46239],[-162.23721,63.46232],[-162.2371,63.46244],[-162.23713,63.46279],[-162.23657,63.4626],[-162.2361,63.46264],[-162.23578,63.46283],[-162.23594,63.46285],[-162.2359,63.46294],[-162.23565,63.46296],[-162.23538,63.46318],[-162.2346,63.46321],[-162.23468,63.46302],[-162.23372,63.46332],[-162.23366,63.4626],[-162.23337,63.46235],[-162.23365,63.46222],[-162.2333,63.46197],[-162.23395,63.46185],[-162.23411,63.46155],[-162.23355,63.46111],[-162.23302,63.461],[-162.23305,63.46087],[-162.23423,63.46014],[-162.23526,63.45985],[-162.23581,63.46005],[-162.23623,63.46004],[-162.23715,63.46043],[-162.23722,63.46015],[-162.23711,63.4599],[-162.23678,63.45973],[-162.23705,63.45972],[-162.23691,63.45966],[-162.23693,63.45949]]]},"properties":{"fire_id":"ufid:2026-AKGAD-000063","source_collection":"ytd","source_objectid":58134,"incident_name":"Little","mapped_acres":16.50039,"mapped_acres_source":"poly_GISAcres","gis_acres":16.50039,"auto_acres":16.500324468631106,"reported_acres":16.5,"percent_contained":null,"state":"AK","state_wfigs":"US-AK","county":"Nome","discovery_time_utc":"2026-05-16T22:37:17Z","perimeter_time_utc":"2026-09-01T21:46:57Z","perimeter_edit_time_utc":null,"incident_modified_time_utc":"2026-08-20T23:29:46Z","containment_time_utc":"2026-05-17T20:00:00Z","control_time_utc":"2026-05-18T16:00:00Z","fire_out_time_utc":"2026-08-03T20:00:00Z","fire_cause":"Human","fire_cause_general":"Undetermined","map_method":"GPS-Walked","source_dataset":"FFP","unique_fire_identifier":"2026-AKGAD-000063","irwin_id":"{E2D32F55-2285-47DE-9130-41C96843E513}","global_id":"cdcb95d9-06a7-47d2-a942-74a241a33590"}},{"type":"Feature","geometry":{"type":"Polygon","coordinates":[[[-162.76043,64.97136],[-162.76036,64.97148],[-162.76065,64.97211],[-162.76083,64.97308],[-162.76054,64.97453],[-162.7606,64.97475],[-162.76029,64.97531],[-162.75995,64.97554],[-162.75928,64.97636],[-162.75835,64.9768],[-162.75755,64.97699],[-162.75479,64.97717],[-162.75245,64.97665],[-162.7513,64.97608],[-162.75195,64.97506],[-162.75268,64.9745],[-162.75357,64.97354],[-162.75422,64.97308],[-162.75896,64.97121],[-162.75927,64.97088],[-162.7598,64.97061],[-162.76005,64.97056],[-162.76025,64.97069],[-162.76043,64.97136]]]},"properties":{"fire_id":"ufid:2026-AKGAD-000384","source_collection":"ytd","source_objectid":59242,"incident_name":"Steamboat","mapped_acres":49.5,"mapped_acres_source":"poly_GISAcres","gis_acres":49.5,"auto_acres":49.49852233558351,"reported_acres":49.5,"percent_contained":null,"state":"AK","state_wfigs":"US-AK","county":"Nome","discovery_time_utc":"2026-07-08T05:40:44Z","perimeter_time_utc":"2026-09-04T20:32:44Z","perimeter_edit_time_utc":null,"incident_modified_time_utc":"2026-07-29T23:05:32Z","containment_time_utc":null,"control_time_utc":null,"fire_out_time_utc":"2026-07-28T20:00:00Z","fire_cause":"Natural","fire_cause_general":"Natural","map_method":"Image Interpretation","source_dataset":"FFP","unique_fire_identifier":"2026-AKGAD-000384","irwin_id":"{B69ABAC7-6FC0-420E-B386-D029B73F73A5}","global_id":"114678fc-e077-470d-ad81-feef42d37bc7"}}]}
