{"type":"FeatureCollection","features":[{"type":"Feature","geometry":{"type":"MultiPolygon","coordinates":[[[[-149.41209,65.32859],[-149.41267,65.32899],[-149.41366,65.32903],[-149.41376,65.32945],[-149.41393,65.32949],[-149.41381,65.32967],[-149.41466,65.32977],[-149.41482,65.32989],[-149.41481,65.32998],[-149.41419,65.33003],[-149.41418,65.33024],[-149.41387,65.3302],[-149.414,65.3303],[-149.41391,65.33047],[-149.41431,65.33066],[-149.41423,65.33077],[-149.41366,65.33089],[-149.4132,65.33107],[-149.41314,65.33124],[-149.41274,65.33135],[-149.41276,65.33156],[-149.41216,65.33196],[-149.41221,65.33207],[-149.41188,65.33236],[-149.41123,65.33258],[-149.41094,65.33284],[-149.41028,65.33309],[-149.41027,65.3332],[-149.40957,65.33338],[-149.40891,65.33337],[-149.40713,65.33398],[-149.40625,65.33401],[-149.40475,65.33438],[-149.4043,65.33436],[-149.40379,65.33414],[-149.40396,65.33402],[-149.40384,65.33374],[-149.40402,65.3336],[-149.40378,65.33329],[-149.40419,65.3326],[-149.40382,65.33225],[-149.40402,65.33208],[-149.404,65.33193],[-149.40351,65.33176],[-149.40366,65.33145],[-149.40496,65.33094],[-149.40518,65.33048],[-149.4063,65.33007],[-149.40659,65.32977],[-149.40762,65.32918],[-149.40883,65.32901],[-149.40917,65.32876],[-149.41045,65.32832],[-149.41117,65.32829],[-149.41209,65.32859]]],[[[-149.4121,65.32859],[-149.41209,65.32859],[-149.41208,65.32857],[-149.4121,65.32859]]],[[[-149.40814,65.33367],[-149.40816,65.33367],[-149.40812,65.33368],[-149.40814,65.33367]]]]},"properties":{"fire_id":"ufid:2026-AKTAD-000243","source_collection":"ytd","source_objectid":55193,"incident_name":"Truce","mapped_acres":50.07,"mapped_acres_source":"poly_GISAcres","gis_acres":50.07,"auto_acres":50.06970449919222,"reported_acres":50.07,"percent_contained":100.0,"state":"AK","state_wfigs":"US-AK","county":"Yukon-Koyukuk","discovery_time_utc":"2026-06-21T05:35:30Z","perimeter_time_utc":"2026-06-21T07:09:56Z","perimeter_edit_time_utc":"2026-07-27T18:09:55Z","incident_modified_time_utc":"2026-07-30T19:11:42Z","containment_time_utc":"2026-06-29T08:00:00Z","control_time_utc":"2026-06-30T02:01:00Z","fire_out_time_utc":"2026-07-25T02:00:00Z","fire_cause":"Natural","fire_cause_general":null,"map_method":"GPS-Walked","source_dataset":"2026 NIFS","unique_fire_identifier":"2026-AKTAD-000243","irwin_id":"{5A145926-7A96-4361-8E81-45B4D7F9C004}","global_id":"ceca5bed-86d1-421c-bbd0-e0bb3fda22cf"}},{"type":"Feature","geometry":{"type":"Polygon","coordinates":[[[-148.48005,65.42676],[-148.48333,65.42619],[-148.48397,65.42618],[-148.48426,65.4264],[-148.48359,65.42676],[-148.48353,65.42699],[-148.48076,65.42823],[-148.47977,65.42813],[-148.47935,65.4279],[-148.47922,65.42767],[-148.47925,65.42734],[-148.4795,65.42707],[-148.47996,65.42694],[-148.48005,65.42676]]]},"properties":{"fire_id":"ufid:2026-AKTAD-000271","source_collection":"ytd","source_objectid":55194,"incident_name":"Shorty","mapped_acres":7.33,"mapped_acres_source":"poly_GISAcres","gis_acres":7.33,"auto_acres":7.330713020827735,"reported_acres":7.33,"percent_contained":null,"state":"AK","state_wfigs":"US-AK","county":"Yukon-Koyukuk","discovery_time_utc":"2026-06-22T23:31:28Z","perimeter_time_utc":"2026-06-26T22:00:18Z","perimeter_edit_time_utc":"2026-07-27T18:09:55Z","incident_modified_time_utc":"2026-09-09T00:50:25Z","containment_time_utc":null,"control_time_utc":null,"fire_out_time_utc":"2026-09-08T16:30:00Z","fire_cause":"Natural","fire_cause_general":null,"map_method":"Image Interpretation","source_dataset":"2026 NIFS","unique_fire_identifier":"2026-AKTAD-000271","irwin_id":"{B037B250-0570-41E9-B888-82CDC5A3C474}","global_id":"7f979633-4946-47e2-ae7f-0be93887fb30"}},{"type":"Feature","geometry":{"type":"Polygon","coordinates":[[[-149.66285,65.58147],[-149.66284,65.58168],[-149.66269,65.58177],[-149.66104,65.582],[-149.65922,65.58097],[-149.66067,65.58097],[-149.66285,65.58147]]]},"properties":{"fire_id":"ufid:2026-AKTAD-000283","source_collection":"ytd","source_objectid":55196,"incident_name":"Whymper","mapped_acres":2.47,"mapped_acres_source":"poly_GISAcres","gis_acres":2.47,"auto_acres":2.466670110087688,"reported_acres":2.47,"percent_contained":null,"state":"AK","state_wfigs":"US-AK","county":"Yukon-Koyukuk","discovery_time_utc":"2026-06-23T22:48:19Z","perimeter_time_utc":"2026-06-25T21:37:15Z","perimeter_edit_time_utc":"2026-07-27T18:09:55Z","incident_modified_time_utc":"2026-09-05T21:30:36Z","containment_time_utc":null,"control_time_utc":null,"fire_out_time_utc":"2026-09-04T20:30:00Z","fire_cause":"Natural","fire_cause_general":null,"map_method":"Image Interpretation","source_dataset":"2026 NIFS","unique_fire_identifier":"2026-AKTAD-000283","irwin_id":"{957C18BC-8FB2-46BA-80AA-EBCE07ABB875}","global_id":"a399d64a-665f-4483-8978-0544a335d6b9"}},{"type":"Feature","geometry":{"type":"MultiPolygon","coordinates":[[[[-149.89819,65.66627],[-149.89571,65.66611],[-149.89519,65.66588],[-149.89447,65.66525],[-149.89444,65.66487],[-149.89577,65.66452],[-149.89804,65.66425],[-149.89949,65.66454],[-149.90052,65.6651],[-149.9007,65.66535],[-149.89997,65.66599],[-149.89819,65.66627]]],[[[-149.89274,65.66511],[-149.89265,65.66602],[-149.89142,65.66589],[-149.89072,65.6648],[-149.89199,65.66424],[-149.8922,65.66439],[-149.89186,65.66471],[-149.89186,65.66496],[-149.89199,65.66512],[-149.89274,65.66511]]]]},"properties":{"fire_id":"ufid:2026-AKTAD-000284","source_collection":"ytd","source_objectid":55286,"incident_name":"Maypole","mapped_acres":14.06,"mapped_acres_source":"poly_GISAcres","gis_acres":14.06,"auto_acres":14.062450337722195,"reported_acres":14.06,"percent_contained":null,"state":"AK","state_wfigs":"US-AK","county":"Yukon-Koyukuk","discovery_time_utc":"2026-06-23T22:58:48Z","perimeter_time_utc":"2026-06-25T21:37:15Z","perimeter_edit_time_utc":"2026-07-27T21:45:56Z","incident_modified_time_utc":"2026-09-05T21:40:20Z","containment_time_utc":null,"control_time_utc":null,"fire_out_time_utc":"2026-09-04T20:30:00Z","fire_cause":"Natural","fire_cause_general":null,"map_method":"Image Interpretation","source_dataset":"2026 NIFS","unique_fire_identifier":"2026-AKTAD-000284","irwin_id":"{FB61704C-F16B-43F0-AA3D-302F3BF02AA6}","global_id":"1310004f-fc0c-415d-997c-b30e9783df07"}},{"type":"Feature","geometry":{"type":"Polygon","coordinates":[[[-149.54604,66.19385],[-149.54519,66.19354],[-149.54557,66.19295],[-149.54607,66.19274],[-149.54768,66.1927],[-149.55029,66.1924],[-149.55147,66.19244],[-149.55177,66.19265],[-149.54863,66.19313],[-149.54754,66.19341],[-149.54676,66.1939],[-149.54604,66.19385]]]},"properties":{"fire_id":"ufid:2026-AKUYD-000406","source_collection":"ytd","source_objectid":56784,"incident_name":"Sussaymin","mapped_acres":5.13,"mapped_acres_source":"poly_GISAcres","gis_acres":5.13,"auto_acres":5.13359136426613,"reported_acres":5.13,"percent_contained":null,"state":"AK","state_wfigs":"US-AK","county":"Yukon-Koyukuk","discovery_time_utc":"2026-07-10T21:09:13Z","perimeter_time_utc":"2026-07-25T21:35:00Z","perimeter_edit_time_utc":"2026-07-27T18:09:55Z","incident_modified_time_utc":"2026-09-11T01:41:09Z","containment_time_utc":null,"control_time_utc":null,"fire_out_time_utc":"2026-09-10T17:00:00Z","fire_cause":"Natural","fire_cause_general":null,"map_method":"Image Interpretation","source_dataset":"2026 NIFS","unique_fire_identifier":"2026-AKUYD-000406","irwin_id":"{220BFAF9-B598-42EF-82E7-D87FC05391DA}","global_id":"9db6ab35-ba9e-42a5-90d4-46b770fd583a"}},{"type":"Feature","geometry":{"type":"Polygon","coordinates":[[[-145.43708,65.16208],[-145.43741,65.1622],[-145.43723,65.16248],[-145.43736,65.16275],[-145.43625,65.16342],[-145.43725,65.16352],[-145.43751,65.16373],[-145.43844,65.16397],[-145.43806,65.16457],[-145.43846,65.16472],[-145.43841,65.16505],[-145.4376,65.16538],[-145.43687,65.16593],[-145.43633,65.16595],[-145.43469,65.16539],[-145.43421,65.16517],[-145.43393,65.16487],[-145.43354,65.16483],[-145.43348,65.16496],[-145.43366,65.16512],[-145.43369,65.16546],[-145.43301,65.16562],[-145.43317,65.16583],[-145.43311,65.16599],[-145.43385,65.16654],[-145.43629,65.16674],[-145.43753,65.16706],[-145.43756,65.16718],[-145.43671,65.16742],[-145.43534,65.16745],[-145.43606,65.16775],[-145.43622,65.16807],[-145.43611,65.16825],[-145.43736,65.16844],[-145.43679,65.16872],[-145.43712,65.16883],[-145.43708,65.16895],[-145.43661,65.16948],[-145.43594,65.16955],[-145.43563,65.16993],[-145.43523,65.17007],[-145.43362,65.17014],[-145.43307,65.17029],[-145.43196,65.17014],[-145.43133,65.17024],[-145.43081,65.1705],[-145.43019,65.17033],[-145.43015,65.17053],[-145.43076,65.17091],[-145.43091,65.17136],[-145.43031,65.17139],[-145.4297,65.17106],[-145.42932,65.17115],[-145.42911,65.17136],[-145.42797,65.17156],[-145.42543,65.17131],[-145.4243,65.17076],[-145.42363,65.17072],[-145.42282,65.17045],[-145.42214,65.16991],[-145.42218,65.16908],[-145.42199,65.16891],[-145.42063,65.16874],[-145.42054,65.16833],[-145.42124,65.16795],[-145.42142,65.16768],[-145.41951,65.16737],[-145.41866,65.16752],[-145.41805,65.16744],[-145.41849,65.16702],[-145.41897,65.16696],[-145.41933,65.16673],[-145.41937,65.16658],[-145.41897,65.16646],[-145.41899,65.16629],[-145.42018,65.16628],[-145.42088,65.16604],[-145.42273,65.16595],[-145.42365,65.16567],[-145.42344,65.16532],[-145.42558,65.16492],[-145.42574,65.16472],[-145.42551,65.16456],[-145.42596,65.16435],[-145.42601,65.16413],[-145.42681,65.16379],[-145.42843,65.16355],[-145.42933,65.1627],[-145.42933,65.16257],[-145.42912,65.16247],[-145.42734,65.16241],[-145.42703,65.16201],[-145.42703,65.16133],[-145.42681,65.16058],[-145.4266,65.16041],[-145.42655,65.16015],[-145.42591,65.15977],[-145.42589,65.15927],[-145.42631,65.15901],[-145.42665,65.15845],[-145.42598,65.15766],[-145.42615,65.15679],[-145.42679,65.1562],[-145.42734,65.15593],[-145.4294,65.15545],[-145.43192,65.1554],[-145.43262,65.15557],[-145.43261,65.1557],[-145.43295,65.15582],[-145.43464,65.15616],[-145.43433,65.15664],[-145.43472,65.15666],[-145.43478,65.15651],[-145.43506,65.15641],[-145.43564,65.15642],[-145.43778,65.1569],[-145.43777,65.15701],[-145.43708,65.15718],[-145.43682,65.15744],[-145.43683,65.15801],[-145.43662,65.15836],[-145.43626,65.15847],[-145.43511,65.15932],[-145.43437,65.15945],[-145.43481,65.15983],[-145.43482,65.15998],[-145.43564,65.1604],[-145.43658,65.16028],[-145.43728,65.16047],[-145.43751,65.16084],[-145.43585,65.16154],[-145.43585,65.16169],[-145.43689,65.16175],[-145.43708,65.16208]]]},"properties":{"fire_id":"ufid:2026-AKUYD-000184","source_collection":"ytd","source_objectid":57334,"incident_name":"Clums","mapped_acres":227.19,"mapped_acres_source":"poly_GISAcres","gis_acres":227.19,"auto_acres":227.18826120025767,"reported_acres":227.19,"percent_contained":null,"state":"AK","state_wfigs":"US-AK","county":"Yukon-Koyukuk","discovery_time_utc":"2026-06-13T16:17:00Z","perimeter_time_utc":"2026-08-25T22:51:42Z","perimeter_edit_time_utc":null,"incident_modified_time_utc":"2026-08-07T01:11:30Z","containment_time_utc":"2026-06-15T07:00:00Z","control_time_utc":"2026-07-27T22:30:00Z","fire_out_time_utc":"2026-07-27T23:00:00Z","fire_cause":"Natural","fire_cause_general":"Natural","map_method":"Image Interpretation","source_dataset":"FFP","unique_fire_identifier":"2026-AKUYD-000184","irwin_id":"{96867501-C9C5-46F1-8798-0A28F6B4FF25}","global_id":"edeb7c00-a233-4497-b53e-39c2f6be7627"}},{"type":"Feature","geometry":{"type":"Polygon","coordinates":[[[-149.69346,65.21388],[-149.69475,65.21331],[-149.69509,65.21342],[-149.69509,65.21365],[-149.69602,65.21439],[-149.69564,65.2147],[-149.69562,65.21505],[-149.69602,65.21575],[-149.69614,65.2163],[-149.69548,65.21676],[-149.69546,65.2171],[-149.69528,65.21722],[-149.69357,65.21593],[-149.69326,65.2154],[-149.6931,65.21454],[-149.69346,65.21388]]]},"properties":{"fire_id":"ufid:2026-AKTAD-000240","source_collection":"ytd","source_objectid":57521,"incident_name":"Hutlitakwa","mapped_acres":9.83,"mapped_acres_source":"poly_GISAcres","gis_acres":9.83,"auto_acres":9.830341515529524,"reported_acres":9.83,"percent_contained":null,"state":"AK","state_wfigs":"US-AK","county":"Yukon-Koyukuk","discovery_time_utc":"2026-06-21T05:17:22Z","perimeter_time_utc":"2026-08-10T22:47:35Z","perimeter_edit_time_utc":null,"incident_modified_time_utc":"2026-07-30T02:57:38Z","containment_time_utc":"2026-06-28T22:10:00Z","control_time_utc":"2026-06-28T22:10:00Z","fire_out_time_utc":"2026-06-28T22:10:00Z","fire_cause":"Natural","fire_cause_general":"Natural","map_method":"Image Interpretation","source_dataset":"FFP","unique_fire_identifier":"2026-AKTAD-000240","irwin_id":"{025276BC-13C1-470C-8AF6-51E6C122EAD3}","global_id":"89b0e304-fba2-4ed7-96d2-32ba26f2ef18"}},{"type":"Feature","geometry":{"type":"Polygon","coordinates":[[[-146.20882,66.02621],[-146.20732,66.02703],[-146.20695,66.02705],[-146.20743,66.02669],[-146.20578,66.02718],[-146.20505,66.02757],[-146.20496,66.02784],[-146.20508,66.02813],[-146.20417,66.02834],[-146.20411,66.02861],[-146.20328,66.02836],[-146.20258,66.02847],[-146.20255,66.02809],[-146.20231,66.02794],[-146.20266,66.0278],[-146.20268,66.02765],[-146.20326,66.02762],[-146.205,66.02702],[-146.205,66.02658],[-146.20618,66.02632],[-146.20649,66.02608],[-146.2067,66.02572],[-146.20653,66.0256],[-146.20655,66.02478],[-146.20618,66.02425],[-146.20618,66.02387],[-146.20682,66.02373],[-146.20754,66.02394],[-146.20778,66.02425],[-146.20851,66.02433],[-146.20886,66.02428],[-146.20901,66.024],[-146.21002,66.02396],[-146.21076,66.02377],[-146.21087,66.02363],[-146.21077,66.02346],[-146.2112,66.0233],[-146.211,66.02283],[-146.21107,66.02269],[-146.21213,66.02275],[-146.21165,66.02229],[-146.21198,66.022],[-146.21165,66.02187],[-146.21126,66.02141],[-146.21149,66.02115],[-146.21182,66.02093],[-146.21249,66.02079],[-146.2142,66.02086],[-146.21431,66.02074],[-146.21413,66.02045],[-146.21418,66.02025],[-146.21347,66.02011],[-146.21355,66.01997],[-146.21425,66.01957],[-146.21469,66.01956],[-146.21529,66.01935],[-146.21526,66.01919],[-146.21491,66.01917],[-146.2157,66.01886],[-146.2163,66.01844],[-146.21648,66.01844],[-146.21631,66.01872],[-146.21661,66.01874],[-146.21776,66.01842],[-146.21788,66.01828],[-146.21722,66.01799],[-146.21798,66.01772],[-146.21787,66.01748],[-146.21807,66.01735],[-146.21829,66.0169],[-146.21975,66.01621],[-146.22035,66.01556],[-146.2213,66.01528],[-146.22189,66.01531],[-146.22232,66.01545],[-146.22233,66.01564],[-146.22279,66.01591],[-146.22345,66.01593],[-146.22386,66.01611],[-146.22608,66.01619],[-146.2274,66.01648],[-146.22735,66.01663],[-146.22755,66.01674],[-146.22759,66.01705],[-146.22674,66.0174],[-146.22687,66.01769],[-146.22666,66.01806],[-146.22557,66.01846],[-146.22551,66.01883],[-146.2257,66.01914],[-146.22615,66.01942],[-146.22688,66.01957],[-146.22706,66.01979],[-146.22647,66.01991],[-146.22628,66.02047],[-146.22589,66.02062],[-146.2259,66.02093],[-146.22551,66.02096],[-146.22438,66.02142],[-146.22359,66.02152],[-146.22342,66.02171],[-146.22231,66.02174],[-146.22157,66.02203],[-146.22142,66.02175],[-146.22113,66.02171],[-146.22039,66.02211],[-146.22005,66.02215],[-146.21968,66.02211],[-146.21906,66.02165],[-146.21854,66.02147],[-146.21793,66.02142],[-146.21767,66.02151],[-146.21777,66.0217],[-146.21827,66.02197],[-146.2184,66.02217],[-146.2188,66.0223],[-146.21748,66.02269],[-146.21738,66.02286],[-146.21805,66.02305],[-146.21847,66.02336],[-146.21796,66.02446],[-146.21772,66.02446],[-146.21749,66.0237],[-146.21482,66.02404],[-146.21417,66.02448],[-146.214,66.02514],[-146.21306,66.0258],[-146.21145,66.02576],[-146.20882,66.02621]]]},"properties":{"fire_id":"ufid:2026-AKUYD-000416","source_collection":"ytd","source_objectid":57998,"incident_name":"Beaver","mapped_acres":120.77,"mapped_acres_source":"poly_GISAcres","gis_acres":120.77,"auto_acres":120.76656992014665,"reported_acres":120.77,"percent_contained":null,"state":"AK","state_wfigs":"US-AK","county":"Yukon-Koyukuk","discovery_time_utc":"2026-07-12T04:52:08Z","perimeter_time_utc":"2026-08-17T17:27:17Z","perimeter_edit_time_utc":null,"incident_modified_time_utc":"2026-08-07T23:45:20Z","containment_time_utc":null,"control_time_utc":null,"fire_out_time_utc":"2026-08-05T23:00:00Z","fire_cause":"Natural","fire_cause_general":"Natural","map_method":"Image Interpretation","source_dataset":"FFP","unique_fire_identifier":"2026-AKUYD-000416","irwin_id":"{79998073-77FA-488E-B2EB-98BDCFB80AC6}","global_id":"c6f0c760-91ca-4ffd-a345-5c309d8a3210"}},{"type":"Feature","geometry":{"type":"Polygon","coordinates":[[[-146.44772,66.87416],[-146.44619,66.87406],[-146.44572,66.87377],[-146.44516,66.87299],[-146.44616,66.87296],[-146.4476,66.87338],[-146.44867,66.87348],[-146.44795,66.87387],[-146.44772,66.87416]]]},"properties":{"fire_id":"ufid:2026-AKUYD-000405","source_collection":"ytd","source_objectid":58000,"incident_name":"Vunlui","mapped_acres":2.88,"mapped_acres_source":"poly_GISAcres","gis_acres":2.88,"auto_acres":2.8812129451596618,"reported_acres":2.88,"percent_contained":null,"state":"AK","state_wfigs":"US-AK","county":"Yukon-Koyukuk","discovery_time_utc":"2026-07-10T20:31:04Z","perimeter_time_utc":"2026-08-17T17:29:38Z","perimeter_edit_time_utc":null,"incident_modified_time_utc":"2026-08-07T23:43:32Z","containment_time_utc":null,"control_time_utc":null,"fire_out_time_utc":"2026-08-05T23:00:00Z","fire_cause":"Natural","fire_cause_general":"Natural","map_method":"Image Interpretation","source_dataset":"FFP","unique_fire_identifier":"2026-AKUYD-000405","irwin_id":"{656824D7-6AA3-4025-99AF-36993654AA95}","global_id":"2aa6eff2-64f3-4846-a262-45aa2c86951d"}},{"type":"Feature","geometry":{"type":"Polygon","coordinates":[[[-145.34299,67.95892],[-145.33953,67.95763],[-145.33609,67.95729],[-145.33522,67.95703],[-145.33536,67.95682],[-145.33444,67.95624],[-145.33388,67.9561],[-145.33294,67.95555],[-145.33241,67.95549],[-145.33007,67.95453],[-145.32983,67.95431],[-145.3299,67.95396],[-145.33092,67.95337],[-145.33128,67.95288],[-145.33221,67.95258],[-145.33267,67.95203],[-145.33365,67.95145],[-145.33642,67.9503],[-145.33705,67.95022],[-145.33726,67.94983],[-145.3421,67.95056],[-145.34249,67.95075],[-145.34122,67.95064],[-145.34101,67.95077],[-145.3421,67.95151],[-145.34333,67.95203],[-145.34189,67.9526],[-145.34171,67.95287],[-145.34189,67.95308],[-145.34282,67.95313],[-145.34309,67.95333],[-145.34287,67.9536],[-145.34318,67.95403],[-145.34345,67.95406],[-145.34362,67.95391],[-145.34363,67.95369],[-145.34394,67.95369],[-145.34557,67.95426],[-145.34559,67.95449],[-145.34409,67.95488],[-145.34409,67.95519],[-145.34607,67.95529],[-145.34596,67.95551],[-145.34601,67.95586],[-145.3465,67.95609],[-145.3465,67.9563],[-145.34667,67.95646],[-145.34727,67.95646],[-145.34859,67.95613],[-145.34891,67.95582],[-145.34902,67.95541],[-145.34977,67.95536],[-145.34999,67.955],[-145.35132,67.95457],[-145.3522,67.95432],[-145.35324,67.95459],[-145.35302,67.95494],[-145.35237,67.95537],[-145.35116,67.9557],[-145.35083,67.95595],[-145.35083,67.95619],[-145.351,67.95638],[-145.35023,67.9571],[-145.35056,67.95737],[-145.35138,67.95743],[-145.35127,67.95763],[-145.35074,67.95777],[-145.3516,67.95794],[-145.35171,67.95819],[-145.3522,67.95836],[-145.352,67.95852],[-145.35209,67.95872],[-145.35377,67.95923],[-145.35355,67.95936],[-145.35362,67.95958],[-145.35326,67.95989],[-145.35229,67.96035],[-145.35146,67.96103],[-145.35151,67.96154],[-145.35214,67.96184],[-145.35339,67.96186],[-145.35342,67.96201],[-145.35377,67.96225],[-145.35359,67.96261],[-145.35236,67.96249],[-145.35189,67.96222],[-145.34991,67.96169],[-145.34772,67.96085],[-145.34708,67.96076],[-145.34473,67.95985],[-145.34299,67.95892]]]},"properties":{"fire_id":"ufid:2026-AKUYD-000262","source_collection":"ytd","source_objectid":58041,"incident_name":"Chotzatdhah","mapped_acres":144.38,"mapped_acres_source":"poly_GISAcres","gis_acres":144.38,"auto_acres":144.3832431885101,"reported_acres":144.38,"percent_contained":null,"state":"AK","state_wfigs":"US-AK","county":"Yukon-Koyukuk","discovery_time_utc":"2026-06-22T03:07:57Z","perimeter_time_utc":"2026-08-17T21:17:05Z","perimeter_edit_time_utc":null,"incident_modified_time_utc":"2026-08-25T02:30:10Z","containment_time_utc":"2026-06-22T20:02:00Z","control_time_utc":"2026-06-22T20:02:00Z","fire_out_time_utc":"2026-08-05T23:00:00Z","fire_cause":"Natural","fire_cause_general":null,"map_method":"Image Interpretation","source_dataset":"Decertified","unique_fire_identifier":"2026-AKUYD-000262","irwin_id":"{3C863AC4-79FB-47FA-82FF-059048ACFCB3}","global_id":"117cd861-8bc7-4582-b8b6-70859ac06fab"}},{"type":"Feature","geometry":{"type":"MultiPolygon","coordinates":[[[[-149.83137,65.22852],[-149.8319,65.22806],[-149.83298,65.22813],[-149.83386,65.22782],[-149.83582,65.22744],[-149.83733,65.22744],[-149.83724,65.22759],[-149.83766,65.22765],[-149.83798,65.22788],[-149.838,65.22851],[-149.83848,65.22902],[-149.83849,65.22924],[-149.83782,65.22947],[-149.83655,65.23056],[-149.83631,65.23105],[-149.83654,65.23122],[-149.83615,65.23259],[-149.83472,65.23362],[-149.83385,65.23395],[-149.83379,65.23407],[-149.83266,65.23446],[-149.83213,65.23483],[-149.83107,65.23502],[-149.83054,65.2354],[-149.82993,65.23545],[-149.82935,65.23511],[-149.82949,65.23364],[-149.82931,65.23299],[-149.82941,65.23223],[-149.82927,65.23204],[-149.82947,65.23189],[-149.82991,65.22978],[-149.83087,65.22946],[-149.83059,65.22923],[-149.83099,65.22866],[-149.83137,65.22852]]],[[[-149.82999,65.22055],[-149.83048,65.22064],[-149.83023,65.22101],[-149.83009,65.22181],[-149.82998,65.22192],[-149.82926,65.22181],[-149.82921,65.22112],[-149.82942,65.22086],[-149.82999,65.22055]]],[[[-149.83119,65.22586],[-149.83107,65.22576],[-149.83104,65.22539],[-149.83165,65.22507],[-149.83079,65.2247],[-149.82961,65.22487],[-149.82933,65.22408],[-149.8302,65.22359],[-149.83169,65.22347],[-149.83198,65.22335],[-149.83205,65.22318],[-149.83021,65.22302],[-149.82986,65.22293],[-149.82979,65.22262],[-149.83043,65.22232],[-149.83232,65.22266],[-149.83463,65.22186],[-149.83657,65.22213],[-149.83629,65.2227],[-149.83672,65.22302],[-149.83675,65.22333],[-149.83632,65.22358],[-149.83489,65.22384],[-149.8348,65.22414],[-149.83579,65.22473],[-149.83578,65.22528],[-149.83603,65.22574],[-149.83629,65.22591],[-149.83739,65.22599],[-149.83787,65.22541],[-149.83832,65.2253],[-149.83874,65.22531],[-149.83942,65.22566],[-149.83926,65.22593],[-149.83815,65.22614],[-149.83793,65.22649],[-149.83774,65.22654],[-149.83225,65.22714],[-149.83152,65.22701],[-149.83165,65.22688],[-149.83092,65.22672],[-149.83074,65.22634],[-149.83096,65.22596],[-149.83119,65.22586]]]]},"properties":{"fire_id":"ufid:2026-AKTAD-000235","source_collection":"ytd","source_objectid":58230,"incident_name":"Applegate","mapped_acres":95.86,"mapped_acres_source":"poly_GISAcres","gis_acres":95.86,"auto_acres":95.86200062714214,"reported_acres":95.86,"percent_contained":null,"state":"AK","state_wfigs":"US-AK","county":"Yukon-Koyukuk","discovery_time_utc":"2026-06-21T02:22:39Z","perimeter_time_utc":"2026-08-21T05:49:25Z","perimeter_edit_time_utc":null,"incident_modified_time_utc":"2026-08-11T23:40:22Z","containment_time_utc":"2026-07-01T04:00:00Z","control_time_utc":"2026-07-01T15:45:00Z","fire_out_time_utc":"2026-07-25T02:00:00Z","fire_cause":"Natural","fire_cause_general":"Natural","map_method":"Image Interpretation","source_dataset":"FFP","unique_fire_identifier":"2026-AKTAD-000235","irwin_id":"{03DAF6D0-089D-4ACB-B35C-6065A123349F}","global_id":"afbac79f-335c-44df-bcec-0d3b00fdc2cf"}},{"type":"Feature","geometry":{"type":"Polygon","coordinates":[[[-149.70556,67.03858],[-149.70358,67.03782],[-149.70248,67.03724],[-149.70215,67.03678],[-149.70233,67.03629],[-149.70337,67.03608],[-149.70417,67.03628],[-149.70552,67.0362],[-149.70577,67.0359],[-149.70689,67.03562],[-149.70742,67.03565],[-149.70763,67.03585],[-149.70761,67.03609],[-149.70993,67.03639],[-149.71087,67.03723],[-149.71074,67.03759],[-149.70975,67.03823],[-149.7092,67.03844],[-149.70624,67.03872],[-149.70556,67.03858]]]},"properties":{"fire_id":"ufid:2026-AKUYD-000343","source_collection":"ytd","source_objectid":58630,"incident_name":"Keating","mapped_acres":21.11,"mapped_acres_source":"poly_GISAcres","gis_acres":21.11,"auto_acres":21.105834254955965,"reported_acres":21.11,"percent_contained":null,"state":"AK","state_wfigs":"US-AK","county":"Yukon-Koyukuk","discovery_time_utc":"2026-07-02T01:37:45Z","perimeter_time_utc":"2026-08-25T22:46:38Z","perimeter_edit_time_utc":null,"incident_modified_time_utc":"2026-08-07T23:09:16Z","containment_time_utc":null,"control_time_utc":null,"fire_out_time_utc":"2026-08-05T23:00:00Z","fire_cause":"Natural","fire_cause_general":"Natural","map_method":"Image Interpretation","source_dataset":"FFP","unique_fire_identifier":"2026-AKUYD-000343","irwin_id":"{8399D5F7-7903-4D65-ACF0-702EC5890214}","global_id":"3ed823f8-e0ed-4fe9-a643-3ade1d0581d0"}},{"type":"Feature","geometry":{"type":"Polygon","coordinates":[[[-149.84459,67.00597],[-149.84658,67.00608],[-149.84699,67.00629],[-149.84668,67.00662],[-149.84696,67.00692],[-149.8455,67.00719],[-149.84437,67.00698],[-149.84388,67.00662],[-149.84398,67.00629],[-149.84459,67.00597]]]},"properties":{"fire_id":"ufid:2026-AKUYD-000326","source_collection":"ytd","source_objectid":58631,"incident_name":"Mosquito","mapped_acres":3.57,"mapped_acres_source":"poly_GISAcres","gis_acres":3.57,"auto_acres":3.5722598105771333,"reported_acres":3.57,"percent_contained":null,"state":"AK","state_wfigs":"US-AK","county":"Yukon-Koyukuk","discovery_time_utc":"2026-06-28T02:51:00Z","perimeter_time_utc":"2026-08-25T22:47:39Z","perimeter_edit_time_utc":null,"incident_modified_time_utc":"2026-08-07T22:42:45Z","containment_time_utc":null,"control_time_utc":null,"fire_out_time_utc":"2026-08-05T23:00:00Z","fire_cause":"Natural","fire_cause_general":"Natural","map_method":"Image Interpretation","source_dataset":"FFP","unique_fire_identifier":"2026-AKUYD-000326","irwin_id":"{A2134902-BB6E-431C-86D4-71543A36EABD}","global_id":"ffb2fca5-a3bd-483e-95d4-1b6de27a959a"}}]}
