{"type":"FeatureCollection","features":[{"type":"Feature","geometry":{"type":"Polygon","coordinates":[[[-91.18219,35.37851],[-91.18202,35.375],[-91.18822,35.37501],[-91.18821,35.37849],[-91.18219,35.37851]]]},"properties":{"fire_id":"ufid:2026-ARCRR-000309","source_collection":"ytd","source_objectid":50582,"incident_name":"SHROUD TRACT","mapped_acres":51.0,"mapped_acres_source":"poly_GISAcres","gis_acres":51.0,"auto_acres":53.671260977031224,"reported_acres":51.0,"percent_contained":null,"state":"AR","state_wfigs":"US-AR","county":"Jackson","discovery_time_utc":"2026-01-20T23:00:00Z","perimeter_time_utc":"2026-02-03T16:54:43Z","perimeter_edit_time_utc":null,"incident_modified_time_utc":"2026-01-28T21:28:51Z","containment_time_utc":"2026-01-21T05:00:00Z","control_time_utc":"2026-01-21T10:00:00Z","fire_out_time_utc":"2026-01-22T14:00:00Z","fire_cause":"Human","fire_cause_general":"Arson","map_method":"Digitized-Image","source_dataset":"FFP","unique_fire_identifier":"2026-ARCRR-000309","irwin_id":"{F6408629-4726-4696-9548-7A322100C05F}","global_id":"54a21baa-37bb-4193-90dc-160414828279"}},{"type":"Feature","geometry":{"type":"Polygon","coordinates":[[[-94.31837,36.17988],[-94.31876,36.17998],[-94.31982,36.18072],[-94.31956,36.18109],[-94.31957,36.18128],[-94.31933,36.18159],[-94.31857,36.1821],[-94.31781,36.18205],[-94.3172,36.18181],[-94.31698,36.18156],[-94.31699,36.1814],[-94.3176,36.18068],[-94.3176,36.18023],[-94.31822,36.18006],[-94.31837,36.17988]]]},"properties":{"fire_id":"ufid:2026-AROZF-000221","source_collection":"ytd","source_objectid":50975,"incident_name":"Wheeler Fire","mapped_acres":9.884285,"mapped_acres_source":"poly_GISAcres","gis_acres":9.884285,"auto_acres":9.884249273180778,"reported_acres":9.88,"percent_contained":null,"state":"AR","state_wfigs":"US-AR","county":"Washington","discovery_time_utc":"2026-01-17T01:10:09Z","perimeter_time_utc":"2026-03-01T21:08:49Z","perimeter_edit_time_utc":null,"incident_modified_time_utc":"2026-02-03T19:07:55Z","containment_time_utc":"2026-01-17T20:32:00Z","control_time_utc":"2026-02-03T12:48:00Z","fire_out_time_utc":"2026-02-03T12:48:00Z","fire_cause":"Human","fire_cause_general":"Debris and open burning","map_method":"GPS-Walked","source_dataset":"FFP","unique_fire_identifier":"2026-AROZF-000221","irwin_id":"{B9D425CE-65BE-485D-B172-CD440733773F}","global_id":"0c7dd369-0798-409c-821c-65f647592ecd"}},{"type":"Feature","geometry":{"type":"Polygon","coordinates":[[[-93.41107,35.95219],[-93.41098,35.95203],[-93.41122,35.95134],[-93.4118,35.95085],[-93.41235,35.95011],[-93.41334,35.9507],[-93.4133,35.95133],[-93.41189,35.95146],[-93.41181,35.9519],[-93.41107,35.95219]]]},"properties":{"fire_id":"ufid:2026-ARBUP-000727","source_collection":"ytd","source_objectid":51163,"incident_name":"Cave Mt","mapped_acres":5.3,"mapped_acres_source":"poly_GISAcres","gis_acres":5.3,"auto_acres":5.40798577140718,"reported_acres":5.3,"percent_contained":null,"state":"AR","state_wfigs":"US-AR","county":"Newton","discovery_time_utc":"2026-02-28T01:53:17Z","perimeter_time_utc":"2026-02-28T01:56:04Z","perimeter_edit_time_utc":"2026-03-11T20:56:11Z","incident_modified_time_utc":"2026-03-11T20:26:06Z","containment_time_utc":"2026-02-28T23:16:00Z","control_time_utc":"2026-03-04T21:00:00Z","fire_out_time_utc":"2026-03-08T17:00:00Z","fire_cause":"Human","fire_cause_general":null,"map_method":"Auto-generated for InFORM","source_dataset":"2026 NIFS","unique_fire_identifier":"2026-ARBUP-000727","irwin_id":"{EB3A2EDD-B6A1-481B-AF64-D1D01A7F3760}","global_id":"d27f98a4-86d1-4c03-a465-d93718e44353"}},{"type":"Feature","geometry":{"type":"MultiPolygon","coordinates":[[[[-93.8899,35.02278],[-93.89017,35.02312],[-93.89089,35.02352],[-93.89128,35.0236],[-93.89122,35.02386],[-93.89132,35.02407],[-93.89168,35.02444],[-93.89224,35.0254],[-93.89248,35.02553],[-93.89289,35.02654],[-93.89153,35.02697],[-93.89103,35.02738],[-93.89069,35.02744],[-93.88969,35.02696],[-93.88779,35.02688],[-93.88736,35.02735],[-93.88678,35.02758],[-93.88652,35.02745],[-93.886,35.02747],[-93.88541,35.02779],[-93.88532,35.0283],[-93.885,35.02881],[-93.88455,35.02898],[-93.88401,35.02891],[-93.8835,35.02912],[-93.88304,35.02946],[-93.88283,35.03036],[-93.88251,35.03069],[-93.88206,35.03091],[-93.88187,35.03135],[-93.88047,35.03162],[-93.8802,35.03199],[-93.88016,35.03239],[-93.87983,35.03262],[-93.8786,35.03259],[-93.87838,35.03236],[-93.87779,35.03218],[-93.87662,35.03228],[-93.87576,35.032],[-93.87557,35.03183],[-93.87526,35.03189],[-93.87496,35.03174],[-93.87463,35.03135],[-93.87468,35.03109],[-93.87366,35.02877],[-93.87422,35.0279],[-93.87602,35.02792],[-93.87717,35.0273],[-93.87777,35.02712],[-93.87954,35.02762],[-93.88155,35.02782],[-93.88226,35.02729],[-93.88242,35.02694],[-93.88192,35.0255],[-93.88207,35.02519],[-93.88267,35.02473],[-93.88691,35.023],[-93.8899,35.02278]]],[[[-93.88994,35.02278],[-93.88993,35.02279],[-93.88993,35.02278],[-93.88994,35.02278]]],[[[-93.88992,35.02276],[-93.88993,35.02278],[-93.88992,35.02278],[-93.88992,35.02276]]]]},"properties":{"fire_id":"ufid:2026-AROUF-000766","source_collection":"ytd","source_objectid":51172,"incident_name":"Right Hand","mapped_acres":201.0,"mapped_acres_source":"poly_GISAcres","gis_acres":201.0,"auto_acres":196.99178809169067,"reported_acres":201.0,"percent_contained":null,"state":"AR","state_wfigs":"US-AR","county":"Logan","discovery_time_utc":"2026-03-01T21:24:00Z","perimeter_time_utc":"2026-03-12T17:20:47Z","perimeter_edit_time_utc":null,"incident_modified_time_utc":"2026-03-02T21:40:16Z","containment_time_utc":"2026-03-02T03:39:00Z","control_time_utc":null,"fire_out_time_utc":"2026-03-10T05:00:00Z","fire_cause":"Human","fire_cause_general":"Arson","map_method":"Auto-generated for InFORM","source_dataset":"FFP","unique_fire_identifier":"2026-AROUF-000766","irwin_id":"{07A5D0AC-828F-462A-96BA-AF9DB7CB771D}","global_id":"0655c924-da02-4dea-81f9-5e2daeb1db34"}},{"type":"Feature","geometry":{"type":"MultiPolygon","coordinates":[[[[-93.10166,35.64863],[-93.10166,35.64864],[-93.10165,35.64864],[-93.10166,35.64863]]],[[[-93.10337,35.64768],[-93.10421,35.64705],[-93.105,35.64689],[-93.10598,35.64729],[-93.10674,35.64713],[-93.10742,35.64727],[-93.10796,35.64798],[-93.10782,35.64814],[-93.10703,35.64839],[-93.10741,35.64976],[-93.1072,35.6507],[-93.10636,35.65099],[-93.10477,35.65107],[-93.10426,35.65133],[-93.10381,35.65176],[-93.10317,35.65141],[-93.10144,35.64879],[-93.10337,35.64768]]]]},"properties":{"fire_id":"ufid:2026-AROZF-000748","source_collection":"ytd","source_objectid":51215,"incident_name":"Silver Thorn","mapped_acres":49.47,"mapped_acres_source":"poly_GISAcres","gis_acres":49.47,"auto_acres":49.470616867953375,"reported_acres":49.47,"percent_contained":null,"state":"AR","state_wfigs":"US-AR","county":"Pope","discovery_time_utc":"2026-02-28T19:58:13Z","perimeter_time_utc":"2026-03-15T20:07:28Z","perimeter_edit_time_utc":null,"incident_modified_time_utc":"2026-03-14T00:28:27Z","containment_time_utc":"2026-03-01T00:45:00Z","control_time_utc":"2026-03-12T21:00:00Z","fire_out_time_utc":"2026-03-12T21:00:00Z","fire_cause":"Natural","fire_cause_general":"Natural","map_method":"Auto-generated for InFORM","source_dataset":"FFP","unique_fire_identifier":"2026-AROZF-000748","irwin_id":"{AE9DEB5B-2347-431E-8335-9E4E39D43764}","global_id":"9cc70cef-eeaa-400c-ab25-d5bd679681b2"}},{"type":"Feature","geometry":{"type":"Polygon","coordinates":[[[-94.44695,35.72087],[-94.44551,35.72131],[-94.4442,35.72122],[-94.44258,35.72136],[-94.44179,35.71913],[-94.44321,35.71589],[-94.44303,35.71581],[-94.44302,35.71567],[-94.44324,35.71566],[-94.44452,35.71832],[-94.44591,35.71819],[-94.4468,35.71674],[-94.44755,35.71468],[-94.44764,35.71363],[-94.44743,35.71351],[-94.44674,35.71387],[-94.44578,35.71407],[-94.44493,35.71476],[-94.44434,35.71438],[-94.44418,35.7139],[-94.44456,35.7135],[-94.44456,35.71296],[-94.4458,35.71026],[-94.44593,35.7085],[-94.4463,35.70852],[-94.44638,35.70887],[-94.44679,35.70918],[-94.44849,35.70938],[-94.44936,35.70977],[-94.44942,35.71048],[-94.44999,35.71105],[-94.45121,35.71131],[-94.45123,35.71293],[-94.45149,35.71353],[-94.45129,35.71389],[-94.45078,35.71391],[-94.45068,35.71447],[-94.45044,35.71483],[-94.45056,35.7158],[-94.45026,35.71682],[-94.44988,35.71712],[-94.44944,35.71801],[-94.44903,35.71813],[-94.44886,35.71801],[-94.44868,35.71815],[-94.44861,35.71855],[-94.44906,35.71857],[-94.44924,35.71872],[-94.44801,35.72013],[-94.44695,35.72087]]]},"properties":{"fire_id":"ufid:2026-AROZF-000728","source_collection":"ytd","source_objectid":51259,"incident_name":"Whitzen Hallow","mapped_acres":150.81,"mapped_acres_source":"poly_GISAcres","gis_acres":150.81,"auto_acres":150.80802380819688,"reported_acres":150.81,"percent_contained":null,"state":"AR","state_wfigs":"US-AR","county":"Crawford","discovery_time_utc":"2026-02-28T04:00:00Z","perimeter_time_utc":"2026-03-16T15:17:41Z","perimeter_edit_time_utc":null,"incident_modified_time_utc":"2026-03-09T23:50:38Z","containment_time_utc":"2026-03-09T21:00:00Z","control_time_utc":"2026-03-09T21:00:00Z","fire_out_time_utc":"2026-03-09T21:00:00Z","fire_cause":"Human","fire_cause_general":"Debris and open burning","map_method":"GPS","source_dataset":"FFP","unique_fire_identifier":"2026-AROZF-000728","irwin_id":"{74FBC554-6BA1-4C85-A0BE-5F19C94B069F}","global_id":"b517e200-2974-4aee-b8d8-6401c0e64e1c"}},{"type":"Feature","geometry":{"type":"Polygon","coordinates":[[[-92.12475,36.01756],[-92.1218,36.01675],[-92.12108,36.01333],[-92.12051,36.01223],[-92.11984,36.01125],[-92.11775,36.00966],[-92.11765,36.00928],[-92.11798,36.00903],[-92.1193,36.01017],[-92.12002,36.01028],[-92.12056,36.01054],[-92.12221,36.01027],[-92.1225,36.01109],[-92.12295,36.01138],[-92.12369,36.01146],[-92.12455,36.01197],[-92.12575,36.01246],[-92.12739,36.0129],[-92.12771,36.01321],[-92.12993,36.01431],[-92.12999,36.01497],[-92.12976,36.01557],[-92.12992,36.0163],[-92.13032,36.01673],[-92.13105,36.01706],[-92.13113,36.01783],[-92.12475,36.01756]]]},"properties":{"fire_id":"ufid:2026-AROZF-000652","source_collection":"ytd","source_objectid":51615,"incident_name":"Livingston","mapped_acres":118.0,"mapped_acres_source":"poly_GISAcres","gis_acres":118.0,"auto_acres":121.66980845872816,"reported_acres":118.0,"percent_contained":null,"state":"AR","state_wfigs":"US-AR","county":"Stone","discovery_time_utc":"2026-02-25T16:21:00Z","perimeter_time_utc":"2026-05-26T16:43:07Z","perimeter_edit_time_utc":null,"incident_modified_time_utc":"2026-02-27T20:58:18Z","containment_time_utc":"2026-02-27T00:30:00Z","control_time_utc":"2026-03-07T14:03:00Z","fire_out_time_utc":"2026-03-23T13:00:00Z","fire_cause":"Human","fire_cause_general":"Arson","map_method":"Auto-generated for InFORM","source_dataset":"FFP","unique_fire_identifier":"2026-AROZF-000652","irwin_id":"{66E03560-9C20-4477-91D2-0C02DA009C34}","global_id":"f87ad92d-c3a5-4dd3-b925-1063f458589e"}},{"type":"Feature","geometry":{"type":"Polygon","coordinates":[[[-92.72303,35.99852],[-92.7226,36.00043],[-92.71882,36.00071],[-92.71745,35.99783],[-92.71963,35.99467],[-92.72024,35.99318],[-92.72319,35.99452],[-92.72583,35.9985],[-92.72486,35.99841],[-92.72388,35.99812],[-92.72303,35.99852]]]},"properties":{"fire_id":"ufid:2026-ARBUP-001104","source_collection":"ytd","source_objectid":51919,"incident_name":"Gilbert State Assist","mapped_acres":75.0,"mapped_acres_source":"poly_GISAcres","gis_acres":75.0,"auto_acres":87.79686364265545,"reported_acres":87.8,"percent_contained":null,"state":"AR","state_wfigs":"US-AR","county":"Searcy","discovery_time_utc":"2026-03-22T17:00:00Z","perimeter_time_utc":"2026-04-01T18:14:33Z","perimeter_edit_time_utc":null,"incident_modified_time_utc":"2026-03-23T00:53:29Z","containment_time_utc":"2026-03-23T18:00:00Z","control_time_utc":"2026-03-25T18:00:00Z","fire_out_time_utc":null,"fire_cause":"Human","fire_cause_general":"Power generation / transmission / distribution","map_method":"Digitized-Topo","source_dataset":"FFP","unique_fire_identifier":"2026-ARBUP-001104","irwin_id":"{CDEBDB64-9F44-4293-8140-5880F80BEF63}","global_id":"502671c3-2753-49b1-bbb4-24b7af8287ff"}},{"type":"Feature","geometry":{"type":"Polygon","coordinates":[[[-92.68134,36.01255],[-92.67479,36.0124],[-92.67128,36.0135],[-92.66915,36.01394],[-92.66732,36.01382],[-92.65995,36.01422],[-92.66016,36.01198],[-92.66145,36.01141],[-92.66501,36.01071],[-92.66671,36.00962],[-92.67402,36.00742],[-92.67623,36.00812],[-92.6811,36.01],[-92.68382,36.01169],[-92.68357,36.01266],[-92.68226,36.01299],[-92.68134,36.01255]]]},"properties":{"fire_id":"ufid:2026-ARBUP-000185","source_collection":"ytd","source_objectid":51920,"incident_name":"Mercy","mapped_acres":239.993,"mapped_acres_source":"poly_GISAcres","gis_acres":239.993,"auto_acres":220.98719813305297,"reported_acres":220.99,"percent_contained":null,"state":"AR","state_wfigs":"US-AR","county":"Searcy","discovery_time_utc":"2026-01-14T21:02:47Z","perimeter_time_utc":"2026-04-01T18:21:27Z","perimeter_edit_time_utc":null,"incident_modified_time_utc":"2026-01-25T14:27:47Z","containment_time_utc":"2026-01-15T00:30:00Z","control_time_utc":"2026-01-19T18:00:00Z","fire_out_time_utc":"2026-01-24T18:00:00Z","fire_cause":"Human","fire_cause_general":"Arson","map_method":"Auto-generated for InFORM","source_dataset":"FFP","unique_fire_identifier":"2026-ARBUP-000185","irwin_id":"{1F770F4A-9CBF-4D7B-BE6C-FE7F9F4691D8}","global_id":"235f008e-80fe-44e4-a141-e6ef2b1729ea"}},{"type":"Feature","geometry":{"type":"Polygon","coordinates":[[[-92.56912,36.11105],[-92.56768,36.11209],[-92.56427,36.11311],[-92.56334,36.11254],[-92.56257,36.11159],[-92.56169,36.11107],[-92.56251,36.11034],[-92.56395,36.11001],[-92.56796,36.1109],[-92.56892,36.11076],[-92.56912,36.11105]]]},"properties":{"fire_id":"ufid:2026-ARBUP-000084","source_collection":"ytd","source_objectid":51924,"incident_name":"Gauge Bluff","mapped_acres":32.14,"mapped_acres_source":"poly_GISAcres","gis_acres":32.14,"auto_acres":32.135930335943826,"reported_acres":32.14,"percent_contained":null,"state":"AR","state_wfigs":"US-AR","county":"Marion","discovery_time_utc":"2026-01-06T21:00:00Z","perimeter_time_utc":"2026-04-01T18:39:52Z","perimeter_edit_time_utc":null,"incident_modified_time_utc":"2026-01-25T14:29:14Z","containment_time_utc":"2026-01-07T01:20:00Z","control_time_utc":"2026-01-10T18:00:00Z","fire_out_time_utc":"2026-01-24T18:00:00Z","fire_cause":"Human","fire_cause_general":"Debris and open burning","map_method":"Hand Sketch","source_dataset":"FFP","unique_fire_identifier":"2026-ARBUP-000084","irwin_id":"{87C9D691-B3C7-4CBD-A51B-A625B1DE4CD7}","global_id":"8b19eadf-c703-41b2-9239-aa5c329d883e"}},{"type":"Feature","geometry":{"type":"Polygon","coordinates":[[[-92.83037,35.97986],[-92.82918,35.9788],[-92.82779,35.97857],[-92.82816,35.97772],[-92.82999,35.97646],[-92.83069,35.97335],[-92.83154,35.97294],[-92.83301,35.97424],[-92.83381,35.97576],[-92.83294,35.97851],[-92.83037,35.97986]]]},"properties":{"fire_id":"ufid:2026-ARBUP-000236","source_collection":"ytd","source_objectid":51925,"incident_name":"Blue Baler","mapped_acres":95.99718,"mapped_acres_source":"poly_GISAcres","gis_acres":95.99718,"auto_acres":53.458950730209494,"reported_acres":53.46,"percent_contained":null,"state":"AR","state_wfigs":"US-AR","county":"Searcy","discovery_time_utc":"2026-01-18T22:00:00Z","perimeter_time_utc":"2026-04-01T18:42:07Z","perimeter_edit_time_utc":null,"incident_modified_time_utc":"2026-01-25T14:25:46Z","containment_time_utc":"2026-01-19T16:00:00Z","control_time_utc":"2026-01-21T00:00:00Z","fire_out_time_utc":"2026-01-24T18:00:00Z","fire_cause":"Human","fire_cause_general":"Debris and open burning","map_method":"Auto-generated for InFORM","source_dataset":"FFP","unique_fire_identifier":"2026-ARBUP-000236","irwin_id":"{4023E0F2-1ECE-43F6-89FA-D55E45F9005A}","global_id":"85457d9c-c148-4110-9ebc-066bec89519b"}},{"type":"Feature","geometry":{"type":"Polygon","coordinates":[[[-92.89099,36.00816],[-92.88926,36.00847],[-92.88801,36.00964],[-92.887,36.00858],[-92.88909,36.00537],[-92.89123,36.00463],[-92.89281,36.00505],[-92.89508,36.00588],[-92.89305,36.00748],[-92.89099,36.00816]]]},"properties":{"fire_id":"ufid:2026-ARBUP-000540","source_collection":"ytd","source_objectid":51927,"incident_name":"AR State Assist","mapped_acres":90.0,"mapped_acres_source":"poly_GISAcres","gis_acres":90.0,"auto_acres":47.48074738783304,"reported_acres":47.48,"percent_contained":null,"state":"AR","state_wfigs":"US-AR","county":"Searcy","discovery_time_utc":"2026-02-20T00:10:19Z","perimeter_time_utc":"2026-04-01T18:44:16Z","perimeter_edit_time_utc":null,"incident_modified_time_utc":"2026-02-20T00:19:55Z","containment_time_utc":null,"control_time_utc":null,"fire_out_time_utc":null,"fire_cause":"Human","fire_cause_general":"Debris and open burning","map_method":"Auto-generated for InFORM","source_dataset":"FFP","unique_fire_identifier":"2026-ARBUP-000540","irwin_id":"{E8152CD4-9BB9-4D56-BD17-AA3A208A4264}","global_id":"f1891b60-6a69-47c5-8cba-0a2be63f5272"}},{"type":"Feature","geometry":{"type":"Polygon","coordinates":[[[-93.16958,35.57026],[-93.16879,35.56884],[-93.16909,35.56827],[-93.16824,35.56787],[-93.16847,35.56718],[-93.16831,35.56656],[-93.16693,35.56509],[-93.16707,35.56459],[-93.16731,35.5647],[-93.16752,35.56443],[-93.16749,35.56361],[-93.16804,35.56331],[-93.16854,35.56322],[-93.16859,35.56297],[-93.17002,35.56342],[-93.16996,35.56377],[-93.17057,35.56448],[-93.17127,35.56647],[-93.17102,35.56795],[-93.17131,35.56841],[-93.17129,35.56894],[-93.17032,35.56954],[-93.16958,35.57026]]]},"properties":{"fire_id":"ufid:2026-AROZF-000901","source_collection":"ytd","source_objectid":52337,"incident_name":"Newton","mapped_acres":44.9,"mapped_acres_source":"poly_GISAcres","gis_acres":44.9,"auto_acres":44.980649581960115,"reported_acres":44.9,"percent_contained":null,"state":"AR","state_wfigs":"US-AR","county":"Pope","discovery_time_utc":"2026-03-14T19:09:00Z","perimeter_time_utc":"2026-04-14T18:40:18Z","perimeter_edit_time_utc":null,"incident_modified_time_utc":"2026-04-09T16:52:49Z","containment_time_utc":"2026-03-15T03:25:00Z","control_time_utc":"2026-04-09T16:45:00Z","fire_out_time_utc":"2026-04-09T16:45:00Z","fire_cause":"Undetermined","fire_cause_general":"Undetermined","map_method":"Auto-generated for InFORM","source_dataset":"FFP","unique_fire_identifier":"2026-AROZF-000901","irwin_id":"{1382D4D6-A4FB-4C1F-B7EC-EBBA1AEB538C}","global_id":"6df568e5-4505-4a51-afdb-0ed175934013"}},{"type":"Feature","geometry":{"type":"Polygon","coordinates":[[[-93.16295,35.57078],[-93.16233,35.57117],[-93.16173,35.57097],[-93.16107,35.57097],[-93.16099,35.57078],[-93.16046,35.57042],[-93.15947,35.57066],[-93.15838,35.56929],[-93.15834,35.56871],[-93.15777,35.56846],[-93.15763,35.56796],[-93.15608,35.5676],[-93.15547,35.56724],[-93.15527,35.56691],[-93.15503,35.56688],[-93.15505,35.56621],[-93.15492,35.56582],[-93.15555,35.56527],[-93.15637,35.56486],[-93.15762,35.56399],[-93.16081,35.56248],[-93.16282,35.56226],[-93.16566,35.5622],[-93.16747,35.56233],[-93.16955,35.5632],[-93.17041,35.56364],[-93.17066,35.56391],[-93.17064,35.56405],[-93.1704,35.5641],[-93.17058,35.5647],[-93.17048,35.56492],[-93.16929,35.56599],[-93.16884,35.5667],[-93.16881,35.56702],[-93.16829,35.56757],[-93.16825,35.56782],[-93.16856,35.56794],[-93.16807,35.56876],[-93.16753,35.56919],[-93.16722,35.56927],[-93.16679,35.56984],[-93.16587,35.5699],[-93.16522,35.57033],[-93.16491,35.57047],[-93.1647,35.57039],[-93.16377,35.57089],[-93.16295,35.57078]]]},"properties":{"fire_id":"ufid:2026-AROZF-001100","source_collection":"ytd","source_objectid":52338,"incident_name":"Newton 2","mapped_acres":235.57,"mapped_acres_source":"poly_GISAcres","gis_acres":235.57,"auto_acres":235.57326312600415,"reported_acres":235.57,"percent_contained":null,"state":"AR","state_wfigs":"US-AR","county":"Pope","discovery_time_utc":"2026-03-22T23:40:00Z","perimeter_time_utc":"2026-04-14T18:39:02Z","perimeter_edit_time_utc":null,"incident_modified_time_utc":"2026-04-06T16:19:39Z","containment_time_utc":"2026-03-23T21:15:00Z","control_time_utc":"2026-04-06T16:10:00Z","fire_out_time_utc":"2026-04-06T16:10:00Z","fire_cause":"Human","fire_cause_general":"Undetermined","map_method":"Auto-generated for InFORM","source_dataset":"FFP","unique_fire_identifier":"2026-AROZF-001100","irwin_id":"{E53254B0-6197-45EC-8E52-8F08D8791452}","global_id":"13cf95ee-fd9e-490e-8542-a549d9febbab"}},{"type":"Feature","geometry":{"type":"MultiPolygon","coordinates":[[[[-92.96375,35.63839],[-92.96375,35.63836],[-92.96376,35.63839],[-92.96375,35.63839]]],[[[-92.96779,35.63639],[-92.96763,35.63698],[-92.96772,35.63717],[-92.96804,35.63725],[-92.96847,35.63685],[-92.96855,35.63704],[-92.96882,35.63696],[-92.96886,35.63717],[-92.96867,35.6378],[-92.96779,35.63862],[-92.96794,35.63866],[-92.96794,35.6397],[-92.9678,35.64007],[-92.96789,35.64101],[-92.96662,35.64203],[-92.96558,35.64193],[-92.9651,35.64207],[-92.96414,35.643],[-92.96341,35.64272],[-92.96303,35.64281],[-92.96264,35.64233],[-92.96269,35.64192],[-92.96259,35.6417],[-92.96246,35.64168],[-92.96255,35.64142],[-92.96245,35.64102],[-92.96257,35.64052],[-92.96322,35.64019],[-92.96351,35.63977],[-92.96331,35.63968],[-92.96327,35.63949],[-92.96366,35.63922],[-92.96364,35.63896],[-92.96322,35.63889],[-92.96321,35.63869],[-92.9635,35.6384],[-92.96395,35.63841],[-92.96413,35.63815],[-92.96393,35.63787],[-92.96408,35.63751],[-92.96531,35.63707],[-92.96529,35.63691],[-92.96553,35.63666],[-92.96607,35.63654],[-92.9667,35.63603],[-92.96703,35.63598],[-92.96727,35.63638],[-92.96779,35.63639]]],[[[-92.96343,35.63985],[-92.96344,35.63983],[-92.96344,35.63984],[-92.96343,35.63985]]],[[[-92.96429,35.64294],[-92.96429,35.64297],[-92.96427,35.64297],[-92.96429,35.64294]]]]},"properties":{"fire_id":"ufid:2026-AROZF-000910","source_collection":"ytd","source_objectid":52339,"incident_name":"North Fork","mapped_acres":65.17,"mapped_acres_source":"poly_GISAcres","gis_acres":65.17,"auto_acres":65.17642160150373,"reported_acres":65.17,"percent_contained":null,"state":"AR","state_wfigs":"US-AR","county":"Pope","discovery_time_utc":"2026-03-15T17:30:22Z","perimeter_time_utc":"2026-04-14T18:47:30Z","perimeter_edit_time_utc":null,"incident_modified_time_utc":"2026-04-06T20:12:59Z","containment_time_utc":"2026-03-15T18:52:00Z","control_time_utc":"2026-04-06T20:00:00Z","fire_out_time_utc":"2026-04-06T20:00:00Z","fire_cause":"Undetermined","fire_cause_general":"Undetermined","map_method":"Auto-generated for InFORM","source_dataset":"FFP","unique_fire_identifier":"2026-AROZF-000910","irwin_id":"{24DDCC97-F05C-4C42-ADFC-3BA4ABCB2D7E}","global_id":"fbb73966-c180-4b51-8829-90466bc2fdc5"}},{"type":"Feature","geometry":{"type":"Polygon","coordinates":[[[-92.87323,35.64177],[-92.87279,35.64197],[-92.87279,35.64169],[-92.87234,35.64096],[-92.87302,35.64022],[-92.873,35.64007],[-92.87397,35.63929],[-92.87481,35.63919],[-92.87517,35.63934],[-92.87545,35.63931],[-92.87599,35.63958],[-92.87607,35.63985],[-92.87676,35.64038],[-92.87664,35.64067],[-92.87621,35.64084],[-92.87487,35.641],[-92.8741,35.64129],[-92.87381,35.64184],[-92.87335,35.64187],[-92.87323,35.64177]]]},"properties":{"fire_id":"ufid:2026-AROZF-001022","source_collection":"ytd","source_objectid":52340,"incident_name":"NoGo","mapped_acres":17.1,"mapped_acres_source":"poly_GISAcres","gis_acres":17.1,"auto_acres":16.595914270589105,"reported_acres":17.1,"percent_contained":null,"state":"AR","state_wfigs":"US-AR","county":"Pope","discovery_time_utc":"2026-03-20T02:30:51Z","perimeter_time_utc":"2026-04-14T18:44:20Z","perimeter_edit_time_utc":null,"incident_modified_time_utc":"2026-04-06T20:11:43Z","containment_time_utc":"2026-03-20T05:37:00Z","control_time_utc":"2026-04-06T20:00:00Z","fire_out_time_utc":"2026-04-06T20:00:00Z","fire_cause":"Undetermined","fire_cause_general":"Undetermined","map_method":"Auto-generated for InFORM","source_dataset":"FFP","unique_fire_identifier":"2026-AROZF-001022","irwin_id":"{7C98CF40-292E-45BB-8E6C-50CFB083A3AF}","global_id":"fe758d77-3e44-446d-bb93-87863ee51837"}},{"type":"Feature","geometry":{"type":"Polygon","coordinates":[[[-92.62756,35.57044],[-92.6271,35.57546],[-92.62893,35.58226],[-92.62779,35.59296],[-92.62378,35.59761],[-92.61829,35.59715],[-92.61863,35.59454],[-92.62092,35.59277],[-92.61921,35.59212],[-92.61406,35.5897],[-92.60994,35.58756],[-92.61245,35.58226],[-92.61142,35.57965],[-92.61978,35.57872],[-92.62069,35.57072],[-92.62756,35.57044]]]},"properties":{"fire_id":"ufid:2026-ARARS-700073","source_collection":"ytd","source_objectid":52397,"incident_name":"Lo Gap Fire","mapped_acres":759.7364067232069,"mapped_acres_source":"poly_Acres_AutoCalc_fallback","gis_acres":null,"auto_acres":759.7364067232069,"reported_acres":760.0,"percent_contained":null,"state":"AR","state_wfigs":"US-AR","county":"Van Buren","discovery_time_utc":"2026-03-23T16:05:11Z","perimeter_time_utc":"2026-06-11T16:49:40Z","perimeter_edit_time_utc":null,"incident_modified_time_utc":"2026-06-30T18:40:51Z","containment_time_utc":"2026-03-25T17:00:00Z","control_time_utc":null,"fire_out_time_utc":"2026-03-25T17:00:00Z","fire_cause":"Human","fire_cause_general":"Debris and open burning","map_method":"Mixed Methods","source_dataset":"Decertified","unique_fire_identifier":"2026-ARARS-700073","irwin_id":"{267F6C93-74CA-41BC-B2FE-6BD5DE4E6191}","global_id":"7e6384a7-b793-4cfb-9346-e4351c86a71d"}},{"type":"Feature","geometry":{"type":"Polygon","coordinates":[[[-92.80317,35.62444],[-92.80402,35.62474],[-92.804,35.62563],[-92.80333,35.62568],[-92.80261,35.62556],[-92.80232,35.62478],[-92.80307,35.62422],[-92.80317,35.62444]]]},"properties":{"fire_id":"ufid:2026-ARARS-700069","source_collection":"ytd","source_objectid":52411,"incident_name":"Immanuel rd W.L.","mapped_acres":4.422291190474369,"mapped_acres_source":"poly_Acres_AutoCalc_fallback","gis_acres":null,"auto_acres":4.422291190474369,"reported_acres":4.0,"percent_contained":null,"state":"AR","state_wfigs":"US-AR","county":"Van Buren","discovery_time_utc":"2026-03-21T20:00:33Z","perimeter_time_utc":"2026-04-17T19:16:47Z","perimeter_edit_time_utc":null,"incident_modified_time_utc":"2026-04-17T17:01:05Z","containment_time_utc":null,"control_time_utc":null,"fire_out_time_utc":"2026-03-21T22:40:00Z","fire_cause":"Human","fire_cause_general":"Debris and open burning","map_method":"Mixed Methods","source_dataset":"FFP","unique_fire_identifier":"2026-ARARS-700069","irwin_id":"{37D94A8C-4FE0-4269-B05C-48A7D476F744}","global_id":"8be8a20a-6fd1-49cc-9c13-b49902040513"}},{"type":"Feature","geometry":{"type":"Polygon","coordinates":[[[-92.70704,35.52733],[-92.70653,35.53591],[-92.70597,35.54209],[-92.70323,35.54294],[-92.69919,35.54134],[-92.69959,35.53374],[-92.69936,35.53113],[-92.70055,35.52981],[-92.70384,35.52923],[-92.70704,35.52733]]]},"properties":{"fire_id":"ufid:2026-ARARS-000001","source_collection":"ytd","source_objectid":52817,"incident_name":"Pre scribe fire burn","mapped_acres":231.55442633459123,"mapped_acres_source":"poly_Acres_AutoCalc_fallback","gis_acres":null,"auto_acres":231.55442633459123,"reported_acres":100.0,"percent_contained":null,"state":"AR","state_wfigs":"US-AR","county":"Van Buren","discovery_time_utc":"2026-03-22T19:26:15Z","perimeter_time_utc":null,"perimeter_edit_time_utc":"2026-04-28T13:48:19Z","incident_modified_time_utc":"2026-04-29T14:12:39Z","containment_time_utc":null,"control_time_utc":null,"fire_out_time_utc":null,"fire_cause":null,"fire_cause_general":null,"map_method":"Mixed Methods","source_dataset":"2026 NIFS","unique_fire_identifier":"2026-ARARS-000001","irwin_id":"{A7B61B74-357D-473D-9991-4AEEF992D703}","global_id":"8eb0d057-b58d-4531-9721-13761ac49f01"}},{"type":"Feature","geometry":{"type":"Polygon","coordinates":[[[-92.58016,35.48754],[-92.57981,35.48756],[-92.57969,35.48714],[-92.57973,35.48566],[-92.57962,35.48458],[-92.57938,35.48407],[-92.57931,35.48348],[-92.5799,35.48292],[-92.57994,35.48385],[-92.57978,35.48425],[-92.58078,35.48441],[-92.58155,35.48491],[-92.58183,35.48549],[-92.58177,35.48581],[-92.58163,35.48594],[-92.58146,35.48589],[-92.58148,35.48604],[-92.58176,35.48628],[-92.58196,35.48698],[-92.5817,35.48728],[-92.58064,35.48773],[-92.58016,35.48754]]]},"properties":{"fire_id":"ufid:2026-ARARS-700050","source_collection":"ytd","source_objectid":52818,"incident_name":"Flint Rd","mapped_acres":16.940569789256323,"mapped_acres_source":"poly_Acres_AutoCalc_fallback","gis_acres":null,"auto_acres":16.940569789256323,"reported_acres":17.0,"percent_contained":null,"state":"AR","state_wfigs":"US-AR","county":"Van Buren","discovery_time_utc":"2026-03-14T19:40:07Z","perimeter_time_utc":null,"perimeter_edit_time_utc":"2026-04-28T13:51:06Z","incident_modified_time_utc":"2026-04-28T13:51:13Z","containment_time_utc":null,"control_time_utc":null,"fire_out_time_utc":"2026-03-15T01:31:00Z","fire_cause":"Human","fire_cause_general":"Arson","map_method":"Mixed Methods","source_dataset":"2026 NIFS","unique_fire_identifier":"2026-ARARS-700050","irwin_id":"{849D5852-84FE-4688-8C92-1A4CCBD57952}","global_id":"b52bfdf2-72ef-4149-950c-4af414994f9d"}},{"type":"Feature","geometry":{"type":"Polygon","coordinates":[[[-92.39735,35.62897],[-92.39734,35.62793],[-92.39756,35.62775],[-92.39749,35.62753],[-92.39819,35.6272],[-92.39811,35.62701],[-92.39831,35.62578],[-92.39908,35.62591],[-92.39922,35.62616],[-92.3992,35.62668],[-92.39942,35.62773],[-92.40004,35.62799],[-92.40014,35.62826],[-92.39735,35.62897]]]},"properties":{"fire_id":"ufid:2026-ARARS-700051","source_collection":"ytd","source_objectid":52819,"incident_name":"Oakland rd","mapped_acres":11.199045130067278,"mapped_acres_source":"poly_Acres_AutoCalc_fallback","gis_acres":null,"auto_acres":11.199045130067278,"reported_acres":12.0,"percent_contained":null,"state":"AR","state_wfigs":"US-AR","county":"Van Buren","discovery_time_utc":"2026-03-14T23:12:37Z","perimeter_time_utc":null,"perimeter_edit_time_utc":"2026-04-28T13:55:21Z","incident_modified_time_utc":"2026-04-24T17:47:49Z","containment_time_utc":null,"control_time_utc":null,"fire_out_time_utc":null,"fire_cause":null,"fire_cause_general":null,"map_method":"Mixed Methods","source_dataset":"2026 NIFS","unique_fire_identifier":"2026-ARARS-700051","irwin_id":"{4A302793-A927-4277-90FE-7212D8171D1C}","global_id":"cdaa5d24-77ea-4c90-b21a-d4e79a75ef10"}},{"type":"Feature","geometry":{"type":"Polygon","coordinates":[[[-92.47986,35.66837],[-92.47846,35.66921],[-92.47817,35.66905],[-92.47797,35.66853],[-92.47852,35.66786],[-92.47917,35.66755],[-92.47986,35.66837]]]},"properties":{"fire_id":"ufid:2026-ARARS-700098","source_collection":"ytd","source_objectid":52821,"incident_name":"Road side park hwy 65 N","mapped_acres":4.259588292409646,"mapped_acres_source":"poly_Acres_AutoCalc_fallback","gis_acres":null,"auto_acres":4.259588292409646,"reported_acres":5.0,"percent_contained":null,"state":"AR","state_wfigs":"US-AR","county":"Van Buren","discovery_time_utc":"2026-04-06T18:15:07Z","perimeter_time_utc":null,"perimeter_edit_time_utc":"2026-04-28T13:52:32Z","incident_modified_time_utc":"2026-04-24T18:19:11Z","containment_time_utc":null,"control_time_utc":null,"fire_out_time_utc":null,"fire_cause":null,"fire_cause_general":null,"map_method":"Mixed Methods","source_dataset":"2026 NIFS","unique_fire_identifier":"2026-ARARS-700098","irwin_id":"{7DABD1C1-54B8-460C-BC1E-95974D699845}","global_id":"572db0d7-13e7-4b2d-868b-0cf665adf38f"}},{"type":"Feature","geometry":{"type":"Polygon","coordinates":[[[-92.59108,35.72413],[-92.59087,35.72452],[-92.59082,35.72424],[-92.59098,35.72387],[-92.59194,35.72377],[-92.59265,35.72402],[-92.5931,35.72392],[-92.59428,35.72266],[-92.59455,35.72262],[-92.59507,35.72298],[-92.59501,35.72319],[-92.59433,35.72365],[-92.59373,35.72434],[-92.59411,35.72533],[-92.5938,35.72553],[-92.59329,35.72562],[-92.59279,35.72541],[-92.59176,35.72589],[-92.59092,35.72526],[-92.59077,35.72471],[-92.59108,35.72413]]]},"properties":{"fire_id":"ufid:2026-ARARS-700087","source_collection":"ytd","source_objectid":52822,"incident_name":"Hargis Rd Fire","mapped_acres":16.241942130213655,"mapped_acres_source":"poly_Acres_AutoCalc_fallback","gis_acres":null,"auto_acres":16.241942130213655,"reported_acres":16.0,"percent_contained":null,"state":"AR","state_wfigs":"US-AR","county":"Van Buren","discovery_time_utc":"2026-03-24T21:00:13Z","perimeter_time_utc":null,"perimeter_edit_time_utc":"2026-04-28T13:54:17Z","incident_modified_time_utc":"2026-04-24T18:11:12Z","containment_time_utc":null,"control_time_utc":null,"fire_out_time_utc":null,"fire_cause":null,"fire_cause_general":null,"map_method":"Mixed Methods","source_dataset":"2026 NIFS","unique_fire_identifier":"2026-ARARS-700087","irwin_id":"{EEE0C4E6-FDB2-49A9-A89A-0CAC91740FED}","global_id":"008fd4a7-583c-4fbe-8697-302acddefd9c"}},{"type":"Feature","geometry":{"type":"Polygon","coordinates":[[[-92.42784,35.57033],[-92.42807,35.57009],[-92.42812,35.57024],[-92.42773,35.57147],[-92.42739,35.57149],[-92.42727,35.57122],[-92.42748,35.57081],[-92.42743,35.57056],[-92.42759,35.57029],[-92.42794,35.57021],[-92.42784,35.57033]]]},"properties":{"fire_id":"ufid:2026-ARARS-700091","source_collection":"ytd","source_objectid":52823,"incident_name":"G.F. Lake fire","mapped_acres":1.6324270535230276,"mapped_acres_source":"poly_Acres_AutoCalc_fallback","gis_acres":null,"auto_acres":1.6324270535230276,"reported_acres":2.0,"percent_contained":null,"state":"AR","state_wfigs":"US-AR","county":"Van Buren","discovery_time_utc":"2026-03-26T19:49:03Z","perimeter_time_utc":null,"perimeter_edit_time_utc":"2026-04-28T13:56:20Z","incident_modified_time_utc":"2026-04-29T14:13:53Z","containment_time_utc":null,"control_time_utc":null,"fire_out_time_utc":null,"fire_cause":null,"fire_cause_general":null,"map_method":"Mixed Methods","source_dataset":"2026 NIFS","unique_fire_identifier":"2026-ARARS-700091","irwin_id":"{85F560E2-1C05-4A9F-81F9-9474C05DD6CC}","global_id":"13d56d5e-04e2-4f06-8a1a-34c54f72d34d"}},{"type":"Feature","geometry":{"type":"MultiPolygon","coordinates":[[[[-93.3767,35.18507],[-93.37701,35.18539],[-93.37842,35.18496],[-93.37949,35.18584],[-93.38017,35.18566],[-93.38058,35.18575],[-93.38066,35.18554],[-93.38085,35.18549],[-93.38131,35.18555],[-93.3816,35.18592],[-93.38145,35.18616],[-93.38155,35.18641],[-93.38146,35.18674],[-93.38182,35.18679],[-93.38211,35.18749],[-93.38206,35.18769],[-93.38173,35.18785],[-93.3811,35.18755],[-93.38073,35.18768],[-93.38044,35.18751],[-93.38044,35.18728],[-93.38004,35.18719],[-93.37981,35.18759],[-93.37936,35.18774],[-93.37934,35.18707],[-93.37914,35.18686],[-93.37878,35.18683],[-93.37887,35.18642],[-93.37867,35.18623],[-93.3782,35.18631],[-93.37786,35.18669],[-93.37744,35.18676],[-93.37732,35.18707],[-93.37694,35.18733],[-93.37637,35.18747],[-93.37618,35.18735],[-93.37614,35.18696],[-93.3759,35.1868],[-93.37575,35.18642],[-93.37575,35.1855],[-93.37553,35.18543],[-93.37542,35.18523],[-93.37545,35.18507],[-93.37581,35.18493],[-93.37629,35.18495],[-93.3767,35.18507]],[[-93.376255,35.185],[-93.376284,35.185005],[-93.37626,35.18499],[-93.376255,35.185]]],[[[-93.37936,35.18774],[-93.37937,35.18776],[-93.37934,35.18776],[-93.37936,35.18774]]],[[[-93.37939,35.18776],[-93.37938,35.18778],[-93.37937,35.18776],[-93.37939,35.18776]]],[[[-93.37938,35.18778],[-93.3794,35.18779],[-93.37938,35.1878],[-93.37938,35.18778]]]]},"properties":{"fire_id":"ufid:2026-AROZF-001131","source_collection":"ytd","source_objectid":54009,"incident_name":"Slo Fork","mapped_acres":27.0,"mapped_acres_source":"poly_GISAcres","gis_acres":27.0,"auto_acres":27.074873822426174,"reported_acres":27.0,"percent_contained":null,"state":"AR","state_wfigs":"US-AR","county":"Yell","discovery_time_utc":"2026-03-23T19:47:23Z","perimeter_time_utc":"2026-05-20T21:17:37Z","perimeter_edit_time_utc":null,"incident_modified_time_utc":"2026-04-16T17:55:04Z","containment_time_utc":"2026-03-24T00:20:00Z","control_time_utc":"2026-04-16T17:45:00Z","fire_out_time_utc":"2026-04-16T17:50:00Z","fire_cause":"Human","fire_cause_general":"Undetermined","map_method":"Auto-generated for InFORM","source_dataset":"FFP","unique_fire_identifier":"2026-AROZF-001131","irwin_id":"{826FAA44-7A7D-47AD-81F8-60812D74B609}","global_id":"34675eaa-948a-455b-8a01-7900fc716f17"}},{"type":"Feature","geometry":{"type":"Polygon","coordinates":[[[-94.3696,36.09821],[-94.36807,36.09664],[-94.36864,36.0963],[-94.36877,36.09594],[-94.3692,36.09574],[-94.36968,36.09575],[-94.37029,36.09544],[-94.37102,36.09612],[-94.37148,36.09677],[-94.37176,36.0975],[-94.37159,36.09789],[-94.37131,36.09813],[-94.37041,36.09843],[-94.3696,36.09821]]]},"properties":{"fire_id":"ufid:2026-AROZF-001095","source_collection":"ytd","source_objectid":54262,"incident_name":"Lake Weddington","mapped_acres":5.0,"mapped_acres_source":"poly_GISAcres","gis_acres":5.0,"auto_acres":17.112016326491723,"reported_acres":17.11,"percent_contained":null,"state":"AR","state_wfigs":"US-AR","county":"Washington","discovery_time_utc":"2026-03-22T21:34:35Z","perimeter_time_utc":"2026-05-28T18:08:40Z","perimeter_edit_time_utc":null,"incident_modified_time_utc":"2026-04-01T13:35:43Z","containment_time_utc":"2026-03-23T01:35:00Z","control_time_utc":"2026-03-31T20:00:00Z","fire_out_time_utc":"2026-03-31T20:00:00Z","fire_cause":"Human","fire_cause_general":"Undetermined","map_method":"Auto-generated for InFORM","source_dataset":"FFP","unique_fire_identifier":"2026-AROZF-001095","irwin_id":"{E12C2631-1DCC-46D6-A674-5D5FF02E0102}","global_id":"5659b587-4ec1-4758-856b-3e66836a3531"}},{"type":"Feature","geometry":{"type":"Polygon","coordinates":[[[-93.35005,35.69401],[-93.34798,35.69065],[-93.35022,35.6905],[-93.35109,35.69349],[-93.35005,35.69401]]]},"properties":{"fire_id":"ufid:2026-AROZF-001015","source_collection":"ytd","source_objectid":54362,"incident_name":"Lick Creek","mapped_acres":14.0,"mapped_acres_source":"poly_GISAcres","gis_acres":14.0,"auto_acres":14.152391037293604,"reported_acres":14.0,"percent_contained":null,"state":"AR","state_wfigs":"US-AR","county":"Johnson","discovery_time_utc":"2026-03-18T19:00:00Z","perimeter_time_utc":"2026-05-29T20:10:56Z","perimeter_edit_time_utc":null,"incident_modified_time_utc":"2026-05-29T20:09:58Z","containment_time_utc":"2026-03-18T22:00:00Z","control_time_utc":"2026-03-22T15:30:00Z","fire_out_time_utc":"2026-03-31T17:00:00Z","fire_cause":"Human","fire_cause_general":"Debris and open burning","map_method":"Auto-generated for InFORM","source_dataset":"FFP","unique_fire_identifier":"2026-AROZF-001015","irwin_id":"{F5EC0B19-F729-4700-880A-F1C655997EC4}","global_id":"aadb4973-58d1-47d6-a6e8-b58156149a2b"}},{"type":"Feature","geometry":{"type":"Polygon","coordinates":[[[-93.48055,35.61081],[-93.47867,35.60867],[-93.48003,35.60627],[-93.48173,35.60428],[-93.48308,35.60349],[-93.4835,35.60235],[-93.48444,35.60479],[-93.48332,35.60719],[-93.48055,35.61081]]]},"properties":{"fire_id":"ufid:2026-AROZF-001034","source_collection":"ytd","source_objectid":54471,"incident_name":"Apple","mapped_acres":50.0,"mapped_acres_source":"poly_GISAcres","gis_acres":50.0,"auto_acres":52.16227973482319,"reported_acres":50.0,"percent_contained":null,"state":"AR","state_wfigs":"US-AR","county":"Johnson","discovery_time_utc":"2026-03-20T17:58:06Z","perimeter_time_utc":"2026-06-01T20:53:54Z","perimeter_edit_time_utc":null,"incident_modified_time_utc":"2026-04-20T18:22:57Z","containment_time_utc":"2026-03-21T19:35:00Z","control_time_utc":"2026-03-30T20:30:00Z","fire_out_time_utc":"2026-03-31T17:00:00Z","fire_cause":"Human","fire_cause_general":"Debris and open burning","map_method":"Auto-generated for InFORM","source_dataset":"FFP","unique_fire_identifier":"2026-AROZF-001034","irwin_id":"{6F6FAC18-BAB6-4A79-8D1F-B22AEA8F360A}","global_id":"c15528bb-931f-4ea3-9803-c3b174ad5092"}},{"type":"Feature","geometry":{"type":"MultiPolygon","coordinates":[[[[-93.69254,35.19261],[-93.69251,35.19262],[-93.69251,35.19261],[-93.69254,35.19261]]],[[[-93.69511,35.19024],[-93.6951,35.19026],[-93.69509,35.19025],[-93.69511,35.19024]]],[[[-93.69178,35.18655],[-93.69175,35.18657],[-93.69177,35.18655],[-93.69178,35.18655]]],[[[-93.68801,35.18574],[-93.68931,35.18643],[-93.68991,35.18705],[-93.69021,35.18706],[-93.69054,35.18671],[-93.6908,35.18674],[-93.69082,35.1866],[-93.69088,35.18683],[-93.691,35.18686],[-93.69149,35.1865],[-93.69175,35.18661],[-93.69221,35.18644],[-93.69224,35.18664],[-93.69261,35.18669],[-93.69305,35.18655],[-93.69314,35.18675],[-93.69298,35.18687],[-93.69316,35.18715],[-93.69298,35.18746],[-93.69308,35.18752],[-93.69283,35.18772],[-93.69265,35.18824],[-93.6928,35.18839],[-93.69308,35.18835],[-93.69313,35.18856],[-93.69295,35.1887],[-93.69324,35.18876],[-93.69329,35.18899],[-93.69421,35.18907],[-93.69415,35.18917],[-93.69452,35.18952],[-93.69491,35.18977],[-93.69514,35.18977],[-93.69509,35.19025],[-93.69477,35.19029],[-93.69452,35.19063],[-93.69408,35.1906],[-93.69402,35.19084],[-93.69372,35.1908],[-93.69352,35.19102],[-93.69327,35.19204],[-93.69249,35.19248],[-93.6925,35.19276],[-93.69172,35.19262],[-93.69161,35.19233],[-93.69138,35.19217],[-93.69129,35.19231],[-93.69101,35.19233],[-93.69085,35.19209],[-93.69096,35.19199],[-93.69059,35.19182],[-93.69024,35.19144],[-93.68957,35.19137],[-93.68935,35.19122],[-93.68937,35.19104],[-93.68913,35.19076],[-93.68843,35.19043],[-93.68829,35.19009],[-93.68782,35.18974],[-93.68807,35.18943],[-93.68793,35.18931],[-93.6874,35.18929],[-93.68715,35.1891],[-93.68716,35.18868],[-93.68782,35.18822],[-93.68793,35.18801],[-93.68769,35.18789],[-93.68772,35.1878],[-93.68806,35.18752],[-93.68845,35.18749],[-93.68862,35.18729],[-93.6886,35.18712],[-93.68823,35.18701],[-93.68799,35.18727],[-93.68774,35.18722],[-93.68757,35.18697],[-93.68758,35.18671],[-93.68726,35.18652],[-93.68718,35.18626],[-93.68728,35.18602],[-93.68772,35.18605],[-93.68801,35.18574]]]]},"properties":{"fire_id":"ufid:2026-AROZF-001256","source_collection":"ytd","source_objectid":54727,"incident_name":"BALL SPRING","mapped_acres":76.0,"mapped_acres_source":"poly_GISAcres","gis_acres":76.0,"auto_acres":75.97472424043663,"reported_acres":76.0,"percent_contained":null,"state":"AR","state_wfigs":"US-AR","county":"Logan","discovery_time_utc":"2026-04-01T20:08:18Z","perimeter_time_utc":"2026-06-08T19:20:10Z","perimeter_edit_time_utc":null,"incident_modified_time_utc":"2026-04-16T17:54:53Z","containment_time_utc":"2026-04-02T20:53:00Z","control_time_utc":"2026-04-16T17:45:00Z","fire_out_time_utc":"2026-04-16T17:50:00Z","fire_cause":"Undetermined","fire_cause_general":"Undetermined","map_method":"Auto-generated for InFORM","source_dataset":"FFP","unique_fire_identifier":"2026-AROZF-001256","irwin_id":"{D3D64D06-7937-4C15-ADD4-A05C8A53A294}","global_id":"e2bdc386-6260-41cd-a6f5-04dfb815281b"}},{"type":"Feature","geometry":{"type":"MultiPolygon","coordinates":[[[[-92.79536,35.84952],[-92.79536,35.84954],[-92.79534,35.84952],[-92.79536,35.84952]]],[[[-92.79519,35.85026],[-92.79519,35.85027],[-92.79518,35.85026],[-92.79519,35.85026]]],[[[-92.79517,35.85026],[-92.79518,35.85026],[-92.79514,35.85027],[-92.79517,35.85026]]],[[[-92.79524,35.85026],[-92.79524,35.85032],[-92.79518,35.85032],[-92.79524,35.85026]]],[[[-92.79516,35.85029],[-92.79517,35.85029],[-92.79516,35.8503],[-92.79516,35.85029]]],[[[-92.79517,35.8503],[-92.79518,35.8503],[-92.79518,35.85031],[-92.79517,35.8503]]],[[[-92.79517,35.8503],[-92.79516,35.85032],[-92.79516,35.85031],[-92.79517,35.8503]]],[[[-92.79174,35.86086],[-92.79174,35.86085],[-92.79176,35.86082],[-92.79174,35.86086]]],[[[-92.7918,35.8609],[-92.79177,35.8609],[-92.79174,35.86086],[-92.7918,35.8609]]],[[[-92.79174,35.86088],[-92.79177,35.8609],[-92.79174,35.86091],[-92.79174,35.86088]]],[[[-92.79174,35.86091],[-92.79174,35.86092],[-92.79172,35.86091],[-92.79174,35.86091]]],[[[-92.791344,35.862117],[-92.79133,35.8621],[-92.79137,35.8621],[-92.791344,35.862117]]],[[[-92.79137,35.86212],[-92.79135,35.86213],[-92.79135,35.86212],[-92.79137,35.86212]]],[[[-92.79134,35.86216],[-92.79135,35.86213],[-92.79137,35.86215],[-92.79134,35.86216]]],[[[-92.79157,35.86234],[-92.79155,35.86242],[-92.7915,35.86238],[-92.79157,35.86234]]],[[[-92.79252,35.86237],[-92.79252,35.86243],[-92.7925,35.86244],[-92.79252,35.86237]]],[[[-92.7925,35.86245],[-92.79251,35.86244],[-92.79253,35.86244],[-92.7925,35.86245]]],[[[-92.79318,35.86303],[-92.79315,35.86306],[-92.79315,35.86303],[-92.79318,35.86303]]],[[[-92.79313,35.86306],[-92.79311,35.86308],[-92.79307,35.86308],[-92.79313,35.86306]]],[[[-92.79214,35.86323],[-92.79205,35.86339],[-92.79201,35.8633],[-92.79214,35.86323]]],[[[-92.79202,35.86335],[-92.79197,35.86343],[-92.79196,35.86341],[-92.79202,35.86335]]],[[[-92.792,35.86339],[-92.79205,35.8634],[-92.79203,35.86341],[-92.792,35.86339]]],[[[-92.79205,35.8634],[-92.79206,35.86348],[-92.79196,35.86345],[-92.79205,35.8634]]],[[[-92.7915,35.86361],[-92.79144,35.86373],[-92.79133,35.8637],[-92.7915,35.86361]]],[[[-92.79123,35.86034],[-92.79121,35.86032],[-92.79123,35.86024],[-92.79123,35.86034]]],[[[-92.79117,35.86193],[-92.79112,35.86195],[-92.79109,35.86192],[-92.79117,35.86193]]],[[[-92.79118,35.86194],[-92.79132,35.86213],[-92.791293,35.862142],[-92.79145,35.86245],[-92.79145,35.86232],[-92.79146,35.86241],[-92.79162,35.86245],[-92.79167,35.86235],[-92.79192,35.8625],[-92.79191,35.86223],[-92.79221,35.86237],[-92.79224,35.86228],[-92.79262,35.86254],[-92.79272,35.86242],[-92.79313,35.8625],[-92.79301,35.86277],[-92.79315,35.86303],[-92.7926,35.86309],[-92.7924,35.86331],[-92.79211,35.86315],[-92.79197,35.86322],[-92.79192,35.86355],[-92.79169,35.86365],[-92.791174,35.863384],[-92.79122,35.86355],[-92.791166,35.86338],[-92.79093,35.86339],[-92.79082,35.8632],[-92.79071,35.86335],[-92.79034,35.86328],[-92.79049,35.86351],[-92.79029,35.86381],[-92.7904,35.8638],[-92.79029,35.86397],[-92.79034,35.86421],[-92.79001,35.86444],[-92.79016,35.86441],[-92.79014,35.86474],[-92.78988,35.86494],[-92.78956,35.86493],[-92.78999,35.86512],[-92.78988,35.86523],[-92.78995,35.86529],[-92.788776,35.866296],[-92.78853,35.86664],[-92.78753,35.86698],[-92.78727,35.86693],[-92.78694,35.86722],[-92.78702,35.86723],[-92.78682,35.86751],[-92.78722,35.8685],[-92.78721,35.86875],[-92.78732,35.86876],[-92.78733,35.86919],[-92.78758,35.86948],[-92.78748,35.86956],[-92.78755,35.8697],[-92.78626,35.87085],[-92.78639,35.8713],[-92.7862,35.8714],[-92.78634,35.87184],[-92.78578,35.87192],[-92.7856,35.87186],[-92.78562,35.87176],[-92.78514,35.87179],[-92.7847,35.87164],[-92.78475,35.87174],[-92.784561,35.871941],[-92.784587,35.871967],[-92.7846,35.87196],[-92.78459,35.872],[-92.78418,35.87196],[-92.78391,35.87215],[-92.78414,35.87222],[-92.78369,35.87242],[-92.78382,35.87254],[-92.78369,35.87262],[-92.78372,35.87281],[-92.78323,35.8726],[-92.78246,35.87303],[-92.78201,35.87291],[-92.78149,35.87295],[-92.78128,35.87257],[-92.7809,35.87263],[-92.78047,35.87245],[-92.77986,35.87178],[-92.77953,35.8712],[-92.7787,35.87056],[-92.77824,35.87042],[-92.77701,35.87075],[-92.77637,35.8711],[-92.77491,35.87101],[-92.77381,35.8711],[-92.77315,35.87158],[-92.77291,35.87133],[-92.77284,35.87097],[-92.77249,35.87043],[-92.77214,35.87013],[-92.77157,35.8705],[-92.77064,35.87069],[-92.76991,35.87028],[-92.76904,35.87013],[-92.76797,35.86948],[-92.76651,35.86925],[-92.76584,35.86941],[-92.76479,35.86926],[-92.76464,35.8687],[-92.76424,35.86826],[-92.7639,35.86762],[-92.76304,35.86741],[-92.76239,35.86742],[-92.76175,35.86764],[-92.76136,35.86759],[-92.76097,35.8671],[-92.76077,35.86661],[-92.76036,35.86627],[-92.76016,35.86586],[-92.76028,35.86579],[-92.75968,35.8656],[-92.75926,35.86447],[-92.75883,35.86388],[-92.75828,35.86347],[-92.75793,35.8625],[-92.75808,35.86225],[-92.75692,35.86222],[-92.75651,35.86178],[-92.75678,35.86162],[-92.75676,35.86056],[-92.75755,35.86037],[-92.75808,35.86041],[-92.75836,35.86017],[-92.75895,35.86006],[-92.75882,35.85974],[-92.75851,35.85975],[-92.75908,35.85938],[-92.75916,35.85919],[-92.75978,35.85885],[-92.76007,35.85847],[-92.76033,35.85842],[-92.76052,35.85815],[-92.76038,35.85796],[-92.76058,35.8579],[-92.76099,35.85727],[-92.7629,35.85594],[-92.76348,35.85448],[-92.76373,35.85462],[-92.76387,35.8545],[-92.76422,35.85476],[-92.76461,35.85452],[-92.76478,35.85456],[-92.76449,35.85488],[-92.76485,35.85523],[-92.76489,35.85544],[-92.76484,35.85883],[-92.76543,35.85793],[-92.76571,35.85775],[-92.76691,35.85717],[-92.76781,35.85698],[-92.76784,35.85677],[-92.76886,35.85531],[-92.76872,35.8548],[-92.76923,35.85389],[-92.76897,35.85268],[-92.7695,35.85183],[-92.76982,35.85177],[-92.7699,35.85188],[-92.76996,35.85285],[-92.77014,35.85311],[-92.77015,35.85402],[-92.77027,35.85414],[-92.77139,35.85432],[-92.77188,35.854],[-92.77315,35.85394],[-92.77337,35.85381],[-92.77371,35.85327],[-92.77473,35.8532],[-92.7751,35.8524],[-92.77621,35.85232],[-92.77723,35.85189],[-92.77719,35.85216],[-92.77738,35.85258],[-92.77722,35.85264],[-92.7765,35.85242],[-92.77647,35.8536],[-92.7783,35.85462],[-92.77849,35.85494],[-92.7788,35.85488],[-92.77909,35.85502],[-92.77939,35.85545],[-92.77967,35.85634],[-92.78051,35.85653],[-92.78117,35.85637],[-92.78142,35.85611],[-92.78184,35.85606],[-92.78275,35.85624],[-92.78358,35.85666],[-92.78359,35.85697],[-92.784,35.8571],[-92.7841,35.85738],[-92.7843,35.85751],[-92.78471,35.85732],[-92.78486,35.85711],[-92.7859,35.85674],[-92.78571,35.85623],[-92.78574,35.85593],[-92.78615,35.85525],[-92.7869,35.8549],[-92.78634,35.85458],[-92.78601,35.85463],[-92.78506,35.8544],[-92.78461,35.85411],[-92.78468,35.85397],[-92.7852,35.85389],[-92.78566,35.85408],[-92.78679,35.85418],[-92.78717,35.85373],[-92.78834,35.85341],[-92.78874,35.85335],[-92.7891,35.85357],[-92.78939,35.85357],[-92.7899,35.8533],[-92.79116,35.85305],[-92.7922,35.85312],[-92.79283,35.85273],[-92.79301,35.85248],[-92.79311,35.852],[-92.79339,35.85182],[-92.79428,35.85048],[-92.79425,35.8502],[-92.79442,35.84985],[-92.79566,35.84891],[-92.79518,35.84967],[-92.79525,35.84998],[-92.79518,35.85025],[-92.79507,35.85027],[-92.79516,35.85035],[-92.79511,35.85098],[-92.79493,35.85175],[-92.79456,35.85213],[-92.79477,35.85229],[-92.79488,35.85282],[-92.79448,35.85291],[-92.79422,35.85319],[-92.7943,35.85349],[-92.79411,35.85401],[-92.79313,35.85453],[-92.79215,35.8554],[-92.79163,35.85624],[-92.7909,35.85707],[-92.79083,35.85737],[-92.79036,35.85751],[-92.79011,35.85793],[-92.79007,35.85846],[-92.78979,35.85886],[-92.7901,35.85949],[-92.79109,35.85958],[-92.79105,35.85969],[-92.79122,35.85987],[-92.79101,35.86012],[-92.79104,35.86029],[-92.79121,35.86032],[-92.79115,35.86069],[-92.79141,35.86066],[-92.79174,35.86086],[-92.7915,35.86139],[-92.79133,35.86142],[-92.79102,35.86195],[-92.791153,35.861957],[-92.79118,35.86194]],[[-92.791258,35.862075],[-92.791269,35.862096],[-92.79128,35.86208],[-92.791258,35.862075]],[[-92.79129,35.86213],[-92.7913,35.86213],[-92.7913,35.86212],[-92.79129,35.86213]],[[-92.791283,35.862123],[-92.791288,35.862133],[-92.79129,35.86213],[-92.791283,35.862123]]],[[[-92.79133,35.86204],[-92.79131,35.8621],[-92.7913,35.86204],[-92.79133,35.86204]]],[[[-92.79131,35.86215],[-92.79132,35.86215],[-92.79134,35.86216],[-92.79131,35.86215]]],[[[-92.79083,35.8633],[-92.79083,35.86331],[-92.7908,35.8633],[-92.79083,35.8633]]],[[[-92.79083,35.86331],[-92.79088,35.86332],[-92.79085,35.86335],[-92.79083,35.86331]]],[[[-92.79127,35.86352],[-92.7913,35.86353],[-92.7913,35.86355],[-92.79127,35.86352]]],[[[-92.79019,35.86439],[-92.79022,35.86441],[-92.79018,35.86441],[-92.79019,35.86439]]],[[[-92.7874,35.86701],[-92.78729,35.86701],[-92.78741,35.86697],[-92.7874,35.86701]]],[[[-92.78727,35.86697],[-92.78728,35.86701],[-92.78725,35.86698],[-92.78727,35.86697]]],[[[-92.78724,35.86699],[-92.78728,35.86702],[-92.78724,35.86703],[-92.78724,35.86699]]],[[[-92.78728,35.86701],[-92.78729,35.86701],[-92.78728,35.86702],[-92.78728,35.86701]]],[[[-92.78724,35.86703],[-92.7873,35.86707],[-92.78726,35.86709],[-92.78724,35.86703]]],[[[-92.76938,35.85201],[-92.76934,35.85204],[-92.76935,35.85201],[-92.76938,35.85201]]],[[[-92.77723,35.85398],[-92.77727,35.85398],[-92.77725,35.85399],[-92.77723,35.85398]]],[[[-92.75904,35.8593],[-92.75905,35.85935],[-92.75903,35.85937],[-92.75904,35.8593]]],[[[-92.75905,35.85935],[-92.75907,35.85937],[-92.75904,35.85938],[-92.75905,35.85935]]],[[[-92.75852,35.8598],[-92.75854,35.85981],[-92.75851,35.85983],[-92.75852,35.8598]]],[[[-92.75787,35.86247],[-92.75793,35.8625],[-92.75785,35.86253],[-92.75787,35.86247]]],[[[-92.78726,35.86695],[-92.78725,35.86698],[-92.78724,35.86696],[-92.78726,35.86695]]],[[[-92.78724,35.86699],[-92.78723,35.86699],[-92.78725,35.86698],[-92.78724,35.86699]]],[[[-92.76262,35.86745],[-92.76266,35.86744],[-92.76268,35.86744],[-92.76262,35.86745]]],[[[-92.78694,35.86772],[-92.78695,35.86774],[-92.78694,35.86773],[-92.78694,35.86772]]],[[[-92.78722,35.86867],[-92.78726,35.8687],[-92.78726,35.86871],[-92.78722,35.86867]]],[[[-92.78637,35.87082],[-92.7864,35.87082],[-92.78638,35.87088],[-92.78637,35.87082]]],[[[-92.78462,35.87196],[-92.7846,35.87196],[-92.78459,35.87194],[-92.78462,35.87196]]],[[[-92.78331,35.87265],[-92.78333,35.87269],[-92.7833,35.87266],[-92.78331,35.87265]]],[[[-92.78337,35.87267],[-92.78339,35.87267],[-92.78341,35.8727],[-92.78337,35.87267]]],[[[-92.78242,35.87303],[-92.78236,35.87304],[-92.78242,35.87302],[-92.78242,35.87303]]],[[[-92.78229,35.87308],[-92.7823,35.87305],[-92.78236,35.87304],[-92.78229,35.87308]]]]},"properties":{"fire_id":"ufid:2026-ARARS-300149","source_collection":"ytd","source_objectid":58202,"incident_name":"Box Canyon Fire","mapped_acres":1186.40708882869,"mapped_acres_source":"poly_Acres_AutoCalc_fallback","gis_acres":null,"auto_acres":1186.40708882869,"reported_acres":1186.0,"percent_contained":null,"state":"AR","state_wfigs":"US-AR","county":"Searcy","discovery_time_utc":"2026-03-20T23:52:11Z","perimeter_time_utc":null,"perimeter_edit_time_utc":"2026-08-20T15:59:23Z","incident_modified_time_utc":"2026-06-20T16:11:36Z","containment_time_utc":null,"control_time_utc":null,"fire_out_time_utc":"2026-03-22T09:50:00Z","fire_cause":"Undetermined","fire_cause_general":"Undetermined (remarks required)","map_method":"Mixed Methods","source_dataset":"2026 NIFS","unique_fire_identifier":"2026-ARARS-300149","irwin_id":"{3B8AA724-B342-48C8-B264-64A427DF3951}","global_id":"d95a9160-1463-43bc-81a1-b3633e622490"}},{"type":"Feature","geometry":{"type":"Polygon","coordinates":[[[-93.55201,35.03524],[-93.5504,35.03584],[-93.54969,35.03587],[-93.54835,35.03551],[-93.54824,35.03528],[-93.54858,35.0347],[-93.54867,35.03416],[-93.55,35.03374],[-93.5512,35.03391],[-93.55165,35.03423],[-93.55208,35.03494],[-93.55201,35.03524]]]},"properties":{"fire_id":"ufid:2026-AROUF-002540","source_collection":"ytd","source_objectid":58388,"incident_name":"Maple","mapped_acres":15.31,"mapped_acres_source":"poly_GISAcres","gis_acres":15.31,"auto_acres":14.790096345920855,"reported_acres":15.31,"percent_contained":null,"state":"AR","state_wfigs":"US-AR","county":"Yell","discovery_time_utc":"2026-08-20T22:08:00Z","perimeter_time_utc":"2026-08-21T04:59:12Z","perimeter_edit_time_utc":"2026-08-23T17:00:25Z","incident_modified_time_utc":"2026-08-28T21:45:24Z","containment_time_utc":"2026-08-21T04:58:00Z","control_time_utc":"2026-08-28T21:30:00Z","fire_out_time_utc":null,"fire_cause":"Natural","fire_cause_general":null,"map_method":"Auto-generated for InFORM","source_dataset":"2026 NIFS","unique_fire_identifier":"2026-AROUF-002540","irwin_id":"{A4D1A1E0-49F4-407A-BE5E-2D5A128AEB2B}","global_id":"653f4f6b-357e-4ec7-8fb2-e0ee3f1d4cad"}},{"type":"Feature","geometry":{"type":"Polygon","coordinates":[[[-94.32784,35.70237],[-94.32776,35.70245],[-94.32771,35.7024],[-94.32784,35.70237]]]},"properties":{"fire_id":"ufid:2026-AROZF-002672","source_collection":"ytd","source_objectid":58826,"incident_name":"Silver Bridge","mapped_acres":0.1,"mapped_acres_source":"poly_GISAcres","gis_acres":0.1,"auto_acres":0.01692236597779811,"reported_acres":0.1,"percent_contained":null,"state":"AR","state_wfigs":"US-AR","county":"Crawford","discovery_time_utc":"2026-08-28T18:01:00Z","perimeter_time_utc":"2026-08-28T19:17:58Z","perimeter_edit_time_utc":"2026-08-28T19:21:53Z","incident_modified_time_utc":"2026-08-31T18:44:41Z","containment_time_utc":"2026-08-28T19:40:00Z","control_time_utc":"2026-08-31T18:35:00Z","fire_out_time_utc":"2026-08-31T18:35:00Z","fire_cause":"Human","fire_cause_general":null,"map_method":"Auto-generated for InFORM","source_dataset":"2026 NIFS","unique_fire_identifier":"2026-AROZF-002672","irwin_id":"{94155784-FB7B-416A-9AD9-C4DBB569753E}","global_id":"539565bb-3f6e-4abe-a386-9508b199a8f9"}}]}
