{"type":"FeatureCollection","features":[{"type":"Feature","geometry":{"type":"Polygon","coordinates":[[[-113.08476,35.29101],[-113.08459,35.29078],[-113.08507,35.29085],[-113.08486,35.29116],[-113.08471,35.29112],[-113.08476,35.29101]]]},"properties":{"fire_id":"ufid:2026-AZA5S-260223","source_collection":"ytd","source_objectid":52113,"incident_name":"Floyd","mapped_acres":0.1,"mapped_acres_source":"poly_GISAcres","gis_acres":0.1,"auto_acres":0.2546158172142023,"reported_acres":0.25,"percent_contained":null,"state":"AZ","state_wfigs":"US-AZ","county":"Yavapai","discovery_time_utc":"2026-03-21T23:02:18Z","perimeter_time_utc":"2026-04-08T21:38:44Z","perimeter_edit_time_utc":null,"incident_modified_time_utc":"2026-04-06T18:26:12Z","containment_time_utc":"2026-03-22T00:15:00Z","control_time_utc":"2026-03-22T00:15:00Z","fire_out_time_utc":"2026-03-22T00:15:00Z","fire_cause":"Human","fire_cause_general":"Equipment and vehicle use","map_method":"Mixed Methods","source_dataset":"FFP","unique_fire_identifier":"2026-AZA5S-260223","irwin_id":"{EFF00144-8F3F-4D8F-8BCE-9D14DF0002C7}","global_id":"9e1c2cc8-94f0-4bf7-a8e4-d32356a2c7a1"}},{"type":"Feature","geometry":{"type":"Polygon","coordinates":[[[-111.40958,35.26535],[-111.40996,35.2651],[-111.41017,35.26404],[-111.41058,35.2633],[-111.41077,35.26224],[-111.41125,35.26211],[-111.41205,35.26138],[-111.4127,35.26114],[-111.41289,35.26091],[-111.4129,35.26048],[-111.41341,35.25968],[-111.41482,35.25876],[-111.41475,35.25868],[-111.41492,35.25863],[-111.41523,35.25804],[-111.41542,35.25793],[-111.41648,35.25796],[-111.4166,35.25771],[-111.41729,35.25749],[-111.41792,35.25665],[-111.4188,35.25641],[-111.41874,35.25602],[-111.41962,35.25575],[-111.41974,35.25558],[-111.42057,35.2553],[-111.4207,35.25511],[-111.42105,35.25508],[-111.42132,35.25476],[-111.42224,35.25466],[-111.42293,35.25427],[-111.42315,35.25429],[-111.42376,35.25403],[-111.42458,35.25403],[-111.42443,35.25479],[-111.42318,35.25516],[-111.42306,35.25531],[-111.42308,35.25559],[-111.42274,35.25607],[-111.42281,35.25619],[-111.42249,35.25655],[-111.42178,35.25697],[-111.42142,35.25772],[-111.42103,35.25779],[-111.42096,35.25801],[-111.42032,35.25815],[-111.42026,35.25833],[-111.41996,35.25844],[-111.41947,35.25837],[-111.41816,35.26016],[-111.41633,35.26142],[-111.41508,35.26316],[-111.41404,35.26428],[-111.41295,35.26516],[-111.41268,35.26556],[-111.41152,35.26574],[-111.4111,35.26568],[-111.41082,35.26583],[-111.4103,35.26587],[-111.40992,35.26574],[-111.40958,35.26535]]]},"properties":{"fire_id":"ufid:2026-AZCOF-000681","source_collection":"ytd","source_objectid":54773,"incident_name":"Papa","mapped_acres":117.71148524388343,"mapped_acres_source":"poly_GISAcres","gis_acres":117.71148524388343,"auto_acres":117.71104909517105,"reported_acres":118.0,"percent_contained":100.0,"state":"AZ","state_wfigs":"US-AZ","county":"Coconino","discovery_time_utc":"2026-06-08T21:26:00Z","perimeter_time_utc":null,"perimeter_edit_time_utc":"2026-06-09T22:27:48Z","incident_modified_time_utc":"2026-06-30T19:55:42Z","containment_time_utc":"2026-06-12T23:53:00Z","control_time_utc":"2026-06-30T19:50:00Z","fire_out_time_utc":null,"fire_cause":"Human","fire_cause_general":null,"map_method":"Mixed Methods","source_dataset":"2026 NIFS","unique_fire_identifier":"2026-AZCOF-000681","irwin_id":"{696E9B06-F0D4-47CA-8E85-B11E59396CFB}","global_id":"b2a4963d-9927-4091-8289-9359f1574ebe"}},{"type":"Feature","geometry":{"type":"Polygon","coordinates":[[[-111.85102,35.37684],[-111.85078,35.37654],[-111.85104,35.37638],[-111.85143,35.37636],[-111.85155,35.3765],[-111.85152,35.37673],[-111.85127,35.37685],[-111.85102,35.37684]]]},"properties":{"fire_id":"ufid:2026-AZKNF-000369","source_collection":"ytd","source_objectid":54846,"incident_name":"DENT","mapped_acres":0.6687477,"mapped_acres_source":"poly_GISAcres","gis_acres":0.6687477,"auto_acres":0.6687452492285983,"reported_acres":0.67,"percent_contained":null,"state":"AZ","state_wfigs":"US-AZ","county":"Coconino","discovery_time_utc":"2026-05-17T21:17:31Z","perimeter_time_utc":"2026-06-20T18:08:57Z","perimeter_edit_time_utc":null,"incident_modified_time_utc":"2026-05-27T17:41:39Z","containment_time_utc":"2026-05-18T01:55:00Z","control_time_utc":"2026-05-18T21:03:00Z","fire_out_time_utc":"2026-05-27T17:41:00Z","fire_cause":"Human","fire_cause_general":"Recreation and ceremony","map_method":"Mixed Methods","source_dataset":"FFP","unique_fire_identifier":"2026-AZKNF-000369","irwin_id":"{3DC54FDA-7D95-4D59-BBB0-A40A99FF6345}","global_id":"c7401e75-f9f6-4cfe-9950-854a8075a990"}},{"type":"Feature","geometry":{"type":"Polygon","coordinates":[[[-111.8865,35.30186],[-111.88656,35.30174],[-111.88684,35.30181],[-111.88673,35.30201],[-111.8865,35.30186]]]},"properties":{"fire_id":"ufid:2026-AZKNF-000273","source_collection":"ytd","source_objectid":54848,"incident_name":"Klostermeyer","mapped_acres":0.15924128711349503,"mapped_acres_source":"poly_Acres_AutoCalc_fallback","gis_acres":null,"auto_acres":0.15924128711349503,"reported_acres":0.16,"percent_contained":null,"state":"AZ","state_wfigs":"US-AZ","county":"Coconino","discovery_time_utc":"2026-04-22T23:23:05Z","perimeter_time_utc":"2026-06-12T23:37:45Z","perimeter_edit_time_utc":null,"incident_modified_time_utc":"2026-06-12T23:34:38Z","containment_time_utc":"2026-04-23T01:53:00Z","control_time_utc":"2026-04-24T18:21:00Z","fire_out_time_utc":"2026-04-27T21:55:00Z","fire_cause":"Human","fire_cause_general":"Equipment and vehicle use","map_method":"Mixed Methods","source_dataset":"FFP","unique_fire_identifier":"2026-AZKNF-000273","irwin_id":"{09839BB6-881E-4DE0-855E-D6061DA40184}","global_id":"f562bc00-e269-466a-9718-3db5ad5c9e62"}},{"type":"Feature","geometry":{"type":"MultiPolygon","coordinates":[[[[-112.1848,36.89901],[-112.18477,36.89877],[-112.18503,36.89884],[-112.18504,36.89901],[-112.1848,36.89901]]],[[[-112.18126,36.89918],[-112.1815,36.89899],[-112.1816,36.89923],[-112.18126,36.89918]]],[[[-112.1557,36.90654],[-112.15515,36.90692],[-112.15449,36.90767],[-112.15435,36.90762],[-112.15487,36.90659],[-112.15434,36.90602],[-112.15473,36.90571],[-112.15461,36.90556],[-112.15465,36.90517],[-112.15493,36.90519],[-112.15568,36.90629],[-112.1557,36.90654]]],[[[-112.15322,36.90745],[-112.15304,36.90747],[-112.15304,36.90716],[-112.15324,36.90717],[-112.15322,36.90745]]],[[[-112.05833,36.93559],[-112.05694,36.93387],[-112.05657,36.93142],[-112.0561,36.93006],[-112.0544,36.9232],[-112.05346,36.92037],[-112.05512,36.91967],[-112.05578,36.91924],[-112.05641,36.91911],[-112.05824,36.91926],[-112.05897,36.91864],[-112.05926,36.91861],[-112.05945,36.91883],[-112.05929,36.91915],[-112.05933,36.91969],[-112.0597,36.91985],[-112.06019,36.91962],[-112.06015,36.9194],[-112.06039,36.91906],[-112.06068,36.91828],[-112.06067,36.91787],[-112.06087,36.91758],[-112.06207,36.91693],[-112.06308,36.91678],[-112.06296,36.91639],[-112.06236,36.91621],[-112.06238,36.91544],[-112.06207,36.91517],[-112.06213,36.91476],[-112.06343,36.91486],[-112.0636,36.91517],[-112.06425,36.91512],[-112.06623,36.91533],[-112.06747,36.91582],[-112.06795,36.9155],[-112.06807,36.91516],[-112.06877,36.91493],[-112.06962,36.91521],[-112.07011,36.91552],[-112.07026,36.91584],[-112.07014,36.91613],[-112.0697,36.91633],[-112.06968,36.91661],[-112.07031,36.91667],[-112.07061,36.91624],[-112.07066,36.91556],[-112.07086,36.91528],[-112.07082,36.91446],[-112.07125,36.91455],[-112.07146,36.91479],[-112.07186,36.91493],[-112.07194,36.91317],[-112.0724,36.91313],[-112.07335,36.91276],[-112.07338,36.91249],[-112.0732,36.91241],[-112.07216,36.91286],[-112.07153,36.91275],[-112.07027,36.91357],[-112.0688,36.91381],[-112.06855,36.91338],[-112.06788,36.91346],[-112.06738,36.9139],[-112.06718,36.91376],[-112.06678,36.91384],[-112.0665,36.91414],[-112.06667,36.91427],[-112.06662,36.91443],[-112.06531,36.91441],[-112.06478,36.91481],[-112.0647,36.91443],[-112.0645,36.91422],[-112.06427,36.9142],[-112.0641,36.91439],[-112.06412,36.91457],[-112.06373,36.91463],[-112.06357,36.91417],[-112.06484,36.91366],[-112.06481,36.91342],[-112.06573,36.91223],[-112.06661,36.91229],[-112.0664,36.91142],[-112.06988,36.91061],[-112.07109,36.91053],[-112.0714,36.91074],[-112.07176,36.9104],[-112.07206,36.91054],[-112.07219,36.91072],[-112.07205,36.91102],[-112.07237,36.91122],[-112.07325,36.90995],[-112.0733,36.90956],[-112.07366,36.90967],[-112.07387,36.90952],[-112.07381,36.90941],[-112.07406,36.90938],[-112.07486,36.90967],[-112.0749,36.90983],[-112.07483,36.9101],[-112.07405,36.91101],[-112.07422,36.91162],[-112.07495,36.91189],[-112.07541,36.91187],[-112.07616,36.91104],[-112.07684,36.91132],[-112.07718,36.91122],[-112.0775,36.91076],[-112.07717,36.91023],[-112.07708,36.90984],[-112.07694,36.90968],[-112.07659,36.91025],[-112.07636,36.91025],[-112.07638,36.91009],[-112.07611,36.91],[-112.07604,36.90912],[-112.07671,36.90905],[-112.0799,36.90932],[-112.08049,36.90829],[-112.0801,36.90761],[-112.08081,36.9079],[-112.08102,36.90749],[-112.081,36.90696],[-112.08075,36.90673],[-112.07948,36.90694],[-112.07885,36.90681],[-112.07801,36.90729],[-112.07773,36.90726],[-112.07775,36.90689],[-112.07784,36.90666],[-112.07879,36.90633],[-112.079,36.90584],[-112.07984,36.90508],[-112.08058,36.90477],[-112.08107,36.90477],[-112.08151,36.90444],[-112.08164,36.90408],[-112.08191,36.90409],[-112.08246,36.90446],[-112.0828,36.90434],[-112.08323,36.90395],[-112.08411,36.90412],[-112.08491,36.90517],[-112.08544,36.90557],[-112.08639,36.90541],[-112.08802,36.90564],[-112.08944,36.90555],[-112.09086,36.90618],[-112.09179,36.90621],[-112.09215,36.90595],[-112.09282,36.90597],[-112.09307,36.90665],[-112.09455,36.90717],[-112.09549,36.90786],[-112.09589,36.90784],[-112.09564,36.90708],[-112.09584,36.90701],[-112.096,36.90726],[-112.09647,36.90745],[-112.09681,36.90717],[-112.09816,36.90722],[-112.09857,36.90759],[-112.09874,36.90804],[-112.09871,36.90854],[-112.09952,36.90907],[-112.09977,36.90944],[-112.09992,36.90983],[-112.09993,36.91082],[-112.1004,36.91119],[-112.10051,36.91145],[-112.10173,36.91216],[-112.10187,36.91212],[-112.10189,36.91226],[-112.10241,36.91224],[-112.10302,36.91256],[-112.10464,36.91272],[-112.10445,36.91239],[-112.10459,36.9122],[-112.10498,36.91238],[-112.10501,36.91268],[-112.10544,36.91264],[-112.10562,36.91195],[-112.10557,36.91143],[-112.10616,36.91088],[-112.10657,36.9109],[-112.10688,36.91074],[-112.10689,36.91051],[-112.10635,36.91042],[-112.10506,36.91074],[-112.10437,36.91049],[-112.10376,36.91067],[-112.10369,36.91098],[-112.10357,36.91101],[-112.10352,36.91059],[-112.10313,36.91033],[-112.1028,36.91051],[-112.10268,36.91036],[-112.10301,36.91013],[-112.10311,36.9098],[-112.10401,36.90961],[-112.10401,36.90937],[-112.10425,36.9092],[-112.1048,36.90941],[-112.10489,36.90912],[-112.10536,36.90894],[-112.10608,36.90904],[-112.10685,36.90925],[-112.10738,36.91041],[-112.1073,36.91083],[-112.10682,36.91139],[-112.10707,36.91202],[-112.10701,36.9122],[-112.10746,36.91233],[-112.10746,36.9118],[-112.10772,36.91111],[-112.10787,36.91103],[-112.10825,36.91116],[-112.10897,36.91111],[-112.10912,36.91097],[-112.10976,36.91107],[-112.10974,36.91095],[-112.10989,36.91092],[-112.10995,36.91114],[-112.11099,36.91193],[-112.11174,36.9121],[-112.11241,36.91203],[-112.1132,36.91215],[-112.11567,36.91315],[-112.11923,36.91355],[-112.11953,36.91381],[-112.12197,36.91439],[-112.12287,36.91482],[-112.1229,36.91557],[-112.12376,36.91554],[-112.12414,36.91548],[-112.12421,36.91531],[-112.12441,36.91543],[-112.12499,36.91533],[-112.12524,36.91482],[-112.12622,36.91465],[-112.12829,36.91349],[-112.12883,36.91338],[-112.12898,36.91295],[-112.12805,36.91225],[-112.12801,36.91194],[-112.12835,36.91195],[-112.12903,36.91222],[-112.12932,36.91249],[-112.13029,36.91281],[-112.13062,36.91307],[-112.13087,36.91355],[-112.13136,36.91357],[-112.13184,36.91342],[-112.1321,36.91309],[-112.13258,36.91294],[-112.13515,36.91255],[-112.13499,36.91228],[-112.13506,36.912],[-112.13556,36.91257],[-112.13814,36.91204],[-112.13799,36.91152],[-112.13853,36.91192],[-112.13974,36.91173],[-112.1398,36.91145],[-112.13961,36.91096],[-112.13989,36.91073],[-112.14026,36.9111],[-112.14012,36.91148],[-112.14061,36.91162],[-112.14187,36.91158],[-112.14219,36.91149],[-112.14219,36.91125],[-112.14257,36.91123],[-112.1429,36.91145],[-112.14499,36.91171],[-112.14654,36.91091],[-112.14707,36.91078],[-112.14747,36.91082],[-112.14802,36.91066],[-112.14963,36.91088],[-112.15048,36.91122],[-112.15058,36.91149],[-112.15113,36.91141],[-112.15135,36.91123],[-112.15158,36.91041],[-112.15217,36.91052],[-112.15393,36.91044],[-112.1538,36.91006],[-112.15392,36.90956],[-112.15483,36.90911],[-112.15397,36.90872],[-112.15379,36.90833],[-112.15415,36.90826],[-112.15537,36.90898],[-112.1553,36.90855],[-112.15543,36.90848],[-112.15571,36.9088],[-112.15646,36.90834],[-112.1568,36.90782],[-112.157,36.9071],[-112.15739,36.90733],[-112.15784,36.90732],[-112.15789,36.90701],[-112.15765,36.90672],[-112.157,36.90661],[-112.15723,36.90598],[-112.15686,36.9059],[-112.1567,36.90557],[-112.15707,36.90505],[-112.15711,36.90466],[-112.15795,36.90405],[-112.15797,36.9038],[-112.15784,36.90356],[-112.15716,36.90308],[-112.1567,36.90338],[-112.15705,36.90367],[-112.15663,36.90387],[-112.15644,36.90367],[-112.15618,36.90363],[-112.15616,36.90332],[-112.15652,36.9032],[-112.15651,36.90269],[-112.15683,36.90256],[-112.15663,36.90232],[-112.1562,36.90239],[-112.15642,36.90178],[-112.156,36.9014],[-112.15608,36.90123],[-112.15678,36.90152],[-112.15737,36.90217],[-112.15743,36.90187],[-112.15767,36.90184],[-112.15839,36.90224],[-112.15972,36.90201],[-112.16037,36.90223],[-112.16092,36.90325],[-112.16098,36.90371],[-112.15972,36.90419],[-112.15904,36.904],[-112.15868,36.90415],[-112.15844,36.90458],[-112.15776,36.90495],[-112.15766,36.90521],[-112.15809,36.90553],[-112.1587,36.90549],[-112.15928,36.90501],[-112.15991,36.90471],[-112.15994,36.90439],[-112.16065,36.90435],[-112.16117,36.90411],[-112.16179,36.90331],[-112.16246,36.90314],[-112.16275,36.90258],[-112.16398,36.90228],[-112.16624,36.90255],[-112.16627,36.90221],[-112.16647,36.90214],[-112.16661,36.90173],[-112.16661,36.90114],[-112.16562,36.89916],[-112.16556,36.89861],[-112.16581,36.89766],[-112.16664,36.89717],[-112.16716,36.89703],[-112.16796,36.89722],[-112.16896,36.89803],[-112.16945,36.89822],[-112.17218,36.89838],[-112.1745,36.89825],[-112.17734,36.89885],[-112.17822,36.89919],[-112.17823,36.89895],[-112.17865,36.89899],[-112.17873,36.89922],[-112.17896,36.89926],[-112.179,36.89957],[-112.18008,36.9002],[-112.18042,36.90019],[-112.18044,36.90041],[-112.18106,36.90064],[-112.18072,36.90028],[-112.18073,36.90007],[-112.18085,36.89999],[-112.1812,36.90035],[-112.1813,36.90064],[-112.18165,36.90051],[-112.18187,36.90015],[-112.1819,36.899],[-112.18231,36.89865],[-112.18222,36.89842],[-112.18231,36.89825],[-112.18294,36.89835],[-112.18384,36.89883],[-112.18459,36.89903],[-112.18495,36.89935],[-112.18508,36.8992],[-112.18533,36.89932],[-112.18526,36.89969],[-112.18737,36.90132],[-112.18785,36.90092],[-112.18794,36.90116],[-112.18762,36.90145],[-112.188,36.90163],[-112.18828,36.9016],[-112.18828,36.90175],[-112.18886,36.90199],[-112.18949,36.90198],[-112.1895,36.90222],[-112.18979,36.90231],[-112.19014,36.90241],[-112.1904,36.90232],[-112.19042,36.9025],[-112.19074,36.9026],[-112.19089,36.90247],[-112.19106,36.90251],[-112.19136,36.90282],[-112.19283,36.90346],[-112.19454,36.90446],[-112.1995,36.9079],[-112.19976,36.90789],[-112.1998,36.90812],[-112.20003,36.90828],[-112.2003,36.90826],[-112.20066,36.90867],[-112.20115,36.90897],[-112.20158,36.90906],[-112.2017,36.9094],[-112.20227,36.90988],[-112.20261,36.91081],[-112.20313,36.91126],[-112.20359,36.91136],[-112.20535,36.91123],[-112.20735,36.9118],[-112.20814,36.9119],[-112.21081,36.91111],[-112.21171,36.91116],[-112.21207,36.91149],[-112.21193,36.91193],[-112.21146,36.91231],[-112.2086,36.9137],[-112.20666,36.91427],[-112.2055,36.91533],[-112.20508,36.91553],[-112.20275,36.91597],[-112.2007,36.91608],[-112.19767,36.9168],[-112.19581,36.91684],[-112.19413,36.91665],[-112.19277,36.91632],[-112.18978,36.91489],[-112.18777,36.91436],[-112.18633,36.91364],[-112.18553,36.91342],[-112.18518,36.91372],[-112.18442,36.91363],[-112.1841,36.91381],[-112.1829,36.91398],[-112.18185,36.91388],[-112.18159,36.91359],[-112.18082,36.91357],[-112.18066,36.9142],[-112.18043,36.9142],[-112.1804,36.91387],[-112.17913,36.91406],[-112.17794,36.91446],[-112.17664,36.9145],[-112.17547,36.91486],[-112.17449,36.915],[-112.17262,36.91474],[-112.17228,36.91492],[-112.17211,36.91479],[-112.17214,36.91457],[-112.17163,36.91437],[-112.1714,36.91399],[-112.17073,36.91354],[-112.16997,36.91337],[-112.16891,36.91272],[-112.16831,36.91259],[-112.16824,36.91229],[-112.16767,36.91204],[-112.16729,36.91202],[-112.16697,36.91166],[-112.1667,36.91172],[-112.1668,36.91151],[-112.16664,36.91136],[-112.16633,36.91144],[-112.16621,36.91172],[-112.1663,36.91214],[-112.16611,36.91224],[-112.16555,36.91212],[-112.1652,36.91227],[-112.16469,36.91207],[-112.16465,36.91159],[-112.165,36.91135],[-112.16518,36.91097],[-112.16505,36.91069],[-112.1651,36.91003],[-112.16522,36.90982],[-112.16589,36.90977],[-112.16608,36.90931],[-112.1659,36.90884],[-112.16557,36.90916],[-112.16487,36.90952],[-112.16454,36.91024],[-112.16429,36.91047],[-112.16328,36.91066],[-112.16237,36.9113],[-112.16077,36.91211],[-112.15906,36.9123],[-112.15769,36.91224],[-112.15722,36.91207],[-112.15703,36.91245],[-112.15748,36.9129],[-112.1573,36.91334],[-112.15692,36.91342],[-112.15664,36.91367],[-112.15702,36.91395],[-112.15598,36.91406],[-112.15592,36.91434],[-112.15526,36.91463],[-112.15454,36.91545],[-112.15401,36.91573],[-112.15344,36.91579],[-112.15297,36.91602],[-112.15237,36.91588],[-112.15148,36.91601],[-112.14915,36.91708],[-112.14903,36.91749],[-112.14872,36.91772],[-112.14783,36.91747],[-112.14651,36.91755],[-112.14644,36.91778],[-112.14594,36.91796],[-112.14582,36.91846],[-112.1454,36.91849],[-112.14484,36.91875],[-112.14429,36.91869],[-112.14413,36.91891],[-112.14298,36.91933],[-112.1424,36.91999],[-112.14155,36.92006],[-112.14088,36.92045],[-112.13987,36.9208],[-112.13944,36.9212],[-112.13841,36.92108],[-112.13837,36.92148],[-112.13765,36.92268],[-112.13676,36.923],[-112.13627,36.92341],[-112.13485,36.92363],[-112.13461,36.92341],[-112.13392,36.92334],[-112.13371,36.92352],[-112.13316,36.92356],[-112.13276,36.92374],[-112.13267,36.92406],[-112.13251,36.92408],[-112.13235,36.92384],[-112.13124,36.92389],[-112.13107,36.92361],[-112.13066,36.92417],[-112.13051,36.92407],[-112.1305,36.92383],[-112.13014,36.92354],[-112.1295,36.92364],[-112.12887,36.92404],[-112.1284,36.92406],[-112.12738,36.92383],[-112.12735,36.92337],[-112.12699,36.9233],[-112.12636,36.92365],[-112.12612,36.92408],[-112.12598,36.92392],[-112.12607,36.92316],[-112.12682,36.92291],[-112.12697,36.92271],[-112.12685,36.92257],[-112.12535,36.92291],[-112.12502,36.92252],[-112.12454,36.92261],[-112.12388,36.92233],[-112.12374,36.92167],[-112.12258,36.92221],[-112.12227,36.92249],[-112.12165,36.92238],[-112.12154,36.92263],[-112.12128,36.92266],[-112.12065,36.92198],[-112.12145,36.92211],[-112.12179,36.92201],[-112.12163,36.92185],[-112.12057,36.92171],[-112.12053,36.92147],[-112.12066,36.9212],[-112.12186,36.92137],[-112.12221,36.92174],[-112.12256,36.92174],[-112.12284,36.92146],[-112.12283,36.92125],[-112.12253,36.92109],[-112.1224,36.92076],[-112.1225,36.92052],[-112.12287,36.92073],[-112.12293,36.92108],[-112.12312,36.92126],[-112.12393,36.92129],[-112.1236,36.9207],[-112.1231,36.92038],[-112.12306,36.92009],[-112.12275,36.9199],[-112.12227,36.91994],[-112.12192,36.91971],[-112.12135,36.91975],[-112.12105,36.92021],[-112.12122,36.92048],[-112.1212,36.92074],[-112.12072,36.92083],[-112.12017,36.92062],[-112.12,36.92004],[-112.12094,36.9196],[-112.1209,36.91936],[-112.11879,36.91938],[-112.11825,36.91949],[-112.11813,36.91971],[-112.11726,36.91992],[-112.11689,36.91982],[-112.11643,36.91989],[-112.1156,36.92011],[-112.1153,36.92055],[-112.11425,36.92063],[-112.11381,36.92106],[-112.11335,36.92046],[-112.11311,36.92049],[-112.11287,36.92074],[-112.11294,36.92134],[-112.11269,36.92196],[-112.1123,36.92202],[-112.11146,36.92131],[-112.1112,36.92137],[-112.11126,36.92176],[-112.11104,36.92175],[-112.11077,36.92139],[-112.11037,36.92153],[-112.11025,36.92189],[-112.10987,36.92231],[-112.10925,36.92274],[-112.10872,36.92272],[-112.10844,36.92247],[-112.10906,36.92213],[-112.10914,36.92182],[-112.10944,36.92157],[-112.10986,36.92142],[-112.10982,36.921],[-112.11014,36.92121],[-112.11042,36.92101],[-112.11152,36.92106],[-112.1122,36.9207],[-112.11204,36.92036],[-112.11014,36.91992],[-112.10948,36.92014],[-112.10938,36.92043],[-112.10882,36.92086],[-112.10799,36.92118],[-112.10759,36.92128],[-112.10748,36.92105],[-112.10728,36.921],[-112.1063,36.92131],[-112.10616,36.92108],[-112.10501,36.92124],[-112.10386,36.92164],[-112.10336,36.92161],[-112.10324,36.92186],[-112.10289,36.92206],[-112.10196,36.92224],[-112.1014,36.92204],[-112.10113,36.92225],[-112.1006,36.92208],[-112.10046,36.9219],[-112.10068,36.92151],[-112.10048,36.92112],[-112.10009,36.92114],[-112.10005,36.92183],[-112.09951,36.9217],[-112.09952,36.92149],[-112.0997,36.92137],[-112.09944,36.92118],[-112.09933,36.92091],[-112.09954,36.92067],[-112.09989,36.92055],[-112.09972,36.91986],[-112.09978,36.91958],[-112.09952,36.91907],[-112.09995,36.91928],[-112.10021,36.91922],[-112.10027,36.91909],[-112.10043,36.91916],[-112.10096,36.9188],[-112.1012,36.91833],[-112.1016,36.9181],[-112.10174,36.91869],[-112.10162,36.91909],[-112.10014,36.92006],[-112.10028,36.92058],[-112.10081,36.92057],[-112.10132,36.92015],[-112.10194,36.92018],[-112.10237,36.91998],[-112.10255,36.92006],[-112.10258,36.9203],[-112.10288,36.92014],[-112.10302,36.92019],[-112.10304,36.92041],[-112.10379,36.92026],[-112.10461,36.91954],[-112.10444,36.91941],[-112.10431,36.91888],[-112.1037,36.91946],[-112.10344,36.91956],[-112.10271,36.91943],[-112.10276,36.91921],[-112.10346,36.91918],[-112.10383,36.919],[-112.10402,36.91875],[-112.10385,36.91866],[-112.10287,36.91904],[-112.10256,36.91898],[-112.10242,36.91877],[-112.10265,36.91859],[-112.10304,36.91859],[-112.10333,36.91831],[-112.10383,36.9181],[-112.104,36.91787],[-112.10416,36.91789],[-112.10414,36.91763],[-112.10402,36.91753],[-112.10373,36.91766],[-112.10334,36.91747],[-112.10278,36.91763],[-112.102,36.91728],[-112.10007,36.91727],[-112.09998,36.91708],[-112.09976,36.91702],[-112.09951,36.91707],[-112.09947,36.9172],[-112.09954,36.91732],[-112.09995,36.91741],[-112.10001,36.91783],[-112.09951,36.91783],[-112.09894,36.91755],[-112.09855,36.91769],[-112.09828,36.91785],[-112.09778,36.91874],[-112.09756,36.91873],[-112.09764,36.91828],[-112.09752,36.91798],[-112.09731,36.91796],[-112.0972,36.91859],[-112.09705,36.9187],[-112.09668,36.91875],[-112.09602,36.91861],[-112.09591,36.91878],[-112.09599,36.91894],[-112.09519,36.91917],[-112.095,36.91937],[-112.095,36.91998],[-112.09486,36.92002],[-112.0948,36.91981],[-112.09464,36.91977],[-112.09427,36.91998],[-112.0937,36.92169],[-112.0939,36.9225],[-112.09378,36.92282],[-112.09248,36.9234],[-112.09221,36.92379],[-112.0912,36.92374],[-112.09118,36.92425],[-112.09058,36.92451],[-112.09083,36.92473],[-112.09088,36.92525],[-112.09072,36.92527],[-112.09023,36.92583],[-112.09,36.92648],[-112.08935,36.92669],[-112.08874,36.92744],[-112.0887,36.92769],[-112.08889,36.92817],[-112.08876,36.92873],[-112.08862,36.92884],[-112.08793,36.92876],[-112.08741,36.92905],[-112.0866,36.92915],[-112.08611,36.92896],[-112.0855,36.92974],[-112.0848,36.93025],[-112.08404,36.93047],[-112.08295,36.93102],[-112.08192,36.93086],[-112.08156,36.931],[-112.0809,36.93157],[-112.08012,36.93187],[-112.07948,36.93228],[-112.07944,36.93251],[-112.08013,36.93278],[-112.08022,36.93325],[-112.07973,36.93391],[-112.07916,36.93401],[-112.07912,36.93324],[-112.07895,36.93312],[-112.07855,36.93371],[-112.07795,36.9337],[-112.07718,36.93403],[-112.07655,36.93408],[-112.0765,36.93427],[-112.07568,36.93487],[-112.07456,36.93529],[-112.07403,36.93602],[-112.07365,36.93629],[-112.07347,36.9363],[-112.0732,36.93548],[-112.07214,36.93565],[-112.07233,36.93597],[-112.07226,36.93622],[-112.07198,36.93578],[-112.07167,36.93563],[-112.07141,36.93572],[-112.07128,36.93599],[-112.07173,36.93669],[-112.07169,36.93704],[-112.07146,36.93701],[-112.07086,36.93604],[-112.07082,36.93691],[-112.07051,36.93731],[-112.06969,36.93755],[-112.06861,36.93661],[-112.06813,36.93644],[-112.06793,36.93574],[-112.06752,36.93535],[-112.06714,36.93544],[-112.06753,36.93622],[-112.06752,36.93657],[-112.06723,36.93702],[-112.0672,36.93739],[-112.06686,36.93744],[-112.06693,36.93618],[-112.06656,36.93638],[-112.06539,36.93601],[-112.06539,36.93645],[-112.06523,36.93654],[-112.06475,36.93642],[-112.06382,36.93762],[-112.06095,36.93732],[-112.06044,36.93717],[-112.05927,36.93649],[-112.05833,36.93559]]],[[[-112.05992,36.91488],[-112.06023,36.91486],[-112.06015,36.91515],[-112.05998,36.91516],[-112.05992,36.91488]]],[[[-112.0593,36.91616],[-112.05922,36.91637],[-112.05886,36.91638],[-112.05754,36.91603],[-112.05751,36.91588],[-112.05759,36.9157],[-112.05777,36.91571],[-112.05814,36.91596],[-112.0593,36.91616]]]]},"properties":{"fire_id":"ufid:2026-AZA1S-000208","source_collection":"ytd","source_objectid":54949,"incident_name":"Rock Canyon","mapped_acres":4822.244772678514,"mapped_acres_source":"poly_GISAcres","gis_acres":4822.244772678514,"auto_acres":4822.2268329219205,"reported_acres":4822.77,"percent_contained":100.0,"state":"AZ","state_wfigs":"US-AZ","county":"Coconino","discovery_time_utc":"2026-06-15T19:57:12Z","perimeter_time_utc":"2026-06-18T05:04:00Z","perimeter_edit_time_utc":"2026-09-09T12:43:10Z","incident_modified_time_utc":"2026-09-08T21:06:31Z","containment_time_utc":"2026-07-07T00:00:00Z","control_time_utc":"2026-07-17T00:00:00Z","fire_out_time_utc":null,"fire_cause":"Natural","fire_cause_general":null,"map_method":"Mixed Methods","source_dataset":"2026 NIFS","unique_fire_identifier":"2026-AZA1S-000208","irwin_id":"{132C618C-7786-4FBC-852A-23493BF028F9}","global_id":"480a8ac7-14d8-44e6-b778-982f7a6918a8"}},{"type":"Feature","geometry":{"type":"Polygon","coordinates":[[[-112.50366,36.47932],[-112.50334,36.4798],[-112.50292,36.47966],[-112.50276,36.47938],[-112.50282,36.47923],[-112.50296,36.47912],[-112.50351,36.47919],[-112.50366,36.47932]]]},"properties":{"fire_id":"ufid:2026-AZKNF-000420","source_collection":"ytd","source_objectid":54982,"incident_name":"Hollow","mapped_acres":1.0129223667975118,"mapped_acres_source":"poly_GISAcres","gis_acres":1.0129223667975118,"auto_acres":1.0129185976149435,"reported_acres":1.0,"percent_contained":null,"state":"AZ","state_wfigs":"US-AZ","county":"Coconino","discovery_time_utc":"2026-05-29T19:07:33Z","perimeter_time_utc":null,"perimeter_edit_time_utc":"2026-06-17T21:00:59Z","incident_modified_time_utc":"2026-06-12T23:45:37Z","containment_time_utc":"2026-05-30T01:00:00Z","control_time_utc":"2026-05-30T18:45:00Z","fire_out_time_utc":"2026-06-03T19:23:00Z","fire_cause":"Natural","fire_cause_general":null,"map_method":"Mixed Methods","source_dataset":"2026 NIFS","unique_fire_identifier":"2026-AZKNF-000420","irwin_id":"{C6D69175-D9AC-4210-9B93-1777B14C49B6}","global_id":"ccfb7533-4c7b-4d25-83c9-e1c3dccc1a39"}},{"type":"Feature","geometry":{"type":"MultiPolygon","coordinates":[[[[-111.91287,35.00775],[-111.91395,35.00781],[-111.9146,35.00831],[-111.91491,35.00835],[-111.91634,35.01039],[-111.91754,35.01126],[-111.91774,35.01198],[-111.91725,35.01282],[-111.91745,35.0151],[-111.91736,35.01591],[-111.91718,35.0163],[-111.91673,35.01669],[-111.91598,35.01658],[-111.91521,35.0162],[-111.9141,35.01524],[-111.91258,35.0144],[-111.91033,35.01402],[-111.90899,35.01332],[-111.90704,35.0132],[-111.90603,35.01362],[-111.90547,35.01359],[-111.90491,35.01306],[-111.9045,35.01203],[-111.90336,35.0119],[-111.90254,35.01158],[-111.90172,35.0116],[-111.90058,35.01107],[-111.89998,35.01057],[-111.89926,35.01042],[-111.89869,35.01068],[-111.89721,35.01094],[-111.8957,35.01143],[-111.89341,35.01145],[-111.89096,35.01168],[-111.88998,35.01158],[-111.88873,35.01125],[-111.88673,35.01144],[-111.88534,35.01138],[-111.88446,35.01102],[-111.88322,35.01013],[-111.8823,35.01042],[-111.8802,35.01172],[-111.87941,35.01183],[-111.87878,35.01262],[-111.87676,35.01318],[-111.87442,35.01343],[-111.87266,35.01378],[-111.86945,35.01326],[-111.86763,35.01329],[-111.86698,35.01336],[-111.86619,35.0137],[-111.8649,35.01389],[-111.86394,35.01384],[-111.8647,35.01438],[-111.86518,35.01499],[-111.86799,35.01706],[-111.86896,35.01793],[-111.86959,35.0187],[-111.87034,35.02028],[-111.87007,35.02079],[-111.86981,35.02092],[-111.86886,35.02082],[-111.86808,35.02097],[-111.86773,35.02069],[-111.86661,35.02057],[-111.86369,35.01924],[-111.86303,35.01906],[-111.86187,35.01916],[-111.86205,35.01945],[-111.86145,35.01934],[-111.8609,35.01967],[-111.86099,35.02084],[-111.86147,35.02227],[-111.86172,35.02268],[-111.86323,35.02383],[-111.86318,35.02406],[-111.86346,35.02459],[-111.86318,35.0268],[-111.86253,35.02828],[-111.86242,35.02906],[-111.86217,35.02948],[-111.86121,35.02953],[-111.85985,35.03003],[-111.85956,35.03034],[-111.85944,35.03017],[-111.85675,35.02978],[-111.85689,35.03012],[-111.85611,35.03073],[-111.85635,35.03121],[-111.85596,35.03152],[-111.85562,35.03154],[-111.85586,35.03188],[-111.85569,35.03342],[-111.85872,35.03482],[-111.85909,35.03483],[-111.85947,35.03522],[-111.85902,35.03516],[-111.85872,35.03525],[-111.85866,35.03547],[-111.85789,35.03549],[-111.85782,35.03574],[-111.85732,35.03578],[-111.85727,35.03587],[-111.8575,35.03591],[-111.85749,35.03616],[-111.85684,35.03669],[-111.85628,35.03672],[-111.85588,35.03645],[-111.85522,35.0365],[-111.85505,35.03667],[-111.85426,35.03631],[-111.85378,35.03589],[-111.8522,35.03589],[-111.85217,35.0361],[-111.852,35.03601],[-111.85215,35.03588],[-111.85139,35.03571],[-111.85006,35.03589],[-111.84986,35.03605],[-111.84946,35.03609],[-111.8493,35.03664],[-111.84872,35.03702],[-111.84847,35.0377],[-111.84786,35.03849],[-111.84625,35.0397],[-111.84477,35.04028],[-111.84455,35.0406],[-111.84443,35.04197],[-111.84429,35.04213],[-111.84422,35.04261],[-111.84444,35.04252],[-111.84461,35.04276],[-111.84464,35.04419],[-111.84529,35.04594],[-111.84508,35.04738],[-111.84552,35.0477],[-111.84612,35.0479],[-111.84643,35.04818],[-111.84667,35.04892],[-111.84811,35.05025],[-111.84949,35.05101],[-111.85202,35.05181],[-111.85399,35.05341],[-111.8528,35.05689],[-111.85284,35.05747],[-111.85456,35.05856],[-111.85476,35.059],[-111.85458,35.06087],[-111.85027,35.06375],[-111.84794,35.06551],[-111.84605,35.06659],[-111.84267,35.06913],[-111.8421,35.0694],[-111.84079,35.07035],[-111.83978,35.06934],[-111.83845,35.06848],[-111.82813,35.06571],[-111.82713,35.06524],[-111.82552,35.06406],[-111.82398,35.06335],[-111.82273,35.06313],[-111.82206,35.06326],[-111.82106,35.06304],[-111.82011,35.06245],[-111.81927,35.06212],[-111.81886,35.06146],[-111.81668,35.06079],[-111.81589,35.06067],[-111.81421,35.06105],[-111.813,35.06116],[-111.81141,35.06013],[-111.80942,35.0596],[-111.80789,35.05881],[-111.80607,35.05874],[-111.80516,35.05844],[-111.80438,35.05897],[-111.80337,35.0601],[-111.80299,35.06021],[-111.80249,35.06012],[-111.79919,35.05865],[-111.79706,35.05721],[-111.79643,35.05642],[-111.79493,35.056],[-111.79144,35.05537],[-111.79125,35.05464],[-111.7908,35.05418],[-111.78943,35.05336],[-111.78826,35.05311],[-111.78471,35.05278],[-111.7825,35.05164],[-111.78195,35.05097],[-111.78172,35.05091],[-111.78181,35.05043],[-111.78154,35.04834],[-111.78118,35.04682],[-111.78131,35.04637],[-111.78217,35.04491],[-111.78223,35.04434],[-111.78174,35.04307],[-111.77905,35.0379],[-111.77888,35.03738],[-111.77893,35.03687],[-111.77911,35.03652],[-111.7815,35.03373],[-111.78161,35.03338],[-111.78151,35.03303],[-111.77614,35.02919],[-111.77546,35.02931],[-111.77369,35.02889],[-111.77282,35.02827],[-111.77205,35.02794],[-111.77181,35.02746],[-111.77303,35.02662],[-111.77342,35.02564],[-111.77393,35.02501],[-111.77449,35.02382],[-111.77532,35.02253],[-111.77587,35.02222],[-111.77676,35.02144],[-111.77721,35.02025],[-111.77728,35.01959],[-111.77864,35.01933],[-111.77894,35.01976],[-111.7791,35.01956],[-111.77939,35.01955],[-111.77964,35.01988],[-111.78022,35.01939],[-111.7803,35.01887],[-111.78058,35.01878],[-111.78078,35.01886],[-111.78093,35.01938],[-111.78085,35.01962],[-111.78047,35.01965],[-111.78063,35.02019],[-111.78184,35.01997],[-111.78212,35.01935],[-111.78196,35.01927],[-111.78193,35.01901],[-111.78228,35.01901],[-111.78329,35.01859],[-111.78418,35.0185],[-111.78453,35.01818],[-111.78455,35.01768],[-111.78498,35.01768],[-111.78517,35.01785],[-111.78601,35.01766],[-111.78625,35.01698],[-111.78667,35.01695],[-111.78709,35.01717],[-111.78722,35.01694],[-111.78759,35.01697],[-111.78789,35.01681],[-111.78778,35.01655],[-111.7868,35.01643],[-111.78684,35.01616],[-111.78614,35.0165],[-111.78538,35.01735],[-111.78484,35.01733],[-111.78446,35.01683],[-111.78452,35.0164],[-111.78366,35.01649],[-111.78085,35.01532],[-111.78319,35.01417],[-111.78353,35.01389],[-111.78346,35.01321],[-111.783,35.01307],[-111.78289,35.0127],[-111.78244,35.01287],[-111.78197,35.01238],[-111.78148,35.01227],[-111.78145,35.01212],[-111.7817,35.01201],[-111.7814,35.01156],[-111.78232,35.01124],[-111.78263,35.01127],[-111.78275,35.01147],[-111.7833,35.01169],[-111.78319,35.01125],[-111.7828,35.01081],[-111.78277,35.01067],[-111.78294,35.0105],[-111.78314,35.0104],[-111.78348,35.01078],[-111.78384,35.01078],[-111.78403,35.01049],[-111.78381,35.01038],[-111.78466,35.01014],[-111.78466,35.01],[-111.7855,35.00952],[-111.78607,35.00948],[-111.78593,35.00893],[-111.78563,35.0087],[-111.78513,35.00864],[-111.78471,35.00832],[-111.78506,35.00794],[-111.78497,35.00782],[-111.78577,35.00752],[-111.78635,35.00748],[-111.78646,35.00677],[-111.78608,35.0067],[-111.78595,35.00691],[-111.7854,35.00707],[-111.78425,35.0067],[-111.78442,35.00629],[-111.78394,35.00645],[-111.7838,35.00622],[-111.78308,35.0067],[-111.783,35.00652],[-111.78299,35.00618],[-111.78348,35.00555],[-111.78335,35.0044],[-111.78342,35.00297],[-111.78356,35.00257],[-111.78381,35.00246],[-111.78396,35.00213],[-111.78435,35.00215],[-111.78436,35.0017],[-111.78466,35.00108],[-111.78537,35.00051],[-111.78806,34.99983],[-111.78823,34.99932],[-111.78786,34.99816],[-111.7886,34.99747],[-111.78879,34.99704],[-111.79024,34.99687],[-111.79081,34.99724],[-111.79159,34.99741],[-111.79271,34.99724],[-111.79301,34.9968],[-111.79354,34.99638],[-111.79548,34.9964],[-111.79618,34.99624],[-111.79731,34.9965],[-111.79836,34.99654],[-111.79942,34.99611],[-111.80208,34.99647],[-111.80508,34.99619],[-111.80521,34.99589],[-111.80538,34.99594],[-111.80533,34.99615],[-111.80577,34.99614],[-111.80603,34.99592],[-111.80642,34.99587],[-111.80686,34.9961],[-111.80748,34.9961],[-111.80743,34.9954],[-111.80781,34.99446],[-111.80848,34.99461],[-111.80877,34.99448],[-111.80885,34.99475],[-111.80931,34.995],[-111.80999,34.99492],[-111.8103,34.99456],[-111.81054,34.99456],[-111.81086,34.99392],[-111.81068,34.99337],[-111.81096,34.99335],[-111.81207,34.99268],[-111.81272,34.99246],[-111.81275,34.99207],[-111.81294,34.99197],[-111.81325,34.99209],[-111.8133,34.99145],[-111.81449,34.99055],[-111.81462,34.9902],[-111.81576,34.98998],[-111.81657,34.98957],[-111.81775,34.98933],[-111.81841,34.98883],[-111.81808,34.98888],[-111.81771,34.98859],[-111.8175,34.98883],[-111.81704,34.98873],[-111.81661,34.98842],[-111.8168,34.98664],[-111.8162,34.98652],[-111.81677,34.98529],[-111.81717,34.98505],[-111.817,34.9845],[-111.81515,34.98412],[-111.81484,34.98428],[-111.81464,34.98461],[-111.81438,34.9844],[-111.81416,34.98469],[-111.81371,34.98478],[-111.81307,34.98456],[-111.81226,34.98471],[-111.81081,34.98456],[-111.81056,34.9847],[-111.80882,34.98471],[-111.80774,34.98436],[-111.80717,34.98463],[-111.80555,34.98483],[-111.80495,34.98456],[-111.8047,34.98408],[-111.80415,34.98359],[-111.80299,34.98299],[-111.80185,34.98212],[-111.79941,34.98164],[-111.79855,34.98167],[-111.79819,34.98145],[-111.79489,34.9815],[-111.79408,34.98135],[-111.79187,34.98052],[-111.7898,34.98037],[-111.78847,34.9806],[-111.78732,34.98019],[-111.7867,34.97967],[-111.7846,34.9788],[-111.78363,34.97818],[-111.78146,34.97763],[-111.77869,34.97775],[-111.77732,34.97703],[-111.7775,34.97679],[-111.77725,34.97658],[-111.77774,34.97574],[-111.77817,34.97532],[-111.77843,34.97463],[-111.77847,34.97434],[-111.77792,34.9738],[-111.77786,34.97352],[-111.77806,34.97321],[-111.77739,34.97248],[-111.77719,34.97234],[-111.77692,34.9724],[-111.77663,34.97204],[-111.77649,34.97148],[-111.77576,34.97069],[-111.77535,34.97048],[-111.77534,34.97026],[-111.77477,34.96971],[-111.77427,34.9696],[-111.77356,34.96987],[-111.77295,34.96993],[-111.77208,34.96947],[-111.77172,34.96947],[-111.77149,34.96908],[-111.77161,34.9688],[-111.77158,34.96836],[-111.7713,34.96792],[-111.77147,34.96742],[-111.77292,34.96651],[-111.77315,34.96592],[-111.77372,34.96566],[-111.77418,34.96504],[-111.7749,34.96454],[-111.77529,34.9639],[-111.77584,34.96387],[-111.77562,34.9634],[-111.77588,34.9633],[-111.77582,34.96309],[-111.77643,34.96221],[-111.77633,34.96204],[-111.77645,34.96181],[-111.7769,34.9614],[-111.77716,34.96142],[-111.77725,34.96168],[-111.77789,34.96166],[-111.77909,34.96108],[-111.77896,34.96062],[-111.7793,34.96044],[-111.77943,34.96016],[-111.77866,34.95977],[-111.77873,34.95949],[-111.78032,34.95931],[-111.78137,34.95943],[-111.78176,34.95929],[-111.78265,34.95953],[-111.78295,34.95909],[-111.78323,34.95924],[-111.78424,34.95911],[-111.78436,34.95936],[-111.78449,34.95936],[-111.7853,34.95908],[-111.7863,34.95901],[-111.78679,34.95927],[-111.78685,34.95962],[-111.78673,34.95972],[-111.78697,34.9599],[-111.78773,34.9597],[-111.78776,34.96041],[-111.78729,34.96084],[-111.7876,34.96097],[-111.7879,34.9608],[-111.78816,34.96103],[-111.78795,34.96136],[-111.78762,34.96153],[-111.78821,34.96205],[-111.78859,34.96215],[-111.78855,34.96264],[-111.7879,34.96301],[-111.78758,34.96293],[-111.78728,34.96347],[-111.78738,34.9639],[-111.78726,34.96418],[-111.78707,34.96421],[-111.78699,34.96388],[-111.78681,34.96381],[-111.78643,34.96401],[-111.78646,34.9642],[-111.78679,34.96426],[-111.787,34.96446],[-111.78738,34.96433],[-111.78775,34.96471],[-111.78761,34.96481],[-111.7877,34.96494],[-111.78836,34.96485],[-111.7886,34.96505],[-111.78867,34.96471],[-111.78908,34.96459],[-111.7893,34.96474],[-111.78943,34.96407],[-111.78928,34.96376],[-111.78928,34.96302],[-111.78954,34.96296],[-111.78972,34.96248],[-111.79012,34.96233],[-111.79017,34.96173],[-111.7904,34.96146],[-111.79056,34.9615],[-111.7906,34.96119],[-111.79077,34.96108],[-111.79105,34.96128],[-111.79119,34.96092],[-111.79148,34.96124],[-111.79155,34.9611],[-111.79203,34.96148],[-111.79223,34.96149],[-111.79257,34.96141],[-111.79249,34.96109],[-111.79264,34.96089],[-111.79294,34.96105],[-111.7934,34.96086],[-111.79369,34.96112],[-111.79405,34.96113],[-111.79406,34.96134],[-111.79443,34.96131],[-111.79466,34.96124],[-111.79481,34.9609],[-111.79468,34.96046],[-111.7955,34.96007],[-111.79579,34.96021],[-111.79598,34.96008],[-111.79605,34.9598],[-111.79642,34.9599],[-111.79647,34.96017],[-111.79665,34.96029],[-111.79718,34.96006],[-111.79753,34.96056],[-111.79792,34.96017],[-111.79832,34.96016],[-111.79839,34.95956],[-111.79865,34.9594],[-111.79857,34.95895],[-111.79971,34.95902],[-111.79987,34.95877],[-111.80047,34.95861],[-111.80059,34.95827],[-111.80093,34.95807],[-111.80143,34.95868],[-111.80258,34.95925],[-111.80273,34.95872],[-111.80244,34.95856],[-111.8023,34.95823],[-111.80261,34.95696],[-111.80378,34.95587],[-111.80388,34.95523],[-111.8034,34.95451],[-111.80349,34.9541],[-111.80382,34.95364],[-111.80391,34.95319],[-111.80579,34.95055],[-111.80581,34.95039],[-111.80533,34.94999],[-111.80558,34.94958],[-111.80587,34.94953],[-111.80583,34.94909],[-111.80629,34.94851],[-111.80686,34.94868],[-111.80723,34.94907],[-111.80812,34.94872],[-111.8096,34.94944],[-111.80956,34.94903],[-111.80976,34.94837],[-111.80918,34.94713],[-111.80856,34.94686],[-111.80851,34.94639],[-111.80918,34.94629],[-111.80932,34.94655],[-111.80972,34.94638],[-111.81038,34.94634],[-111.81042,34.9462],[-111.81154,34.94565],[-111.8136,34.94509],[-111.81431,34.94472],[-111.81489,34.94421],[-111.81546,34.94421],[-111.81582,34.94449],[-111.81598,34.94431],[-111.81714,34.9442],[-111.81738,34.9439],[-111.81848,34.94346],[-111.81849,34.94323],[-111.8192,34.94281],[-111.81985,34.94274],[-111.82022,34.94249],[-111.82087,34.94274],[-111.82156,34.94256],[-111.82268,34.94265],[-111.82273,34.94309],[-111.823,34.94358],[-111.82333,34.94342],[-111.82393,34.94342],[-111.82407,34.94301],[-111.82487,34.94339],[-111.82519,34.94321],[-111.82568,34.94324],[-111.82594,34.94286],[-111.82586,34.94264],[-111.8255,34.94251],[-111.82534,34.94223],[-111.82475,34.942],[-111.82449,34.94123],[-111.82479,34.9408],[-111.82532,34.94057],[-111.82513,34.93778],[-111.82546,34.93708],[-111.82524,34.93635],[-111.82597,34.93574],[-111.82626,34.93578],[-111.82661,34.93553],[-111.82716,34.93625],[-111.82755,34.9357],[-111.82781,34.93586],[-111.82799,34.93619],[-111.8283,34.93585],[-111.82866,34.9357],[-111.8293,34.93597],[-111.8313,34.936],[-111.83256,34.93633],[-111.8332,34.93631],[-111.83344,34.9362],[-111.83361,34.9359],[-111.8339,34.9358],[-111.83359,34.93435],[-111.83427,34.93349],[-111.83472,34.93337],[-111.83522,34.93382],[-111.83602,34.93364],[-111.83655,34.9337],[-111.8378,34.93466],[-111.83817,34.93533],[-111.83896,34.936],[-111.83906,34.93635],[-111.83897,34.93733],[-111.83919,34.93735],[-111.83935,34.93761],[-111.8397,34.93763],[-111.8399,34.93784],[-111.84052,34.93798],[-111.84104,34.93826],[-111.84103,34.93858],[-111.84065,34.93878],[-111.84094,34.93892],[-111.84097,34.93951],[-111.84144,34.93973],[-111.84165,34.93949],[-111.84294,34.93961],[-111.8431,34.93908],[-111.84348,34.93865],[-111.84379,34.93844],[-111.84476,34.93825],[-111.84549,34.93826],[-111.84605,34.93849],[-111.84611,34.93896],[-111.84589,34.93917],[-111.84635,34.93931],[-111.8471,34.93888],[-111.84746,34.93888],[-111.84745,34.93872],[-111.84798,34.93885],[-111.84819,34.93915],[-111.84841,34.93921],[-111.84911,34.93904],[-111.84935,34.93882],[-111.84968,34.9388],[-111.84995,34.93906],[-111.85045,34.93896],[-111.85081,34.93904],[-111.8512,34.9386],[-111.85209,34.93833],[-111.85226,34.93849],[-111.85277,34.93856],[-111.85309,34.93932],[-111.8531,34.93917],[-111.8533,34.93923],[-111.85333,34.9395],[-111.8532,34.93954],[-111.85377,34.94042],[-111.85381,34.94147],[-111.85364,34.94199],[-111.8542,34.94285],[-111.85469,34.9431],[-111.85561,34.94321],[-111.85583,34.94294],[-111.85567,34.94218],[-111.8553,34.94207],[-111.85532,34.94173],[-111.85571,34.942],[-111.85613,34.94185],[-111.85583,34.94126],[-111.85643,34.94156],[-111.85655,34.94216],[-111.85697,34.94274],[-111.85724,34.94344],[-111.85718,34.94394],[-111.85747,34.94492],[-111.85783,34.94531],[-111.8578,34.94575],[-111.85794,34.94589],[-111.85844,34.9459],[-111.8584,34.94625],[-111.85861,34.94631],[-111.85872,34.94658],[-111.85882,34.94694],[-111.85871,34.9475],[-111.85878,34.94798],[-111.86134,34.94765],[-111.86338,34.94792],[-111.86367,34.94782],[-111.86379,34.94763],[-111.86375,34.94699],[-111.8642,34.94712],[-111.86423,34.94736],[-111.86446,34.94746],[-111.86465,34.94732],[-111.86482,34.94671],[-111.86509,34.94663],[-111.86526,34.94707],[-111.86587,34.94718],[-111.86628,34.94703],[-111.86641,34.9471],[-111.8669,34.94667],[-111.86695,34.94705],[-111.8674,34.94637],[-111.8689,34.94609],[-111.86883,34.9463],[-111.86983,34.9461],[-111.87018,34.94625],[-111.87035,34.94662],[-111.8702,34.94693],[-111.87035,34.94702],[-111.87022,34.94738],[-111.87034,34.94757],[-111.87063,34.94763],[-111.87105,34.947],[-111.87147,34.94687],[-111.87149,34.94616],[-111.87225,34.94596],[-111.87256,34.94601],[-111.8727,34.94642],[-111.87332,34.94647],[-111.87368,34.94668],[-111.87424,34.94666],[-111.87483,34.94643],[-111.87532,34.94645],[-111.87575,34.94667],[-111.87591,34.94699],[-111.87682,34.94696],[-111.87779,34.94646],[-111.87841,34.94672],[-111.87875,34.94664],[-111.87883,34.94651],[-111.87938,34.94657],[-111.87931,34.94697],[-111.88007,34.94739],[-111.88049,34.94733],[-111.88081,34.94752],[-111.88112,34.9482],[-111.8822,34.94941],[-111.88248,34.94951],[-111.88262,34.94989],[-111.88299,34.95029],[-111.88362,34.95011],[-111.8838,34.95026],[-111.88394,34.95074],[-111.88441,34.95079],[-111.88435,34.95124],[-111.88454,34.95182],[-111.88434,34.95214],[-111.88447,34.95239],[-111.88478,34.95258],[-111.8845,34.95347],[-111.88404,34.95416],[-111.88375,34.95404],[-111.88362,34.95459],[-111.88338,34.95489],[-111.88302,34.95497],[-111.8826,34.95483],[-111.88231,34.95577],[-111.88311,34.95655],[-111.88308,34.95667],[-111.88542,34.95698],[-111.88566,34.95748],[-111.88566,34.95786],[-111.88616,34.95836],[-111.88629,34.9589],[-111.88611,34.95932],[-111.88468,34.95994],[-111.88388,34.96002],[-111.8835,34.95977],[-111.88327,34.9599],[-111.88276,34.95954],[-111.88267,34.95975],[-111.88186,34.9594],[-111.88152,34.95975],[-111.88075,34.95955],[-111.87993,34.96028],[-111.87971,34.9603],[-111.87966,34.96053],[-111.87903,34.9605],[-111.87892,34.96025],[-111.87842,34.9601],[-111.87814,34.95984],[-111.87787,34.96024],[-111.87766,34.96027],[-111.87766,34.96049],[-111.87688,34.96099],[-111.8763,34.96027],[-111.87553,34.9616],[-111.87581,34.9617],[-111.87607,34.96157],[-111.87647,34.96159],[-111.87653,34.96168],[-111.87565,34.96195],[-111.87565,34.9626],[-111.87654,34.96287],[-111.876,34.96324],[-111.87606,34.96338],[-111.87589,34.96351],[-111.87589,34.96384],[-111.87612,34.96425],[-111.87664,34.9646],[-111.87635,34.96471],[-111.87683,34.96474],[-111.87703,34.96506],[-111.87744,34.96425],[-111.87764,34.96424],[-111.8778,34.96467],[-111.87776,34.96523],[-111.87806,34.96535],[-111.8781,34.96551],[-111.8784,34.9653],[-111.87864,34.96545],[-111.87916,34.96524],[-111.87944,34.96526],[-111.87979,34.96576],[-111.88287,34.96417],[-111.88295,34.96529],[-111.88466,34.96478],[-111.88519,34.96478],[-111.88561,34.96466],[-111.88565,34.96452],[-111.88583,34.96465],[-111.88577,34.96472],[-111.88601,34.96474],[-111.88625,34.96463],[-111.88623,34.96438],[-111.88656,34.96454],[-111.88706,34.96432],[-111.88733,34.96439],[-111.8873,34.96458],[-111.88746,34.96469],[-111.88784,34.96458],[-111.88837,34.96485],[-111.88855,34.96479],[-111.88856,34.96492],[-111.88889,34.96511],[-111.88876,34.96576],[-111.88851,34.96589],[-111.88836,34.96566],[-111.88814,34.96578],[-111.88819,34.96563],[-111.88805,34.96538],[-111.88784,34.96557],[-111.88798,34.96559],[-111.88798,34.96584],[-111.88819,34.96592],[-111.88825,34.96646],[-111.88857,34.96655],[-111.88874,34.96637],[-111.88896,34.9665],[-111.88885,34.96689],[-111.88893,34.967],[-111.88909,34.96679],[-111.88942,34.96681],[-111.88928,34.96707],[-111.88927,34.96751],[-111.88976,34.9676],[-111.88981,34.96782],[-111.88996,34.96778],[-111.89014,34.96814],[-111.89006,34.96825],[-111.89053,34.96852],[-111.8905,34.96862],[-111.89089,34.96862],[-111.8909,34.96883],[-111.8907,34.96906],[-111.8912,34.96926],[-111.89126,34.96971],[-111.89156,34.96978],[-111.89144,34.96998],[-111.89158,34.97032],[-111.89193,34.97009],[-111.89173,34.96984],[-111.89185,34.96961],[-111.89219,34.96964],[-111.89232,34.96978],[-111.89245,34.96965],[-111.89269,34.97009],[-111.89314,34.96997],[-111.8933,34.97005],[-111.89325,34.97034],[-111.893,34.97039],[-111.89319,34.97052],[-111.89296,34.97102],[-111.89247,34.97104],[-111.89253,34.97085],[-111.89241,34.9708],[-111.8921,34.9709],[-111.8923,34.97172],[-111.89251,34.97169],[-111.89287,34.97194],[-111.89305,34.97181],[-111.8933,34.97227],[-111.89369,34.97221],[-111.89361,34.97247],[-111.8937,34.97278],[-111.89355,34.97295],[-111.89382,34.97307],[-111.89348,34.97336],[-111.89367,34.9734],[-111.89429,34.97311],[-111.89507,34.97403],[-111.89642,34.97403],[-111.8973,34.9747],[-111.89723,34.97532],[-111.89673,34.97527],[-111.89627,34.97575],[-111.89592,34.97583],[-111.89583,34.97616],[-111.89513,34.97657],[-111.89497,34.97699],[-111.895,34.97727],[-111.89621,34.97765],[-111.89697,34.97813],[-111.89714,34.97838],[-111.89714,34.97867],[-111.89802,34.97865],[-111.89872,34.97883],[-111.89968,34.97928],[-111.90038,34.97977],[-111.90194,34.98051],[-111.90433,34.98233],[-111.90448,34.98299],[-111.90465,34.98307],[-111.90452,34.98329],[-111.90461,34.98375],[-111.90486,34.98403],[-111.9049,34.98433],[-111.90518,34.98477],[-111.90585,34.98559],[-111.90585,34.98795],[-111.90685,34.99164],[-111.90969,34.9943],[-111.90956,34.99453],[-111.90826,34.99548],[-111.90781,34.99662],[-111.90806,34.99696],[-111.91044,34.99832],[-111.91018,34.9989],[-111.91042,34.99959],[-111.9103,35.0001],[-111.90998,35.00064],[-111.90965,35.00091],[-111.90931,35.00182],[-111.90936,35.00295],[-111.90981,35.00369],[-111.90917,35.00415],[-111.90894,35.00444],[-111.90889,35.00479],[-111.90907,35.00526],[-111.90961,35.00597],[-111.91186,35.00746],[-111.91287,35.00775]]],[[[-111.83473,34.9307],[-111.83497,34.93077],[-111.83497,34.93105],[-111.83437,34.93136],[-111.83436,34.93091],[-111.83473,34.9307]]],[[[-111.8346,34.93237],[-111.83544,34.93289],[-111.83553,34.93309],[-111.83507,34.93322],[-111.83494,34.93304],[-111.83439,34.93288],[-111.83426,34.93266],[-111.8346,34.93237]]],[[[-111.83003,34.93521],[-111.83007,34.93445],[-111.83036,34.93471],[-111.83039,34.93513],[-111.83022,34.93546],[-111.83003,34.93521]]],[[[-111.85358,34.93952],[-111.85359,34.93933],[-111.85376,34.93935],[-111.85373,34.93954],[-111.85358,34.93952]]],[[[-111.86835,34.94583],[-111.86841,34.94552],[-111.86875,34.94563],[-111.86863,34.9459],[-111.86835,34.94583]]],[[[-111.86576,34.94648],[-111.86564,34.94613],[-111.8661,34.94615],[-111.8661,34.94643],[-111.86576,34.94648]]],[[[-111.77533,34.97871],[-111.77566,34.97855],[-111.77581,34.97869],[-111.77602,34.97901],[-111.776,34.97928],[-111.77568,34.97937],[-111.77525,34.97908],[-111.77533,34.97871]]]]},"properties":{"fire_id":"ufid:2026-AZCOF-000781","source_collection":"ytd","source_objectid":55036,"incident_name":"Pocket","mapped_acres":27392.830437736735,"mapped_acres_source":"poly_GISAcres","gis_acres":27392.830437736735,"auto_acres":27392.72891410862,"reported_acres":27393.0,"percent_contained":100.0,"state":"AZ","state_wfigs":"US-AZ","county":"Yavapai","discovery_time_utc":"2026-06-20T00:01:00Z","perimeter_time_utc":"2026-07-11T22:33:00Z","perimeter_edit_time_utc":"2026-07-18T18:26:08Z","incident_modified_time_utc":"2026-07-31T21:48:01Z","containment_time_utc":"2026-07-30T20:30:00Z","control_time_utc":null,"fire_out_time_utc":null,"fire_cause":"Undetermined","fire_cause_general":null,"map_method":"Mixed Methods","source_dataset":"2026 NIFS","unique_fire_identifier":"2026-AZCOF-000781","irwin_id":"{21164556-6ADD-4481-810D-637569005FDC}","global_id":"03db9553-c7d4-4de4-a81e-9bc26458a921"}},{"type":"Feature","geometry":{"type":"Polygon","coordinates":[[[-111.95564,35.39688],[-111.95623,35.39515],[-111.95684,35.3951],[-111.95777,35.3941],[-111.95891,35.39365],[-111.95922,35.39335],[-111.95994,35.39314],[-111.96078,35.39257],[-111.96185,35.3925],[-111.96305,35.39212],[-111.96371,35.39206],[-111.96414,35.39166],[-111.96439,35.3917],[-111.96465,35.39133],[-111.96532,35.39134],[-111.96529,35.39166],[-111.96563,35.39181],[-111.96563,35.39208],[-111.96523,35.3922],[-111.96518,35.39251],[-111.96452,35.39265],[-111.96433,35.39502],[-111.96388,35.39541],[-111.9635,35.39537],[-111.96307,35.39553],[-111.96327,35.39598],[-111.96219,35.39615],[-111.96215,35.39724],[-111.96201,35.39746],[-111.96213,35.39766],[-111.96198,35.39798],[-111.96142,35.39812],[-111.96124,35.39864],[-111.96089,35.39871],[-111.96041,35.39902],[-111.96014,35.39865],[-111.95851,35.39876],[-111.958,35.39931],[-111.95788,35.40033],[-111.95755,35.40062],[-111.95683,35.40066],[-111.95621,35.40032],[-111.95624,35.39996],[-111.95656,35.3994],[-111.95512,35.39742],[-111.95536,35.39695],[-111.95564,35.39688]]]},"properties":{"fire_id":"ufid:2026-AZA1S-260845","source_collection":"ytd","source_objectid":55328,"incident_name":"Spring","mapped_acres":110.03090833063825,"mapped_acres_source":"poly_GISAcres","gis_acres":110.03090833063825,"auto_acres":110.03050007385059,"reported_acres":110.0,"percent_contained":null,"state":"AZ","state_wfigs":"US-AZ","county":"Coconino","discovery_time_utc":"2026-06-27T20:48:00Z","perimeter_time_utc":null,"perimeter_edit_time_utc":"2026-07-02T21:39:01Z","incident_modified_time_utc":"2026-07-07T15:22:11Z","containment_time_utc":"2026-07-02T01:00:00Z","control_time_utc":"2026-07-05T19:00:00Z","fire_out_time_utc":"2026-07-07T15:21:00Z","fire_cause":"Human","fire_cause_general":null,"map_method":"Mixed Methods","source_dataset":"2026 NIFS","unique_fire_identifier":"2026-AZA1S-260845","irwin_id":"{1AD19502-970E-4E41-B74E-D1F6D855CA51}","global_id":"47ff0e6c-a78d-4401-abd3-3fbd9fe8d1a7"}},{"type":"Feature","geometry":{"type":"Polygon","coordinates":[[[-112.10167,35.86233],[-112.10212,35.8621],[-112.10428,35.86156],[-112.10437,35.86183],[-112.10348,35.86321],[-112.10296,35.86492],[-112.10212,35.86611],[-112.10144,35.86651],[-112.10052,35.86652],[-112.10013,35.86687],[-112.10004,35.86736],[-112.10059,35.86788],[-112.09984,35.86839],[-112.09972,35.86878],[-112.0993,35.86885],[-112.09859,35.86939],[-112.09754,35.86947],[-112.09654,35.87017],[-112.09587,35.87037],[-112.09532,35.87036],[-112.09485,35.87065],[-112.0943,35.87136],[-112.09358,35.8728],[-112.09313,35.87271],[-112.09262,35.87312],[-112.09243,35.87416],[-112.09205,35.87444],[-112.09228,35.87497],[-112.0915,35.87504],[-112.09082,35.87555],[-112.09036,35.8757],[-112.08961,35.87562],[-112.08896,35.87518],[-112.08801,35.87619],[-112.08811,35.87644],[-112.08854,35.87681],[-112.08718,35.87812],[-112.08704,35.8786],[-112.08703,35.87934],[-112.08631,35.87899],[-112.08553,35.87927],[-112.08475,35.87993],[-112.08462,35.8808],[-112.08383,35.8807],[-112.08351,35.88099],[-112.08285,35.88082],[-112.08254,35.88111],[-112.08162,35.88112],[-112.08043,35.88192],[-112.07975,35.88139],[-112.08047,35.88073],[-112.08081,35.87992],[-112.08175,35.87921],[-112.08213,35.87876],[-112.08233,35.87821],[-112.08242,35.87693],[-112.08265,35.87643],[-112.08306,35.8762],[-112.08382,35.87603],[-112.08494,35.87504],[-112.08605,35.87475],[-112.08683,35.87415],[-112.0871,35.87414],[-112.08762,35.87442],[-112.08821,35.87428],[-112.08857,35.87404],[-112.08898,35.87309],[-112.08954,35.87234],[-112.09008,35.87061],[-112.09068,35.8703],[-112.09099,35.86995],[-112.09109,35.86886],[-112.09154,35.86904],[-112.09196,35.86842],[-112.09249,35.86822],[-112.0929,35.86789],[-112.09306,35.8674],[-112.0936,35.86738],[-112.09393,35.86723],[-112.09413,35.86697],[-112.09423,35.86647],[-112.09448,35.86624],[-112.09521,35.86605],[-112.0962,35.86534],[-112.09789,35.86505],[-112.09842,35.86447],[-112.09899,35.86411],[-112.09877,35.86375],[-112.09924,35.86364],[-112.10059,35.86259],[-112.10167,35.86233]]]},"properties":{"fire_id":"ufid:2026-AZKNF-000588","source_collection":"ytd","source_objectid":55380,"incident_name":"Butte","mapped_acres":255.0,"mapped_acres_source":"poly_GISAcres","gis_acres":255.0,"auto_acres":245.60358453623786,"reported_acres":245.0,"percent_contained":100.0,"state":"AZ","state_wfigs":"US-AZ","county":"Coconino","discovery_time_utc":"2026-06-27T18:11:00Z","perimeter_time_utc":"2026-06-28T05:16:21Z","perimeter_edit_time_utc":"2026-07-25T13:43:57Z","incident_modified_time_utc":"2026-08-05T23:16:02Z","containment_time_utc":"2026-06-30T15:00:00Z","control_time_utc":"2026-07-20T19:40:00Z","fire_out_time_utc":"2026-07-23T19:48:00Z","fire_cause":"Natural","fire_cause_general":null,"map_method":"Image Interpretation","source_dataset":"2026 NIFS","unique_fire_identifier":"2026-AZKNF-000588","irwin_id":"{A8B0E2A1-07CC-4CC8-9BDA-F27DDDAF7F5B}","global_id":"c944b0a7-aaf4-4281-80f4-5d86168b100e"}},{"type":"Feature","geometry":{"type":"Polygon","coordinates":[[[-111.93843,36.12439],[-111.93258,36.12459],[-111.93039,36.12409],[-111.92999,36.12314],[-111.92971,36.12196],[-111.92872,36.12084],[-111.9268,36.12021],[-111.92464,36.11902],[-111.92497,36.11704],[-111.92716,36.11683],[-111.92853,36.11747],[-111.92983,36.11785],[-111.93198,36.1172],[-111.93386,36.1169],[-111.93495,36.11807],[-111.93465,36.11956],[-111.93809,36.12105],[-111.94017,36.12152],[-111.93952,36.12377],[-111.93843,36.12439]]]},"properties":{"fire_id":"ufid:2026-AZGCP-000578","source_collection":"ytd","source_objectid":55398,"incident_name":"Cliff Spring","mapped_acres":171.0724375199734,"mapped_acres_source":"poly_GISAcres","gis_acres":171.0724375199734,"auto_acres":171.07175737893317,"reported_acres":170.0,"percent_contained":null,"state":"AZ","state_wfigs":"US-AZ","county":"Coconino","discovery_time_utc":"2026-06-26T17:20:00Z","perimeter_time_utc":"2026-06-29T13:54:07Z","perimeter_edit_time_utc":"2026-06-29T21:43:22Z","incident_modified_time_utc":"2026-08-15T23:12:32Z","containment_time_utc":null,"control_time_utc":null,"fire_out_time_utc":null,"fire_cause":"Natural","fire_cause_general":null,"map_method":"Auto-generated for InFORM","source_dataset":"2026 NIFS","unique_fire_identifier":"2026-AZGCP-000578","irwin_id":"{8A73E623-6A18-47D2-B977-F95E30BACEC8}","global_id":"f939ac30-8dd6-4c92-a192-23a055406902"}},{"type":"Feature","geometry":{"type":"Polygon","coordinates":[[[-113.13047,35.8136],[-113.1304,35.81381],[-113.13003,35.81401],[-113.1298,35.81375],[-113.13029,35.81323],[-113.13047,35.8136]]]},"properties":{"fire_id":"ufid:2026-AZTCA-000663","source_collection":"ytd","source_objectid":56170,"incident_name":"Pine Spring","mapped_acres":0.7342639975751176,"mapped_acres_source":"poly_GISAcres","gis_acres":0.7342639975751176,"auto_acres":0.7342609605251997,"reported_acres":0.75,"percent_contained":null,"state":"AZ","state_wfigs":"US-AZ","county":"Coconino","discovery_time_utc":"2026-07-13T19:07:12Z","perimeter_time_utc":"2026-07-14T14:34:11Z","perimeter_edit_time_utc":"2026-07-14T19:00:54Z","incident_modified_time_utc":"2026-07-20T21:38:47Z","containment_time_utc":"2026-07-16T19:32:00Z","control_time_utc":"2026-07-16T19:32:00Z","fire_out_time_utc":"2026-07-20T17:01:00Z","fire_cause":"Natural","fire_cause_general":null,"map_method":"Auto-generated for InFORM","source_dataset":"2026 NIFS","unique_fire_identifier":"2026-AZTCA-000663","irwin_id":"{913B26D9-6A0A-48A7-AC05-7E3E96930DDE}","global_id":"97165fe8-adae-4b67-bfd2-f6afb98b7404"}},{"type":"Feature","geometry":{"type":"Polygon","coordinates":[[[-113.15089,35.78011],[-113.1506,35.78032],[-113.1505,35.78021],[-113.15011,35.78021],[-113.15,35.78001],[-113.15035,35.77983],[-113.15049,35.77988],[-113.15043,35.77981],[-113.15059,35.77973],[-113.15089,35.78011]]]},"properties":{"fire_id":"ufid:2026-AZTCA-000673","source_collection":"ytd","source_objectid":56203,"incident_name":"Pinnacle","mapped_acres":0.7184770963476689,"mapped_acres_source":"poly_GISAcres","gis_acres":0.7184770963476689,"auto_acres":0.7184744110433285,"reported_acres":1.0,"percent_contained":null,"state":"AZ","state_wfigs":"US-AZ","county":"Coconino","discovery_time_utc":"2026-07-14T22:27:00Z","perimeter_time_utc":"2026-07-15T00:47:53Z","perimeter_edit_time_utc":"2026-07-15T03:09:23Z","incident_modified_time_utc":"2026-07-20T21:40:26Z","containment_time_utc":"2026-07-20T17:01:00Z","control_time_utc":"2026-07-20T17:01:00Z","fire_out_time_utc":"2026-07-20T17:01:00Z","fire_cause":"Natural","fire_cause_general":null,"map_method":"Auto-generated for InFORM","source_dataset":"2026 NIFS","unique_fire_identifier":"2026-AZTCA-000673","irwin_id":"{6D2E91FD-D909-4986-BDAC-DE15A76FF6A9}","global_id":"6c58e964-8b4e-4fac-94af-2e3f27a4be16"}},{"type":"Feature","geometry":{"type":"MultiPolygon","coordinates":[[[[-111.1895,35.30282],[-111.18945,35.30265],[-111.18742,35.30238],[-111.18726,35.30221],[-111.18737,35.30211],[-111.19383,35.30308],[-111.19401,35.30327],[-111.18969,35.30268],[-111.1895,35.30282]]],[[[-111.21161,35.30674],[-111.2106,35.3063],[-111.21072,35.30623],[-111.21061,35.30614],[-111.20989,35.306],[-111.20953,35.30575],[-111.20917,35.30584],[-111.2093,35.30567],[-111.20896,35.30577],[-111.20898,35.30569],[-111.20887,35.30573],[-111.20896,35.30558],[-111.20878,35.30559],[-111.20872,35.30547],[-111.20823,35.30546],[-111.20718,35.30506],[-111.20672,35.305],[-111.20658,35.30516],[-111.20513,35.30488],[-111.20441,35.30495],[-111.20443,35.30479],[-111.20417,35.30476],[-111.2039,35.30496],[-111.20383,35.3047],[-111.19985,35.30415],[-111.19936,35.30421],[-111.19923,35.30407],[-111.19584,35.30365],[-111.1958,35.30354],[-111.19588,35.3034],[-111.19605,35.3034],[-111.20789,35.30511],[-111.20977,35.30567],[-111.21273,35.30694],[-111.21161,35.30674]]],[[[-111.21479,35.3079],[-111.21755,35.309],[-111.21745,35.30909],[-111.21771,35.30924],[-111.21771,35.30911],[-111.21805,35.30923],[-111.21793,35.30933],[-111.2176,35.30927],[-111.21613,35.30868],[-111.21491,35.30812],[-111.21497,35.30801],[-111.21479,35.3079]]],[[[-111.22101,35.31069],[-111.22128,35.31061],[-111.22193,35.31091],[-111.22101,35.31069]]]]},"properties":{"fire_id":"ufid:2026-AZNAA-000113","source_collection":"ytd","source_objectid":56347,"incident_name":"HWY 15 MM 4.4","mapped_acres":5.0,"mapped_acres_source":"poly_GISAcres","gis_acres":5.0,"auto_acres":13.837348803085641,"reported_acres":13.8,"percent_contained":null,"state":"AZ","state_wfigs":"US-AZ","county":"Navajo","discovery_time_utc":"2026-06-19T18:56:30Z","perimeter_time_utc":"2026-07-19T22:54:54Z","perimeter_edit_time_utc":null,"incident_modified_time_utc":"2026-06-19T21:24:05Z","containment_time_utc":"2026-06-19T22:25:00Z","control_time_utc":"2026-06-20T00:20:00Z","fire_out_time_utc":"2026-06-20T01:30:00Z","fire_cause":"Human","fire_cause_general":"Arson","map_method":"Auto-generated for InFORM","source_dataset":"FFP","unique_fire_identifier":"2026-AZNAA-000113","irwin_id":"{126C8875-12EE-4B84-BE18-ED88194ABFED}","global_id":"a9193a6d-e98d-4a91-8d7b-e6beb4c2234f"}},{"type":"Feature","geometry":{"type":"Polygon","coordinates":[[[-112.09875,35.45211],[-112.0978,35.45174],[-112.09763,35.45149],[-112.09766,35.45125],[-112.09803,35.45104],[-112.09923,35.45127],[-112.09914,35.45177],[-112.09875,35.45211]]]},"properties":{"fire_id":"ufid:2026-AZKNF-000490","source_collection":"ytd","source_objectid":56585,"incident_name":"Basin","mapped_acres":1.955865,"mapped_acres_source":"poly_GISAcres","gis_acres":1.955865,"auto_acres":3.116180247408661,"reported_acres":4.5,"percent_contained":null,"state":"AZ","state_wfigs":"US-AZ","county":"Coconino","discovery_time_utc":"2026-06-13T23:25:00Z","perimeter_time_utc":"2026-07-23T21:36:56Z","perimeter_edit_time_utc":null,"incident_modified_time_utc":"2026-06-15T21:32:14Z","containment_time_utc":"2026-06-15T21:32:00Z","control_time_utc":"2026-06-16T23:30:00Z","fire_out_time_utc":"2026-06-25T19:09:00Z","fire_cause":"Natural","fire_cause_general":"Natural","map_method":"GPS-Walked","source_dataset":"FFP","unique_fire_identifier":"2026-AZKNF-000490","irwin_id":"{8A163448-61B3-4C50-94AF-01B07735A53F}","global_id":"03aae0fd-2049-4078-adf4-c0cc87dcbe4c"}},{"type":"Feature","geometry":{"type":"Polygon","coordinates":[[[-112.00754,35.55964],[-112.00742,35.55966],[-112.007522,35.559605],[-112.00736,35.55949],[-112.0075,35.55933],[-112.00803,35.55952],[-112.00817,35.55983],[-112.00794,35.56003],[-112.00772,35.55986],[-112.00746,35.56],[-112.00754,35.55964]]]},"properties":{"fire_id":"ufid:2026-AZKNF-000666","source_collection":"ytd","source_objectid":56586,"incident_name":"Miller Wash","mapped_acres":0.81,"mapped_acres_source":"poly_GISAcres","gis_acres":0.81,"auto_acres":0.7956987177813103,"reported_acres":0.8,"percent_contained":null,"state":"AZ","state_wfigs":"US-AZ","county":"Coconino","discovery_time_utc":"2026-07-13T22:30:16Z","perimeter_time_utc":"2026-07-23T21:41:41Z","perimeter_edit_time_utc":null,"incident_modified_time_utc":"2026-07-14T00:03:00Z","containment_time_utc":"2026-07-14T03:00:00Z","control_time_utc":null,"fire_out_time_utc":"2026-07-16T19:26:00Z","fire_cause":"Natural","fire_cause_general":"Natural","map_method":"Auto-generated for InFORM","source_dataset":"FFP","unique_fire_identifier":"2026-AZKNF-000666","irwin_id":"{0FA39872-0F36-4F9E-81AF-37DDDBBBEB20}","global_id":"ecf2bca7-20af-4e46-a025-b6ed4e22320d"}},{"type":"Feature","geometry":{"type":"Polygon","coordinates":[[[-111.89258,35.92685],[-111.8924,35.92725],[-111.8918,35.92722],[-111.89175,35.92753],[-111.89146,35.92737],[-111.89168,35.92722],[-111.89125,35.92727],[-111.89066,35.92696],[-111.89141,35.92684],[-111.89138,35.92667],[-111.89173,35.92684],[-111.8921,35.92683],[-111.89233,35.92666],[-111.89258,35.92685]]]},"properties":{"fire_id":"ufid:2026-AZKNF-000510","source_collection":"ytd","source_objectid":56588,"incident_name":"Basin","mapped_acres":1.949887,"mapped_acres_source":"poly_GISAcres","gis_acres":1.949887,"auto_acres":1.9498797297609576,"reported_acres":1.96,"percent_contained":null,"state":"AZ","state_wfigs":"US-AZ","county":"Coconino","discovery_time_utc":"2026-06-15T23:52:00Z","perimeter_time_utc":"2026-07-23T22:04:43Z","perimeter_edit_time_utc":null,"incident_modified_time_utc":"2026-07-05T17:23:04Z","containment_time_utc":"2026-06-18T20:00:00Z","control_time_utc":"2026-06-22T18:01:00Z","fire_out_time_utc":"2026-07-05T17:22:00Z","fire_cause":"Natural","fire_cause_general":"Natural","map_method":"GPS-Walked","source_dataset":"FFP","unique_fire_identifier":"2026-AZKNF-000510","irwin_id":"{1A2C0CC3-0CA8-4B8A-90F6-63EAB6D8D86B}","global_id":"88337e7c-7edb-47d0-b904-77138e34830a"}},{"type":"Feature","geometry":{"type":"Polygon","coordinates":[[[-112.4988,36.64342],[-112.49923,36.64357],[-112.49843,36.64487],[-112.49818,36.64493],[-112.49817,36.64523],[-112.49795,36.64565],[-112.49777,36.64563],[-112.49751,36.64531],[-112.49723,36.64563],[-112.49732,36.64584],[-112.49672,36.64641],[-112.49592,36.64672],[-112.4961,36.64698],[-112.49571,36.64755],[-112.49603,36.64749],[-112.49622,36.6477],[-112.49598,36.64832],[-112.4953,36.64863],[-112.49442,36.64836],[-112.49396,36.64848],[-112.49474,36.64861],[-112.49511,36.6489],[-112.49487,36.64913],[-112.49413,36.64946],[-112.49332,36.64961],[-112.49291,36.6495],[-112.49198,36.64957],[-112.49154,36.64931],[-112.49089,36.64956],[-112.48958,36.64954],[-112.48934,36.64986],[-112.48888,36.65003],[-112.48788,36.64878],[-112.48801,36.64823],[-112.48897,36.64694],[-112.49001,36.64621],[-112.49233,36.64612],[-112.49313,36.64627],[-112.49359,36.64609],[-112.49362,36.64555],[-112.49338,36.64485],[-112.49333,36.6441],[-112.49364,36.6431],[-112.49363,36.64265],[-112.49336,36.64209],[-112.49244,36.64096],[-112.49271,36.64024],[-112.49345,36.63966],[-112.4945,36.63959],[-112.49619,36.64037],[-112.49668,36.64048],[-112.49709,36.64019],[-112.49711,36.63987],[-112.49689,36.63948],[-112.49716,36.63933],[-112.49827,36.63918],[-112.49956,36.63922],[-112.49954,36.63952],[-112.50011,36.63977],[-112.49966,36.64075],[-112.49921,36.64111],[-112.49927,36.64136],[-112.49948,36.64143],[-112.50022,36.6413],[-112.50114,36.64045],[-112.50178,36.6406],[-112.50163,36.6408],[-112.50121,36.64091],[-112.50023,36.64173],[-112.49893,36.64243],[-112.49851,36.64303],[-112.4988,36.64342]]]},"properties":{"fire_id":"ufid:2026-AZKNF-000333","source_collection":"ytd","source_objectid":56589,"incident_name":"Slide Canyon","mapped_acres":152.2577,"mapped_acres_source":"poly_GISAcres","gis_acres":152.2577,"auto_acres":152.25716132637305,"reported_acres":152.0,"percent_contained":null,"state":"AZ","state_wfigs":"US-AZ","county":"Coconino","discovery_time_utc":"2026-05-11T00:00:00Z","perimeter_time_utc":"2026-07-23T22:16:30Z","perimeter_edit_time_utc":null,"incident_modified_time_utc":"2026-05-31T18:46:46Z","containment_time_utc":"2026-05-12T02:40:00Z","control_time_utc":"2026-05-17T21:28:00Z","fire_out_time_utc":"2026-05-31T18:45:00Z","fire_cause":"Undetermined","fire_cause_general":"Undetermined","map_method":"Mixed Methods","source_dataset":"FFP","unique_fire_identifier":"2026-AZKNF-000333","irwin_id":"{EC8A67FC-46ED-4E08-AEEA-0330E82117D0}","global_id":"80d34855-5d71-4aed-9ed2-97aa4244bfe3"}},{"type":"Feature","geometry":{"type":"Polygon","coordinates":[[[-113.67798,36.62984],[-113.67701,36.62981],[-113.67715,36.62939],[-113.67707,36.62922],[-113.67678,36.6291],[-113.67692,36.62907],[-113.67685,36.62898],[-113.67724,36.62893],[-113.67714,36.62881],[-113.67737,36.62865],[-113.67773,36.6286],[-113.67783,36.62869],[-113.67796,36.62849],[-113.67779,36.62847],[-113.67798,36.62834],[-113.67828,36.62837],[-113.67868,36.62759],[-113.67858,36.6275],[-113.67874,36.6274],[-113.67938,36.62807],[-113.6809,36.6287],[-113.68094,36.62897],[-113.68067,36.62902],[-113.68118,36.62933],[-113.68064,36.62958],[-113.67898,36.62955],[-113.67873,36.62943],[-113.67855,36.6297],[-113.67798,36.62984]]]},"properties":{"fire_id":"ufid:2026-AZASD-000372","source_collection":"ytd","source_objectid":57272,"incident_name":"Hobble","mapped_acres":12.98678,"mapped_acres_source":"poly_GISAcres","gis_acres":12.98678,"auto_acres":12.986734154862317,"reported_acres":13.0,"percent_contained":null,"state":"AZ","state_wfigs":"US-AZ","county":"Mohave","discovery_time_utc":"2026-07-19T16:24:34Z","perimeter_time_utc":"2026-08-04T19:20:35Z","perimeter_edit_time_utc":null,"incident_modified_time_utc":"2026-08-03T17:17:34Z","containment_time_utc":"2026-07-19T21:02:00Z","control_time_utc":"2026-07-21T18:15:00Z","fire_out_time_utc":"2026-08-03T18:00:00Z","fire_cause":"Natural","fire_cause_general":"Natural","map_method":"Mixed Methods","source_dataset":"FFP","unique_fire_identifier":"2026-AZASD-000372","irwin_id":"{CFCA2640-FF3A-42DF-BDC5-0AE49E735D30}","global_id":"b97f344c-7460-48e7-96d0-45881e1f722a"}},{"type":"Feature","geometry":{"type":"MultiPolygon","coordinates":[[[[-113.51582,36.08524],[-113.51536,36.08478],[-113.51521,36.08421],[-113.51497,36.08387],[-113.51352,36.08331],[-113.51337,36.08352],[-113.51319,36.08352],[-113.51303,36.08334],[-113.51315,36.08311],[-113.51245,36.08234],[-113.5123,36.0816],[-113.51254,36.08086],[-113.51317,36.08031],[-113.51375,36.0801],[-113.51537,36.07991],[-113.51608,36.07953],[-113.51617,36.07892],[-113.51562,36.07843],[-113.51471,36.0784],[-113.51381,36.07869],[-113.51187,36.07967],[-113.5122,36.07987],[-113.51216,36.08007],[-113.51169,36.07977],[-113.50807,36.08195],[-113.50609,36.0823],[-113.50503,36.08223],[-113.5044,36.08203],[-113.50293,36.0811],[-113.503,36.081],[-113.50351,36.0811],[-113.5036,36.0809],[-113.50407,36.08074],[-113.50467,36.08076],[-113.50484,36.08096],[-113.50514,36.081],[-113.50503,36.08057],[-113.50565,36.0804],[-113.506,36.08063],[-113.50611,36.08088],[-113.50627,36.08079],[-113.50645,36.08052],[-113.50634,36.08022],[-113.50558,36.07962],[-113.50539,36.07965],[-113.50549,36.07995],[-113.50534,36.08],[-113.50527,36.07962],[-113.50568,36.07945],[-113.50603,36.07825],[-113.50706,36.07683],[-113.50706,36.07655],[-113.50916,36.07562],[-113.50969,36.07531],[-113.5096,36.07494],[-113.50981,36.07497],[-113.5099,36.07517],[-113.51068,36.07454],[-113.51117,36.074],[-113.5106,36.07391],[-113.5105,36.0737],[-113.51059,36.07363],[-113.51086,36.07387],[-113.51114,36.07367],[-113.51142,36.07366],[-113.51222,36.07254],[-113.51351,36.07152],[-113.51331,36.07134],[-113.51305,36.07138],[-113.5129,36.07143],[-113.51276,36.07173],[-113.51262,36.07166],[-113.51249,36.0713],[-113.51273,36.07122],[-113.51293,36.07094],[-113.51376,36.07064],[-113.51383,36.07095],[-113.51422,36.07095],[-113.51427,36.07108],[-113.51875,36.06938],[-113.52079,36.06905],[-113.5226,36.06949],[-113.52306,36.06972],[-113.52335,36.07013],[-113.52418,36.07047],[-113.52716,36.07131],[-113.52897,36.07262],[-113.52954,36.07265],[-113.52996,36.07243],[-113.53056,36.07132],[-113.53036,36.07112],[-113.53035,36.07093],[-113.53047,36.07062],[-113.53062,36.0706],[-113.53187,36.07092],[-113.53245,36.07127],[-113.53457,36.07169],[-113.535,36.07194],[-113.53526,36.07245],[-113.53541,36.07241],[-113.53566,36.07259],[-113.53572,36.07283],[-113.53548,36.07308],[-113.53614,36.07432],[-113.53645,36.0745],[-113.53659,36.07479],[-113.53705,36.07642],[-113.53667,36.07734],[-113.53649,36.07751],[-113.53653,36.07813],[-113.53632,36.07804],[-113.53626,36.07781],[-113.5355,36.07861],[-113.53445,36.07939],[-113.53442,36.07955],[-113.53386,36.07971],[-113.53291,36.08023],[-113.53042,36.08173],[-113.53034,36.08199],[-113.53,36.08193],[-113.53006,36.08221],[-113.52996,36.0823],[-113.52984,36.082],[-113.5295,36.08219],[-113.52883,36.08231],[-113.5287,36.08249],[-113.52851,36.08238],[-113.52422,36.08308],[-113.52365,36.08307],[-113.52366,36.08342],[-113.52347,36.08308],[-113.51981,36.08313],[-113.51843,36.08366],[-113.5167,36.08503],[-113.51582,36.08524]]],[[[-113.50449,36.07831],[-113.50466,36.07825],[-113.50465,36.0786],[-113.50448,36.07855],[-113.50449,36.07831]]],[[[-113.51467,36.08491],[-113.51486,36.08491],[-113.51497,36.08529],[-113.51473,36.08532],[-113.51467,36.08491]]]]},"properties":{"fire_id":"ufid:2026-NVLAP-000211","source_collection":"ytd","source_objectid":57363,"incident_name":"Dellenbaugh","mapped_acres":778.6254,"mapped_acres_source":"poly_GISAcres","gis_acres":778.6254,"auto_acres":778.6224411857786,"reported_acres":778.63,"percent_contained":null,"state":"AZ","state_wfigs":"US-AZ","county":"Mohave","discovery_time_utc":"2026-06-15T20:11:24Z","perimeter_time_utc":"2026-09-08T20:46:25Z","perimeter_edit_time_utc":null,"incident_modified_time_utc":"2026-09-08T20:44:25Z","containment_time_utc":"2026-06-30T21:30:00Z","control_time_utc":"2026-07-17T21:00:00Z","fire_out_time_utc":"2026-08-04T14:00:00Z","fire_cause":"Natural","fire_cause_general":"Natural","map_method":"Mixed Methods","source_dataset":"FFP","unique_fire_identifier":"2026-NVLAP-000211","irwin_id":"{D2A2E720-CB4F-4F98-A6C6-3417FA0AD791}","global_id":"5850ad2d-daa8-4aab-9c64-d3e505e0a2fa"}},{"type":"Feature","geometry":{"type":"Polygon","coordinates":[[[-113.71358,36.14237],[-113.71328,36.14268],[-113.71364,36.14298],[-113.71392,36.14284],[-113.71406,36.1425],[-113.71429,36.14244],[-113.71434,36.14209],[-113.71545,36.14212],[-113.71567,36.14223],[-113.71561,36.1426],[-113.71578,36.1429],[-113.71602,36.14302],[-113.71621,36.14291],[-113.71631,36.14307],[-113.71649,36.14308],[-113.71648,36.1432],[-113.71584,36.1439],[-113.71555,36.14393],[-113.71495,36.14354],[-113.71468,36.14359],[-113.71467,36.14382],[-113.71447,36.14401],[-113.71449,36.14428],[-113.71471,36.14429],[-113.71467,36.14445],[-113.71418,36.14432],[-113.71405,36.14476],[-113.71382,36.14458],[-113.71366,36.14467],[-113.71383,36.14454],[-113.71382,36.14436],[-113.71415,36.14429],[-113.71415,36.1437],[-113.71395,36.14352],[-113.71369,36.14358],[-113.71345,36.14393],[-113.71309,36.14407],[-113.71284,36.14448],[-113.71307,36.14492],[-113.71269,36.14503],[-113.71293,36.14541],[-113.71323,36.14546],[-113.71294,36.14602],[-113.71303,36.14636],[-113.71284,36.14649],[-113.713,36.14725],[-113.71284,36.14716],[-113.7125,36.14741],[-113.71202,36.14718],[-113.71153,36.14735],[-113.71115,36.14729],[-113.71104,36.14716],[-113.71078,36.14764],[-113.7109,36.14777],[-113.71049,36.14778],[-113.70993,36.14803],[-113.70975,36.14795],[-113.70971,36.14751],[-113.70986,36.14716],[-113.7102,36.14724],[-113.71043,36.1468],[-113.71107,36.14678],[-113.71112,36.14667],[-113.71087,36.14649],[-113.71076,36.1461],[-113.71036,36.14565],[-113.70876,36.14569],[-113.70786,36.1453],[-113.70725,36.1455],[-113.70686,36.14547],[-113.70601,36.14499],[-113.70563,36.14501],[-113.7056,36.14463],[-113.70613,36.14445],[-113.70609,36.14402],[-113.70595,36.14395],[-113.70608,36.14384],[-113.706,36.14368],[-113.7057,36.14371],[-113.70569,36.14342],[-113.70539,36.14327],[-113.70462,36.1434],[-113.70453,36.14323],[-113.70431,36.14319],[-113.70443,36.14309],[-113.70433,36.143],[-113.70446,36.14261],[-113.70477,36.14263],[-113.705,36.1429],[-113.70543,36.1429],[-113.70572,36.14309],[-113.70581,36.14301],[-113.70569,36.14279],[-113.70615,36.14276],[-113.70603,36.14247],[-113.70617,36.14239],[-113.7061,36.14215],[-113.70584,36.14231],[-113.70569,36.14223],[-113.7059,36.14199],[-113.70579,36.14187],[-113.70613,36.14176],[-113.70626,36.14144],[-113.70706,36.14156],[-113.70742,36.14182],[-113.70772,36.14166],[-113.70772,36.14153],[-113.70745,36.14146],[-113.70746,36.14129],[-113.70723,36.14124],[-113.70717,36.1411],[-113.70748,36.14095],[-113.70727,36.14089],[-113.70725,36.14077],[-113.70774,36.14078],[-113.70798,36.14036],[-113.70828,36.1404],[-113.70849,36.14063],[-113.70888,36.14051],[-113.70885,36.14078],[-113.70899,36.14107],[-113.70908,36.1409],[-113.70932,36.14107],[-113.70951,36.14088],[-113.70992,36.14084],[-113.7102,36.14108],[-113.71072,36.14112],[-113.71088,36.14135],[-113.71098,36.14114],[-113.71122,36.1412],[-113.71137,36.14108],[-113.71225,36.14135],[-113.71246,36.14126],[-113.71248,36.14101],[-113.71277,36.14119],[-113.713,36.14115],[-113.7129,36.14134],[-113.71269,36.14134],[-113.71269,36.1415],[-113.71305,36.14179],[-113.71322,36.14219],[-113.71358,36.14214],[-113.71358,36.14237]]]},"properties":{"fire_id":"ufid:2026-AZASD-000580","source_collection":"ytd","source_objectid":58748,"incident_name":"Salt","mapped_acres":101.79361147787904,"mapped_acres_source":"poly_GISAcres","gis_acres":101.79361147787904,"auto_acres":101.79323200077597,"reported_acres":102.0,"percent_contained":null,"state":"AZ","state_wfigs":"US-AZ","county":"Mohave","discovery_time_utc":"2026-08-26T23:52:10Z","perimeter_time_utc":"2026-08-27T15:48:20Z","perimeter_edit_time_utc":"2026-08-27T18:44:06Z","incident_modified_time_utc":"2026-09-01T19:56:18Z","containment_time_utc":"2026-08-30T20:28:00Z","control_time_utc":"2026-09-01T20:00:00Z","fire_out_time_utc":null,"fire_cause":"Natural","fire_cause_general":null,"map_method":"GPS-Walked","source_dataset":"2026 NIFS","unique_fire_identifier":"2026-AZASD-000580","irwin_id":"{EB202030-544B-4362-B4FF-FBA975D44CC3}","global_id":"ec1dc927-4e62-447b-b8b5-3ecf3160a04b"}},{"type":"Feature","geometry":{"type":"Polygon","coordinates":[[[-113.69891,36.49292],[-113.69986,36.4901],[-113.69972,36.48908],[-113.69974,36.48804],[-113.69847,36.48693],[-113.6985,36.48602],[-113.6987,36.48563],[-113.69982,36.48468],[-113.70052,36.48465],[-113.70176,36.48492],[-113.70236,36.48493],[-113.70319,36.48479],[-113.70468,36.48423],[-113.70507,36.48434],[-113.70524,36.4846],[-113.70509,36.48504],[-113.70435,36.48555],[-113.70398,36.48645],[-113.70446,36.48804],[-113.7042,36.4887],[-113.70051,36.49153],[-113.69958,36.49297],[-113.69891,36.49292]]]},"properties":{"fire_id":"ufid:2026-AZASD-000612","source_collection":"ytd","source_objectid":59047,"incident_name":"Last Chance","mapped_acres":74.43489561022906,"mapped_acres_source":"poly_GISAcres","gis_acres":74.43489561022906,"auto_acres":74.43461755911356,"reported_acres":74.4,"percent_contained":null,"state":"AZ","state_wfigs":"US-AZ","county":"Mohave","discovery_time_utc":"2026-08-29T00:40:35Z","perimeter_time_utc":"2026-08-30T15:52:33Z","perimeter_edit_time_utc":"2026-09-06T17:47:11Z","incident_modified_time_utc":"2026-09-10T18:12:40Z","containment_time_utc":null,"control_time_utc":null,"fire_out_time_utc":null,"fire_cause":"Natural","fire_cause_general":null,"map_method":"Mixed Methods","source_dataset":"2026 NIFS","unique_fire_identifier":"2026-AZASD-000612","irwin_id":"{330951E1-786B-4152-AF3B-0FB7E566FFB2}","global_id":"2e37f321-7228-4b0c-98f2-8b6ab3eaf271"}},{"type":"Feature","geometry":{"type":"Polygon","coordinates":[[[-111.92807,36.76225],[-111.92864,36.76258],[-111.92873,36.76289],[-111.92796,36.76299],[-111.9277,36.76286],[-111.92756,36.76249],[-111.92807,36.76225]]]},"properties":{"fire_id":"ufid:2026-AZASD-000111","source_collection":"ytd","source_objectid":59290,"incident_name":"Toe","mapped_acres":1.5622723570535373,"mapped_acres_source":"poly_GISAcres","gis_acres":1.5622723570535373,"auto_acres":1.5622665469173764,"reported_acres":1.5,"percent_contained":null,"state":"AZ","state_wfigs":"US-AZ","county":"Coconino","discovery_time_utc":"2026-05-13T23:08:26Z","perimeter_time_utc":"2026-05-14T01:42:27Z","perimeter_edit_time_utc":"2026-09-06T22:49:39Z","incident_modified_time_utc":"2026-06-09T21:16:22Z","containment_time_utc":"2026-05-14T19:45:00Z","control_time_utc":"2026-05-14T22:45:00Z","fire_out_time_utc":"2026-05-27T22:21:00Z","fire_cause":"Undetermined","fire_cause_general":null,"map_method":"Mixed Methods","source_dataset":"2026 NIFS","unique_fire_identifier":"2026-AZASD-000111","irwin_id":"{638E774B-C882-4690-B184-E1697624A804}","global_id":"3576447f-2c28-4d07-8288-a9d308b2a971"}},{"type":"Feature","geometry":{"type":"MultiPolygon","coordinates":[[[[-113.17161,36.27116],[-113.17067,36.27117],[-113.17055,36.27141],[-113.16994,36.27183],[-113.16971,36.27167],[-113.16975,36.2719],[-113.16954,36.27183],[-113.16931,36.27196],[-113.16941,36.27232],[-113.16924,36.27252],[-113.16905,36.27248],[-113.16894,36.27267],[-113.16901,36.27284],[-113.16875,36.27284],[-113.16896,36.27304],[-113.16876,36.27362],[-113.16884,36.27372],[-113.16874,36.27377],[-113.16884,36.27398],[-113.16869,36.27399],[-113.16864,36.27417],[-113.16886,36.27431],[-113.169,36.27417],[-113.17002,36.27432],[-113.1706,36.27465],[-113.17136,36.27446],[-113.17183,36.27461],[-113.17181,36.27505],[-113.17158,36.27521],[-113.17148,36.27555],[-113.17206,36.27548],[-113.17216,36.2756],[-113.17209,36.27595],[-113.1712,36.27645],[-113.17187,36.27647],[-113.17259,36.27673],[-113.17288,36.27663],[-113.17317,36.27687],[-113.1734,36.27689],[-113.17298,36.27726],[-113.17263,36.27738],[-113.17259,36.27773],[-113.17239,36.27765],[-113.17242,36.2775],[-113.17224,36.27754],[-113.1722,36.27724],[-113.17196,36.27727],[-113.17173,36.27713],[-113.17156,36.27726],[-113.17114,36.27706],[-113.17064,36.2773],[-113.1705,36.27725],[-113.1706,36.27779],[-113.17077,36.27819],[-113.17135,36.27794],[-113.17248,36.27828],[-113.17311,36.27826],[-113.17369,36.27857],[-113.17324,36.2788],[-113.17326,36.27891],[-113.17259,36.27909],[-113.17187,36.27881],[-113.17166,36.27859],[-113.17074,36.27835],[-113.1703,36.27913],[-113.17034,36.27891],[-113.1702,36.27869],[-113.16984,36.2787],[-113.16987,36.27845],[-113.16868,36.27808],[-113.16817,36.27818],[-113.16807,36.27833],[-113.16776,36.27825],[-113.16774,36.27859],[-113.16729,36.27867],[-113.16718,36.27834],[-113.16737,36.27823],[-113.16725,36.27805],[-113.16737,36.27793],[-113.16724,36.27789],[-113.16691,36.27804],[-113.16682,36.27827],[-113.16645,36.27841],[-113.16645,36.27815],[-113.16609,36.27812],[-113.16606,36.27796],[-113.16657,36.27765],[-113.1668,36.27762],[-113.16693,36.27775],[-113.16713,36.27767],[-113.16698,36.27753],[-113.16698,36.27721],[-113.16731,36.27706],[-113.16731,36.27682],[-113.16752,36.2768],[-113.16736,36.27646],[-113.16759,36.27634],[-113.16761,36.27571],[-113.16709,36.27588],[-113.16692,36.27566],[-113.16641,36.27569],[-113.1668,36.27546],[-113.16677,36.27499],[-113.16599,36.27477],[-113.16537,36.27536],[-113.164,36.27521],[-113.16313,36.27565],[-113.16306,36.27583],[-113.16317,36.27587],[-113.16303,36.276],[-113.16331,36.27669],[-113.16348,36.27689],[-113.16391,36.27668],[-113.16438,36.27734],[-113.16392,36.27792],[-113.16327,36.27797],[-113.16238,36.2784],[-113.16253,36.27873],[-113.16305,36.27902],[-113.16289,36.27939],[-113.16255,36.27959],[-113.16252,36.27972],[-113.16271,36.27994],[-113.16329,36.28007],[-113.16358,36.28035],[-113.16397,36.27975],[-113.16427,36.27975],[-113.16472,36.28019],[-113.16551,36.28017],[-113.1656,36.28035],[-113.16512,36.28089],[-113.16455,36.28094],[-113.16434,36.28123],[-113.164,36.28117],[-113.16266,36.28179],[-113.16293,36.28232],[-113.16318,36.28233],[-113.16311,36.28251],[-113.16272,36.28253],[-113.16249,36.28296],[-113.16211,36.28313],[-113.16171,36.28303],[-113.1613,36.28323],[-113.16136,36.28301],[-113.16122,36.28296],[-113.16067,36.28317],[-113.15943,36.28225],[-113.15922,36.28244],[-113.15866,36.28243],[-113.15829,36.28261],[-113.15855,36.28274],[-113.15859,36.2829],[-113.15827,36.28306],[-113.15898,36.28344],[-113.15908,36.28366],[-113.15942,36.28384],[-113.1595,36.2842],[-113.15894,36.28463],[-113.1595,36.28499],[-113.15928,36.28565],[-113.15857,36.28597],[-113.15798,36.286],[-113.15797,36.28624],[-113.15824,36.28655],[-113.15817,36.287],[-113.15774,36.28701],[-113.15743,36.28726],[-113.15704,36.28718],[-113.15697,36.28703],[-113.15656,36.28684],[-113.15616,36.28686],[-113.15611,36.28702],[-113.15586,36.28645],[-113.15628,36.28632],[-113.15621,36.28621],[-113.15638,36.28611],[-113.15639,36.28594],[-113.1559,36.28583],[-113.15583,36.28505],[-113.15572,36.28501],[-113.15563,36.28523],[-113.155467,36.285182],[-113.15566,36.28511],[-113.15535,36.2851],[-113.15525,36.2849],[-113.15569,36.28448],[-113.15579,36.28455],[-113.15611,36.2844],[-113.15622,36.2846],[-113.15656,36.28474],[-113.15683,36.28458],[-113.15693,36.28409],[-113.15679,36.28384],[-113.15691,36.28362],[-113.15724,36.28362],[-113.15737,36.2839],[-113.15759,36.28374],[-113.15758,36.28339],[-113.15727,36.28335],[-113.15724,36.28285],[-113.15696,36.28249],[-113.15647,36.28254],[-113.1561,36.28311],[-113.15522,36.28335],[-113.15488,36.28381],[-113.15451,36.28392],[-113.15427,36.28378],[-113.15426,36.28362],[-113.154,36.28353],[-113.15302,36.28358],[-113.15297,36.2834],[-113.15257,36.28316],[-113.15236,36.28332],[-113.15245,36.28364],[-113.15203,36.28359],[-113.15181,36.28341],[-113.15199,36.28306],[-113.1519,36.28289],[-113.15208,36.28269],[-113.15273,36.28262],[-113.15293,36.28276],[-113.15333,36.28277],[-113.15332,36.28265],[-113.1535,36.28255],[-113.15385,36.28268],[-113.15505,36.28244],[-113.15497,36.28228],[-113.15513,36.28219],[-113.15534,36.28236],[-113.15544,36.28224],[-113.15595,36.28237],[-113.15645,36.28201],[-113.15663,36.28168],[-113.15632,36.2814],[-113.15611,36.28092],[-113.15582,36.28075],[-113.15496,36.28058],[-113.15463,36.28032],[-113.15372,36.28018],[-113.15334,36.27987],[-113.15258,36.27988],[-113.15201,36.27948],[-113.15221,36.27914],[-113.15203,36.27893],[-113.15223,36.27874],[-113.15249,36.27864],[-113.15254,36.27891],[-113.15291,36.27897],[-113.15365,36.27822],[-113.15338,36.27792],[-113.15357,36.27766],[-113.15339,36.27736],[-113.15354,36.27721],[-113.1534,36.27706],[-113.15345,36.27688],[-113.153,36.27675],[-113.15284,36.27695],[-113.15267,36.27676],[-113.1528,36.27672],[-113.15286,36.27645],[-113.15354,36.276],[-113.15384,36.2756],[-113.15379,36.27533],[-113.15429,36.27505],[-113.1543,36.27477],[-113.1547,36.27472],[-113.15501,36.27489],[-113.15499,36.27504],[-113.15555,36.27529],[-113.15577,36.27511],[-113.15558,36.2749],[-113.1557,36.27474],[-113.15601,36.27485],[-113.1564,36.27456],[-113.15605,36.27399],[-113.15664,36.27388],[-113.15655,36.27367],[-113.15691,36.27355],[-113.1573,36.2737],[-113.15769,36.27345],[-113.15768,36.27318],[-113.1584,36.27293],[-113.15862,36.273],[-113.15888,36.2729],[-113.15925,36.27321],[-113.15943,36.27286],[-113.1598,36.27279],[-113.1602,36.27306],[-113.16061,36.27284],[-113.16076,36.2726],[-113.16185,36.27223],[-113.16195,36.27248],[-113.16172,36.27269],[-113.16191,36.27281],[-113.16236,36.27263],[-113.1623,36.27228],[-113.16273,36.27218],[-113.16303,36.27188],[-113.16344,36.2721],[-113.16367,36.27117],[-113.16383,36.27126],[-113.16401,36.27117],[-113.16414,36.27143],[-113.16392,36.27158],[-113.1637,36.27211],[-113.16407,36.27214],[-113.1639,36.27237],[-113.1642,36.2724],[-113.16428,36.27227],[-113.16471,36.27221],[-113.16463,36.27182],[-113.16481,36.27191],[-113.16509,36.27158],[-113.1655,36.27144],[-113.16579,36.27155],[-113.1659,36.27141],[-113.16604,36.27165],[-113.16647,36.27148],[-113.16631,36.27124],[-113.16652,36.27125],[-113.1665,36.27095],[-113.16679,36.27092],[-113.16655,36.27076],[-113.16687,36.27065],[-113.16689,36.27018],[-113.16726,36.27018],[-113.16764,36.26992],[-113.16788,36.27001],[-113.16812,36.26983],[-113.1683,36.27014],[-113.16874,36.26957],[-113.16928,36.26981],[-113.16993,36.26923],[-113.17013,36.26936],[-113.17044,36.26904],[-113.1714,36.26993],[-113.17152,36.26973],[-113.17206,36.2699],[-113.17181,36.27004],[-113.17184,36.27014],[-113.17143,36.27018],[-113.17137,36.2703],[-113.1715,36.27044],[-113.17125,36.27064],[-113.17165,36.27084],[-113.17151,36.27098],[-113.17161,36.27116]]],[[[-113.155454,36.285187],[-113.15531,36.28537],[-113.15518,36.28529],[-113.155454,36.285187]]],[[[-113.155467,36.285182],[-113.155454,36.285187],[-113.15546,36.28518],[-113.155467,36.285182]]]]},"properties":{"fire_id":"ufid:2026-AZGCP-000949","source_collection":"ytd","source_objectid":59299,"incident_name":"Mount Emma","mapped_acres":368.2112064277129,"mapped_acres_source":"poly_GISAcres","gis_acres":368.2112064277129,"auto_acres":368.2098351243399,"reported_acres":368.0,"percent_contained":100.0,"state":"AZ","state_wfigs":"US-AZ","county":"Mohave","discovery_time_utc":"2026-08-29T01:01:00Z","perimeter_time_utc":"2026-08-31T14:41:20Z","perimeter_edit_time_utc":"2026-09-06T21:37:23Z","incident_modified_time_utc":"2026-09-07T22:40:30Z","containment_time_utc":null,"control_time_utc":null,"fire_out_time_utc":null,"fire_cause":"Undetermined","fire_cause_general":null,"map_method":"Mixed Methods","source_dataset":"2026 NIFS","unique_fire_identifier":"2026-AZGCP-000949","irwin_id":"{7E5C6440-6A00-4EB7-A9E4-3B302D545F58}","global_id":"ad740e33-b8c4-49f5-885b-8814a6e9a37d"}},{"type":"Feature","geometry":{"type":"Polygon","coordinates":[[[-113.64025,36.82008],[-113.6411,36.82028],[-113.6413,36.82062],[-113.64124,36.82105],[-113.64099,36.82148],[-113.64002,36.82215],[-113.63828,36.82276],[-113.6379,36.82312],[-113.63716,36.82448],[-113.63673,36.82486],[-113.63448,36.82556],[-113.63385,36.82569],[-113.63303,36.82565],[-113.6328,36.82555],[-113.63239,36.82484],[-113.63191,36.82468],[-113.63152,36.82428],[-113.6314,36.82383],[-113.63198,36.82345],[-113.63371,36.8232],[-113.63648,36.82253],[-113.63807,36.82189],[-113.63895,36.82133],[-113.63984,36.82025],[-113.64025,36.82008]]]},"properties":{"fire_id":"ufid:2026-AZASD-000491","source_collection":"ytd","source_objectid":59458,"incident_name":"Black Mountain","mapped_acres":45.21861,"mapped_acres_source":"poly_GISAcres","gis_acres":45.21861,"auto_acres":45.2184422190091,"reported_acres":45.0,"percent_contained":null,"state":"AZ","state_wfigs":"US-AZ","county":"Mohave","discovery_time_utc":"2026-08-09T20:59:20Z","perimeter_time_utc":"2026-09-08T20:36:43Z","perimeter_edit_time_utc":null,"incident_modified_time_utc":"2026-09-01T19:16:20Z","containment_time_utc":"2026-08-16T00:00:00Z","control_time_utc":"2026-08-16T01:00:00Z","fire_out_time_utc":"2026-08-25T22:05:00Z","fire_cause":"Natural","fire_cause_general":"Natural","map_method":"Mixed Methods","source_dataset":"FFP","unique_fire_identifier":"2026-AZASD-000491","irwin_id":"{1714C034-1A87-4CF4-9720-C88832EB123E}","global_id":"3ec4e192-f6e2-47b1-99e8-9bdafc6ac8e1"}}]}
