{"type":"FeatureCollection","features":[{"type":"Feature","geometry":{"type":"MultiPolygon","coordinates":[[[[-104.22713,40.08048],[-104.22782,40.08079],[-104.22764,40.08081],[-104.22713,40.08048]]],[[[-104.2282,40.08114],[-104.22795,40.08135],[-104.2277,40.08092],[-104.22807,40.08082],[-104.2282,40.08114]]],[[[-104.22596,40.08034],[-104.22691,40.08049],[-104.22757,40.08094],[-104.22764,40.08112],[-104.22737,40.08118],[-104.22737,40.08139],[-104.22702,40.08137],[-104.22596,40.08176],[-104.22596,40.08034]]],[[[-104.21145,40.08488],[-104.21147,40.08437],[-104.21084,40.08409],[-104.20937,40.08416],[-104.20705,40.08476],[-104.20691,40.08236],[-104.20901,40.08246],[-104.2117,40.08151],[-104.21173,40.08063],[-104.21639,40.08045],[-104.21706,40.08024],[-104.21863,40.08033],[-104.21916,40.08057],[-104.22043,40.08081],[-104.22168,40.08089],[-104.22191,40.08061],[-104.22257,40.08028],[-104.22569,40.08041],[-104.22575,40.08159],[-104.22547,40.08136],[-104.22419,40.08113],[-104.22361,40.08146],[-104.22284,40.08141],[-104.22271,40.08113],[-104.22142,40.0814],[-104.21857,40.08339],[-104.21813,40.08337],[-104.21784,40.08364],[-104.21549,40.0839],[-104.21292,40.08437],[-104.21376,40.0844],[-104.21234,40.08492],[-104.21145,40.08488]]],[[[-104.14645,40.09128],[-104.14111,40.09149],[-104.14115,40.08872],[-104.14285,40.08828],[-104.13989,40.088],[-104.13676,40.08823],[-104.13403,40.08882],[-104.1322,40.08899],[-104.13122,40.08871],[-104.12839,40.0892],[-104.12697,40.08929],[-104.12529,40.08975],[-104.1232,40.08989],[-104.12234,40.08944],[-104.12407,40.08905],[-104.12552,40.08817],[-104.12793,40.08797],[-104.12901,40.0872],[-104.13133,40.08664],[-104.13161,40.08598],[-104.13282,40.08616],[-104.13867,40.08523],[-104.14103,40.08523],[-104.14564,40.08467],[-104.14742,40.08421],[-104.15025,40.08412],[-104.15005,40.08255],[-104.14989,40.07901],[-104.15035,40.07761],[-104.15378,40.07847],[-104.16052,40.08051],[-104.16893,40.08087],[-104.17111,40.08172],[-104.17491,40.08262],[-104.17718,40.08241],[-104.18288,40.08341],[-104.18803,40.08332],[-104.18918,40.08311],[-104.1927,40.08317],[-104.198,40.08347],[-104.20239,40.08318],[-104.2041,40.08326],[-104.20617,40.08364],[-104.19805,40.08393],[-104.19718,40.08426],[-104.19659,40.08497],[-104.19537,40.08542],[-104.19293,40.08602],[-104.18862,40.08672],[-104.18722,40.08737],[-104.18565,40.08757],[-104.18253,40.08762],[-104.17759,40.08817],[-104.17599,40.08887],[-104.17277,40.08949],[-104.16989,40.09021],[-104.16952,40.08949],[-104.17009,40.08933],[-104.16918,40.08777],[-104.16549,40.08812],[-104.15981,40.08913],[-104.15203,40.09094],[-104.15016,40.09159],[-104.14645,40.09128]]]]},"properties":{"fire_id":"ufid:2026-COWEX-000134","source_collection":"ytd","source_objectid":50775,"incident_name":"County Road 89","mapped_acres":1091.690384603935,"mapped_acres_source":"poly_GISAcres","gis_acres":1091.690384603935,"auto_acres":1091.6860810479113,"reported_acres":1091.7,"percent_contained":100.0,"state":"CO","state_wfigs":"US-CO","county":"Weld","discovery_time_utc":"2026-02-17T19:00:00Z","perimeter_time_utc":"2026-02-18T20:36:18Z","perimeter_edit_time_utc":"2026-04-17T20:41:27Z","incident_modified_time_utc":"2026-07-25T22:39:53Z","containment_time_utc":"2026-02-18T00:55:00Z","control_time_utc":null,"fire_out_time_utc":null,"fire_cause":"Human","fire_cause_general":null,"map_method":"IR Image Interpretation","source_dataset":"2026 NIFS","unique_fire_identifier":"2026-COWEX-000134","irwin_id":"{0C2555CE-CCDE-4603-92AF-DD59574119A1}","global_id":"25e4c386-d55a-4a52-ae16-ea805b318b5c"}},{"type":"Feature","geometry":{"type":"MultiPolygon","coordinates":[[[[-103.10083,40.86379],[-103.10098,40.86385],[-103.10097,40.86395],[-103.10083,40.86379]]],[[[-103.11067,40.86403],[-103.11091,40.86365],[-103.11103,40.86373],[-103.11089,40.86396],[-103.11067,40.86403]]],[[[-103.09954,40.86379],[-103.09953,40.86417],[-103.09932,40.86416],[-103.09905,40.86347],[-103.09954,40.86379]]],[[[-103.11138,40.91305],[-103.10802,40.91219],[-103.10616,40.91134],[-103.10428,40.91122],[-103.10008,40.91028],[-103.09385,40.90797],[-103.07748,40.90222],[-103.07721,40.9014],[-103.07102,40.89831],[-103.06712,40.89682],[-103.06682,40.89652],[-103.05961,40.89302],[-103.05922,40.89228],[-103.05796,40.89135],[-103.05754,40.88976],[-103.0573,40.88671],[-103.0569,40.8863],[-103.05475,40.88035],[-103.05707,40.88037],[-103.056,40.87841],[-103.0555,40.87709],[-103.05659,40.87712],[-103.05714,40.87831],[-103.05733,40.87738],[-103.05748,40.8781],[-103.0579,40.87858],[-103.0582,40.87823],[-103.05959,40.87909],[-103.0593,40.87953],[-103.05959,40.88029],[-103.05996,40.88035],[-103.05995,40.88155],[-103.06027,40.88296],[-103.05995,40.88426],[-103.0607,40.88375],[-103.06084,40.88468],[-103.06246,40.88588],[-103.06157,40.88466],[-103.06149,40.88309],[-103.0621,40.8818],[-103.06257,40.88191],[-103.06299,40.88272],[-103.06257,40.88379],[-103.06304,40.8844],[-103.06376,40.88416],[-103.06283,40.88158],[-103.06345,40.88018],[-103.06418,40.88141],[-103.0646,40.88169],[-103.06549,40.88186],[-103.06606,40.88151],[-103.06664,40.88199],[-103.06723,40.88316],[-103.06755,40.88242],[-103.06822,40.88261],[-103.06725,40.88124],[-103.06719,40.87996],[-103.06788,40.87975],[-103.06633,40.87838],[-103.06589,40.8768],[-103.06685,40.87721],[-103.06692,40.87625],[-103.06583,40.87474],[-103.06599,40.87374],[-103.0652,40.87288],[-103.06682,40.8727],[-103.06712,40.86894],[-103.06741,40.86779],[-103.0674,40.86641],[-103.06679,40.86537],[-103.06593,40.86436],[-103.06517,40.86219],[-103.06507,40.86079],[-103.06488,40.86034],[-103.06496,40.85968],[-103.06465,40.85856],[-103.06428,40.85758],[-103.06386,40.8573],[-103.06562,40.85778],[-103.07217,40.86083],[-103.07445,40.86176],[-103.07398,40.86269],[-103.07484,40.86287],[-103.07742,40.86448],[-103.07882,40.86478],[-103.07991,40.86548],[-103.07998,40.86634],[-103.08038,40.86636],[-103.08111,40.86585],[-103.08212,40.86327],[-103.08294,40.86241],[-103.08255,40.86102],[-103.08272,40.86075],[-103.08345,40.86079],[-103.08478,40.86161],[-103.08713,40.86254],[-103.08905,40.86246],[-103.08984,40.86177],[-103.08957,40.86072],[-103.08961,40.8587],[-103.08999,40.85841],[-103.09303,40.85824],[-103.09403,40.85841],[-103.09586,40.85972],[-103.09609,40.86137],[-103.09567,40.86279],[-103.09535,40.86355],[-103.09484,40.86415],[-103.09473,40.86469],[-103.09591,40.86447],[-103.09604,40.86539],[-103.09572,40.86575],[-103.09708,40.86576],[-103.09792,40.86498],[-103.09762,40.86452],[-103.10216,40.86382],[-103.10524,40.86509],[-103.10532,40.86435],[-103.10643,40.86459],[-103.10642,40.86418],[-103.10594,40.86358],[-103.10687,40.8632],[-103.10779,40.86256],[-103.108,40.86211],[-103.10927,40.86128],[-103.10851,40.86359],[-103.1082,40.864],[-103.10764,40.86421],[-103.10793,40.86457],[-103.10827,40.86494],[-103.11153,40.8638],[-103.11182,40.86656],[-103.11142,40.86729],[-103.11226,40.86757],[-103.11105,40.87155],[-103.11079,40.87324],[-103.11028,40.87335],[-103.11116,40.87473],[-103.1117,40.87615],[-103.11252,40.87706],[-103.11353,40.87895],[-103.11396,40.88093],[-103.11434,40.88151],[-103.11561,40.88238],[-103.1156,40.89351],[-103.11428,40.89463],[-103.11489,40.89496],[-103.1145,40.89579],[-103.11501,40.89602],[-103.11493,40.89862],[-103.11458,40.89893],[-103.11521,40.89965],[-103.11485,40.89978],[-103.115,40.90011],[-103.11571,40.90564],[-103.11579,40.90987],[-103.11563,40.91386],[-103.11138,40.91305]]]]},"properties":{"fire_id":"ufid:2026-COLOX-000157","source_collection":"ytd","source_objectid":50944,"incident_name":"113 Incident","mapped_acres":5125.5990203229585,"mapped_acres_source":"poly_GISAcres","gis_acres":5125.5990203229585,"auto_acres":5125.580050675571,"reported_acres":5107.0,"percent_contained":100.0,"state":"CO","state_wfigs":"US-CO","county":"Logan","discovery_time_utc":"2026-02-25T20:23:11Z","perimeter_time_utc":"2026-02-26T18:00:01Z","perimeter_edit_time_utc":"2026-02-26T18:25:53Z","incident_modified_time_utc":"2026-03-01T00:48:09Z","containment_time_utc":"2026-02-26T02:00:00Z","control_time_utc":"2026-02-26T02:00:00Z","fire_out_time_utc":"2026-02-26T03:00:00Z","fire_cause":"Human","fire_cause_general":null,"map_method":"IR Image Interpretation","source_dataset":"2026 NIFS","unique_fire_identifier":"2026-COLOX-000157","irwin_id":"{932CA533-3CD2-4C42-BEB2-D1CFD5AFFF50}","global_id":"f531ea21-c2fb-4b90-a3b1-5833b9daa03f"}},{"type":"Feature","geometry":{"type":"Polygon","coordinates":[[[-104.41522,40.68345],[-104.4154,40.68353],[-104.41547,40.68423],[-104.41524,40.68453],[-104.41486,40.68472],[-104.41455,40.68462],[-104.41445,40.68401],[-104.41487,40.6837],[-104.41475,40.68357],[-104.41522,40.68345]]]},"properties":{"fire_id":"ufid:2026-COARF-000175","source_collection":"ytd","source_objectid":54177,"incident_name":"IA 175","mapped_acres":2.2,"mapped_acres_source":"poly_GISAcres","gis_acres":2.2,"auto_acres":2.1747206096344756,"reported_acres":2.2,"percent_contained":null,"state":"CO","state_wfigs":"US-CO","county":"Weld","discovery_time_utc":"2026-03-01T19:47:14Z","perimeter_time_utc":"2026-05-26T18:43:47Z","perimeter_edit_time_utc":null,"incident_modified_time_utc":"2026-03-01T21:52:01Z","containment_time_utc":"2026-03-01T20:30:00Z","control_time_utc":"2026-03-01T20:30:00Z","fire_out_time_utc":"2026-03-01T21:00:00Z","fire_cause":"Human","fire_cause_general":"Arson","map_method":"Auto-generated for InFORM","source_dataset":"FFP","unique_fire_identifier":"2026-COARF-000175","irwin_id":"{DFEE0E7B-80CD-41C0-A448-81E9D2752C3C}","global_id":"f4cbef74-c296-466f-8103-2f0d2284bef2"}},{"type":"Feature","geometry":{"type":"Polygon","coordinates":[[[-102.51234,40.90422],[-102.51206,40.90458],[-102.511,40.9037],[-102.50949,40.9014],[-102.50769,40.89911],[-102.50715,40.89784],[-102.50678,40.89645],[-102.50715,40.89592],[-102.50715,40.89473],[-102.50535,40.89236],[-102.50339,40.8901],[-102.50261,40.88834],[-102.50109,40.88548],[-102.4995,40.8838],[-102.49815,40.88151],[-102.49733,40.87966],[-102.49626,40.87823],[-102.49581,40.87696],[-102.49512,40.87626],[-102.49356,40.87409],[-102.49221,40.87323],[-102.49221,40.87225],[-102.49315,40.87184],[-102.49376,40.87098],[-102.49385,40.87033],[-102.49364,40.86918],[-102.49376,40.86816],[-102.49454,40.86877],[-102.49532,40.86967],[-102.49679,40.87008],[-102.49745,40.87008],[-102.49831,40.87115],[-102.49909,40.87413],[-102.50109,40.87663],[-102.50126,40.87798],[-102.50204,40.88089],[-102.50342,40.88223],[-102.50511,40.88449],[-102.50699,40.88797],[-102.50732,40.88982],[-102.50793,40.89064],[-102.50838,40.89197],[-102.50942,40.89388],[-102.50976,40.89532],[-102.50955,40.8959],[-102.5101,40.89658],[-102.51076,40.89661],[-102.51215,40.89896],[-102.51233,40.90006],[-102.51181,40.9008],[-102.51149,40.90164],[-102.51152,40.90219],[-102.51234,40.90422]]]},"properties":{"fire_id":"ufid:2026-COSGX-000053","source_collection":"ytd","source_objectid":55550,"incident_name":"165","mapped_acres":999.9709558161454,"mapped_acres_source":"poly_GISAcres","gis_acres":999.9709558161454,"auto_acres":334.2888712182098,"reported_acres":1000.0,"percent_contained":99.0,"state":"CO","state_wfigs":"US-CO","county":"Sedgwick","discovery_time_utc":"2026-01-17T00:28:22Z","perimeter_time_utc":"2026-01-17T22:42:43Z","perimeter_edit_time_utc":"2026-07-03T14:49:45Z","incident_modified_time_utc":"2026-01-17T22:50:31Z","containment_time_utc":"2026-01-17T04:00:00Z","control_time_utc":"2026-01-17T04:00:00Z","fire_out_time_utc":"2026-01-17T04:00:00Z","fire_cause":"Human","fire_cause_general":null,"map_method":"Image Interpretation","source_dataset":"2026 NIFS","unique_fire_identifier":"2026-COSGX-000053","irwin_id":"{3FB6EB14-3EE3-4C7C-B317-E26F1BA33786}","global_id":"41fa0d7f-ceee-423c-9c45-0d7b0ea67f9f"}},{"type":"Feature","geometry":{"type":"Polygon","coordinates":[[[-102.46801,40.91336],[-102.46635,40.91362],[-102.46467,40.91348],[-102.46432,40.91332],[-102.46369,40.91247],[-102.4638,40.91213],[-102.46439,40.91166],[-102.46478,40.9108],[-102.46554,40.91036],[-102.46604,40.9097],[-102.46604,40.909],[-102.46628,40.90865],[-102.4664,40.90812],[-102.46658,40.90556],[-102.46688,40.90427],[-102.46731,40.90359],[-102.46851,40.90277],[-102.46883,40.90216],[-102.46945,40.90229],[-102.46984,40.90212],[-102.46989,40.90182],[-102.46958,40.90109],[-102.46998,40.90089],[-102.47022,40.90023],[-102.47131,40.89936],[-102.4723,40.89808],[-102.47349,40.89733],[-102.47425,40.89661],[-102.47465,40.89656],[-102.4756,40.89732],[-102.47632,40.89756],[-102.47678,40.89829],[-102.47779,40.89915],[-102.47826,40.89943],[-102.47866,40.89949],[-102.47878,40.89988],[-102.48029,40.90116],[-102.48137,40.90278],[-102.48175,40.90295],[-102.48256,40.903],[-102.48253,40.90325],[-102.4817,40.90423],[-102.48146,40.9053],[-102.48122,40.90573],[-102.47998,40.90668],[-102.47969,40.90724],[-102.47896,40.90776],[-102.47872,40.90828],[-102.47828,40.90863],[-102.47821,40.90895],[-102.47834,40.90975],[-102.47821,40.91013],[-102.47732,40.91069],[-102.47663,40.91132],[-102.47532,40.91174],[-102.47462,40.91211],[-102.47364,40.91226],[-102.47256,40.9128],[-102.47157,40.91288],[-102.47088,40.91313],[-102.46934,40.91318],[-102.46863,40.91342],[-102.46801,40.91336]]]},"properties":{"fire_id":"ufid:2026-COSGX-000520","source_collection":"ytd","source_objectid":55612,"incident_name":"IA 520","mapped_acres":465.0,"mapped_acres_source":"poly_GISAcres","gis_acres":465.0,"auto_acres":414.9659298823284,"reported_acres":465.0,"percent_contained":100.0,"state":"CO","state_wfigs":"US-CO","county":"Sedgwick","discovery_time_utc":"2026-05-16T19:59:47Z","perimeter_time_utc":"2026-05-16T22:44:46Z","perimeter_edit_time_utc":"2026-07-03T20:00:39Z","incident_modified_time_utc":"2026-06-15T22:36:21Z","containment_time_utc":"2026-05-17T15:36:00Z","control_time_utc":"2026-05-17T15:36:00Z","fire_out_time_utc":"2026-05-17T23:07:00Z","fire_cause":"Undetermined","fire_cause_general":null,"map_method":"Image Interpretation","source_dataset":"2026 NIFS","unique_fire_identifier":"2026-COSGX-000520","irwin_id":"{F420E96B-8647-4BB4-9963-06BBAFFC87E9}","global_id":"c7bef5c6-7622-4f1e-899a-a2f4c9e06676"}}]}
