{"type":"FeatureCollection","features":[{"type":"Feature","geometry":{"type":"Polygon","coordinates":[[[-77.10088,38.91517],[-77.10085,38.91486],[-77.10114,38.91457],[-77.10135,38.91511],[-77.10088,38.91517]]]},"properties":{"fire_id":"ufid:2026-MDCOP-260004","source_collection":"ytd","source_objectid":54957,"incident_name":"Driftwood","mapped_acres":0.4583509,"mapped_acres_source":"poly_GISAcres","gis_acres":0.4583509,"auto_acres":0.4583490347907788,"reported_acres":0.5,"percent_contained":null,"state":"DC","state_wfigs":"US-DC","county":"District of Columbia","discovery_time_utc":"2026-01-24T22:22:48Z","perimeter_time_utc":"2026-06-16T19:49:28Z","perimeter_edit_time_utc":null,"incident_modified_time_utc":"2026-01-28T15:11:05Z","containment_time_utc":null,"control_time_utc":null,"fire_out_time_utc":"2026-01-25T14:00:00Z","fire_cause":"Human","fire_cause_general":"Other causes","map_method":"GPS-Walked","source_dataset":"FFP","unique_fire_identifier":"2026-MDCOP-260004","irwin_id":"{B1E2202A-59BD-4B9E-B922-3DDC6E7FA3AA}","global_id":"80bbf572-1299-40de-881c-d4bd344b089d"}},{"type":"Feature","geometry":{"type":"Polygon","coordinates":[[[-77.04981,38.93309],[-77.04986,38.93312],[-77.04981,38.93311],[-77.04981,38.93309]]]},"properties":{"fire_id":"ufid:2026-DCRCP-000003","source_collection":"ytd","source_objectid":54972,"incident_name":"Klingle Bridge","mapped_acres":0.01,"mapped_acres_source":"poly_GISAcres","gis_acres":0.01,"auto_acres":0.003451718597910711,"reported_acres":0.1,"percent_contained":null,"state":"DC","state_wfigs":"US-DC","county":"District of Columbia","discovery_time_utc":"2026-06-16T10:45:39Z","perimeter_time_utc":"2026-06-17T12:12:38Z","perimeter_edit_time_utc":"2026-06-17T12:12:39Z","incident_modified_time_utc":"2026-06-18T17:05:10Z","containment_time_utc":null,"control_time_utc":null,"fire_out_time_utc":null,"fire_cause":null,"fire_cause_general":null,"map_method":"Hand Sketch","source_dataset":"2026 NIFS","unique_fire_identifier":"2026-DCRCP-000003","irwin_id":"{839CBADF-935C-4DFA-9977-E28D71AA4392}","global_id":"1abff4df-846d-4d19-b4c2-d1cd7ceba34e"}}]}
