{"type":"FeatureCollection","features":[{"type":"Feature","geometry":{"type":"Polygon","coordinates":[[[-85.00835,29.96495],[-85.00743,29.96546],[-85.00715,29.96533],[-85.00684,29.96564],[-85.00605,29.96547],[-85.00505,29.96475],[-85.00487,29.96431],[-85.00493,29.96357],[-85.00521,29.96342],[-85.00534,29.96254],[-85.00579,29.96197],[-85.0065,29.9617],[-85.00714,29.96162],[-85.00764,29.96185],[-85.00835,29.96257],[-85.00876,29.96352],[-85.00835,29.96495]]]},"properties":{"fire_id":"ufid:2026-FLFNF-002450","source_collection":"ytd","source_objectid":57485,"incident_name":"Bull","mapped_acres":30.32869020648331,"mapped_acres_source":"poly_GISAcres","gis_acres":30.32869020648331,"auto_acres":30.328583632577068,"reported_acres":30.0,"percent_contained":null,"state":"FL","state_wfigs":"US-FL","county":"Franklin","discovery_time_utc":"2026-08-09T12:28:34Z","perimeter_time_utc":"2026-08-09T14:47:21Z","perimeter_edit_time_utc":"2026-08-31T17:54:36Z","incident_modified_time_utc":"2026-08-09T14:50:52Z","containment_time_utc":null,"control_time_utc":null,"fire_out_time_utc":null,"fire_cause":"Natural","fire_cause_general":null,"map_method":"Auto-generated for InFORM","source_dataset":"2026 NIFS","unique_fire_identifier":"2026-FLFNF-002450","irwin_id":"{44773C2E-BC57-4182-A848-320221BAA8D3}","global_id":"c5d20979-14e2-489d-916c-7c752d5e0608"}},{"type":"Feature","geometry":{"type":"Polygon","coordinates":[[[-85.00873,29.96887],[-85.00717,29.96765],[-85.00308,29.96743],[-85.00382,29.96615],[-85.00308,29.96443],[-85.00292,29.96368],[-85.00237,29.96344],[-85.0017,29.96217],[-85.0018,29.962],[-85.00168,29.96191],[-85.00287,29.96039],[-85.0041,29.95973],[-85.00471,29.95878],[-85.00531,29.95693],[-85.00783,29.95607],[-85.00836,29.95566],[-85.00899,29.9554],[-85.01051,29.95514],[-85.0108,29.95492],[-85.01186,29.95648],[-85.01205,29.95756],[-85.012,29.95827],[-85.01219,29.95941],[-85.01187,29.96004],[-85.01123,29.96075],[-85.01145,29.9627],[-85.01125,29.96321],[-85.01161,29.96424],[-85.0107,29.96593],[-85.01074,29.96677],[-85.01046,29.96852],[-85.01022,29.96892],[-85.00985,29.96905],[-85.00873,29.96887]]]},"properties":{"fire_id":"ufid:2026-FLFNF-002837","source_collection":"ytd","source_objectid":61988,"incident_name":"IAO","mapped_acres":253.91801239499475,"mapped_acres_source":"poly_GISAcres","gis_acres":253.91801239499475,"auto_acres":253.91712036136317,"reported_acres":260.0,"percent_contained":null,"state":"FL","state_wfigs":"US-FL","county":"Franklin","discovery_time_utc":"2026-10-02T01:47:14Z","perimeter_time_utc":"2026-10-02T04:44:31Z","perimeter_edit_time_utc":"2026-10-02T11:32:51Z","incident_modified_time_utc":"2026-10-02T04:44:08Z","containment_time_utc":null,"control_time_utc":null,"fire_out_time_utc":null,"fire_cause":"Undetermined","fire_cause_general":null,"map_method":"Digitized-Topo","source_dataset":"2026 NIFS","unique_fire_identifier":"2026-FLFNF-002837","irwin_id":"{76CD3FEC-2DB6-4FAB-AC3D-3002C4B1F0A2}","global_id":"9996d974-8be2-4ffc-8769-37d7a22e69df"}}]}
