{"type":"FeatureCollection","features":[{"type":"Feature","geometry":{"type":"Polygon","coordinates":[[[-87.24316,41.60542],[-87.24306,41.60534],[-87.24375,41.60522],[-87.24372,41.60532],[-87.24316,41.60542]]]},"properties":{"fire_id":"ufid:2026-INIDP-260078","source_collection":"ytd","source_objectid":54768,"incident_name":"Oxy Pipe","mapped_acres":0.1,"mapped_acres_source":"poly_GISAcres","gis_acres":0.1,"auto_acres":0.13957929543278225,"reported_acres":0.1,"percent_contained":null,"state":"IN","state_wfigs":"US-IN","county":"Lake","discovery_time_utc":"2026-05-26T17:15:00Z","perimeter_time_utc":"2026-06-09T18:25:49Z","perimeter_edit_time_utc":null,"incident_modified_time_utc":"2026-05-26T20:12:15Z","containment_time_utc":null,"control_time_utc":null,"fire_out_time_utc":"2026-06-09T18:15:00Z","fire_cause":"Human","fire_cause_general":"Railroad operations and maintenance","map_method":"Auto-generated for InFORM","source_dataset":"FFP","unique_fire_identifier":"2026-INIDP-260078","irwin_id":"{B8F46299-5EC4-4B22-B3E3-0F69C2A2EF84}","global_id":"e1b0175f-93ed-47b0-9e43-f19d9ed1e8cd"}}]}
