{"type":"FeatureCollection","features":[{"type":"Feature","geometry":{"type":"Polygon","coordinates":[[[-94.65201,38.20448],[-94.65399,38.20437],[-94.65429,38.20456],[-94.65466,38.20512],[-94.6547,38.20593],[-94.65432,38.20759],[-94.6541,38.20759],[-94.65375,38.208],[-94.65375,38.20976],[-94.65356,38.21023],[-94.65375,38.21045],[-94.65383,38.21105],[-94.65328,38.21087],[-94.65318,38.2105],[-94.65244,38.21048],[-94.6524,38.2098],[-94.65256,38.20949],[-94.65242,38.20903],[-94.65252,38.20802],[-94.65216,38.20798],[-94.65177,38.20906],[-94.65083,38.20899],[-94.6505,38.20926],[-94.64996,38.20862],[-94.64988,38.20823],[-94.64955,38.2085],[-94.64944,38.20846],[-94.64942,38.20762],[-94.64966,38.2071],[-94.65002,38.20667],[-94.65018,38.20664],[-94.65071,38.20571],[-94.65201,38.20448]]]},"properties":{"fire_id":"ufid:2026-KSMCR-000402","source_collection":"ytd","source_objectid":53218,"incident_name":"1200/Wattles","mapped_acres":30.0,"mapped_acres_source":"poly_GISAcres","gis_acres":30.0,"auto_acres":48.14130184551755,"reported_acres":48.14,"percent_contained":null,"state":"KS","state_wfigs":"US-KS","county":"Linn","discovery_time_utc":"2026-03-29T15:45:00Z","perimeter_time_utc":"2026-05-06T20:15:21Z","perimeter_edit_time_utc":null,"incident_modified_time_utc":"2026-04-07T15:02:55Z","containment_time_utc":"2026-04-03T18:00:00Z","control_time_utc":"2026-04-06T22:00:00Z","fire_out_time_utc":null,"fire_cause":"Human","fire_cause_general":"Undetermined","map_method":"Auto-generated for InFORM","source_dataset":"FFP","unique_fire_identifier":"2026-KSMCR-000402","irwin_id":"{56F79200-F574-48BC-AA6F-9EB6C798502B}","global_id":"08697a8c-2970-48dc-9d14-d28f80e16753"}}]}
