{"type":"FeatureCollection","features":[{"type":"Feature","geometry":{"type":"Polygon","coordinates":[[[-89.9128,30.2744],[-89.91308,30.27465],[-89.9133,30.27458],[-89.91395,30.27498],[-89.91444,30.27554],[-89.9151,30.27588],[-89.9154,30.27699],[-89.91614,30.27724],[-89.91586,30.27754],[-89.91591,30.27771],[-89.91563,30.27771],[-89.91533,30.27867],[-89.91479,30.27949],[-89.91471,30.27936],[-89.91456,30.27946],[-89.91403,30.27925],[-89.91375,30.27906],[-89.91365,30.27881],[-89.91272,30.27875],[-89.91212,30.27831],[-89.912,30.27805],[-89.91129,30.27776],[-89.91085,30.27728],[-89.91181,30.27603],[-89.9128,30.2744]]]},"properties":{"fire_id":"ufid:2026-LABBR-000108","source_collection":"ytd","source_objectid":52541,"incident_name":"Sapsucker Boat Launch","mapped_acres":0.1,"mapped_acres_source":"poly_GISAcres","gis_acres":0.1,"auto_acres":38.104115060254145,"reported_acres":38.1,"percent_contained":null,"state":"LA","state_wfigs":"US-LA","county":"St. Tammany","discovery_time_utc":"2026-03-05T22:39:56Z","perimeter_time_utc":"2026-04-21T15:20:50Z","perimeter_edit_time_utc":null,"incident_modified_time_utc":"2026-03-09T19:16:31Z","containment_time_utc":"2026-03-09T13:00:00Z","control_time_utc":"2026-03-09T13:00:00Z","fire_out_time_utc":"2026-03-09T13:00:00Z","fire_cause":"Undetermined","fire_cause_general":"Undetermined","map_method":"Auto-generated for InFORM","source_dataset":"FFP","unique_fire_identifier":"2026-LABBR-000108","irwin_id":"{3B8F9735-1A04-4D75-B9D1-A69217A85353}","global_id":"439b5173-3b4b-497f-8417-cefb4174b19e"}},{"type":"Feature","geometry":{"type":"Polygon","coordinates":[[[-89.90545,30.09549],[-89.90376,30.09629],[-89.90156,30.09581],[-89.89951,30.09446],[-89.8995,30.09321],[-89.90132,30.09228],[-89.90532,30.09254],[-89.9059,30.09305],[-89.9062,30.0939],[-89.90609,30.09456],[-89.90545,30.09549]]]},"properties":{"fire_id":"ufid:2026-LABSR-000168","source_collection":"ytd","source_objectid":53318,"incident_name":"Antoinne","mapped_acres":53.0,"mapped_acres_source":"poly_GISAcres","gis_acres":53.0,"auto_acres":53.50154516922228,"reported_acres":53.0,"percent_contained":null,"state":"LA","state_wfigs":"US-LA","county":"Orleans","discovery_time_utc":"2026-04-24T20:30:00Z","perimeter_time_utc":"2026-04-27T18:56:37Z","perimeter_edit_time_utc":"2026-05-08T20:45:04Z","incident_modified_time_utc":"2026-06-10T14:46:56Z","containment_time_utc":"2026-04-27T23:00:00Z","control_time_utc":"2026-04-30T22:00:00Z","fire_out_time_utc":"2026-04-30T22:00:00Z","fire_cause":"Natural","fire_cause_general":null,"map_method":"Auto-generated for InFORM","source_dataset":"2026 NIFS","unique_fire_identifier":"2026-LABSR-000168","irwin_id":"{A3471D46-8192-4214-8167-DF84F1514346}","global_id":"985dd939-0264-4419-9bef-9813e008a70a"}},{"type":"Feature","geometry":{"type":"Polygon","coordinates":[[[-89.87396,30.11798],[-89.87303,30.11854],[-89.87223,30.11798],[-89.87256,30.11738],[-89.87338,30.11728],[-89.87396,30.11798]]]},"properties":{"fire_id":"ufid:2026-LABSR-000169","source_collection":"ytd","source_objectid":53320,"incident_name":"Turtle Bayou","mapped_acres":3.5,"mapped_acres_source":"poly_GISAcres","gis_acres":3.5,"auto_acres":3.536055284971427,"reported_acres":3.5,"percent_contained":null,"state":"LA","state_wfigs":"US-LA","county":"Orleans","discovery_time_utc":"2026-04-24T19:40:00Z","perimeter_time_utc":"2026-04-27T18:58:37Z","perimeter_edit_time_utc":"2026-05-08T20:57:50Z","incident_modified_time_utc":"2026-06-10T14:58:21Z","containment_time_utc":"2026-04-27T23:00:00Z","control_time_utc":"2026-04-30T22:00:00Z","fire_out_time_utc":"2026-04-30T22:00:00Z","fire_cause":"Natural","fire_cause_general":null,"map_method":"Auto-generated for InFORM","source_dataset":"2026 NIFS","unique_fire_identifier":"2026-LABSR-000169","irwin_id":"{5266C7B1-CB62-42AE-8F48-85C797A71510}","global_id":"40f1ad30-996a-4064-baaa-eb060d1e5f13"}}]}
