{"type":"FeatureCollection","features":[{"type":"Feature","geometry":{"type":"Polygon","coordinates":[[[-93.46053,29.88464],[-93.45683,29.887],[-93.45427,29.88909],[-93.45168,29.89011],[-93.44946,29.88882],[-93.45126,29.88795],[-93.44966,29.88648],[-93.45287,29.88409],[-93.45295,29.88327],[-93.45255,29.88136],[-93.45432,29.88051],[-93.45601,29.87909],[-93.45854,29.87723],[-93.4619,29.87412],[-93.46481,29.87591],[-93.46235,29.87723],[-93.46111,29.8785],[-93.46098,29.88161],[-93.46247,29.88277],[-93.46053,29.88464]]]},"properties":{"fire_id":"ufid:2026-LASBR-000195","source_collection":"ytd","source_objectid":54714,"incident_name":"Backridge","mapped_acres":239.0,"mapped_acres_source":"poly_GISAcres","gis_acres":239.0,"auto_acres":247.30254742144774,"reported_acres":239.0,"percent_contained":null,"state":"LA","state_wfigs":"US-LA","county":"Cameron","discovery_time_utc":"2026-06-03T19:07:27Z","perimeter_time_utc":"2026-07-30T12:38:46Z","perimeter_edit_time_utc":null,"incident_modified_time_utc":"2026-06-29T16:59:24Z","containment_time_utc":"2026-06-04T15:48:00Z","control_time_utc":"2026-06-08T21:30:00Z","fire_out_time_utc":"2026-06-11T21:30:00Z","fire_cause":"Natural","fire_cause_general":"Natural","map_method":"Auto-generated for InFORM","source_dataset":"FFP","unique_fire_identifier":"2026-LASBR-000195","irwin_id":"{A9CBA66E-100F-4F0C-B781-63A53E501460}","global_id":"341d038d-7cd8-41d4-942c-069d0e0d72df"}},{"type":"Feature","geometry":{"type":"Polygon","coordinates":[[[-93.38786,29.89833],[-93.38884,29.89517],[-93.39017,29.89437],[-93.41003,29.88885],[-93.41262,29.88719],[-93.41904,29.88208],[-93.42519,29.8793],[-93.43613,29.89561],[-93.4368,29.89607],[-93.43649,29.89886],[-93.43374,29.89739],[-93.43197,29.89433],[-93.42926,29.89434],[-93.42701,29.89555],[-93.42431,29.89767],[-93.42653,29.89791],[-93.42784,29.89935],[-93.42728,29.90113],[-93.42637,29.90177],[-93.42316,29.89979],[-93.42325,29.90328],[-93.42754,29.90444],[-93.42766,29.90805],[-93.4339,29.91033],[-93.43408,29.91147],[-93.43151,29.91169],[-93.42703,29.90913],[-93.42687,29.91094],[-93.42574,29.91116],[-93.42204,29.90899],[-93.42141,29.91031],[-93.4199,29.91179],[-93.41621,29.91284],[-93.41005,29.91262],[-93.40487,29.91073],[-93.40166,29.9082],[-93.40172,29.90682],[-93.40074,29.90642],[-93.39993,29.90753],[-93.3987,29.90753],[-93.38786,29.89833]]]},"properties":{"fire_id":"ufid:2026-LASBR-000235","source_collection":"ytd","source_objectid":56952,"incident_name":"West Blue Crab","mapped_acres":2295.0,"mapped_acres_source":"poly_GISAcres","gis_acres":2295.0,"auto_acres":2294.915062635161,"reported_acres":2295.0,"percent_contained":null,"state":"LA","state_wfigs":"US-LA","county":"Cameron","discovery_time_utc":"2026-07-22T20:32:53Z","perimeter_time_utc":"2026-07-30T12:34:53Z","perimeter_edit_time_utc":null,"incident_modified_time_utc":"2026-07-28T16:26:22Z","containment_time_utc":"2026-07-27T14:36:00Z","control_time_utc":"2026-07-27T20:30:00Z","fire_out_time_utc":"2026-07-28T23:00:00Z","fire_cause":"Natural","fire_cause_general":"Natural","map_method":"Auto-generated for InFORM","source_dataset":"FFP","unique_fire_identifier":"2026-LASBR-000235","irwin_id":"{931D639C-2957-4C5D-A08D-78F162074A7D}","global_id":"f24f2d9c-b29f-46d4-a98a-0c9eba11beab"}},{"type":"Feature","geometry":{"type":"Polygon","coordinates":[[[-93.50779,29.86816],[-93.5079,29.86815],[-93.50769,29.86983],[-93.50609,29.87031],[-93.50631,29.87167],[-93.50601,29.87314],[-93.50641,29.87474],[-93.50771,29.876],[-93.50651,29.87635],[-93.5087,29.87726],[-93.50918,29.87693],[-93.51091,29.87707],[-93.51177,29.87817],[-93.47065,29.8777],[-93.46899,29.87688],[-93.4563,29.86557],[-93.46649,29.85051],[-93.48877,29.85567],[-93.50464,29.86857],[-93.50701,29.86689],[-93.50779,29.86816]]]},"properties":{"fire_id":"ufid:2026-LASBR-000237","source_collection":"ytd","source_objectid":56953,"incident_name":"Brown Ditch","mapped_acres":2508.0,"mapped_acres_source":"poly_GISAcres","gis_acres":2508.0,"auto_acres":2508.3042682537516,"reported_acres":2508.0,"percent_contained":null,"state":"LA","state_wfigs":"US-LA","county":"Cameron","discovery_time_utc":"2026-07-22T20:32:00Z","perimeter_time_utc":"2026-07-30T12:37:17Z","perimeter_edit_time_utc":null,"incident_modified_time_utc":"2026-07-28T16:28:04Z","containment_time_utc":"2026-07-27T14:36:00Z","control_time_utc":"2026-07-27T20:35:00Z","fire_out_time_utc":"2026-07-28T23:00:00Z","fire_cause":"Natural","fire_cause_general":"Natural","map_method":"Auto-generated for InFORM","source_dataset":"FFP","unique_fire_identifier":"2026-LASBR-000237","irwin_id":"{884F72BC-2042-4ADA-8513-4B136A81A235}","global_id":"98436e67-e3f1-4efc-ab76-5e238a0317f7"}},{"type":"Feature","geometry":{"type":"Polygon","coordinates":[[[-93.43653,29.87528],[-93.4412,29.87345],[-93.45138,29.86865],[-93.45362,29.87266],[-93.45054,29.8777],[-93.44468,29.8787],[-93.44296,29.88696],[-93.45128,29.89239],[-93.44258,29.89902],[-93.44029,29.89753],[-93.43991,29.89569],[-93.44018,29.89388],[-93.44081,29.89215],[-93.43721,29.88798],[-93.43533,29.88531],[-93.4359,29.88353],[-93.43402,29.87971],[-93.43594,29.8786],[-93.43653,29.87528]]]},"properties":{"fire_id":"ufid:2026-LASBR-000240","source_collection":"ytd","source_objectid":56954,"incident_name":"Boardwalk","mapped_acres":694.0,"mapped_acres_source":"poly_GISAcres","gis_acres":694.0,"auto_acres":694.3306838278038,"reported_acres":694.0,"percent_contained":null,"state":"LA","state_wfigs":"US-LA","county":"Cameron","discovery_time_utc":"2026-07-22T22:30:00Z","perimeter_time_utc":"2026-07-30T12:33:31Z","perimeter_edit_time_utc":null,"incident_modified_time_utc":"2026-07-28T16:23:39Z","containment_time_utc":"2026-07-27T14:34:00Z","control_time_utc":"2026-07-27T20:30:00Z","fire_out_time_utc":"2026-07-28T23:00:00Z","fire_cause":"Natural","fire_cause_general":"Natural","map_method":"Auto-generated for InFORM","source_dataset":"FFP","unique_fire_identifier":"2026-LASBR-000240","irwin_id":"{832F3314-DC9F-4F10-A818-49299EB0240D}","global_id":"0316da5b-a2a3-442a-af2f-a3b074717d05"}},{"type":"Feature","geometry":{"type":"Polygon","coordinates":[[[-93.49165,29.8575],[-93.49188,29.85642],[-93.49265,29.85477],[-93.49272,29.85421],[-93.49247,29.8534],[-93.49282,29.853],[-93.49415,29.85073],[-93.4947,29.85024],[-93.49516,29.85037],[-93.49612,29.85108],[-93.49657,29.85116],[-93.49718,29.8516],[-93.49792,29.85323],[-93.49845,29.85362],[-93.49949,29.85375],[-93.50098,29.85359],[-93.50156,29.85392],[-93.50214,29.85389],[-93.50262,29.85371],[-93.5028,29.85347],[-93.50328,29.8534],[-93.50358,29.85378],[-93.50337,29.85616],[-93.50367,29.85659],[-93.50509,29.8574],[-93.50584,29.86101],[-93.50684,29.86286],[-93.5073,29.86473],[-93.50765,29.86477],[-93.5078,29.86822],[-93.50632,29.87008],[-93.49896,29.86364],[-93.49165,29.8575]]]},"properties":{"fire_id":"ufid:2026-LASBR-000349","source_collection":"ytd","source_objectid":59252,"incident_name":"Rita","mapped_acres":0.01,"mapped_acres_source":"poly_GISAcres","gis_acres":0.01,"auto_acres":404.27732330663025,"reported_acres":404.28,"percent_contained":null,"state":"LA","state_wfigs":"US-LA","county":"Cameron","discovery_time_utc":"2026-09-04T18:00:00Z","perimeter_time_utc":"2026-09-05T18:27:08Z","perimeter_edit_time_utc":null,"incident_modified_time_utc":"2026-09-05T17:39:47Z","containment_time_utc":"2026-09-05T14:00:28Z","control_time_utc":"2026-09-05T17:00:28Z","fire_out_time_utc":"2026-09-05T22:00:00Z","fire_cause":"Natural","fire_cause_general":"Natural","map_method":"Auto-generated for InFORM","source_dataset":"FFP","unique_fire_identifier":"2026-LASBR-000349","irwin_id":"{BE8CA2F7-7358-4826-B0D9-5FA935DF78DC}","global_id":"c7ca30cf-028d-4e7f-86d1-5781809c021f"}},{"type":"Feature","geometry":{"type":"Polygon","coordinates":[[[-93.69276,29.95413],[-93.69627,29.95375],[-93.69704,29.95383],[-93.69774,29.95418],[-93.69937,29.95461],[-93.69998,29.95511],[-93.70079,29.95646],[-93.70086,29.95884],[-93.70108,29.96038],[-93.70123,29.96115],[-93.7018,29.9626],[-93.70163,29.96305],[-93.70054,29.96392],[-93.69934,29.96553],[-93.69857,29.96582],[-93.69593,29.96577],[-93.69508,29.96587],[-93.69437,29.96626],[-93.69391,29.96684],[-93.69335,29.96804],[-93.69206,29.96863],[-93.69151,29.96902],[-93.69123,29.96957],[-93.69052,29.97194],[-93.69005,29.97221],[-93.68949,29.97199],[-93.68902,29.97147],[-93.6887,29.97085],[-93.68886,29.97018],[-93.68989,29.969],[-93.68995,29.96822],[-93.68965,29.96746],[-93.68919,29.96677],[-93.68841,29.96633],[-93.68656,29.96593],[-93.68472,29.96531],[-93.68466,29.96422],[-93.68521,29.96107],[-93.68583,29.96051],[-93.68664,29.96019],[-93.68751,29.96006],[-93.68839,29.96011],[-93.68927,29.95993],[-93.68993,29.95933],[-93.69031,29.95853],[-93.69096,29.95591],[-93.6913,29.9551],[-93.6919,29.95445],[-93.69276,29.95413]]]},"properties":{"fire_id":"ufid:2026-LASBR-000370","source_collection":"ytd","source_objectid":60749,"incident_name":"Gray","mapped_acres":0.1,"mapped_acres_source":"poly_GISAcres","gis_acres":0.1,"auto_acres":241.80581101786734,"reported_acres":0.1,"percent_contained":null,"state":"LA","state_wfigs":"US-LA","county":"Cameron","discovery_time_utc":"2026-09-12T20:27:16Z","perimeter_time_utc":"2026-09-12T20:29:40Z","perimeter_edit_time_utc":"2026-09-12T21:59:30Z","incident_modified_time_utc":"2026-09-12T20:33:17Z","containment_time_utc":null,"control_time_utc":null,"fire_out_time_utc":null,"fire_cause":"Undetermined","fire_cause_general":null,"map_method":"Auto-generated for InFORM","source_dataset":"2026 NIFS","unique_fire_identifier":"2026-LASBR-000370","irwin_id":"{B99BFE9B-0051-401C-92A1-D8BD91898174}","global_id":"d82c47b4-cb0a-41cb-9f56-a3d538f137bb"}},{"type":"Feature","geometry":{"type":"Polygon","coordinates":[[[-93.47317,29.92955],[-93.47439,29.92861],[-93.47493,29.92866],[-93.47632,29.92841],[-93.47785,29.92764],[-93.47868,29.92792],[-93.47956,29.92801],[-93.48105,29.92789],[-93.48175,29.92801],[-93.48222,29.9283],[-93.48322,29.92925],[-93.48391,29.92964],[-93.48474,29.93083],[-93.48568,29.93187],[-93.48575,29.93318],[-93.48608,29.93371],[-93.48642,29.93393],[-93.48702,29.93388],[-93.48837,29.93413],[-93.48892,29.93408],[-93.4896,29.93383],[-93.49038,29.93386],[-93.49051,29.93429],[-93.48973,29.93495],[-93.48961,29.93536],[-93.48967,29.93569],[-93.49027,29.93618],[-93.49164,29.93631],[-93.49215,29.937],[-93.49291,29.93772],[-93.49129,29.94002],[-93.49047,29.94093],[-93.49038,29.94181],[-93.49067,29.94245],[-93.49062,29.94274],[-93.48885,29.94385],[-93.48858,29.94382],[-93.48825,29.94347],[-93.48901,29.94295],[-93.48921,29.9426],[-93.48909,29.94195],[-93.48879,29.94175],[-93.48855,29.94201],[-93.48806,29.94309],[-93.48762,29.94343],[-93.48753,29.94385],[-93.48692,29.9447],[-93.4864,29.94472],[-93.48588,29.94555],[-93.48576,29.94549],[-93.48574,29.94516],[-93.48514,29.94524],[-93.48523,29.94562],[-93.48496,29.94632],[-93.48415,29.94753],[-93.48389,29.94755],[-93.48379,29.94698],[-93.4842,29.94653],[-93.48419,29.94633],[-93.48372,29.94572],[-93.4827,29.94495],[-93.48243,29.94567],[-93.4828,29.94658],[-93.48239,29.94683],[-93.48196,29.94735],[-93.48173,29.94817],[-93.48063,29.95058],[-93.48068,29.95022],[-93.47854,29.95262],[-93.47798,29.95304],[-93.47757,29.95289],[-93.47706,29.95226],[-93.47668,29.95016],[-93.47577,29.94814],[-93.47513,29.94727],[-93.47433,29.94701],[-93.47371,29.94659],[-93.47304,29.94641],[-93.47126,29.94541],[-93.46981,29.94499],[-93.46922,29.94378],[-93.46856,29.94292],[-93.467,29.94193],[-93.46403,29.94175],[-93.46395,29.94159],[-93.46419,29.94109],[-93.46423,29.94013],[-93.46383,29.93957],[-93.46388,29.93881],[-93.46307,29.93742],[-93.46256,29.93709],[-93.46261,29.93678],[-93.46362,29.9356],[-93.46347,29.93528],[-93.4636,29.93471],[-93.46464,29.93374],[-93.46505,29.93318],[-93.4659,29.93138],[-93.46638,29.93071],[-93.46702,29.93046],[-93.46797,29.9305],[-93.47189,29.92946],[-93.47317,29.92955]]]},"properties":{"fire_id":"ufid:2026-LASBR-000365","source_collection":"ytd","source_objectid":60752,"incident_name":"Stark","mapped_acres":100.0,"mapped_acres_source":"poly_GISAcres","gis_acres":100.0,"auto_acres":1119.1006965751906,"reported_acres":100.0,"percent_contained":0.0,"state":"LA","state_wfigs":"US-LA","county":"Cameron","discovery_time_utc":"2026-09-10T18:55:14Z","perimeter_time_utc":"2026-09-11T19:13:03Z","perimeter_edit_time_utc":"2026-09-12T23:28:15Z","incident_modified_time_utc":"2026-09-11T20:03:33Z","containment_time_utc":null,"control_time_utc":null,"fire_out_time_utc":null,"fire_cause":"Undetermined","fire_cause_general":null,"map_method":"Auto-generated for InFORM","source_dataset":"2026 NIFS","unique_fire_identifier":"2026-LASBR-000365","irwin_id":"{133F35CB-F5B2-432B-9B4E-F1515566FA73}","global_id":"217a326c-e05c-4082-94f3-bcf09c87ce62"}}]}
