{"type":"FeatureCollection","features":[{"type":"Feature","geometry":{"type":"Polygon","coordinates":[[[-106.08622,44.99436],[-106.08651,44.99533],[-106.08596,44.99626],[-106.08484,44.99731],[-106.08444,44.99786],[-106.08438,44.99864],[-106.0845,44.99901],[-106.08337,44.99868],[-106.08072,44.99888],[-106.07869,44.99836],[-106.07632,44.99681],[-106.07432,44.99462],[-106.07284,44.99405],[-106.07305,44.99359],[-106.07303,44.99316],[-106.07325,44.99289],[-106.07377,44.9926],[-106.07401,44.99261],[-106.0752,44.99178],[-106.07452,44.99163],[-106.07401,44.9913],[-106.07376,44.99097],[-106.07391,44.99049],[-106.07339,44.99009],[-106.07308,44.98953],[-106.07276,44.98947],[-106.07289,44.98907],[-106.07356,44.98896],[-106.07487,44.98827],[-106.07541,44.98731],[-106.07629,44.98677],[-106.07865,44.98587],[-106.07949,44.98673],[-106.07946,44.98709],[-106.07908,44.98754],[-106.07919,44.98792],[-106.07987,44.98859],[-106.08048,44.99038],[-106.08094,44.99091],[-106.08161,44.99114],[-106.08213,44.99101],[-106.08336,44.99106],[-106.08406,44.99224],[-106.08519,44.99302],[-106.08622,44.99436]]]},"properties":{"fire_id":"ufid:2026-MTMCD-000749","source_collection":"ytd","source_objectid":58930,"incident_name":"Fence Creek","mapped_acres":222.1,"mapped_acres_source":"poly_GISAcres","gis_acres":222.1,"auto_acres":222.0651371341384,"reported_acres":250.0,"percent_contained":null,"state":"MT","state_wfigs":"US-MT","county":"Powder River","discovery_time_utc":"2026-08-28T12:33:20Z","perimeter_time_utc":"2026-08-29T16:18:24Z","perimeter_edit_time_utc":"2026-09-03T11:31:44Z","incident_modified_time_utc":"2026-08-29T23:16:54Z","containment_time_utc":"2026-08-29T14:00:00Z","control_time_utc":"2026-08-29T23:15:00Z","fire_out_time_utc":null,"fire_cause":"Natural","fire_cause_general":null,"map_method":"Mixed Methods","source_dataset":"2026 NIFS","unique_fire_identifier":"2026-MTMCD-000749","irwin_id":"{9FB37B2B-DED6-4B02-8DDF-F60FA3C1C04A}","global_id":"8cb52d2d-e244-4946-a071-1dc8601cd5f8"}}]}
