{"type":"FeatureCollection","features":[{"type":"Feature","geometry":{"type":"Polygon","coordinates":[[[-76.88481,34.83658],[-76.88467,34.83701],[-76.88436,34.83731],[-76.88351,34.8374],[-76.88312,34.83717],[-76.88266,34.8362],[-76.88311,34.83566],[-76.88476,34.83503],[-76.88548,34.83497],[-76.887,34.83545],[-76.88754,34.83583],[-76.88607,34.836],[-76.88572,34.83623],[-76.88476,34.83596],[-76.88444,34.83641],[-76.88481,34.83658]]]},"properties":{"fire_id":"ufid:2026-NCNCF-260183","source_collection":"ytd","source_objectid":52814,"incident_name":"LAKESIDE","mapped_acres":14.0,"mapped_acres_source":"poly_GISAcres","gis_acres":14.0,"auto_acres":14.005685549215022,"reported_acres":14.0,"percent_contained":null,"state":"NC","state_wfigs":"US-NC","county":"Craven","discovery_time_utc":"2026-03-31T19:54:00Z","perimeter_time_utc":"2026-04-28T12:10:42Z","perimeter_edit_time_utc":null,"incident_modified_time_utc":"2026-04-09T15:54:43Z","containment_time_utc":"2026-03-31T21:24:00Z","control_time_utc":null,"fire_out_time_utc":"2026-04-28T12:00:46Z","fire_cause":"Human","fire_cause_general":"Recreation and ceremony","map_method":"Auto-generated for InFORM","source_dataset":"FFP","unique_fire_identifier":"2026-NCNCF-260183","irwin_id":"{10250012-F578-4AA6-B7F4-19768DE08132}","global_id":"8c8ceb2f-37c5-4cc1-9ae1-e3cdc8a1083f"}},{"type":"Feature","geometry":{"type":"Polygon","coordinates":[[[-76.39205,34.9387],[-76.3893,34.93912],[-76.389,34.93894],[-76.3881,34.93879],[-76.38761,34.93842],[-76.38723,34.93791],[-76.38692,34.93771],[-76.3868,34.93736],[-76.38637,34.93713],[-76.38628,34.93672],[-76.38643,34.93666],[-76.38664,34.93619],[-76.38649,34.93593],[-76.3863,34.93576],[-76.38564,34.93573],[-76.3849,34.93519],[-76.38475,34.93528],[-76.38409,34.93496],[-76.38403,34.93475],[-76.38386,34.93478],[-76.38377,34.93461],[-76.38354,34.93462],[-76.38354,34.93447],[-76.38329,34.9344],[-76.38314,34.93398],[-76.38329,34.93338],[-76.38358,34.93287],[-76.383885,34.932819],[-76.38364,34.93276],[-76.38374,34.9327],[-76.38372,34.93112],[-76.38363,34.93114],[-76.38353,34.93076],[-76.38287,34.9303],[-76.38321,34.92867],[-76.38334,34.92856],[-76.38393,34.92595],[-76.38426,34.92502],[-76.38422,34.92413],[-76.38602,34.92226],[-76.38751,34.923],[-76.39067,34.92415],[-76.39405,34.9246],[-76.39603,34.92535],[-76.39819,34.92668],[-76.3992,34.92714],[-76.40146,34.9288],[-76.40219,34.92886],[-76.40366,34.92807],[-76.40444,34.92818],[-76.40683,34.9293],[-76.40859,34.92979],[-76.40929,34.93013],[-76.40965,34.93059],[-76.40971,34.93081],[-76.40957,34.93089],[-76.40989,34.93166],[-76.40986,34.93205],[-76.40959,34.93265],[-76.40918,34.93266],[-76.40906,34.93311],[-76.40888,34.93306],[-76.40879,34.93343],[-76.40853,34.93349],[-76.40859,34.93369],[-76.40825,34.93375],[-76.40785,34.93406],[-76.40783,34.93444],[-76.40742,34.93432],[-76.40731,34.93465],[-76.4075,34.9349],[-76.40752,34.93523],[-76.4069,34.93531],[-76.40691,34.93578],[-76.40648,34.93562],[-76.40609,34.93588],[-76.40592,34.93616],[-76.40554,34.93605],[-76.40516,34.9366],[-76.40485,34.93655],[-76.40497,34.93631],[-76.4047,34.93616],[-76.40473,34.93594],[-76.40439,34.93569],[-76.40395,34.93588],[-76.40304,34.93579],[-76.40259,34.93543],[-76.40243,34.93549],[-76.40174,34.93514],[-76.40134,34.9351],[-76.40041,34.9352],[-76.40046,34.9354],[-76.40023,34.93569],[-76.40047,34.93591],[-76.40017,34.93623],[-76.39904,34.93602],[-76.39844,34.9364],[-76.39818,34.9368],[-76.39826,34.93599],[-76.39796,34.9357],[-76.39747,34.93557],[-76.39714,34.93507],[-76.39698,34.93504],[-76.39661,34.934],[-76.3967,34.93366],[-76.39637,34.93343],[-76.39564,34.93366],[-76.39524,34.93417],[-76.39511,34.93406],[-76.39499,34.93412],[-76.39506,34.93432],[-76.39491,34.93421],[-76.39488,34.93441],[-76.39518,34.93453],[-76.39501,34.93457],[-76.39509,34.93489],[-76.39492,34.93531],[-76.39508,34.93565],[-76.39497,34.93608],[-76.39498,34.93716],[-76.39435,34.93817],[-76.3936,34.93812],[-76.39336,34.93794],[-76.39267,34.93809],[-76.3925,34.93781],[-76.39261,34.93818],[-76.39205,34.9387]],[[-76.383942,34.93281],[-76.384,34.9328],[-76.384,34.93271],[-76.383942,34.93281]]]},"properties":{"fire_id":"ufid:2026-NCCDR-260268","source_collection":"ytd","source_objectid":54463,"incident_name":"CADDUGGEN","mapped_acres":670.0,"mapped_acres_source":"poly_GISAcres","gis_acres":670.0,"auto_acres":662.2105502465304,"reported_acres":659.93,"percent_contained":null,"state":"NC","state_wfigs":"US-NC","county":"Carteret","discovery_time_utc":"2026-05-19T20:22:52Z","perimeter_time_utc":"2026-06-01T19:05:27Z","perimeter_edit_time_utc":null,"incident_modified_time_utc":"2026-05-22T23:43:35Z","containment_time_utc":null,"control_time_utc":null,"fire_out_time_utc":null,"fire_cause":"Human","fire_cause_general":"Equipment and vehicle use","map_method":"Auto-generated for InFORM","source_dataset":"FFP","unique_fire_identifier":"2026-NCCDR-260268","irwin_id":"{7DAFE704-220A-4C5E-A9E6-D883CB9A7C35}","global_id":"a2b6dafb-b398-422a-a935-865e7e4a8073"}},{"type":"Feature","geometry":{"type":"Polygon","coordinates":[[[-77.04626,34.73271],[-77.04487,34.732],[-77.04515,34.73044],[-77.04536,34.72762],[-77.04529,34.72677],[-77.04499,34.72588],[-77.04327,34.72452],[-77.04305,34.72431],[-77.0431,34.72421],[-77.04242,34.72397],[-77.04225,34.72406],[-77.04195,34.72397],[-77.04204,34.72353],[-77.04181,34.72348],[-77.04327,34.72243],[-77.04396,34.72236],[-77.04401,34.72178],[-77.04442,34.72162],[-77.04478,34.72069],[-77.04473,34.7204],[-77.04461,34.72035],[-77.04367,34.72052],[-77.04417,34.72009],[-77.04411,34.71981],[-77.04385,34.7195],[-77.04444,34.71914],[-77.04484,34.71869],[-77.04513,34.71857],[-77.04561,34.71861],[-77.04602,34.71912],[-77.04689,34.71942],[-77.04701,34.7192],[-77.04654,34.7187],[-77.0467,34.71857],[-77.04695,34.7186],[-77.04754,34.71937],[-77.04809,34.71959],[-77.04855,34.7191],[-77.04858,34.71792],[-77.04881,34.71775],[-77.04987,34.71788],[-77.04969,34.71932],[-77.04835,34.72191],[-77.04842,34.72253],[-77.0486,34.72278],[-77.04895,34.72277],[-77.04959,34.72243],[-77.05084,34.72301],[-77.05119,34.72296],[-77.05177,34.7239],[-77.05227,34.72426],[-77.0528,34.72415],[-77.05307,34.72425],[-77.05231,34.72677],[-77.05174,34.7273],[-77.04931,34.7286],[-77.04626,34.73271]]]},"properties":{"fire_id":"ufid:2026-NCNCF-260254","source_collection":"ytd","source_objectid":54738,"incident_name":"PETTIFORD CREEK","mapped_acres":188.0,"mapped_acres_source":"poly_GISAcres","gis_acres":188.0,"auto_acres":188.35878548965098,"reported_acres":188.0,"percent_contained":null,"state":"NC","state_wfigs":"US-NC","county":"Carteret","discovery_time_utc":"2026-04-24T12:34:03Z","perimeter_time_utc":"2026-06-09T12:15:58Z","perimeter_edit_time_utc":null,"incident_modified_time_utc":"2026-06-09T12:15:16Z","containment_time_utc":"2026-04-26T21:00:00Z","control_time_utc":null,"fire_out_time_utc":"2026-06-09T12:00:00Z","fire_cause":"Undetermined","fire_cause_general":"Undetermined","map_method":"Auto-generated for InFORM","source_dataset":"FFP","unique_fire_identifier":"2026-NCNCF-260254","irwin_id":"{5A282377-61EF-409F-9453-261A5E117B6D}","global_id":"8dd2f25c-3d01-4cb9-b6cc-6bb63cc07b7f"}}]}
