{"type":"FeatureCollection","features":[{"type":"Feature","geometry":{"type":"MultiPolygon","coordinates":[[[[-71.71279,44.3566],[-71.71322,44.35752],[-71.71286,44.35794],[-71.71266,44.35856],[-71.71234,44.35849],[-71.71176,44.35882],[-71.71113,44.35895],[-71.71075,44.35883],[-71.71083,44.3586],[-71.71072,44.35845],[-71.71074,44.3584],[-71.71096,44.35831],[-71.71086,44.35812],[-71.71119,44.35795],[-71.71143,44.35731],[-71.7111,44.35688],[-71.71117,44.35605],[-71.71138,44.35602],[-71.71147,44.35587],[-71.71207,44.35604],[-71.71236,44.35638],[-71.71279,44.3566]],[[-71.710772,44.358464],[-71.71076,44.358485],[-71.7108,44.35852],[-71.710772,44.358464]]],[[[-71.71087,44.35824],[-71.71088,44.35825],[-71.71087,44.35825],[-71.71086,44.35825],[-71.71087,44.35824]]],[[[-71.71088,44.35826],[-71.71088,44.35825],[-71.71089,44.35826],[-71.71088,44.35826]]],[[[-71.71087,44.35826],[-71.71087,44.35825],[-71.71088,44.35826],[-71.71087,44.35826]]],[[[-71.71088,44.35827],[-71.71084,44.35826],[-71.71085,44.35825],[-71.71088,44.35827]]],[[[-71.71088,44.35827],[-71.71088,44.35826],[-71.7109,44.35828],[-71.71088,44.35827]]],[[[-71.71078,44.35859],[-71.71077,44.35858],[-71.71078,44.35858],[-71.71078,44.35859]]],[[[-71.71072,44.35852],[-71.71071,44.35848],[-71.71079,44.35856],[-71.71072,44.35852]]],[[[-71.71078,44.35857],[-71.71069,44.35856],[-71.71072,44.35854],[-71.71078,44.35857]]],[[[-71.71066,44.35859],[-71.71069,44.35856],[-71.7107,44.35858],[-71.71066,44.35859]]],[[[-71.71072,44.35858],[-71.71076,44.358585],[-71.71078,44.35859],[-71.71077,44.3586],[-71.71072,44.35858]]],[[[-71.71073,44.35861],[-71.71071,44.35858],[-71.71072,44.35858],[-71.71073,44.35861]]],[[[-71.71075,44.35864],[-71.71072,44.3586],[-71.71075,44.35863],[-71.71075,44.35864]]],[[[-71.71077,44.3587],[-71.71076,44.35871],[-71.71076,44.35869],[-71.71077,44.3587]]],[[[-71.71074,44.35872],[-71.71076,44.35871],[-71.71078,44.35872],[-71.71074,44.35872]]],[[[-71.71074,44.35885],[-71.71073,44.35883],[-71.71075,44.35883],[-71.71074,44.35885]]]]},"properties":{"fire_id":"ufid:2026-NHNHS-140409A","source_collection":"ytd","source_objectid":52184,"incident_name":"140409A","mapped_acres":10.225856405891017,"mapped_acres_source":"poly_Acres_AutoCalc_fallback","gis_acres":null,"auto_acres":10.225856405891017,"reported_acres":10.2,"percent_contained":null,"state":"NH","state_wfigs":"US-NH","county":"Coos","discovery_time_utc":"2026-04-09T20:00:46Z","perimeter_time_utc":"2026-04-10T15:35:37Z","perimeter_edit_time_utc":null,"incident_modified_time_utc":"2026-04-10T13:42:45Z","containment_time_utc":null,"control_time_utc":null,"fire_out_time_utc":null,"fire_cause":"Human","fire_cause_general":"Debris and open burning","map_method":"Mixed Methods","source_dataset":"FFP","unique_fire_identifier":"2026-NHNHS-140409A","irwin_id":"{A5F60A74-30CA-4C5D-9EEF-FD4B1021392D}","global_id":"7ed63788-a235-4b54-a9b9-051177ce87a1"}},{"type":"Feature","geometry":{"type":"MultiPolygon","coordinates":[[[[-70.90632,42.93068],[-70.90633,42.93071],[-70.90628,42.9307],[-70.90632,42.93068]]],[[[-70.90622,42.93069],[-70.90688,42.93105],[-70.90713,42.93166],[-70.90797,42.9314],[-70.90839,42.9316],[-70.90922,42.93151],[-70.9094,42.93206],[-70.90872,42.93256],[-70.90747,42.93262],[-70.90676,42.93241],[-70.90603,42.93255],[-70.9061,42.93206],[-70.90548,42.93162],[-70.90547,42.93132],[-70.90605,42.93097],[-70.90622,42.93069]]]]},"properties":{"fire_id":"ufid:2026-NHNHS-240412A","source_collection":"ytd","source_objectid":52524,"incident_name":"240412A","mapped_acres":9.412486424234498,"mapped_acres_source":"poly_Acres_AutoCalc_fallback","gis_acres":null,"auto_acres":9.412486424234498,"reported_acres":9.4,"percent_contained":null,"state":"NH","state_wfigs":"US-NH","county":"Rockingham","discovery_time_utc":"2026-04-12T15:20:00Z","perimeter_time_utc":"2026-04-21T12:34:42Z","perimeter_edit_time_utc":null,"incident_modified_time_utc":"2026-04-12T19:27:29Z","containment_time_utc":null,"control_time_utc":null,"fire_out_time_utc":null,"fire_cause":"Human","fire_cause_general":"Debris and open burning","map_method":"Mixed Methods","source_dataset":"FFP","unique_fire_identifier":"2026-NHNHS-240412A","irwin_id":"{87CE078A-5943-420C-A476-DC5D47F7142A}","global_id":"afe1e698-b21a-4a68-98ce-5c540e4d5c0d"}},{"type":"Feature","geometry":{"type":"Polygon","coordinates":[[[-71.63663,43.84637],[-71.63655,43.84668],[-71.63647,43.84659],[-71.63663,43.84637]]]},"properties":{"fire_id":"ufid:2026-NHNHS-120429A","source_collection":"ytd","source_objectid":52916,"incident_name":"120423A","mapped_acres":0.05844107575662519,"mapped_acres_source":"poly_Acres_AutoCalc_fallback","gis_acres":null,"auto_acres":0.05844107575662519,"reported_acres":0.1,"percent_contained":null,"state":"NH","state_wfigs":"US-NH","county":"Grafton","discovery_time_utc":"2026-04-29T13:00:05Z","perimeter_time_utc":null,"perimeter_edit_time_utc":"2026-04-30T17:57:36Z","incident_modified_time_utc":"2026-04-30T17:53:02Z","containment_time_utc":null,"control_time_utc":null,"fire_out_time_utc":null,"fire_cause":null,"fire_cause_general":null,"map_method":"Mixed Methods","source_dataset":"2026 NIFS","unique_fire_identifier":"2026-NHNHS-120429A","irwin_id":"{526874C1-5EE0-44C9-8420-81311ECE6332}","global_id":"66dd5076-3a96-4da9-8c84-eb6e7ad47e3d"}},{"type":"Feature","geometry":{"type":"Polygon","coordinates":[[[-71.27275,43.14377],[-71.27308,43.14393],[-71.27315,43.14414],[-71.27261,43.1444],[-71.2725,43.1443],[-71.27256,43.14415],[-71.27271,43.14426],[-71.27256,43.14387],[-71.27275,43.14377]]]},"properties":{"fire_id":"ufid:2026-NHNHS-250423A","source_collection":"ytd","source_objectid":53580,"incident_name":"250423a","mapped_acres":0.5977792400225345,"mapped_acres_source":"poly_Acres_AutoCalc_fallback","gis_acres":null,"auto_acres":0.5977792400225345,"reported_acres":0.6,"percent_contained":null,"state":"NH","state_wfigs":"US-NH","county":"Rockingham","discovery_time_utc":"2026-04-23T16:15:06Z","perimeter_time_utc":"2026-05-15T15:49:57Z","perimeter_edit_time_utc":null,"incident_modified_time_utc":"2026-04-24T16:55:09Z","containment_time_utc":null,"control_time_utc":null,"fire_out_time_utc":"2026-04-23T18:00:00Z","fire_cause":"Human","fire_cause_general":"Debris and open burning","map_method":"Mixed Methods","source_dataset":"FFP","unique_fire_identifier":"2026-NHNHS-250423A","irwin_id":"{305172C3-1193-4C4F-9057-FD3C8A4E2C94}","global_id":"05d394f2-7247-4e19-bd2a-00560a45b074"}},{"type":"Feature","geometry":{"type":"Polygon","coordinates":[[[-71.37375,43.26584],[-71.37326,43.26586],[-71.37335,43.26572],[-71.37321,43.26563],[-71.37372,43.26521],[-71.37395,43.26532],[-71.37363,43.26562],[-71.37375,43.26584]]]},"properties":{"fire_id":"ufid:2026-NHNHS-250423B","source_collection":"ytd","source_objectid":53581,"incident_name":"250423B","mapped_acres":0.5249769261718775,"mapped_acres_source":"poly_Acres_AutoCalc_fallback","gis_acres":null,"auto_acres":0.5249769261718775,"reported_acres":0.53,"percent_contained":null,"state":"NH","state_wfigs":"US-NH","county":"Merrimack","discovery_time_utc":"2026-04-23T18:45:09Z","perimeter_time_utc":"2026-05-15T15:51:52Z","perimeter_edit_time_utc":null,"incident_modified_time_utc":"2026-04-24T16:21:25Z","containment_time_utc":null,"control_time_utc":null,"fire_out_time_utc":"2026-04-23T20:00:00Z","fire_cause":"Undetermined","fire_cause_general":"Undetermined","map_method":"Mixed Methods","source_dataset":"FFP","unique_fire_identifier":"2026-NHNHS-250423B","irwin_id":"{14022801-47D0-497D-97A3-765B6E93B119}","global_id":"75e4ede7-e635-4bd4-8a97-1580424ae927"}},{"type":"Feature","geometry":{"type":"MultiPolygon","coordinates":[[[[-71.29567,43.12349],[-71.29652,43.12374],[-71.29682,43.12333],[-71.29731,43.12357],[-71.29689,43.12381],[-71.29689,43.12397],[-71.29717,43.12408],[-71.29718,43.12427],[-71.29683,43.12514],[-71.2963,43.12564],[-71.29552,43.1257],[-71.2951,43.12519],[-71.29505,43.12479],[-71.29522,43.12469],[-71.29506,43.12444],[-71.29567,43.12349]]],[[[-71.29559,43.12357],[-71.29565,43.12347],[-71.29561,43.12354],[-71.29559,43.12357]]],[[[-71.29555,43.12359],[-71.29558,43.12358],[-71.29555,43.1236],[-71.29555,43.12359]]],[[[-71.29557,43.12354],[-71.29554,43.12361],[-71.29547,43.12369],[-71.29557,43.12354]]]]},"properties":{"fire_id":"ufid:2026-NHNHS-250505B","source_collection":"ytd","source_objectid":53582,"incident_name":"250505B","mapped_acres":8.83,"mapped_acres_source":"poly_GISAcres","gis_acres":8.83,"auto_acres":7.972213441381406,"reported_acres":8.0,"percent_contained":null,"state":"NH","state_wfigs":"US-NH","county":"Rockingham","discovery_time_utc":"2026-05-05T20:00:45Z","perimeter_time_utc":"2026-05-15T15:48:24Z","perimeter_edit_time_utc":null,"incident_modified_time_utc":"2026-05-07T20:14:27Z","containment_time_utc":null,"control_time_utc":null,"fire_out_time_utc":"2026-05-06T19:00:00Z","fire_cause":"Human","fire_cause_general":"Power generation / transmission / distribution","map_method":"Mixed Methods","source_dataset":"FFP","unique_fire_identifier":"2026-NHNHS-250505B","irwin_id":"{BAC7D5CB-1DAA-4D24-81C7-117CD0239EB6}","global_id":"b9957d9f-888c-4d2f-8219-cecea8b5b9d6"}},{"type":"Feature","geometry":{"type":"Polygon","coordinates":[[[-71.29377,43.12287],[-71.29381,43.12276],[-71.29397,43.1228],[-71.29383,43.12289],[-71.29388,43.12307],[-71.29343,43.12332],[-71.29317,43.12286],[-71.29325,43.12266],[-71.29365,43.12254],[-71.29383,43.12261],[-71.29377,43.12287]]]},"properties":{"fire_id":"ufid:2026-NHNHS-250505C","source_collection":"ytd","source_objectid":53583,"incident_name":"250505C","mapped_acres":0.87,"mapped_acres_source":"poly_GISAcres","gis_acres":0.87,"auto_acres":0.877485146126907,"reported_acres":0.88,"percent_contained":null,"state":"NH","state_wfigs":"US-NH","county":"Rockingham","discovery_time_utc":"2026-05-05T20:00:22Z","perimeter_time_utc":"2026-05-15T15:48:42Z","perimeter_edit_time_utc":null,"incident_modified_time_utc":"2026-05-07T20:26:08Z","containment_time_utc":null,"control_time_utc":null,"fire_out_time_utc":"2026-05-06T00:30:00Z","fire_cause":"Human","fire_cause_general":"Power generation / transmission / distribution","map_method":"Mixed Methods","source_dataset":"FFP","unique_fire_identifier":"2026-NHNHS-250505C","irwin_id":"{AB7C059F-B4D7-43CB-9FBF-9EC45EDB7722}","global_id":"2aefc880-03d7-46c9-9f97-faee0bdc770c"}},{"type":"Feature","geometry":{"type":"Polygon","coordinates":[[[-70.97459,43.42836],[-70.97519,43.42867],[-70.97582,43.42868],[-70.97612,43.42885],[-70.97595,43.42898],[-70.97561,43.42884],[-70.97515,43.42942],[-70.97559,43.42954],[-70.9753,43.4298],[-70.97372,43.42923],[-70.97379,43.42863],[-70.97459,43.42836]]]},"properties":{"fire_id":"ufid:2026-NHNHS-250505D","source_collection":"ytd","source_objectid":53584,"incident_name":"250505D Milton","mapped_acres":3.47,"mapped_acres_source":"poly_GISAcres","gis_acres":3.47,"auto_acres":3.992465336197963,"reported_acres":3.99,"percent_contained":null,"state":"NH","state_wfigs":"US-NH","county":"Strafford","discovery_time_utc":"2026-05-05T15:46:49Z","perimeter_time_utc":"2026-05-15T15:57:35Z","perimeter_edit_time_utc":null,"incident_modified_time_utc":"2026-05-07T20:44:32Z","containment_time_utc":null,"control_time_utc":null,"fire_out_time_utc":"2026-05-05T19:18:00Z","fire_cause":"Undetermined","fire_cause_general":"Undetermined","map_method":"Hand Sketch","source_dataset":"FFP","unique_fire_identifier":"2026-NHNHS-250505D","irwin_id":"{D0ED598E-ACD8-4F78-A793-CBCE400A2956}","global_id":"b5e2c96c-c808-4d42-b874-d18c059123c5"}},{"type":"Feature","geometry":{"type":"Polygon","coordinates":[[[-71.94301,44.0675],[-71.943,44.06756],[-71.94291,44.0675],[-71.94301,44.0675]]]},"properties":{"fire_id":"ufid:2026-NHNHS-140428A","source_collection":"ytd","source_objectid":53585,"incident_name":"140428A","mapped_acres":0.02,"mapped_acres_source":"poly_GISAcres","gis_acres":0.02,"auto_acres":0.01751723183213479,"reported_acres":0.5,"percent_contained":null,"state":"NH","state_wfigs":"US-NH","county":"Grafton","discovery_time_utc":"2026-04-27T19:00:58Z","perimeter_time_utc":"2026-05-15T16:01:29Z","perimeter_edit_time_utc":null,"incident_modified_time_utc":"2026-04-28T11:52:20Z","containment_time_utc":null,"control_time_utc":null,"fire_out_time_utc":null,"fire_cause":"Undetermined","fire_cause_general":"Undetermined","map_method":"Hand Sketch","source_dataset":"FFP","unique_fire_identifier":"2026-NHNHS-140428A","irwin_id":"{AB63FDA0-06CA-40DE-AE51-DB6FE066D702}","global_id":"d70403eb-913e-4a9b-b0fa-ddc459d3ead5"}},{"type":"Feature","geometry":{"type":"Polygon","coordinates":[[[-71.93131,44.01064],[-71.93076,44.0103],[-71.93065,44.01005],[-71.93071,44.00971],[-71.93024,44.00995],[-71.92991,44.00987],[-71.92988,44.01],[-71.92967,44.00979],[-71.92966,44.00941],[-71.92986,44.00906],[-71.92949,44.00865],[-71.92962,44.00857],[-71.92956,44.00835],[-71.92971,44.0081],[-71.92948,44.00779],[-71.92947,44.00756],[-71.92957,44.00711],[-71.92975,44.00702],[-71.92964,44.00696],[-71.92986,44.0067],[-71.92982,44.0065],[-71.93005,44.00631],[-71.93072,44.00639],[-71.93091,44.00677],[-71.93117,44.00686],[-71.93109,44.00721],[-71.93124,44.00713],[-71.93114,44.00743],[-71.93135,44.00809],[-71.93193,44.00832],[-71.93248,44.00907],[-71.93234,44.00962],[-71.93193,44.01002],[-71.93205,44.01033],[-71.93169,44.01064],[-71.93131,44.01064]]]},"properties":{"fire_id":"ufid:2026-NHWMF-000096","source_collection":"ytd","source_objectid":53586,"incident_name":"140429A","mapped_acres":17.39084776681316,"mapped_acres_source":"poly_Acres_AutoCalc_fallback","gis_acres":null,"auto_acres":17.39084776681316,"reported_acres":17.39,"percent_contained":null,"state":"NH","state_wfigs":"US-NH","county":"Grafton","discovery_time_utc":"2026-04-29T14:33:57Z","perimeter_time_utc":"2026-05-18T20:04:22Z","perimeter_edit_time_utc":null,"incident_modified_time_utc":"2026-05-18T16:39:22Z","containment_time_utc":"2026-04-29T23:21:00Z","control_time_utc":"2026-05-03T14:35:00Z","fire_out_time_utc":"2026-05-07T16:35:00Z","fire_cause":"Human","fire_cause_general":"Arson","map_method":"Mixed Methods","source_dataset":"FFP","unique_fire_identifier":"2026-NHWMF-000096","irwin_id":"{EE0CBE20-267D-4122-B6A1-04406C220B8B}","global_id":"f0e59678-c78d-4505-ac77-798eca578983"}},{"type":"Feature","geometry":{"type":"Polygon","coordinates":[[[-71.66953,43.81255],[-71.66933,43.8126],[-71.66916,43.81243],[-71.6695,43.81217],[-71.66971,43.81248],[-71.66954,43.81266],[-71.66953,43.81255]]]},"properties":{"fire_id":"ufid:2026-NHNHS-120429B","source_collection":"ytd","source_objectid":53587,"incident_name":"120429B","mapped_acres":0.3550538503353341,"mapped_acres_source":"poly_Acres_AutoCalc_fallback","gis_acres":null,"auto_acres":0.3550538503353341,"reported_acres":0.1,"percent_contained":null,"state":"NH","state_wfigs":"US-NH","county":"Grafton","discovery_time_utc":"2026-04-29T13:00:51Z","perimeter_time_utc":"2026-05-15T15:59:55Z","perimeter_edit_time_utc":null,"incident_modified_time_utc":"2026-04-30T18:20:11Z","containment_time_utc":null,"control_time_utc":null,"fire_out_time_utc":null,"fire_cause":"Human","fire_cause_general":"Equipment and vehicle use","map_method":"Mixed Methods","source_dataset":"FFP","unique_fire_identifier":"2026-NHNHS-120429B","irwin_id":"{D8AE89D9-1474-4E66-AB8D-DBE76E6CDC9A}","global_id":"ede6833d-b814-43e9-afe8-9ca7d8c0f734"}},{"type":"Feature","geometry":{"type":"Polygon","coordinates":[[[-71.21499,44.1161],[-71.21473,44.11589],[-71.21499,44.11582],[-71.21516,44.11603],[-71.21499,44.1161]]]},"properties":{"fire_id":"ufid:2026-NHNHS-130428A","source_collection":"ytd","source_objectid":53589,"incident_name":"Trash","mapped_acres":0.1140623657672097,"mapped_acres_source":"poly_Acres_AutoCalc_fallback","gis_acres":null,"auto_acres":0.1140623657672097,"reported_acres":0.11,"percent_contained":null,"state":"NH","state_wfigs":"US-NH","county":"Carroll","discovery_time_utc":"2026-04-28T18:42:00Z","perimeter_time_utc":"2026-05-15T16:04:10Z","perimeter_edit_time_utc":null,"incident_modified_time_utc":"2026-04-29T12:38:41Z","containment_time_utc":null,"control_time_utc":null,"fire_out_time_utc":null,"fire_cause":"Human","fire_cause_general":"Debris and open burning","map_method":"Mixed Methods","source_dataset":"FFP","unique_fire_identifier":"2026-NHNHS-130428A","irwin_id":"{C2FF82D1-765A-4248-B73F-F6BB19715D52}","global_id":"9a6a2278-0e32-4519-8b56-911ad1782985"}},{"type":"Feature","geometry":{"type":"Polygon","coordinates":[[[-70.99195,43.36347],[-70.99075,43.36436],[-70.99036,43.36442],[-70.98986,43.36232],[-70.99033,43.3624],[-70.99079,43.36217],[-70.99117,43.36218],[-70.99168,43.36245],[-70.99199,43.3624],[-70.99221,43.36254],[-70.99194,43.36281],[-70.99195,43.36347]]]},"properties":{"fire_id":"ufid:2026-NHNHS-250517A","source_collection":"ytd","source_objectid":53909,"incident_name":"250517A Rochester","mapped_acres":7.0,"mapped_acres_source":"poly_GISAcres","gis_acres":7.0,"auto_acres":7.430482970089004,"reported_acres":7.0,"percent_contained":null,"state":"NH","state_wfigs":"US-NH","county":"Strafford","discovery_time_utc":"2026-05-17T20:35:53Z","perimeter_time_utc":"2026-05-18T13:00:00Z","perimeter_edit_time_utc":"2026-05-19T14:16:30Z","incident_modified_time_utc":"2026-05-19T14:08:54Z","containment_time_utc":null,"control_time_utc":null,"fire_out_time_utc":null,"fire_cause":null,"fire_cause_general":null,"map_method":"GPS-Walked","source_dataset":"2026 NIFS","unique_fire_identifier":"2026-NHNHS-250517A","irwin_id":"{2B9A38CC-3F2C-4C35-9565-CA551679861E}","global_id":"15abc9d2-5b46-4810-a11f-e5ce9f4833b1"}},{"type":"Feature","geometry":{"type":"Polygon","coordinates":[[[-71.65141,43.2617],[-71.651,43.26182],[-71.651,43.26197],[-71.65072,43.26216],[-71.65052,43.26203],[-71.65025,43.2622],[-71.64975,43.26223],[-71.64971,43.26206],[-71.64933,43.26202],[-71.64976,43.26188],[-71.64973,43.26172],[-71.64946,43.26168],[-71.64918,43.2614],[-71.64938,43.26123],[-71.64974,43.26126],[-71.64975,43.26115],[-71.65,43.26114],[-71.65015,43.26098],[-71.6506,43.26093],[-71.65128,43.26124],[-71.65141,43.2617]],[[-71.65134,43.2616],[-71.65136,43.26157],[-71.6513,43.2616],[-71.65134,43.2616]],[[-71.65128,43.2616],[-71.65124,43.26162],[-71.6513,43.2616],[-71.65128,43.2616]]]},"properties":{"fire_id":"ufid:2026-NHNHS-210520A","source_collection":"ytd","source_objectid":54090,"incident_name":"210520A","mapped_acres":4.240600086032628,"mapped_acres_source":"poly_Acres_AutoCalc_fallback","gis_acres":null,"auto_acres":4.240600086032628,"reported_acres":4.24,"percent_contained":null,"state":"NH","state_wfigs":"US-NH","county":"Merrimack","discovery_time_utc":"2026-05-20T19:00:44Z","perimeter_time_utc":null,"perimeter_edit_time_utc":"2026-05-23T18:44:34Z","incident_modified_time_utc":"2026-05-23T18:32:52Z","containment_time_utc":null,"control_time_utc":null,"fire_out_time_utc":null,"fire_cause":"Human","fire_cause_general":"Smoking","map_method":"Mixed Methods","source_dataset":"2026 NIFS","unique_fire_identifier":"2026-NHNHS-210520A","irwin_id":"{415843C3-0D47-4894-97A7-43063CC14962}","global_id":"25560be2-113e-4736-bff9-a2f67e30242d"}},{"type":"Feature","geometry":{"type":"Polygon","coordinates":[[[-71.76072,43.22335],[-71.76123,43.2235],[-71.76144,43.22339],[-71.76176,43.22344],[-71.76316,43.22389],[-71.76318,43.22408],[-71.76342,43.22413],[-71.76368,43.22458],[-71.76392,43.22462],[-71.76392,43.22487],[-71.76426,43.22522],[-71.76495,43.22551],[-71.76513,43.22609],[-71.76408,43.22626],[-71.76367,43.22613],[-71.76382,43.22597],[-71.76366,43.22593],[-71.7626,43.22639],[-71.76236,43.22632],[-71.76234,43.22603],[-71.76277,43.22567],[-71.76242,43.22584],[-71.76176,43.22589],[-71.76051,43.22552],[-71.76005,43.22488],[-71.75998,43.22447],[-71.76009,43.2241],[-71.76045,43.224],[-71.7603,43.22339],[-71.76072,43.22335]],[[-71.76502,43.22581],[-71.76505,43.22584],[-71.76503,43.22581],[-71.76502,43.22581]]]},"properties":{"fire_id":"ufid:2026-NHNHS-210423B","source_collection":"ytd","source_objectid":54091,"incident_name":"210424A","mapped_acres":20.2977571797254,"mapped_acres_source":"poly_Acres_AutoCalc_fallback","gis_acres":null,"auto_acres":20.2977571797254,"reported_acres":22.0,"percent_contained":null,"state":"NH","state_wfigs":"US-NH","county":"Merrimack","discovery_time_utc":"2026-04-23T18:30:08Z","perimeter_time_utc":null,"perimeter_edit_time_utc":"2026-05-23T18:46:22Z","incident_modified_time_utc":"2026-05-15T15:45:23Z","containment_time_utc":null,"control_time_utc":null,"fire_out_time_utc":null,"fire_cause":"Human","fire_cause_general":"Power generation/transmission/distribution","map_method":"Mixed Methods","source_dataset":"2026 NIFS","unique_fire_identifier":"2026-NHNHS-210423B","irwin_id":"{0DA76419-C2CA-4E55-9290-104355AF1662}","global_id":"4bcd31cc-3234-47f1-b448-03aa18f9de05"}},{"type":"Feature","geometry":{"type":"Polygon","coordinates":[[[-71.69189,43.771],[-71.69241,43.77112],[-71.69225,43.77126],[-71.69178,43.77109],[-71.69189,43.771]]]},"properties":{"fire_id":"ufid:2026-NHNHS-120525A","source_collection":"ytd","source_objectid":54201,"incident_name":"120525A","mapped_acres":0.17591024642580916,"mapped_acres_source":"poly_Acres_AutoCalc_fallback","gis_acres":null,"auto_acres":0.17591024642580916,"reported_acres":0.1,"percent_contained":null,"state":"NH","state_wfigs":"US-NH","county":"Grafton","discovery_time_utc":"2026-05-25T20:00:35Z","perimeter_time_utc":null,"perimeter_edit_time_utc":"2026-05-27T10:55:05Z","incident_modified_time_utc":"2026-05-27T10:56:16Z","containment_time_utc":null,"control_time_utc":null,"fire_out_time_utc":null,"fire_cause":"Undetermined","fire_cause_general":"Undetermined (remarks required)","map_method":"Mixed Methods","source_dataset":"2026 NIFS","unique_fire_identifier":"2026-NHNHS-120525A","irwin_id":"{80BBD026-1C53-494A-AE51-99E6324BE8CC}","global_id":"350bd16c-2381-4f9c-85e6-552d01335a13"}},{"type":"Feature","geometry":{"type":"MultiPolygon","coordinates":[[[[-71.6051,42.81448],[-71.6051,42.81447],[-71.60511,42.81447],[-71.6051,42.81448]]],[[[-71.60495,42.81364],[-71.60506,42.81374],[-71.6051,42.81447],[-71.60414,42.8147],[-71.60395,42.81489],[-71.60348,42.81454],[-71.60392,42.81424],[-71.60433,42.81419],[-71.60448,42.81389],[-71.60495,42.81364]]]]},"properties":{"fire_id":"ufid:2026-NHNHS-230505A","source_collection":"ytd","source_objectid":54620,"incident_name":"210505A","mapped_acres":2.0179250386458603,"mapped_acres_source":"poly_Acres_AutoCalc_fallback","gis_acres":null,"auto_acres":2.0179250386458603,"reported_acres":2.02,"percent_contained":null,"state":"NH","state_wfigs":"US-NH","county":"Hillsborough","discovery_time_utc":"2026-05-05T20:00:23Z","perimeter_time_utc":null,"perimeter_edit_time_utc":"2026-06-05T15:00:13Z","incident_modified_time_utc":"2026-06-05T15:03:38Z","containment_time_utc":null,"control_time_utc":null,"fire_out_time_utc":null,"fire_cause":"Human","fire_cause_general":"Power generation/transmission/distribution","map_method":"Mixed Methods","source_dataset":"2026 NIFS","unique_fire_identifier":"2026-NHNHS-230505A","irwin_id":"{EA616DB0-9E89-4F96-AC4B-9B7A645E0DB2}","global_id":"63de13a0-5d12-4543-a04c-d5211c6f86fa"}},{"type":"Feature","geometry":{"type":"Polygon","coordinates":[[[-71.15623,43.08315],[-71.15608,43.08313],[-71.15623,43.08307],[-71.15623,43.08315]]]},"properties":{"fire_id":"ufid:2026-NHNHS-240520A","source_collection":"ytd","source_objectid":56394,"incident_name":"240520A Nottingham","mapped_acres":0.03,"mapped_acres_source":"poly_GISAcres","gis_acres":0.03,"auto_acres":0.034610000465033576,"reported_acres":0.03,"percent_contained":null,"state":"NH","state_wfigs":"US-NH","county":"Rockingham","discovery_time_utc":"2026-05-20T19:29:51Z","perimeter_time_utc":"2026-05-20T20:22:00Z","perimeter_edit_time_utc":"2026-07-20T18:52:36Z","incident_modified_time_utc":"2026-07-20T18:53:16Z","containment_time_utc":null,"control_time_utc":null,"fire_out_time_utc":"2026-05-20T20:22:00Z","fire_cause":"Human","fire_cause_general":"Undetermined (remarks required)","map_method":"Hand Sketch","source_dataset":"2026 NIFS","unique_fire_identifier":"2026-NHNHS-240520A","irwin_id":"{66C1E1DC-60EC-4A08-A992-805C3088AF33}","global_id":"405e89f8-fd0b-4fc5-9b71-f63361812e59"}},{"type":"Feature","geometry":{"type":"Polygon","coordinates":[[[-71.8422,43.80609],[-71.84185,43.80658],[-71.8414,43.80687],[-71.84054,43.80701],[-71.83997,43.80745],[-71.83908,43.80766],[-71.83881,43.8079],[-71.83881,43.80804],[-71.83835,43.8078],[-71.8375,43.80769],[-71.83724,43.80746],[-71.83903,43.80625],[-71.83911,43.80604],[-71.83942,43.80595],[-71.83956,43.80567],[-71.84006,43.80557],[-71.84019,43.80539],[-71.84067,43.80554],[-71.84218,43.80547],[-71.84235,43.80562],[-71.8422,43.80609]]]},"properties":{"fire_id":"ufid:2026-NHWMF-000136","source_collection":"ytd","source_objectid":58007,"incident_name":"Rattlesnake","mapped_acres":14.0,"mapped_acres_source":"poly_GISAcres","gis_acres":14.0,"auto_acres":14.202301262649817,"reported_acres":14.0,"percent_contained":null,"state":"NH","state_wfigs":"US-NH","county":"Grafton","discovery_time_utc":"2026-08-14T14:57:00Z","perimeter_time_utc":"2026-08-17T15:27:25Z","perimeter_edit_time_utc":"2026-08-17T18:33:25Z","incident_modified_time_utc":"2026-09-01T19:21:24Z","containment_time_utc":"2026-08-16T22:27:00Z","control_time_utc":"2026-08-24T17:36:00Z","fire_out_time_utc":"2026-08-26T18:34:00Z","fire_cause":"Natural","fire_cause_general":null,"map_method":"Auto-generated for InFORM","source_dataset":"2026 NIFS","unique_fire_identifier":"2026-NHWMF-000136","irwin_id":"{07A508FE-AE01-484E-A4D9-DC71012A1C8D}","global_id":"bf236085-3119-4b16-867b-1ee599a4adda"}}]}
