{"type":"FeatureCollection","features":[{"type":"Feature","geometry":{"type":"Polygon","coordinates":[[[-79.68387,33.16419],[-79.68537,33.16116],[-79.69797,33.16484],[-79.70298,33.1675],[-79.70258,33.16864],[-79.70266,33.16924],[-79.70232,33.1696],[-79.70124,33.16915],[-79.69976,33.16827],[-79.69807,33.16704],[-79.69689,33.1665],[-79.69568,33.16616],[-79.69519,33.16635],[-79.695,33.16658],[-79.69407,33.16822],[-79.69351,33.16824],[-79.69283,33.16746],[-79.69239,33.16589],[-79.69172,33.16514],[-79.69109,33.16474],[-79.69052,33.16404],[-79.69038,33.16363],[-79.68783,33.16283],[-79.6865,33.16279],[-79.6859,33.16301],[-79.68544,33.16335],[-79.68481,33.16413],[-79.68441,33.16434],[-79.68387,33.16419]]]},"properties":{"fire_id":"ufid:2026-SCFMF-000182","source_collection":"ytd","source_objectid":51873,"incident_name":"YELLOWJACKET","mapped_acres":120.0,"mapped_acres_source":"poly_GISAcres","gis_acres":120.0,"auto_acres":102.84695597612051,"reported_acres":102.85,"percent_contained":null,"state":"SC","state_wfigs":"US-SC","county":"Berkeley","discovery_time_utc":"2026-03-05T17:15:00Z","perimeter_time_utc":"2026-03-31T18:57:01Z","perimeter_edit_time_utc":null,"incident_modified_time_utc":"2026-03-30T10:19:44Z","containment_time_utc":"2026-03-06T19:00:00Z","control_time_utc":"2026-03-09T20:00:00Z","fire_out_time_utc":"2026-03-26T17:00:00Z","fire_cause":"Human","fire_cause_general":"Arson","map_method":"Auto-generated for InFORM","source_dataset":"FFP","unique_fire_identifier":"2026-SCFMF-000182","irwin_id":"{AC6A0C67-6EBA-4B3A-AC85-DB8FCD2DB977}","global_id":"7c4db2c4-d662-41f6-ba56-2a430f625011"}},{"type":"Feature","geometry":{"type":"Polygon","coordinates":[[[-79.64762,33.12017],[-79.64731,33.12062],[-79.64538,33.12052],[-79.6453,33.12042],[-79.64704,33.11761],[-79.64731,33.11674],[-79.64735,33.11571],[-79.64842,33.11565],[-79.6482,33.11494],[-79.64793,33.11435],[-79.6476,33.114],[-79.64758,33.11379],[-79.64722,33.11375],[-79.64736,33.11246],[-79.64795,33.11132],[-79.64914,33.10996],[-79.65042,33.10995],[-79.65181,33.11027],[-79.65214,33.11006],[-79.65281,33.10999],[-79.65366,33.10969],[-79.65446,33.10924],[-79.65518,33.10939],[-79.6554,33.10986],[-79.65531,33.11025],[-79.65541,33.11106],[-79.65516,33.11132],[-79.65505,33.11187],[-79.65491,33.11199],[-79.65507,33.11219],[-79.65502,33.11231],[-79.65447,33.1127],[-79.6543,33.11325],[-79.65443,33.11349],[-79.65425,33.1137],[-79.6542,33.11411],[-79.65373,33.11474],[-79.65371,33.11506],[-79.65084,33.11755],[-79.64924,33.11872],[-79.64762,33.12017]]]},"properties":{"fire_id":"ufid:2026-SCFMF-000301","source_collection":"ytd","source_objectid":52775,"incident_name":"Dirty Diaper","mapped_acres":142.0,"mapped_acres_source":"poly_GISAcres","gis_acres":142.0,"auto_acres":142.60577501729924,"reported_acres":142.0,"percent_contained":100.0,"state":"SC","state_wfigs":"US-SC","county":"Berkeley","discovery_time_utc":"2026-04-25T11:35:52Z","perimeter_time_utc":"2026-04-26T18:28:54Z","perimeter_edit_time_utc":"2026-04-27T14:40:00Z","incident_modified_time_utc":"2026-07-23T15:20:42Z","containment_time_utc":"2026-04-26T17:39:00Z","control_time_utc":"2026-07-23T15:19:00Z","fire_out_time_utc":"2026-07-23T15:19:00Z","fire_cause":"Undetermined","fire_cause_general":null,"map_method":"Auto-generated for InFORM","source_dataset":"2026 NIFS","unique_fire_identifier":"2026-SCFMF-000301","irwin_id":"{0C472890-CA12-4E29-A02A-28B92CF57CBA}","global_id":"e4568aad-1fe5-4b19-933e-7ee2d8ed6175"}},{"type":"Feature","geometry":{"type":"Polygon","coordinates":[[[-79.5984,33.21701],[-79.59848,33.21716],[-79.59809,33.21758],[-79.59609,33.22081],[-79.59509,33.22214],[-79.5948,33.22236],[-79.59487,33.22252],[-79.59458,33.22265],[-79.5943,33.22262],[-79.59351,33.22217],[-79.59197,33.22052],[-79.59067,33.21952],[-79.59076,33.21851],[-79.59019,33.2165],[-79.59026,33.21614],[-79.59078,33.21549],[-79.59095,33.21504],[-79.59168,33.21452],[-79.59286,33.21445],[-79.59351,33.21553],[-79.59409,33.21631],[-79.5943,33.21642],[-79.59699,33.21442],[-79.59719,33.21513],[-79.59717,33.21566],[-79.5967,33.21648],[-79.5984,33.21701]]]},"properties":{"fire_id":"ufid:2026-SCFMF-000280","source_collection":"ytd","source_objectid":54265,"incident_name":"FRIENDLY'S GHOST","mapped_acres":103.79,"mapped_acres_source":"poly_GISAcres","gis_acres":103.79,"auto_acres":103.83409180563574,"reported_acres":103.79,"percent_contained":null,"state":"SC","state_wfigs":"US-SC","county":"Berkeley","discovery_time_utc":"2026-04-12T12:21:22Z","perimeter_time_utc":"2026-05-28T18:23:49Z","perimeter_edit_time_utc":null,"incident_modified_time_utc":"2026-05-26T14:34:59Z","containment_time_utc":"2026-04-12T20:47:00Z","control_time_utc":"2026-04-29T21:15:00Z","fire_out_time_utc":"2026-05-20T21:05:00Z","fire_cause":"Human","fire_cause_general":"Debris and open burning","map_method":"Auto-generated for InFORM","source_dataset":"FFP","unique_fire_identifier":"2026-SCFMF-000280","irwin_id":"{2270FC01-A416-4003-B161-2DBAF139773D}","global_id":"1459ebb1-6674-4075-9043-80a947ff9921"}},{"type":"Feature","geometry":{"type":"Polygon","coordinates":[[[-79.7804,33.02386],[-79.7796,33.02387],[-79.77939,33.02369],[-79.77894,33.02361],[-79.77804,33.02374],[-79.77737,33.02347],[-79.77714,33.02277],[-79.77738,33.02223],[-79.77733,33.02201],[-79.77786,33.02135],[-79.77825,33.02117],[-79.77875,33.02114],[-79.77897,33.0209],[-79.77924,33.02085],[-79.7804,33.02386]]]},"properties":{"fire_id":"ufid:2026-SCFMF-000279","source_collection":"ytd","source_objectid":54266,"incident_name":"Bennett Branch","mapped_acres":16.5,"mapped_acres_source":"poly_GISAcres","gis_acres":16.5,"auto_acres":16.352583757349716,"reported_acres":16.5,"percent_contained":null,"state":"SC","state_wfigs":"US-SC","county":"Berkeley","discovery_time_utc":"2026-04-10T14:29:11Z","perimeter_time_utc":"2026-05-28T18:26:34Z","perimeter_edit_time_utc":null,"incident_modified_time_utc":"2026-05-14T14:04:24Z","containment_time_utc":"2026-04-10T16:41:00Z","control_time_utc":"2026-05-06T19:47:00Z","fire_out_time_utc":"2026-05-13T19:00:00Z","fire_cause":"Human","fire_cause_general":"Arson","map_method":"Auto-generated for InFORM","source_dataset":"FFP","unique_fire_identifier":"2026-SCFMF-000279","irwin_id":"{A41C2B68-CCF3-4570-872E-29C074F6C08B}","global_id":"a28fbe8a-91a3-4bcd-ab68-351b16929d41"}},{"type":"Feature","geometry":{"type":"Polygon","coordinates":[[[-79.6595,33.09292],[-79.66069,33.0906],[-79.66144,33.08982],[-79.66693,33.08645],[-79.66733,33.08673],[-79.66962,33.0892],[-79.66927,33.08954],[-79.6685,33.08985],[-79.66823,33.09009],[-79.66817,33.09061],[-79.66755,33.09078],[-79.66703,33.09074],[-79.66644,33.09113],[-79.66626,33.09147],[-79.66467,33.09168],[-79.66404,33.0924],[-79.66382,33.09243],[-79.66362,33.09287],[-79.66274,33.09337],[-79.66193,33.09431],[-79.6595,33.09292]]]},"properties":{"fire_id":"ufid:2026-SCFMF-000265","source_collection":"ytd","source_objectid":54268,"incident_name":"Candle Stick","mapped_acres":3.0,"mapped_acres_source":"poly_GISAcres","gis_acres":3.0,"auto_acres":89.13120117072103,"reported_acres":89.13,"percent_contained":null,"state":"SC","state_wfigs":"US-SC","county":"Berkeley","discovery_time_utc":"2026-03-30T15:25:06Z","perimeter_time_utc":"2026-05-28T18:33:09Z","perimeter_edit_time_utc":null,"incident_modified_time_utc":"2026-05-04T16:30:18Z","containment_time_utc":"2026-03-31T20:10:00Z","control_time_utc":"2026-04-29T14:34:00Z","fire_out_time_utc":"2026-05-04T16:29:00Z","fire_cause":"Human","fire_cause_general":"Arson","map_method":"Auto-generated for InFORM","source_dataset":"FFP","unique_fire_identifier":"2026-SCFMF-000265","irwin_id":"{63FE33B7-B8AA-4F8D-B841-5A35A564639F}","global_id":"57b76c87-0560-4da8-812d-490c3e7f6e4c"}},{"type":"Feature","geometry":{"type":"Polygon","coordinates":[[[-79.85288,33.19787],[-79.85276,33.19612],[-79.85298,33.19461],[-79.85269,33.1942],[-79.85268,33.19357],[-79.85392,33.19365],[-79.8547,33.1932],[-79.85528,33.19321],[-79.85679,33.19271],[-79.85731,33.19284],[-79.85755,33.19277],[-79.85793,33.19239],[-79.85808,33.19243],[-79.85863,33.19218],[-79.85842,33.19195],[-79.85859,33.19191],[-79.85876,33.1915],[-79.85905,33.19174],[-79.85906,33.19212],[-79.85923,33.19215],[-79.85956,33.19197],[-79.85956,33.19174],[-79.85967,33.1917],[-79.85987,33.19195],[-79.8605,33.19149],[-79.86098,33.1916],[-79.86159,33.19151],[-79.86249,33.19097],[-79.86299,33.19081],[-79.86345,33.19114],[-79.86393,33.19121],[-79.86402,33.19108],[-79.86393,33.19091],[-79.86314,33.19034],[-79.86312,33.19],[-79.86272,33.18929],[-79.86293,33.18842],[-79.8637,33.18804],[-79.86533,33.18781],[-79.86596,33.18725],[-79.86664,33.18752],[-79.86734,33.18744],[-79.86796,33.18754],[-79.86852,33.18751],[-79.86873,33.18733],[-79.8691,33.18742],[-79.86962,33.18724],[-79.87006,33.18724],[-79.87011,33.1874],[-79.87066,33.18738],[-79.87259,33.18817],[-79.87414,33.1883],[-79.8748,33.1886],[-79.87532,33.18842],[-79.87574,33.18783],[-79.87638,33.18764],[-79.88105,33.18736],[-79.88259,33.18766],[-79.88004,33.1992],[-79.87681,33.19484],[-79.87656,33.19465],[-79.86754,33.19313],[-79.86447,33.19243],[-79.86223,33.19477],[-79.86133,33.19538],[-79.85605,33.19715],[-79.85292,33.19777],[-79.85288,33.19787]]]},"properties":{"fire_id":"ufid:2026-SCFMF-000257","source_collection":"ytd","source_objectid":54271,"incident_name":"Bullhead","mapped_acres":425.0,"mapped_acres_source":"poly_GISAcres","gis_acres":425.0,"auto_acres":425.0255284955966,"reported_acres":425.0,"percent_contained":null,"state":"SC","state_wfigs":"US-SC","county":"Berkeley","discovery_time_utc":"2026-03-24T20:59:00Z","perimeter_time_utc":"2026-05-28T19:06:21Z","perimeter_edit_time_utc":null,"incident_modified_time_utc":"2026-04-01T14:32:24Z","containment_time_utc":null,"control_time_utc":"2026-05-03T21:02:00Z","fire_out_time_utc":"2026-05-03T21:02:00Z","fire_cause":"Human","fire_cause_general":"Arson","map_method":"Auto-generated for InFORM","source_dataset":"FFP","unique_fire_identifier":"2026-SCFMF-000257","irwin_id":"{5B9E6D67-7937-4769-B45C-32C4FA7A3DD8}","global_id":"322144a1-a4a7-4cb8-9cdf-4ca59abe7be6"}},{"type":"Feature","geometry":{"type":"MultiPolygon","coordinates":[[[[-79.54762,33.16116],[-79.54761,33.16117],[-79.54761,33.16116],[-79.54762,33.16116]]],[[[-79.5476,33.16115],[-79.54761,33.16116],[-79.54758,33.16117],[-79.5476,33.16115]]],[[[-79.55087,33.15919],[-79.5514,33.15925],[-79.55144,33.15935],[-79.55062,33.16071],[-79.54972,33.16163],[-79.5496,33.16208],[-79.54972,33.16293],[-79.55035,33.16492],[-79.54878,33.16338],[-79.54756,33.16124],[-79.55012,33.15952],[-79.55087,33.15919]]]]},"properties":{"fire_id":"ufid:2026-SCFMF-000126","source_collection":"ytd","source_objectid":54273,"incident_name":"HWY 45","mapped_acres":20.50375,"mapped_acres_source":"poly_GISAcres","gis_acres":20.50375,"auto_acres":20.503671711010657,"reported_acres":21.8,"percent_contained":null,"state":"SC","state_wfigs":"US-SC","county":"Berkeley","discovery_time_utc":"2026-02-19T18:17:00Z","perimeter_time_utc":"2026-05-28T19:09:45Z","perimeter_edit_time_utc":null,"incident_modified_time_utc":"2026-03-09T16:34:43Z","containment_time_utc":"2026-02-19T21:00:00Z","control_time_utc":"2026-02-26T20:07:00Z","fire_out_time_utc":"2026-03-09T16:34:00Z","fire_cause":"Human","fire_cause_general":"Arson","map_method":"GPS-Walked","source_dataset":"FFP","unique_fire_identifier":"2026-SCFMF-000126","irwin_id":"{C141042C-3458-487E-AF34-4C26E97A08ED}","global_id":"5c98e8a3-dbeb-49ec-8ae0-7f3c510e4d8a"}},{"type":"Feature","geometry":{"type":"Polygon","coordinates":[[[-79.74265,33.02385],[-79.74409,33.02381],[-79.75024,33.02558],[-79.75207,33.02599],[-79.75376,33.0257],[-79.75058,33.03079],[-79.75229,33.03217],[-79.7517,33.0337],[-79.7513,33.03407],[-79.75121,33.03463],[-79.74929,33.03688],[-79.74873,33.03806],[-79.74767,33.03811],[-79.74732,33.03781],[-79.74659,33.03762],[-79.74657,33.0353],[-79.74437,33.03209],[-79.7447,33.03015],[-79.74467,33.02958],[-79.74284,33.0253],[-79.74266,33.02462],[-79.74265,33.02385]]]},"properties":{"fire_id":"ufid:2026-SCFMF-000342","source_collection":"ytd","source_objectid":54866,"incident_name":"Flower Cemetery","mapped_acres":243.0,"mapped_acres_source":"poly_GISAcres","gis_acres":243.0,"auto_acres":243.10967233392532,"reported_acres":222.0,"percent_contained":100.0,"state":"SC","state_wfigs":"US-SC","county":"Berkeley","discovery_time_utc":"2026-06-13T21:51:00Z","perimeter_time_utc":"2026-06-14T20:39:05Z","perimeter_edit_time_utc":"2026-06-14T20:53:42Z","incident_modified_time_utc":"2026-07-23T23:40:16Z","containment_time_utc":null,"control_time_utc":null,"fire_out_time_utc":null,"fire_cause":"Undetermined","fire_cause_general":null,"map_method":"Auto-generated for InFORM","source_dataset":"2026 NIFS","unique_fire_identifier":"2026-SCFMF-000342","irwin_id":"{7F0009B4-A33B-4C7C-B440-7F5F43180CC1}","global_id":"cd2a8912-92df-479b-b13e-2972f6fd7053"}},{"type":"Feature","geometry":{"type":"Polygon","coordinates":[[[-79.89703,33.20568],[-79.89679,33.20427],[-79.89692,33.20347],[-79.89757,33.20275],[-79.89854,33.20275],[-79.89865,33.203],[-79.89867,33.20566],[-79.89703,33.20568]]]},"properties":{"fire_id":"ufid:2026-SCFMF-000319","source_collection":"ytd","source_objectid":54930,"incident_name":"Borring","mapped_acres":13.0,"mapped_acres_source":"poly_GISAcres","gis_acres":13.0,"auto_acres":12.785263312021874,"reported_acres":13.0,"percent_contained":null,"state":"SC","state_wfigs":"US-SC","county":"Berkeley","discovery_time_utc":"2026-05-15T12:19:15Z","perimeter_time_utc":"2026-06-16T15:44:00Z","perimeter_edit_time_utc":null,"incident_modified_time_utc":"2026-06-16T14:45:30Z","containment_time_utc":"2026-05-19T16:18:00Z","control_time_utc":"2026-06-15T17:00:00Z","fire_out_time_utc":"2026-06-15T17:00:00Z","fire_cause":"Human","fire_cause_general":"Debris and open burning","map_method":"Auto-generated for InFORM","source_dataset":"FFP","unique_fire_identifier":"2026-SCFMF-000319","irwin_id":"{76B8E3AB-346E-4359-8104-EEC6DB9CA454}","global_id":"41a6d773-abd1-4fae-a3ad-833aa7bda7a9"}},{"type":"Feature","geometry":{"type":"Polygon","coordinates":[[[-79.59046,33.19165],[-79.59142,33.19269],[-79.5918,33.19289],[-79.59175,33.19359],[-79.59154,33.19382],[-79.5906,33.19377],[-79.59009,33.19331],[-79.58972,33.19276],[-79.5893,33.1925],[-79.58911,33.1918],[-79.58931,33.19126],[-79.58957,33.19112],[-79.58978,33.19119],[-79.59046,33.19165]]]},"properties":{"fire_id":"ufid:2026-SCFMF-000338","source_collection":"ytd","source_objectid":54933,"incident_name":"338","mapped_acres":10.0,"mapped_acres_source":"poly_GISAcres","gis_acres":10.0,"auto_acres":10.148207563888185,"reported_acres":10.0,"percent_contained":null,"state":"SC","state_wfigs":"US-SC","county":"Berkeley","discovery_time_utc":"2026-06-06T13:20:28Z","perimeter_time_utc":"2026-06-06T13:29:04Z","perimeter_edit_time_utc":"2026-06-16T15:45:09Z","incident_modified_time_utc":"2026-07-22T15:28:22Z","containment_time_utc":"2026-06-16T17:00:00Z","control_time_utc":"2026-06-23T19:00:00Z","fire_out_time_utc":"2026-07-22T15:28:00Z","fire_cause":"Undetermined","fire_cause_general":null,"map_method":"Auto-generated for InFORM","source_dataset":"2026 NIFS","unique_fire_identifier":"2026-SCFMF-000338","irwin_id":"{6EE92FAD-9AB4-476E-A104-6A503067C9D1}","global_id":"7b580ad1-8aa5-4a4a-9f78-ad03c5619345"}},{"type":"Feature","geometry":{"type":"Polygon","coordinates":[[[-79.76866,33.32348],[-79.77062,33.32412],[-79.77013,33.32555],[-79.76804,33.32481],[-79.76851,33.324],[-79.76866,33.32348]]]},"properties":{"fire_id":"ufid:2026-SCFMF-000348","source_collection":"ytd","source_objectid":55430,"incident_name":"Manual Church","mapped_acres":8.0,"mapped_acres_source":"poly_GISAcres","gis_acres":8.0,"auto_acres":7.924615304170036,"reported_acres":8.0,"percent_contained":null,"state":"SC","state_wfigs":"US-SC","county":"Berkeley","discovery_time_utc":"2026-06-27T13:29:00Z","perimeter_time_utc":"2026-06-27T21:32:02Z","perimeter_edit_time_utc":"2026-06-30T18:07:53Z","incident_modified_time_utc":"2026-09-03T13:04:33Z","containment_time_utc":"2026-06-30T17:25:00Z","control_time_utc":"2026-07-01T15:30:00Z","fire_out_time_utc":"2026-09-02T19:57:00Z","fire_cause":"Natural","fire_cause_general":null,"map_method":"GPS-Walked","source_dataset":"2026 NIFS","unique_fire_identifier":"2026-SCFMF-000348","irwin_id":"{4C92A3D4-37C4-4D48-A71B-F1CCDC913BD5}","global_id":"1cbc8d8f-6c64-4370-abbc-ecf0cbfc4aec"}},{"type":"Feature","geometry":{"type":"Polygon","coordinates":[[[-79.82061,33.30544],[-79.82016,33.30576],[-79.81967,33.30558],[-79.81977,33.30505],[-79.82007,33.30487],[-79.82061,33.30544]]]},"properties":{"fire_id":"ufid:2026-SCFMF-000350","source_collection":"ytd","source_objectid":55439,"incident_name":"Walleye","mapped_acres":1.29,"mapped_acres_source":"poly_GISAcres","gis_acres":1.29,"auto_acres":1.2846110186010025,"reported_acres":1.29,"percent_contained":null,"state":"SC","state_wfigs":"US-SC","county":"Berkeley","discovery_time_utc":"2026-06-27T03:52:00Z","perimeter_time_utc":"2026-06-27T18:50:43Z","perimeter_edit_time_utc":"2026-06-30T18:43:30Z","incident_modified_time_utc":"2026-07-22T15:24:20Z","containment_time_utc":"2026-06-27T18:15:00Z","control_time_utc":"2026-07-05T17:12:00Z","fire_out_time_utc":"2026-07-22T15:24:00Z","fire_cause":"Natural","fire_cause_general":null,"map_method":"GPS-Walked","source_dataset":"2026 NIFS","unique_fire_identifier":"2026-SCFMF-000350","irwin_id":"{C36F8753-A224-4A64-8288-03BD5C195CA1}","global_id":"1065a012-f443-4683-9406-17a29bb5fe64"}},{"type":"Feature","geometry":{"type":"MultiPolygon","coordinates":[[[[-79.81079,33.3029],[-79.81125,33.30288],[-79.8114,33.30259],[-79.81221,33.30206],[-79.81242,33.30174],[-79.81289,33.30193],[-79.81342,33.3015],[-79.81358,33.30172],[-79.81392,33.30153],[-79.81459,33.30171],[-79.8144,33.30196],[-79.81473,33.30206],[-79.81471,33.30224],[-79.81503,33.30247],[-79.81521,33.30317],[-79.81499,33.30353],[-79.81391,33.30408],[-79.81295,33.30416],[-79.81201,33.30532],[-79.8113,33.30546],[-79.81128,33.3056],[-79.81096,33.30544],[-79.81043,33.30308],[-79.81079,33.3029]]],[[[-79.80987,33.30349],[-79.81001,33.30358],[-79.80986,33.30361],[-79.80987,33.30349]]],[[[-79.81003,33.30356],[-79.81002,33.30357],[-79.81,33.30355],[-79.81003,33.30356]]],[[[-79.81002,33.30357],[-79.81003,33.30358],[-79.81001,33.30358],[-79.81002,33.30357]]],[[[-79.81049,33.30582],[-79.81063,33.30586],[-79.81051,33.30589],[-79.81049,33.30582]]]]},"properties":{"fire_id":"ufid:2026-SCFMF-000349","source_collection":"ytd","source_objectid":55442,"incident_name":"349","mapped_acres":30.0,"mapped_acres_source":"poly_GISAcres","gis_acres":30.0,"auto_acres":28.040141873579326,"reported_acres":30.0,"percent_contained":null,"state":"SC","state_wfigs":"US-SC","county":"Berkeley","discovery_time_utc":"2026-06-27T14:17:17Z","perimeter_time_utc":"2026-06-27T20:57:19Z","perimeter_edit_time_utc":"2026-06-30T18:50:41Z","incident_modified_time_utc":"2026-09-03T13:06:55Z","containment_time_utc":"2026-06-27T21:27:00Z","control_time_utc":"2026-07-22T15:25:00Z","fire_out_time_utc":"2026-09-02T19:57:00Z","fire_cause":"Undetermined","fire_cause_general":null,"map_method":"GPS-Walked","source_dataset":"2026 NIFS","unique_fire_identifier":"2026-SCFMF-000349","irwin_id":"{5DD01A9E-E568-4581-AB68-95E8D030450C}","global_id":"6fd5c4cf-cad8-4eb9-a5e3-7661c6bfb791"}},{"type":"Feature","geometry":{"type":"Polygon","coordinates":[[[-79.66476,33.19865],[-79.66384,33.19825],[-79.66338,33.19788],[-79.66301,33.19739],[-79.66269,33.19721],[-79.66242,33.19663],[-79.6626,33.19622],[-79.66314,33.19624],[-79.66408,33.19536],[-79.66259,33.1947],[-79.65906,33.19348],[-79.65867,33.19389],[-79.65852,33.19379],[-79.65731,33.19417],[-79.65655,33.19405],[-79.65543,33.1934],[-79.65509,33.19287],[-79.65527,33.19231],[-79.6559,33.19219],[-79.65602,33.19204],[-79.65535,33.19164],[-79.65643,33.19066],[-79.65612,33.19067],[-79.6561,33.19039],[-79.6563,33.19021],[-79.65656,33.19038],[-79.65665,33.19025],[-79.65705,33.18896],[-79.65707,33.18844],[-79.65676,33.18806],[-79.65679,33.18761],[-79.65642,33.18689],[-79.65584,33.18662],[-79.65501,33.18564],[-79.65469,33.18483],[-79.65447,33.1848],[-79.65463,33.18469],[-79.65458,33.18452],[-79.65393,33.18313],[-79.65324,33.18235],[-79.65297,33.18233],[-79.65311,33.18219],[-79.65237,33.18148],[-79.65202,33.18095],[-79.65271,33.18056],[-79.65304,33.18008],[-79.6542,33.17951],[-79.65452,33.17909],[-79.65469,33.17853],[-79.65399,33.17798],[-79.65253,33.17745],[-79.65058,33.17605],[-79.65022,33.17552],[-79.65028,33.17477],[-79.65072,33.17354],[-79.65097,33.17196],[-79.65216,33.17014],[-79.65283,33.16869],[-79.6656,33.16857],[-79.66531,33.17165],[-79.66539,33.17242],[-79.66979,33.18122],[-79.67217,33.19084],[-79.66925,33.19268],[-79.66944,33.19297],[-79.66932,33.19327],[-79.66898,33.1932],[-79.66897,33.19286],[-79.66696,33.19417],[-79.66659,33.19451],[-79.66578,33.19571],[-79.66515,33.19591],[-79.66501,33.19614],[-79.66498,33.19692],[-79.66505,33.19751],[-79.66527,33.19768],[-79.66523,33.19812],[-79.66504,33.19849],[-79.66476,33.19865]]]},"properties":{"fire_id":"ufid:2026-SCFMF-000363","source_collection":"ytd","source_objectid":56513,"incident_name":"Horse Island","mapped_acres":1012.4341249140682,"mapped_acres_source":"poly_GISAcres","gis_acres":1012.4341249140682,"auto_acres":1012.4305587343748,"reported_acres":1012.0,"percent_contained":100.0,"state":"SC","state_wfigs":"US-SC","county":"Berkeley","discovery_time_utc":"2026-07-18T20:02:00Z","perimeter_time_utc":"2026-07-22T12:08:05Z","perimeter_edit_time_utc":"2026-07-24T21:27:34Z","incident_modified_time_utc":"2026-08-13T15:29:47Z","containment_time_utc":null,"control_time_utc":null,"fire_out_time_utc":null,"fire_cause":"Undetermined","fire_cause_general":null,"map_method":"Mixed Methods","source_dataset":"2026 NIFS","unique_fire_identifier":"2026-SCFMF-000363","irwin_id":"{007DE4E9-3766-47AA-92C5-BB86F0C3FCE2}","global_id":"fdd00171-a144-47e1-84e4-c530b6608080"}}]}
