{"type":"FeatureCollection","features":[{"type":"Feature","geometry":{"type":"Polygon","coordinates":[[[-79.98325,37.98677],[-79.98428,37.9865],[-79.98482,37.98617],[-79.98521,37.98652],[-79.98583,37.98659],[-79.98592,37.98698],[-79.98643,37.98706],[-79.98654,37.98738],[-79.98628,37.98791],[-79.98594,37.98791],[-79.98499,37.98825],[-79.98478,37.98845],[-79.98381,37.9876],[-79.98345,37.98745],[-79.98325,37.98715],[-79.98325,37.98677]]]},"properties":{"fire_id":"ufid:2026-VAVAF-260013","source_collection":"ytd","source_objectid":50512,"incident_name":"Island Overlook","mapped_acres":10.4,"mapped_acres_source":"poly_GISAcres","gis_acres":10.4,"auto_acres":10.398354660413338,"reported_acres":13.09,"percent_contained":null,"state":"VA","state_wfigs":"US-VA","county":"Bath","discovery_time_utc":"2026-01-09T12:42:00Z","perimeter_time_utc":"2026-01-29T15:00:55Z","perimeter_edit_time_utc":null,"incident_modified_time_utc":"2026-01-24T16:29:03Z","containment_time_utc":"2026-01-09T19:45:00Z","control_time_utc":"2026-01-14T20:45:00Z","fire_out_time_utc":"2026-01-14T20:47:00Z","fire_cause":"Undetermined","fire_cause_general":"Undetermined","map_method":"Hand Sketch","source_dataset":"FFP","unique_fire_identifier":"2026-VAVAF-260013","irwin_id":"{0CAAC5DA-C1AA-4762-AD57-065A6E7EE30F}","global_id":"62f3ab61-1389-4809-a16c-1f8f98cda792"}},{"type":"Feature","geometry":{"type":"Polygon","coordinates":[[[-76.56095,36.69119],[-76.56097,36.69128],[-76.56089,36.69124],[-76.56095,36.69119]]]},"properties":{"fire_id":"ufid:2026-VAVAS-VA-GDR001","source_collection":"ytd","source_objectid":52387,"incident_name":"White Marsh","mapped_acres":0.01,"mapped_acres_source":"poly_GISAcres","gis_acres":0.01,"auto_acres":0.0139078154285268,"reported_acres":0.1,"percent_contained":null,"state":"VA","state_wfigs":"US-VA","county":"Suffolk","discovery_time_utc":"2026-04-16T19:14:52Z","perimeter_time_utc":"2026-04-18T15:56:10Z","perimeter_edit_time_utc":null,"incident_modified_time_utc":"2026-04-17T12:42:14Z","containment_time_utc":"2026-04-16T19:50:00Z","control_time_utc":"2026-04-16T21:14:00Z","fire_out_time_utc":"2026-04-18T15:55:00Z","fire_cause":"Undetermined","fire_cause_general":"Undetermined","map_method":"Hand Sketch","source_dataset":"FFP","unique_fire_identifier":"2026-VAVAS-VA-GDR001","irwin_id":"{B0BF3665-8C2D-4CE4-93B8-FAEB60CAE336}","global_id":"c52543f2-9fc6-4b18-96e4-f4578b37f7d5"}},{"type":"Feature","geometry":{"type":"Polygon","coordinates":[[[-78.39991,38.48721],[-78.39941,38.48725],[-78.3992,38.48709],[-78.39912,38.48669],[-78.39865,38.48634],[-78.39863,38.48578],[-78.39817,38.48553],[-78.39809,38.48542],[-78.39834,38.48557],[-78.39825,38.4853],[-78.39798,38.48527],[-78.39806,38.48506],[-78.39795,38.48488],[-78.3978,38.48495],[-78.39752,38.48462],[-78.39708,38.48442],[-78.397,38.4845],[-78.39691,38.48436],[-78.39698,38.48385],[-78.39767,38.48327],[-78.39769,38.48296],[-78.39795,38.48291],[-78.39884,38.48342],[-78.39892,38.48375],[-78.39956,38.48434],[-78.40057,38.48478],[-78.40076,38.48476],[-78.40079,38.4849],[-78.40045,38.48527],[-78.40067,38.48565],[-78.40056,38.48574],[-78.40061,38.48648],[-78.40035,38.48665],[-78.40031,38.48686],[-78.4,38.48695],[-78.39991,38.48721]]]},"properties":{"fire_id":"ufid:2026-VAVAS-260064","source_collection":"ytd","source_objectid":52734,"incident_name":"Rapidan Camp","mapped_acres":19.8,"mapped_acres_source":"poly_GISAcres","gis_acres":19.8,"auto_acres":19.492623039173587,"reported_acres":19.8,"percent_contained":null,"state":"VA","state_wfigs":"US-VA","county":"Madison","discovery_time_utc":"2026-03-22T16:10:00Z","perimeter_time_utc":"2026-04-02T16:42:03Z","perimeter_edit_time_utc":"2026-04-24T17:54:15Z","incident_modified_time_utc":"2026-04-02T16:41:54Z","containment_time_utc":null,"control_time_utc":null,"fire_out_time_utc":null,"fire_cause":"Undetermined","fire_cause_general":null,"map_method":"Auto-generated for InFORM","source_dataset":"2026 NIFS","unique_fire_identifier":"2026-VAVAS-260064","irwin_id":"{8AA75ADC-3FC4-40AF-AB2C-39887A9F2E93}","global_id":"c173a8f1-85ff-4c11-88b1-ec1af76c5789"}},{"type":"Feature","geometry":{"type":"Polygon","coordinates":[[[-79.2855,38.27751],[-79.28495,38.27756],[-79.28474,38.27704],[-79.28492,38.27634],[-79.28606,38.27643],[-79.2859,38.27702],[-79.2855,38.27751]]]},"properties":{"fire_id":"ufid:2026-VAVAS-260087","source_collection":"ytd","source_objectid":52880,"incident_name":"Inc 087","mapped_acres":0.1,"mapped_acres_source":"poly_GISAcres","gis_acres":0.1,"auto_acres":2.8603992578977544,"reported_acres":5.0,"percent_contained":null,"state":"VA","state_wfigs":"US-VA","county":"Augusta","discovery_time_utc":"2026-04-19T19:36:21Z","perimeter_time_utc":"2026-04-29T19:15:41Z","perimeter_edit_time_utc":null,"incident_modified_time_utc":"2026-04-20T12:35:04Z","containment_time_utc":"2026-04-19T22:08:00Z","control_time_utc":"2026-04-27T15:30:00Z","fire_out_time_utc":"2026-04-27T16:30:00Z","fire_cause":"Human","fire_cause_general":"Debris and open burning","map_method":"Auto-generated for InFORM","source_dataset":"FFP","unique_fire_identifier":"2026-VAVAS-260087","irwin_id":"{4AF67BBB-4D2D-495D-9EE9-F16E86988AF4}","global_id":"676e7178-f8e9-4391-9aba-15ff1635fb1e"}},{"type":"Feature","geometry":{"type":"Polygon","coordinates":[[[-79.14142,38.57367],[-79.14134,38.57359],[-79.14144,38.57359],[-79.14142,38.57367]]]},"properties":{"fire_id":"ufid:2026-VAVAF-260094","source_collection":"ytd","source_objectid":53249,"incident_name":"Switzer Lake","mapped_acres":0.1,"mapped_acres_source":"poly_GISAcres","gis_acres":0.1,"auto_acres":0.019871811076969288,"reported_acres":0.1,"percent_contained":null,"state":"VA","state_wfigs":"US-VA","county":"Rockingham","discovery_time_utc":"2026-05-04T16:40:50Z","perimeter_time_utc":"2026-05-07T15:39:03Z","perimeter_edit_time_utc":null,"incident_modified_time_utc":"2026-05-05T20:04:36Z","containment_time_utc":"2026-05-04T19:00:00Z","control_time_utc":"2026-05-06T16:00:00Z","fire_out_time_utc":"2026-05-06T20:30:00Z","fire_cause":"Undetermined","fire_cause_general":"Undetermined","map_method":"Auto-generated for InFORM","source_dataset":"FFP","unique_fire_identifier":"2026-VAVAF-260094","irwin_id":"{6BE40B62-7D20-49BE-98F2-6D5DD58FE218}","global_id":"762f4114-a417-480c-99f5-45680b0cb2b4"}},{"type":"Feature","geometry":{"type":"Polygon","coordinates":[[[-78.53665,38.35469],[-78.53636,38.35471],[-78.53632,38.35452],[-78.53667,38.35425],[-78.53665,38.35469]]]},"properties":{"fire_id":"ufid:2026-VASHP-260011","source_collection":"ytd","source_objectid":53434,"incident_name":"Swift Run","mapped_acres":0.3194784,"mapped_acres_source":"poly_GISAcres","gis_acres":0.3194784,"auto_acres":0.3194771644543212,"reported_acres":0.5,"percent_contained":null,"state":"VA","state_wfigs":"US-VA","county":"Greene","discovery_time_utc":"2026-04-14T07:27:38Z","perimeter_time_utc":"2026-05-12T16:17:24Z","perimeter_edit_time_utc":null,"incident_modified_time_utc":"2026-04-15T13:40:40Z","containment_time_utc":null,"control_time_utc":null,"fire_out_time_utc":"2026-04-23T20:00:00Z","fire_cause":"Human","fire_cause_general":"Equipment and vehicle use","map_method":"Auto-generated for InFORM","source_dataset":"FFP","unique_fire_identifier":"2026-VASHP-260011","irwin_id":"{8811CD8C-CDB7-4DD7-A2C6-2BECDB7AD277}","global_id":"738af331-75f2-4d55-a787-574a5ad07c8d"}},{"type":"Feature","geometry":{"type":"Polygon","coordinates":[[[-78.38373,38.4755],[-78.38394,38.47567],[-78.38384,38.47583],[-78.38364,38.47571],[-78.38373,38.4755]]]},"properties":{"fire_id":"ufid:2026-VASHP-260009","source_collection":"ytd","source_objectid":53435,"incident_name":"Double Top Access","mapped_acres":0.15,"mapped_acres_source":"poly_GISAcres","gis_acres":0.15,"auto_acres":0.15115553482463912,"reported_acres":0.15,"percent_contained":null,"state":"VA","state_wfigs":"US-VA","county":"Madison","discovery_time_utc":"2026-04-14T16:31:25Z","perimeter_time_utc":"2026-05-12T16:13:30Z","perimeter_edit_time_utc":null,"incident_modified_time_utc":"2026-04-15T12:29:28Z","containment_time_utc":null,"control_time_utc":null,"fire_out_time_utc":"2026-04-24T21:00:00Z","fire_cause":"Human","fire_cause_general":"Power generation / transmission / distribution","map_method":"Auto-generated for InFORM","source_dataset":"FFP","unique_fire_identifier":"2026-VASHP-260009","irwin_id":"{EE06D79F-F790-43CF-8DF8-F9C3F4D04630}","global_id":"5dbe9774-c173-4935-97a2-187e7725eb5f"}},{"type":"Feature","geometry":{"type":"Polygon","coordinates":[[[-79.2115,37.86112],[-79.21097,37.86066],[-79.2109,37.86027],[-79.21052,37.86013],[-79.2101,37.86015],[-79.20993,37.85989],[-79.20998,37.8597],[-79.20984,37.85964],[-79.20941,37.85984],[-79.20916,37.85977],[-79.20845,37.86],[-79.20823,37.85982],[-79.2083,37.85957],[-79.20805,37.85947],[-79.20803,37.85929],[-79.20733,37.85906],[-79.20738,37.85882],[-79.20712,37.8586],[-79.20706,37.85828],[-79.20719,37.85798],[-79.20744,37.85792],[-79.20742,37.85771],[-79.20765,37.85773],[-79.20809,37.85746],[-79.2083,37.85753],[-79.20886,37.85737],[-79.21087,37.85639],[-79.21092,37.85611],[-79.21135,37.85583],[-79.21172,37.85531],[-79.21204,37.85521],[-79.21208,37.85494],[-79.2118,37.85485],[-79.21166,37.85459],[-79.21394,37.85472],[-79.21697,37.8554],[-79.21872,37.85629],[-79.21838,37.85696],[-79.218,37.85711],[-79.21806,37.85734],[-79.21748,37.85792],[-79.21543,37.85947],[-79.21506,37.8599],[-79.21458,37.86002],[-79.21411,37.86045],[-79.21251,37.86098],[-79.21233,37.86118],[-79.21151,37.86134],[-79.2115,37.86112]]]},"properties":{"fire_id":"ufid:2026-VAVAF-260102","source_collection":"ytd","source_objectid":55946,"incident_name":"Taylor Hollow","mapped_acres":104.95984568408875,"mapped_acres_source":"poly_GISAcres","gis_acres":104.95984568408875,"auto_acres":104.95947115427596,"reported_acres":108.0,"percent_contained":100.0,"state":"VA","state_wfigs":"US-VA","county":"Rockbridge","discovery_time_utc":"2026-07-06T01:29:58Z","perimeter_time_utc":"2026-07-10T18:06:00Z","perimeter_edit_time_utc":"2026-07-15T00:24:45Z","incident_modified_time_utc":"2026-08-04T19:49:24Z","containment_time_utc":"2026-07-30T21:30:00Z","control_time_utc":"2026-08-04T19:30:00Z","fire_out_time_utc":"2026-08-04T19:30:00Z","fire_cause":"Undetermined","fire_cause_general":null,"map_method":"Mixed Methods","source_dataset":"2026 NIFS","unique_fire_identifier":"2026-VAVAF-260102","irwin_id":"{D80818DD-97E3-4C5E-B61D-D1D5F2452AAD}","global_id":"179bb160-931f-41a2-8b1c-e1c55f309490"}},{"type":"Feature","geometry":{"type":"Polygon","coordinates":[[[-77.34562,38.56059],[-77.34551,38.56063],[-77.3454,38.56052],[-77.34562,38.56059]]]},"properties":{"fire_id":"ufid:2026-VAPWP-260022","source_collection":"ytd","source_objectid":56833,"incident_name":"Crossings","mapped_acres":0.03,"mapped_acres_source":"poly_GISAcres","gis_acres":0.03,"auto_acres":0.03592391120331543,"reported_acres":0.03,"percent_contained":null,"state":"VA","state_wfigs":"US-VA","county":"Prince William","discovery_time_utc":"2026-07-21T14:00:55Z","perimeter_time_utc":"2026-07-28T15:03:36Z","perimeter_edit_time_utc":"2026-07-28T15:17:10Z","incident_modified_time_utc":"2026-07-28T15:22:00Z","containment_time_utc":null,"control_time_utc":"2026-07-21T16:30:00Z","fire_out_time_utc":"2026-07-22T15:30:00Z","fire_cause":"Human","fire_cause_general":"Equipment and vehicle use","map_method":"GPS-Walked","source_dataset":"2026 NIFS","unique_fire_identifier":"2026-VAPWP-260022","irwin_id":"{6A09CB2F-90DF-4FDA-8A1D-631164D10AFA}","global_id":"122f92ce-7bf8-4331-b1b5-cbd6ed407c6e"}},{"type":"Feature","geometry":{"type":"Polygon","coordinates":[[[-78.78576,38.22368],[-78.78567,38.22397],[-78.78571,38.22429],[-78.78527,38.22433],[-78.78504,38.22453],[-78.78485,38.22449],[-78.78485,38.22437],[-78.78469,38.22445],[-78.78443,38.22433],[-78.78461,38.2242],[-78.78497,38.22422],[-78.78506,38.22394],[-78.7853,38.22378],[-78.78576,38.22368]]]},"properties":{"fire_id":"ufid:2026-VASHP-260013","source_collection":"ytd","source_objectid":59463,"incident_name":"Horsehead","mapped_acres":1.26,"mapped_acres_source":"poly_GISAcres","gis_acres":1.26,"auto_acres":1.2627946307277442,"reported_acres":1.26,"percent_contained":null,"state":"VA","state_wfigs":"US-VA","county":"Augusta","discovery_time_utc":"2026-08-26T15:30:00Z","perimeter_time_utc":"2026-09-08T16:36:49Z","perimeter_edit_time_utc":"2026-09-08T21:20:11Z","incident_modified_time_utc":"2026-09-08T16:36:08Z","containment_time_utc":"2026-09-03T20:00:00Z","control_time_utc":null,"fire_out_time_utc":null,"fire_cause":"Natural","fire_cause_general":null,"map_method":"Auto-generated for InFORM","source_dataset":"2026 NIFS","unique_fire_identifier":"2026-VASHP-260013","irwin_id":"{4836C1B9-1613-4EFC-9C35-6F5404D251CD}","global_id":"6799a451-cb70-4a6a-ac14-0c39d83b1f14"}}]}
