{"type":"FeatureCollection","features":[{"type":"Feature","geometry":{"type":"MultiPolygon","coordinates":[[[[-80.18621,37.42576],[-80.1862,37.42584],[-80.18619,37.42576],[-80.18621,37.42576]]],[[[-80.18093,37.42606],[-80.18095,37.4261],[-80.1809,37.42607],[-80.18093,37.42606]]],[[[-80.18517,37.4215],[-80.18512,37.42163],[-80.18562,37.42217],[-80.18557,37.42234],[-80.18593,37.42277],[-80.18589,37.42322],[-80.18603,37.42348],[-80.18564,37.42466],[-80.1862,37.42564],[-80.18615,37.42594],[-80.18508,37.4277],[-80.18522,37.42774],[-80.18522,37.42796],[-80.18488,37.42833],[-80.18496,37.42877],[-80.18484,37.42893],[-80.1849,37.42918],[-80.18474,37.4293],[-80.18481,37.42976],[-80.18467,37.42996],[-80.18489,37.43066],[-80.18478,37.43143],[-80.18501,37.43171],[-80.18488,37.43161],[-80.18462,37.43166],[-80.18492,37.43199],[-80.18466,37.43211],[-80.18464,37.43253],[-80.18439,37.43281],[-80.18379,37.43257],[-80.18358,37.43229],[-80.1828,37.43246],[-80.18303,37.4323],[-80.183,37.43206],[-80.18222,37.43151],[-80.18231,37.43146],[-80.18207,37.43128],[-80.18226,37.43102],[-80.18209,37.43104],[-80.18212,37.43089],[-80.18193,37.43072],[-80.18166,37.43069],[-80.18179,37.43057],[-80.18161,37.43046],[-80.1817,37.43038],[-80.18141,37.42991],[-80.18153,37.42971],[-80.18146,37.42929],[-80.18111,37.42902],[-80.18119,37.4288],[-80.18107,37.42875],[-80.1812,37.42859],[-80.18038,37.42786],[-80.18036,37.42775],[-80.18071,37.42746],[-80.18072,37.42711],[-80.17993,37.42662],[-80.17994,37.42641],[-80.17927,37.42613],[-80.1792,37.42585],[-80.17952,37.42563],[-80.17979,37.42574],[-80.18005,37.42566],[-80.18007,37.42578],[-80.1804,37.4258],[-80.18046,37.426],[-80.18061,37.42596],[-80.18089,37.4262],[-80.18106,37.42613],[-80.18111,37.42602],[-80.18089,37.42587],[-80.18082,37.42538],[-80.18114,37.42438],[-80.18116,37.42394],[-80.18157,37.42328],[-80.18187,37.4222],[-80.18284,37.42168],[-80.18382,37.42154],[-80.18395,37.42138],[-80.18375,37.42109],[-80.18391,37.42103],[-80.18446,37.42117],[-80.18472,37.42147],[-80.18517,37.4215]]],[[[-80.18187,37.43075],[-80.18188,37.43078],[-80.18185,37.43076],[-80.18187,37.43075]]],[[[-80.185,37.43173],[-80.18502,37.43181],[-80.18498,37.43179],[-80.185,37.43173]]],[[[-80.18498,37.43176],[-80.18498,37.43179],[-80.1849,37.43179],[-80.18498,37.43176]]],[[[-80.1849,37.43179],[-80.18488,37.4318],[-80.18487,37.43177],[-80.1849,37.43179]]],[[[-80.18503,37.43183],[-80.18502,37.43181],[-80.18503,37.43181],[-80.18503,37.43183]]]]},"properties":{"fire_id":"ufid:2026-VAVAF-260065","source_collection":"ytd","source_objectid":53835,"incident_name":"Wildwood","mapped_acres":108.0,"mapped_acres_source":"poly_GISAcres","gis_acres":108.0,"auto_acres":108.14063496972952,"reported_acres":108.14,"percent_contained":null,"state":"VA","state_wfigs":"US-VA","county":"Craig","discovery_time_utc":"2026-04-03T17:12:00Z","perimeter_time_utc":"2026-05-18T14:19:23Z","perimeter_edit_time_utc":null,"incident_modified_time_utc":"2026-04-13T16:10:38Z","containment_time_utc":"2026-04-06T17:15:00Z","control_time_utc":"2026-04-13T15:10:00Z","fire_out_time_utc":"2026-05-18T14:16:02Z","fire_cause":"Natural","fire_cause_general":"Natural","map_method":"Auto-generated for InFORM","source_dataset":"FFP","unique_fire_identifier":"2026-VAVAF-260065","irwin_id":"{758C0D91-7815-4A29-B073-CC1BCBBDBBDA}","global_id":"6aa2203e-c07c-435b-9d99-f6439f5df5a1"}}]}
