{"type":"FeatureCollection","features":[{"type":"Feature","geometry":{"type":"Polygon","coordinates":[[[-64.77698,18.34873],[-64.77703,18.3488],[-64.77697,18.34879],[-64.77698,18.34873]]]},"properties":{"fire_id":"ufid:2026-VIVIP-002141","source_collection":"ytd","source_objectid":55847,"incident_name":"North Shore","mapped_acres":0.01512235812027303,"mapped_acres_source":"poly_GISAcres","gis_acres":0.01512235812027303,"auto_acres":0.015100579000691387,"reported_acres":0.1,"percent_contained":null,"state":"VI","state_wfigs":"US-VI","county":"St. John","discovery_time_utc":"2026-02-09T19:00:00Z","perimeter_time_utc":null,"perimeter_edit_time_utc":"2026-07-09T13:24:11Z","incident_modified_time_utc":"2026-07-07T16:32:55Z","containment_time_utc":"2026-02-09T20:00:00Z","control_time_utc":"2026-02-09T20:00:00Z","fire_out_time_utc":"2026-02-09T20:00:00Z","fire_cause":"Human","fire_cause_general":null,"map_method":"Mixed Methods","source_dataset":"2026 NIFS","unique_fire_identifier":"2026-VIVIP-002141","irwin_id":"{EAE169C3-19B6-428D-85E4-BCCC1D9E3CE4}","global_id":"cd01d5c7-0398-4e60-9038-aff0374f6e45"}},{"type":"Feature","geometry":{"type":"Polygon","coordinates":[[[-64.71674,18.312],[-64.71683,18.31207],[-64.71675,18.31208],[-64.71674,18.312]]]},"properties":{"fire_id":"ufid:2026-VIVIP-002142","source_collection":"ytd","source_objectid":55848,"incident_name":"Grootpan","mapped_acres":0.02885790934274835,"mapped_acres_source":"poly_GISAcres","gis_acres":0.02885790934274835,"auto_acres":0.028816161020412748,"reported_acres":0.1,"percent_contained":null,"state":"VI","state_wfigs":"US-VI","county":"St. John","discovery_time_utc":"2026-06-01T19:30:00Z","perimeter_time_utc":null,"perimeter_edit_time_utc":"2026-07-09T13:21:45Z","incident_modified_time_utc":"2026-07-07T16:32:30Z","containment_time_utc":"2026-06-01T20:00:00Z","control_time_utc":"2026-06-01T20:00:00Z","fire_out_time_utc":"2026-06-01T20:00:00Z","fire_cause":"Human","fire_cause_general":null,"map_method":"Mixed Methods","source_dataset":"2026 NIFS","unique_fire_identifier":"2026-VIVIP-002142","irwin_id":"{9C8AD515-32FF-4D15-88F1-7AB903A87097}","global_id":"e4bc87fe-e09a-403c-a580-1a17063daf35"}},{"type":"Feature","geometry":{"type":"Polygon","coordinates":[[[-64.67635,17.71394],[-64.68153,17.71249],[-64.68512,17.71241],[-64.68546,17.71213],[-64.68618,17.71254],[-64.68673,17.71362],[-64.68625,17.71371],[-64.68715,17.71485],[-64.68714,17.71533],[-64.68693,17.71559],[-64.68565,17.71573],[-64.68541,17.71526],[-64.68537,17.71471],[-64.68463,17.71374],[-64.68308,17.71384],[-64.68248,17.71404],[-64.68217,17.71372],[-64.68068,17.71317],[-64.67688,17.71408],[-64.67632,17.71407],[-64.67635,17.71394]]]},"properties":{"fire_id":"ufid:2026-VIVIS-002467","source_collection":"ytd","source_objectid":57626,"incident_name":"Castle Nugent","mapped_acres":35.449739193853176,"mapped_acres_source":"poly_GISAcres","gis_acres":35.449739193853176,"auto_acres":35.4496159919595,"reported_acres":1.0,"percent_contained":null,"state":"VI","state_wfigs":"US-VI","county":"St. Croix","discovery_time_utc":"2026-08-11T14:10:39Z","perimeter_time_utc":null,"perimeter_edit_time_utc":"2026-08-12T18:10:14Z","incident_modified_time_utc":"2026-08-11T15:56:25Z","containment_time_utc":null,"control_time_utc":null,"fire_out_time_utc":null,"fire_cause":"Undetermined","fire_cause_general":null,"map_method":"Mixed Methods","source_dataset":"2026 NIFS","unique_fire_identifier":"2026-VIVIS-002467","irwin_id":"{614517E7-8ACD-4D89-8CE4-2DC69F34BFFC}","global_id":"db397ed0-9903-4d01-bdc1-c3565c1a1d8c"}},{"type":"Feature","geometry":{"type":"Polygon","coordinates":[[[-64.67754,17.71355],[-64.67741,17.71298],[-64.67765,17.7124],[-64.68068,17.71094],[-64.68213,17.71143],[-64.68242,17.71211],[-64.68375,17.71221],[-64.68397,17.71207],[-64.68418,17.71217],[-64.68404,17.71241],[-64.68138,17.71252],[-64.67754,17.71355]]]},"properties":{"fire_id":"ufid:2026-VIVIS-002482","source_collection":"ytd","source_objectid":57655,"incident_name":"Art Farm Fire","mapped_acres":20.90748276543274,"mapped_acres_source":"poly_GISAcres","gis_acres":20.90748276543274,"auto_acres":20.907410320791872,"reported_acres":21.0,"percent_contained":null,"state":"VI","state_wfigs":"US-VI","county":"St. Croix","discovery_time_utc":"2026-08-12T14:23:00Z","perimeter_time_utc":null,"perimeter_edit_time_utc":"2026-08-13T17:05:41Z","incident_modified_time_utc":"2026-08-13T14:45:16Z","containment_time_utc":"2026-08-13T14:00:00Z","control_time_utc":null,"fire_out_time_utc":null,"fire_cause":"Human","fire_cause_general":null,"map_method":"Mixed Methods","source_dataset":"2026 NIFS","unique_fire_identifier":"2026-VIVIS-002482","irwin_id":"{47AB67E5-6C1A-4498-A8CA-07F5980B8A2F}","global_id":"90e208b2-3fab-4d92-a65b-923aad460e1c"}},{"type":"Feature","geometry":{"type":"Polygon","coordinates":[[[-64.85457,17.68883],[-64.85412,17.68896],[-64.85434,17.68954],[-64.8487,17.69126],[-64.84826,17.6901],[-64.84786,17.6898],[-64.84696,17.68746],[-64.85066,17.6875],[-64.85399,17.68718],[-64.85457,17.68883]]]},"properties":{"fire_id":"ufid:2026-VIVIS-002517","source_collection":"ytd","source_objectid":58272,"incident_name":"Longpoint Bay","mapped_acres":59.0,"mapped_acres_source":"poly_GISAcres","gis_acres":59.0,"auto_acres":58.986266018715945,"reported_acres":59.0,"percent_contained":null,"state":"VI","state_wfigs":"US-VI","county":"St. Croix","discovery_time_utc":"2026-08-16T15:00:00Z","perimeter_time_utc":null,"perimeter_edit_time_utc":"2026-08-21T21:01:28Z","incident_modified_time_utc":"2026-08-17T15:09:20Z","containment_time_utc":null,"control_time_utc":null,"fire_out_time_utc":null,"fire_cause":"Human","fire_cause_general":null,"map_method":"Mixed Methods","source_dataset":"2026 NIFS","unique_fire_identifier":"2026-VIVIS-002517","irwin_id":"{D14ACF6B-0AC0-4C61-8F13-A7EFB4036B8F}","global_id":"617671a9-a539-4503-99f8-8f95030287db"}}]}
