{"type":"FeatureCollection","features":[{"type":"Feature","geometry":{"type":"Polygon","coordinates":[[[-73.23072,44.18085],[-73.23091,44.18109],[-73.23121,44.18116],[-73.23122,44.182],[-73.23141,44.18223],[-73.23154,44.18274],[-73.23171,44.18287],[-73.2315,44.18311],[-73.23161,44.18315],[-73.23158,44.1833],[-73.23135,44.18326],[-73.23038,44.18352],[-73.23054,44.18376],[-73.2302,44.18371],[-73.23029,44.18388],[-73.23038,44.18379],[-73.23095,44.18401],[-73.22998,44.18417],[-73.23105,44.18416],[-73.23121,44.18447],[-73.23086,44.18452],[-73.23058,44.18429],[-73.23018,44.18419],[-73.2301,44.18445],[-73.2299,44.18419],[-73.2297,44.18416],[-73.22978,44.18447],[-73.23009,44.18454],[-73.23002,44.18478],[-73.22975,44.18486],[-73.22986,44.185],[-73.22972,44.18512],[-73.22949,44.18508],[-73.22922,44.1854],[-73.22895,44.1854],[-73.22918,44.18559],[-73.22898,44.18596],[-73.22859,44.18618],[-73.2282,44.1858],[-73.22797,44.18594],[-73.22794,44.18616],[-73.22826,44.18608],[-73.22855,44.18628],[-73.22841,44.18709],[-73.22815,44.18693],[-73.22761,44.18747],[-73.22687,44.18754],[-73.22641,44.18736],[-73.22584,44.18756],[-73.22517,44.18745],[-73.22503,44.18723],[-73.22509,44.18711],[-73.22577,44.18686],[-73.22594,44.18715],[-73.22618,44.18709],[-73.22631,44.18683],[-73.22616,44.18641],[-73.22587,44.18656],[-73.22526,44.18659],[-73.22504,44.1864],[-73.22424,44.18648],[-73.22467,44.18674],[-73.22463,44.18715],[-73.22408,44.18702],[-73.22391,44.18673],[-73.22377,44.18676],[-73.22381,44.18704],[-73.22345,44.18722],[-73.22335,44.18709],[-73.22305,44.18713],[-73.22295,44.18692],[-73.22311,44.18662],[-73.22288,44.18652],[-73.22268,44.18672],[-73.22258,44.18656],[-73.2228,44.18621],[-73.22267,44.18599],[-73.2228,44.18574],[-73.22294,44.18574],[-73.22294,44.18589],[-73.22308,44.1858],[-73.22326,44.18602],[-73.22333,44.18585],[-73.22314,44.18563],[-73.22331,44.18538],[-73.22319,44.18492],[-73.22302,44.18483],[-73.22305,44.18519],[-73.22276,44.18517],[-73.22292,44.18558],[-73.22252,44.18569],[-73.22242,44.18477],[-73.22211,44.18445],[-73.22206,44.18407],[-73.22175,44.18406],[-73.22214,44.1838],[-73.22214,44.18367],[-73.22148,44.18399],[-73.22086,44.18367],[-73.22146,44.18359],[-73.22191,44.18316],[-73.22178,44.18306],[-73.22197,44.18289],[-73.22197,44.18248],[-73.22176,44.18227],[-73.22182,44.1818],[-73.22152,44.18154],[-73.22159,44.18143],[-73.22131,44.18137],[-73.22181,44.1813],[-73.22127,44.18124],[-73.22007,44.18148],[-73.22034,44.18129],[-73.2203,44.18109],[-73.22058,44.18091],[-73.22131,44.1809],[-73.22152,44.18077],[-73.22141,44.18074],[-73.22165,44.18068],[-73.22158,44.18062],[-73.2217,44.18049],[-73.22221,44.18041],[-73.22242,44.18042],[-73.22246,44.18056],[-73.22282,44.18074],[-73.22336,44.18035],[-73.22383,44.18044],[-73.22389,44.18065],[-73.22433,44.18063],[-73.22463,44.18078],[-73.22471,44.181],[-73.22511,44.18107],[-73.22488,44.1815],[-73.22604,44.18138],[-73.22636,44.18163],[-73.22702,44.18137],[-73.22703,44.18123],[-73.22728,44.18109],[-73.22812,44.18126],[-73.22846,44.18097],[-73.22965,44.18057],[-73.22991,44.18074],[-73.23003,44.18064],[-73.23072,44.18085]]]},"properties":{"fire_id":"ufid:2026-VTVTS-2026017","source_collection":"ytd","source_objectid":52400,"incident_name":"2026017","mapped_acres":110.65,"mapped_acres_source":"poly_GISAcres","gis_acres":110.65,"auto_acres":110.65312139043563,"reported_acres":110.0,"percent_contained":null,"state":"VT","state_wfigs":"US-VT","county":"Addison","discovery_time_utc":"2026-03-30T19:32:59Z","perimeter_time_utc":"2026-04-17T15:33:10Z","perimeter_edit_time_utc":null,"incident_modified_time_utc":"2026-04-10T15:33:03Z","containment_time_utc":null,"control_time_utc":"2026-03-31T00:20:00Z","fire_out_time_utc":"2026-04-01T00:00:00Z","fire_cause":"Human","fire_cause_general":"Equipment and vehicle use","map_method":"Hand Sketch","source_dataset":"FFP","unique_fire_identifier":"2026-VTVTS-2026017","irwin_id":"{19187FA0-8E3B-435F-A3A6-EC408E391F4B}","global_id":"a1f5a2bb-ffb4-43cb-a491-66ad57cd34ea"}}]}
