{"type":"FeatureCollection","features":[{"type":"Feature","geometry":{"type":"Polygon","coordinates":[[[-81.11453,37.84976],[-81.11396,37.84936],[-81.11351,37.84858],[-81.11338,37.84736],[-81.11357,37.84649],[-81.11328,37.84633],[-81.11383,37.84577],[-81.11294,37.84524],[-81.11301,37.84492],[-81.11371,37.84422],[-81.11455,37.84371],[-81.11503,37.84323],[-81.11699,37.84351],[-81.11764,37.84395],[-81.1179,37.84391],[-81.11855,37.84347],[-81.11949,37.84367],[-81.1218,37.84559],[-81.1223,37.84647],[-81.12269,37.84652],[-81.12344,37.84633],[-81.12605,37.84738],[-81.12612,37.84751],[-81.12602,37.84762],[-81.12616,37.84773],[-81.12612,37.84786],[-81.12546,37.84881],[-81.12448,37.84942],[-81.1225,37.84934],[-81.12117,37.84978],[-81.12046,37.85018],[-81.11828,37.85063],[-81.11778,37.85099],[-81.1157,37.85034],[-81.11487,37.85052],[-81.11453,37.84976]]]},"properties":{"fire_id":"ufid:2026-WVWVS-000199","source_collection":"ytd","source_objectid":54274,"incident_name":"Batoff","mapped_acres":174.0,"mapped_acres_source":"poly_GISAcres","gis_acres":174.0,"auto_acres":154.70464247857151,"reported_acres":155.0,"percent_contained":null,"state":"WV","state_wfigs":"US-WV","county":"Raleigh","discovery_time_utc":"2026-04-11T20:31:58Z","perimeter_time_utc":"2026-05-28T19:31:12Z","perimeter_edit_time_utc":null,"incident_modified_time_utc":"2026-05-11T18:48:37Z","containment_time_utc":"2026-04-21T22:00:00Z","control_time_utc":"2026-04-24T17:25:00Z","fire_out_time_utc":"2026-04-28T18:24:00Z","fire_cause":"Undetermined","fire_cause_general":"Undetermined","map_method":"Auto-generated for InFORM","source_dataset":"FFP","unique_fire_identifier":"2026-WVWVS-000199","irwin_id":"{48B26BDA-8CCE-4BA4-96EA-1CD3E5A81650}","global_id":"fc6f755d-8038-4f6a-aefd-85ef56248564"}}]}
