{"type":"FeatureCollection","features":[{"type":"Feature","geometry":{"type":"Polygon","coordinates":[[[-165.4594,65.2207],[-165.46032,65.22086],[-165.46104,65.22077],[-165.46307,65.22017],[-165.46508,65.2199],[-165.46578,65.2196],[-165.466,65.21935],[-165.46676,65.21921],[-165.46863,65.21936],[-165.47119,65.21932],[-165.47193,65.21957],[-165.47203,65.21974],[-165.47081,65.22071],[-165.47085,65.22126],[-165.47104,65.2216],[-165.47073,65.22214],[-165.47087,65.22248],[-165.47136,65.22273],[-165.47277,65.2229],[-165.473,65.22328],[-165.473,65.22373],[-165.47256,65.22411],[-165.47118,65.22438],[-165.46964,65.22419],[-165.4674,65.22429],[-165.46644,65.22407],[-165.46575,65.22353],[-165.46505,65.22343],[-165.46297,65.22417],[-165.46138,65.22421],[-165.45913,65.2249],[-165.45735,65.2248],[-165.45646,65.22418],[-165.45626,65.22318],[-165.45565,65.22308],[-165.45567,65.22277],[-165.45546,65.22245],[-165.45537,65.22184],[-165.45555,65.22158],[-165.45664,65.22107],[-165.45821,65.22071],[-165.4594,65.2207]]]},"properties":{"fire_id":"ufid:2025-AKGAD-000379","source_collection":"history-2025","source_objectid":46554,"incident_name":"Duck","mapped_acres":85.43,"mapped_acres_source":"poly_GISAcres","gis_acres":85.43,"auto_acres":85.43038225334207,"reported_acres":85.43,"percent_contained":null,"state":"AK","state_wfigs":"US-AK","county":"Nome","discovery_time_utc":"2025-07-04T17:51:17Z","perimeter_time_utc":"2025-09-29T20:47:48Z","perimeter_edit_time_utc":null,"incident_modified_time_utc":"2025-09-19T16:40:48Z","containment_time_utc":null,"control_time_utc":null,"fire_out_time_utc":"2025-09-17T23:00:00Z","fire_cause":"Natural","fire_cause_general":"Natural","map_method":"Digitized-Image","source_dataset":"FFP","unique_fire_identifier":"2025-AKGAD-000379","irwin_id":"{37A2EE4A-9CE7-4374-80C4-13F5B92674D3}","global_id":"3ff08dcd-eab2-481f-b12c-8de7bfe1f3ca"}}]}
