{"type":"FeatureCollection","features":[{"type":"Feature","geometry":{"type":"Polygon","coordinates":[[[-92.24906,36.08402],[-92.24921,36.0841],[-92.24893,36.08503],[-92.2489,36.08657],[-92.249,36.08703],[-92.2489,36.08711],[-92.24885,36.08785],[-92.24848,36.08812],[-92.24805,36.08731],[-92.24744,36.08681],[-92.24699,36.0868],[-92.24652,36.08615],[-92.24672,36.086],[-92.24684,36.08556],[-92.24707,36.08551],[-92.24693,36.0854],[-92.24825,36.08449],[-92.24876,36.08433],[-92.24906,36.08402]]]},"properties":{"fire_id":"ufid:2025-AROZF-000500","source_collection":"history-2025","source_objectid":38182,"incident_name":"Cataract","mapped_acres":14.0,"mapped_acres_source":"poly_GISAcres","gis_acres":14.0,"auto_acres":13.483209388461397,"reported_acres":14.0,"percent_contained":null,"state":"AR","state_wfigs":"US-AR","county":"Baxter","discovery_time_utc":"2025-03-11T22:07:00Z","perimeter_time_utc":"2025-06-06T16:24:19Z","perimeter_edit_time_utc":null,"incident_modified_time_utc":"2025-04-01T13:25:11Z","containment_time_utc":"2025-03-12T22:56:00Z","control_time_utc":"2025-03-26T17:00:00Z","fire_out_time_utc":"2025-03-26T17:00:00Z","fire_cause":"Human","fire_cause_general":"Undetermined","map_method":"GPS-Walked","source_dataset":"FFP","unique_fire_identifier":"2025-AROZF-000500","irwin_id":"{B543C2FA-5567-4905-B10E-1E05AE1F039C}","global_id":"20eaf33e-8f7f-4739-af92-42285645b53b"}},{"type":"Feature","geometry":{"type":"MultiPolygon","coordinates":[[[[-92.18385,36.05024],[-92.18398,36.05038],[-92.1844,36.05025],[-92.18454,36.05038],[-92.18443,36.05053],[-92.18457,36.05056],[-92.18433,36.05067],[-92.18445,36.05079],[-92.18432,36.05076],[-92.18428,36.0506],[-92.18414,36.0507],[-92.18425,36.05082],[-92.18425,36.05084],[-92.18419,36.05082],[-92.18414,36.05076],[-92.18379,36.05098],[-92.18346,36.05151],[-92.18356,36.05162],[-92.18339,36.0518],[-92.1836,36.05219],[-92.18351,36.05279],[-92.18329,36.0534],[-92.18306,36.05357],[-92.18315,36.05378],[-92.18306,36.05393],[-92.18287,36.05418],[-92.18255,36.05431],[-92.18286,36.0544],[-92.18297,36.05421],[-92.18309,36.05423],[-92.18295,36.05444],[-92.18307,36.05477],[-92.18246,36.05469],[-92.18253,36.05484],[-92.18243,36.05512],[-92.18214,36.05516],[-92.18212,36.05538],[-92.1817,36.0556],[-92.18139,36.05548],[-92.18127,36.055287],[-92.18136,36.05578],[-92.18118,36.05595],[-92.18075,36.05579],[-92.18023,36.05531],[-92.18001,36.05535],[-92.18024,36.05473],[-92.17986,36.05416],[-92.17963,36.0535],[-92.17974,36.05315],[-92.17963,36.05304],[-92.17984,36.05303],[-92.17983,36.05316],[-92.17987,36.05303],[-92.180094,36.053012],[-92.18005,36.05262],[-92.17976,36.05217],[-92.18003,36.0521],[-92.1801,36.05144],[-92.18054,36.05139],[-92.18042,36.05129],[-92.18043,36.05105],[-92.18058,36.05084],[-92.18044,36.05075],[-92.18062,36.05057],[-92.18065,36.05008],[-92.18051,36.04992],[-92.18068,36.0499],[-92.18052,36.04974],[-92.18075,36.04958],[-92.18139,36.04952],[-92.18197,36.04969],[-92.18201,36.04959],[-92.18261,36.04995],[-92.18299,36.04982],[-92.18344,36.04985],[-92.18356,36.04998],[-92.18351,36.05024],[-92.18385,36.05024]],[[-92.184229,36.050813],[-92.18423,36.050815],[-92.18423,36.05081],[-92.184229,36.050813]],[[-92.184221,36.050819],[-92.184213,36.050813],[-92.18422,36.05082],[-92.184221,36.050819]],[[-92.182,36.05506],[-92.181864,36.055132],[-92.18214,36.05516],[-92.182,36.05506]],[[-92.18126,36.05523],[-92.181267,36.055268],[-92.181418,36.055234],[-92.18126,36.05523]]],[[[-92.18446,36.0505],[-92.18446,36.05049],[-92.18448,36.0505],[-92.18446,36.0505]]],[[[-92.18423,36.0507],[-92.18424,36.05071],[-92.18423,36.05071],[-92.18423,36.0507]]],[[[-92.18419,36.05083],[-92.18418,36.05082],[-92.18419,36.05082],[-92.18419,36.05083]]],[[[-92.18421,36.05085],[-92.18419,36.05083],[-92.18421,36.05083],[-92.18421,36.05085]]],[[[-92.18394,36.05092],[-92.18395,36.05092],[-92.18394,36.05093],[-92.18394,36.05092]]],[[[-92.18391,36.05096],[-92.18394,36.05093],[-92.18392,36.05096],[-92.18391,36.05096]]],[[[-92.18386,36.05097],[-92.18388,36.05096],[-92.18388,36.05097],[-92.18386,36.05097]]],[[[-92.18391,36.05096],[-92.18389,36.05098],[-92.1839,36.05096],[-92.18391,36.05096]]],[[[-92.18196,36.04961],[-92.18196,36.0496],[-92.18197,36.04961],[-92.18196,36.04961]]],[[[-92.18197,36.04961],[-92.18198,36.04961],[-92.18198,36.04962],[-92.18197,36.04961]]],[[[-92.18196,36.04962],[-92.18197,36.04961],[-92.18197,36.04962],[-92.18196,36.04962]]],[[[-92.18198,36.04964],[-92.18198,36.04963],[-92.18199,36.04964],[-92.18198,36.04964]]],[[[-92.18195,36.04965],[-92.18196,36.04964],[-92.18196,36.04965],[-92.18195,36.04965]]],[[[-92.18193,36.04966],[-92.18195,36.04965],[-92.18196,36.04966],[-92.18193,36.04966]]],[[[-92.18196,36.04966],[-92.18196,36.04965],[-92.18197,36.04966],[-92.18196,36.04966]]],[[[-92.18131,36.05538],[-92.18134,36.05542],[-92.18131,36.0554],[-92.18131,36.05538]]]]},"properties":{"fire_id":"ufid:2025-AROZF-000497","source_collection":"history-2025","source_objectid":38183,"incident_name":"Gunner","mapped_acres":42.17,"mapped_acres_source":"poly_GISAcres","gis_acres":42.17,"auto_acres":46.22383168016549,"reported_acres":42.17,"percent_contained":null,"state":"AR","state_wfigs":"US-AR","county":"Stone","discovery_time_utc":"2025-03-11T21:11:26Z","perimeter_time_utc":"2025-04-01T13:46:28Z","perimeter_edit_time_utc":null,"incident_modified_time_utc":"2025-03-12T23:26:34Z","containment_time_utc":"2025-03-12T23:00:00Z","control_time_utc":"2025-03-26T17:00:00Z","fire_out_time_utc":"2025-03-26T17:00:00Z","fire_cause":"Human","fire_cause_general":"Debris and open burning","map_method":"GPS-Walked","source_dataset":"FFP","unique_fire_identifier":"2025-AROZF-000497","irwin_id":"{F4A6BDFA-98FB-4172-A8A9-BB1803FBEFDC}","global_id":"c8364915-3da4-441e-af67-a996cb8434ba"}},{"type":"Feature","geometry":{"type":"Polygon","coordinates":[[[-92.37715,36.15777],[-92.37863,36.15737],[-92.37975,36.1579],[-92.3795,36.15822],[-92.37946,36.15852],[-92.37961,36.15883],[-92.37957,36.15915],[-92.38004,36.1595],[-92.37998,36.16089],[-92.37919,36.16097],[-92.37925,36.1612],[-92.37878,36.16158],[-92.3785,36.16164],[-92.37808,36.16147],[-92.37746,36.16086],[-92.37659,36.16032],[-92.37602,36.15913],[-92.37614,36.15912],[-92.37644,36.15868],[-92.37678,36.15864],[-92.37752,36.15812],[-92.37715,36.15777]]]},"properties":{"fire_id":"ufid:2025-AROZF-000898","source_collection":"history-2025","source_objectid":38266,"incident_name":"Advance","mapped_acres":5.0,"mapped_acres_source":"poly_GISAcres","gis_acres":5.0,"auto_acres":27.120912846750674,"reported_acres":5.0,"percent_contained":null,"state":"AR","state_wfigs":"US-AR","county":"Baxter","discovery_time_utc":"2025-04-02T00:44:00Z","perimeter_time_utc":"2025-04-03T20:00:21Z","perimeter_edit_time_utc":null,"incident_modified_time_utc":"2025-04-03T15:54:42Z","containment_time_utc":"2025-04-02T04:10:00Z","control_time_utc":"2025-04-03T15:45:00Z","fire_out_time_utc":"2025-04-03T15:45:00Z","fire_cause":"Human","fire_cause_general":"Undetermined","map_method":"GPS-Walked","source_dataset":"FFP","unique_fire_identifier":"2025-AROZF-000898","irwin_id":"{FEC1A621-BEF3-489D-BDCE-92DBC58A4489}","global_id":"fcbcd9de-c37a-4a1d-ac9c-7494bbb7eeb2"}},{"type":"Feature","geometry":{"type":"Polygon","coordinates":[[[-92.95636,35.83456],[-92.95741,35.83441],[-92.95746,35.83424],[-92.95766,35.83415],[-92.95769,35.834],[-92.95755,35.83394],[-92.95764,35.83384],[-92.95791,35.83369],[-92.95822,35.83377],[-92.95838,35.83367],[-92.95916,35.83406],[-92.95921,35.83423],[-92.95981,35.83445],[-92.96014,35.83477],[-92.96023,35.83507],[-92.96009,35.83513],[-92.96006,35.83534],[-92.96031,35.83543],[-92.96033,35.83583],[-92.9616,35.8358],[-92.96216,35.83588],[-92.96244,35.83608],[-92.96392,35.83772],[-92.96368,35.8382],[-92.96368,35.83882],[-92.96344,35.83923],[-92.96289,35.83939],[-92.96266,35.8397],[-92.96267,35.84004],[-92.96211,35.84052],[-92.96182,35.8406],[-92.96108,35.84015],[-92.95958,35.8389],[-92.95629,35.83976],[-92.95555,35.83977],[-92.95468,35.8395],[-92.95401,35.83884],[-92.95413,35.83869],[-92.95439,35.83869],[-92.95436,35.83828],[-92.95497,35.83762],[-92.95506,35.83686],[-92.95497,35.83647],[-92.95534,35.83583],[-92.95508,35.83557],[-92.95525,35.83549],[-92.95573,35.8358],[-92.95558,35.83566],[-92.95579,35.83554],[-92.95576,35.83532],[-92.95657,35.83481],[-92.95636,35.83456]]]},"properties":{"fire_id":"ufid:2025-AROZF-000354","source_collection":"history-2025","source_objectid":40488,"incident_name":"Dickey Junction","mapped_acres":97.0,"mapped_acres_source":"poly_GISAcres","gis_acres":97.0,"auto_acres":97.86914980595316,"reported_acres":97.0,"percent_contained":null,"state":"AR","state_wfigs":"US-AR","county":"Newton","discovery_time_utc":"2025-03-02T17:50:10Z","perimeter_time_utc":"2025-06-06T13:33:15Z","perimeter_edit_time_utc":null,"incident_modified_time_utc":"2025-04-08T15:37:02Z","containment_time_utc":"2025-03-04T00:00:00Z","control_time_utc":"2025-03-08T18:00:00Z","fire_out_time_utc":"2025-03-12T17:00:00Z","fire_cause":"Human","fire_cause_general":"Arson","map_method":"Auto-generated for InFORM","source_dataset":"FFP","unique_fire_identifier":"2025-AROZF-000354","irwin_id":"{44D50475-F412-4F13-B97A-DB59343DA694}","global_id":"3cd92ab5-d89b-4039-aa4e-86c1b4fe3c15"}},{"type":"Feature","geometry":{"type":"Polygon","coordinates":[[[-93.34409,35.02264],[-93.34386,35.02207],[-93.34367,35.02209],[-93.34332,35.02178],[-93.34271,35.02155],[-93.34279,35.02088],[-93.34398,35.02071],[-93.3439,35.0205],[-93.34405,35.0202],[-93.34406,35.01894],[-93.34419,35.01871],[-93.34452,35.01865],[-93.34539,35.01887],[-93.34581,35.01878],[-93.3476,35.01887],[-93.34796,35.01909],[-93.34861,35.01897],[-93.34868,35.01975],[-93.34851,35.02082],[-93.34788,35.0212],[-93.34549,35.02211],[-93.34534,35.02246],[-93.34536,35.02288],[-93.34509,35.02307],[-93.34448,35.02311],[-93.34409,35.02264]]]},"properties":{"fire_id":"ufid:2025-AROUF-000620","source_collection":"history-2025","source_objectid":41213,"incident_name":"Browns Creek","mapped_acres":40.0,"mapped_acres_source":"poly_GISAcres","gis_acres":40.0,"auto_acres":38.8492853599819,"reported_acres":40.0,"percent_contained":null,"state":"AR","state_wfigs":"US-AR","county":"Yell","discovery_time_utc":"2025-03-17T16:41:00Z","perimeter_time_utc":"2025-06-26T19:37:27Z","perimeter_edit_time_utc":null,"incident_modified_time_utc":"2025-04-03T14:45:33Z","containment_time_utc":"2025-03-17T22:14:00Z","control_time_utc":"2025-03-28T20:30:00Z","fire_out_time_utc":"2025-04-03T14:40:00Z","fire_cause":"Human","fire_cause_general":"Arson","map_method":"GPS-Walked","source_dataset":"FFP","unique_fire_identifier":"2025-AROUF-000620","irwin_id":"{33D44FEE-3B14-466D-9EE6-2AD94DCC3758}","global_id":"96d4872f-324a-49c5-8be3-6a68f5be500e"}},{"type":"Feature","geometry":{"type":"Polygon","coordinates":[[[-93.02992,35.7921],[-93.02934,35.79227],[-93.02849,35.79214],[-93.0272,35.79217],[-93.02567,35.79248],[-93.02449,35.79208],[-93.02429,35.79183],[-93.02434,35.79164],[-93.02325,35.79141],[-93.02278,35.79084],[-93.02297,35.79054],[-93.02288,35.79033],[-93.0232,35.78971],[-93.02318,35.78944],[-93.02467,35.78949],[-93.02508,35.78978],[-93.02499,35.78992],[-93.02525,35.79018],[-93.02581,35.79026],[-93.02577,35.78997],[-93.02596,35.78938],[-93.0269,35.78922],[-93.02781,35.78952],[-93.02801,35.78983],[-93.02788,35.7902],[-93.02869,35.79097],[-93.02884,35.79143],[-93.0297,35.79175],[-93.02992,35.7921]]]},"properties":{"fire_id":"ufid:2025-AROZF-000320","source_collection":"history-2025","source_objectid":43427,"incident_name":"Green Haw","mapped_acres":49.12,"mapped_acres_source":"poly_GISAcres","gis_acres":49.12,"auto_acres":35.46693168017823,"reported_acres":35.0,"percent_contained":null,"state":"AR","state_wfigs":"US-AR","county":"Newton","discovery_time_utc":"2025-03-01T22:10:00Z","perimeter_time_utc":"2025-08-15T16:49:35Z","perimeter_edit_time_utc":null,"incident_modified_time_utc":"2025-04-08T15:36:27Z","containment_time_utc":"2025-03-02T02:12:00Z","control_time_utc":"2025-03-08T18:00:00Z","fire_out_time_utc":"2025-03-14T17:00:00Z","fire_cause":"Human","fire_cause_general":"Debris and open burning","map_method":"GPS-Walked","source_dataset":"FFP","unique_fire_identifier":"2025-AROZF-000320","irwin_id":"{03253DEE-5D10-42D3-B4DB-79C45A0A5BEF}","global_id":"63002bcf-88ac-473f-9aad-ec0c1edd6c74"}},{"type":"Feature","geometry":{"type":"Polygon","coordinates":[[[-93.07041,35.47848],[-93.06779,35.47567],[-93.06906,35.47472],[-93.0695,35.47565],[-93.07085,35.47703],[-93.07071,35.47774],[-93.07079,35.47802],[-93.07041,35.47848]]]},"properties":{"fire_id":"ufid:2025-AROZF-000870","source_collection":"history-2025","source_objectid":43429,"incident_name":"Broomfield","mapped_acres":11.54,"mapped_acres_source":"poly_GISAcres","gis_acres":11.54,"auto_acres":11.535977964827614,"reported_acres":11.54,"percent_contained":null,"state":"AR","state_wfigs":"US-AR","county":"Pope","discovery_time_utc":"2025-03-28T17:08:05Z","perimeter_time_utc":"2025-08-15T17:08:24Z","perimeter_edit_time_utc":null,"incident_modified_time_utc":"2025-04-08T15:35:11Z","containment_time_utc":"2025-03-28T17:55:00Z","control_time_utc":"2025-03-30T23:00:00Z","fire_out_time_utc":"2025-04-03T17:00:00Z","fire_cause":"Human","fire_cause_general":"Undetermined","map_method":"Auto-generated for InFORM","source_dataset":"FFP","unique_fire_identifier":"2025-AROZF-000870","irwin_id":"{9FC6EFD8-6A37-45BE-9276-0E8DD98E647C}","global_id":"83fbd4b1-42d2-4390-84e7-15e7bc56b1fe"}},{"type":"Feature","geometry":{"type":"Polygon","coordinates":[[[-94.27393,35.73918],[-94.27381,35.73858],[-94.27271,35.73705],[-94.2723,35.73538],[-94.27196,35.73288],[-94.27068,35.73247],[-94.2707,35.73135],[-94.2711,35.73132],[-94.27511,35.72989],[-94.27645,35.72981],[-94.27941,35.72887],[-94.27975,35.72898],[-94.28274,35.72902],[-94.28316,35.7294],[-94.28347,35.72945],[-94.28455,35.72944],[-94.28564,35.72917],[-94.28736,35.7293],[-94.28863,35.72911],[-94.28886,35.72916],[-94.28893,35.73015],[-94.28908,35.73055],[-94.29036,35.73229],[-94.29051,35.73354],[-94.2904,35.73425],[-94.29066,35.73571],[-94.29074,35.73764],[-94.29108,35.73857],[-94.29098,35.73969],[-94.29114,35.74162],[-94.2912,35.74189],[-94.2918,35.74252],[-94.29175,35.743],[-94.29134,35.74363],[-94.29033,35.74444],[-94.28981,35.74463],[-94.28945,35.74525],[-94.28881,35.7455],[-94.28692,35.74726],[-94.28671,35.74752],[-94.28666,35.74809],[-94.28578,35.74883],[-94.28546,35.74948],[-94.2842,35.7495],[-94.28252,35.75058],[-94.2824,35.75084],[-94.28242,35.75153],[-94.2816,35.75368],[-94.28082,35.75458],[-94.28011,35.75514],[-94.27939,35.75642],[-94.27817,35.75675],[-94.27692,35.75663],[-94.27605,35.75701],[-94.27544,35.75694],[-94.27487,35.75709],[-94.27482,35.75656],[-94.27416,35.75605],[-94.27343,35.75651],[-94.27306,35.75643],[-94.27262,35.75658],[-94.27233,35.75576],[-94.27198,35.75551],[-94.27145,35.75605],[-94.27057,35.75582],[-94.26901,35.75756],[-94.26865,35.75605],[-94.26912,35.75466],[-94.26923,35.75383],[-94.27012,35.75205],[-94.27013,35.75097],[-94.27091,35.74986],[-94.27083,35.74939],[-94.2703,35.74894],[-94.27076,35.74837],[-94.27085,35.74793],[-94.27022,35.74689],[-94.27015,35.74585],[-94.27316,35.74487],[-94.27335,35.74354],[-94.27312,35.74272],[-94.27318,35.74219],[-94.2736,35.74173],[-94.2736,35.74023],[-94.27393,35.73918]]]},"properties":{"fire_id":"ufid:2025-AROZF-000603","source_collection":"history-2025","source_objectid":45248,"incident_name":"Blackburn","mapped_acres":1169.0,"mapped_acres_source":"poly_GISAcres","gis_acres":1169.0,"auto_acres":1081.2565688647842,"reported_acres":1169.0,"percent_contained":null,"state":"AR","state_wfigs":"US-AR","county":"Crawford","discovery_time_utc":"2025-03-17T04:19:00Z","perimeter_time_utc":"2025-09-02T15:12:44Z","perimeter_edit_time_utc":null,"incident_modified_time_utc":"2025-03-31T17:17:42Z","containment_time_utc":"2025-03-21T23:30:00Z","control_time_utc":"2025-03-31T17:00:00Z","fire_out_time_utc":"2025-03-31T17:15:00Z","fire_cause":"Natural","fire_cause_general":"Natural","map_method":"Auto-generated for InFORM","source_dataset":"FFP","unique_fire_identifier":"2025-AROZF-000603","irwin_id":"{807EFAB0-1EB2-49BD-A928-6A00A5EDF3B9}","global_id":"b07d3e37-de7f-4256-ac3a-b42d305e3041"}},{"type":"Feature","geometry":{"type":"Polygon","coordinates":[[[-92.74961,35.97212],[-92.74983,35.97193],[-92.75079,35.972],[-92.75105,35.97186],[-92.75141,35.97146],[-92.75182,35.97054],[-92.75216,35.96774],[-92.75212,35.96642],[-92.75165,35.96587],[-92.75019,35.96483],[-92.74998,35.96399],[-92.75092,35.96278],[-92.75221,35.96233],[-92.75397,35.96271],[-92.75809,35.96403],[-92.75916,35.96455],[-92.7598,35.9649],[-92.76161,35.96677],[-92.76178,35.9674],[-92.76259,35.96774],[-92.76358,35.96785],[-92.76448,35.96854],[-92.76521,35.96886],[-92.76435,35.9699],[-92.7644,35.97038],[-92.7639,35.97148],[-92.76395,35.97243],[-92.76371,35.97299],[-92.76324,35.97341],[-92.76274,35.97353],[-92.75955,35.9737],[-92.75834,35.97354],[-92.75777,35.97254],[-92.75716,35.97209],[-92.75596,35.97179],[-92.7542,35.97207],[-92.75227,35.97273],[-92.75156,35.97273],[-92.74961,35.97212]]]},"properties":{"fire_id":"ufid:2025-ARBUP-000706","source_collection":"history-2025","source_objectid":46093,"incident_name":"Calf Creek","mapped_acres":500.0,"mapped_acres_source":"poly_GISAcres","gis_acres":500.0,"auto_acres":263.839505150781,"reported_acres":264.0,"percent_contained":null,"state":"AR","state_wfigs":"US-AR","county":"Searcy","discovery_time_utc":"2025-03-20T03:29:00Z","perimeter_time_utc":"2025-09-19T15:03:47Z","perimeter_edit_time_utc":null,"incident_modified_time_utc":"2025-04-17T16:47:09Z","containment_time_utc":"2025-03-20T07:00:00Z","control_time_utc":"2025-03-24T22:00:00Z","fire_out_time_utc":"2025-04-04T23:00:00Z","fire_cause":"Human","fire_cause_general":"Undetermined","map_method":"Auto-generated for InFORM","source_dataset":"FFP","unique_fire_identifier":"2025-ARBUP-000706","irwin_id":"{7E60BE69-85FA-424B-8EE2-0D20ECB390CD}","global_id":"ccd8d9c3-188e-4735-9a3d-647a1908e0cb"}},{"type":"Feature","geometry":{"type":"Polygon","coordinates":[[[-92.82109,35.9633],[-92.82075,35.96297],[-92.82065,35.96196],[-92.82313,35.96141],[-92.82354,35.96144],[-92.82332,35.96268],[-92.8229,35.96339],[-92.82245,35.96319],[-92.82177,35.96347],[-92.82109,35.9633]]]},"properties":{"fire_id":"ufid:2025-ARBUP-000285","source_collection":"history-2025","source_objectid":46094,"incident_name":"Love Hensley Fields","mapped_acres":0.3,"mapped_acres_source":"poly_GISAcres","gis_acres":0.3,"auto_acres":10.792196572226311,"reported_acres":0.3,"percent_contained":null,"state":"AR","state_wfigs":"US-AR","county":"Searcy","discovery_time_utc":"2025-02-28T17:18:38Z","perimeter_time_utc":"2025-09-19T15:22:39Z","perimeter_edit_time_utc":null,"incident_modified_time_utc":"2025-09-19T15:19:40Z","containment_time_utc":"2025-02-28T17:20:00Z","control_time_utc":"2025-02-28T17:25:00Z","fire_out_time_utc":"2025-02-28T17:25:00Z","fire_cause":"Human","fire_cause_general":"Undetermined","map_method":"Auto-generated for InFORM","source_dataset":"FFP","unique_fire_identifier":"2025-ARBUP-000285","irwin_id":"{BECA5B72-0A2D-447D-AD25-184307726917}","global_id":"3c1d91fe-1676-4921-b56b-546b3d6eb517"}},{"type":"Feature","geometry":{"type":"Polygon","coordinates":[[[-92.59552,36.10531],[-92.59335,36.10453],[-92.59162,36.10365],[-92.59397,36.10324],[-92.59579,36.10361],[-92.59609,36.10453],[-92.59552,36.10531]]]},"properties":{"fire_id":"ufid:2025-ARBUP-000644","source_collection":"history-2025","source_objectid":48692,"incident_name":"DE SOTO","mapped_acres":10.64,"mapped_acres_source":"poly_GISAcres","gis_acres":10.64,"auto_acres":12.590761706946523,"reported_acres":10.64,"percent_contained":null,"state":"AR","state_wfigs":"US-AR","county":"Marion","discovery_time_utc":"2025-03-18T18:56:11Z","perimeter_time_utc":"2025-11-20T20:04:20Z","perimeter_edit_time_utc":null,"incident_modified_time_utc":"2025-04-24T18:31:44Z","containment_time_utc":"2025-03-18T20:15:00Z","control_time_utc":"2025-03-19T13:30:00Z","fire_out_time_utc":"2025-04-04T16:00:00Z","fire_cause":"Human","fire_cause_general":"Fireworks","map_method":"Auto-generated for InFORM","source_dataset":"FFP","unique_fire_identifier":"2025-ARBUP-000644","irwin_id":"{71339AED-D52E-40E6-9662-F8A2D0558B7E}","global_id":"fb1d0ea5-fc8a-42f9-af8f-7e496136de36"}},{"type":"Feature","geometry":{"type":"Polygon","coordinates":[[[-93.36873,35.97806],[-93.36645,35.97773],[-93.36524,35.97528],[-93.36504,35.9733],[-93.36729,35.97396],[-93.37352,35.97324],[-93.37019,35.97552],[-93.36873,35.97806]]]},"properties":{"fire_id":"ufid:2025-ARBUP-000863","source_collection":"history-2025","source_objectid":48695,"incident_name":"Arrington Creek","mapped_acres":60.0,"mapped_acres_source":"poly_GISAcres","gis_acres":60.0,"auto_acres":51.05946465827781,"reported_acres":60.0,"percent_contained":null,"state":"AR","state_wfigs":"US-AR","county":"Newton","discovery_time_utc":"2025-03-27T19:30:00Z","perimeter_time_utc":"2025-11-20T20:08:41Z","perimeter_edit_time_utc":null,"incident_modified_time_utc":"2025-04-17T16:34:20Z","containment_time_utc":"2025-03-28T01:30:00Z","control_time_utc":"2025-03-30T00:00:00Z","fire_out_time_utc":"2025-04-04T16:30:00Z","fire_cause":"Human","fire_cause_general":"Debris and open burning","map_method":"Auto-generated for InFORM","source_dataset":"FFP","unique_fire_identifier":"2025-ARBUP-000863","irwin_id":"{575C5DBA-C0C3-4B43-BF5A-542C9B12F5D7}","global_id":"d5086c56-dbfe-46ce-be83-08b8c194a699"}},{"type":"Feature","geometry":{"type":"Polygon","coordinates":[[[-92.97747,35.96642],[-92.97549,35.96625],[-92.97374,35.96559],[-92.97404,35.96327],[-92.97526,35.96349],[-92.97719,35.96252],[-92.97976,35.96278],[-92.98115,35.96227],[-92.98217,35.96232],[-92.98279,35.96429],[-92.98013,35.96521],[-92.97932,35.96628],[-92.97747,35.96642]]]},"properties":{"fire_id":"ufid:2025-ARBUP-000559","source_collection":"history-2025","source_objectid":48696,"incident_name":"CAVE","mapped_acres":69.5,"mapped_acres_source":"poly_GISAcres","gis_acres":69.5,"auto_acres":64.2080035685198,"reported_acres":69.5,"percent_contained":null,"state":"AR","state_wfigs":"US-AR","county":"Newton","discovery_time_utc":"2025-03-14T21:19:50Z","perimeter_time_utc":"2025-11-20T20:20:32Z","perimeter_edit_time_utc":null,"incident_modified_time_utc":"2025-04-17T16:41:24Z","containment_time_utc":"2025-03-15T02:00:00Z","control_time_utc":"2025-03-15T04:00:00Z","fire_out_time_utc":"2025-04-04T16:00:00Z","fire_cause":"Human","fire_cause_general":"Undetermined","map_method":"Auto-generated for InFORM","source_dataset":"FFP","unique_fire_identifier":"2025-ARBUP-000559","irwin_id":"{31432126-147D-4D3F-A745-18BAA6D827D7}","global_id":"59bff466-a577-4512-8ce4-387bcd6d7855"}},{"type":"Feature","geometry":{"type":"Polygon","coordinates":[[[-93.19713,36.08415],[-93.19704,36.0834],[-93.19616,36.08294],[-93.19637,36.08272],[-93.19814,36.08274],[-93.19786,36.08358],[-93.19713,36.08415]]]},"properties":{"fire_id":"ufid:2025-ARBUP-000604","source_collection":"history-2025","source_objectid":48697,"incident_name":"North River Road","mapped_acres":3.5,"mapped_acres_source":"poly_GISAcres","gis_acres":3.5,"auto_acres":3.546333678879869,"reported_acres":3.5,"percent_contained":null,"state":"AR","state_wfigs":"US-AR","county":"Newton","discovery_time_utc":"2025-03-16T18:30:00Z","perimeter_time_utc":"2025-11-20T20:30:03Z","perimeter_edit_time_utc":null,"incident_modified_time_utc":"2025-04-17T16:42:53Z","containment_time_utc":"2025-03-17T01:30:00Z","control_time_utc":"2025-03-20T16:00:00Z","fire_out_time_utc":"2025-04-04T16:00:00Z","fire_cause":"Human","fire_cause_general":"Arson","map_method":"Auto-generated for InFORM","source_dataset":"FFP","unique_fire_identifier":"2025-ARBUP-000604","irwin_id":"{FB44A000-F8F8-4655-BA09-862D99C14E8F}","global_id":"f9f7548e-25d1-40b4-9887-1b63320af4b7"}},{"type":"Feature","geometry":{"type":"Polygon","coordinates":[[[-92.78446,36.05926],[-92.78085,36.06287],[-92.77918,36.06258],[-92.78429,36.05645],[-92.78639,36.05664],[-92.78624,36.05793],[-92.78446,36.05926]]]},"properties":{"fire_id":"ufid:2025-ARBUP-000727","source_collection":"history-2025","source_objectid":48698,"incident_name":"Crocket","mapped_acres":20.0,"mapped_acres_source":"poly_GISAcres","gis_acres":20.0,"auto_acres":37.19849646667314,"reported_acres":20.0,"percent_contained":null,"state":"AR","state_wfigs":"US-AR","county":"Searcy","discovery_time_utc":"2025-03-19T20:15:00Z","perimeter_time_utc":"2025-11-20T20:41:29Z","perimeter_edit_time_utc":null,"incident_modified_time_utc":"2025-04-17T16:38:49Z","containment_time_utc":"2025-03-20T02:00:00Z","control_time_utc":"2025-03-20T15:00:00Z","fire_out_time_utc":"2025-04-04T16:00:00Z","fire_cause":"Human","fire_cause_general":"Other causes","map_method":"Auto-generated for InFORM","source_dataset":"FFP","unique_fire_identifier":"2025-ARBUP-000727","irwin_id":"{92386D30-08E7-4115-A561-BBFB8D72523C}","global_id":"bacb18c3-2025-4639-a44c-a4b2195d27e4"}},{"type":"Feature","geometry":{"type":"Polygon","coordinates":[[[-92.65669,35.99032],[-92.65512,35.98979],[-92.65466,35.98847],[-92.65557,35.98801],[-92.65657,35.9881],[-92.65781,35.98792],[-92.6578,35.98835],[-92.65715,35.98972],[-92.65669,35.99032]]]},"properties":{"fire_id":"ufid:2025-ARBUP-000818","source_collection":"history-2025","source_objectid":48699,"incident_name":"Rattlesnake","mapped_acres":15.0,"mapped_acres_source":"poly_GISAcres","gis_acres":15.0,"auto_acres":12.40083305065541,"reported_acres":15.0,"percent_contained":null,"state":"AR","state_wfigs":"US-AR","county":"Searcy","discovery_time_utc":"2025-03-09T20:00:00Z","perimeter_time_utc":"2025-11-20T20:49:25Z","perimeter_edit_time_utc":null,"incident_modified_time_utc":"2025-04-17T16:35:40Z","containment_time_utc":"2025-03-10T00:00:00Z","control_time_utc":"2025-03-14T16:00:00Z","fire_out_time_utc":"2025-04-04T16:00:00Z","fire_cause":"Human","fire_cause_general":"Undetermined","map_method":"Auto-generated for InFORM","source_dataset":"FFP","unique_fire_identifier":"2025-ARBUP-000818","irwin_id":"{D903D9B0-8AA1-4D1C-83C4-993872DDB888}","global_id":"e91bfd98-78b6-48b9-9049-e3c7b4d98407"}},{"type":"Feature","geometry":{"type":"Polygon","coordinates":[[[-94.05709,36.44442],[-94.05678,36.44437],[-94.05676,36.444],[-94.05713,36.444],[-94.05709,36.44442]]]},"properties":{"fire_id":"ufid:2025-ARPEP-001624","source_collection":"history-2025","source_objectid":48701,"incident_name":"Leetown Battlefield","mapped_acres":0.5,"mapped_acres_source":"poly_GISAcres","gis_acres":0.5,"auto_acres":0.3276252243889284,"reported_acres":0.5,"percent_contained":null,"state":"AR","state_wfigs":"US-AR","county":"Benton","discovery_time_utc":"2025-08-07T18:00:00Z","perimeter_time_utc":"2025-11-20T21:07:27Z","perimeter_edit_time_utc":null,"incident_modified_time_utc":"2025-09-10T14:51:13Z","containment_time_utc":"2025-08-07T18:15:00Z","control_time_utc":"2025-08-11T17:00:00Z","fire_out_time_utc":"2025-08-15T17:00:00Z","fire_cause":"Human","fire_cause_general":"Equipment and vehicle use","map_method":"Auto-generated for InFORM","source_dataset":"FFP","unique_fire_identifier":"2025-ARPEP-001624","irwin_id":"{80244543-C426-4014-9F77-4173A1DDDEA7}","global_id":"f4fd9189-10f4-4af8-9a69-2ede75a7ae68"}},{"type":"Feature","geometry":{"type":"Polygon","coordinates":[[[-92.59891,36.11124],[-92.59799,36.11152],[-92.59772,36.11116],[-92.5978,36.11076],[-92.59835,36.11084],[-92.59887,36.11076],[-92.59891,36.11124]]]},"properties":{"fire_id":"ufid:2025-AROZF-002054","source_collection":"history-2025","source_objectid":48702,"incident_name":"Big Flat State Assist","mapped_acres":71.3,"mapped_acres_source":"poly_GISAcres","gis_acres":71.3,"auto_acres":1.5064346926105925,"reported_acres":71.3,"percent_contained":null,"state":"AR","state_wfigs":"US-AR","county":"Searcy","discovery_time_utc":"2025-09-16T22:39:33Z","perimeter_time_utc":"2025-11-20T21:03:21Z","perimeter_edit_time_utc":null,"incident_modified_time_utc":"2025-09-17T02:09:21Z","containment_time_utc":"2025-09-17T02:00:00Z","control_time_utc":null,"fire_out_time_utc":null,"fire_cause":"Human","fire_cause_general":"Undetermined","map_method":"Auto-generated for InFORM","source_dataset":"FFP","unique_fire_identifier":"2025-AROZF-002054","irwin_id":"{D423ECAC-22F7-4D77-8DF1-A5B6F5A75B42}","global_id":"8c389e4b-7663-437b-a2ef-d5b5c988ab3d"}},{"type":"Feature","geometry":{"type":"Polygon","coordinates":[[[-92.50534,36.10086],[-92.50454,36.10191],[-92.50378,36.10205],[-92.50381,36.10028],[-92.50403,36.0998],[-92.50487,36.09996],[-92.50532,36.10054],[-92.50534,36.10086]]]},"properties":{"fire_id":"ufid:2025-ARBUP-000283","source_collection":"history-2025","source_objectid":48706,"incident_name":"Brantley","mapped_acres":6.28,"mapped_acres_source":"poly_GISAcres","gis_acres":6.28,"auto_acres":6.277271458964918,"reported_acres":6.5,"percent_contained":null,"state":"AR","state_wfigs":"US-AR","county":"Marion","discovery_time_utc":"2025-02-28T14:00:00Z","perimeter_time_utc":"2025-11-20T21:35:23Z","perimeter_edit_time_utc":null,"incident_modified_time_utc":"2025-11-20T19:52:09Z","containment_time_utc":"2025-02-28T14:45:00Z","control_time_utc":"2025-02-28T16:30:00Z","fire_out_time_utc":"2025-04-04T16:00:00Z","fire_cause":"Human","fire_cause_general":"Arson","map_method":"Hand Sketch","source_dataset":"FFP","unique_fire_identifier":"2025-ARBUP-000283","irwin_id":"{6CFCA9EA-0E5B-41D6-9C7E-EE534C93B271}","global_id":"d4560eef-f239-413f-8d61-40c6f42b4f66"}},{"type":"Feature","geometry":{"type":"Polygon","coordinates":[[[-92.80651,35.95981],[-92.80621,35.95925],[-92.8065,35.95906],[-92.80713,35.95974],[-92.80651,35.95981]]]},"properties":{"fire_id":"ufid:2025-ARBUP-002361","source_collection":"history-2025","source_objectid":48774,"incident_name":"Peter Cave","mapped_acres":0.1,"mapped_acres_source":"poly_GISAcres","gis_acres":0.1,"auto_acres":0.848088160083508,"reported_acres":13.67,"percent_contained":null,"state":"AR","state_wfigs":"US-AR","county":"Searcy","discovery_time_utc":"2025-11-15T15:00:00Z","perimeter_time_utc":"2025-11-24T19:50:10Z","perimeter_edit_time_utc":null,"incident_modified_time_utc":"2025-11-24T17:38:39Z","containment_time_utc":"2025-11-15T22:10:00Z","control_time_utc":"2025-11-17T19:45:00Z","fire_out_time_utc":"2025-11-24T17:00:00Z","fire_cause":"Human","fire_cause_general":"Debris and open burning","map_method":"Auto-generated for InFORM","source_dataset":"FFP","unique_fire_identifier":"2025-ARBUP-002361","irwin_id":"{DF499763-B1D5-4B5F-9831-83BB89900125}","global_id":"9915a86c-3e70-43b6-a4b3-ca8e13e8cf24"}},{"type":"Feature","geometry":{"type":"Polygon","coordinates":[[[-92.8874,35.66695],[-92.88809,35.66699],[-92.88824,35.6669],[-92.88844,35.66707],[-92.88875,35.66707],[-92.88896,35.66744],[-92.88919,35.66752],[-92.8894,35.66789],[-92.88938,35.66818],[-92.88961,35.66886],[-92.89021,35.66963],[-92.88999,35.67024],[-92.88964,35.6704],[-92.88986,35.67128],[-92.88962,35.67185],[-92.8894,35.67213],[-92.88899,35.67227],[-92.88856,35.67266],[-92.8885,35.67336],[-92.88805,35.67365],[-92.88733,35.67374],[-92.88625,35.6735],[-92.88545,35.67303],[-92.88522,35.67308],[-92.88444,35.67257],[-92.8846,35.67242],[-92.8845,35.67206],[-92.88397,35.67202],[-92.88368,35.67165],[-92.88386,35.67079],[-92.88407,35.67068],[-92.88401,35.67038],[-92.88465,35.67029],[-92.88446,35.66959],[-92.88497,35.66935],[-92.88556,35.66936],[-92.885805,35.669517],[-92.88584,35.66915],[-92.88623,35.66902],[-92.88614,35.66849],[-92.8865,35.66833],[-92.88644,35.66815],[-92.88655,35.66809],[-92.88697,35.66804],[-92.88704,35.66719],[-92.8874,35.66695]],[[-92.88581,35.669534],[-92.8858,35.66987],[-92.88593,35.67],[-92.88581,35.669534]]]},"properties":{"fire_id":"ufid:2025-AROZF-002412","source_collection":"history-2025","source_objectid":48782,"incident_name":"North Star","mapped_acres":67.0,"mapped_acres_source":"poly_GISAcres","gis_acres":67.0,"auto_acres":68.8022451852831,"reported_acres":67.0,"percent_contained":null,"state":"AR","state_wfigs":"US-AR","county":"Pope","discovery_time_utc":"2025-11-19T14:28:24Z","perimeter_time_utc":"2025-11-25T13:30:49Z","perimeter_edit_time_utc":null,"incident_modified_time_utc":"2025-11-19T22:22:29Z","containment_time_utc":"2025-11-19T21:00:00Z","control_time_utc":null,"fire_out_time_utc":null,"fire_cause":"Undetermined","fire_cause_general":"Undetermined","map_method":"Auto-generated for InFORM","source_dataset":"FFP","unique_fire_identifier":"2025-AROZF-002412","irwin_id":"{ACF1C20E-E247-494E-A454-123CEA08952E}","global_id":"21e82e86-f0ad-49e5-a4d5-fd4bb3905f35"}},{"type":"Feature","geometry":{"type":"Polygon","coordinates":[[[-93.88274,35.79494],[-93.88252,35.79414],[-93.88212,35.79372],[-93.88181,35.79312],[-93.88168,35.79171],[-93.88182,35.79032],[-93.88216,35.78969],[-93.88245,35.78738],[-93.88277,35.78685],[-93.88255,35.78599],[-93.88273,35.78477],[-93.88298,35.78444],[-93.88336,35.78458],[-93.88387,35.78548],[-93.88435,35.7855],[-93.88472,35.78572],[-93.8853,35.78567],[-93.88551,35.78577],[-93.88649,35.78558],[-93.88673,35.78577],[-93.88722,35.78578],[-93.88736,35.78569],[-93.88754,35.78485],[-93.88776,35.78486],[-93.88788,35.78466],[-93.88808,35.78464],[-93.88904,35.7837],[-93.88935,35.78366],[-93.88998,35.78386],[-93.89113,35.78368],[-93.8919,35.78391],[-93.89239,35.78469],[-93.89246,35.78509],[-93.89327,35.78546],[-93.89342,35.78603],[-93.89376,35.78603],[-93.89387,35.78577],[-93.89417,35.78576],[-93.89442,35.78585],[-93.89477,35.78628],[-93.89471,35.78723],[-93.89498,35.78781],[-93.895,35.78832],[-93.89494,35.7886],[-93.89471,35.78879],[-93.89441,35.78974],[-93.89463,35.79021],[-93.895,35.79059],[-93.89477,35.7913],[-93.89736,35.79167],[-93.89817,35.79216],[-93.89802,35.79265],[-93.89705,35.79274],[-93.89648,35.79264],[-93.8963,35.79333],[-93.89538,35.794],[-93.89486,35.79398],[-93.89388,35.79428],[-93.8931,35.79429],[-93.89179,35.79459],[-93.89083,35.79416],[-93.89084,35.79498],[-93.88987,35.79552],[-93.88935,35.79539],[-93.8893,35.79508],[-93.88944,35.79462],[-93.88814,35.79437],[-93.88792,35.79418],[-93.8879,35.79399],[-93.88751,35.79387],[-93.88674,35.79427],[-93.8859,35.79432],[-93.88574,35.7945],[-93.88509,35.79441],[-93.88403,35.79481],[-93.88274,35.79494]]]},"properties":{"fire_id":"ufid:2025-AROZF-002388","source_collection":"history-2025","source_objectid":48965,"incident_name":"Boone Mountain","mapped_acres":313.0,"mapped_acres_source":"poly_GISAcres","gis_acres":313.0,"auto_acres":313.28537249360517,"reported_acres":313.0,"percent_contained":null,"state":"AR","state_wfigs":"US-AR","county":"Madison","discovery_time_utc":"2025-11-17T14:52:00Z","perimeter_time_utc":"2025-12-03T22:52:35Z","perimeter_edit_time_utc":null,"incident_modified_time_utc":"2025-12-03T17:31:09Z","containment_time_utc":"2025-11-18T01:51:00Z","control_time_utc":"2025-12-03T17:30:00Z","fire_out_time_utc":"2025-12-03T17:30:00Z","fire_cause":"Human","fire_cause_general":"Debris and open burning","map_method":"Mixed Methods","source_dataset":"FFP","unique_fire_identifier":"2025-AROZF-002388","irwin_id":"{AB9BC398-E137-4299-83AC-10639F68D0B6}","global_id":"96b2d9c0-67a6-4adc-9540-c5b14e6491ef"}},{"type":"Feature","geometry":{"type":"Polygon","coordinates":[[[-93.31942,35.60298],[-93.32101,35.60252],[-93.32135,35.60261],[-93.32195,35.60358],[-93.32203,35.60451],[-93.32392,35.60634],[-93.31987,35.61165],[-93.3153,35.6126],[-93.31514,35.61518],[-93.31281,35.61846],[-93.31131,35.61739],[-93.31126,35.61634],[-93.30319,35.61789],[-93.30281,35.61687],[-93.30348,35.61611],[-93.30483,35.61322],[-93.30626,35.61126],[-93.30644,35.6102],[-93.31383,35.60794],[-93.31563,35.60787],[-93.31674,35.60718],[-93.31706,35.60649],[-93.31628,35.60613],[-93.31631,35.60596],[-93.31747,35.60518],[-93.31741,35.60495],[-93.31764,35.6045],[-93.3181,35.60415],[-93.31815,35.60386],[-93.31879,35.60332],[-93.31885,35.60309],[-93.31898,35.6033],[-93.31926,35.60309],[-93.31901,35.60282],[-93.31942,35.60298]]]},"properties":{"fire_id":"ufid:2025-AROZF-002689","source_collection":"history-2025","source_objectid":50036,"incident_name":"White","mapped_acres":340.54,"mapped_acres_source":"poly_GISAcres","gis_acres":340.54,"auto_acres":340.53649677614806,"reported_acres":340.0,"percent_contained":null,"state":"AR","state_wfigs":"US-AR","county":"Johnson","discovery_time_utc":"2025-12-29T17:59:31Z","perimeter_time_utc":"2026-01-22T17:26:03Z","perimeter_edit_time_utc":null,"incident_modified_time_utc":"2026-01-08T14:13:52Z","containment_time_utc":"2025-12-30T22:45:00Z","control_time_utc":"2026-01-02T18:00:00Z","fire_out_time_utc":"2026-01-02T18:00:00Z","fire_cause":"Human","fire_cause_general":"Undetermined","map_method":"Hand Sketch","source_dataset":"FFP","unique_fire_identifier":"2025-AROZF-002689","irwin_id":"{E8A820C0-054A-44AE-BE0B-A03A534E9B07}","global_id":"c972dee2-808e-4401-b1b8-9aa5414e33b8"}},{"type":"Feature","geometry":{"type":"MultiPolygon","coordinates":[[[[-93.07394,35.54082],[-93.0751,35.54098],[-93.07527,35.54114],[-93.07519,35.54123],[-93.07533,35.54119],[-93.07586,35.54183],[-93.07587,35.54225],[-93.07607,35.54254],[-93.07588,35.54276],[-93.07543,35.54272],[-93.07514,35.54292],[-93.07556,35.54367],[-93.07533,35.5437],[-93.07533,35.54347],[-93.07418,35.54404],[-93.07382,35.54383],[-93.0738,35.54414],[-93.07352,35.54425],[-93.07356,35.54442],[-93.0733,35.54456],[-93.07307,35.5443],[-93.07333,35.54414],[-93.07296,35.54401],[-93.07281,35.54419],[-93.07259,35.54405],[-93.07243,35.5442],[-93.07247,35.54438],[-93.07196,35.54454],[-93.07108,35.54456],[-93.07087,35.54472],[-93.07041,35.54469],[-93.07019,35.54495],[-93.06978,35.54499],[-93.06967,35.54511],[-93.06926,35.54489],[-93.06914,35.5444],[-93.06899,35.54447],[-93.06902,35.54426],[-93.06974,35.54352],[-93.06971,35.5432],[-93.06997,35.54292],[-93.06977,35.54264],[-93.0699,35.54247],[-93.07071,35.5425],[-93.07085,35.54226],[-93.07101,35.54238],[-93.07109,35.54209],[-93.07174,35.54175],[-93.07229,35.54177],[-93.07254,35.5416],[-93.07249,35.54148],[-93.07282,35.54144],[-93.07293,35.54121],[-93.07352,35.54114],[-93.07357,35.54099],[-93.07371,35.54102],[-93.07394,35.54082]]],[[[-93.0735,35.54094],[-93.07352,35.54096],[-93.07352,35.54097],[-93.0735,35.54094]]],[[[-93.07515,35.54097],[-93.0751,35.54098],[-93.07512,35.54097],[-93.07515,35.54097]]],[[[-93.07353,35.54096],[-93.07357,35.54099],[-93.07352,35.54097],[-93.07353,35.54096]]],[[[-93.0691,35.54444],[-93.0691,35.54445],[-93.06908,35.54445],[-93.0691,35.54444]]]]},"properties":{"fire_id":"ufid:2025-AROZF-002658","source_collection":"history-2025","source_objectid":50296,"incident_name":"BP Smoke Check","mapped_acres":41.2,"mapped_acres_source":"poly_GISAcres","gis_acres":41.2,"auto_acres":41.260451222658446,"reported_acres":41.2,"percent_contained":null,"state":"AR","state_wfigs":"US-AR","county":"Pope","discovery_time_utc":"2025-12-27T20:58:44Z","perimeter_time_utc":"2026-01-15T20:05:04Z","perimeter_edit_time_utc":null,"incident_modified_time_utc":"2026-01-09T19:38:48Z","containment_time_utc":"2025-12-28T20:51:00Z","control_time_utc":"2026-01-02T19:00:00Z","fire_out_time_utc":"2026-01-09T19:30:00Z","fire_cause":"Undetermined","fire_cause_general":"Undetermined","map_method":"Auto-generated for InFORM","source_dataset":"FFP","unique_fire_identifier":"2025-AROZF-002658","irwin_id":"{6C9D9EE8-A521-4A4D-BBDD-C002AE6F345D}","global_id":"4944af53-107e-4181-93b3-52453f5fc730"}},{"type":"Feature","geometry":{"type":"Polygon","coordinates":[[[-92.57759,36.02881],[-92.57575,36.02721],[-92.57931,36.02232],[-92.58004,36.02142],[-92.58107,36.02062],[-92.58278,36.02079],[-92.58592,36.02142],[-92.58926,36.02177],[-92.58952,36.02336],[-92.59064,36.02399],[-92.59081,36.02485],[-92.59077,36.02586],[-92.58763,36.02853],[-92.58622,36.02954],[-92.58459,36.03041],[-92.58433,36.02964],[-92.58583,36.02885],[-92.5872,36.02767],[-92.58699,36.02617],[-92.58519,36.02458],[-92.58158,36.02416],[-92.5815,36.02458],[-92.58197,36.02503],[-92.58218,36.02624],[-92.58141,36.02704],[-92.57944,36.02857],[-92.57759,36.02881]]]},"properties":{"fire_id":"ufid:2025-ARBUP-002678","source_collection":"history-2025","source_objectid":51922,"incident_name":"Spring Creek","mapped_acres":171.34,"mapped_acres_source":"poly_GISAcres","gis_acres":171.34,"auto_acres":171.33713884177084,"reported_acres":203.78,"percent_contained":null,"state":"AR","state_wfigs":"US-AR","county":"Searcy","discovery_time_utc":"2025-12-28T20:00:00Z","perimeter_time_utc":"2026-04-01T18:27:26Z","perimeter_edit_time_utc":null,"incident_modified_time_utc":"2026-01-25T14:22:37Z","containment_time_utc":"2025-12-29T18:00:00Z","control_time_utc":"2025-12-30T18:00:00Z","fire_out_time_utc":"2025-12-31T18:00:00Z","fire_cause":"Human","fire_cause_general":"Arson","map_method":"Hand Sketch","source_dataset":"FFP","unique_fire_identifier":"2025-ARBUP-002678","irwin_id":"{09701BB8-B2C1-4CA1-A757-A3AA1592CF7F}","global_id":"45b768d2-2f6a-4a4b-81e4-3af4fcd05cd0"}},{"type":"Feature","geometry":{"type":"Polygon","coordinates":[[[-92.51433,36.09755],[-92.51555,36.09882],[-92.5134,36.10125],[-92.5129,36.10165],[-92.51007,36.10132],[-92.51001,36.10146],[-92.51024,36.10149],[-92.51039,36.10198],[-92.51009,36.10231],[-92.50891,36.10324],[-92.50842,36.10335],[-92.50803,36.1032],[-92.50782,36.10252],[-92.50866,36.10029],[-92.5093,36.09954],[-92.50999,36.09905],[-92.51099,36.09868],[-92.5121,36.09842],[-92.51269,36.09853],[-92.51324,36.09836],[-92.51433,36.09755]]]},"properties":{"fire_id":"ufid:2025-ARBUP-002519","source_collection":"history-2025","source_objectid":51923,"incident_name":"Lonely Hollow","mapped_acres":49.74,"mapped_acres_source":"poly_GISAcres","gis_acres":49.74,"auto_acres":49.74463966843531,"reported_acres":49.74,"percent_contained":null,"state":"AR","state_wfigs":"US-AR","county":"Marion","discovery_time_utc":"2025-12-12T08:30:00Z","perimeter_time_utc":"2026-04-01T18:36:50Z","perimeter_edit_time_utc":null,"incident_modified_time_utc":"2025-12-22T15:05:11Z","containment_time_utc":"2025-12-12T16:15:00Z","control_time_utc":"2025-12-15T18:00:00Z","fire_out_time_utc":"2025-12-19T18:00:00Z","fire_cause":"Human","fire_cause_general":"Arson","map_method":"Hand Sketch","source_dataset":"FFP","unique_fire_identifier":"2025-ARBUP-002519","irwin_id":"{E0E866B6-A0D5-422C-A70D-1533AF38384A}","global_id":"47a47334-e82d-4427-955b-13a1d8a6f67d"}},{"type":"Feature","geometry":{"type":"Polygon","coordinates":[[[-92.83228,36.01814],[-92.83243,36.01836],[-92.83202,36.01872],[-92.83177,36.01847],[-92.83228,36.01814]]]},"properties":{"fire_id":"ufid:2025-ARBUP-002716","source_collection":"history-2025","source_objectid":51926,"incident_name":"South Woolum","mapped_acres":0.43,"mapped_acres_source":"poly_GISAcres","gis_acres":0.43,"auto_acres":0.43292391409743464,"reported_acres":0.43,"percent_contained":null,"state":"AR","state_wfigs":"US-AR","county":"Searcy","discovery_time_utc":"2025-12-31T21:39:13Z","perimeter_time_utc":"2026-04-01T18:46:34Z","perimeter_edit_time_utc":null,"incident_modified_time_utc":"2026-01-25T14:24:39Z","containment_time_utc":"2025-12-31T21:41:00Z","control_time_utc":"2026-01-01T18:00:00Z","fire_out_time_utc":"2026-01-02T18:00:00Z","fire_cause":"Human","fire_cause_general":"Arson","map_method":"Hand Sketch","source_dataset":"FFP","unique_fire_identifier":"2025-ARBUP-002716","irwin_id":"{17EC4B64-B86E-4D55-8470-8EC3174424CB}","global_id":"900924c1-534f-42c7-b931-22d5c307011e"}},{"type":"Feature","geometry":{"type":"Polygon","coordinates":[[[-93.21579,36.07993],[-93.21577,36.08117],[-93.21552,36.08151],[-93.21342,36.08278],[-93.21164,36.082],[-93.20943,36.08139],[-93.2091,36.0812],[-93.2085,36.08033],[-93.20829,36.07929],[-93.20848,36.07893],[-93.20921,36.07873],[-93.21322,36.08077],[-93.21389,36.08087],[-93.21579,36.07993]]]},"properties":{"fire_id":"ufid:2025-ARBUP-002647","source_collection":"history-2025","source_objectid":51928,"incident_name":"Cove Creek","mapped_acres":36.46,"mapped_acres_source":"poly_GISAcres","gis_acres":36.46,"auto_acres":36.46138260073082,"reported_acres":36.46,"percent_contained":null,"state":"AR","state_wfigs":"US-AR","county":"Newton","discovery_time_utc":"2025-12-25T18:30:00Z","perimeter_time_utc":"2026-04-01T18:50:09Z","perimeter_edit_time_utc":null,"incident_modified_time_utc":"2026-01-25T14:20:41Z","containment_time_utc":"2025-12-27T21:15:00Z","control_time_utc":"2025-12-28T18:42:00Z","fire_out_time_utc":"2025-12-31T18:00:00Z","fire_cause":"Human","fire_cause_general":"Undetermined","map_method":"Hand Sketch","source_dataset":"FFP","unique_fire_identifier":"2025-ARBUP-002647","irwin_id":"{1A4C3280-51D5-420E-818B-42574FC42941}","global_id":"69a9f262-0d09-4b5f-a6ff-29d5db8f6c5c"}}]}
