{"type":"FeatureCollection","features":[{"type":"Feature","geometry":{"type":"Polygon","coordinates":[[[-77.05059,38.94238],[-77.05058,38.94229],[-77.05063,38.94231],[-77.05059,38.94238]]]},"properties":{"fire_id":"ufid:2025-DCRCP-250012","source_collection":"history-2025","source_objectid":46531,"incident_name":"Chimney Bench Fire","mapped_acres":0.01,"mapped_acres_source":"poly_GISAcres","gis_acres":0.01,"auto_acres":0.008751343122704295,"reported_acres":0.01,"percent_contained":null,"state":"DC","state_wfigs":"US-DC","county":"District of Columbia","discovery_time_utc":"2025-02-28T22:00:02Z","perimeter_time_utc":"2025-09-29T19:01:28Z","perimeter_edit_time_utc":null,"incident_modified_time_utc":"2025-04-14T20:17:56Z","containment_time_utc":null,"control_time_utc":null,"fire_out_time_utc":"2025-03-01T17:30:00Z","fire_cause":"Human","fire_cause_general":"Recreation and ceremony","map_method":"Hand Sketch","source_dataset":"FFP","unique_fire_identifier":"2025-DCRCP-250012","irwin_id":"{A142AC02-6CA0-4494-AC5C-F88919E0635B}","global_id":"85b941d1-f08d-42f5-afd2-0f1d0302b0f9"}},{"type":"Feature","geometry":{"type":"Polygon","coordinates":[[[-76.97583,38.85851],[-76.97606,38.85816],[-76.97637,38.85815],[-76.97638,38.85846],[-76.976,38.8584],[-76.97583,38.85851]]]},"properties":{"fire_id":"ufid:2025-DCNEP-250007","source_collection":"history-2025","source_objectid":47337,"incident_name":"Fort Ricketts","mapped_acres":0.24,"mapped_acres_source":"poly_GISAcres","gis_acres":0.24,"auto_acres":0.23583794061260843,"reported_acres":0.25,"percent_contained":null,"state":"DC","state_wfigs":"US-DC","county":"District of Columbia","discovery_time_utc":"2025-03-09T19:30:24Z","perimeter_time_utc":"2025-10-16T17:23:47Z","perimeter_edit_time_utc":null,"incident_modified_time_utc":"2025-03-11T14:04:58Z","containment_time_utc":null,"control_time_utc":null,"fire_out_time_utc":"2025-04-21T16:00:00Z","fire_cause":"Human","fire_cause_general":"Undetermined","map_method":"GPS-Walked","source_dataset":"FFP","unique_fire_identifier":"2025-DCNEP-250007","irwin_id":"{47AD782E-DD51-4874-B05A-41E352259F34}","global_id":"75be8106-b9dc-4078-a92c-27387d374c9a"}}]}
