{"type":"FeatureCollection","features":[{"type":"Feature","geometry":{"type":"Polygon","coordinates":[[[-85.00501,30.2627],[-85.004,30.2631],[-85.00367,30.26336],[-85.00327,30.2646],[-85.00276,30.26509],[-85.00104,30.26609],[-84.99904,30.26573],[-84.99835,30.26523],[-84.99786,30.26457],[-84.99787,30.2639],[-84.99872,30.26213],[-84.99862,30.2614],[-84.99891,30.26084],[-84.99934,30.26055],[-84.99935,30.26038],[-85.00018,30.25922],[-85.0007,30.25893],[-85.00157,30.25877],[-85.00246,30.25887],[-85.00243,30.25945],[-85.00329,30.25959],[-85.00406,30.26017],[-85.00422,30.26056],[-85.00508,30.26068],[-85.00501,30.2627]]]},"properties":{"fire_id":"ufid:2025-FLFNF-000436","source_collection":"history-2025","source_objectid":37028,"incident_name":"131","mapped_acres":92.9505806494813,"mapped_acres_source":"poly_GISAcres","gis_acres":92.9505806494813,"auto_acres":92.95025369963221,"reported_acres":41.0,"percent_contained":null,"state":"FL","state_wfigs":"US-FL","county":"Liberty","discovery_time_utc":"2025-02-12T22:06:46Z","perimeter_time_utc":"2025-02-13T00:06:50Z","perimeter_edit_time_utc":"2025-12-09T14:09:07Z","incident_modified_time_utc":"2025-06-26T13:58:23Z","containment_time_utc":"2025-02-20T05:00:00Z","control_time_utc":"2025-02-20T05:00:00Z","fire_out_time_utc":"2025-02-20T19:00:00Z","fire_cause":"Human","fire_cause_general":null,"map_method":"Digitized-Image","source_dataset":"2025 NIFS","unique_fire_identifier":"2025-FLFNF-000436","irwin_id":"{D43985B0-B309-4276-A4A2-95A50178E1DE}","global_id":"76be73bf-53da-4ff3-8f6c-d3ec4cc28849"}},{"type":"Feature","geometry":{"type":"Polygon","coordinates":[[[-85.00675,30.22194],[-85.00556,30.22077],[-85.00575,30.22071],[-85.00664,30.22113],[-85.00906,30.22273],[-85.01076,30.22301],[-85.0109,30.22296],[-85.01054,30.22232],[-85.01061,30.22186],[-85.01093,30.22113],[-85.01141,30.22101],[-85.01172,30.22136],[-85.01185,30.22283],[-85.01148,30.22309],[-85.01127,30.22342],[-85.00774,30.2258],[-85.0078,30.22439],[-85.00744,30.22305],[-85.00675,30.22194]]]},"properties":{"fire_id":"ufid:2025-FLFNF-000497","source_collection":"history-2025","source_objectid":37085,"incident_name":"Mary Branch","mapped_acres":27.70821922253035,"mapped_acres_source":"poly_GISAcres","gis_acres":27.70821922253035,"auto_acres":27.708121775243733,"reported_acres":23.0,"percent_contained":null,"state":"FL","state_wfigs":"US-FL","county":"Liberty","discovery_time_utc":"2025-02-17T20:42:40Z","perimeter_time_utc":"2025-02-17T23:13:34Z","perimeter_edit_time_utc":"2025-12-09T14:09:08Z","incident_modified_time_utc":"2025-06-26T14:19:08Z","containment_time_utc":"2025-03-10T13:00:00Z","control_time_utc":"2025-03-10T13:00:00Z","fire_out_time_utc":"2025-03-10T13:00:00Z","fire_cause":"Undetermined","fire_cause_general":null,"map_method":"GPS-Walked/Driven","source_dataset":"2025 NIFS","unique_fire_identifier":"2025-FLFNF-000497","irwin_id":"{F39A76FE-C633-4636-A91E-BAB53E5B21AE}","global_id":"583191a5-c4ef-4a83-96a1-bc59ae365e2e"}},{"type":"Feature","geometry":{"type":"Polygon","coordinates":[[[-85.02079,30.27249],[-85.0209,30.27338],[-85.02068,30.27399],[-85.02075,30.27417],[-85.02051,30.27442],[-85.0201,30.27453],[-85.02,30.27473],[-85.02014,30.27513],[-85.02007,30.27525],[-85.02044,30.27514],[-85.02075,30.27538],[-85.02077,30.27641],[-85.02066,30.27687],[-85.02024,30.27708],[-85.01986,30.27695],[-85.01984,30.27547],[-85.019,30.27559],[-85.01885,30.27355],[-85.01863,30.27233],[-85.01774,30.26972],[-85.01372,30.26277],[-85.01374,30.2626],[-85.0154,30.26288],[-85.01566,30.26304],[-85.01949,30.26877],[-85.01949,30.26925],[-85.01978,30.26971],[-85.01977,30.27004],[-85.01957,30.2704],[-85.0203,30.27146],[-85.0203,30.27185],[-85.0201,30.272],[-85.0201,30.27221],[-85.02032,30.27207],[-85.02062,30.2721],[-85.02079,30.27249]]]},"properties":{"fire_id":"ufid:2025-FLFNF-000432","source_collection":"history-2025","source_objectid":41193,"incident_name":"Kever","mapped_acres":68.12998,"mapped_acres_source":"poly_GISAcres","gis_acres":68.12998,"auto_acres":68.1297453309893,"reported_acres":68.13,"percent_contained":null,"state":"FL","state_wfigs":"US-FL","county":"Liberty","discovery_time_utc":"2025-02-12T18:59:12Z","perimeter_time_utc":"2025-06-26T15:05:54Z","perimeter_edit_time_utc":null,"incident_modified_time_utc":"2025-06-25T15:47:23Z","containment_time_utc":"2025-03-31T12:32:00Z","control_time_utc":"2025-03-31T12:32:00Z","fire_out_time_utc":"2025-03-31T12:32:00Z","fire_cause":"Human","fire_cause_general":"Debris and open burning","map_method":"Digitized-Image","source_dataset":"FFP","unique_fire_identifier":"2025-FLFNF-000432","irwin_id":"{62CF97EC-ED19-434D-B641-BC4AD74AE170}","global_id":"1ff61d40-d340-4c50-a0d1-e0745c751abd"}},{"type":"Feature","geometry":{"type":"MultiPolygon","coordinates":[[[[-85.00084,30.26334],[-85.00074,30.26305],[-85.00053,30.26308],[-85.00009,30.26261],[-85.00023,30.26237],[-85.00011,30.26206],[-85.00043,30.26195],[-85.00094,30.26208],[-85.00079,30.26269],[-85.00099,30.2625],[-85.00111,30.26271],[-85.00136,30.26269],[-85.0014,30.26291],[-85.00171,30.26306],[-85.00135,30.26307],[-85.00123,30.26325],[-85.00093,30.26317],[-85.00105,30.26343],[-85.00084,30.26334]]],[[[-85.00121,30.26589],[-85.00089,30.26593],[-85.00082,30.26571],[-85.00048,30.26557],[-85.00053,30.26526],[-85.00074,30.26511],[-85.0013,30.26512],[-85.00145,30.26531],[-85.00178,30.26527],[-85.00216,30.26547],[-85.002,30.26598],[-85.00149,30.26633],[-85.00141,30.26659],[-85.00092,30.26623],[-85.00121,30.26589]]]]},"properties":{"fire_id":"ufid:2025-FLFNF-002680","source_collection":"history-2025","source_objectid":49423,"incident_name":"131 2","mapped_acres":6.430861975222061,"mapped_acres_source":"poly_GISAcres","gis_acres":6.430861975222061,"auto_acres":6.430839362809407,"reported_acres":13.0,"percent_contained":null,"state":"FL","state_wfigs":"US-FL","county":"Liberty","discovery_time_utc":"2025-09-22T19:04:00Z","perimeter_time_utc":"2025-09-24T15:01:05Z","perimeter_edit_time_utc":"2025-12-12T13:06:22Z","incident_modified_time_utc":"2025-12-23T21:00:40Z","containment_time_utc":"2025-10-30T18:30:00Z","control_time_utc":"2025-10-30T18:30:00Z","fire_out_time_utc":"2025-12-22T20:00:00Z","fire_cause":"Human","fire_cause_general":null,"map_method":"Auto-generated for InFORM","source_dataset":"2025 NIFS","unique_fire_identifier":"2025-FLFNF-002680","irwin_id":"{B4D989CB-B1C9-4D1A-BFB0-EC53DAF0DFCC}","global_id":"acac9c25-79e7-4bc9-aff0-d9dab8439b73"}}]}
