{"type":"FeatureCollection","features":[{"type":"Feature","geometry":{"type":"Polygon","coordinates":[[[-83.68445,33.00644],[-83.68459,33.0059],[-83.68498,33.00582],[-83.68539,33.00553],[-83.68546,33.00509],[-83.68562,33.00515],[-83.6863,33.00491],[-83.68695,33.00437],[-83.68733,33.00436],[-83.6911,33.00861],[-83.69094,33.00884],[-83.691,33.00894],[-83.6906,33.00926],[-83.68978,33.0094],[-83.6892,33.00935],[-83.68905,33.00912],[-83.68864,33.00913],[-83.68806,33.00892],[-83.68749,33.00899],[-83.6871,33.00919],[-83.68618,33.00904],[-83.68576,33.00861],[-83.68547,33.00859],[-83.68511,33.00836],[-83.68484,33.00795],[-83.68476,33.00701],[-83.6844,33.00654],[-83.68422,33.00648],[-83.68445,33.00644]]]},"properties":{"fire_id":"ufid:2025-GAGAS-000048","source_collection":"history-2025","source_objectid":37344,"incident_name":"Georgia 18","mapped_acres":40.0,"mapped_acres_source":"poly_GISAcres","gis_acres":40.0,"auto_acres":51.05721289165438,"reported_acres":40.1,"percent_contained":null,"state":"GA","state_wfigs":"US-GA","county":"Jones","discovery_time_utc":"2025-03-03T22:49:40Z","perimeter_time_utc":"2025-03-06T19:06:55Z","perimeter_edit_time_utc":"2025-03-06T19:06:55Z","incident_modified_time_utc":"2025-03-04T03:08:08Z","containment_time_utc":"2025-03-04T02:00:00Z","control_time_utc":"2025-03-04T12:30:00Z","fire_out_time_utc":"2025-03-06T18:55:00Z","fire_cause":"Human","fire_cause_general":"Debris and open burning","map_method":"Auto-generated for InFORM","source_dataset":"FFP","unique_fire_identifier":"2025-GAGAS-000048","irwin_id":"{143BAF67-F8F0-4AFC-BF56-285819384AED}","global_id":"9a0bad7b-b32a-429b-8e64-cb27ba8dfeeb"}},{"type":"Feature","geometry":{"type":"Polygon","coordinates":[[[-84.10754,34.61734],[-84.10814,34.61766],[-84.10824,34.61787],[-84.10846,34.61781],[-84.10863,34.61791],[-84.10887,34.61831],[-84.10889,34.61881],[-84.10865,34.61923],[-84.10823,34.61948],[-84.10792,34.62005],[-84.10718,34.61991],[-84.10688,34.62],[-84.10659,34.62033],[-84.10611,34.62036],[-84.10577,34.61985],[-84.10578,34.61923],[-84.10624,34.61897],[-84.10658,34.61898],[-84.10708,34.61879],[-84.10743,34.61853],[-84.10746,34.6184],[-84.10727,34.61817],[-84.10732,34.61798],[-84.10711,34.61766],[-84.10725,34.61745],[-84.10754,34.61734]]]},"properties":{"fire_id":"ufid:2025-GACHF-000036","source_collection":"history-2025","source_objectid":38443,"incident_name":"Merrill","mapped_acres":16.0,"mapped_acres_source":"poly_GISAcres","gis_acres":16.0,"auto_acres":12.625820927127677,"reported_acres":16.0,"percent_contained":null,"state":"GA","state_wfigs":"US-GA","county":"Lumpkin","discovery_time_utc":"2025-02-28T20:17:27Z","perimeter_time_utc":"2025-04-11T17:16:45Z","perimeter_edit_time_utc":null,"incident_modified_time_utc":"2025-04-08T13:48:08Z","containment_time_utc":"2025-03-01T19:40:00Z","control_time_utc":"2025-03-09T17:00:00Z","fire_out_time_utc":"2025-03-14T17:05:00Z","fire_cause":"Human","fire_cause_general":"Undetermined","map_method":"Auto-generated for InFORM","source_dataset":"FFP","unique_fire_identifier":"2025-GACHF-000036","irwin_id":"{21F48270-9B9D-4BB4-81AF-5AF95859F10F}","global_id":"39417928-0c1d-4fd9-916b-185034ced15a"}},{"type":"Feature","geometry":{"type":"MultiPolygon","coordinates":[[[[-84.13663,34.76632],[-84.13643,34.76643],[-84.13645,34.76636],[-84.13663,34.76632]]],[[[-84.13631,34.76648],[-84.1363,34.76649],[-84.13632,34.76646],[-84.13631,34.76648]]],[[[-84.13631,34.76649],[-84.13631,34.76648],[-84.13632,34.76647],[-84.13631,34.76649]]],[[[-84.1363,34.7665],[-84.13629,34.76651],[-84.13624,34.76649],[-84.1363,34.7665]]],[[[-84.13853,34.76766],[-84.13901,34.76794],[-84.13928,34.76833],[-84.13932,34.76896],[-84.13972,34.76914],[-84.13987,34.7694],[-84.13958,34.7697],[-84.1399,34.77011],[-84.13962,34.77011],[-84.13934,34.77037],[-84.13907,34.77131],[-84.13878,34.77146],[-84.13886,34.77152],[-84.1385,34.772],[-84.13804,34.77201],[-84.13766,34.77245],[-84.13641,34.77206],[-84.1362,34.77212],[-84.13604,34.77243],[-84.13573,34.77209],[-84.13532,34.77215],[-84.13299,34.77126],[-84.13264,34.77105],[-84.13238,34.77078],[-84.13242,34.77065],[-84.13218,34.77057],[-84.13203,34.77032],[-84.13103,34.7702],[-84.13068,34.77],[-84.13073,34.76968],[-84.13057,34.76912],[-84.13046,34.76912],[-84.13079,34.7686],[-84.1315,34.76844],[-84.13389,34.7674],[-84.13503,34.76717],[-84.13608,34.76672],[-84.13643,34.76643],[-84.13642,34.76666],[-84.13672,34.76701],[-84.13693,34.76707],[-84.13721,34.76691],[-84.13792,34.76704],[-84.13853,34.76766]]],[[[-84.13605,34.7725],[-84.13602,34.7725],[-84.13604,34.77243],[-84.13605,34.7725]]],[[[-84.13609,34.77251],[-84.13605,34.7725],[-84.13615,34.7725],[-84.13609,34.77251]]],[[[-84.13085,34.7685],[-84.1309,34.76852],[-84.13089,34.76853],[-84.13085,34.7685]]],[[[-84.13089,34.76853],[-84.13082,34.76855],[-84.13084,34.76851],[-84.13089,34.76853]]],[[[-84.13079,34.7686],[-84.13079,34.76859],[-84.13082,34.76855],[-84.13079,34.7686]]],[[[-84.13053,34.76875],[-84.13055,34.76856],[-84.13081,34.76853],[-84.13053,34.76875]]],[[[-84.13056,34.76887],[-84.13052,34.76887],[-84.13058,34.7688],[-84.13056,34.76887]]],[[[-84.13533,34.77218],[-84.13523,34.77221],[-84.13532,34.77215],[-84.13533,34.77218]]]]},"properties":{"fire_id":"ufid:2025-GACHF-000093","source_collection":"history-2025","source_objectid":38444,"incident_name":"Woodeye","mapped_acres":90.0,"mapped_acres_source":"poly_GISAcres","gis_acres":90.0,"auto_acres":88.23002975531892,"reported_acres":90.0,"percent_contained":null,"state":"GA","state_wfigs":"US-GA","county":"Fannin","discovery_time_utc":"2025-03-27T20:46:00Z","perimeter_time_utc":"2025-04-11T17:14:51Z","perimeter_edit_time_utc":null,"incident_modified_time_utc":"2025-04-07T21:03:26Z","containment_time_utc":"2025-03-28T02:45:00Z","control_time_utc":"2025-04-07T21:00:00Z","fire_out_time_utc":"2025-04-07T21:00:00Z","fire_cause":"Human","fire_cause_general":"Undetermined","map_method":"Auto-generated for InFORM","source_dataset":"FFP","unique_fire_identifier":"2025-GACHF-000093","irwin_id":"{5C7462C1-0EE9-477B-87B7-B307FCCCF40F}","global_id":"c75d7161-7d4e-47d6-8a35-51127710aaa1"}},{"type":"Feature","geometry":{"type":"MultiPolygon","coordinates":[[[[-83.38049,34.55418],[-83.38021,34.55441],[-83.38005,34.55485],[-83.3798,34.55446],[-83.38033,34.55417],[-83.37953,34.55398],[-83.38049,34.55418]]],[[[-83.38011,34.55473],[-83.38012,34.55474],[-83.38012,34.55475],[-83.38011,34.55473]]]]},"properties":{"fire_id":"ufid:2025-GACHF-000019","source_collection":"history-2025","source_objectid":38445,"incident_name":"Hwy. 17 Bypass","mapped_acres":0.47944426806321794,"mapped_acres_source":"poly_Acres_AutoCalc_fallback","gis_acres":null,"auto_acres":0.47944426806321794,"reported_acres":0.5,"percent_contained":null,"state":"GA","state_wfigs":"US-GA","county":"Stephens","discovery_time_utc":"2025-02-07T16:06:48Z","perimeter_time_utc":"2025-04-11T17:18:39Z","perimeter_edit_time_utc":null,"incident_modified_time_utc":"2025-02-19T15:32:35Z","containment_time_utc":"2025-02-10T19:30:00Z","control_time_utc":"2025-02-10T19:30:00Z","fire_out_time_utc":"2025-02-11T16:30:00Z","fire_cause":"Human","fire_cause_general":"Equipment and vehicle use","map_method":"Mixed Methods","source_dataset":"FFP","unique_fire_identifier":"2025-GACHF-000019","irwin_id":"{5575DE02-7E97-444C-B738-9C42D664C7C1}","global_id":"40c8ffbf-0b65-4808-b51f-ff85732d28a6"}},{"type":"Feature","geometry":{"type":"Polygon","coordinates":[[[-83.5966,34.97759],[-83.59698,34.97767],[-83.59717,34.97804],[-83.59697,34.97852],[-83.59705,34.97897],[-83.59802,34.97952],[-83.59807,34.97985],[-83.59826,34.98005],[-83.59817,34.98085],[-83.59844,34.98143],[-83.59822,34.98169],[-83.59719,34.9815],[-83.59645,34.98099],[-83.59636,34.98018],[-83.59614,34.98001],[-83.59625,34.97942],[-83.59601,34.97918],[-83.59589,34.9787],[-83.59611,34.97847],[-83.59619,34.97806],[-83.5966,34.97759]]]},"properties":{"fire_id":"ufid:2025-GACHF-000116","source_collection":"history-2025","source_objectid":39113,"incident_name":"Rocky Knob","mapped_acres":6.0,"mapped_acres_source":"poly_GISAcres","gis_acres":6.0,"auto_acres":14.337153875927974,"reported_acres":6.0,"percent_contained":null,"state":"GA","state_wfigs":"US-GA","county":"Towns","discovery_time_utc":"2025-04-15T18:01:00Z","perimeter_time_utc":"2025-04-28T16:08:42Z","perimeter_edit_time_utc":null,"incident_modified_time_utc":"2025-04-18T16:11:43Z","containment_time_utc":"2025-04-15T23:40:00Z","control_time_utc":"2025-04-18T16:11:00Z","fire_out_time_utc":"2025-04-18T16:11:00Z","fire_cause":"Human","fire_cause_general":"Smoking","map_method":"Auto-generated for InFORM","source_dataset":"FFP","unique_fire_identifier":"2025-GACHF-000116","irwin_id":"{E702FF3D-06DA-4C2D-B8BD-4D6FA25F4FE6}","global_id":"37ddc3b5-63da-42be-91d3-aa058bdb0853"}},{"type":"Feature","geometry":{"type":"MultiPolygon","coordinates":[[[[-83.19043,34.98677],[-83.19177,34.98759],[-83.19193,34.98746],[-83.19239,34.98763],[-83.19252,34.9881],[-83.19304,34.98847],[-83.19307,34.98864],[-83.19284,34.98903],[-83.19297,34.98939],[-83.19179,34.98968],[-83.19115,34.9896],[-83.19117,34.98942],[-83.19104,34.98935],[-83.19018,34.98944],[-83.18935,34.9891],[-83.18898,34.98861],[-83.18892,34.98816],[-83.18909,34.98824],[-83.18936,34.98798],[-83.1892,34.98782],[-83.1893,34.98768],[-83.18918,34.98755],[-83.18932,34.9871],[-83.1895,34.98716],[-83.19015,34.98678],[-83.19043,34.98677]]],[[[-83.18892,34.98812],[-83.18892,34.98816],[-83.18885,34.98814],[-83.18892,34.98812]]],[[[-83.19163,34.98744],[-83.19162,34.98741],[-83.19164,34.98744],[-83.19163,34.98744]]]]},"properties":{"fire_id":"ufid:2025-GACHF-000034","source_collection":"history-2025","source_objectid":39245,"incident_name":"Talley Mill","mapped_acres":20.0907,"mapped_acres_source":"poly_GISAcres","gis_acres":20.0907,"auto_acres":20.090627024491255,"reported_acres":21.7,"percent_contained":null,"state":"GA","state_wfigs":"US-GA","county":"Rabun","discovery_time_utc":"2025-02-28T10:18:00Z","perimeter_time_utc":"2025-04-30T19:18:56Z","perimeter_edit_time_utc":null,"incident_modified_time_utc":"2025-03-06T13:49:43Z","containment_time_utc":"2025-02-28T21:16:00Z","control_time_utc":"2025-03-02T21:00:00Z","fire_out_time_utc":"2025-03-05T19:30:00Z","fire_cause":"Human","fire_cause_general":"Arson","map_method":"Auto-generated for InFORM","source_dataset":"FFP","unique_fire_identifier":"2025-GACHF-000034","irwin_id":"{F0118472-150B-464D-BE8A-2FADC924F1A2}","global_id":"9e5d6fd6-853b-4994-b5fb-b6b1dae41e9f"}},{"type":"Feature","geometry":{"type":"Polygon","coordinates":[[[-84.1061,34.73726],[-84.10626,34.73689],[-84.10602,34.73647],[-84.10635,34.73646],[-84.10639,34.73634],[-84.10587,34.73572],[-84.10576,34.73496],[-84.10606,34.73486],[-84.10615,34.73503],[-84.10704,34.7346],[-84.10774,34.73481],[-84.10767,34.73511],[-84.10816,34.73535],[-84.10837,34.73568],[-84.10809,34.73601],[-84.10812,34.73614],[-84.10752,34.73627],[-84.10768,34.73647],[-84.1075,34.737],[-84.10704,34.73726],[-84.10685,34.73752],[-84.10663,34.7376],[-84.10622,34.73751],[-84.1061,34.73726]]]},"properties":{"fire_id":"ufid:2025-GACHF-000122","source_collection":"history-2025","source_objectid":39350,"incident_name":"Browns Mill","mapped_acres":11.74,"mapped_acres_source":"poly_GISAcres","gis_acres":11.74,"auto_acres":11.74371922440027,"reported_acres":11.74,"percent_contained":null,"state":"GA","state_wfigs":"US-GA","county":"Fannin","discovery_time_utc":"2025-04-19T17:08:00Z","perimeter_time_utc":"2025-05-02T18:43:37Z","perimeter_edit_time_utc":null,"incident_modified_time_utc":"2025-05-02T18:43:11Z","containment_time_utc":"2025-04-19T23:51:00Z","control_time_utc":"2025-04-28T19:45:00Z","fire_out_time_utc":"2025-04-28T19:45:00Z","fire_cause":"Human","fire_cause_general":"Debris and open burning","map_method":"Auto-generated for InFORM","source_dataset":"FFP","unique_fire_identifier":"2025-GACHF-000122","irwin_id":"{B6A0EA0E-59DF-408C-948B-CCCC051508EB}","global_id":"61969ce9-6ec9-45e3-a7cf-86f5a2d76b76"}},{"type":"Feature","geometry":{"type":"MultiPolygon","coordinates":[[[[-83.70098,33.09623],[-83.701,33.09625],[-83.70098,33.09624],[-83.70098,33.09623]]],[[[-83.70096,33.09619],[-83.70098,33.09623],[-83.70093,33.09619],[-83.70096,33.09619]]],[[[-83.70225,33.09422],[-83.70405,33.09456],[-83.7044,33.095],[-83.70427,33.09524],[-83.70435,33.09532],[-83.70256,33.09593],[-83.70101,33.09622],[-83.70092,33.09606],[-83.70109,33.09565],[-83.70168,33.09515],[-83.70172,33.09472],[-83.70155,33.09449],[-83.70173,33.09432],[-83.70225,33.09422]]]]},"properties":{"fire_id":"ufid:2025-GAPDR-024005","source_collection":"history-2025","source_objectid":39453,"incident_name":"COMPARTMENT 21/22","mapped_acres":10.73,"mapped_acres_source":"poly_GISAcres","gis_acres":10.73,"auto_acres":10.72698691698989,"reported_acres":11.0,"percent_contained":null,"state":"GA","state_wfigs":"US-GA","county":"Jones","discovery_time_utc":"2025-03-22T17:12:00Z","perimeter_time_utc":"2025-05-05T19:43:45Z","perimeter_edit_time_utc":null,"incident_modified_time_utc":"2025-04-11T18:56:39Z","containment_time_utc":null,"control_time_utc":null,"fire_out_time_utc":"2025-04-01T16:00:00Z","fire_cause":"Human","fire_cause_general":"Equipment and vehicle use","map_method":"Hand Sketch","source_dataset":"FFP","unique_fire_identifier":"2025-GAPDR-024005","irwin_id":"{A6AC8488-5B80-4B0F-B1A0-398A55EE3608}","global_id":"cc24174c-f255-4af3-9515-ac86a1b8c400"}},{"type":"Feature","geometry":{"type":"Polygon","coordinates":[[[-83.73679,33.09685],[-83.73778,33.09697],[-83.73677,33.09689],[-83.73679,33.09685]]]},"properties":{"fire_id":"ufid:2025-GAPDR-024003","source_collection":"history-2025","source_objectid":39454,"incident_name":"COMPARTMENT 17","mapped_acres":0.08,"mapped_acres_source":"poly_GISAcres","gis_acres":0.08,"auto_acres":0.07892413360732482,"reported_acres":0.1,"percent_contained":null,"state":"GA","state_wfigs":"US-GA","county":"Jones","discovery_time_utc":"2025-03-22T17:10:00Z","perimeter_time_utc":"2025-11-15T19:54:38Z","perimeter_edit_time_utc":null,"incident_modified_time_utc":"2025-06-17T19:05:51Z","containment_time_utc":null,"control_time_utc":null,"fire_out_time_utc":"2025-04-01T16:00:00Z","fire_cause":"Human","fire_cause_general":"Undetermined","map_method":"Hand Sketch","source_dataset":"FFP","unique_fire_identifier":"2025-GAPDR-024003","irwin_id":"{B03210A0-D130-406C-8959-D5CF0728BB92}","global_id":"79d6c205-874d-48bf-b2b3-9e8a8bd1f2a2"}},{"type":"Feature","geometry":{"type":"MultiPolygon","coordinates":[[[[-83.66774,33.10436],[-83.66749,33.10462],[-83.66762,33.10475],[-83.6675,33.10507],[-83.66705,33.10542],[-83.66662,33.1055],[-83.66774,33.10436]]],[[[-83.66779,33.10432],[-83.66774,33.10436],[-83.66776,33.10432],[-83.66779,33.10432]]]]},"properties":{"fire_id":"ufid:2025-GAPDR-024006","source_collection":"history-2025","source_objectid":39455,"incident_name":"COMPARTMENT 25","mapped_acres":0.78,"mapped_acres_source":"poly_GISAcres","gis_acres":0.78,"auto_acres":0.7822593153542386,"reported_acres":0.1,"percent_contained":null,"state":"GA","state_wfigs":"US-GA","county":"Jones","discovery_time_utc":"2025-03-22T17:15:00Z","perimeter_time_utc":"2025-05-05T19:36:42Z","perimeter_edit_time_utc":null,"incident_modified_time_utc":"2025-04-11T18:50:11Z","containment_time_utc":"2025-03-22T21:00:00Z","control_time_utc":"2025-03-23T21:00:00Z","fire_out_time_utc":"2025-04-01T21:00:00Z","fire_cause":"Undetermined","fire_cause_general":"Undetermined","map_method":"Hand Sketch","source_dataset":"FFP","unique_fire_identifier":"2025-GAPDR-024006","irwin_id":"{7CA5870E-E75B-4922-B21B-C345ADE30CA1}","global_id":"55ab61c4-b8d2-40bc-8b49-90dbe3ed08ac"}},{"type":"Feature","geometry":{"type":"Polygon","coordinates":[[[-83.65037,33.11276],[-83.65209,33.1126],[-83.65281,33.11271],[-83.65333,33.1126],[-83.65389,33.11231],[-83.6541,33.11197],[-83.6545,33.112],[-83.65526,33.11133],[-83.65579,33.11115],[-83.6567,33.11168],[-83.65451,33.1136],[-83.65381,33.11388],[-83.65273,33.11408],[-83.65184,33.11384],[-83.65145,33.11389],[-83.6514,33.11382],[-83.65175,33.11381],[-83.65175,33.1137],[-83.65023,33.11302],[-83.65037,33.11276]]]},"properties":{"fire_id":"ufid:2025-GAPDR-024008","source_collection":"history-2025","source_objectid":39482,"incident_name":"COMPARTMENT 27.1","mapped_acres":19.47,"mapped_acres_source":"poly_GISAcres","gis_acres":19.47,"auto_acres":19.471746419732966,"reported_acres":19.47,"percent_contained":null,"state":"GA","state_wfigs":"US-GA","county":"Jones","discovery_time_utc":"2025-03-22T17:15:00Z","perimeter_time_utc":"2025-05-06T14:26:01Z","perimeter_edit_time_utc":null,"incident_modified_time_utc":"2025-04-11T20:26:42Z","containment_time_utc":null,"control_time_utc":null,"fire_out_time_utc":null,"fire_cause":"Human","fire_cause_general":"Undetermined","map_method":"Hand Sketch","source_dataset":"FFP","unique_fire_identifier":"2025-GAPDR-024008","irwin_id":"{FBFCD1CC-A143-4CF6-A087-DD73BAC6BD9F}","global_id":"b045d63c-123a-4aad-88f8-b722c07bb308"}},{"type":"Feature","geometry":{"type":"Polygon","coordinates":[[[-83.64196,33.11035],[-83.64305,33.10961],[-83.64298,33.1097],[-83.64316,33.10996],[-83.64399,33.11052],[-83.64422,33.11142],[-83.6449,33.1117],[-83.64519,33.1123],[-83.64067,33.11284],[-83.64018,33.11257],[-83.63932,33.11178],[-83.63933,33.1115],[-83.63964,33.11115],[-83.63976,33.11065],[-83.6399,33.11054],[-83.64066,33.11036],[-83.64153,33.11045],[-83.64196,33.11035]]]},"properties":{"fire_id":"ufid:2025-GAPDR-024007","source_collection":"history-2025","source_objectid":39501,"incident_name":"COMPARTMENT 27.2","mapped_acres":29.1,"mapped_acres_source":"poly_GISAcres","gis_acres":29.1,"auto_acres":29.1013996462966,"reported_acres":null,"percent_contained":null,"state":"GA","state_wfigs":"US-GA","county":"Jones","discovery_time_utc":"2025-03-24T17:05:00Z","perimeter_time_utc":"2025-04-01T16:00:00Z","perimeter_edit_time_utc":"2025-05-06T16:09:06Z","incident_modified_time_utc":"2025-05-06T16:09:27Z","containment_time_utc":null,"control_time_utc":null,"fire_out_time_utc":null,"fire_cause":null,"fire_cause_general":null,"map_method":"Hand Sketch","source_dataset":"2025 NIFS","unique_fire_identifier":"2025-GAPDR-024007","irwin_id":"{3EF19FD1-622E-41CA-BF6A-D915EB034D29}","global_id":"abe161e1-bdc7-418b-99bf-566c49e1e57e"}},{"type":"Feature","geometry":{"type":"Polygon","coordinates":[[[-83.31281,34.66644],[-83.31251,34.66623],[-83.31267,34.6659],[-83.31284,34.66584],[-83.31312,34.66606],[-83.31318,34.66631],[-83.31281,34.66644]]]},"properties":{"fire_id":"ufid:2025-GACHF-000075","source_collection":"history-2025","source_objectid":46148,"incident_name":"Yonah Dam","mapped_acres":0.7145281511804605,"mapped_acres_source":"poly_Acres_AutoCalc_fallback","gis_acres":null,"auto_acres":0.7145281511804605,"reported_acres":0.69,"percent_contained":null,"state":"GA","state_wfigs":"US-GA","county":"Stephens","discovery_time_utc":"2025-03-21T04:19:16Z","perimeter_time_utc":"2025-09-22T12:36:07Z","perimeter_edit_time_utc":null,"incident_modified_time_utc":"2025-05-02T15:11:10Z","containment_time_utc":null,"control_time_utc":"2025-03-30T14:46:00Z","fire_out_time_utc":"2025-03-30T14:46:00Z","fire_cause":"Undetermined","fire_cause_general":"Undetermined","map_method":"Mixed Methods","source_dataset":"FFP","unique_fire_identifier":"2025-GACHF-000075","irwin_id":"{08D0E565-D27D-40DB-8E67-DD120153808A}","global_id":"22981534-91b3-4c7d-b339-0eba8e0e179c"}},{"type":"Feature","geometry":{"type":"Polygon","coordinates":[[[-83.52949,34.79023],[-83.5294,34.78977],[-83.52961,34.78957],[-83.52957,34.78947],[-83.52925,34.78951],[-83.52892,34.78921],[-83.52809,34.7891],[-83.52772,34.78938],[-83.52741,34.78927],[-83.52701,34.78942],[-83.52673,34.78907],[-83.52688,34.78867],[-83.52705,34.78863],[-83.52702,34.7884],[-83.52731,34.78812],[-83.52745,34.78768],[-83.52783,34.78746],[-83.52771,34.78722],[-83.52788,34.78655],[-83.52777,34.78635],[-83.52882,34.7855],[-83.52919,34.78548],[-83.52932,34.78486],[-83.52957,34.78484],[-83.5295,34.78464],[-83.52991,34.78419],[-83.53001,34.78378],[-83.53047,34.78337],[-83.53115,34.78345],[-83.53152,34.78304],[-83.53165,34.78313],[-83.53193,34.78304],[-83.5321,34.78317],[-83.53211,34.78305],[-83.53249,34.78307],[-83.53281,34.78347],[-83.53297,34.78349],[-83.53317,34.78346],[-83.53348,34.78317],[-83.53377,34.78321],[-83.53439,34.78358],[-83.5353,34.78322],[-83.53575,34.78481],[-83.5362,34.78554],[-83.5368,34.78704],[-83.53678,34.78717],[-83.53605,34.78765],[-83.53621,34.78784],[-83.53607,34.788],[-83.53496,34.78799],[-83.53469,34.7886],[-83.5345,34.78954],[-83.53422,34.78974],[-83.53399,34.78969],[-83.53398,34.78941],[-83.53346,34.78929],[-83.53355,34.78923],[-83.53343,34.78887],[-83.53314,34.78895],[-83.5331,34.78928],[-83.5327,34.78921],[-83.53236,34.78953],[-83.53189,34.78962],[-83.5316,34.78989],[-83.53161,34.79006],[-83.53108,34.79004],[-83.53079,34.79023],[-83.53071,34.79015],[-83.53038,34.79025],[-83.53051,34.79045],[-83.53036,34.79062],[-83.52982,34.79052],[-83.52949,34.79023]]]},"properties":{"fire_id":"ufid:2025-GACHF-000114","source_collection":"history-2025","source_objectid":46160,"incident_name":"Crow Creek","mapped_acres":118.0,"mapped_acres_source":"poly_GISAcres","gis_acres":118.0,"auto_acres":117.83727022097644,"reported_acres":118.0,"percent_contained":null,"state":"GA","state_wfigs":"US-GA","county":"Rabun","discovery_time_utc":"2025-04-15T16:01:00Z","perimeter_time_utc":"2025-09-22T12:34:25Z","perimeter_edit_time_utc":null,"incident_modified_time_utc":"2025-05-13T19:38:15Z","containment_time_utc":"2025-04-16T22:35:00Z","control_time_utc":"2025-04-19T21:40:00Z","fire_out_time_utc":"2025-05-08T18:08:00Z","fire_cause":"Human","fire_cause_general":"Power generation / transmission / distribution","map_method":"Auto-generated for InFORM","source_dataset":"FFP","unique_fire_identifier":"2025-GACHF-000114","irwin_id":"{C537650A-A733-4525-86D3-AC32991FE46D}","global_id":"cc0a79d6-1c56-4471-b8f5-9a4e05419126"}},{"type":"Feature","geometry":{"type":"MultiPolygon","coordinates":[[[[-81.455577,30.874246],[-81.45529,30.87464],[-81.4556,30.87472],[-81.4558,30.87503],[-81.45551,30.87512],[-81.45544,30.87495],[-81.45523,30.87496],[-81.45505,30.87533],[-81.45535,30.87547],[-81.45552,30.87538],[-81.4556,30.87556],[-81.45585,30.87551],[-81.45577,30.87601],[-81.45619,30.87621],[-81.45589,30.87639],[-81.45582,30.87671],[-81.45613,30.87698],[-81.45615,30.87718],[-81.45593,30.87744],[-81.45625,30.87786],[-81.45628,30.87826],[-81.45597,30.87834],[-81.45592,30.87854],[-81.45559,30.87855],[-81.45548,30.87874],[-81.45516,30.87842],[-81.45418,30.87526],[-81.45494,30.87467],[-81.45517,30.87467],[-81.4551,30.8744],[-81.4554,30.87417],[-81.455577,30.874246]]],[[[-81.455577,30.874246],[-81.45564,30.87416],[-81.45561,30.87426],[-81.455577,30.874246]]]]},"properties":{"fire_id":"ufid:2025-GACIP-000136","source_collection":"history-2025","source_objectid":46379,"incident_name":"Ashley WF","mapped_acres":12.429263575358846,"mapped_acres_source":"poly_Acres_AutoCalc_fallback","gis_acres":null,"auto_acres":12.429263575358846,"reported_acres":12.0,"percent_contained":null,"state":"GA","state_wfigs":"US-GA","county":"Camden","discovery_time_utc":"2025-07-20T22:31:00Z","perimeter_time_utc":"2025-09-25T11:54:40Z","perimeter_edit_time_utc":null,"incident_modified_time_utc":"2025-09-04T12:16:21Z","containment_time_utc":"2025-08-03T17:40:00Z","control_time_utc":"2025-08-18T20:30:00Z","fire_out_time_utc":"2025-09-01T19:33:00Z","fire_cause":"Natural","fire_cause_general":"Natural","map_method":"Mixed Methods","source_dataset":"FFP","unique_fire_identifier":"2025-GACIP-000136","irwin_id":"{B57A6402-4D8D-4160-9B55-9979E2F9C1C3}","global_id":"726fd8a7-16a5-4297-af0d-5032ae8b67de"}},{"type":"Feature","geometry":{"type":"Polygon","coordinates":[[[-84.44043,33.88109],[-84.4402,33.88136],[-84.43979,33.88109],[-84.43984,33.88088],[-84.44002,33.88081],[-84.44033,33.88089],[-84.44043,33.88109]]]},"properties":{"fire_id":"ufid:2025-GACRP-000047","source_collection":"history-2025","source_objectid":46568,"incident_name":"Whitewater Fire","mapped_acres":0.6,"mapped_acres_source":"poly_GISAcres","gis_acres":0.6,"auto_acres":0.6158507967858116,"reported_acres":0.6,"percent_contained":null,"state":"GA","state_wfigs":"US-GA","county":"Fulton","discovery_time_utc":"2025-03-02T22:47:48Z","perimeter_time_utc":"2025-09-30T13:11:20Z","perimeter_edit_time_utc":null,"incident_modified_time_utc":"2025-03-05T12:55:02Z","containment_time_utc":"2025-03-05T13:00:00Z","control_time_utc":"2025-03-05T13:00:00Z","fire_out_time_utc":"2025-03-05T13:00:00Z","fire_cause":"Human","fire_cause_general":"Undetermined","map_method":"Mixed Methods","source_dataset":"FFP","unique_fire_identifier":"2025-GACRP-000047","irwin_id":"{A68063D8-10E3-4CAE-81FB-F0B70982B825}","global_id":"e414764e-6018-44d7-b8f2-dad342303f11"}},{"type":"Feature","geometry":{"type":"Polygon","coordinates":[[[-84.59124,33.96495],[-84.59066,33.96509],[-84.59058,33.96482],[-84.59106,33.96465],[-84.59124,33.96495]]]},"properties":{"fire_id":"ufid:2025-GAKEP-000027","source_collection":"history-2025","source_objectid":46590,"incident_name":"Pigeon","mapped_acres":0.5,"mapped_acres_source":"poly_GISAcres","gis_acres":0.5,"auto_acres":0.45739592006525437,"reported_acres":0.5,"percent_contained":null,"state":"GA","state_wfigs":"US-GA","county":"Cobb","discovery_time_utc":"2025-02-26T22:29:45Z","perimeter_time_utc":"2025-09-30T13:19:24Z","perimeter_edit_time_utc":null,"incident_modified_time_utc":"2025-03-05T13:13:37Z","containment_time_utc":"2025-02-27T14:00:00Z","control_time_utc":"2025-03-01T14:00:00Z","fire_out_time_utc":"2025-03-05T13:00:00Z","fire_cause":"Human","fire_cause_general":"Undetermined","map_method":"Auto-generated for InFORM","source_dataset":"FFP","unique_fire_identifier":"2025-GAKEP-000027","irwin_id":"{55133D14-8CF8-42DE-B6C1-CB51CEE5377E}","global_id":"793141d3-d2b5-456b-88ae-3360ed62acd4"}},{"type":"Feature","geometry":{"type":"Polygon","coordinates":[[[-83.30787,34.92097],[-83.30781,34.92333],[-83.30744,34.92449],[-83.30759,34.92502],[-83.30948,34.92719],[-83.31024,34.92761],[-83.31066,34.92824],[-83.31142,34.92881],[-83.31143,34.92929],[-83.31171,34.92957],[-83.31184,34.92995],[-83.3129,34.93065],[-83.31276,34.93111],[-83.31291,34.93145],[-83.31359,34.93187],[-83.31392,34.93192],[-83.3153,34.93183],[-83.31833,34.93193],[-83.31853,34.93197],[-83.31891,34.93241],[-83.31897,34.93284],[-83.31827,34.93337],[-83.31826,34.93387],[-83.3192,34.93487],[-83.31901,34.93574],[-83.31826,34.93648],[-83.31567,34.93796],[-83.31576,34.93834],[-83.31612,34.93887],[-83.31723,34.93958],[-83.31764,34.9405],[-83.31813,34.94102],[-83.31841,34.94152],[-83.31894,34.94323],[-83.31961,34.94388],[-83.32013,34.9442],[-83.32013,34.94475],[-83.31908,34.94496],[-83.31944,34.94537],[-83.31976,34.94548],[-83.31963,34.94572],[-83.31998,34.946],[-83.31967,34.9464],[-83.31888,34.94677],[-83.31889,34.94697],[-83.31874,34.94712],[-83.31836,34.94726],[-83.31801,34.94724],[-83.31776,34.9468],[-83.31744,34.94679],[-83.31744,34.94702],[-83.31719,34.94728],[-83.3174,34.9475],[-83.31727,34.94772],[-83.31662,34.94817],[-83.3166,34.94831],[-83.31617,34.94842],[-83.31615,34.94861],[-83.31594,34.94871],[-83.31628,34.94964],[-83.31603,34.94999],[-83.3152,34.94962],[-83.3153,34.94997],[-83.31584,34.95002],[-83.3166,34.95075],[-83.3165,34.95133],[-83.31607,34.95171],[-83.31575,34.9517],[-83.31565,34.95151],[-83.31531,34.95164],[-83.31521,34.95141],[-83.3151,34.95168],[-83.31494,34.95158],[-83.31452,34.95174],[-83.31459,34.95159],[-83.3144,34.95139],[-83.31426,34.95156],[-83.31399,34.95116],[-83.31433,34.95068],[-83.3143,34.95053],[-83.31414,34.95014],[-83.31389,34.95013],[-83.3135,34.9504],[-83.31287,34.95149],[-83.31235,34.95189],[-83.31233,34.95204],[-83.31181,34.95198],[-83.31204,34.95228],[-83.31171,34.95216],[-83.31137,34.95239],[-83.31068,34.95347],[-83.31038,34.95336],[-83.31021,34.95367],[-83.31044,34.95461],[-83.30994,34.95501],[-83.30979,34.9556],[-83.30953,34.9558],[-83.30964,34.95594],[-83.30954,34.95618],[-83.30947,34.95609],[-83.30846,34.95684],[-83.30788,34.95712],[-83.30695,34.95723],[-83.30657,34.95765],[-83.30597,34.95777],[-83.30539,34.95849],[-83.30523,34.95899],[-83.30531,34.95919],[-83.30467,34.95999],[-83.30337,34.96051],[-83.30244,34.96119],[-83.30242,34.96218],[-83.30268,34.96248],[-83.30276,34.96298],[-83.30252,34.96352],[-83.30208,34.96392],[-83.30157,34.96399],[-83.30127,34.96447],[-83.30081,34.96487],[-83.30033,34.96526],[-83.29995,34.96538],[-83.29996,34.96561],[-83.29953,34.96543],[-83.29946,34.96529],[-83.29906,34.96532],[-83.29841,34.96493],[-83.29663,34.96509],[-83.29453,34.9649],[-83.292,34.96456],[-83.29074,34.96417],[-83.28865,34.96515],[-83.28755,34.96521],[-83.28696,34.96482],[-83.28697,34.96423],[-83.28618,34.96477],[-83.2858,34.96527],[-83.28489,34.96853],[-83.28429,34.96863],[-83.28398,34.96796],[-83.28352,34.96832],[-83.28315,34.96884],[-83.28256,34.96865],[-83.28277,34.96847],[-83.28229,34.96829],[-83.28234,34.96812],[-83.28216,34.96819],[-83.2819,34.96803],[-83.28191,34.96821],[-83.28176,34.96814],[-83.28173,34.96825],[-83.28121,34.96831],[-83.28124,34.96812],[-83.28103,34.96807],[-83.28103,34.96834],[-83.28078,34.96844],[-83.2808,34.96859],[-83.28061,34.96878],[-83.2806,34.96911],[-83.28033,34.96901],[-83.28005,34.96918],[-83.28001,34.96934],[-83.28026,34.96948],[-83.2802,34.96963],[-83.2799,34.9696],[-83.27964,34.96923],[-83.27942,34.96933],[-83.2796,34.96956],[-83.27944,34.9697],[-83.27887,34.96947],[-83.27883,34.96925],[-83.27869,34.9693],[-83.27885,34.96898],[-83.27916,34.96893],[-83.27907,34.9687],[-83.27855,34.96893],[-83.27834,34.96872],[-83.27812,34.96888],[-83.27806,34.96862],[-83.27784,34.96863],[-83.27778,34.96883],[-83.27776,34.96872],[-83.2775,34.96885],[-83.27726,34.9686],[-83.27741,34.96809],[-83.27782,34.96791],[-83.27778,34.96774],[-83.27816,34.96753],[-83.27822,34.96728],[-83.27875,34.96714],[-83.27891,34.96688],[-83.27913,34.96704],[-83.27904,34.96689],[-83.27927,34.96681],[-83.27925,34.96656],[-83.2787,34.96665],[-83.27841,34.96653],[-83.2782,34.96677],[-83.2781,34.96665],[-83.27804,34.96679],[-83.27767,34.96672],[-83.27764,34.96694],[-83.27737,34.96705],[-83.27724,34.96679],[-83.27709,34.9668],[-83.27681,34.96693],[-83.27693,34.96712],[-83.27662,34.967],[-83.27669,34.96683],[-83.27653,34.96705],[-83.27637,34.96695],[-83.27631,34.96711],[-83.27655,34.96717],[-83.27631,34.96739],[-83.27628,34.96724],[-83.27605,34.96715],[-83.27581,34.96724],[-83.27592,34.96709],[-83.27577,34.96707],[-83.27601,34.96699],[-83.2758,34.96674],[-83.27566,34.96676],[-83.27575,34.96693],[-83.27544,34.96698],[-83.27555,34.96683],[-83.27538,34.96675],[-83.27587,34.96651],[-83.27571,34.9663],[-83.27596,34.96603],[-83.27642,34.96622],[-83.27653,34.96572],[-83.27641,34.96557],[-83.27623,34.96561],[-83.27601,34.96532],[-83.27649,34.96531],[-83.27659,34.96512],[-83.27652,34.9649],[-83.27628,34.96469],[-83.27581,34.96506],[-83.27564,34.96484],[-83.27585,34.96458],[-83.27565,34.96447],[-83.27563,34.9646],[-83.27548,34.96461],[-83.275,34.96423],[-83.27445,34.96415],[-83.27453,34.96406],[-83.27437,34.96397],[-83.27449,34.96369],[-83.27471,34.96345],[-83.27505,34.96345],[-83.2753,34.96321],[-83.27454,34.9631],[-83.2733,34.96208],[-83.27322,34.96184],[-83.2736,34.96134],[-83.27369,34.96099],[-83.27309,34.96055],[-83.27186,34.9586],[-83.27148,34.95846],[-83.27226,34.95724],[-83.27279,34.95694],[-83.27307,34.95633],[-83.27333,34.95539],[-83.27304,34.95398],[-83.27307,34.95344],[-83.27313,34.953],[-83.27339,34.95258],[-83.27377,34.95215],[-83.2747,34.95202],[-83.27573,34.9513],[-83.27605,34.95078],[-83.27712,34.95136],[-83.27738,34.95195],[-83.27797,34.95228],[-83.27811,34.95151],[-83.27836,34.95107],[-83.27891,34.95076],[-83.27912,34.95085],[-83.27916,34.95109],[-83.27953,34.95065],[-83.27944,34.94964],[-83.27968,34.9494],[-83.28137,34.94886],[-83.28211,34.94916],[-83.28141,34.94981],[-83.28083,34.95006],[-83.28082,34.95045],[-83.28123,34.95081],[-83.28239,34.95101],[-83.2831,34.95026],[-83.28334,34.94944],[-83.28316,34.94873],[-83.28251,34.948],[-83.28125,34.94818],[-83.28067,34.94792],[-83.28049,34.94741],[-83.28025,34.9473],[-83.28023,34.94713],[-83.28089,34.94645],[-83.28002,34.94536],[-83.28016,34.94502],[-83.28058,34.94476],[-83.28109,34.94471],[-83.28136,34.94491],[-83.28223,34.94477],[-83.28273,34.94452],[-83.28303,34.94414],[-83.28409,34.94376],[-83.28434,34.94338],[-83.28488,34.94331],[-83.28521,34.94287],[-83.28519,34.94235],[-83.28604,34.94284],[-83.28603,34.94322],[-83.28573,34.94366],[-83.28554,34.94435],[-83.28603,34.94457],[-83.28636,34.94439],[-83.28716,34.94426],[-83.28782,34.9445],[-83.28833,34.94449],[-83.28939,34.94503],[-83.29121,34.94447],[-83.2915,34.94482],[-83.29197,34.94501],[-83.29196,34.94521],[-83.2923,34.94538],[-83.29257,34.94485],[-83.29287,34.94457],[-83.29298,34.94463],[-83.29278,34.9449],[-83.29283,34.9455],[-83.29299,34.94561],[-83.29385,34.94482],[-83.29429,34.9448],[-83.29428,34.94444],[-83.29452,34.94441],[-83.29431,34.94378],[-83.29357,34.9437],[-83.29335,34.94354],[-83.29263,34.9417],[-83.29209,34.94117],[-83.29191,34.94076],[-83.29174,34.93938],[-83.29162,34.93898],[-83.29121,34.93841],[-83.29098,34.9373],[-83.29049,34.93693],[-83.28977,34.93566],[-83.28946,34.93462],[-83.28961,34.93336],[-83.28991,34.93274],[-83.28973,34.93246],[-83.28935,34.93228],[-83.28882,34.93151],[-83.28901,34.93111],[-83.28898,34.93083],[-83.28846,34.92984],[-83.28887,34.92982],[-83.28904,34.9296],[-83.2887,34.92841],[-83.28773,34.92803],[-83.2881,34.92715],[-83.28786,34.92678],[-83.28779,34.92615],[-83.28745,34.92635],[-83.28709,34.92681],[-83.28614,34.92645],[-83.286,34.92654],[-83.28637,34.92678],[-83.28579,34.92684],[-83.2857,34.92713],[-83.28531,34.92695],[-83.28493,34.92701],[-83.28464,34.92686],[-83.28398,34.92597],[-83.28369,34.92585],[-83.28285,34.92501],[-83.28091,34.92394],[-83.28041,34.92274],[-83.28,34.92116],[-83.28003,34.92087],[-83.27939,34.91989],[-83.27887,34.9195],[-83.27887,34.9193],[-83.27911,34.91896],[-83.27904,34.91878],[-83.28109,34.91735],[-83.28121,34.91704],[-83.28147,34.91701],[-83.28161,34.91731],[-83.28209,34.91734],[-83.28249,34.91668],[-83.28312,34.91663],[-83.28339,34.91645],[-83.28393,34.91663],[-83.28519,34.91659],[-83.28518,34.91705],[-83.2858,34.91724],[-83.28635,34.91696],[-83.28723,34.91688],[-83.28917,34.91704],[-83.28944,34.91745],[-83.28833,34.91836],[-83.28816,34.91927],[-83.28941,34.91934],[-83.28965,34.91968],[-83.29002,34.91965],[-83.29096,34.92033],[-83.29149,34.92053],[-83.29176,34.92088],[-83.29228,34.92122],[-83.2928,34.92208],[-83.29373,34.92306],[-83.29513,34.9231],[-83.29561,34.92333],[-83.2964,34.9234],[-83.29682,34.92362],[-83.29748,34.9243],[-83.29813,34.92456],[-83.29823,34.92414],[-83.29838,34.92411],[-83.29836,34.92391],[-83.29866,34.9237],[-83.29886,34.92299],[-83.29874,34.92241],[-83.29883,34.92233],[-83.29865,34.92194],[-83.29876,34.92158],[-83.29911,34.92122],[-83.30033,34.92114],[-83.30099,34.92071],[-83.30124,34.9207],[-83.30139,34.91998],[-83.30214,34.91954],[-83.30249,34.91974],[-83.30365,34.91981],[-83.30454,34.9201],[-83.30517,34.92075],[-83.30566,34.92009],[-83.3063,34.91994],[-83.30692,34.91939],[-83.30743,34.91925],[-83.3076,34.91981],[-83.30723,34.92055],[-83.30787,34.92097]]]},"properties":{"fire_id":"ufid:2025-GACHF-000079","source_collection":"history-2025","source_objectid":48335,"incident_name":"Big Ridge","mapped_acres":3434.376,"mapped_acres_source":"poly_GISAcres","gis_acres":3434.376,"auto_acres":3434.363913607232,"reported_acres":3434.0,"percent_contained":null,"state":"GA","state_wfigs":"US-GA","county":"Rabun","discovery_time_utc":"2025-03-22T18:06:00Z","perimeter_time_utc":"2025-11-07T14:08:06Z","perimeter_edit_time_utc":null,"incident_modified_time_utc":"2025-11-06T14:18:47Z","containment_time_utc":null,"control_time_utc":null,"fire_out_time_utc":"2025-05-08T18:00:00Z","fire_cause":"Human","fire_cause_general":"Firearms and explosives use","map_method":"Mixed Methods","source_dataset":"FFP","unique_fire_identifier":"2025-GACHF-000079","irwin_id":"{B7528AB7-A466-4ED7-9725-8B8F64C9EA26}","global_id":"138dcd09-e115-46c4-b0ad-e810a503acc0"}},{"type":"Feature","geometry":{"type":"Polygon","coordinates":[[[-83.49043,34.93003],[-83.49099,34.93024],[-83.49133,34.93016],[-83.49159,34.93063],[-83.49142,34.93123],[-83.49154,34.93135],[-83.49129,34.93178],[-83.48992,34.93196],[-83.4892,34.93158],[-83.48885,34.93107],[-83.48938,34.93055],[-83.48978,34.93039],[-83.4898,34.93023],[-83.4901,34.93026],[-83.49043,34.93003]]]},"properties":{"fire_id":"ufid:2025-GACHF-000081","source_collection":"history-2025","source_objectid":48336,"incident_name":"Howard Mtn","mapped_acres":9.22,"mapped_acres_source":"poly_GISAcres","gis_acres":9.22,"auto_acres":9.217430502433668,"reported_acres":9.22,"percent_contained":null,"state":"GA","state_wfigs":"US-GA","county":"Rabun","discovery_time_utc":"2025-03-22T20:52:00Z","perimeter_time_utc":"2025-11-07T14:07:35Z","perimeter_edit_time_utc":null,"incident_modified_time_utc":"2025-11-04T16:15:34Z","containment_time_utc":"2025-03-23T21:44:00Z","control_time_utc":"2025-04-01T19:42:00Z","fire_out_time_utc":"2025-04-01T19:43:00Z","fire_cause":"Human","fire_cause_general":"Undetermined","map_method":"Auto-generated for InFORM","source_dataset":"FFP","unique_fire_identifier":"2025-GACHF-000081","irwin_id":"{0BF20737-6D5D-4A68-92C2-0B46C9E7BBB5}","global_id":"14d02b4f-a198-46c3-8398-3d0aba9ec0fc"}},{"type":"Feature","geometry":{"type":"Polygon","coordinates":[[[-83.16554,34.94681],[-83.16508,34.94641],[-83.16472,34.94643],[-83.16438,34.94692],[-83.16351,34.94696],[-83.16317,34.94714],[-83.16257,34.94711],[-83.16242,34.94728],[-83.16244,34.94764],[-83.16101,34.94796],[-83.16023,34.94859],[-83.15982,34.94877],[-83.15816,34.94901],[-83.15737,34.94958],[-83.15725,34.95047],[-83.1566,34.95087],[-83.15594,34.95216],[-83.15531,34.95245],[-83.15483,34.95291],[-83.15458,34.95278],[-83.1548,34.9526],[-83.15486,34.95204],[-83.15514,34.95171],[-83.15493,34.95124],[-83.15493,34.9509],[-83.15542,34.95069],[-83.15556,34.95049],[-83.15571,34.95004],[-83.15572,34.94923],[-83.15648,34.94824],[-83.15636,34.94772],[-83.1574,34.94692],[-83.15775,34.94683],[-83.15859,34.94715],[-83.15907,34.94685],[-83.1593,34.94628],[-83.15965,34.94614],[-83.16007,34.94562],[-83.16001,34.94528],[-83.15987,34.94519],[-83.15966,34.94409],[-83.15981,34.94373],[-83.16011,34.94355],[-83.16062,34.94284],[-83.1612,34.94271],[-83.16145,34.94286],[-83.16238,34.94234],[-83.16309,34.94238],[-83.1635,34.94219],[-83.16447,34.94216],[-83.16565,34.94143],[-83.16574,34.94163],[-83.16537,34.94221],[-83.16544,34.94265],[-83.16503,34.94317],[-83.16562,34.94368],[-83.16577,34.94428],[-83.16604,34.94442],[-83.16631,34.94436],[-83.16726,34.94375],[-83.16767,34.94386],[-83.16772,34.9441],[-83.16694,34.94535],[-83.16616,34.94596],[-83.16611,34.94669],[-83.16583,34.94685],[-83.16554,34.94681]]]},"properties":{"fire_id":"ufid:2025-GACHF-000077","source_collection":"history-2025","source_objectid":48338,"incident_name":"Oakey Top","mapped_acres":110.2745,"mapped_acres_source":"poly_GISAcres","gis_acres":110.2745,"auto_acres":110.27410140397018,"reported_acres":110.3,"percent_contained":null,"state":"GA","state_wfigs":"US-GA","county":"Rabun","discovery_time_utc":"2025-03-21T17:38:00Z","perimeter_time_utc":"2025-11-07T14:35:16Z","perimeter_edit_time_utc":null,"incident_modified_time_utc":"2025-03-25T22:50:05Z","containment_time_utc":"2025-03-23T22:01:00Z","control_time_utc":null,"fire_out_time_utc":"2025-04-10T14:00:00Z","fire_cause":"Human","fire_cause_general":"Undetermined","map_method":"Auto-generated","source_dataset":"FFP","unique_fire_identifier":"2025-GACHF-000077","irwin_id":"{39F0ED05-247C-4500-BDCD-31F5224F3092}","global_id":"25a113a1-4741-4c79-aac4-959e71c4294a"}},{"type":"Feature","geometry":{"type":"Polygon","coordinates":[[[-83.15355,34.95829],[-83.15184,34.95894],[-83.15139,34.95932],[-83.15025,34.95906],[-83.15008,34.95892],[-83.14838,34.95935],[-83.148,34.95927],[-83.14789,34.95911],[-83.14812,34.9585],[-83.14865,34.95812],[-83.14923,34.958],[-83.15033,34.95741],[-83.15084,34.95737],[-83.15127,34.95714],[-83.15176,34.95657],[-83.15221,34.95538],[-83.15257,34.95581],[-83.15285,34.95586],[-83.15312,34.95646],[-83.15348,34.95648],[-83.15373,34.95701],[-83.1537,34.95755],[-83.15381,34.95786],[-83.15395,34.95787],[-83.15355,34.95829]]]},"properties":{"fire_id":"ufid:2025-GACHF-000076","source_collection":"history-2025","source_objectid":48339,"incident_name":"Hicks","mapped_acres":26.36833,"mapped_acres_source":"poly_GISAcres","gis_acres":26.36833,"auto_acres":26.368236420981834,"reported_acres":28.0,"percent_contained":null,"state":"GA","state_wfigs":"US-GA","county":"Rabun","discovery_time_utc":"2025-03-21T17:20:00Z","perimeter_time_utc":"2025-11-07T14:36:39Z","perimeter_edit_time_utc":null,"incident_modified_time_utc":"2025-11-04T20:14:52Z","containment_time_utc":"2025-03-22T19:03:00Z","control_time_utc":"2025-04-09T12:00:00Z","fire_out_time_utc":"2025-04-09T12:01:00Z","fire_cause":"Human","fire_cause_general":"Undetermined","map_method":"Auto-generated","source_dataset":"FFP","unique_fire_identifier":"2025-GACHF-000076","irwin_id":"{B27B46F2-58E5-4A6C-812A-CE2FA93CE8FA}","global_id":"c02c3f7e-b8ed-4017-8a63-31127f7bd009"}},{"type":"Feature","geometry":{"type":"MultiPolygon","coordinates":[[[[-83.255564,34.878995],[-83.25529,34.88008],[-83.25436,34.88011],[-83.25403,34.88001],[-83.25238,34.88048],[-83.25228,34.88025],[-83.25248,34.88017],[-83.25274,34.88004],[-83.25315,34.87938],[-83.25392,34.8794],[-83.25387,34.87933],[-83.25428,34.87929],[-83.25452,34.87909],[-83.25465,34.8792],[-83.2548,34.87907],[-83.25528,34.87911],[-83.25531,34.879],[-83.255561,34.878971],[-83.25554,34.87875],[-83.25582,34.87881],[-83.255564,34.878995]]],[[[-83.25508,34.87905],[-83.25504,34.87906],[-83.25503,34.87905],[-83.25508,34.87905]]],[[[-83.25502,34.87906],[-83.25504,34.87906],[-83.25504,34.87907],[-83.25502,34.87906]]],[[[-83.25553,34.87939],[-83.25552,34.87941],[-83.25551,34.87941],[-83.25553,34.87939]]],[[[-83.25552,34.87942],[-83.25552,34.87941],[-83.25553,34.87942],[-83.25552,34.87942]]],[[[-83.25473,34.8801],[-83.2547,34.88011],[-83.25468,34.8801],[-83.25473,34.8801]]],[[[-83.25433,34.87916],[-83.25437,34.87917],[-83.25435,34.87918],[-83.25433,34.87916]]],[[[-83.25437,34.87918],[-83.25437,34.87917],[-83.25438,34.87917],[-83.25437,34.87918]]],[[[-83.25425,34.87921],[-83.25428,34.8792],[-83.25427,34.87924],[-83.25425,34.87921]]],[[[-83.25408,34.87924],[-83.25405,34.87926],[-83.25405,34.87923],[-83.25408,34.87924]]],[[[-83.25398,34.87927],[-83.25402,34.87926],[-83.25402,34.87927],[-83.25398,34.87927]]],[[[-83.25276,34.87992],[-83.25277,34.87992],[-83.25276,34.87993],[-83.25276,34.87992]]],[[[-83.25274,34.87995],[-83.25272,34.87993],[-83.25275,34.87993],[-83.25274,34.87995]]],[[[-83.25247,34.88013],[-83.25249,34.88014],[-83.25248,34.88015],[-83.25247,34.88013]]],[[[-83.25246,34.88016],[-83.25248,34.88016],[-83.25248,34.88017],[-83.25246,34.88016]]]]},"properties":{"fire_id":"ufid:2025-GAGAS-000149","source_collection":"history-2025","source_objectid":48508,"incident_name":"Maude-houck","mapped_acres":0.1,"mapped_acres_source":"poly_GISAcres","gis_acres":0.1,"auto_acres":6.02952548196245,"reported_acres":6.03,"percent_contained":null,"state":"GA","state_wfigs":"US-GA","county":"Rabun","discovery_time_utc":"2025-11-12T19:40:42Z","perimeter_time_utc":"2025-11-28T22:49:28Z","perimeter_edit_time_utc":null,"incident_modified_time_utc":"2025-11-13T14:40:03Z","containment_time_utc":"2025-11-13T00:44:00Z","control_time_utc":"2025-11-14T20:14:00Z","fire_out_time_utc":"2025-11-28T15:16:00Z","fire_cause":"Human","fire_cause_general":"Debris and open burning","map_method":"Auto-generated for InFORM","source_dataset":"FFP","unique_fire_identifier":"2025-GAGAS-000149","irwin_id":"{FB7DAF79-D5B3-4577-9478-A84DB3BAC59C}","global_id":"1e9fd986-cd26-4ecd-818f-c7a758046df7"}},{"type":"Feature","geometry":{"type":"Polygon","coordinates":[[[-84.67662,34.7464],[-84.67704,34.7479],[-84.67741,34.7484],[-84.67796,34.74883],[-84.67821,34.75023],[-84.67775,34.75049],[-84.67618,34.75082],[-84.67558,34.75075],[-84.67458,34.75095],[-84.67421,34.75091],[-84.67326,34.75068],[-84.67069,34.74967],[-84.6706,34.74891],[-84.67104,34.74792],[-84.67106,34.74753],[-84.67121,34.74746],[-84.67133,34.74705],[-84.6716,34.74687],[-84.67203,34.74675],[-84.67296,34.74717],[-84.67423,34.74682],[-84.67521,34.74713],[-84.67601,34.74699],[-84.6764,34.74673],[-84.67662,34.7464]]]},"properties":{"fire_id":"ufid:2025-GACHF-000157","source_collection":"history-2025","source_objectid":50806,"incident_name":"Peeples Lake","mapped_acres":62.23,"mapped_acres_source":"poly_GISAcres","gis_acres":62.23,"auto_acres":61.202996512767406,"reported_acres":61.0,"percent_contained":null,"state":"GA","state_wfigs":"US-GA","county":"Murray","discovery_time_utc":"2025-11-17T12:15:00Z","perimeter_time_utc":"2026-02-22T18:51:52Z","perimeter_edit_time_utc":null,"incident_modified_time_utc":"2025-11-28T17:14:14Z","containment_time_utc":"2025-11-17T20:20:00Z","control_time_utc":"2025-11-28T17:00:00Z","fire_out_time_utc":"2025-11-28T17:12:00Z","fire_cause":"Human","fire_cause_general":"Undetermined","map_method":"Hand Sketch","source_dataset":"FFP","unique_fire_identifier":"2025-GACHF-000157","irwin_id":"{C614F43B-94C7-4644-B06D-8DF8C6D9654A}","global_id":"415fed36-ff96-497e-91e5-e8f03b659e8a"}}]}
