{"type":"FeatureCollection","features":[{"type":"Feature","geometry":{"type":"Polygon","coordinates":[[[-155.29421,19.40471],[-155.29434,19.40441],[-155.2945,19.40438],[-155.29452,19.40465],[-155.29435,19.40478],[-155.29421,19.40471]]]},"properties":{"fire_id":"ufid:2025-HIHVP-000281","source_collection":"history-2025","source_objectid":39472,"incident_name":"WEST HALEMAUMAU","mapped_acres":0.1,"mapped_acres_source":"poly_GISAcres","gis_acres":0.1,"auto_acres":0.2928815612394167,"reported_acres":0.29,"percent_contained":null,"state":"HI","state_wfigs":"US-HI","county":"Hawaii","discovery_time_utc":"2025-04-04T02:00:00Z","perimeter_time_utc":"2025-05-05T23:02:50Z","perimeter_edit_time_utc":null,"incident_modified_time_utc":"2025-04-05T00:31:47Z","containment_time_utc":null,"control_time_utc":null,"fire_out_time_utc":"2025-05-05T22:00:00Z","fire_cause":"Natural","fire_cause_general":"Natural","map_method":"Auto-generated for InFORM","source_dataset":"FFP","unique_fire_identifier":"2025-HIHVP-000281","irwin_id":"{79FD2C21-8E6C-489F-A154-4E85B13133D3}","global_id":"2cca992d-3960-46a3-9049-a89b4b474d16"}},{"type":"Feature","geometry":{"type":"MultiPolygon","coordinates":[[[[-155.3286,19.94698],[-155.3286,19.94679],[-155.32837,19.94667],[-155.32841,19.94644],[-155.32861,19.94626],[-155.3286,19.94556],[-155.32887,19.94523],[-155.32872,19.9451],[-155.32878,19.94457],[-155.32866,19.94446],[-155.32888,19.94419],[-155.32882,19.94387],[-155.3291,19.94354],[-155.32922,19.94357],[-155.32935,19.9433],[-155.32936,19.9427],[-155.32881,19.94243],[-155.32971,19.94197],[-155.32979,19.94167],[-155.3302,19.94138],[-155.33034,19.94105],[-155.33009,19.94084],[-155.33005,19.94043],[-155.33026,19.94028],[-155.33035,19.94034],[-155.33057,19.94008],[-155.33085,19.94007],[-155.33123,19.93979],[-155.3322,19.93959],[-155.33228,19.93969],[-155.33202,19.94009],[-155.33217,19.94019],[-155.33269,19.94009],[-155.33302,19.94027],[-155.33356,19.94003],[-155.33335,19.93925],[-155.33346,19.93907],[-155.33338,19.93881],[-155.33377,19.93817],[-155.33381,19.93718],[-155.33431,19.93645],[-155.33392,19.93555],[-155.33468,19.93442],[-155.33487,19.93425],[-155.33536,19.93434],[-155.33544,19.93458],[-155.33633,19.93445],[-155.33638,19.93431],[-155.33603,19.93418],[-155.33623,19.93371],[-155.33663,19.93346],[-155.33693,19.9329],[-155.33827,19.9315],[-155.33891,19.93048],[-155.33956,19.93034],[-155.33998,19.93056],[-155.34018,19.93049],[-155.3404,19.92988],[-155.34083,19.92969],[-155.34131,19.92972],[-155.34216,19.92928],[-155.34249,19.92925],[-155.34316,19.92961],[-155.34317,19.92991],[-155.34275,19.93009],[-155.3428,19.9306],[-155.34268,19.93087],[-155.34292,19.93109],[-155.3429,19.9313],[-155.34233,19.93199],[-155.3423,19.93238],[-155.342,19.93276],[-155.34176,19.9336],[-155.34202,19.93431],[-155.34202,19.93479],[-155.34243,19.93483],[-155.34278,19.93512],[-155.34322,19.93519],[-155.34345,19.93546],[-155.34336,19.93619],[-155.34299,19.93677],[-155.34232,19.93688],[-155.34205,19.9367],[-155.34182,19.93695],[-155.34225,19.93741],[-155.34223,19.9379],[-155.34165,19.93907],[-155.34062,19.94061],[-155.34051,19.941],[-155.34056,19.94149],[-155.34011,19.942],[-155.34043,19.9422],[-155.34081,19.94205],[-155.34087,19.94224],[-155.34115,19.94211],[-155.34131,19.94221],[-155.34128,19.94201],[-155.34109,19.94189],[-155.34119,19.94175],[-155.34159,19.9417],[-155.34146,19.94087],[-155.34164,19.94051],[-155.34189,19.94058],[-155.342,19.94087],[-155.34226,19.94108],[-155.34235,19.94125],[-155.34218,19.94166],[-155.34266,19.94192],[-155.34268,19.94216],[-155.34208,19.94246],[-155.34183,19.94214],[-155.34142,19.94214],[-155.3414,19.94234],[-155.34184,19.94247],[-155.34176,19.94289],[-155.34135,19.94295],[-155.34144,19.94341],[-155.34076,19.94374],[-155.34047,19.94402],[-155.34025,19.944],[-155.34008,19.9444],[-155.33967,19.9445],[-155.33926,19.94497],[-155.33874,19.94498],[-155.33838,19.94576],[-155.33877,19.94614],[-155.33872,19.94621],[-155.33835,19.94617],[-155.33794,19.94665],[-155.33765,19.94668],[-155.33745,19.94694],[-155.33716,19.94693],[-155.337,19.94709],[-155.3366,19.94712],[-155.33645,19.94695],[-155.33608,19.94837],[-155.33575,19.9487],[-155.33527,19.94891],[-155.33495,19.94881],[-155.33469,19.94895],[-155.33431,19.94895],[-155.33388,19.94835],[-155.33343,19.94829],[-155.33307,19.94799],[-155.33282,19.94817],[-155.33257,19.94788],[-155.33261,19.9477],[-155.33229,19.94791],[-155.33187,19.94784],[-155.33129,19.94812],[-155.3313,19.94839],[-155.33156,19.94849],[-155.33122,19.94881],[-155.33098,19.94875],[-155.33138,19.94925],[-155.3313,19.94944],[-155.33141,19.94968],[-155.33127,19.95059],[-155.33099,19.95115],[-155.3308,19.95095],[-155.33041,19.95096],[-155.33019,19.95071],[-155.32998,19.95075],[-155.3295,19.95023],[-155.3292,19.95026],[-155.32896,19.94996],[-155.32892,19.94912],[-155.32844,19.94911],[-155.32817,19.94856],[-155.32777,19.94863],[-155.32781,19.9484],[-155.32813,19.9483],[-155.32788,19.94821],[-155.32775,19.94801],[-155.3282,19.94768],[-155.32827,19.94741],[-155.32846,19.94726],[-155.32839,19.94711],[-155.3286,19.94698]]],[[[-155.33932,19.94642],[-155.33958,19.94658],[-155.33937,19.94714],[-155.3389,19.94687],[-155.33892,19.94643],[-155.33932,19.94642]]]]},"properties":{"fire_id":"ufid:2025-HIHAR-001340","source_collection":"history-2025","source_objectid":45548,"incident_name":"OOKALA","mapped_acres":468.3721,"mapped_acres_source":"poly_GISAcres","gis_acres":468.3721,"auto_acres":468.05511294674096,"reported_acres":468.06,"percent_contained":null,"state":"HI","state_wfigs":"US-HI","county":"Hawaii","discovery_time_utc":"2025-09-06T02:00:00Z","perimeter_time_utc":"2025-11-21T20:23:27Z","perimeter_edit_time_utc":null,"incident_modified_time_utc":"2025-11-14T00:49:04Z","containment_time_utc":"2025-11-14T01:00:00Z","control_time_utc":"2025-11-21T00:00:00Z","fire_out_time_utc":null,"fire_cause":"Human","fire_cause_general":"Undetermined","map_method":"GPS-Walked","source_dataset":"FFP","unique_fire_identifier":"2025-HIHAR-001340","irwin_id":"{6DF49977-250B-4F4B-85B6-B6403AE4429F}","global_id":"6ff00973-df1c-4109-a937-a30bb649c832"}},{"type":"Feature","geometry":{"type":"Polygon","coordinates":[[[-155.26567,19.43141],[-155.26566,19.43117],[-155.26592,19.43136],[-155.26567,19.43141]]]},"properties":{"fire_id":"ufid:2025-HIHVP-000798","source_collection":"history-2025","source_objectid":45739,"incident_name":"STEAM VENTS","mapped_acres":0.227331,"mapped_acres_source":"poly_GISAcres","gis_acres":0.227331,"auto_acres":0.10733384373945001,"reported_acres":0.12,"percent_contained":null,"state":"HI","state_wfigs":"US-HI","county":"Hawaii","discovery_time_utc":"2025-07-11T00:40:00Z","perimeter_time_utc":"2025-09-11T17:47:00Z","perimeter_edit_time_utc":null,"incident_modified_time_utc":"2025-07-11T15:39:27Z","containment_time_utc":"2025-07-11T01:47:00Z","control_time_utc":null,"fire_out_time_utc":"2025-07-14T00:00:00Z","fire_cause":"Human","fire_cause_general":"Undetermined","map_method":"GPS-Walked","source_dataset":"FFP","unique_fire_identifier":"2025-HIHVP-000798","irwin_id":"{17F7CCED-89F6-4E88-958E-3DDBE71E0BF9}","global_id":"fa22825b-ff9c-48bc-bec4-fb9ebbe068f1"}},{"type":"Feature","geometry":{"type":"Polygon","coordinates":[[[-155.29604,19.4253],[-155.29605,19.42527],[-155.29606,19.42529],[-155.29604,19.4253]]]},"properties":{"fire_id":"ufid:2025-HIHVP-000843","source_collection":"history-2025","source_objectid":45781,"incident_name":"CAMPSITE 2","mapped_acres":0.1,"mapped_acres_source":"poly_GISAcres","gis_acres":0.1,"auto_acres":0.0008571563734859798,"reported_acres":0.01,"percent_contained":null,"state":"HI","state_wfigs":"US-HI","county":"Hawaii","discovery_time_utc":"2025-07-17T21:11:00Z","perimeter_time_utc":"2025-09-12T02:12:29Z","perimeter_edit_time_utc":null,"incident_modified_time_utc":"2025-07-17T22:08:04Z","containment_time_utc":null,"control_time_utc":null,"fire_out_time_utc":"2025-07-17T21:24:00Z","fire_cause":"Human","fire_cause_general":"Recreation and ceremony","map_method":"Auto-generated for InFORM","source_dataset":"FFP","unique_fire_identifier":"2025-HIHVP-000843","irwin_id":"{CB2F2475-E285-44C8-878B-82BF18913B19}","global_id":"c6799164-9216-4ca0-b2a5-450808258f14"}},{"type":"Feature","geometry":{"type":"Polygon","coordinates":[[[-155.24535,19.41998],[-155.24532,19.41996],[-155.24538,19.41996],[-155.24535,19.41998]]]},"properties":{"fire_id":"ufid:2025-HIHVP-001549","source_collection":"history-2025","source_objectid":47778,"incident_name":"IKI","mapped_acres":0.1,"mapped_acres_source":"poly_GISAcres","gis_acres":0.1,"auto_acres":0.0029494732632378614,"reported_acres":0.01,"percent_contained":null,"state":"HI","state_wfigs":"US-HI","county":"Hawaii","discovery_time_utc":"2025-10-22T06:31:00Z","perimeter_time_utc":"2025-10-23T20:40:27Z","perimeter_edit_time_utc":null,"incident_modified_time_utc":"2025-10-23T20:32:59Z","containment_time_utc":null,"control_time_utc":"2025-10-22T20:16:00Z","fire_out_time_utc":"2025-10-22T20:16:00Z","fire_cause":"Human","fire_cause_general":"Equipment and vehicle use","map_method":"Hand Sketch","source_dataset":"FFP","unique_fire_identifier":"2025-HIHVP-001549","irwin_id":"{3FEEA338-89CB-4D25-95E6-15DD92D70B58}","global_id":"d887a870-e3c0-459f-b44f-d577878385b3"}},{"type":"Feature","geometry":{"type":"Polygon","coordinates":[[[-155.35145,19.80447],[-155.34955,19.80213],[-155.34764,19.80227],[-155.34616,19.80198],[-155.34561,19.80221],[-155.3449,19.80224],[-155.34456,19.80212],[-155.34455,19.80177],[-155.34516,19.80072],[-155.34439,19.7998],[-155.3433,19.79905],[-155.34325,19.7987],[-155.34203,19.79818],[-155.34106,19.79794],[-155.34075,19.79848],[-155.34023,19.79886],[-155.33778,19.79873],[-155.33762,19.79733],[-155.33783,19.79529],[-155.33784,19.79271],[-155.33825,19.79213],[-155.33856,19.79137],[-155.33958,19.79011],[-155.34094,19.78795],[-155.34199,19.78663],[-155.34212,19.78595],[-155.34273,19.78462],[-155.34382,19.78356],[-155.34491,19.78302],[-155.34547,19.78247],[-155.34635,19.78016],[-155.34757,19.77903],[-155.34851,19.77864],[-155.34914,19.77874],[-155.34973,19.7783],[-155.3502,19.77708],[-155.35271,19.77456],[-155.35387,19.77308],[-155.35719,19.77037],[-155.35797,19.77],[-155.36416,19.77675],[-155.36549,19.77713],[-155.36713,19.77522],[-155.36822,19.77676],[-155.37014,19.77864],[-155.37026,19.77926],[-155.37082,19.78041],[-155.37078,19.78119],[-155.37094,19.78173],[-155.37183,19.78308],[-155.37232,19.78494],[-155.37308,19.78607],[-155.37134,19.79024],[-155.37095,19.7905],[-155.37037,19.79036],[-155.36969,19.79065],[-155.36843,19.79011],[-155.36678,19.78986],[-155.36653,19.79013],[-155.36649,19.79051],[-155.366,19.79089],[-155.36605,19.79141],[-155.36763,19.79203],[-155.36786,19.79287],[-155.3687,19.79306],[-155.36899,19.79334],[-155.36741,19.7948],[-155.36675,19.79602],[-155.36679,19.79682],[-155.36507,19.79768],[-155.36453,19.79819],[-155.36491,19.79912],[-155.36347,19.79963],[-155.36282,19.80071],[-155.36311,19.80193],[-155.36174,19.80243],[-155.36081,19.80243],[-155.36046,19.80299],[-155.35907,19.80335],[-155.3572,19.80282],[-155.35552,19.80304],[-155.35461,19.80519],[-155.35315,19.80573],[-155.35145,19.80447]]]},"properties":{"fire_id":"ufid:2025-HIHAR-001602","source_collection":"history-2025","source_objectid":48757,"incident_name":"MANA ROAD","mapped_acres":2127.021,"mapped_acres_source":"poly_GISAcres","gis_acres":2127.021,"auto_acres":2125.5212248726893,"reported_acres":2127.0,"percent_contained":null,"state":"HI","state_wfigs":"US-HI","county":"Hawaii","discovery_time_utc":"2025-11-07T20:15:00Z","perimeter_time_utc":"2025-11-21T23:07:50Z","perimeter_edit_time_utc":null,"incident_modified_time_utc":"2025-11-21T01:03:42Z","containment_time_utc":"2025-11-21T00:00:00Z","control_time_utc":"2025-11-21T19:00:00Z","fire_out_time_utc":null,"fire_cause":"Human","fire_cause_general":"Undetermined","map_method":"GPS-Flight","source_dataset":"FFP","unique_fire_identifier":"2025-HIHAR-001602","irwin_id":"{F24C7430-BD12-49F7-B305-9E5C4804E3E7}","global_id":"b876e36e-0dbf-4835-9ec7-4511b971f454"}}]}
