{"type":"FeatureCollection","features":[{"type":"Feature","geometry":{"type":"Polygon","coordinates":[[[-113.65204,45.1764],[-113.6517,45.17634],[-113.65203,45.17627],[-113.65204,45.1764]]]},"properties":{"fire_id":"ufid:2025-IDIFD-250039","source_collection":"history-2025","source_objectid":40653,"incident_name":"Wimpey","mapped_acres":0.25,"mapped_acres_source":"poly_GISAcres","gis_acres":0.25,"auto_acres":0.11416200791042513,"reported_acres":0.11,"percent_contained":null,"state":"ID","state_wfigs":"US-ID","county":"Lemhi","discovery_time_utc":"2025-06-03T19:59:31Z","perimeter_time_utc":"2025-06-12T16:14:13Z","perimeter_edit_time_utc":null,"incident_modified_time_utc":"2025-06-04T21:01:54Z","containment_time_utc":"2025-06-03T23:51:00Z","control_time_utc":"2025-06-04T17:00:00Z","fire_out_time_utc":"2025-06-04T21:00:00Z","fire_cause":"Human","fire_cause_general":"Undetermined","map_method":"Auto-generated for InFORM","source_dataset":"FFP","unique_fire_identifier":"2025-IDIFD-250039","irwin_id":"{83851006-FAAC-495D-9951-41ED6230FE27}","global_id":"0e240ce4-f696-4146-8a62-088ac3cfb446"}},{"type":"Feature","geometry":{"type":"Polygon","coordinates":[[[-114.98221,45.90279],[-114.97846,45.90249],[-114.97654,45.89519],[-114.98747,45.89456],[-114.98739,45.89816],[-114.9864,45.90057],[-114.98221,45.90279]]]},"properties":{"fire_id":"ufid:2025-IDNCF-000787","source_collection":"history-2025","source_objectid":47922,"incident_name":"Tom","mapped_acres":179.9947,"mapped_acres_source":"poly_GISAcres","gis_acres":179.9947,"auto_acres":148.41700239482049,"reported_acres":180.0,"percent_contained":null,"state":"ID","state_wfigs":"US-ID","county":"Idaho","discovery_time_utc":"2025-09-04T17:40:11Z","perimeter_time_utc":"2025-10-28T18:34:51Z","perimeter_edit_time_utc":null,"incident_modified_time_utc":"2025-09-14T15:05:46Z","containment_time_utc":null,"control_time_utc":null,"fire_out_time_utc":"2025-10-27T22:00:00Z","fire_cause":"Natural","fire_cause_general":"Natural","map_method":"Auto-generated for InFORM","source_dataset":"FFP","unique_fire_identifier":"2025-IDNCF-000787","irwin_id":"{6D4228FC-62F9-47AF-8071-B7F2385075E5}","global_id":"c1bf3f1d-124b-47c7-ab1d-4c0dcb2e12f6"}},{"type":"Feature","geometry":{"type":"MultiPolygon","coordinates":[[[[-114.84262,46.55859],[-114.84294,46.55863],[-114.84311,46.55882],[-114.84325,46.55865],[-114.84379,46.55875],[-114.84372,46.55934],[-114.84359,46.55938],[-114.84309,46.55894],[-114.84301,46.55914],[-114.84269,46.55932],[-114.84226,46.55931],[-114.84187,46.55952],[-114.84154,46.55937],[-114.84207,46.55926],[-114.84207,46.55897],[-114.84243,46.5589],[-114.84262,46.55859]]],[[[-114.84282,46.55964],[-114.84269,46.55953],[-114.84276,46.55948],[-114.84282,46.55964]]],[[[-114.8453,46.56045],[-114.84533,46.56072],[-114.84514,46.56065],[-114.84512,46.56047],[-114.8453,46.56045]]],[[[-114.83706,46.5608],[-114.8369,46.5607],[-114.83704,46.56069],[-114.83706,46.5608]]],[[[-114.8321,46.56113],[-114.83207,46.56126],[-114.8319,46.56123],[-114.83191,46.5611],[-114.8321,46.56113]]],[[[-114.85676,46.56415],[-114.85685,46.56402],[-114.85704,46.56403],[-114.85712,46.56421],[-114.85697,46.56428],[-114.85676,46.56415]]],[[[-114.85826,46.56627],[-114.85831,46.56636],[-114.85816,46.56631],[-114.85826,46.56627]]],[[[-114.84932,46.57212],[-114.84921,46.57231],[-114.84903,46.57219],[-114.84932,46.57212]]],[[[-114.85314,46.5725],[-114.85294,46.57257],[-114.85295,46.57244],[-114.85314,46.5725]]],[[[-114.83726,46.57418],[-114.83703,46.57427],[-114.83701,46.57413],[-114.83726,46.57418]]],[[[-114.83808,46.57578],[-114.83809,46.57601],[-114.83787,46.57603],[-114.83786,46.57578],[-114.83808,46.57578]]],[[[-114.8251,46.57894],[-114.82514,46.57911],[-114.82502,46.57915],[-114.82496,46.579],[-114.8251,46.57894]]],[[[-114.78469,46.56042],[-114.78456,46.5602],[-114.7848,46.56006],[-114.78554,46.55998],[-114.78579,46.56016],[-114.78645,46.56028],[-114.78625,46.56061],[-114.78627,46.56079],[-114.78649,46.56093],[-114.78628,46.5612],[-114.7854,46.56108],[-114.78481,46.56119],[-114.78452,46.56094],[-114.78469,46.56042]]],[[[-114.78609,46.57047],[-114.7849,46.57058],[-114.78446,46.57037],[-114.78437,46.57005],[-114.78476,46.56998],[-114.78581,46.57013],[-114.78609,46.57032],[-114.78609,46.57047]]],[[[-114.79561,46.55865],[-114.79615,46.55815],[-114.79624,46.55782],[-114.79668,46.55754],[-114.79705,46.55782],[-114.79756,46.55778],[-114.79771,46.55845],[-114.79806,46.55869],[-114.79888,46.55876],[-114.79894,46.5585],[-114.79969,46.5581],[-114.79952,46.55798],[-114.79946,46.55768],[-114.79851,46.55742],[-114.79823,46.55656],[-114.79877,46.55626],[-114.79894,46.55541],[-114.79912,46.55524],[-114.79948,46.55523],[-114.79975,46.55503],[-114.80109,46.5551],[-114.80123,46.55516],[-114.80122,46.55537],[-114.80242,46.55597],[-114.80263,46.55631],[-114.80352,46.55659],[-114.80378,46.55715],[-114.80442,46.55726],[-114.8044,46.55736],[-114.80482,46.55767],[-114.80489,46.55798],[-114.80572,46.55827],[-114.80604,46.55874],[-114.80651,46.55885],[-114.80651,46.55908],[-114.80699,46.55924],[-114.80733,46.55978],[-114.80802,46.55993],[-114.80816,46.56015],[-114.80889,46.56006],[-114.809,46.56036],[-114.80943,46.56047],[-114.80944,46.56063],[-114.80979,46.56076],[-114.80985,46.56042],[-114.81024,46.55999],[-114.80999,46.5596],[-114.8111,46.55945],[-114.81167,46.55922],[-114.81204,46.55922],[-114.81176,46.55989],[-114.81193,46.55998],[-114.81217,46.55988],[-114.81227,46.55961],[-114.8126,46.55965],[-114.81296,46.55988],[-114.81327,46.55932],[-114.81361,46.55922],[-114.81386,46.55941],[-114.8146,46.55952],[-114.81467,46.55975],[-114.81422,46.56004],[-114.8142,46.56016],[-114.81436,46.56024],[-114.81618,46.55984],[-114.81648,46.56],[-114.81663,46.56026],[-114.81705,46.56016],[-114.81711,46.56034],[-114.81715,46.56056],[-114.81666,46.56065],[-114.81643,46.56082],[-114.81651,46.56094],[-114.81714,46.56106],[-114.81748,46.56137],[-114.81777,46.56133],[-114.81783,46.56177],[-114.81746,46.56203],[-114.8175,46.56239],[-114.8173,46.56249],[-114.81739,46.56281],[-114.81761,46.56289],[-114.81851,46.56269],[-114.81861,46.56243],[-114.81877,46.56237],[-114.819,46.56244],[-114.81912,46.56263],[-114.8195,46.56249],[-114.81967,46.56269],[-114.81998,46.56271],[-114.82021,46.56311],[-114.82173,46.56272],[-114.82258,46.56283],[-114.82289,46.56276],[-114.82303,46.56288],[-114.82327,46.56278],[-114.82333,46.56255],[-114.82376,46.56263],[-114.82539,46.56196],[-114.82593,46.56214],[-114.8258,46.56169],[-114.82665,46.56157],[-114.82684,46.56128],[-114.82714,46.5615],[-114.82744,46.56151],[-114.82756,46.56146],[-114.82752,46.56104],[-114.82771,46.56095],[-114.82788,46.56128],[-114.82817,46.56117],[-114.82846,46.56148],[-114.82952,46.56159],[-114.8299,46.56148],[-114.83017,46.56115],[-114.83101,46.56115],[-114.83122,46.56141],[-114.83111,46.56167],[-114.83146,46.56181],[-114.83158,46.56213],[-114.83187,46.56214],[-114.8317,46.56259],[-114.83214,46.56261],[-114.83226,46.56235],[-114.83245,46.56227],[-114.83267,46.56168],[-114.833,46.56154],[-114.83352,46.5616],[-114.8341,46.56136],[-114.83442,46.56147],[-114.83493,46.56124],[-114.83564,46.56136],[-114.83657,46.56125],[-114.83738,46.5609],[-114.83752,46.56034],[-114.83921,46.56024],[-114.8399,46.56005],[-114.84008,46.5601],[-114.84008,46.56024],[-114.84045,46.56027],[-114.84108,46.56005],[-114.84117,46.56033],[-114.84154,46.56035],[-114.84191,46.56102],[-114.84203,46.56105],[-114.84201,46.56054],[-114.84229,46.56042],[-114.84276,46.56047],[-114.84308,46.56069],[-114.84422,46.56061],[-114.84499,46.56127],[-114.84568,46.56212],[-114.84647,46.56216],[-114.84688,46.5618],[-114.84638,46.5614],[-114.84608,46.56138],[-114.84562,46.56107],[-114.84581,46.56081],[-114.84643,46.56081],[-114.84665,46.56043],[-114.84771,46.56044],[-114.84793,46.5601],[-114.8478,46.55985],[-114.84751,46.55987],[-114.84748,46.55961],[-114.8472,46.55927],[-114.84729,46.55907],[-114.84866,46.55883],[-114.84931,46.55897],[-114.84927,46.55847],[-114.84962,46.55839],[-114.84985,46.55814],[-114.85029,46.55845],[-114.85045,46.55815],[-114.85067,46.5582],[-114.8508,46.55779],[-114.85096,46.55778],[-114.85105,46.55798],[-114.85121,46.55783],[-114.8514,46.55809],[-114.85139,46.55831],[-114.85168,46.55812],[-114.85203,46.55818],[-114.85238,46.55768],[-114.85296,46.55762],[-114.85392,46.55686],[-114.85435,46.55709],[-114.85452,46.55739],[-114.85481,46.55731],[-114.85515,46.5575],[-114.85544,46.55796],[-114.855,46.55831],[-114.85535,46.55894],[-114.85522,46.55902],[-114.8552,46.55941],[-114.85577,46.55963],[-114.85572,46.55976],[-114.85515,46.55993],[-114.85517,46.56005],[-114.85541,46.56023],[-114.85589,46.56024],[-114.85592,46.56035],[-114.85525,46.56138],[-114.85521,46.56186],[-114.85568,46.56217],[-114.85595,46.56267],[-114.85647,46.56298],[-114.85708,46.56283],[-114.85738,46.56293],[-114.85696,46.56319],[-114.85675,46.56351],[-114.85679,46.5637],[-114.8565,46.56355],[-114.85629,46.56379],[-114.85623,46.56399],[-114.85646,46.56437],[-114.85703,46.56438],[-114.85722,46.56446],[-114.85729,46.56467],[-114.8572,46.56483],[-114.85684,46.56489],[-114.85659,46.56549],[-114.85688,46.56574],[-114.85716,46.56564],[-114.8575,46.56603],[-114.85781,46.56616],[-114.85805,46.56668],[-114.85849,46.56704],[-114.85759,46.56709],[-114.85758,46.56754],[-114.85641,46.56785],[-114.85656,46.56835],[-114.8561,46.5686],[-114.85559,46.56864],[-114.85563,46.569],[-114.85593,46.56932],[-114.85633,46.56947],[-114.85651,46.57],[-114.85734,46.5704],[-114.85689,46.57053],[-114.85692,46.57106],[-114.85551,46.57105],[-114.85421,46.57129],[-114.85396,46.57119],[-114.85378,46.57171],[-114.85347,46.57163],[-114.85319,46.57183],[-114.85328,46.57199],[-114.85314,46.57209],[-114.85249,46.57213],[-114.85231,46.57198],[-114.85142,46.57228],[-114.85209,46.57225],[-114.85201,46.57234],[-114.85238,46.57255],[-114.85276,46.57305],[-114.8526,46.57344],[-114.85158,46.57305],[-114.8515,46.57287],[-114.85074,46.57286],[-114.85034,46.57258],[-114.84997,46.57271],[-114.84974,46.57265],[-114.84959,46.57241],[-114.84969,46.57229],[-114.85047,46.57216],[-114.85011,46.57179],[-114.84974,46.57178],[-114.84917,46.57192],[-114.84776,46.57303],[-114.84803,46.5734],[-114.84782,46.57371],[-114.84727,46.57384],[-114.84703,46.57412],[-114.84677,46.57396],[-114.84652,46.57352],[-114.84629,46.57406],[-114.8461,46.57414],[-114.84576,46.57394],[-114.84609,46.57328],[-114.84568,46.57353],[-114.84514,46.57354],[-114.8452,46.5733],[-114.84482,46.5733],[-114.84487,46.57313],[-114.84442,46.57295],[-114.84401,46.57236],[-114.84375,46.57254],[-114.84175,46.57284],[-114.84104,46.57329],[-114.84071,46.57324],[-114.83986,46.57373],[-114.83997,46.57433],[-114.84047,46.57487],[-114.84044,46.57503],[-114.84004,46.57516],[-114.84039,46.57538],[-114.84082,46.57543],[-114.84034,46.57564],[-114.83896,46.57501],[-114.83897,46.57475],[-114.83874,46.57441],[-114.83835,46.5744],[-114.83854,46.574],[-114.83839,46.57378],[-114.83847,46.5731],[-114.83797,46.57329],[-114.83751,46.57374],[-114.83665,46.5737],[-114.83654,46.57415],[-114.8363,46.57434],[-114.83681,46.5745],[-114.83716,46.5748],[-114.83742,46.57488],[-114.83766,46.57414],[-114.838,46.57426],[-114.83807,46.5744],[-114.83782,46.57454],[-114.8378,46.57486],[-114.83812,46.57533],[-114.83808,46.5755],[-114.83754,46.57575],[-114.83737,46.57571],[-114.83718,46.57544],[-114.83651,46.57567],[-114.83546,46.57548],[-114.83526,46.57531],[-114.83476,46.57587],[-114.8348,46.57614],[-114.83596,46.5765],[-114.83698,46.57634],[-114.83719,46.57654],[-114.8381,46.57661],[-114.83889,46.57725],[-114.83938,46.57737],[-114.8395,46.57746],[-114.83931,46.57822],[-114.83937,46.5787],[-114.83925,46.57893],[-114.83895,46.57906],[-114.83893,46.57938],[-114.84019,46.57964],[-114.84054,46.57981],[-114.84058,46.58005],[-114.84161,46.58035],[-114.84161,46.58063],[-114.84125,46.5811],[-114.8401,46.58147],[-114.83957,46.58183],[-114.83878,46.58176],[-114.83858,46.58193],[-114.83868,46.58223],[-114.83859,46.58241],[-114.83809,46.58263],[-114.83764,46.58259],[-114.83706,46.58287],[-114.83628,46.58281],[-114.83589,46.58309],[-114.83526,46.5833],[-114.83532,46.58351],[-114.83501,46.5836],[-114.835,46.58423],[-114.83481,46.58438],[-114.83425,46.58435],[-114.83408,46.58449],[-114.83339,46.58415],[-114.83327,46.58473],[-114.83279,46.58441],[-114.83203,46.58467],[-114.83114,46.58464],[-114.83062,46.58493],[-114.83049,46.58547],[-114.83012,46.58571],[-114.82966,46.58556],[-114.82934,46.58525],[-114.82897,46.5855],[-114.82897,46.58497],[-114.82882,46.58498],[-114.82869,46.58481],[-114.82894,46.58404],[-114.82877,46.58378],[-114.82783,46.58371],[-114.82768,46.58347],[-114.82774,46.58328],[-114.82733,46.58301],[-114.82712,46.5826],[-114.82687,46.58248],[-114.82658,46.58252],[-114.82628,46.58275],[-114.8257,46.58258],[-114.82537,46.58273],[-114.82514,46.58316],[-114.82486,46.58316],[-114.82482,46.583],[-114.82545,46.58217],[-114.82532,46.58148],[-114.8256,46.58073],[-114.82494,46.58054],[-114.82471,46.58006],[-114.82486,46.57998],[-114.82503,46.57946],[-114.82596,46.57856],[-114.82597,46.57833],[-114.8256,46.57851],[-114.82488,46.57841],[-114.82479,46.57887],[-114.8246,46.57886],[-114.82438,46.57862],[-114.82401,46.5788],[-114.82433,46.57908],[-114.82412,46.57929],[-114.8236,46.57922],[-114.82362,46.57876],[-114.82346,46.57855],[-114.82306,46.57853],[-114.82291,46.57886],[-114.82308,46.57926],[-114.82297,46.57932],[-114.82297,46.57962],[-114.82261,46.57968],[-114.82242,46.57952],[-114.82259,46.57891],[-114.8223,46.57862],[-114.82126,46.57889],[-114.82117,46.57915],[-114.82091,46.57893],[-114.81998,46.57892],[-114.81998,46.57882],[-114.82109,46.57839],[-114.82138,46.5781],[-114.82129,46.57799],[-114.82037,46.57782],[-114.82072,46.57748],[-114.82083,46.57717],[-114.82152,46.57706],[-114.82172,46.57725],[-114.82165,46.57734],[-114.82197,46.57744],[-114.82212,46.57734],[-114.82195,46.57711],[-114.82202,46.57693],[-114.82236,46.57669],[-114.82281,46.57656],[-114.8242,46.57655],[-114.8248,46.57586],[-114.82504,46.57576],[-114.82565,46.5761],[-114.82577,46.57674],[-114.82596,46.57701],[-114.82695,46.57685],[-114.82755,46.57651],[-114.82774,46.57609],[-114.8276,46.575],[-114.82812,46.57456],[-114.8281,46.57431],[-114.82839,46.57428],[-114.82871,46.57454],[-114.82896,46.57452],[-114.82916,46.57424],[-114.82881,46.57395],[-114.82833,46.57406],[-114.82813,46.57396],[-114.82869,46.57356],[-114.82856,46.57314],[-114.82915,46.57279],[-114.82887,46.57271],[-114.82912,46.57245],[-114.82889,46.57238],[-114.82898,46.57214],[-114.82916,46.57212],[-114.82933,46.5719],[-114.82984,46.57206],[-114.83031,46.57191],[-114.83022,46.57178],[-114.83044,46.57161],[-114.83012,46.57127],[-114.83101,46.57099],[-114.83064,46.57028],[-114.83156,46.57035],[-114.83153,46.57019],[-114.83224,46.57001],[-114.83228,46.56951],[-114.83262,46.56917],[-114.83241,46.56909],[-114.83241,46.56882],[-114.83203,46.56863],[-114.83162,46.56875],[-114.83174,46.56942],[-114.83139,46.5694],[-114.83104,46.56904],[-114.83059,46.56896],[-114.82954,46.5694],[-114.82923,46.56971],[-114.82937,46.5699],[-114.82928,46.56999],[-114.82897,46.56987],[-114.82775,46.57017],[-114.82527,46.56969],[-114.82457,46.56941],[-114.82448,46.56948],[-114.82444,46.56928],[-114.82477,46.56902],[-114.8251,46.56901],[-114.82571,46.56858],[-114.82505,46.56837],[-114.82491,46.56869],[-114.82452,46.56843],[-114.82432,46.56857],[-114.82403,46.56849],[-114.82362,46.56859],[-114.82361,46.56903],[-114.82341,46.56903],[-114.82336,46.56879],[-114.82285,46.56888],[-114.82308,46.56898],[-114.82297,46.56925],[-114.82308,46.56939],[-114.82269,46.56965],[-114.82223,46.5695],[-114.82208,46.56971],[-114.822,46.56955],[-114.82171,46.56948],[-114.8213,46.56963],[-114.81984,46.5696],[-114.81929,46.56975],[-114.81886,46.57018],[-114.81885,46.5705],[-114.81862,46.57059],[-114.8186,46.57118],[-114.81811,46.57165],[-114.81761,46.57206],[-114.81721,46.57218],[-114.81687,46.57194],[-114.81631,46.57227],[-114.81562,46.5718],[-114.8156,46.57164],[-114.81587,46.57148],[-114.81606,46.5711],[-114.81573,46.571],[-114.81575,46.57085],[-114.81626,46.57068],[-114.81639,46.57046],[-114.81697,46.57035],[-114.81687,46.57004],[-114.81647,46.56995],[-114.81495,46.57031],[-114.81475,46.57002],[-114.8136,46.56971],[-114.81333,46.56994],[-114.81301,46.56993],[-114.81298,46.57017],[-114.81273,46.57005],[-114.81271,46.57035],[-114.81335,46.57055],[-114.81348,46.57071],[-114.81338,46.57142],[-114.81355,46.57214],[-114.81348,46.57225],[-114.81275,46.57237],[-114.81254,46.57266],[-114.81316,46.57348],[-114.81307,46.57444],[-114.81276,46.57466],[-114.81215,46.57475],[-114.81193,46.5751],[-114.81147,46.57498],[-114.81147,46.5746],[-114.81119,46.57434],[-114.81047,46.5743],[-114.81029,46.57414],[-114.81011,46.57362],[-114.80958,46.57353],[-114.80948,46.57322],[-114.80884,46.57327],[-114.80858,46.57341],[-114.80818,46.57331],[-114.8079,46.57266],[-114.80768,46.57259],[-114.80743,46.57269],[-114.80778,46.57299],[-114.80742,46.57359],[-114.80666,46.57346],[-114.80606,46.57294],[-114.80565,46.57299],[-114.80628,46.57355],[-114.80678,46.57368],[-114.8065,46.57386],[-114.80656,46.57408],[-114.80809,46.57415],[-114.80905,46.57489],[-114.80905,46.57502],[-114.80876,46.57511],[-114.80867,46.57527],[-114.8088,46.5754],[-114.80874,46.57561],[-114.8092,46.57596],[-114.80941,46.5763],[-114.8094,46.57655],[-114.80927,46.5767],[-114.80891,46.57662],[-114.80836,46.57673],[-114.80769,46.57706],[-114.8074,46.57641],[-114.80743,46.57582],[-114.80695,46.57578],[-114.8067,46.57551],[-114.80624,46.57554],[-114.80598,46.57602],[-114.80557,46.5761],[-114.80491,46.57592],[-114.80468,46.57454],[-114.80385,46.57392],[-114.80376,46.57363],[-114.80292,46.57293],[-114.80348,46.5724],[-114.8058,46.57247],[-114.80588,46.57227],[-114.80576,46.57223],[-114.80576,46.57204],[-114.80512,46.57187],[-114.80516,46.57167],[-114.80476,46.57158],[-114.80467,46.57132],[-114.80443,46.57115],[-114.80399,46.5711],[-114.80397,46.57081],[-114.8042,46.5707],[-114.80402,46.57051],[-114.8036,46.57064],[-114.80292,46.5706],[-114.80289,46.57111],[-114.80222,46.57101],[-114.80204,46.57131],[-114.80188,46.57132],[-114.80164,46.57118],[-114.80176,46.57061],[-114.80149,46.5706],[-114.80111,46.57134],[-114.80071,46.5713],[-114.80074,46.57149],[-114.80113,46.57163],[-114.80141,46.57225],[-114.8009,46.57273],[-114.80022,46.57294],[-114.7995,46.57259],[-114.79876,46.57128],[-114.79853,46.57119],[-114.79828,46.5713],[-114.79794,46.57105],[-114.797,46.57111],[-114.79662,46.57097],[-114.79674,46.57076],[-114.79656,46.57038],[-114.79575,46.57041],[-114.79584,46.57063],[-114.79626,46.57075],[-114.79622,46.57091],[-114.79595,46.57108],[-114.7963,46.57184],[-114.79654,46.57161],[-114.79636,46.57146],[-114.79654,46.57112],[-114.79677,46.57114],[-114.79699,46.57172],[-114.7972,46.5718],[-114.79719,46.57202],[-114.79683,46.57215],[-114.79662,46.57286],[-114.79629,46.57313],[-114.79566,46.57333],[-114.79604,46.57367],[-114.79665,46.57362],[-114.79692,46.57437],[-114.79713,46.57452],[-114.79712,46.57474],[-114.79682,46.57488],[-114.79679,46.57503],[-114.79713,46.57529],[-114.79737,46.57574],[-114.79733,46.57592],[-114.79773,46.57605],[-114.79812,46.57596],[-114.79837,46.57625],[-114.79826,46.57633],[-114.79832,46.57662],[-114.79867,46.57675],[-114.79878,46.57704],[-114.79923,46.57714],[-114.79925,46.57754],[-114.79887,46.57813],[-114.79959,46.57826],[-114.79957,46.57861],[-114.79918,46.57882],[-114.79941,46.57885],[-114.79972,46.57913],[-114.79976,46.57948],[-114.79852,46.57967],[-114.79839,46.57942],[-114.79829,46.57949],[-114.79773,46.57919],[-114.79722,46.57856],[-114.79729,46.5781],[-114.79753,46.57796],[-114.79737,46.57783],[-114.79687,46.57772],[-114.79686,46.5779],[-114.79655,46.57818],[-114.79584,46.57829],[-114.79538,46.57803],[-114.79535,46.57788],[-114.7951,46.57785],[-114.79491,46.57755],[-114.79432,46.57748],[-114.79427,46.57714],[-114.79375,46.57694],[-114.79364,46.57659],[-114.79339,46.57636],[-114.79358,46.57634],[-114.79415,46.57663],[-114.7942,46.57653],[-114.79372,46.57612],[-114.79374,46.57569],[-114.79399,46.57543],[-114.79423,46.57532],[-114.79447,46.57543],[-114.7944,46.57559],[-114.79481,46.57576],[-114.7949,46.57614],[-114.7953,46.5763],[-114.7953,46.57667],[-114.79548,46.57683],[-114.79568,46.57689],[-114.79652,46.57642],[-114.79649,46.57629],[-114.79571,46.57604],[-114.79525,46.57536],[-114.79479,46.57512],[-114.79481,46.57464],[-114.79379,46.57448],[-114.7936,46.57467],[-114.79336,46.57468],[-114.79261,46.57442],[-114.79295,46.5749],[-114.79277,46.57501],[-114.79282,46.57559],[-114.79255,46.57576],[-114.79091,46.57486],[-114.79046,46.57501],[-114.79047,46.57555],[-114.7892,46.57606],[-114.78899,46.57636],[-114.78844,46.57641],[-114.78857,46.57672],[-114.78934,46.57635],[-114.78982,46.57654],[-114.7902,46.57638],[-114.79052,46.57645],[-114.7905,46.57673],[-114.79008,46.57719],[-114.78942,46.57734],[-114.78931,46.57759],[-114.78882,46.57731],[-114.78801,46.57758],[-114.78793,46.57741],[-114.78777,46.5774],[-114.78774,46.57721],[-114.78756,46.57721],[-114.78652,46.57755],[-114.78644,46.57799],[-114.78611,46.57814],[-114.78548,46.57812],[-114.78521,46.57875],[-114.78498,46.57882],[-114.78444,46.57865],[-114.78385,46.5788],[-114.78289,46.57765],[-114.78295,46.57733],[-114.78283,46.57701],[-114.78236,46.5769],[-114.78233,46.57667],[-114.78172,46.57655],[-114.7815,46.57636],[-114.78153,46.57614],[-114.78246,46.57564],[-114.78283,46.57577],[-114.78327,46.57563],[-114.78254,46.57538],[-114.78236,46.57519],[-114.78169,46.57516],[-114.78165,46.57468],[-114.78204,46.57452],[-114.78234,46.57458],[-114.78252,46.57434],[-114.7832,46.57418],[-114.78319,46.57433],[-114.78344,46.57443],[-114.78363,46.57434],[-114.78384,46.57442],[-114.78438,46.57516],[-114.78495,46.57519],[-114.78506,46.57466],[-114.78449,46.57462],[-114.78403,46.57402],[-114.78505,46.57401],[-114.78536,46.57378],[-114.78509,46.57317],[-114.78427,46.57246],[-114.78435,46.57215],[-114.78382,46.5722],[-114.78376,46.57193],[-114.78456,46.57123],[-114.78493,46.57125],[-114.78506,46.57133],[-114.78505,46.57157],[-114.78518,46.57156],[-114.78592,46.57114],[-114.78661,46.57102],[-114.7864,46.5706],[-114.78659,46.56987],[-114.78601,46.56924],[-114.78626,46.56912],[-114.78603,46.56893],[-114.78599,46.56815],[-114.78575,46.56795],[-114.78535,46.56789],[-114.78517,46.56755],[-114.78489,46.56769],[-114.78474,46.56758],[-114.78467,46.56723],[-114.78411,46.5672],[-114.78373,46.56677],[-114.78411,46.56654],[-114.78394,46.56618],[-114.78415,46.56588],[-114.784,46.56562],[-114.78504,46.56525],[-114.78592,46.56547],[-114.78607,46.56538],[-114.78607,46.56514],[-114.78636,46.5651],[-114.78705,46.56534],[-114.78772,46.56535],[-114.78811,46.56571],[-114.78816,46.566],[-114.78881,46.56558],[-114.78812,46.56465],[-114.78818,46.56429],[-114.78865,46.56413],[-114.78872,46.5639],[-114.78816,46.56376],[-114.78821,46.56353],[-114.78787,46.56328],[-114.7878,46.56286],[-114.78828,46.56212],[-114.788,46.56173],[-114.7876,46.5618],[-114.78744,46.56148],[-114.78709,46.56149],[-114.78708,46.56131],[-114.78753,46.56104],[-114.7876,46.56086],[-114.78805,46.56069],[-114.78847,46.56088],[-114.78862,46.56108],[-114.78899,46.56111],[-114.78915,46.56126],[-114.78998,46.56123],[-114.79053,46.56159],[-114.79067,46.56188],[-114.79019,46.56199],[-114.78996,46.56211],[-114.78999,46.56223],[-114.79033,46.56236],[-114.79038,46.56251],[-114.7908,46.56257],[-114.79086,46.56287],[-114.79076,46.56304],[-114.78997,46.56321],[-114.79001,46.5634],[-114.79044,46.56379],[-114.79088,46.56339],[-114.7912,46.56338],[-114.79132,46.56383],[-114.79111,46.56436],[-114.79156,46.56426],[-114.79171,46.56463],[-114.79203,46.56455],[-114.79207,46.56428],[-114.7925,46.56428],[-114.79256,46.56388],[-114.79167,46.56322],[-114.79171,46.56294],[-114.7913,46.56265],[-114.7918,46.56223],[-114.79186,46.56167],[-114.79211,46.56165],[-114.79196,46.56113],[-114.79222,46.56096],[-114.79228,46.56076],[-114.792,46.56031],[-114.79244,46.56024],[-114.79268,46.56006],[-114.79271,46.55939],[-114.79325,46.55907],[-114.79335,46.55847],[-114.79426,46.55842],[-114.79454,46.5592],[-114.79471,46.55928],[-114.79522,46.55912],[-114.79539,46.55922],[-114.79561,46.55865]]],[[[-114.80765,46.57343],[-114.80823,46.5735],[-114.80822,46.57373],[-114.80812,46.57384],[-114.80771,46.57364],[-114.80765,46.57343]]],[[[-114.80915,46.57361],[-114.80911,46.57389],[-114.80889,46.57385],[-114.80884,46.57357],[-114.80915,46.57361]]],[[[-114.7932,46.5754],[-114.79353,46.57516],[-114.79362,46.57528],[-114.79334,46.57553],[-114.7932,46.5754]]],[[[-114.79304,46.57595],[-114.79319,46.57602],[-114.79299,46.57603],[-114.79304,46.57595]]],[[[-114.79172,46.57708],[-114.79146,46.5768],[-114.79072,46.57648],[-114.79141,46.57588],[-114.7917,46.57582],[-114.79192,46.57591],[-114.79203,46.57674],[-114.79189,46.57705],[-114.79172,46.57708]]],[[[-114.79957,46.57633],[-114.8003,46.57643],[-114.80107,46.57712],[-114.80094,46.57738],[-114.80074,46.57739],[-114.80026,46.57711],[-114.79961,46.57714],[-114.79954,46.57701],[-114.79967,46.57664],[-114.79957,46.57633]]],[[[-114.79306,46.57717],[-114.79282,46.57673],[-114.79307,46.57677],[-114.79306,46.57717]]],[[[-114.80674,46.57722],[-114.80711,46.5772],[-114.80714,46.57735],[-114.80697,46.57744],[-114.80675,46.57737],[-114.80674,46.57722]]],[[[-114.79383,46.57801],[-114.79394,46.57785],[-114.79444,46.57787],[-114.79454,46.57799],[-114.79414,46.57825],[-114.79389,46.57816],[-114.79383,46.57801]]],[[[-114.79759,46.57943],[-114.79762,46.57955],[-114.7975,46.57959],[-114.79742,46.57947],[-114.79759,46.57943]]]]},"properties":{"fire_id":"ufid:2025-IDNCF-000699","source_collection":"history-2025","source_objectid":47995,"incident_name":"East","mapped_acres":2231.38,"mapped_acres_source":"poly_GISAcres","gis_acres":2231.38,"auto_acres":2231.371690885235,"reported_acres":2250.0,"percent_contained":null,"state":"ID","state_wfigs":"US-ID","county":"Idaho","discovery_time_utc":"2025-08-20T14:39:00Z","perimeter_time_utc":"2025-10-29T17:39:56Z","perimeter_edit_time_utc":null,"incident_modified_time_utc":"2025-10-28T21:10:19Z","containment_time_utc":null,"control_time_utc":null,"fire_out_time_utc":"2025-10-28T19:00:00Z","fire_cause":"Natural","fire_cause_general":"Natural","map_method":"IR Image Interpretation","source_dataset":"FFP","unique_fire_identifier":"2025-IDNCF-000699","irwin_id":"{D2A66B91-21EA-4C6E-9B99-052A8C7F8FBA}","global_id":"dce328d3-713c-471e-8e6f-fe4d3bd5b1b4"}},{"type":"Feature","geometry":{"type":"MultiPolygon","coordinates":[[[[-114.82465,46.40816],[-114.8243,46.40768],[-114.82406,46.40703],[-114.82371,46.40664],[-114.82218,46.40686],[-114.81847,46.40651],[-114.81445,46.40647],[-114.81306,46.40588],[-114.81289,46.40608],[-114.8131,46.40681],[-114.81278,46.40724],[-114.81254,46.40734],[-114.8116,46.40732],[-114.8112,46.40702],[-114.81045,46.40684],[-114.8096,46.40704],[-114.80911,46.40693],[-114.80853,46.40619],[-114.80912,46.40585],[-114.8093,46.4056],[-114.80959,46.40557],[-114.80983,46.40487],[-114.8095,46.40444],[-114.80948,46.40422],[-114.80973,46.40381],[-114.8085,46.40345],[-114.80821,46.40288],[-114.80638,46.40253],[-114.80582,46.40222],[-114.80557,46.40162],[-114.80537,46.40145],[-114.80481,46.40115],[-114.80431,46.40111],[-114.80335,46.40074],[-114.80279,46.40001],[-114.80258,46.39952],[-114.80309,46.39898],[-114.80267,46.39832],[-114.80291,46.39802],[-114.80494,46.39776],[-114.80558,46.39722],[-114.80727,46.39689],[-114.80756,46.39705],[-114.80746,46.39748],[-114.80761,46.39787],[-114.80877,46.39773],[-114.80911,46.39704],[-114.80952,46.39693],[-114.81124,46.39782],[-114.81158,46.3978],[-114.81154,46.39732],[-114.81166,46.39694],[-114.81232,46.39656],[-114.8128,46.39666],[-114.813,46.39645],[-114.81238,46.39621],[-114.81203,46.39588],[-114.81299,46.39565],[-114.81341,46.39514],[-114.81397,46.39526],[-114.81388,46.39557],[-114.81409,46.3958],[-114.814,46.39599],[-114.81427,46.39616],[-114.8143,46.39654],[-114.81487,46.39713],[-114.81467,46.39741],[-114.81481,46.3977],[-114.81512,46.39773],[-114.81583,46.39825],[-114.81687,46.39809],[-114.81733,46.39814],[-114.81784,46.39792],[-114.82316,46.39766],[-114.82369,46.39821],[-114.82615,46.39963],[-114.8263,46.40014],[-114.82622,46.40128],[-114.82675,46.40135],[-114.82791,46.40098],[-114.82906,46.40105],[-114.82993,46.40054],[-114.83028,46.4005],[-114.8326,46.4014],[-114.83307,46.40118],[-114.83397,46.40142],[-114.83521,46.40204],[-114.83569,46.40285],[-114.83574,46.40318],[-114.8363,46.40332],[-114.83602,46.4039],[-114.83564,46.40415],[-114.8356,46.40457],[-114.83528,46.40463],[-114.83489,46.40509],[-114.83256,46.4057],[-114.83191,46.40562],[-114.83132,46.40582],[-114.82975,46.4056],[-114.82967,46.4058],[-114.82924,46.40587],[-114.82886,46.40567],[-114.8285,46.40633],[-114.82793,46.4067],[-114.82672,46.40715],[-114.82583,46.40818],[-114.82465,46.40816]]],[[[-114.80432,46.39663],[-114.80461,46.39647],[-114.80458,46.39671],[-114.80432,46.39663]]],[[[-114.80917,46.40912],[-114.80943,46.40872],[-114.81127,46.40877],[-114.8112,46.40915],[-114.80917,46.40912]]]]},"properties":{"fire_id":"ufid:2025-IDNCF-000700","source_collection":"history-2025","source_objectid":47996,"incident_name":"Wind Lake","mapped_acres":487.9075,"mapped_acres_source":"poly_GISAcres","gis_acres":487.9075,"auto_acres":487.90565862260553,"reported_acres":488.0,"percent_contained":null,"state":"ID","state_wfigs":"US-ID","county":"Idaho","discovery_time_utc":"2025-08-20T15:39:00Z","perimeter_time_utc":"2025-10-29T17:42:41Z","perimeter_edit_time_utc":null,"incident_modified_time_utc":"2025-10-28T21:12:39Z","containment_time_utc":null,"control_time_utc":null,"fire_out_time_utc":"2025-10-28T19:00:00Z","fire_cause":"Undetermined","fire_cause_general":"Undetermined","map_method":"IR Image Interpretation","source_dataset":"FFP","unique_fire_identifier":"2025-IDNCF-000700","irwin_id":"{C3E16F28-BFCF-47CA-A9E0-F93E31DC5ADC}","global_id":"09ac3f80-646b-4ffa-96f4-5e17865cd2c2"}},{"type":"Feature","geometry":{"type":"MultiPolygon","coordinates":[[[[-114.71081,46.37786],[-114.70961,46.37781],[-114.70858,46.3781],[-114.70701,46.37822],[-114.70676,46.37834],[-114.70466,46.37829],[-114.70448,46.37874],[-114.70377,46.37891],[-114.70337,46.37927],[-114.70255,46.37891],[-114.70182,46.37886],[-114.702,46.3792],[-114.70171,46.37959],[-114.70159,46.37951],[-114.70164,46.37906],[-114.70151,46.37892],[-114.70118,46.37905],[-114.70115,46.3793],[-114.70023,46.3795],[-114.69887,46.37956],[-114.69851,46.37944],[-114.69807,46.37996],[-114.69789,46.37982],[-114.6977,46.37932],[-114.69742,46.37921],[-114.69593,46.37914],[-114.69498,46.37894],[-114.69264,46.37893],[-114.69217,46.37878],[-114.69216,46.3786],[-114.69186,46.37832],[-114.69118,46.37839],[-114.69129,46.37922],[-114.69049,46.37937],[-114.68931,46.37915],[-114.68878,46.37943],[-114.68803,46.37913],[-114.68676,46.37796],[-114.68582,46.3776],[-114.68601,46.37743],[-114.68698,46.37766],[-114.68716,46.37739],[-114.68679,46.37695],[-114.68745,46.37628],[-114.68697,46.37582],[-114.68679,46.37543],[-114.68782,46.37497],[-114.68849,46.37533],[-114.68849,46.37509],[-114.68903,46.37485],[-114.68968,46.37482],[-114.69166,46.37526],[-114.6927,46.37483],[-114.69343,46.37496],[-114.69603,46.37594],[-114.69763,46.37608],[-114.69851,46.37577],[-114.69969,46.37566],[-114.70033,46.37512],[-114.7004,46.37482],[-114.70022,46.37446],[-114.6998,46.37432],[-114.69863,46.37425],[-114.69812,46.37398],[-114.69553,46.37389],[-114.69459,46.3741],[-114.69394,46.37399],[-114.69355,46.37365],[-114.69319,46.37361],[-114.69295,46.37329],[-114.69281,46.37252],[-114.69292,46.37205],[-114.6936,46.37121],[-114.69331,46.37065],[-114.69428,46.37037],[-114.6951,46.37035],[-114.69564,46.37055],[-114.69551,46.37092],[-114.69594,46.37139],[-114.69802,46.37243],[-114.70015,46.37202],[-114.70132,46.37227],[-114.70282,46.372],[-114.70339,46.37129],[-114.70327,46.37117],[-114.70346,46.37095],[-114.70368,46.37098],[-114.70378,46.37114],[-114.70423,46.37111],[-114.70438,46.37064],[-114.70464,46.37042],[-114.70469,46.37012],[-114.70445,46.36969],[-114.70457,46.36963],[-114.70428,46.36925],[-114.70454,46.36902],[-114.70481,46.36899],[-114.70549,46.36928],[-114.70691,46.369],[-114.70703,46.3685],[-114.7079,46.36818],[-114.70801,46.36767],[-114.70835,46.36755],[-114.7086,46.36728],[-114.70959,46.36547],[-114.71176,46.36613],[-114.71335,46.36597],[-114.71425,46.36533],[-114.7153,46.36535],[-114.71684,46.36567],[-114.71797,46.36536],[-114.71942,46.36475],[-114.71972,46.36447],[-114.72133,46.36455],[-114.72303,46.36607],[-114.72309,46.3666],[-114.72348,46.3667],[-114.72439,46.36733],[-114.7249,46.3671],[-114.72523,46.36722],[-114.72545,46.36701],[-114.72645,46.36695],[-114.7271,46.36672],[-114.72752,46.36669],[-114.72793,46.36692],[-114.7282,46.36675],[-114.72914,46.36673],[-114.72955,46.36645],[-114.72995,46.36642],[-114.73081,46.36665],[-114.73088,46.36599],[-114.73151,46.36564],[-114.73228,46.36558],[-114.73261,46.36516],[-114.73257,46.36452],[-114.73161,46.36462],[-114.73138,46.36446],[-114.73149,46.36387],[-114.73198,46.36364],[-114.7328,46.36394],[-114.73301,46.36384],[-114.73339,46.364],[-114.73351,46.36411],[-114.73348,46.36447],[-114.73463,46.3656],[-114.73478,46.36604],[-114.73433,46.36785],[-114.73148,46.36813],[-114.73078,46.36878],[-114.73102,46.36882],[-114.73115,46.36917],[-114.73094,46.36955],[-114.73042,46.36949],[-114.73032,46.36958],[-114.72969,46.36934],[-114.72874,46.36964],[-114.72873,46.37016],[-114.72821,46.37017],[-114.72814,46.37072],[-114.72796,46.37089],[-114.72734,46.37084],[-114.72605,46.37025],[-114.724,46.37039],[-114.71874,46.37165],[-114.71701,46.37179],[-114.71686,46.37212],[-114.71702,46.37226],[-114.71688,46.37257],[-114.71701,46.37266],[-114.71697,46.3728],[-114.71554,46.37302],[-114.71503,46.37297],[-114.71444,46.37271],[-114.71365,46.3729],[-114.71256,46.37286],[-114.71228,46.37262],[-114.71223,46.37213],[-114.71204,46.37204],[-114.71093,46.37217],[-114.71076,46.37174],[-114.71074,46.37094],[-114.71038,46.37067],[-114.70964,46.37062],[-114.7094,46.37072],[-114.70889,46.37106],[-114.70858,46.37145],[-114.70861,46.37174],[-114.70945,46.37233],[-114.7095,46.37288],[-114.70911,46.37308],[-114.70875,46.3731],[-114.71337,46.3743],[-114.7133,46.37435],[-114.71354,46.3744],[-114.71414,46.37489],[-114.71412,46.37515],[-114.7135,46.37562],[-114.71409,46.37615],[-114.71399,46.3765],[-114.71365,46.37675],[-114.71305,46.37655],[-114.71295,46.37688],[-114.71315,46.37747],[-114.71394,46.37753],[-114.71401,46.37787],[-114.71366,46.37809],[-114.7132,46.37799],[-114.71318,46.37812],[-114.71279,46.3783],[-114.71211,46.37834],[-114.71081,46.37786]]],[[[-114.69572,46.37545],[-114.69534,46.37538],[-114.69576,46.37526],[-114.69572,46.37545]]]]},"properties":{"fire_id":"ufid:2025-IDNCF-000667","source_collection":"history-2025","source_objectid":47999,"incident_name":"Good Friday","mapped_acres":618.2169,"mapped_acres_source":"poly_GISAcres","gis_acres":618.2169,"auto_acres":618.214561293774,"reported_acres":616.0,"percent_contained":null,"state":"ID","state_wfigs":"US-ID","county":"Idaho","discovery_time_utc":"2025-08-15T20:55:35Z","perimeter_time_utc":"2025-10-29T17:44:49Z","perimeter_edit_time_utc":null,"incident_modified_time_utc":"2025-10-28T21:00:39Z","containment_time_utc":null,"control_time_utc":null,"fire_out_time_utc":"2025-10-28T19:00:00Z","fire_cause":"Natural","fire_cause_general":"Natural","map_method":"IR Image Interpretation","source_dataset":"FFP","unique_fire_identifier":"2025-IDNCF-000667","irwin_id":"{695728F4-A1B0-4B4F-8CF0-A610D50ECDE0}","global_id":"0ed4d97b-286a-4dc7-a665-56406f7674a3"}},{"type":"Feature","geometry":{"type":"Polygon","coordinates":[[[-114.41576,46.39813],[-114.4162,46.40091],[-114.41934,46.40265],[-114.42066,46.40247],[-114.42258,46.40353],[-114.42187,46.40471],[-114.4203,46.40595],[-114.41843,46.40628],[-114.41699,46.40618],[-114.41787,46.4055],[-114.41858,46.40461],[-114.4177,46.40394],[-114.41458,46.40257],[-114.41343,46.40133],[-114.41383,46.39916],[-114.41576,46.39813]]]},"properties":{"fire_id":"ufid:2025-IDNCF-000694","source_collection":"history-2025","source_objectid":48001,"incident_name":"Parachute Lake","mapped_acres":57.43367,"mapped_acres_source":"poly_GISAcres","gis_acres":57.43367,"auto_acres":57.43345255284327,"reported_acres":58.0,"percent_contained":null,"state":"ID","state_wfigs":"US-ID","county":"Idaho","discovery_time_utc":"2025-08-20T01:01:45Z","perimeter_time_utc":"2025-10-29T17:56:12Z","perimeter_edit_time_utc":null,"incident_modified_time_utc":"2025-10-28T21:05:44Z","containment_time_utc":null,"control_time_utc":null,"fire_out_time_utc":"2025-10-28T19:00:00Z","fire_cause":"Natural","fire_cause_general":"Natural","map_method":"Mixed Methods","source_dataset":"FFP","unique_fire_identifier":"2025-IDNCF-000694","irwin_id":"{13011CA8-7D3D-4C48-87F1-5C10BCA46587}","global_id":"7a5c535f-f6a6-4cd5-a79c-038506004953"}},{"type":"Feature","geometry":{"type":"Polygon","coordinates":[[[-114.70398,46.06581],[-114.70314,46.06604],[-114.70282,46.06654],[-114.70238,46.06618],[-114.70234,46.06629],[-114.70211,46.06629],[-114.70184,46.06581],[-114.70195,46.06576],[-114.70191,46.06556],[-114.69956,46.0652],[-114.69866,46.06468],[-114.69848,46.06444],[-114.6991,46.06375],[-114.69984,46.06388],[-114.70085,46.06383],[-114.70151,46.06407],[-114.70202,46.06385],[-114.70247,46.06402],[-114.70329,46.06356],[-114.70364,46.06364],[-114.7036,46.06447],[-114.70389,46.0648],[-114.70445,46.06501],[-114.70465,46.06522],[-114.70398,46.06581]]]},"properties":{"fire_id":"ufid:2025-IDNCF-000754","source_collection":"history-2025","source_objectid":48315,"incident_name":"Elk Ridge","mapped_acres":20.00183,"mapped_acres_source":"poly_GISAcres","gis_acres":20.00183,"auto_acres":20.001749882544043,"reported_acres":25.0,"percent_contained":null,"state":"ID","state_wfigs":"US-ID","county":"Idaho","discovery_time_utc":"2025-08-26T21:57:17Z","perimeter_time_utc":"2025-11-06T21:30:11Z","perimeter_edit_time_utc":null,"incident_modified_time_utc":"2025-11-03T19:11:19Z","containment_time_utc":"2025-11-03T18:57:00Z","control_time_utc":"2025-11-03T18:57:00Z","fire_out_time_utc":"2025-11-03T18:57:00Z","fire_cause":"Natural","fire_cause_general":"Natural","map_method":"Mixed Methods","source_dataset":"FFP","unique_fire_identifier":"2025-IDNCF-000754","irwin_id":"{D330D6FD-2D27-4761-92BC-8E2E6605D800}","global_id":"e4f95380-95ff-4c53-b1ab-ed832b4b56be"}},{"type":"Feature","geometry":{"type":"MultiPolygon","coordinates":[[[[-114.78153,45.15788],[-114.78254,45.15693],[-114.78207,45.15671],[-114.78212,45.15656],[-114.78197,45.15638],[-114.78232,45.15551],[-114.78181,45.15562],[-114.77985,45.15557],[-114.77849,45.15574],[-114.77818,45.15615],[-114.77757,45.15595],[-114.77706,45.15494],[-114.77668,45.15471],[-114.77661,45.15441],[-114.77728,45.15433],[-114.77884,45.15279],[-114.77818,45.15271],[-114.77821,45.15231],[-114.77736,45.15204],[-114.77634,45.15209],[-114.77572,45.1519],[-114.77487,45.15134],[-114.77493,45.15068],[-114.77554,45.15019],[-114.77634,45.14975],[-114.77747,45.14941],[-114.77874,45.14845],[-114.77923,45.14828],[-114.78034,45.14819],[-114.78145,45.14843],[-114.78178,45.14875],[-114.78177,45.14895],[-114.78211,45.14915],[-114.78438,45.14903],[-114.78623,45.14871],[-114.78737,45.14808],[-114.78768,45.14765],[-114.7878,45.14722],[-114.78836,45.14688],[-114.78848,45.14646],[-114.78944,45.14549],[-114.78973,45.14487],[-114.79147,45.14428],[-114.79214,45.14433],[-114.79308,45.14407],[-114.79359,45.14479],[-114.79352,45.14526],[-114.79405,45.14568],[-114.7945,45.14577],[-114.795,45.1456],[-114.79547,45.14564],[-114.79549,45.14425],[-114.79621,45.1423],[-114.7973,45.14047],[-114.79783,45.1405],[-114.79895,45.13971],[-114.79892,45.13896],[-114.79821,45.13873],[-114.79799,45.13838],[-114.79711,45.13794],[-114.79637,45.13692],[-114.79574,45.13504],[-114.79582,45.13192],[-114.79459,45.13183],[-114.7922,45.13106],[-114.79091,45.13184],[-114.78876,45.13228],[-114.78657,45.13305],[-114.78345,45.13583],[-114.78199,45.13582],[-114.78076,45.1321],[-114.78193,45.13063],[-114.78108,45.12985],[-114.78043,45.12866],[-114.78058,45.12802],[-114.78164,45.12671],[-114.78268,45.12588],[-114.77735,45.12484],[-114.77616,45.12529],[-114.77578,45.12565],[-114.77392,45.12519],[-114.77354,45.12481],[-114.77309,45.12467],[-114.77185,45.12457],[-114.7705,45.12424],[-114.76781,45.12485],[-114.76724,45.12515],[-114.76596,45.12553],[-114.76481,45.1257],[-114.76435,45.12568],[-114.76373,45.12534],[-114.76286,45.12538],[-114.7623,45.12582],[-114.76147,45.12584],[-114.76072,45.12551],[-114.76072,45.12514],[-114.76161,45.12494],[-114.76281,45.12429],[-114.76333,45.12426],[-114.76454,45.12461],[-114.766,45.12429],[-114.76639,45.12403],[-114.76658,45.12373],[-114.76663,45.12259],[-114.76591,45.12241],[-114.76745,45.12113],[-114.76989,45.1187],[-114.77101,45.11716],[-114.77137,45.11631],[-114.77064,45.11616],[-114.77148,45.1153],[-114.77154,45.11403],[-114.77113,45.11325],[-114.77156,45.11316],[-114.77155,45.11177],[-114.7757,45.11006],[-114.77706,45.10912],[-114.77832,45.10958],[-114.7791,45.10869],[-114.77928,45.10785],[-114.78,45.10777],[-114.78193,45.10907],[-114.78293,45.10991],[-114.7837,45.11021],[-114.78335,45.11067],[-114.78253,45.11084],[-114.78229,45.11111],[-114.78414,45.11223],[-114.78775,45.11037],[-114.78835,45.11099],[-114.78836,45.1106],[-114.78902,45.11174],[-114.79024,45.11211],[-114.79055,45.1132],[-114.78999,45.11404],[-114.79009,45.11427],[-114.79047,45.11401],[-114.79071,45.11297],[-114.79141,45.11265],[-114.79182,45.11353],[-114.79193,45.11286],[-114.7928,45.11329],[-114.7934,45.11392],[-114.79552,45.11372],[-114.7959,45.11323],[-114.79571,45.11288],[-114.7962,45.11231],[-114.79733,45.1118],[-114.79734,45.11089],[-114.79793,45.10987],[-114.79887,45.10902],[-114.79768,45.10912],[-114.79655,45.10898],[-114.79613,45.1088],[-114.79475,45.10724],[-114.79185,45.10753],[-114.79105,45.10715],[-114.79075,45.10662],[-114.7887,45.10688],[-114.78579,45.10687],[-114.78313,45.10622],[-114.78194,45.10505],[-114.78051,45.10458],[-114.77931,45.10453],[-114.7778,45.10425],[-114.77548,45.10225],[-114.77575,45.10151],[-114.77639,45.10081],[-114.77732,45.09914],[-114.77904,45.09795],[-114.77902,45.09704],[-114.7799,45.09682],[-114.7806,45.0968],[-114.78141,45.09723],[-114.78203,45.0969],[-114.78322,45.0966],[-114.78374,45.09572],[-114.78386,45.09676],[-114.78412,45.09638],[-114.78406,45.09726],[-114.78496,45.0977],[-114.78542,45.09826],[-114.78634,45.09818],[-114.78766,45.09754],[-114.7872,45.09859],[-114.78619,45.09895],[-114.78576,45.09959],[-114.78478,45.09991],[-114.78425,45.0997],[-114.78194,45.10109],[-114.78182,45.10149],[-114.78161,45.10131],[-114.78201,45.10333],[-114.78333,45.10395],[-114.78492,45.10439],[-114.78502,45.10354],[-114.78573,45.10253],[-114.7871,45.10251],[-114.78823,45.10275],[-114.78807,45.10216],[-114.78704,45.10142],[-114.78692,45.1011],[-114.78715,45.10087],[-114.78805,45.10117],[-114.78881,45.10178],[-114.78952,45.10193],[-114.79047,45.10268],[-114.79092,45.10256],[-114.79272,45.10333],[-114.79197,45.10274],[-114.79177,45.10236],[-114.79366,45.10321],[-114.79395,45.1036],[-114.7957,45.10368],[-114.79539,45.10332],[-114.79618,45.10321],[-114.79618,45.10256],[-114.79653,45.10215],[-114.7964,45.10155],[-114.79648,45.101],[-114.79629,45.10088],[-114.79651,45.10064],[-114.79635,45.10046],[-114.79436,45.09971],[-114.79301,45.10005],[-114.79242,45.09976],[-114.7934,45.09904],[-114.79451,45.09864],[-114.79452,45.09836],[-114.79564,45.09829],[-114.79852,45.09597],[-114.79834,45.09591],[-114.79814,45.09506],[-114.79835,45.09476],[-114.79886,45.0946],[-114.79937,45.09282],[-114.79971,45.09274],[-114.79965,45.09247],[-114.80018,45.09163],[-114.79993,45.09126],[-114.80006,45.09078],[-114.80049,45.09071],[-114.80121,45.09097],[-114.80248,45.09098],[-114.80342,45.09133],[-114.80454,45.09144],[-114.80553,45.09073],[-114.80664,45.0907],[-114.8076,45.09047],[-114.80839,45.09075],[-114.80862,45.09106],[-114.80907,45.09087],[-114.80928,45.09062],[-114.8101,45.09069],[-114.8105,45.09051],[-114.81065,45.09064],[-114.81072,45.09102],[-114.811,45.09119],[-114.81095,45.09228],[-114.81056,45.09277],[-114.81115,45.09291],[-114.81104,45.09324],[-114.81111,45.09376],[-114.81063,45.09433],[-114.81051,45.09478],[-114.81136,45.09514],[-114.81143,45.09546],[-114.81227,45.09571],[-114.81274,45.09536],[-114.81229,45.09417],[-114.8122,45.0936],[-114.81246,45.09172],[-114.81265,45.09132],[-114.8121,45.09107],[-114.81213,45.09084],[-114.8119,45.09033],[-114.81127,45.08977],[-114.8115,45.08932],[-114.8126,45.0891],[-114.81273,45.08874],[-114.81184,45.08713],[-114.81059,45.0869],[-114.80964,45.08607],[-114.80967,45.08569],[-114.81023,45.08538],[-114.81114,45.08523],[-114.81211,45.08547],[-114.81272,45.0859],[-114.81354,45.08688],[-114.81438,45.08723],[-114.81434,45.08772],[-114.81489,45.08815],[-114.81595,45.08865],[-114.81638,45.08797],[-114.81689,45.08755],[-114.81724,45.08628],[-114.81788,45.08648],[-114.81817,45.08602],[-114.819,45.08622],[-114.82081,45.0878],[-114.82176,45.08893],[-114.82159,45.08907],[-114.82166,45.08921],[-114.82275,45.08945],[-114.823,45.09067],[-114.8248,45.09081],[-114.82454,45.09004],[-114.82453,45.08953],[-114.82503,45.09011],[-114.82525,45.09059],[-114.82627,45.09077],[-114.82665,45.09048],[-114.82874,45.09108],[-114.83077,45.0899],[-114.83062,45.09027],[-114.83152,45.08956],[-114.83149,45.08927],[-114.8321,45.0886],[-114.83114,45.08828],[-114.83097,45.0881],[-114.83108,45.08774],[-114.83235,45.08726],[-114.83234,45.08639],[-114.83288,45.08591],[-114.83324,45.08577],[-114.83381,45.08496],[-114.83397,45.08501],[-114.83425,45.08452],[-114.83444,45.08211],[-114.83639,45.08254],[-114.83794,45.08309],[-114.84062,45.0851],[-114.84129,45.08449],[-114.84187,45.08454],[-114.84284,45.08642],[-114.84287,45.0868],[-114.84258,45.08713],[-114.84455,45.08836],[-114.84628,45.08912],[-114.84728,45.08898],[-114.84874,45.08907],[-114.84881,45.08887],[-114.8475,45.08756],[-114.84841,45.0867],[-114.84947,45.08641],[-114.85104,45.08715],[-114.85155,45.08641],[-114.85265,45.08605],[-114.85301,45.08656],[-114.85287,45.08767],[-114.85294,45.08873],[-114.85168,45.08922],[-114.85247,45.08924],[-114.85373,45.08893],[-114.85366,45.08972],[-114.85266,45.09038],[-114.85138,45.0903],[-114.8512,45.09064],[-114.85157,45.09087],[-114.85232,45.09184],[-114.85505,45.09199],[-114.85578,45.09161],[-114.85594,45.09093],[-114.85723,45.0905],[-114.85723,45.09013],[-114.85671,45.0899],[-114.85639,45.08941],[-114.85716,45.08977],[-114.85816,45.08994],[-114.85834,45.08872],[-114.85991,45.08807],[-114.86033,45.08759],[-114.86133,45.08699],[-114.86198,45.08625],[-114.86306,45.08606],[-114.86279,45.08538],[-114.86267,45.08454],[-114.86299,45.08454],[-114.86272,45.08314],[-114.86128,45.08262],[-114.86123,45.0823],[-114.86156,45.08184],[-114.8616,45.08153],[-114.86039,45.08161],[-114.8605,45.08058],[-114.85993,45.08069],[-114.85898,45.07953],[-114.85901,45.07798],[-114.85829,45.07769],[-114.8574,45.0778],[-114.85912,45.07606],[-114.86011,45.07553],[-114.86232,45.07533],[-114.86302,45.07557],[-114.86396,45.07513],[-114.86521,45.07518],[-114.86572,45.07613],[-114.86515,45.07687],[-114.86589,45.07699],[-114.86611,45.07715],[-114.86626,45.07728],[-114.86606,45.07754],[-114.86618,45.07775],[-114.86674,45.07776],[-114.86661,45.07812],[-114.86677,45.07852],[-114.86634,45.0785],[-114.86617,45.07822],[-114.86509,45.07814],[-114.86486,45.07835],[-114.86413,45.07837],[-114.86336,45.07999],[-114.86314,45.08096],[-114.86272,45.08174],[-114.86309,45.08187],[-114.8629,45.08287],[-114.86388,45.0827],[-114.86327,45.08364],[-114.86309,45.08454],[-114.86507,45.08514],[-114.86669,45.08601],[-114.86844,45.08741],[-114.86872,45.08835],[-114.86838,45.0887],[-114.86874,45.08886],[-114.87106,45.08962],[-114.87388,45.08969],[-114.87469,45.09005],[-114.87548,45.08986],[-114.87581,45.09006],[-114.87624,45.09054],[-114.87619,45.09097],[-114.87524,45.0916],[-114.87512,45.09188],[-114.87523,45.092],[-114.87488,45.09234],[-114.87509,45.09284],[-114.87491,45.09324],[-114.87429,45.09389],[-114.87462,45.09499],[-114.87879,45.09625],[-114.8801,45.09614],[-114.88036,45.09671],[-114.88142,45.097],[-114.88148,45.09717],[-114.88191,45.09738],[-114.8822,45.09808],[-114.88195,45.09834],[-114.88144,45.09838],[-114.8809,45.09821],[-114.88051,45.09787],[-114.87932,45.09789],[-114.87998,45.09866],[-114.88015,45.09958],[-114.87957,45.0995],[-114.87928,45.09971],[-114.87861,45.09987],[-114.87716,45.09975],[-114.87651,45.09991],[-114.87697,45.10069],[-114.87646,45.10165],[-114.87567,45.10187],[-114.87519,45.10141],[-114.87544,45.10097],[-114.87513,45.10042],[-114.87474,45.10043],[-114.87288,45.10197],[-114.87235,45.10261],[-114.87196,45.10353],[-114.8711,45.10434],[-114.87106,45.10471],[-114.87176,45.10478],[-114.87178,45.10491],[-114.87011,45.10558],[-114.86895,45.10549],[-114.86925,45.10513],[-114.86898,45.10488],[-114.86895,45.10441],[-114.86912,45.104],[-114.8686,45.10357],[-114.86884,45.10302],[-114.86934,45.10248],[-114.87065,45.10181],[-114.87123,45.10135],[-114.87141,45.10074],[-114.87248,45.09983],[-114.87186,45.09939],[-114.87185,45.09873],[-114.87164,45.0981],[-114.8726,45.097],[-114.87158,45.09557],[-114.87116,45.09537],[-114.87043,45.09477],[-114.87046,45.09467],[-114.86902,45.09537],[-114.86831,45.09605],[-114.86663,45.09684],[-114.8657,45.09671],[-114.86427,45.09789],[-114.86302,45.09831],[-114.86227,45.09881],[-114.86253,45.09935],[-114.86175,45.10114],[-114.86267,45.10253],[-114.86071,45.10406],[-114.85944,45.10477],[-114.85795,45.10413],[-114.85472,45.10346],[-114.85411,45.10291],[-114.85267,45.10267],[-114.85081,45.10094],[-114.84954,45.1],[-114.84952,45.10038],[-114.84787,45.10165],[-114.84587,45.10193],[-114.84437,45.10186],[-114.84662,45.1022],[-114.84924,45.10409],[-114.85001,45.10488],[-114.85023,45.10434],[-114.85334,45.10591],[-114.85681,45.10891],[-114.85713,45.10791],[-114.85785,45.10765],[-114.8602,45.10907],[-114.85887,45.11096],[-114.86078,45.11294],[-114.86291,45.11438],[-114.86209,45.11472],[-114.86142,45.11472],[-114.86008,45.11433],[-114.85913,45.11337],[-114.8583,45.11335],[-114.85364,45.11551],[-114.85241,45.11742],[-114.85289,45.11833],[-114.8533,45.11858],[-114.85352,45.11899],[-114.85292,45.11935],[-114.85337,45.11981],[-114.85492,45.11982],[-114.85649,45.12002],[-114.8563,45.12064],[-114.85512,45.12105],[-114.85358,45.12087],[-114.85221,45.12155],[-114.85017,45.1218],[-114.85034,45.11937],[-114.84897,45.11633],[-114.84819,45.11609],[-114.8473,45.11613],[-114.84651,45.1164],[-114.84541,45.11609],[-114.84493,45.11631],[-114.84415,45.11731],[-114.84398,45.11771],[-114.84351,45.11812],[-114.84297,45.11918],[-114.84269,45.11911],[-114.84184,45.11797],[-114.84152,45.11775],[-114.84127,45.11835],[-114.84089,45.11862],[-114.84017,45.11821],[-114.8398,45.11861],[-114.83916,45.11874],[-114.83877,45.11856],[-114.83778,45.11882],[-114.83798,45.11985],[-114.84014,45.1216],[-114.84076,45.12351],[-114.84027,45.12455],[-114.84154,45.12675],[-114.84109,45.12719],[-114.84129,45.12776],[-114.84173,45.12824],[-114.84283,45.12864],[-114.8427,45.129],[-114.84055,45.12875],[-114.84041,45.12915],[-114.83959,45.12996],[-114.83875,45.12991],[-114.83824,45.13038],[-114.83762,45.13051],[-114.83689,45.12986],[-114.83696,45.1291],[-114.83764,45.12847],[-114.83712,45.12798],[-114.83653,45.12842],[-114.83623,45.12888],[-114.83577,45.12913],[-114.83468,45.12916],[-114.83467,45.12964],[-114.83409,45.12964],[-114.83407,45.12954],[-114.83356,45.12986],[-114.83294,45.12961],[-114.83282,45.1293],[-114.83198,45.12964],[-114.83058,45.12959],[-114.82974,45.1293],[-114.829,45.1293],[-114.828,45.13015],[-114.82744,45.13086],[-114.82678,45.13131],[-114.82737,45.13161],[-114.82782,45.13162],[-114.82879,45.1322],[-114.82906,45.13277],[-114.83022,45.1333],[-114.83116,45.13412],[-114.83133,45.13463],[-114.83162,45.13459],[-114.83215,45.13482],[-114.83257,45.13452],[-114.83345,45.13488],[-114.83448,45.13507],[-114.83517,45.13559],[-114.83548,45.13525],[-114.83534,45.13458],[-114.83543,45.1342],[-114.83552,45.13406],[-114.8362,45.13392],[-114.83638,45.13367],[-114.83599,45.1336],[-114.83624,45.13339],[-114.83605,45.13306],[-114.83607,45.13278],[-114.83547,45.13283],[-114.8352,45.13274],[-114.83516,45.1326],[-114.83539,45.13219],[-114.83602,45.13157],[-114.83688,45.13106],[-114.8379,45.13138],[-114.83852,45.13059],[-114.841,45.13072],[-114.8411,45.13047],[-114.84135,45.13031],[-114.842,45.13028],[-114.84191,45.13013],[-114.84204,45.13001],[-114.84292,45.13002],[-114.84341,45.12957],[-114.84349,45.12917],[-114.84386,45.12889],[-114.84444,45.12906],[-114.84441,45.12944],[-114.84417,45.12972],[-114.84379,45.12978],[-114.84372,45.13018],[-114.8439,45.1307],[-114.84489,45.13089],[-114.84578,45.13046],[-114.84628,45.13046],[-114.84688,45.13066],[-114.84598,45.13137],[-114.84582,45.13168],[-114.84603,45.1322],[-114.84589,45.13276],[-114.84601,45.13308],[-114.84583,45.13325],[-114.84582,45.13377],[-114.84533,45.13367],[-114.84494,45.1343],[-114.84516,45.13477],[-114.84501,45.13488],[-114.84349,45.13504],[-114.84346,45.13529],[-114.84377,45.13545],[-114.84364,45.13553],[-114.84278,45.13561],[-114.84255,45.1355],[-114.84244,45.1356],[-114.84264,45.136],[-114.84301,45.13587],[-114.84362,45.13611],[-114.84367,45.13649],[-114.8431,45.13653],[-114.84297,45.13669],[-114.84244,45.13684],[-114.84231,45.137],[-114.84237,45.13722],[-114.84212,45.13726],[-114.84156,45.13705],[-114.84074,45.13623],[-114.84017,45.13647],[-114.83985,45.13702],[-114.83831,45.13774],[-114.83742,45.13789],[-114.83735,45.13836],[-114.83694,45.13877],[-114.83667,45.13873],[-114.83317,45.13999],[-114.83211,45.13959],[-114.82885,45.13993],[-114.82787,45.13945],[-114.82602,45.13933],[-114.82486,45.13873],[-114.82323,45.13876],[-114.82167,45.13939],[-114.8205,45.13918],[-114.8202,45.13833],[-114.82084,45.13749],[-114.8214,45.1371],[-114.82248,45.13569],[-114.82151,45.13519],[-114.82118,45.13462],[-114.82048,45.13406],[-114.81958,45.13272],[-114.81911,45.13235],[-114.81823,45.13225],[-114.8177,45.13236],[-114.81664,45.13294],[-114.81603,45.13302],[-114.81563,45.13262],[-114.81568,45.13171],[-114.81533,45.13028],[-114.81588,45.12848],[-114.81553,45.12897],[-114.81486,45.1289],[-114.81388,45.13057],[-114.81314,45.13115],[-114.8117,45.13075],[-114.81148,45.12954],[-114.8084,45.13003],[-114.80828,45.1303],[-114.80742,45.13076],[-114.80721,45.13124],[-114.80758,45.13172],[-114.80768,45.13366],[-114.80826,45.13395],[-114.80843,45.13416],[-114.80697,45.13672],[-114.80766,45.13721],[-114.80724,45.13828],[-114.8075,45.13908],[-114.80656,45.14027],[-114.80741,45.14055],[-114.80732,45.14092],[-114.80665,45.14088],[-114.80674,45.14125],[-114.80627,45.14167],[-114.80613,45.14197],[-114.80501,45.14228],[-114.80536,45.14292],[-114.80454,45.14316],[-114.80371,45.14309],[-114.80321,45.14286],[-114.80151,45.14331],[-114.80124,45.14381],[-114.80026,45.14442],[-114.79937,45.14467],[-114.79924,45.14515],[-114.79945,45.14548],[-114.79876,45.14553],[-114.79808,45.14591],[-114.79751,45.14566],[-114.79721,45.14533],[-114.79656,45.14592],[-114.79573,45.14618],[-114.79578,45.14646],[-114.79646,45.14672],[-114.79655,45.14732],[-114.79631,45.14895],[-114.79391,45.15097],[-114.79395,45.15164],[-114.79336,45.15202],[-114.79352,45.15236],[-114.79327,45.1535],[-114.79202,45.15408],[-114.79182,45.15429],[-114.78992,45.15428],[-114.78914,45.15393],[-114.78848,45.15577],[-114.78789,45.157],[-114.78746,45.15745],[-114.78606,45.15825],[-114.78449,45.15796],[-114.7841,45.15778],[-114.78371,45.15704],[-114.78269,45.15828],[-114.78216,45.1587],[-114.78164,45.1585],[-114.78153,45.15788]]],[[[-114.79742,45.08117],[-114.79746,45.08113],[-114.79783,45.08119],[-114.79742,45.08117]]],[[[-114.80742,45.0897],[-114.80751,45.08963],[-114.80752,45.08968],[-114.80742,45.0897]]],[[[-114.80828,45.09009],[-114.80839,45.09008],[-114.80828,45.09015],[-114.80828,45.09009]]],[[[-114.80505,45.09027],[-114.80518,45.09031],[-114.80499,45.09036],[-114.80505,45.09027]]],[[[-114.88423,45.09919],[-114.88557,45.09919],[-114.88396,45.09976],[-114.88335,45.09946],[-114.88423,45.09919]]],[[[-114.88091,45.09943],[-114.88141,45.09922],[-114.88143,45.09972],[-114.88102,45.09978],[-114.88091,45.09943]]],[[[-114.86232,45.10104],[-114.86248,45.10037],[-114.86312,45.101],[-114.86232,45.10104]]],[[[-114.86502,45.10152],[-114.86508,45.10134],[-114.86576,45.10144],[-114.86421,45.10203],[-114.86357,45.10206],[-114.86502,45.10152]]],[[[-114.77162,45.12582],[-114.77188,45.12572],[-114.7724,45.12597],[-114.77162,45.12582]]],[[[-114.8422,45.12961],[-114.84278,45.12931],[-114.84292,45.12953],[-114.84286,45.12984],[-114.8422,45.12961]]],[[[-114.79155,45.15619],[-114.79249,45.15573],[-114.79286,45.15579],[-114.7933,45.15746],[-114.79305,45.15767],[-114.79226,45.15769],[-114.79128,45.15724],[-114.79155,45.15619]]],[[[-114.78787,45.16064],[-114.78827,45.16039],[-114.78829,45.16094],[-114.78791,45.16103],[-114.7878,45.16089],[-114.78787,45.16064]]]]},"properties":{"fire_id":"ufid:2025-IDPAF-005844","source_collection":"history-2025","source_objectid":48604,"incident_name":"Rush","mapped_acres":7907.576,"mapped_acres_source":"poly_GISAcres","gis_acres":7907.576,"auto_acres":7907.546325247549,"reported_acres":7908.0,"percent_contained":null,"state":"ID","state_wfigs":"US-ID","county":"Valley","discovery_time_utc":"2025-07-10T18:14:00Z","perimeter_time_utc":"2025-11-18T19:32:19Z","perimeter_edit_time_utc":null,"incident_modified_time_utc":"2025-11-18T15:22:04Z","containment_time_utc":"2025-11-17T21:00:00Z","control_time_utc":"2025-11-17T21:30:00Z","fire_out_time_utc":"2025-11-17T22:00:00Z","fire_cause":"Natural","fire_cause_general":"Natural","map_method":"Remote Sensing Derived","source_dataset":"FFP","unique_fire_identifier":"2025-IDPAF-005844","irwin_id":"{033F9C7B-0E50-4ADD-80C3-63D666208700}","global_id":"62a638e2-d102-4069-877d-8ed4c0dd15c6"}},{"type":"Feature","geometry":{"type":"Polygon","coordinates":[[[-114.70363,45.9237],[-114.7021,45.92243],[-114.70192,45.92196],[-114.70085,45.92224],[-114.70071,45.92145],[-114.7005,45.92132],[-114.69853,45.92086],[-114.69807,45.92089],[-114.69828,45.92054],[-114.69893,45.91996],[-114.69838,45.91947],[-114.69822,45.91903],[-114.69755,45.91875],[-114.6963,45.91859],[-114.69632,45.91876],[-114.69564,45.91876],[-114.6955,45.91867],[-114.69563,45.91845],[-114.69521,45.91838],[-114.69518,45.91852],[-114.69499,45.91856],[-114.69491,45.91832],[-114.69442,45.91825],[-114.69386,45.91844],[-114.69359,45.91836],[-114.69325,45.91815],[-114.69331,45.91793],[-114.693,45.91768],[-114.69227,45.9173],[-114.69198,45.91734],[-114.6921,45.91717],[-114.69201,45.91711],[-114.69109,45.91691],[-114.6906,45.91663],[-114.68992,45.91718],[-114.68917,45.91748],[-114.68808,45.91722],[-114.68764,45.91669],[-114.68744,45.91685],[-114.68723,45.91673],[-114.68723,45.91653],[-114.68647,45.91652],[-114.68634,45.91673],[-114.68521,45.91699],[-114.68434,45.9175],[-114.68391,45.91759],[-114.68388,45.91747],[-114.68456,45.91666],[-114.68438,45.91666],[-114.68383,45.91723],[-114.68354,45.91702],[-114.68376,45.91645],[-114.68364,45.91639],[-114.68342,45.91656],[-114.68308,45.91629],[-114.68252,45.91635],[-114.68234,45.91629],[-114.68221,45.916],[-114.68263,45.91519],[-114.6829,45.91506],[-114.68376,45.91507],[-114.68358,45.91444],[-114.68389,45.9139],[-114.68552,45.91331],[-114.68533,45.91275],[-114.68562,45.91218],[-114.68631,45.91179],[-114.68632,45.91148],[-114.6862,45.91103],[-114.68561,45.91023],[-114.6862,45.90986],[-114.68667,45.90992],[-114.68726,45.90968],[-114.68713,45.90939],[-114.68718,45.90876],[-114.68729,45.90864],[-114.68801,45.90854],[-114.6886,45.90785],[-114.6878,45.90779],[-114.68606,45.90704],[-114.68576,45.90665],[-114.68579,45.9062],[-114.68721,45.90519],[-114.68706,45.90501],[-114.68739,45.9046],[-114.68795,45.90432],[-114.68915,45.90458],[-114.69004,45.90366],[-114.69137,45.9027],[-114.69236,45.90237],[-114.69236,45.90203],[-114.69264,45.90154],[-114.69362,45.90054],[-114.69362,45.90026],[-114.69326,45.89964],[-114.69471,45.89902],[-114.69508,45.89834],[-114.69731,45.89748],[-114.69802,45.89729],[-114.69952,45.89725],[-114.70182,45.89672],[-114.70241,45.89637],[-114.70288,45.89658],[-114.70329,45.89646],[-114.70397,45.89649],[-114.70402,45.89684],[-114.70381,45.89758],[-114.70374,45.89888],[-114.70388,45.89917],[-114.70464,45.89971],[-114.70461,45.90066],[-114.70504,45.90154],[-114.70509,45.90225],[-114.70497,45.90253],[-114.70471,45.90272],[-114.70447,45.90381],[-114.70409,45.90478],[-114.70426,45.90566],[-114.70378,45.90602],[-114.70376,45.90625],[-114.7039,45.90692],[-114.70461,45.90756],[-114.70509,45.90922],[-114.70341,45.90995],[-114.70314,45.91019],[-114.70259,45.91034],[-114.70251,45.91108],[-114.70264,45.91139],[-114.70239,45.91163],[-114.70267,45.91233],[-114.70222,45.91315],[-114.70237,45.9135],[-114.70191,45.9143],[-114.70146,45.91463],[-114.70116,45.91525],[-114.70127,45.91564],[-114.70205,45.91638],[-114.70397,45.9167],[-114.70506,45.91655],[-114.705,45.91775],[-114.70368,45.91808],[-114.70367,45.91823],[-114.70347,45.91815],[-114.70308,45.91827],[-114.704,45.91911],[-114.70385,45.91983],[-114.70396,45.92067],[-114.70328,45.92111],[-114.70358,45.92165],[-114.70438,45.92228],[-114.70439,45.92279],[-114.70404,45.92313],[-114.70418,45.92356],[-114.70399,45.92373],[-114.70363,45.9237]]]},"properties":{"fire_id":"ufid:2025-MTBRF-000416","source_collection":"history-2025","source_objectid":50325,"incident_name":"Wapiti Creek","mapped_acres":730.141,"mapped_acres_source":"poly_GISAcres","gis_acres":730.141,"auto_acres":730.1382300051392,"reported_acres":730.0,"percent_contained":null,"state":"ID","state_wfigs":"US-ID","county":"Idaho","discovery_time_utc":"2025-08-02T00:27:00Z","perimeter_time_utc":"2026-01-16T16:26:59Z","perimeter_edit_time_utc":null,"incident_modified_time_utc":"2025-10-16T19:32:00Z","containment_time_utc":null,"control_time_utc":null,"fire_out_time_utc":"2025-12-09T16:00:00Z","fire_cause":"Natural","fire_cause_general":"Natural","map_method":"IR Image Interpretation","source_dataset":"FFP","unique_fire_identifier":"2025-MTBRF-000416","irwin_id":"{D4AC2CE4-3D68-4159-A484-A1AF32A22A9A}","global_id":"409a872d-527c-4701-8349-117b10feea29"}},{"type":"Feature","geometry":{"type":"Polygon","coordinates":[[[-114.64691,45.90821],[-114.64638,45.90804],[-114.64627,45.90751],[-114.64593,45.90741],[-114.64607,45.90695],[-114.64554,45.90639],[-114.64548,45.90611],[-114.64521,45.90599],[-114.64487,45.90613],[-114.64473,45.9059],[-114.64391,45.90561],[-114.64389,45.90511],[-114.64416,45.90494],[-114.64506,45.90503],[-114.64553,45.90572],[-114.646,45.90584],[-114.6469,45.90637],[-114.64713,45.90662],[-114.64712,45.90723],[-114.64786,45.90774],[-114.64809,45.90818],[-114.64691,45.90821]]]},"properties":{"fire_id":"ufid:2025-MTBRF-000552","source_collection":"history-2025","source_objectid":50326,"incident_name":"Barefoot Creek","mapped_acres":9.228922,"mapped_acres_source":"poly_GISAcres","gis_acres":9.228922,"auto_acres":9.228886949139204,"reported_acres":9.0,"percent_contained":null,"state":"ID","state_wfigs":"US-ID","county":"Idaho","discovery_time_utc":"2025-08-26T21:17:42Z","perimeter_time_utc":"2026-01-16T16:25:13Z","perimeter_edit_time_utc":null,"incident_modified_time_utc":"2025-10-16T19:49:05Z","containment_time_utc":null,"control_time_utc":null,"fire_out_time_utc":"2025-12-09T16:00:00Z","fire_cause":"Natural","fire_cause_general":"Natural","map_method":"Image Interpretation","source_dataset":"FFP","unique_fire_identifier":"2025-MTBRF-000552","irwin_id":"{83FE8D12-78BF-4A3E-B4F2-2E375264696E}","global_id":"a2578ddc-a5f6-4c00-8d80-426ddc4f2e31"}},{"type":"Feature","geometry":{"type":"Polygon","coordinates":[[[-114.77548,45.89271],[-114.77441,45.89229],[-114.77406,45.89183],[-114.77422,45.89158],[-114.77465,45.8915],[-114.77472,45.89139],[-114.77445,45.89123],[-114.77442,45.89107],[-114.7748,45.89089],[-114.77395,45.89076],[-114.77395,45.89024],[-114.77422,45.88905],[-114.77372,45.88844],[-114.77325,45.88856],[-114.77306,45.88835],[-114.77074,45.88883],[-114.77031,45.88882],[-114.77014,45.88869],[-114.77006,45.88824],[-114.77022,45.88805],[-114.77114,45.8876],[-114.77144,45.88728],[-114.77265,45.88684],[-114.77242,45.88655],[-114.7724,45.88558],[-114.77214,45.88498],[-114.77222,45.88484],[-114.77266,45.8847],[-114.77383,45.88466],[-114.77422,45.88492],[-114.77578,45.88501],[-114.77589,45.88553],[-114.77719,45.88605],[-114.77897,45.88576],[-114.78063,45.88577],[-114.78095,45.88527],[-114.7809,45.88489],[-114.78128,45.88461],[-114.78234,45.88517],[-114.78247,45.88557],[-114.7833,45.88534],[-114.78381,45.88567],[-114.78428,45.8866],[-114.78435,45.88711],[-114.78383,45.88741],[-114.78339,45.88747],[-114.78243,45.88734],[-114.78168,45.88755],[-114.78059,45.88842],[-114.7804,45.88932],[-114.7797,45.89033],[-114.77933,45.89074],[-114.77876,45.89103],[-114.77899,45.8916],[-114.77788,45.89194],[-114.7764,45.89149],[-114.77689,45.89197],[-114.77682,45.89215],[-114.7759,45.89249],[-114.77583,45.89268],[-114.77548,45.89271]]]},"properties":{"fire_id":"ufid:2025-MTBRF-000540","source_collection":"history-2025","source_objectid":50327,"incident_name":"Waldo Bar","mapped_acres":120.861,"mapped_acres_source":"poly_GISAcres","gis_acres":120.861,"auto_acres":120.86050931040516,"reported_acres":121.0,"percent_contained":null,"state":"ID","state_wfigs":"US-ID","county":"Idaho","discovery_time_utc":"2025-08-23T18:39:50Z","perimeter_time_utc":"2026-01-16T16:28:50Z","perimeter_edit_time_utc":null,"incident_modified_time_utc":"2025-10-16T19:39:32Z","containment_time_utc":null,"control_time_utc":null,"fire_out_time_utc":"2025-12-09T16:00:00Z","fire_cause":"Natural","fire_cause_general":"Natural","map_method":"IR Image Interpretation","source_dataset":"FFP","unique_fire_identifier":"2025-MTBRF-000540","irwin_id":"{1226BDB1-B9D9-42E4-B507-B631C5E9B3E1}","global_id":"551bb05f-492a-4421-9492-e9b7ae8f2cd1"}},{"type":"Feature","geometry":{"type":"MultiPolygon","coordinates":[[[[-114.86403,45.75376],[-114.86291,45.75279],[-114.86253,45.75308],[-114.86163,45.75331],[-114.86118,45.75359],[-114.85996,45.75361],[-114.85926,45.75386],[-114.85841,45.75396],[-114.85721,45.75237],[-114.85738,45.7521],[-114.85735,45.75165],[-114.85766,45.75161],[-114.85778,45.75147],[-114.85726,45.75118],[-114.85855,45.75091],[-114.85877,45.75063],[-114.85835,45.74943],[-114.8587,45.74925],[-114.85879,45.74858],[-114.85972,45.74668],[-114.85939,45.74555],[-114.85962,45.7448],[-114.85891,45.74413],[-114.85824,45.74391],[-114.85912,45.74206],[-114.85875,45.74174],[-114.85866,45.74102],[-114.85885,45.74006],[-114.85982,45.73863],[-114.85997,45.73793],[-114.86043,45.73725],[-114.86159,45.73666],[-114.86285,45.73646],[-114.86343,45.73665],[-114.86404,45.73641],[-114.86469,45.73658],[-114.86492,45.73694],[-114.865,45.73772],[-114.8659,45.73846],[-114.86695,45.73891],[-114.86703,45.74005],[-114.86793,45.74029],[-114.86887,45.73901],[-114.86957,45.73892],[-114.87035,45.73902],[-114.87068,45.73965],[-114.87063,45.73996],[-114.87134,45.74012],[-114.87206,45.73997],[-114.87275,45.74034],[-114.87304,45.74101],[-114.87433,45.74163],[-114.87442,45.74243],[-114.87413,45.74294],[-114.87503,45.74343],[-114.87519,45.74392],[-114.87568,45.74468],[-114.8766,45.74553],[-114.87734,45.74601],[-114.87733,45.74688],[-114.87867,45.7469],[-114.87906,45.74663],[-114.87937,45.74658],[-114.88109,45.74674],[-114.88187,45.74603],[-114.88208,45.74558],[-114.8823,45.74626],[-114.88254,45.7459],[-114.88234,45.74528],[-114.88272,45.74515],[-114.88372,45.74522],[-114.88484,45.746],[-114.88506,45.7467],[-114.88468,45.74745],[-114.88378,45.74796],[-114.88392,45.7483],[-114.88293,45.74863],[-114.88243,45.74912],[-114.88181,45.7494],[-114.88104,45.75026],[-114.88167,45.7509],[-114.88197,45.75157],[-114.88168,45.75232],[-114.88089,45.75232],[-114.87948,45.75266],[-114.87886,45.75296],[-114.87865,45.75345],[-114.87745,45.75395],[-114.87622,45.7542],[-114.87595,45.75449],[-114.8755,45.75428],[-114.87556,45.75402],[-114.87517,45.7538],[-114.87509,45.75329],[-114.87455,45.75291],[-114.8737,45.75289],[-114.87321,45.75256],[-114.87246,45.75256],[-114.87166,45.75319],[-114.86986,45.75371],[-114.86933,45.75358],[-114.86912,45.75336],[-114.86822,45.7532],[-114.86791,45.75323],[-114.86803,45.75364],[-114.86764,45.75375],[-114.86646,45.75364],[-114.86605,45.75345],[-114.86553,45.75384],[-114.86525,45.7543],[-114.86411,45.75463],[-114.86385,45.75421],[-114.86403,45.75376]]],[[[-114.85694,45.75095],[-114.85707,45.75082],[-114.85714,45.75104],[-114.85694,45.75095]]]]},"properties":{"fire_id":"ufid:2025-MTBRF-000516","source_collection":"history-2025","source_objectid":50333,"incident_name":"Lonely Mountain","mapped_acres":629.5661,"mapped_acres_source":"poly_GISAcres","gis_acres":629.5661,"auto_acres":629.5637212852192,"reported_acres":629.0,"percent_contained":null,"state":"ID","state_wfigs":"US-ID","county":"Idaho","discovery_time_utc":"2025-08-20T01:14:00Z","perimeter_time_utc":"2026-01-16T16:50:58Z","perimeter_edit_time_utc":null,"incident_modified_time_utc":"2025-10-16T19:27:40Z","containment_time_utc":null,"control_time_utc":null,"fire_out_time_utc":"2025-12-09T16:00:00Z","fire_cause":"Natural","fire_cause_general":"Natural","map_method":"IR Image Interpretation","source_dataset":"FFP","unique_fire_identifier":"2025-MTBRF-000516","irwin_id":"{1B084AB9-EF57-4C87-AC9A-C0C72ADC3BE6}","global_id":"3d4de37a-1842-48fd-888f-4ca1136fbe3e"}},{"type":"Feature","geometry":{"type":"MultiPolygon","coordinates":[[[[-114.88572,46.75733],[-114.88565,46.75733],[-114.88567,46.75731],[-114.88572,46.75733]]],[[[-114.88565,46.75733],[-114.88552,46.75751],[-114.88602,46.75744],[-114.88685,46.75774],[-114.88717,46.75801],[-114.88712,46.75814],[-114.88814,46.75882],[-114.88823,46.75968],[-114.88773,46.76017],[-114.88774,46.76031],[-114.88805,46.7602],[-114.88852,46.7607],[-114.88864,46.76108],[-114.8885,46.76116],[-114.88819,46.76104],[-114.88694,46.76139],[-114.88696,46.76159],[-114.88785,46.76177],[-114.88778,46.76196],[-114.88623,46.7625],[-114.88616,46.76222],[-114.88548,46.76191],[-114.88458,46.76197],[-114.88462,46.76237],[-114.8841,46.76284],[-114.88369,46.76256],[-114.88428,46.76187],[-114.88423,46.76165],[-114.88376,46.76177],[-114.88406,46.76122],[-114.88319,46.76116],[-114.88298,46.76138],[-114.88227,46.76102],[-114.88161,46.76137],[-114.88138,46.76131],[-114.8811,46.76086],[-114.88138,46.7607],[-114.88126,46.76011],[-114.88162,46.76012],[-114.88174,46.75968],[-114.88213,46.7596],[-114.88234,46.75911],[-114.88304,46.75881],[-114.88284,46.75843],[-114.88345,46.75834],[-114.88358,46.7577],[-114.8848,46.75732],[-114.88565,46.75733]]]]},"properties":{"fire_id":"ufid:2025-IDNCF-000851","source_collection":"history-2025","source_objectid":50600,"incident_name":"Bruin Creek","mapped_acres":30.0,"mapped_acres_source":"poly_GISAcres","gis_acres":30.0,"auto_acres":51.244798553351124,"reported_acres":51.1,"percent_contained":null,"state":"ID","state_wfigs":"US-ID","county":"Clearwater","discovery_time_utc":"2025-09-10T00:56:34Z","perimeter_time_utc":"2026-02-04T22:29:50Z","perimeter_edit_time_utc":null,"incident_modified_time_utc":"2025-11-21T17:35:42Z","containment_time_utc":"2025-11-20T19:00:00Z","control_time_utc":"2025-11-20T19:30:00Z","fire_out_time_utc":"2025-11-20T20:00:00Z","fire_cause":"Natural","fire_cause_general":"Natural","map_method":"Auto-generated for InFORM","source_dataset":"FFP","unique_fire_identifier":"2025-IDNCF-000851","irwin_id":"{8D16D2D7-ED0D-4F0A-AE8F-370E70936886}","global_id":"7c40d833-64ee-4d84-9bd7-3628e58ef398"}}]}
