{"type":"FeatureCollection","features":[{"type":"Feature","geometry":{"type":"Polygon","coordinates":[[[-88.13297,41.34019],[-88.13293,41.34019],[-88.13293,41.34015],[-88.13297,41.34019]]]},"properties":{"fire_id":"ufid:2025-ILMPF-250427","source_collection":"history-2025","source_objectid":43043,"incident_name":"Gemini","mapped_acres":0.01,"mapped_acres_source":"poly_GISAcres","gis_acres":0.01,"auto_acres":0.0033375967734377457,"reported_acres":0.1,"percent_contained":null,"state":"IL","state_wfigs":"US-IL","county":"Will","discovery_time_utc":"2025-07-17T15:00:00Z","perimeter_time_utc":"2025-08-05T17:34:30Z","perimeter_edit_time_utc":null,"incident_modified_time_utc":"2025-08-05T17:21:16Z","containment_time_utc":"2025-07-17T15:00:00Z","control_time_utc":"2025-07-17T15:00:00Z","fire_out_time_utc":"2025-07-17T15:00:00Z","fire_cause":"Human","fire_cause_general":"Equipment and vehicle use","map_method":"Hand Sketch","source_dataset":"FFP","unique_fire_identifier":"2025-ILMPF-250427","irwin_id":"{5B292471-6410-4DD1-ABE1-D9C8EB424F51}","global_id":"6f235968-8dc0-496b-927e-e7688f2c76ab"}}]}
