{"type":"FeatureCollection","features":[{"type":"Feature","geometry":{"type":"Polygon","coordinates":[[[-87.32224,41.60574],[-87.32236,41.6054],[-87.32746,41.60551],[-87.32595,41.6059],[-87.32401,41.60606],[-87.32375,41.60572],[-87.32224,41.60574]]]},"properties":{"fire_id":"ufid:2025-INIDP-250019","source_collection":"history-2025","source_objectid":39826,"incident_name":"Great Lakes Cafe Fire","mapped_acres":1.0,"mapped_acres_source":"poly_GISAcres","gis_acres":1.0,"auto_acres":4.3209717575903905,"reported_acres":4.5,"percent_contained":null,"state":"IN","state_wfigs":"US-IN","county":"Lake","discovery_time_utc":"2025-03-03T18:50:00Z","perimeter_time_utc":"2025-09-26T13:31:09Z","perimeter_edit_time_utc":null,"incident_modified_time_utc":"2025-09-26T13:29:49Z","containment_time_utc":null,"control_time_utc":null,"fire_out_time_utc":"2025-03-07T14:30:00Z","fire_cause":"Human","fire_cause_general":"Railroad operations and maintenance","map_method":"Auto-generated for InFORM","source_dataset":"FFP","unique_fire_identifier":"2025-INIDP-250019","irwin_id":"{02D70654-E374-426A-91FD-AF6D41533929}","global_id":"439418d9-f696-4ab1-a085-4c2ae1c28fb4"}}]}
