{"type":"FeatureCollection","features":[{"type":"Feature","geometry":{"type":"Polygon","coordinates":[[[-92.84322,30.01762],[-92.85159,30.02354],[-92.85134,30.02445],[-92.85129,30.02543],[-92.85332,30.02648],[-92.85377,30.02832],[-92.85242,30.02976],[-92.85154,30.03037],[-92.85037,30.03054],[-92.84918,30.03097],[-92.84615,30.03143],[-92.84531,30.03139],[-92.84354,30.03181],[-92.84159,30.03302],[-92.84088,30.03298],[-92.83984,30.03266],[-92.84171,30.02911],[-92.8419,30.0267],[-92.84204,30.01268],[-92.84159,30.00921],[-92.84114,30.00858],[-92.8418,30.00808],[-92.8424,30.00741],[-92.84376,30.00664],[-92.84503,30.00662],[-92.84827,30.00776],[-92.84997,30.00803],[-92.85098,30.00949],[-92.85145,30.00993],[-92.8488,30.01054],[-92.84648,30.01136],[-92.84477,30.01233],[-92.84355,30.01354],[-92.84261,30.01552],[-92.84272,30.0169],[-92.84322,30.01762]]]},"properties":{"fire_id":"ufid:2025-LALCR-000074","source_collection":"history-2025","source_objectid":41354,"incident_name":"Coto North Wildfire","mapped_acres":0.1,"mapped_acres_source":"poly_GISAcres","gis_acres":0.1,"auto_acres":428.62524619192095,"reported_acres":428.63,"percent_contained":null,"state":"LA","state_wfigs":"US-LA","county":"Cameron","discovery_time_utc":"2025-03-20T19:30:00Z","perimeter_time_utc":"2025-07-01T17:38:05Z","perimeter_edit_time_utc":null,"incident_modified_time_utc":"2025-04-23T14:12:40Z","containment_time_utc":"2025-04-23T14:12:00Z","control_time_utc":"2025-04-23T14:12:00Z","fire_out_time_utc":"2025-04-24T13:00:00Z","fire_cause":"Undetermined","fire_cause_general":"Undetermined","map_method":"Auto-generated for InFORM","source_dataset":"FFP","unique_fire_identifier":"2025-LALCR-000074","irwin_id":"{21AFD857-BFD2-4F74-856C-2D531B892D3A}","global_id":"b331f392-338a-486a-b800-e80be9ecb948"}},{"type":"Feature","geometry":{"type":"Polygon","coordinates":[[[-93.74435,30.00678],[-93.74514,30.0064],[-93.74546,30.00583],[-93.74562,30.00385],[-93.7459,30.00281],[-93.74628,30.00204],[-93.74717,30.00117],[-93.74856,30.00036],[-93.75031,29.9996],[-93.7516,29.99916],[-93.75191,29.99946],[-93.75218,30.0004],[-93.75198,30.0006],[-93.75153,30.00066],[-93.75026,30.00137],[-93.7499,30.00271],[-93.74919,30.00312],[-93.74794,30.00313],[-93.74726,30.00512],[-93.74606,30.00692],[-93.74584,30.007],[-93.74553,30.0068],[-93.74548,30.0067],[-93.74591,30.00677],[-93.74591,30.0066],[-93.74577,30.00639],[-93.74548,30.00643],[-93.74533,30.00669],[-93.74557,30.00689],[-93.7454,30.00698],[-93.7454,30.00724],[-93.7452,30.00755],[-93.74482,30.00705],[-93.74435,30.00678]]]},"properties":{"fire_id":"ufid:2025-LASBR-LA-SBR005","source_collection":"history-2025","source_objectid":46052,"incident_name":"Black Bayou West 1","mapped_acres":50.53,"mapped_acres_source":"poly_GISAcres","gis_acres":50.53,"auto_acres":50.52865193550312,"reported_acres":50.53,"percent_contained":null,"state":"LA","state_wfigs":"US-LA","county":"Cameron","discovery_time_utc":"2025-07-08T17:00:55Z","perimeter_time_utc":"2025-09-18T20:21:57Z","perimeter_edit_time_utc":null,"incident_modified_time_utc":"2025-07-09T16:31:48Z","containment_time_utc":"2025-07-09T21:30:00Z","control_time_utc":"2025-07-09T21:30:00Z","fire_out_time_utc":"2025-07-09T21:30:00Z","fire_cause":"Undetermined","fire_cause_general":"Undetermined","map_method":"Hand Sketch","source_dataset":"FFP","unique_fire_identifier":"2025-LASBR-LA-SBR005","irwin_id":"{639FBDD5-4D86-4AD8-A374-76186E7A056C}","global_id":"2f849a21-df11-4fe6-8e04-9811d1555b83"}},{"type":"Feature","geometry":{"type":"Polygon","coordinates":[[[-93.00192,30.98918],[-93.00152,30.98853],[-93.0015,30.98812],[-93.00157,30.98787],[-93.00189,30.98775],[-93.00203,30.98729],[-93.00287,30.98707],[-93.00354,30.98726],[-93.0042,30.98778],[-93.00462,30.98834],[-93.00466,30.98855],[-93.00428,30.98904],[-93.00392,30.98903],[-93.00353,30.98936],[-93.00324,30.98937],[-93.00302,30.98919],[-93.00231,30.98936],[-93.00192,30.98918]]]},"properties":{"fire_id":"ufid:2025-LAKIF-000308","source_collection":"history-2025","source_objectid":46283,"incident_name":"Enduro Camp","mapped_acres":14.0,"mapped_acres_source":"poly_GISAcres","gis_acres":14.0,"auto_acres":13.88096932678448,"reported_acres":14.0,"percent_contained":null,"state":"LA","state_wfigs":"US-LA","county":"Vernon","discovery_time_utc":"2025-09-19T00:54:13Z","perimeter_time_utc":"2025-12-31T15:47:30Z","perimeter_edit_time_utc":null,"incident_modified_time_utc":"2025-12-31T15:46:13Z","containment_time_utc":"2025-09-20T15:40:00Z","control_time_utc":"2025-09-29T19:49:00Z","fire_out_time_utc":"2025-10-14T15:30:00Z","fire_cause":"Human","fire_cause_general":"Other causes","map_method":"Auto-generated for InFORM","source_dataset":"FFP","unique_fire_identifier":"2025-LAKIF-000308","irwin_id":"{D9759DA8-8A59-4D13-9A4F-2CD38C7AA2CB}","global_id":"84e664a8-fe74-48b4-b885-495d82e4fa8b"}},{"type":"Feature","geometry":{"type":"Polygon","coordinates":[[[-92.40533,31.58124],[-92.40518,31.57965],[-92.40529,31.57821],[-92.40677,31.57803],[-92.40742,31.57873],[-92.40759,31.57961],[-92.40732,31.58106],[-92.40533,31.58124]]]},"properties":{"fire_id":"ufid:2025-LAKIF-000238","source_collection":"history-2025","source_objectid":46601,"incident_name":"Hammer head","mapped_acres":0.01,"mapped_acres_source":"poly_GISAcres","gis_acres":0.01,"auto_acres":16.993598967668426,"reported_acres":17.0,"percent_contained":null,"state":"LA","state_wfigs":"US-LA","county":"Grant","discovery_time_utc":"2025-07-23T00:03:00Z","perimeter_time_utc":"2025-09-30T18:34:59Z","perimeter_edit_time_utc":null,"incident_modified_time_utc":"2025-08-21T16:27:03Z","containment_time_utc":"2025-07-23T03:11:00Z","control_time_utc":"2025-07-25T16:09:00Z","fire_out_time_utc":"2025-08-21T16:25:00Z","fire_cause":"Natural","fire_cause_general":"Natural","map_method":"Auto-generated for InFORM","source_dataset":"FFP","unique_fire_identifier":"2025-LAKIF-000238","irwin_id":"{366E52AB-7C4D-4A71-AB9C-D137896617D4}","global_id":"427fc21d-3577-4e37-87ea-22e5655c5b50"}},{"type":"Feature","geometry":{"type":"Polygon","coordinates":[[[-92.92235,31.99456],[-92.92246,31.99113],[-92.92646,31.99117],[-92.92638,31.99448],[-92.92235,31.99456]]]},"properties":{"fire_id":"ufid:2025-LAKIF-000067","source_collection":"history-2025","source_objectid":46607,"incident_name":"Mill Creek","mapped_acres":32.0,"mapped_acres_source":"poly_GISAcres","gis_acres":32.0,"auto_acres":35.12953878303291,"reported_acres":32.0,"percent_contained":null,"state":"LA","state_wfigs":"US-LA","county":"Natchitoches","discovery_time_utc":"2025-03-17T20:03:09Z","perimeter_time_utc":"2025-11-20T14:12:55Z","perimeter_edit_time_utc":null,"incident_modified_time_utc":"2025-09-29T16:05:35Z","containment_time_utc":"2025-03-17T21:37:00Z","control_time_utc":"2025-03-20T20:13:00Z","fire_out_time_utc":"2025-04-23T14:10:00Z","fire_cause":"Human","fire_cause_general":"Debris and open burning","map_method":"Auto-generated for InFORM","source_dataset":"FFP","unique_fire_identifier":"2025-LAKIF-000067","irwin_id":"{1CA9DD0D-578F-48DA-8332-C20C210C5434}","global_id":"80b62113-641e-40d1-9e02-2dc3abcf2bab"}},{"type":"Feature","geometry":{"type":"Polygon","coordinates":[[[-92.9947,31.49476],[-92.99429,31.4948],[-92.99307,31.49562],[-92.99231,31.49567],[-92.99118,31.49601],[-92.99013,31.4958],[-92.98855,31.49578],[-92.98727,31.49519],[-92.98661,31.49435],[-92.9866,31.49398],[-92.98728,31.49341],[-92.98762,31.49346],[-92.98785,31.49367],[-92.98902,31.49377],[-92.99021,31.49282],[-92.99083,31.49274],[-92.9916,31.49213],[-92.99188,31.49223],[-92.99345,31.49181],[-92.99397,31.49185],[-92.99393,31.49167],[-92.99457,31.49099],[-92.99527,31.49057],[-92.99551,31.48982],[-92.99524,31.48939],[-92.99535,31.48847],[-92.99437,31.48847],[-92.99308,31.48787],[-92.99301,31.48701],[-92.99274,31.48612],[-92.99277,31.48565],[-92.99302,31.48507],[-92.99359,31.48428],[-92.99369,31.48382],[-92.99447,31.48345],[-92.99523,31.4827],[-92.99719,31.4826],[-92.99804,31.48179],[-93.00011,31.48185],[-93.00026,31.48168],[-93.00021,31.48128],[-93.00034,31.48121],[-93.00062,31.48113],[-93.00085,31.48123],[-93.00124,31.48107],[-93.00193,31.48115],[-93.00371,31.47964],[-93.00433,31.47867],[-93.00428,31.47845],[-93.00404,31.47827],[-93.00405,31.47782],[-93.00477,31.47695],[-93.005,31.47641],[-93.00502,31.476],[-93.00474,31.4753],[-93.00477,31.47437],[-93.0051,31.47373],[-93.00488,31.4732],[-93.00504,31.47286],[-93.01357,31.47577],[-93.01435,31.47625],[-93.01518,31.47719],[-93.01655,31.4779],[-93.01745,31.47864],[-93.01819,31.47891],[-93.0182,31.47875],[-93.01901,31.47886],[-93.01963,31.47915],[-93.02237,31.48183],[-93.02334,31.48433],[-93.02387,31.48485],[-93.02639,31.48592],[-93.02796,31.48759],[-93.03135,31.48822],[-93.03247,31.48866],[-93.03315,31.48914],[-93.03362,31.4898],[-93.03375,31.49043],[-93.0337,31.49088],[-93.03278,31.49497],[-93.03245,31.49586],[-93.0318,31.49678],[-93.03163,31.49791],[-93.03383,31.50291],[-93.03523,31.50741],[-93.03428,31.50832],[-93.03366,31.5082],[-93.03312,31.50842],[-93.03093,31.50845],[-93.02728,31.50715],[-93.02457,31.50572],[-93.0241,31.50572],[-93.02284,31.50643],[-93.02253,31.50649],[-93.02172,31.50638],[-93.01993,31.50575],[-93.0179,31.50571],[-93.01615,31.50546],[-93.01394,31.50551],[-93.01239,31.50478],[-93.0116,31.50472],[-93.01145,31.50453],[-93.01096,31.50458],[-93.01017,31.504],[-93.00907,31.50388],[-93.00864,31.5034],[-93.00768,31.50273],[-93.00586,31.50227],[-93.00536,31.50191],[-93.00194,31.50172],[-93.0014,31.50084],[-93.00137,31.50051],[-93.00154,31.50014],[-93.00144,31.49944],[-93.00122,31.49926],[-93.00101,31.49938],[-93.0004,31.49896],[-92.99987,31.49881],[-92.99976,31.4985],[-92.99812,31.49774],[-92.99776,31.49735],[-92.99723,31.49738],[-92.99702,31.49701],[-92.99698,31.49656],[-92.99709,31.49634],[-92.99702,31.4958],[-92.99687,31.49561],[-92.99627,31.49558],[-92.99598,31.49507],[-92.9947,31.49476]]]},"properties":{"fire_id":"ufid:2025-LAKIF-000258","source_collection":"history-2025","source_objectid":48470,"incident_name":"Backbone","mapped_acres":2408.958,"mapped_acres_source":"poly_GISAcres","gis_acres":2408.958,"auto_acres":2408.949914708085,"reported_acres":2409.0,"percent_contained":null,"state":"LA","state_wfigs":"US-LA","county":"Natchitoches","discovery_time_utc":"2025-08-04T00:31:07Z","perimeter_time_utc":"2025-11-13T18:02:27Z","perimeter_edit_time_utc":null,"incident_modified_time_utc":"2025-10-11T19:46:30Z","containment_time_utc":"2025-08-25T22:00:00Z","control_time_utc":"2025-10-10T20:30:00Z","fire_out_time_utc":"2025-10-10T20:30:00Z","fire_cause":"Natural","fire_cause_general":"Natural","map_method":"Mixed Methods","source_dataset":"FFP","unique_fire_identifier":"2025-LAKIF-000258","irwin_id":"{C18AC880-0030-4146-8110-3E5001475E73}","global_id":"97b87275-3a16-4e5b-aac7-d5b25c80b9f4"}},{"type":"Feature","geometry":{"type":"Polygon","coordinates":[[[-93.04298,31.00797],[-93.04293,31.01024],[-93.04268,31.01038],[-93.04255,31.0107],[-93.0423,31.01081],[-93.04218,31.01113],[-93.04188,31.01126],[-93.0417,31.01155],[-93.04124,31.01179],[-93.04101,31.01173],[-93.04072,31.01112],[-93.04075,31.01068],[-93.04098,31.01032],[-93.04134,31.01026],[-93.04197,31.00985],[-93.04197,31.00946],[-93.04172,31.00925],[-93.04194,31.00873],[-93.04155,31.00881],[-93.04134,31.00856],[-93.04156,31.00828],[-93.0415,31.0081],[-93.04163,31.00773],[-93.04298,31.00797]]]},"properties":{"fire_id":"ufid:2025-LAKIF-000176","source_collection":"history-2025","source_objectid":49709,"incident_name":"Pit","mapped_acres":15.0,"mapped_acres_source":"poly_GISAcres","gis_acres":15.0,"auto_acres":13.37374634968182,"reported_acres":13.37,"percent_contained":null,"state":"LA","state_wfigs":"US-LA","county":"Vernon","discovery_time_utc":"2025-06-10T14:47:26Z","perimeter_time_utc":"2025-12-19T14:40:20Z","perimeter_edit_time_utc":null,"incident_modified_time_utc":"2025-06-17T13:02:45Z","containment_time_utc":"2025-06-10T16:00:00Z","control_time_utc":"2025-06-17T13:02:00Z","fire_out_time_utc":"2025-07-08T18:18:00Z","fire_cause":"Human","fire_cause_general":"Arson","map_method":"Auto-generated for InFORM","source_dataset":"FFP","unique_fire_identifier":"2025-LAKIF-000176","irwin_id":"{AC48DCF1-6B77-4DA4-9D31-DF84216FAE5F}","global_id":"14aa3360-39ed-4cf3-ac4b-87c5a97d3c09"}},{"type":"Feature","geometry":{"type":"Polygon","coordinates":[[[-92.95754,31.00087],[-92.95733,31.00107],[-92.95673,31.00073],[-92.95579,30.99993],[-92.9555,30.99931],[-92.95611,30.99847],[-92.95712,30.9976],[-92.95739,30.99758],[-92.95763,30.99814],[-92.95754,31.00087]]]},"properties":{"fire_id":"ufid:2025-LAKIF-000073","source_collection":"history-2025","source_objectid":49710,"incident_name":"Pelt","mapped_acres":12.0,"mapped_acres_source":"poly_GISAcres","gis_acres":12.0,"auto_acres":12.307770786218644,"reported_acres":12.0,"percent_contained":null,"state":"LA","state_wfigs":"US-LA","county":"Vernon","discovery_time_utc":"2025-03-20T21:00:00Z","perimeter_time_utc":"2025-12-19T14:42:23Z","perimeter_edit_time_utc":null,"incident_modified_time_utc":"2025-06-20T16:43:08Z","containment_time_utc":"2025-03-20T21:00:00Z","control_time_utc":"2025-03-24T19:36:00Z","fire_out_time_utc":"2025-04-09T15:37:00Z","fire_cause":"Human","fire_cause_general":"Arson","map_method":"Auto-generated for InFORM","source_dataset":"FFP","unique_fire_identifier":"2025-LAKIF-000073","irwin_id":"{DD23B7D8-69AF-4E4D-8155-18695B1125D5}","global_id":"45a66740-a48e-4bcb-9d6e-9e15c8482c45"}},{"type":"Feature","geometry":{"type":"Polygon","coordinates":[[[-93.18216,30.97351],[-93.18304,30.97358],[-93.18303,30.97398],[-93.1838,30.97423],[-93.18411,30.97456],[-93.18412,30.97482],[-93.18428,30.9749],[-93.18446,30.97537],[-93.18452,30.97571],[-93.18431,30.97629],[-93.1845,30.97688],[-93.18414,30.97701],[-93.18407,30.97714],[-93.1842,30.97734],[-93.184,30.97739],[-93.1839,30.97769],[-93.18414,30.97783],[-93.18429,30.97819],[-93.18419,30.97848],[-93.18391,30.97862],[-93.18298,30.97735],[-93.18216,30.97731],[-93.18109,30.97643],[-93.1813,30.97616],[-93.18177,30.97599],[-93.18159,30.97589],[-93.18143,30.97548],[-93.18156,30.97542],[-93.18146,30.97513],[-93.18157,30.97506],[-93.18144,30.97477],[-93.18153,30.97467],[-93.18139,30.97456],[-93.18156,30.97421],[-93.18146,30.97414],[-93.18169,30.97376],[-93.18196,30.97375],[-93.18216,30.97351]]]},"properties":{"fire_id":"ufid:2025-LAKIF-000150","source_collection":"history-2025","source_objectid":49711,"incident_name":"Beltway","mapped_acres":22.75,"mapped_acres_source":"poly_GISAcres","gis_acres":22.75,"auto_acres":27.482356149075272,"reported_acres":27.48,"percent_contained":null,"state":"LA","state_wfigs":"US-LA","county":"Vernon","discovery_time_utc":"2025-05-24T00:20:00Z","perimeter_time_utc":"2025-12-19T14:47:04Z","perimeter_edit_time_utc":null,"incident_modified_time_utc":"2025-06-30T18:15:02Z","containment_time_utc":"2025-05-24T03:00:00Z","control_time_utc":"2025-05-30T16:30:00Z","fire_out_time_utc":"2025-06-10T19:30:00Z","fire_cause":"Human","fire_cause_general":"Arson","map_method":"Auto-generated for InFORM","source_dataset":"FFP","unique_fire_identifier":"2025-LAKIF-000150","irwin_id":"{BE3BDF1A-AC13-4A5F-95F7-A26E27BE5C93}","global_id":"b71fc85a-d61b-4905-9562-f4ee70e55dd6"}},{"type":"Feature","geometry":{"type":"Polygon","coordinates":[[[-92.67942,31.24801],[-92.67975,31.25065],[-92.68006,31.25176],[-92.68038,31.25239],[-92.67935,31.25263],[-92.67765,31.25232],[-92.67619,31.25046],[-92.67609,31.24988],[-92.67626,31.24958],[-92.67633,31.24844],[-92.67664,31.24833],[-92.67743,31.24844],[-92.67846,31.24805],[-92.67918,31.24793],[-92.67942,31.24801]]]},"properties":{"fire_id":"ufid:2025-LAKIF-000142","source_collection":"history-2025","source_objectid":49712,"incident_name":"Valentine","mapped_acres":0.1,"mapped_acres_source":"poly_GISAcres","gis_acres":0.1,"auto_acres":35.86974328228227,"reported_acres":35.83,"percent_contained":null,"state":"LA","state_wfigs":"US-LA","county":"Rapides","discovery_time_utc":"2025-05-22T23:00:00Z","perimeter_time_utc":"2025-12-19T14:51:57Z","perimeter_edit_time_utc":null,"incident_modified_time_utc":"2025-06-30T18:05:17Z","containment_time_utc":"2025-05-23T03:30:00Z","control_time_utc":"2025-06-04T18:36:00Z","fire_out_time_utc":"2025-06-19T16:00:00Z","fire_cause":"Human","fire_cause_general":"Equipment and vehicle use","map_method":"Auto-generated for InFORM","source_dataset":"FFP","unique_fire_identifier":"2025-LAKIF-000142","irwin_id":"{05D785B7-4B24-4F5F-8260-1AAA6B92085A}","global_id":"1830fad2-abbb-4efc-af2c-4ca1b3f7e101"}},{"type":"Feature","geometry":{"type":"Polygon","coordinates":[[[-93.17866,30.96373],[-93.17907,30.96402],[-93.17904,30.96441],[-93.17885,30.9648],[-93.17837,30.96489],[-93.1791,30.96655],[-93.17885,30.96707],[-93.17849,30.96724],[-93.17817,30.96695],[-93.17775,30.96692],[-93.17699,30.96619],[-93.17685,30.96559],[-93.17788,30.96467],[-93.17845,30.96375],[-93.17866,30.96373]]]},"properties":{"fire_id":"ufid:2025-LAKIF-000147","source_collection":"history-2025","source_objectid":49713,"incident_name":"Bailey 4","mapped_acres":11.29,"mapped_acres_source":"poly_GISAcres","gis_acres":11.29,"auto_acres":11.289718945404005,"reported_acres":11.29,"percent_contained":null,"state":"LA","state_wfigs":"US-LA","county":"Vernon","discovery_time_utc":"2025-05-24T00:17:43Z","perimeter_time_utc":"2025-12-19T14:53:28Z","perimeter_edit_time_utc":null,"incident_modified_time_utc":"2025-06-30T18:20:06Z","containment_time_utc":"2025-05-24T03:00:00Z","control_time_utc":"2025-05-30T16:30:00Z","fire_out_time_utc":"2025-06-10T19:30:00Z","fire_cause":"Human","fire_cause_general":"Arson","map_method":"Auto-generated for InFORM","source_dataset":"FFP","unique_fire_identifier":"2025-LAKIF-000147","irwin_id":"{FE1D88A9-8E5B-4DBE-BD70-659EC317D725}","global_id":"df2077b0-ede5-466e-a232-28200a661a60"}},{"type":"Feature","geometry":{"type":"Polygon","coordinates":[[[-93.12679,31.00952],[-93.12703,31.00785],[-93.12737,31.00685],[-93.1288,31.00471],[-93.12923,31.00255],[-93.13142,30.99516],[-93.13248,30.99068],[-93.13238,30.98982],[-93.13377,30.98909],[-93.13442,30.98856],[-93.13538,30.98906],[-93.13556,30.98964],[-93.13623,30.98989],[-93.1372,30.99056],[-93.13745,30.9919],[-93.13692,30.99234],[-93.13612,30.99268],[-93.13507,30.99343],[-93.13377,30.99551],[-93.13187,30.99675],[-93.13159,30.99719],[-93.13148,30.99767],[-93.13165,30.99828],[-93.13252,30.99983],[-93.13344,31.00089],[-93.13396,31.00233],[-93.13382,31.00264],[-93.13215,31.00261],[-93.13175,31.0028],[-93.13225,31.00461],[-93.1327,31.00699],[-93.13266,31.00775],[-93.13245,31.0081],[-93.13194,31.00848],[-93.13167,31.009],[-93.13167,31.00976],[-93.13183,31.01025],[-93.13176,31.01061],[-93.13165,31.01089],[-93.13088,31.01113],[-93.12976,31.01066],[-93.12889,31.00994],[-93.12679,31.00952]]]},"properties":{"fire_id":"ufid:2025-LAKIF-000133","source_collection":"history-2025","source_objectid":49714,"incident_name":"Long Leaf","mapped_acres":195.0,"mapped_acres_source":"poly_GISAcres","gis_acres":195.0,"auto_acres":195.31754035813094,"reported_acres":195.0,"percent_contained":null,"state":"LA","state_wfigs":"US-LA","county":"Vernon","discovery_time_utc":"2025-05-14T20:54:50Z","perimeter_time_utc":"2025-12-19T14:56:57Z","perimeter_edit_time_utc":null,"incident_modified_time_utc":"2025-06-11T14:50:24Z","containment_time_utc":"2025-05-15T20:59:00Z","control_time_utc":"2025-05-27T17:38:00Z","fire_out_time_utc":"2025-06-11T14:35:00Z","fire_cause":"Human","fire_cause_general":"Arson","map_method":"Auto-generated for InFORM","source_dataset":"FFP","unique_fire_identifier":"2025-LAKIF-000133","irwin_id":"{1F66557D-555A-404F-AD60-F4341A2554FC}","global_id":"a4fc2945-6f1f-4452-8627-38272bd38208"}},{"type":"Feature","geometry":{"type":"MultiPolygon","coordinates":[[[[-93.18129,30.97653],[-93.18286,30.97745],[-93.18416,30.97896],[-93.18387,30.9803],[-93.18335,30.98076],[-93.18251,30.98112],[-93.18164,30.98101],[-93.18069,30.98008],[-93.17869,30.97873],[-93.17774,30.97768],[-93.17728,30.97677],[-93.17732,30.97618],[-93.17746,30.97592],[-93.17814,30.9754],[-93.17921,30.97501],[-93.17999,30.97527],[-93.18129,30.97653]]],[[[-93.18413,30.97913],[-93.18416,30.97897],[-93.18417,30.97898],[-93.18413,30.97913]]],[[[-93.18396,30.98019],[-93.18417,30.97898],[-93.18422,30.97963],[-93.18396,30.98019]]],[[[-93.18387,30.9803],[-93.18413,30.97913],[-93.18396,30.98019],[-93.18387,30.9803]]]]},"properties":{"fire_id":"ufid:2025-LAKIF-000149","source_collection":"history-2025","source_objectid":49716,"incident_name":"Silver Springs","mapped_acres":80.0,"mapped_acres_source":"poly_GISAcres","gis_acres":80.0,"auto_acres":62.20162488861799,"reported_acres":62.2,"percent_contained":null,"state":"LA","state_wfigs":"US-LA","county":"Vernon","discovery_time_utc":"2025-05-24T00:19:00Z","perimeter_time_utc":"2025-12-19T15:09:29Z","perimeter_edit_time_utc":null,"incident_modified_time_utc":"2025-06-30T18:13:05Z","containment_time_utc":"2025-05-24T03:00:00Z","control_time_utc":"2025-06-10T19:30:00Z","fire_out_time_utc":"2025-06-19T16:00:00Z","fire_cause":"Human","fire_cause_general":"Arson","map_method":"Auto-generated for InFORM","source_dataset":"FFP","unique_fire_identifier":"2025-LAKIF-000149","irwin_id":"{4D2B0379-EA14-45A5-938D-58756CF73920}","global_id":"92ef20fb-948f-4492-9d92-0fbe1cce0b04"}},{"type":"Feature","geometry":{"type":"Polygon","coordinates":[[[-93.01182,31.00685],[-93.01264,31.01267],[-93.01301,31.01423],[-93.01315,31.01644],[-93.01309,31.01837],[-93.01241,31.01941],[-93.0116,31.01881],[-93.01102,31.0178],[-93.01086,31.01742],[-93.01074,31.01586],[-93.01072,31.01531],[-93.0113,31.01286],[-93.01118,31.01195],[-93.01127,31.00987],[-93.01085,31.00881],[-93.01087,31.00848],[-93.0112,31.00791],[-93.01127,31.00713],[-93.01182,31.00685]]]},"properties":{"fire_id":"ufid:2025-LAKIF-000268","source_collection":"history-2025","source_objectid":49717,"incident_name":"Enduro","mapped_acres":35.0,"mapped_acres_source":"poly_GISAcres","gis_acres":35.0,"auto_acres":50.27683450824102,"reported_acres":50.28,"percent_contained":null,"state":"LA","state_wfigs":"US-LA","county":"Vernon","discovery_time_utc":"2025-08-09T19:14:00Z","perimeter_time_utc":"2025-12-19T15:19:19Z","perimeter_edit_time_utc":null,"incident_modified_time_utc":"2025-09-03T18:07:10Z","containment_time_utc":"2025-08-09T21:51:00Z","control_time_utc":"2025-08-16T20:53:00Z","fire_out_time_utc":"2025-09-03T18:06:00Z","fire_cause":"Human","fire_cause_general":"Arson","map_method":"Auto-generated for InFORM","source_dataset":"FFP","unique_fire_identifier":"2025-LAKIF-000268","irwin_id":"{7EF617FF-76A5-44FD-9CE4-9D9B16BD3FBC}","global_id":"1df11846-1249-44eb-909b-74ad0370ca5b"}},{"type":"Feature","geometry":{"type":"Polygon","coordinates":[[[-93.03536,31.01254],[-93.03569,31.01259],[-93.03577,31.01298],[-93.03615,31.01331],[-93.03612,31.01344],[-93.03586,31.01354],[-93.03589,31.01393],[-93.03562,31.01412],[-93.0355,31.01382],[-93.03509,31.01391],[-93.03482,31.0137],[-93.03452,31.01374],[-93.03514,31.01468],[-93.03466,31.01501],[-93.03477,31.01518],[-93.03465,31.01537],[-93.03437,31.01547],[-93.03371,31.01535],[-93.03355,31.01505],[-93.03351,31.01427],[-93.03364,31.0141],[-93.03351,31.01388],[-93.03352,31.01335],[-93.03494,31.0129],[-93.03536,31.01254]]]},"properties":{"fire_id":"ufid:2025-LAKIF-000178","source_collection":"history-2025","source_objectid":49718,"incident_name":"Pipeline","mapped_acres":11.0,"mapped_acres_source":"poly_GISAcres","gis_acres":11.0,"auto_acres":10.951076105800373,"reported_acres":11.0,"percent_contained":null,"state":"LA","state_wfigs":"US-LA","county":"Vernon","discovery_time_utc":"2025-06-10T16:06:38Z","perimeter_time_utc":"2025-12-19T15:30:53Z","perimeter_edit_time_utc":null,"incident_modified_time_utc":"2025-07-08T18:18:54Z","containment_time_utc":"2025-06-10T16:32:00Z","control_time_utc":"2025-06-17T13:02:00Z","fire_out_time_utc":"2025-07-08T18:18:00Z","fire_cause":"Human","fire_cause_general":"Undetermined","map_method":"Auto-generated for InFORM","source_dataset":"FFP","unique_fire_identifier":"2025-LAKIF-000178","irwin_id":"{25813DA8-5A30-479F-BB5E-0BD463703E48}","global_id":"09b63354-813e-4e9d-831a-675039234981"}},{"type":"Feature","geometry":{"type":"Polygon","coordinates":[[[-93.14062,31.00387],[-93.14178,31.00391],[-93.14268,31.00451],[-93.14279,31.00486],[-93.14267,31.00497],[-93.14284,31.00533],[-93.14305,31.00535],[-93.14344,31.00602],[-93.14294,31.00602],[-93.14226,31.0066],[-93.1402,31.00679],[-93.13958,31.00663],[-93.13955,31.00631],[-93.13967,31.00607],[-93.13993,31.006],[-93.14028,31.00564],[-93.14046,31.00565],[-93.14081,31.00447],[-93.14037,31.00425],[-93.14062,31.00387]]]},"properties":{"fire_id":"ufid:2025-LAKIF-000226","source_collection":"history-2025","source_objectid":49719,"incident_name":"Turkey Pen","mapped_acres":17.0,"mapped_acres_source":"poly_GISAcres","gis_acres":17.0,"auto_acres":17.757090494372825,"reported_acres":17.0,"percent_contained":null,"state":"LA","state_wfigs":"US-LA","county":"Vernon","discovery_time_utc":"2025-07-19T18:58:09Z","perimeter_time_utc":"2025-12-19T15:31:27Z","perimeter_edit_time_utc":null,"incident_modified_time_utc":"2025-10-06T17:45:17Z","containment_time_utc":"2025-07-20T00:18:00Z","control_time_utc":"2025-07-30T17:00:00Z","fire_out_time_utc":"2025-08-07T17:53:00Z","fire_cause":"Human","fire_cause_general":"Arson","map_method":"Auto-generated for InFORM","source_dataset":"FFP","unique_fire_identifier":"2025-LAKIF-000226","irwin_id":"{7F5A2EEF-0354-472D-A703-802FC6C1B7A8}","global_id":"354c9105-91ff-498a-a77f-563ae112f69c"}},{"type":"Feature","geometry":{"type":"Polygon","coordinates":[[[-93.0246,31.0281],[-93.02354,31.02911],[-93.02271,31.02945],[-93.02249,31.0294],[-93.02164,31.02874],[-93.02148,31.02817],[-93.02094,31.02783],[-93.02078,31.02751],[-93.01927,31.02621],[-93.01925,31.02585],[-93.01952,31.02565],[-93.01951,31.02516],[-93.02052,31.02493],[-93.0207,31.02499],[-93.02095,31.02568],[-93.02147,31.02617],[-93.02275,31.02699],[-93.02436,31.02746],[-93.0246,31.0281]]]},"properties":{"fire_id":"ufid:2025-LAKIF-000180","source_collection":"history-2025","source_objectid":49720,"incident_name":"Scrub","mapped_acres":13.0,"mapped_acres_source":"poly_GISAcres","gis_acres":13.0,"auto_acres":26.409888299873128,"reported_acres":26.41,"percent_contained":null,"state":"LA","state_wfigs":"US-LA","county":"Vernon","discovery_time_utc":"2025-06-10T16:10:34Z","perimeter_time_utc":"2025-12-19T15:37:29Z","perimeter_edit_time_utc":null,"incident_modified_time_utc":"2025-07-08T18:20:33Z","containment_time_utc":"2025-06-10T18:22:00Z","control_time_utc":"2025-06-17T13:02:00Z","fire_out_time_utc":"2025-07-08T18:18:00Z","fire_cause":"Human","fire_cause_general":"Undetermined","map_method":"Auto-generated for InFORM","source_dataset":"FFP","unique_fire_identifier":"2025-LAKIF-000180","irwin_id":"{9CE60B62-7FCC-424A-A5CB-DB22E3B0A6C0}","global_id":"4dcd9d30-efd6-47ce-a607-e5150f0a11a0"}},{"type":"Feature","geometry":{"type":"Polygon","coordinates":[[[-92.92204,30.9868],[-92.92267,30.9873],[-92.92407,30.98878],[-92.92528,30.98865],[-92.92585,30.98881],[-92.92617,30.98904],[-92.92697,30.99007],[-92.92687,30.99041],[-92.92723,30.99073],[-92.92739,30.99159],[-92.92774,30.99166],[-92.92786,30.99152],[-92.92845,30.99153],[-92.92877,30.99184],[-92.92876,30.99201],[-92.92845,30.99213],[-92.92845,30.99231],[-92.92897,30.99308],[-92.92895,30.9933],[-92.92916,30.99337],[-92.92948,30.99398],[-92.93036,30.99423],[-92.93131,30.99393],[-92.93163,30.99401],[-92.93234,30.99385],[-92.93362,30.9944],[-92.93395,30.99514],[-92.93417,30.99529],[-92.93428,30.99589],[-92.93418,30.99602],[-92.93385,30.99606],[-92.93354,30.99636],[-92.9331,30.99742],[-92.93394,30.99779],[-92.93433,30.99773],[-92.93477,30.99831],[-92.9341,30.9993],[-92.93407,30.9996],[-92.9336,30.99958],[-92.93214,31.00042],[-92.93142,31.00042],[-92.93122,31.00075],[-92.9313,31.00078],[-92.92878,31.00094],[-92.92844,31.00072],[-92.92836,31.00036],[-92.928,31.00045],[-92.92767,31.00024],[-92.92719,30.99905],[-92.92763,30.99888],[-92.92773,30.99855],[-92.92811,30.99823],[-92.92847,30.99816],[-92.92853,30.99739],[-92.92838,30.99624],[-92.92807,30.99581],[-92.92782,30.99586],[-92.92734,30.99555],[-92.92665,30.99532],[-92.92613,30.99538],[-92.9254,30.99481],[-92.92534,30.99412],[-92.92555,30.99347],[-92.92518,30.99295],[-92.9252,30.99262],[-92.92505,30.99253],[-92.92495,30.99197],[-92.92507,30.99159],[-92.92567,30.9913],[-92.92413,30.98894],[-92.92347,30.98818],[-92.9231,30.98856],[-92.92256,30.98855],[-92.92187,30.9881],[-92.92166,30.98772],[-92.92174,30.98723],[-92.92205,30.98701],[-92.92204,30.9868]]]},"properties":{"fire_id":"ufid:2025-LAKIF-000267","source_collection":"history-2025","source_objectid":49721,"incident_name":"Little Brushy","mapped_acres":150.0,"mapped_acres_source":"poly_GISAcres","gis_acres":150.0,"auto_acres":151.587531367359,"reported_acres":150.0,"percent_contained":null,"state":"LA","state_wfigs":"US-LA","county":"Vernon","discovery_time_utc":"2025-08-09T18:40:09Z","perimeter_time_utc":"2025-12-19T15:33:23Z","perimeter_edit_time_utc":null,"incident_modified_time_utc":"2025-10-06T17:29:49Z","containment_time_utc":"2025-08-10T00:09:00Z","control_time_utc":"2025-08-27T15:17:00Z","fire_out_time_utc":"2025-09-03T18:18:00Z","fire_cause":"Human","fire_cause_general":"Arson","map_method":"Auto-generated for InFORM","source_dataset":"FFP","unique_fire_identifier":"2025-LAKIF-000267","irwin_id":"{AEDE1D20-599D-4F22-8D0A-6AC9FD429BB7}","global_id":"28925281-c2fb-4b85-a25c-a8180174fab3"}},{"type":"Feature","geometry":{"type":"MultiPolygon","coordinates":[[[[-92.99727,31.03497],[-92.99681,31.03552],[-92.99608,31.03534],[-92.99524,31.03534],[-92.99589,31.03528],[-92.99545,31.03523],[-92.9957,31.03505],[-92.9956,31.03474],[-92.99601,31.03463],[-92.99617,31.03443],[-92.99727,31.03497]]],[[[-92.99687,31.03546],[-92.99686,31.03548],[-92.99685,31.03548],[-92.99687,31.03546]]],[[[-92.99443,31.03539],[-92.99524,31.03534],[-92.9952,31.03563],[-92.9953,31.0357],[-92.99523,31.03591],[-92.99509,31.0358],[-92.99482,31.03605],[-92.99473,31.03604],[-92.99482,31.03595],[-92.99467,31.03597],[-92.99472,31.03628],[-92.99444,31.0364],[-92.99464,31.03653],[-92.99456,31.03667],[-92.99471,31.03683],[-92.99456,31.03734],[-92.99441,31.03728],[-92.99434,31.03745],[-92.99462,31.03776],[-92.99464,31.0381],[-92.99442,31.03817],[-92.99416,31.03875],[-92.9939,31.03872],[-92.99393,31.03891],[-92.99375,31.03909],[-92.9934,31.03908],[-92.9925,31.03938],[-92.99177,31.039],[-92.99126,31.03903],[-92.99048,31.03886],[-92.98989,31.03858],[-92.98984,31.03819],[-92.98997,31.03756],[-92.99049,31.03712],[-92.9911,31.03695],[-92.99136,31.03675],[-92.99157,31.03682],[-92.99229,31.03491],[-92.9927,31.0348],[-92.99307,31.0349],[-92.99361,31.03472],[-92.99383,31.0348],[-92.99392,31.03511],[-92.99443,31.03539]]],[[[-92.9903,31.03878],[-92.99034,31.0388],[-92.99031,31.03883],[-92.9903,31.03878]]]]},"properties":{"fire_id":"ufid:2025-LAKIF-000269","source_collection":"history-2025","source_objectid":49722,"incident_name":"6 Mile","mapped_acres":42.34,"mapped_acres_source":"poly_GISAcres","gis_acres":42.34,"auto_acres":42.33983983819917,"reported_acres":42.0,"percent_contained":null,"state":"LA","state_wfigs":"US-LA","county":"Vernon","discovery_time_utc":"2025-08-09T20:50:27Z","perimeter_time_utc":"2025-12-19T15:39:59Z","perimeter_edit_time_utc":null,"incident_modified_time_utc":"2025-10-06T17:34:31Z","containment_time_utc":"2025-08-10T00:30:00Z","control_time_utc":"2025-08-19T16:52:00Z","fire_out_time_utc":"2025-09-03T18:06:00Z","fire_cause":"Human","fire_cause_general":"Arson","map_method":"Hand Sketch","source_dataset":"FFP","unique_fire_identifier":"2025-LAKIF-000269","irwin_id":"{593D56CC-D58E-4915-B22B-CF790725D3BA}","global_id":"3a472b0d-4f39-4463-888c-49e5cd65df35"}},{"type":"Feature","geometry":{"type":"Polygon","coordinates":[[[-93.02826,31.02496],[-93.02832,31.02268],[-93.0286,31.022],[-93.0287,31.0223],[-93.02941,31.0226],[-93.02975,31.02305],[-93.02978,31.02407],[-93.02942,31.02436],[-93.02941,31.0245],[-93.02965,31.02453],[-93.02975,31.02474],[-93.03059,31.02509],[-93.03101,31.02461],[-93.03093,31.025],[-93.03134,31.0258],[-93.03113,31.02603],[-93.03028,31.02604],[-93.02957,31.02588],[-93.02924,31.02575],[-93.02935,31.0255],[-93.02909,31.02513],[-93.02826,31.02496]]]},"properties":{"fire_id":"ufid:2025-LAKIF-000179","source_collection":"history-2025","source_objectid":49723,"incident_name":"Hill","mapped_acres":0.1,"mapped_acres_source":"poly_GISAcres","gis_acres":0.1,"auto_acres":14.788360108262953,"reported_acres":15.0,"percent_contained":null,"state":"LA","state_wfigs":"US-LA","county":"Vernon","discovery_time_utc":"2025-06-10T16:09:33Z","perimeter_time_utc":"2025-12-19T15:43:51Z","perimeter_edit_time_utc":null,"incident_modified_time_utc":"2025-07-08T18:19:47Z","containment_time_utc":"2025-06-10T17:55:00Z","control_time_utc":"2025-06-17T13:02:00Z","fire_out_time_utc":"2025-07-08T18:18:00Z","fire_cause":"Human","fire_cause_general":"Other causes","map_method":"Auto-generated for InFORM","source_dataset":"FFP","unique_fire_identifier":"2025-LAKIF-000179","irwin_id":"{84D26A3B-C858-4ECD-B54E-01710B60EA95}","global_id":"41e91957-c3ee-48a0-bd99-0af7ccda7767"}},{"type":"Feature","geometry":{"type":"Polygon","coordinates":[[[-93.18578,30.98224],[-93.18532,30.9808],[-93.18599,30.98027],[-93.18689,30.98018],[-93.18707,30.97994],[-93.18732,30.98002],[-93.18747,30.97988],[-93.18809,30.97981],[-93.18842,30.97993],[-93.1891,30.97971],[-93.1895,30.97995],[-93.18945,30.9804],[-93.18964,30.98062],[-93.18967,30.98116],[-93.18951,30.98151],[-93.1893,30.98165],[-93.18928,30.98199],[-93.18908,30.98194],[-93.18795,30.98244],[-93.18707,30.98259],[-93.18684,30.98256],[-93.18654,30.98228],[-93.18578,30.98224]]]},"properties":{"fire_id":"ufid:2025-LAKIF-000113","source_collection":"history-2025","source_objectid":49724,"incident_name":"Low Water","mapped_acres":23.0,"mapped_acres_source":"poly_GISAcres","gis_acres":23.0,"auto_acres":23.67313974742549,"reported_acres":23.0,"percent_contained":null,"state":"LA","state_wfigs":"US-LA","county":"Vernon","discovery_time_utc":"2025-04-16T18:32:06Z","perimeter_time_utc":"2025-12-19T15:55:33Z","perimeter_edit_time_utc":null,"incident_modified_time_utc":"2025-06-30T18:11:38Z","containment_time_utc":"2025-04-16T21:00:00Z","control_time_utc":"2025-04-23T15:00:00Z","fire_out_time_utc":"2025-05-01T18:00:00Z","fire_cause":"Human","fire_cause_general":"Arson","map_method":"Auto-generated for InFORM","source_dataset":"FFP","unique_fire_identifier":"2025-LAKIF-000113","irwin_id":"{EA437EBC-E299-4F84-AE33-C666862A7A08}","global_id":"4f7980e0-7be7-411f-b9ae-d2cd56df0eee"}},{"type":"Feature","geometry":{"type":"MultiPolygon","coordinates":[[[[-93.10347,30.94385],[-93.1044,30.94421],[-93.10433,30.94446],[-93.10457,30.94445],[-93.10477,30.94473],[-93.10505,30.94468],[-93.10549,30.94501],[-93.10537,30.94547],[-93.10562,30.94542],[-93.10588,30.94556],[-93.10585,30.94589],[-93.10634,30.94596],[-93.10625,30.94607],[-93.10639,30.9464],[-93.10623,30.94659],[-93.10581,30.9468],[-93.10527,30.94657],[-93.1047,30.9466],[-93.10447,30.94649],[-93.10388,30.94609],[-93.10364,30.94518],[-93.10334,30.94495],[-93.10274,30.94487],[-93.10248,30.94468],[-93.10241,30.94433],[-93.10226,30.9442],[-93.10191,30.9442],[-93.10186,30.94393],[-93.10225,30.94382],[-93.10225,30.94338],[-93.10253,30.94317],[-93.10283,30.94314],[-93.10347,30.94385]]],[[[-93.10637,30.94594],[-93.10636,30.94597],[-93.10636,30.94594],[-93.10637,30.94594]]]]},"properties":{"fire_id":"ufid:2025-LAKIF-000341","source_collection":"history-2025","source_objectid":49725,"incident_name":"Woodroe","mapped_acres":0.01,"mapped_acres_source":"poly_GISAcres","gis_acres":0.01,"auto_acres":16.679336483678142,"reported_acres":16.5,"percent_contained":null,"state":"LA","state_wfigs":"US-LA","county":"Vernon","discovery_time_utc":"2025-11-12T22:08:01Z","perimeter_time_utc":"2025-12-19T16:13:51Z","perimeter_edit_time_utc":null,"incident_modified_time_utc":"2025-12-05T19:10:55Z","containment_time_utc":"2025-11-12T23:31:00Z","control_time_utc":"2025-12-05T16:00:00Z","fire_out_time_utc":"2025-12-05T16:00:00Z","fire_cause":"Human","fire_cause_general":"Other causes","map_method":"Auto-generated for InFORM","source_dataset":"FFP","unique_fire_identifier":"2025-LAKIF-000341","irwin_id":"{490430B5-4C35-43F7-B8E1-2B33AE3CA888}","global_id":"402c1dda-83d7-4c1a-b205-b2df30636753"}},{"type":"Feature","geometry":{"type":"Polygon","coordinates":[[[-92.56889,31.55099],[-92.56852,31.55068],[-92.56857,31.55029],[-92.56882,31.55016],[-92.5689,31.54992],[-92.5692,31.54984],[-92.56946,31.54922],[-92.57006,31.54871],[-92.57048,31.54752],[-92.57094,31.5469],[-92.57159,31.54634],[-92.57213,31.54627],[-92.57239,31.54606],[-92.57252,31.54574],[-92.57345,31.54495],[-92.57365,31.54415],[-92.57443,31.54253],[-92.57436,31.54188],[-92.574,31.54073],[-92.57494,31.54046],[-92.57507,31.54112],[-92.5761,31.54175],[-92.57643,31.54171],[-92.57724,31.5423],[-92.57722,31.54282],[-92.57699,31.54287],[-92.57689,31.5431],[-92.57656,31.54302],[-92.57647,31.54314],[-92.57629,31.54303],[-92.57613,31.54311],[-92.57602,31.54352],[-92.57571,31.54376],[-92.5758,31.54391],[-92.57604,31.54396],[-92.57641,31.54385],[-92.57669,31.544],[-92.57702,31.54391],[-92.5771,31.54402],[-92.57689,31.54429],[-92.57718,31.54443],[-92.57761,31.54429],[-92.57771,31.54467],[-92.57734,31.54488],[-92.57775,31.54505],[-92.57803,31.54539],[-92.57815,31.54562],[-92.57806,31.54603],[-92.57706,31.54647],[-92.57685,31.54674],[-92.57649,31.54668],[-92.57601,31.54688],[-92.5759,31.54729],[-92.57558,31.54727],[-92.57551,31.54711],[-92.57527,31.54706],[-92.57508,31.5472],[-92.57574,31.54854],[-92.57541,31.54895],[-92.5751,31.54899],[-92.57468,31.54881],[-92.5744,31.54899],[-92.57436,31.54962],[-92.5741,31.55012],[-92.57386,31.55023],[-92.57395,31.55112],[-92.5743,31.55139],[-92.57428,31.55156],[-92.57391,31.55189],[-92.57413,31.55211],[-92.57397,31.55243],[-92.57039,31.55101],[-92.56889,31.55099]]]},"properties":{"fire_id":"ufid:2025-LAKIF-000356","source_collection":"history-2025","source_objectid":49726,"incident_name":"November","mapped_acres":116.01434989428554,"mapped_acres_source":"poly_Acres_AutoCalc_fallback","gis_acres":null,"auto_acres":116.01434989428554,"reported_acres":116.0,"percent_contained":null,"state":"LA","state_wfigs":"US-LA","county":"Grant","discovery_time_utc":"2025-11-19T22:11:41Z","perimeter_time_utc":"2025-12-19T16:36:39Z","perimeter_edit_time_utc":null,"incident_modified_time_utc":"2025-12-19T15:51:07Z","containment_time_utc":"2025-11-20T02:30:00Z","control_time_utc":"2025-11-26T16:08:00Z","fire_out_time_utc":"2025-12-12T15:48:00Z","fire_cause":"Human","fire_cause_general":"Undetermined","map_method":"Mixed Methods","source_dataset":"FFP","unique_fire_identifier":"2025-LAKIF-000356","irwin_id":"{A58D790F-25AB-4AEA-B6FA-8A82096675A2}","global_id":"97613c1a-a685-40e0-a86e-3004d6a26093"}},{"type":"Feature","geometry":{"type":"Polygon","coordinates":[[[-92.6591,31.0724],[-92.65959,31.07257],[-92.66056,31.07346],[-92.66065,31.07392],[-92.66092,31.07417],[-92.66086,31.07459],[-92.6612,31.07504],[-92.66124,31.07532],[-92.66107,31.07558],[-92.66064,31.07569],[-92.65862,31.07376],[-92.65867,31.07278],[-92.6591,31.0724]]]},"properties":{"fire_id":"ufid:2025-LALAS-000307","source_collection":"history-2025","source_objectid":49899,"incident_name":"Potato","mapped_acres":0.1,"mapped_acres_source":"poly_GISAcres","gis_acres":0.1,"auto_acres":11.866966716753387,"reported_acres":7.7,"percent_contained":null,"state":"LA","state_wfigs":"US-LA","county":"Rapides","discovery_time_utc":"2025-09-18T23:22:42Z","perimeter_time_utc":"2025-12-31T15:44:03Z","perimeter_edit_time_utc":null,"incident_modified_time_utc":"2025-10-06T17:25:22Z","containment_time_utc":null,"control_time_utc":null,"fire_out_time_utc":null,"fire_cause":"Human","fire_cause_general":"Other causes","map_method":"Auto-generated for InFORM","source_dataset":"FFP","unique_fire_identifier":"2025-LALAS-000307","irwin_id":"{3439E0DF-1CF5-4D75-9167-76E829C3DDFC}","global_id":"8b9289ab-a546-4211-b838-bc36c6dba1fb"}},{"type":"Feature","geometry":{"type":"Polygon","coordinates":[[[-92.97033,31.02264],[-92.97092,31.0228],[-92.97116,31.02355],[-92.97227,31.02484],[-92.97277,31.02582],[-92.97331,31.0261],[-92.97286,31.02651],[-92.97271,31.02682],[-92.97244,31.02688],[-92.972,31.02733],[-92.97156,31.02737],[-92.97075,31.02782],[-92.97015,31.02725],[-92.96979,31.02723],[-92.96951,31.02742],[-92.96924,31.02713],[-92.96938,31.02641],[-92.96979,31.02613],[-92.96964,31.02588],[-92.9692,31.02585],[-92.96919,31.02559],[-92.97013,31.02555],[-92.96982,31.02521],[-92.96933,31.02514],[-92.96878,31.02469],[-92.96877,31.0245],[-92.96849,31.02416],[-92.96838,31.02344],[-92.96949,31.02285],[-92.97033,31.02264]]]},"properties":{"fire_id":"ufid:2025-LAKIF-000018","source_collection":"history-2025","source_objectid":50492,"incident_name":"Dove","mapped_acres":36.5,"mapped_acres_source":"poly_GISAcres","gis_acres":36.5,"auto_acres":36.481498451367976,"reported_acres":36.5,"percent_contained":null,"state":"LA","state_wfigs":"US-LA","county":"Vernon","discovery_time_utc":"2025-01-26T17:37:30Z","perimeter_time_utc":"2026-01-28T13:46:32Z","perimeter_edit_time_utc":null,"incident_modified_time_utc":"2025-06-20T16:06:39Z","containment_time_utc":"2025-01-27T15:00:00Z","control_time_utc":"2025-01-27T15:00:00Z","fire_out_time_utc":"2025-02-06T21:56:00Z","fire_cause":"Human","fire_cause_general":"Arson","map_method":"Mixed Methods","source_dataset":"FFP","unique_fire_identifier":"2025-LAKIF-000018","irwin_id":"{440FCFD1-1761-4773-8023-E52F36121BBE}","global_id":"2bdebc20-4928-42ab-98fa-a9618cab5c84"}},{"type":"Feature","geometry":{"type":"Polygon","coordinates":[[[-93.18594,30.99814],[-93.18462,30.9982],[-93.18448,30.99741],[-93.18462,30.99611],[-93.18528,30.99537],[-93.18693,30.99537],[-93.18594,30.99814]]]},"properties":{"fire_id":"ufid:2025-LAKIF-000099","source_collection":"history-2025","source_objectid":50493,"incident_name":"Johnsonville","mapped_acres":13.0,"mapped_acres_source":"poly_GISAcres","gis_acres":13.0,"auto_acres":12.998634306304957,"reported_acres":17.8,"percent_contained":null,"state":"LA","state_wfigs":"US-LA","county":"Vernon","discovery_time_utc":"2025-04-11T23:16:39Z","perimeter_time_utc":"2026-01-28T13:49:57Z","perimeter_edit_time_utc":null,"incident_modified_time_utc":"2025-06-30T18:06:50Z","containment_time_utc":"2025-04-12T20:57:00Z","control_time_utc":"2025-04-23T15:00:00Z","fire_out_time_utc":"2025-05-01T18:00:00Z","fire_cause":"Human","fire_cause_general":"Arson","map_method":"Hand Sketch","source_dataset":"FFP","unique_fire_identifier":"2025-LAKIF-000099","irwin_id":"{967FC99F-B6F2-4E4C-AE4D-41380E12C05A}","global_id":"a2498cc4-9086-4c49-b0c5-058bce759961"}},{"type":"Feature","geometry":{"type":"Polygon","coordinates":[[[-93.20851,30.96796],[-93.20679,30.96875],[-93.20441,30.96869],[-93.20342,30.96739],[-93.20441,30.96586],[-93.20758,30.96586],[-93.20851,30.96796]]]},"properties":{"fire_id":"ufid:2025-LAKIF-000081","source_collection":"history-2025","source_objectid":50494,"incident_name":"Wolf","mapped_acres":30.11,"mapped_acres_source":"poly_GISAcres","gis_acres":30.11,"auto_acres":30.11211609002106,"reported_acres":17.0,"percent_contained":null,"state":"LA","state_wfigs":"US-LA","county":"Vernon","discovery_time_utc":"2025-03-24T15:46:01Z","perimeter_time_utc":"2026-01-28T13:48:51Z","perimeter_edit_time_utc":null,"incident_modified_time_utc":"2025-06-30T18:26:11Z","containment_time_utc":"2025-03-24T16:42:00Z","control_time_utc":"2025-03-31T15:45:00Z","fire_out_time_utc":"2025-04-08T15:37:00Z","fire_cause":"Human","fire_cause_general":"Arson","map_method":"Hand Sketch","source_dataset":"FFP","unique_fire_identifier":"2025-LAKIF-000081","irwin_id":"{A1D75346-285F-4BA1-A304-49A7F24391ED}","global_id":"6f587f7a-91a5-4719-8ad7-6078d7caac6a"}},{"type":"Feature","geometry":{"type":"Polygon","coordinates":[[[-93.19265,30.97065],[-93.19344,30.96992],[-93.19357,30.97065],[-93.19404,30.9719],[-93.19351,30.97269],[-93.19206,30.97241],[-93.19265,30.97065]]]},"properties":{"fire_id":"ufid:2025-LAKIF-000100","source_collection":"history-2025","source_objectid":50495,"incident_name":"Wolf Cave","mapped_acres":8.25,"mapped_acres_source":"poly_GISAcres","gis_acres":8.25,"auto_acres":8.251249194891107,"reported_acres":15.5,"percent_contained":null,"state":"LA","state_wfigs":"US-LA","county":"Vernon","discovery_time_utc":"2025-04-12T00:38:02Z","perimeter_time_utc":"2026-01-28T13:50:44Z","perimeter_edit_time_utc":null,"incident_modified_time_utc":"2025-06-30T18:31:15Z","containment_time_utc":"2025-04-12T01:15:00Z","control_time_utc":"2025-04-23T15:00:00Z","fire_out_time_utc":"2025-05-01T18:00:00Z","fire_cause":"Human","fire_cause_general":"Arson","map_method":"Hand Sketch","source_dataset":"FFP","unique_fire_identifier":"2025-LAKIF-000100","irwin_id":"{80DA99BC-F2AD-483F-ADA7-18E807F2BBC4}","global_id":"9add0376-15be-4417-abb5-52b1efb41dc5"}},{"type":"Feature","geometry":{"type":"Polygon","coordinates":[[[-93.21296,30.97773],[-93.21349,30.97713],[-93.21417,30.97704],[-93.21483,30.97741],[-93.21505,30.97837],[-93.21472,30.97971],[-93.21204,30.97946],[-93.2114,30.97922],[-93.21113,30.97849],[-93.21182,30.97814],[-93.2121,30.97782],[-93.21296,30.97773]]]},"properties":{"fire_id":"ufid:2025-LAKIF-000101","source_collection":"history-2025","source_objectid":50496,"incident_name":"Bundick Creek","mapped_acres":9.37,"mapped_acres_source":"poly_GISAcres","gis_acres":9.37,"auto_acres":18.74535009118951,"reported_acres":18.75,"percent_contained":null,"state":"LA","state_wfigs":"US-LA","county":"Vernon","discovery_time_utc":"2025-04-12T22:21:27Z","perimeter_time_utc":"2026-05-14T17:08:51Z","perimeter_edit_time_utc":null,"incident_modified_time_utc":"2025-06-30T18:32:11Z","containment_time_utc":"2025-04-13T19:52:00Z","control_time_utc":"2025-04-23T15:00:00Z","fire_out_time_utc":"2025-05-08T18:00:00Z","fire_cause":"Human","fire_cause_general":"Arson","map_method":"Hand Sketch","source_dataset":"FFP","unique_fire_identifier":"2025-LAKIF-000101","irwin_id":"{4656FEF1-06E4-43FA-BC34-272CECBF0FE9}","global_id":"5608f305-39d5-4870-a948-71815a7cc56c"}},{"type":"Feature","geometry":{"type":"MultiPolygon","coordinates":[[[[-93.20699,30.96357],[-93.20703,30.96359],[-93.20698,30.96358],[-93.20699,30.96357]]],[[[-93.20729,30.96358],[-93.20712,30.96362],[-93.20727,30.96356],[-93.20729,30.96358]]],[[[-93.20743,30.96362],[-93.2074,30.96363],[-93.2073,30.96357],[-93.20743,30.96362]]],[[[-93.20703,30.96359],[-93.2071,30.96362],[-93.20706,30.96362],[-93.20703,30.96359]]],[[[-93.20679,30.96365],[-93.20675,30.96358],[-93.20693,30.96356],[-93.20679,30.96365]]],[[[-93.20749,30.96361],[-93.20743,30.96362],[-93.20746,30.9636],[-93.20749,30.96361]]],[[[-93.20677,30.96356],[-93.20674,30.96357],[-93.20675,30.96356],[-93.20677,30.96356]]],[[[-93.20463,30.96363],[-93.2046,30.96362],[-93.20461,30.96362],[-93.20463,30.96363]]],[[[-93.20558,30.96363],[-93.20647,30.96373],[-93.20674,30.96357],[-93.20656,30.96377],[-93.20592,30.96375],[-93.2059,30.96406],[-93.20571,30.9642],[-93.2056,30.96411],[-93.20549,30.96603],[-93.20572,30.96613],[-93.20571,30.96661],[-93.20594,30.96684],[-93.20586,30.96701],[-93.2053,30.96704],[-93.20469,30.96678],[-93.20467,30.96648],[-93.20452,30.96637],[-93.20479,30.96584],[-93.20442,30.96552],[-93.20393,30.96556],[-93.20314,30.9654],[-93.2019,30.96587],[-93.20176,30.96566],[-93.20132,30.96552],[-93.20123,30.96538],[-93.20051,30.96561],[-93.20054,30.96516],[-93.20024,30.96487],[-93.20028,30.96461],[-93.19999,30.96421],[-93.19964,30.96411],[-93.19996,30.96386],[-93.20025,30.96382],[-93.20014,30.96355],[-93.20042,30.96328],[-93.20041,30.96311],[-93.20078,30.96299],[-93.20076,30.9627],[-93.20093,30.96258],[-93.20094,30.96239],[-93.20112,30.96234],[-93.20116,30.96366],[-93.20433,30.96358],[-93.205,30.96375],[-93.20558,30.96363]]],[[[-93.2011,30.96548],[-93.20106,30.96546],[-93.20112,30.96546],[-93.2011,30.96548]]]]},"properties":{"fire_id":"ufid:2025-LAKIF-000161","source_collection":"history-2025","source_objectid":50497,"incident_name":"Par","mapped_acres":33.03,"mapped_acres_source":"poly_GISAcres","gis_acres":33.03,"auto_acres":33.029438068346934,"reported_acres":33.0,"percent_contained":null,"state":"LA","state_wfigs":"US-LA","county":"Vernon","discovery_time_utc":"2025-05-30T16:20:30Z","perimeter_time_utc":"2026-01-28T13:56:52Z","perimeter_edit_time_utc":null,"incident_modified_time_utc":"2025-12-19T21:16:36Z","containment_time_utc":"2025-06-02T19:29:00Z","control_time_utc":"2025-06-11T15:42:00Z","fire_out_time_utc":"2025-06-19T16:00:00Z","fire_cause":"Human","fire_cause_general":"Arson","map_method":"Auto-generated for InFORM","source_dataset":"FFP","unique_fire_identifier":"2025-LAKIF-000161","irwin_id":"{11D94BC2-D5CE-4D07-8B11-2391A9C55C02}","global_id":"71290097-f5d8-4ae5-b8db-0fa8475d2a6b"}},{"type":"Feature","geometry":{"type":"Polygon","coordinates":[[[-92.57186,31.19799],[-92.57252,31.19934],[-92.57266,31.20053],[-92.57028,31.20098],[-92.56869,31.19968],[-92.56843,31.19923],[-92.56784,31.19674],[-92.56876,31.19618],[-92.56902,31.19618],[-92.57186,31.19799]]]},"properties":{"fire_id":"ufid:2025-LAKIF-000352","source_collection":"history-2025","source_objectid":50498,"incident_name":"Castor","mapped_acres":37.97,"mapped_acres_source":"poly_GISAcres","gis_acres":37.97,"auto_acres":37.96548220759085,"reported_acres":38.0,"percent_contained":null,"state":"LA","state_wfigs":"US-LA","county":"Rapides","discovery_time_utc":"2025-11-17T21:51:10Z","perimeter_time_utc":"2026-05-14T17:12:45Z","perimeter_edit_time_utc":null,"incident_modified_time_utc":"2025-12-19T15:47:50Z","containment_time_utc":"2025-11-18T03:00:00Z","control_time_utc":"2025-11-20T14:56:00Z","fire_out_time_utc":"2025-12-05T16:00:00Z","fire_cause":"Human","fire_cause_general":"Equipment and vehicle use","map_method":"Hand Sketch","source_dataset":"FFP","unique_fire_identifier":"2025-LAKIF-000352","irwin_id":"{A01BDA0A-E846-4D18-9714-46C7D21D0ED2}","global_id":"1c06b631-bc21-4ad4-9493-0587202b5cd4"}},{"type":"Feature","geometry":{"type":"Polygon","coordinates":[[[-93.11322,31.42499],[-93.11323,31.42439],[-93.11328,31.42505],[-93.11205,31.42539],[-93.11198,31.4259],[-93.11213,31.42611],[-93.11149,31.42728],[-93.11103,31.42739],[-93.11096,31.42772],[-93.11048,31.42771],[-93.11055,31.42794],[-93.11011,31.42822],[-93.10945,31.42797],[-93.10904,31.42827],[-93.10749,31.42841],[-93.10745,31.42828],[-93.1062,31.42802],[-93.1062,31.42717],[-93.1067,31.42638],[-93.10668,31.42608],[-93.10704,31.42576],[-93.10727,31.42605],[-93.10756,31.42594],[-93.10738,31.4257],[-93.10754,31.4249],[-93.10873,31.42468],[-93.1089,31.42433],[-93.10998,31.42345],[-93.10995,31.42302],[-93.11052,31.42264],[-93.10933,31.42159],[-93.10933,31.421],[-93.11183,31.42197],[-93.11303,31.42337],[-93.11322,31.42499]]]},"properties":{"fire_id":"ufid:2025-LAKIF-000358","source_collection":"history-2025","source_objectid":50499,"incident_name":"Falls","mapped_acres":70.2,"mapped_acres_source":"poly_GISAcres","gis_acres":70.2,"auto_acres":70.24177723452962,"reported_acres":70.2,"percent_contained":null,"state":"LA","state_wfigs":"US-LA","county":"Natchitoches","discovery_time_utc":"2025-11-21T18:55:00Z","perimeter_time_utc":"2026-01-28T14:00:44Z","perimeter_edit_time_utc":null,"incident_modified_time_utc":"2025-12-22T19:59:35Z","containment_time_utc":"2025-11-21T23:10:00Z","control_time_utc":"2025-12-01T18:43:00Z","fire_out_time_utc":"2025-12-22T19:00:00Z","fire_cause":"Human","fire_cause_general":"Undetermined","map_method":"Auto-generated for InFORM","source_dataset":"FFP","unique_fire_identifier":"2025-LAKIF-000358","irwin_id":"{4DE6BBAB-59E4-4939-80B3-91A8B8B3D366}","global_id":"15cd6eca-8d54-414a-80d1-5d2d10a7cf66"}},{"type":"Feature","geometry":{"type":"Polygon","coordinates":[[[-93.13851,30.995],[-93.138,30.99483],[-93.13751,30.99429],[-93.13756,30.99406],[-93.13778,30.99389],[-93.13782,30.99351],[-93.13753,30.99295],[-93.13761,30.99219],[-93.13835,30.99202],[-93.13862,30.99168],[-93.13886,30.99188],[-93.13927,30.99182],[-93.13944,30.9917],[-93.13963,30.99102],[-93.13993,30.9909],[-93.14025,30.99096],[-93.14074,30.99059],[-93.14125,30.99067],[-93.14164,30.99111],[-93.14165,30.9915],[-93.14115,30.99202],[-93.14076,30.99299],[-93.14049,30.9931],[-93.14035,30.99348],[-93.13995,30.99366],[-93.14002,30.99429],[-93.13929,30.99479],[-93.13851,30.995]]]},"properties":{"fire_id":"ufid:2025-LAKIF-000304","source_collection":"history-2025","source_objectid":53551,"incident_name":"Loblolly","mapped_acres":26.33,"mapped_acres_source":"poly_GISAcres","gis_acres":26.33,"auto_acres":26.915655894745502,"reported_acres":26.33,"percent_contained":null,"state":"LA","state_wfigs":"US-LA","county":"Vernon","discovery_time_utc":"2025-09-17T14:42:39Z","perimeter_time_utc":"2026-05-14T17:07:25Z","perimeter_edit_time_utc":null,"incident_modified_time_utc":"2025-12-19T19:07:50Z","containment_time_utc":"2025-09-17T18:48:00Z","control_time_utc":"2025-09-29T19:48:00Z","fire_out_time_utc":"2025-10-15T15:00:00Z","fire_cause":"Natural","fire_cause_general":"Natural","map_method":"Auto-generated for InFORM","source_dataset":"FFP","unique_fire_identifier":"2025-LAKIF-000304","irwin_id":"{86247E55-0E94-488F-87A7-1E5515E10448}","global_id":"e73ccc49-8ee5-4c1c-8226-d5cabab0350f"}}]}
