{"type":"FeatureCollection","features":[{"type":"Feature","geometry":{"type":"Polygon","coordinates":[[[-89.97802,30.32037],[-89.97605,30.3198],[-89.97665,30.31864],[-89.97214,30.31721],[-89.97302,30.3161],[-89.97345,30.31497],[-89.97352,30.31412],[-89.97373,30.31383],[-89.97398,30.31389],[-89.97425,30.3137],[-89.97435,30.31344],[-89.97446,30.3134],[-89.97494,30.31386],[-89.97549,30.31409],[-89.97609,30.31419],[-89.97672,30.31401],[-89.97688,30.31421],[-89.97661,30.31452],[-89.97696,30.3145],[-89.97711,30.31493],[-89.97749,30.31535],[-89.97747,30.31559],[-89.97803,30.31608],[-89.97794,30.31626],[-89.97854,30.31657],[-89.97897,30.31663],[-89.97943,30.31731],[-89.98021,30.31774],[-89.97993,30.3182],[-89.97995,30.31861],[-89.97941,30.31863],[-89.97944,30.31877],[-89.97964,30.31877],[-89.9797,30.31921],[-89.97951,30.31936],[-89.9793,30.31929],[-89.97919,30.31951],[-89.9787,30.31973],[-89.97844,30.31964],[-89.97802,30.32037]]]},"properties":{"fire_id":"ufid:2025-LABBR-000359","source_collection":"history-2025","source_objectid":52545,"incident_name":"Pontchartrain DR","mapped_acres":0.01,"mapped_acres_source":"poly_GISAcres","gis_acres":0.01,"auto_acres":72.35171723336376,"reported_acres":79.0,"percent_contained":null,"state":"LA","state_wfigs":"US-LA","county":"St. Tammany","discovery_time_utc":"2025-11-21T20:00:00Z","perimeter_time_utc":"2026-04-21T15:47:25Z","perimeter_edit_time_utc":null,"incident_modified_time_utc":"2025-12-08T23:01:29Z","containment_time_utc":"2025-12-05T20:22:00Z","control_time_utc":null,"fire_out_time_utc":"2025-12-05T22:00:00Z","fire_cause":"Undetermined","fire_cause_general":"Undetermined","map_method":"Auto-generated for InFORM","source_dataset":"FFP","unique_fire_identifier":"2025-LABBR-000359","irwin_id":"{5FDC77CD-D736-4707-A214-E6826F926CE7}","global_id":"3fd84748-1c72-41dd-853e-c4a0f561f22f"}}]}
