{"type":"FeatureCollection","features":[{"type":"Feature","geometry":{"type":"Polygon","coordinates":[[[-76.81578,39.04755],[-76.81578,39.0475],[-76.81582,39.04752],[-76.81578,39.04755]]]},"properties":{"fire_id":"ufid:2025-MDPWR-000582","source_collection":"history-2025","source_objectid":43328,"incident_name":"Laurel-Bowie","mapped_acres":0.1,"mapped_acres_source":"poly_GISAcres","gis_acres":0.1,"auto_acres":0.003479289925006259,"reported_acres":0.1,"percent_contained":null,"state":"MD","state_wfigs":"US-MD","county":"Prince George's","discovery_time_utc":"2025-07-15T14:30:00Z","perimeter_time_utc":"2025-08-13T19:51:32Z","perimeter_edit_time_utc":null,"incident_modified_time_utc":"2025-08-13T19:42:06Z","containment_time_utc":"2025-07-16T00:00:00Z","control_time_utc":"2025-07-16T00:00:00Z","fire_out_time_utc":"2025-07-16T00:00:00Z","fire_cause":"Human","fire_cause_general":"Power generation / transmission / distribution","map_method":"Hand Sketch","source_dataset":"FFP","unique_fire_identifier":"2025-MDPWR-000582","irwin_id":"{EE5E1165-ADF4-4207-A277-A6FB5C252F2C}","global_id":"5fe1a19d-b327-46fe-afc9-b28265246a09"}},{"type":"Feature","geometry":{"type":"Polygon","coordinates":[[[-77.79758,39.43961],[-77.79747,39.43955],[-77.7975,39.43951],[-77.79758,39.43961]]]},"properties":{"fire_id":"ufid:2025-MDCOP-250019","source_collection":"history-2025","source_objectid":46532,"incident_name":"Ferry Hill","mapped_acres":0.1,"mapped_acres_source":"poly_GISAcres","gis_acres":0.1,"auto_acres":0.019215250773421545,"reported_acres":0.1,"percent_contained":null,"state":"MD","state_wfigs":"US-MD","county":"Washington","discovery_time_utc":"2025-09-02T12:00:47Z","perimeter_time_utc":"2025-09-29T19:04:46Z","perimeter_edit_time_utc":null,"incident_modified_time_utc":"2025-09-02T17:10:24Z","containment_time_utc":null,"control_time_utc":null,"fire_out_time_utc":"2025-09-02T20:00:00Z","fire_cause":"Human","fire_cause_general":"Recreation and ceremony","map_method":"Auto-generated for InFORM","source_dataset":"FFP","unique_fire_identifier":"2025-MDCOP-250019","irwin_id":"{F2643206-11D9-4EF2-A2E5-6CA5F82DDF62}","global_id":"c0f27e65-ee94-40d8-8dfd-7a543c1bd158"}},{"type":"Feature","geometry":{"type":"Polygon","coordinates":[[[-77.94814,39.62231],[-77.94807,39.62223],[-77.94826,39.62206],[-77.9485,39.62207],[-77.94814,39.62231]]]},"properties":{"fire_id":"ufid:2025-MDCOP-250006","source_collection":"history-2025","source_objectid":46536,"incident_name":"Four Locks","mapped_acres":0.2,"mapped_acres_source":"poly_GISAcres","gis_acres":0.2,"auto_acres":0.10809895899043959,"reported_acres":0.2,"percent_contained":null,"state":"MD","state_wfigs":"US-MD","county":"Washington","discovery_time_utc":"2025-03-01T20:25:21Z","perimeter_time_utc":"2025-09-29T19:08:15Z","perimeter_edit_time_utc":null,"incident_modified_time_utc":"2025-03-04T18:42:38Z","containment_time_utc":null,"control_time_utc":null,"fire_out_time_utc":"2025-04-21T16:22:00Z","fire_cause":"Undetermined","fire_cause_general":"Undetermined","map_method":"Auto-generated for InFORM","source_dataset":"FFP","unique_fire_identifier":"2025-MDCOP-250006","irwin_id":"{4783DB3F-5BE8-42B1-B92E-EF74025B45BD}","global_id":"1e3346e3-575f-43d7-9147-e80260042fed"}},{"type":"Feature","geometry":{"type":"Polygon","coordinates":[[[-76.87601,39.01419],[-76.87649,39.0143],[-76.87665,39.01454],[-76.8775,39.0145],[-76.87777,39.01481],[-76.87778,39.01528],[-76.87755,39.01559],[-76.87696,39.01566],[-76.87666,39.01594],[-76.87672,39.01616],[-76.87641,39.01617],[-76.87599,39.0165],[-76.87519,39.01677],[-76.87429,39.01638],[-76.87408,39.01613],[-76.87424,39.01589],[-76.87384,39.01568],[-76.87373,39.01545],[-76.87383,39.01525],[-76.87431,39.01495],[-76.87576,39.01456],[-76.87597,39.01441],[-76.87601,39.01419]]]},"properties":{"fire_id":"ufid:2025-MDMDS-250010","source_collection":"history-2025","source_objectid":46540,"incident_name":"Reseach Road","mapped_acres":14.0,"mapped_acres_source":"poly_GISAcres","gis_acres":14.0,"auto_acres":14.64022303518346,"reported_acres":14.0,"percent_contained":null,"state":"MD","state_wfigs":"US-MD","county":"Prince George's","discovery_time_utc":"2025-03-30T20:00:08Z","perimeter_time_utc":"2025-09-29T19:13:23Z","perimeter_edit_time_utc":null,"incident_modified_time_utc":"2025-04-01T14:12:50Z","containment_time_utc":null,"control_time_utc":null,"fire_out_time_utc":null,"fire_cause":"Undetermined","fire_cause_general":"Undetermined","map_method":"Auto-generated for InFORM","source_dataset":"FFP","unique_fire_identifier":"2025-MDMDS-250010","irwin_id":"{132DDC1B-CE20-4B5B-B9E8-234FB182E3C9}","global_id":"f30e61f1-38ed-405e-a0cd-3c4022813ee7"}},{"type":"Feature","geometry":{"type":"Polygon","coordinates":[[[-75.16449,38.20825],[-75.16471,38.20828],[-75.16497,38.20855],[-75.16493,38.20869],[-75.16449,38.20825]]]},"properties":{"fire_id":"ufid:2025-MDAIP-250001","source_collection":"history-2025","source_objectid":47820,"incident_name":"Bayside C Loop","mapped_acres":0.2118497,"mapped_acres_source":"poly_GISAcres","gis_acres":0.2118497,"auto_acres":0.2118488060728378,"reported_acres":0.1,"percent_contained":null,"state":"MD","state_wfigs":"US-MD","county":"Worcester","discovery_time_utc":"2025-03-26T21:15:14Z","perimeter_time_utc":"2025-10-24T17:48:14Z","perimeter_edit_time_utc":null,"incident_modified_time_utc":"2025-04-11T16:37:48Z","containment_time_utc":null,"control_time_utc":null,"fire_out_time_utc":"2025-03-27T22:00:00Z","fire_cause":"Human","fire_cause_general":"Recreation and ceremony","map_method":"Auto-generated for InFORM","source_dataset":"FFP","unique_fire_identifier":"2025-MDAIP-250001","irwin_id":"{21A7D043-C94A-4E0D-94E3-CCEC354DFEDA}","global_id":"f39d602e-1f80-4551-8f8c-56b00d624132"}},{"type":"Feature","geometry":{"type":"Polygon","coordinates":[[[-76.81752,39.04811],[-76.81722,39.04809],[-76.8179,39.04803],[-76.81752,39.04811]]]},"properties":{"fire_id":"ufid:2025-MDPWR-000776","source_collection":"history-2025","source_objectid":48238,"incident_name":"Laurel Bowie 2","mapped_acres":0.1,"mapped_acres_source":"poly_GISAcres","gis_acres":0.1,"auto_acres":0.0747187064747059,"reported_acres":0.1,"percent_contained":null,"state":"MD","state_wfigs":"US-MD","county":"Prince George's","discovery_time_utc":"2025-10-31T17:41:00Z","perimeter_time_utc":"2025-11-05T17:32:57Z","perimeter_edit_time_utc":null,"incident_modified_time_utc":"2025-11-04T18:01:10Z","containment_time_utc":"2025-10-31T19:24:00Z","control_time_utc":"2025-10-31T19:25:00Z","fire_out_time_utc":"2025-10-31T19:26:00Z","fire_cause":"Human","fire_cause_general":"Power generation / transmission / distribution","map_method":"Auto-generated for InFORM","source_dataset":"FFP","unique_fire_identifier":"2025-MDPWR-000776","irwin_id":"{ABAADD56-29F3-4CED-8162-A46B70426611}","global_id":"955357b6-70ba-4893-9024-d41f41c40596"}},{"type":"Feature","geometry":{"type":"Polygon","coordinates":[[[-78.33194,39.63908],[-78.33262,39.63927],[-78.33252,39.63934],[-78.33259,39.63945],[-78.33285,39.63938],[-78.33374,39.63975],[-78.33375,39.63987],[-78.33344,39.64005],[-78.33331,39.64039],[-78.33313,39.64035],[-78.33294,39.64007],[-78.33274,39.64029],[-78.33285,39.64061],[-78.3326,39.64073],[-78.33106,39.63982],[-78.33183,39.63953],[-78.33159,39.63927],[-78.33194,39.63908]]]},"properties":{"fire_id":"ufid:2025-MDMDS-250023","source_collection":"history-2025","source_objectid":48455,"incident_name":"Sideling Hill Creek","mapped_acres":5.06,"mapped_acres_source":"poly_GISAcres","gis_acres":5.06,"auto_acres":5.05753298632402,"reported_acres":5.0,"percent_contained":null,"state":"MD","state_wfigs":"US-MD","county":"Washington","discovery_time_utc":"2025-11-06T06:30:04Z","perimeter_time_utc":"2025-11-12T18:38:50Z","perimeter_edit_time_utc":"2025-11-12T18:38:52Z","incident_modified_time_utc":"2025-11-12T18:46:10Z","containment_time_utc":null,"control_time_utc":null,"fire_out_time_utc":null,"fire_cause":"Human","fire_cause_general":"Power generation/transmission/distribution","map_method":"Hand Sketch","source_dataset":"2025 NIFS","unique_fire_identifier":"2025-MDMDS-250023","irwin_id":"{1E511D1B-C596-46F4-8932-4D7920E749E2}","global_id":"4eca43c1-e511-49d0-ae25-594a2574b361"}},{"type":"Feature","geometry":{"type":"Polygon","coordinates":[[[-76.23402,38.41862],[-76.23469,38.41898],[-76.2346,38.41919],[-76.23471,38.4193],[-76.23448,38.41932],[-76.23408,38.41981],[-76.2337,38.41973],[-76.23354,38.41948],[-76.2336,38.41933],[-76.23344,38.41919],[-76.23339,38.41936],[-76.23318,38.4194],[-76.23299,38.41913],[-76.23312,38.41902],[-76.23299,38.41883],[-76.23319,38.41878],[-76.23327,38.41856],[-76.23402,38.41862]]]},"properties":{"fire_id":"ufid:2025-MDBWR-000558","source_collection":"history-2025","source_objectid":48480,"incident_name":"Jarrett","mapped_acres":3.0,"mapped_acres_source":"poly_GISAcres","gis_acres":3.0,"auto_acres":3.1302764632343485,"reported_acres":3.13,"percent_contained":null,"state":"MD","state_wfigs":"US-MD","county":"Dorchester","discovery_time_utc":"2025-07-29T23:00:00Z","perimeter_time_utc":"2025-11-14T14:42:00Z","perimeter_edit_time_utc":null,"incident_modified_time_utc":"2025-07-31T15:08:52Z","containment_time_utc":"2025-07-30T14:30:00Z","control_time_utc":null,"fire_out_time_utc":"2025-11-14T14:00:00Z","fire_cause":"Natural","fire_cause_general":"Natural","map_method":"GPS-Walked","source_dataset":"FFP","unique_fire_identifier":"2025-MDBWR-000558","irwin_id":"{BD90D260-B5C9-417F-AE9B-F972F0357BBE}","global_id":"d2d6adb0-4438-4701-a493-46008ea571cb"}},{"type":"Feature","geometry":{"type":"Polygon","coordinates":[[[-76.09963,38.36679],[-76.09777,38.36617],[-76.09742,38.36589],[-76.0959,38.36557],[-76.09534,38.3661],[-76.09536,38.3667],[-76.09621,38.36709],[-76.09797,38.36736],[-76.09839,38.36764],[-76.098,38.36816],[-76.09834,38.36849],[-76.09842,38.36874],[-76.09786,38.36906],[-76.09728,38.36892],[-76.09679,38.36876],[-76.09562,38.36791],[-76.09369,38.36737],[-76.09315,38.36734],[-76.09305,38.36808],[-76.09278,38.3682],[-76.09243,38.36797],[-76.09245,38.36748],[-76.09209,38.36782],[-76.09185,38.36857],[-76.09171,38.3697],[-76.09151,38.36991],[-76.09093,38.36997],[-76.09037,38.36983],[-76.09037,38.36911],[-76.08942,38.36813],[-76.08927,38.36777],[-76.08871,38.36771],[-76.08847,38.36803],[-76.08867,38.3682],[-76.08845,38.36847],[-76.08863,38.36896],[-76.08919,38.36942],[-76.08988,38.36975],[-76.0875,38.36939],[-76.08683,38.36898],[-76.08511,38.36875],[-76.08426,38.3684],[-76.08294,38.36762],[-76.08111,38.36576],[-76.0804,38.36587],[-76.08064,38.36704],[-76.08312,38.36876],[-76.08308,38.36924],[-76.08292,38.36951],[-76.08307,38.36993],[-76.08337,38.37016],[-76.0833,38.37055],[-76.08188,38.3709],[-76.08064,38.37166],[-76.07937,38.37215],[-76.07838,38.37235],[-76.07824,38.37363],[-76.07765,38.37444],[-76.07545,38.37549],[-76.07465,38.37569],[-76.07424,38.3757],[-76.07265,38.37519],[-76.07224,38.37484],[-76.071,38.37302],[-76.07062,38.37272],[-76.07007,38.37346],[-76.06979,38.37451],[-76.06928,38.37484],[-76.06889,38.37477],[-76.06726,38.3738],[-76.06636,38.37427],[-76.06521,38.3739],[-76.06474,38.3735],[-76.06355,38.37286],[-76.06225,38.37293],[-76.06156,38.37284],[-76.0603,38.37302],[-76.06018,38.37343],[-76.06182,38.37438],[-76.06133,38.37483],[-76.06147,38.37509],[-76.06253,38.37524],[-76.06283,38.37598],[-76.06214,38.37606],[-76.0615,38.37653],[-76.06011,38.3769],[-76.06006,38.37803],[-76.06021,38.37897],[-76.06016,38.37926],[-76.05988,38.3794],[-76.05978,38.3797],[-76.05978,38.38052],[-76.06013,38.38102],[-76.06006,38.38116],[-76.06036,38.38121],[-76.06027,38.38173],[-76.05989,38.38184],[-76.05957,38.38116],[-76.05895,38.38132],[-76.05925,38.3816],[-76.05922,38.38183],[-76.05904,38.38189],[-76.05797,38.38184],[-76.05783,38.38159],[-76.05694,38.38172],[-76.05642,38.38132],[-76.05631,38.38145],[-76.05636,38.38217],[-76.05613,38.38231],[-76.05583,38.38225],[-76.05552,38.38263],[-76.05528,38.38258],[-76.05505,38.38215],[-76.05471,38.38219],[-76.05428,38.38254],[-76.05414,38.3825],[-76.05407,38.38267],[-76.05426,38.38273],[-76.05401,38.38281],[-76.05389,38.38307],[-76.05373,38.38315],[-76.05354,38.38306],[-76.0537,38.38299],[-76.05361,38.38289],[-76.05314,38.38303],[-76.05305,38.38322],[-76.05336,38.3835],[-76.05313,38.38373],[-76.05296,38.38366],[-76.05285,38.38387],[-76.05217,38.38412],[-76.05239,38.38457],[-76.05206,38.38479],[-76.05194,38.38534],[-76.05201,38.38562],[-76.05228,38.38579],[-76.05293,38.38582],[-76.05315,38.3862],[-76.05358,38.38637],[-76.05367,38.38661],[-76.0534,38.3869],[-76.05307,38.38687],[-76.05313,38.38722],[-76.05334,38.38737],[-76.05385,38.3875],[-76.0541,38.38731],[-76.05427,38.38735],[-76.05463,38.38792],[-76.055,38.38819],[-76.05615,38.38834],[-76.05681,38.38866],[-76.05686,38.38852],[-76.05695,38.38871],[-76.05739,38.38892],[-76.05785,38.38895],[-76.05825,38.38874],[-76.05814,38.38854],[-76.05829,38.38827],[-76.05823,38.38776],[-76.05792,38.3876],[-76.05779,38.38727],[-76.05733,38.38723],[-76.05732,38.38676],[-76.05635,38.38625],[-76.05651,38.3861],[-76.05624,38.38579],[-76.05567,38.38558],[-76.05537,38.3849],[-76.05547,38.38445],[-76.05611,38.38377],[-76.0591,38.38318],[-76.06045,38.38326],[-76.06097,38.38365],[-76.06205,38.38398],[-76.06176,38.38414],[-76.06105,38.38502],[-76.06142,38.38582],[-76.06198,38.38656],[-76.06315,38.38768],[-76.06283,38.38834],[-76.06046,38.39055],[-76.05953,38.39076],[-76.05637,38.39023],[-76.05368,38.38909],[-76.05254,38.3881],[-76.05041,38.38547],[-76.04916,38.38475],[-76.04919,38.38411],[-76.04977,38.3831],[-76.05009,38.38177],[-76.05083,38.38054],[-76.05175,38.38038],[-76.0548,38.38038],[-76.05592,38.3802],[-76.05684,38.37945],[-76.05715,38.3787],[-76.05772,38.37815],[-76.05898,38.37648],[-76.05907,38.37589],[-76.05876,38.37497],[-76.05824,38.37439],[-76.05538,38.37286],[-76.05432,38.37249],[-76.05485,38.37212],[-76.05507,38.3717],[-76.05539,38.37156],[-76.05599,38.37187],[-76.05695,38.3718],[-76.05735,38.37199],[-76.05766,38.3718],[-76.0583,38.37177],[-76.05856,38.37159],[-76.05944,38.37198],[-76.05962,38.37166],[-76.05993,38.37144],[-76.06005,38.37191],[-76.06145,38.37155],[-76.06148,38.37171],[-76.06108,38.3721],[-76.06131,38.37231],[-76.06181,38.37204],[-76.06269,38.37225],[-76.06292,38.37219],[-76.06333,38.37146],[-76.06363,38.37163],[-76.06421,38.3711],[-76.06448,38.37108],[-76.06477,38.37125],[-76.06507,38.37107],[-76.06486,38.37053],[-76.06386,38.37043],[-76.06323,38.37012],[-76.06365,38.36953],[-76.06421,38.3691],[-76.06425,38.36883],[-76.06408,38.36837],[-76.06351,38.36805],[-76.06419,38.36682],[-76.06438,38.36585],[-76.06487,38.36525],[-76.0646,38.3649],[-76.06297,38.36419],[-76.063,38.3635],[-76.06259,38.36323],[-76.06246,38.36299],[-76.06292,38.36238],[-76.06288,38.36199],[-76.06201,38.36159],[-76.06208,38.36127],[-76.06173,38.36093],[-76.06058,38.36045],[-76.0622,38.35963],[-76.06293,38.35857],[-76.06324,38.35825],[-76.06364,38.3581],[-76.06404,38.35804],[-76.06428,38.35865],[-76.06524,38.35943],[-76.06577,38.35929],[-76.06581,38.35896],[-76.0664,38.35879],[-76.06648,38.359],[-76.06704,38.35938],[-76.06723,38.35912],[-76.06707,38.35884],[-76.06772,38.35862],[-76.06829,38.35821],[-76.06882,38.3585],[-76.06901,38.35797],[-76.06928,38.35822],[-76.07016,38.35815],[-76.07098,38.35832],[-76.07181,38.35874],[-76.07206,38.35867],[-76.07217,38.35892],[-76.07301,38.35937],[-76.07345,38.35918],[-76.07347,38.35875],[-76.07366,38.359],[-76.07403,38.35914],[-76.07464,38.35904],[-76.07583,38.35992],[-76.07584,38.36002],[-76.07533,38.36027],[-76.07527,38.36039],[-76.0754,38.3606],[-76.07653,38.36069],[-76.07633,38.36109],[-76.07646,38.36144],[-76.07664,38.36157],[-76.07692,38.36116],[-76.07712,38.36152],[-76.07745,38.36164],[-76.07785,38.36206],[-76.07774,38.36234],[-76.07804,38.36243],[-76.07844,38.36229],[-76.08013,38.36231],[-76.08039,38.36188],[-76.08112,38.3617],[-76.08235,38.36111],[-76.083,38.36098],[-76.08344,38.36069],[-76.08477,38.36081],[-76.08524,38.36055],[-76.08577,38.36067],[-76.08595,38.36108],[-76.087,38.36121],[-76.08723,38.36138],[-76.08711,38.36157],[-76.08744,38.36216],[-76.08736,38.36231],[-76.08762,38.36245],[-76.08802,38.362],[-76.08789,38.36175],[-76.08809,38.36149],[-76.0884,38.36152],[-76.08837,38.36179],[-76.0886,38.36222],[-76.08821,38.36262],[-76.08823,38.36276],[-76.08879,38.36295],[-76.0892,38.36296],[-76.08964,38.36251],[-76.08962,38.36232],[-76.08982,38.36226],[-76.08998,38.36149],[-76.09095,38.36133],[-76.09121,38.36149],[-76.09105,38.3616],[-76.09129,38.36151],[-76.0915,38.3616],[-76.09155,38.36182],[-76.09189,38.36209],[-76.09268,38.36193],[-76.09312,38.36288],[-76.09304,38.36295],[-76.09411,38.36335],[-76.0961,38.36353],[-76.09643,38.36349],[-76.09678,38.36314],[-76.09863,38.36349],[-76.09983,38.36339],[-76.10003,38.36367],[-76.10009,38.36543],[-76.10038,38.36561],[-76.09963,38.36679]]]},"properties":{"fire_id":"ufid:2025-MDMDS-000098","source_collection":"history-2025","source_objectid":48684,"incident_name":"Robins","mapped_acres":1200.0,"mapped_acres_source":"poly_GISAcres","gis_acres":1200.0,"auto_acres":1135.6561729397813,"reported_acres":1200.0,"percent_contained":99.0,"state":"MD","state_wfigs":"US-MD","county":"Dorchester","discovery_time_utc":"2025-03-03T17:00:00Z","perimeter_time_utc":"2025-03-13T12:24:28Z","perimeter_edit_time_utc":"2025-11-20T16:31:34Z","incident_modified_time_utc":"2025-03-13T12:24:18Z","containment_time_utc":null,"control_time_utc":null,"fire_out_time_utc":"2025-03-10T12:00:00Z","fire_cause":"Undetermined","fire_cause_general":null,"map_method":"Auto-generated for InFORM","source_dataset":"2025 NIFS","unique_fire_identifier":"2025-MDMDS-000098","irwin_id":"{B70B3C32-7C94-48AE-BDCA-DEBE8B0DABDA}","global_id":"c142d2e0-c9a0-4eb0-8a33-6978bfede2b2"}},{"type":"Feature","geometry":{"type":"Polygon","coordinates":[[[-77.307,39.06025],[-77.30732,39.06059],[-77.30712,39.06072],[-77.30683,39.06068],[-77.30674,39.06094],[-77.30654,39.06106],[-77.30632,39.06092],[-77.30633,39.06051],[-77.30649,39.06049],[-77.3066,39.06027],[-77.30666,39.06038],[-77.307,39.06025]]]},"properties":{"fire_id":"ufid:2025-MDMDS-250026","source_collection":"history-2025","source_objectid":48863,"incident_name":"Blockhouse Point","mapped_acres":1.04,"mapped_acres_source":"poly_GISAcres","gis_acres":1.04,"auto_acres":1.0435203934394905,"reported_acres":1.0,"percent_contained":null,"state":"MD","state_wfigs":"US-MD","county":"Montgomery","discovery_time_utc":"2025-11-29T17:26:26Z","perimeter_time_utc":"2025-12-01T14:47:41Z","perimeter_edit_time_utc":"2025-12-01T21:10:37Z","incident_modified_time_utc":"2025-12-01T14:47:43Z","containment_time_utc":null,"control_time_utc":null,"fire_out_time_utc":null,"fire_cause":"Undetermined","fire_cause_general":"Undetermined (remarks required)","map_method":"Hand Sketch","source_dataset":"2025 NIFS","unique_fire_identifier":"2025-MDMDS-250026","irwin_id":"{36856F62-0B1A-493E-9731-7D19EB969F35}","global_id":"0b9a35de-738f-449a-95b5-c9ac52baf1bc"}}]}
