{"type":"FeatureCollection","features":[{"type":"Feature","geometry":{"type":"Polygon","coordinates":[[[-85.80123,43.87382],[-85.80113,43.87395],[-85.80098,43.87387],[-85.80123,43.87382]]]},"properties":{"fire_id":"ufid:2025-MIHMF-250031","source_collection":"history-2025","source_objectid":37630,"incident_name":"First","mapped_acres":0.1,"mapped_acres_source":"poly_GISAcres","gis_acres":0.1,"auto_acres":0.05850750863459541,"reported_acres":0.1,"percent_contained":null,"state":"MI","state_wfigs":"US-MI","county":"Lake","discovery_time_utc":"2025-03-13T17:03:21Z","perimeter_time_utc":"2025-03-14T12:31:49Z","perimeter_edit_time_utc":"2025-03-17T17:41:17Z","incident_modified_time_utc":"2025-04-04T12:29:59Z","containment_time_utc":"2025-03-13T17:49:00Z","control_time_utc":"2025-03-17T18:24:00Z","fire_out_time_utc":"2025-03-18T18:45:00Z","fire_cause":"Human","fire_cause_general":null,"map_method":"Auto-generated for InFORM","source_dataset":"2025 NIFS","unique_fire_identifier":"2025-MIHMF-250031","irwin_id":"{658B7065-9047-408B-BFF7-18DBFAD3D810}","global_id":"82a21531-bb42-49e4-9dff-949e37d93a64"}},{"type":"Feature","geometry":{"type":"Polygon","coordinates":[[[-85.81306,43.60737],[-85.81317,43.6073],[-85.81325,43.60736],[-85.81306,43.60737]]]},"properties":{"fire_id":"ufid:2025-MIHMF-250034","source_collection":"history-2025","source_objectid":38273,"incident_name":"Lakeside","mapped_acres":0.1,"mapped_acres_source":"poly_GISAcres","gis_acres":0.1,"auto_acres":0.027791375913463576,"reported_acres":0.1,"percent_contained":null,"state":"MI","state_wfigs":"US-MI","county":"Newaygo","discovery_time_utc":"2025-03-14T18:50:24Z","perimeter_time_utc":"2025-04-04T11:56:40Z","perimeter_edit_time_utc":null,"incident_modified_time_utc":"2025-03-18T18:48:18Z","containment_time_utc":"2025-03-14T20:09:00Z","control_time_utc":"2025-03-17T18:24:00Z","fire_out_time_utc":"2025-03-18T18:45:00Z","fire_cause":"Human","fire_cause_general":"Debris and open burning","map_method":"Auto-generated for InFORM","source_dataset":"FFP","unique_fire_identifier":"2025-MIHMF-250034","irwin_id":"{D8FCE9DD-6C22-4FEC-8B36-1FD920C0D333}","global_id":"8129953d-f995-49bd-a38e-739ada01ce7c"}},{"type":"Feature","geometry":{"type":"Polygon","coordinates":[[[-86.1125,43.99849],[-86.11244,43.99839],[-86.11254,43.99841],[-86.1125,43.99849]]]},"properties":{"fire_id":"ufid:2025-MIHMF-250062","source_collection":"history-2025","source_objectid":38274,"incident_name":"Stolberg","mapped_acres":0.1,"mapped_acres_source":"poly_GISAcres","gis_acres":0.1,"auto_acres":0.015023622166485588,"reported_acres":0.1,"percent_contained":null,"state":"MI","state_wfigs":"US-MI","county":"Mason","discovery_time_utc":"2025-04-02T04:53:00Z","perimeter_time_utc":"2025-04-04T11:49:54Z","perimeter_edit_time_utc":null,"incident_modified_time_utc":"2025-04-03T19:34:16Z","containment_time_utc":"2025-04-03T19:33:00Z","control_time_utc":"2025-04-03T19:33:00Z","fire_out_time_utc":"2025-04-03T19:33:00Z","fire_cause":"Human","fire_cause_general":"Power generation / transmission / distribution","map_method":"Hand Sketch","source_dataset":"FFP","unique_fire_identifier":"2025-MIHMF-250062","irwin_id":"{6FD2D0E6-4514-4BC7-879E-EDCCF95D906C}","global_id":"446e5a62-c884-43ef-8f8e-3fdb17537476"}},{"type":"Feature","geometry":{"type":"Polygon","coordinates":[[[-85.91701,44.41709],[-85.91692,44.41698],[-85.9171,44.41696],[-85.91701,44.41709]]]},"properties":{"fire_id":"ufid:2025-MIHMF-250084","source_collection":"history-2025","source_objectid":38571,"incident_name":"Yates","mapped_acres":0.1,"mapped_acres_source":"poly_GISAcres","gis_acres":0.1,"auto_acres":0.04604782067822614,"reported_acres":0.1,"percent_contained":null,"state":"MI","state_wfigs":"US-MI","county":"Manistee","discovery_time_utc":"2025-04-14T15:51:41Z","perimeter_time_utc":"2025-04-14T19:16:34Z","perimeter_edit_time_utc":null,"incident_modified_time_utc":"2025-04-14T17:36:07Z","containment_time_utc":"2025-04-14T16:48:00Z","control_time_utc":"2025-04-14T16:55:00Z","fire_out_time_utc":"2025-04-14T16:55:00Z","fire_cause":"Human","fire_cause_general":"Equipment and vehicle use","map_method":"Hand Sketch","source_dataset":"FFP","unique_fire_identifier":"2025-MIHMF-250084","irwin_id":"{3E28FC08-87F1-474F-AF50-E35233FA3B83}","global_id":"5ec9963f-1957-4f34-89ea-6cbf8107efad"}},{"type":"Feature","geometry":{"type":"Polygon","coordinates":[[[-85.05839,43.72521],[-85.05837,43.72537],[-85.05793,43.72524],[-85.05794,43.72513],[-85.05783,43.72517],[-85.0576,43.72494],[-85.05772,43.72479],[-85.05742,43.72469],[-85.05754,43.72452],[-85.05735,43.72443],[-85.05733,43.72425],[-85.05752,43.72408],[-85.05749,43.72378],[-85.05782,43.72386],[-85.05792,43.72371],[-85.05824,43.72383],[-85.0584,43.72372],[-85.05888,43.724],[-85.0589,43.72437],[-85.05866,43.72444],[-85.05901,43.72451],[-85.05891,43.72496],[-85.05876,43.72517],[-85.05839,43.72521]]]},"properties":{"fire_id":"ufid:2025-MIMIS-370001","source_collection":"history-2025","source_objectid":38693,"incident_name":"Isabella Stat 1","mapped_acres":4.34,"mapped_acres_source":"poly_GISAcres","gis_acres":4.34,"auto_acres":4.342929489090762,"reported_acres":4.3,"percent_contained":null,"state":"MI","state_wfigs":"US-MI","county":"Isabella","discovery_time_utc":"2025-04-12T00:01:00Z","perimeter_time_utc":null,"perimeter_edit_time_utc":"2025-04-17T16:31:35Z","incident_modified_time_utc":"2025-04-14T21:34:45Z","containment_time_utc":null,"control_time_utc":null,"fire_out_time_utc":null,"fire_cause":"Human","fire_cause_general":"Debris and open burning","map_method":"Mixed Methods","source_dataset":"2025 NIFS","unique_fire_identifier":"2025-MIMIS-370001","irwin_id":"{B7BA5FB9-011D-47EA-B4D9-E15D7F7DE286}","global_id":"177eaf33-a895-41a1-bd0e-b566c3f8c5b1"}},{"type":"Feature","geometry":{"type":"Polygon","coordinates":[[[-85.04818,44.03423],[-85.04863,44.03438],[-85.04856,44.03524],[-85.04772,44.03534],[-85.04759,44.0352],[-85.04774,44.03505],[-85.04776,44.03476],[-85.04753,44.03433],[-85.04818,44.03423]]]},"properties":{"fire_id":"ufid:2025-MIMIS-180008","source_collection":"history-2025","source_objectid":38696,"incident_name":"Clare #6","mapped_acres":2.15,"mapped_acres_source":"poly_GISAcres","gis_acres":2.15,"auto_acres":2.1548954727341147,"reported_acres":2.2,"percent_contained":null,"state":"MI","state_wfigs":"US-MI","county":"Clare","discovery_time_utc":"2025-04-12T17:00:00Z","perimeter_time_utc":null,"perimeter_edit_time_utc":"2025-04-17T16:48:58Z","incident_modified_time_utc":"2025-04-14T21:37:46Z","containment_time_utc":null,"control_time_utc":null,"fire_out_time_utc":null,"fire_cause":"Human","fire_cause_general":"Debris and open burning","map_method":"Mixed Methods","source_dataset":"2025 NIFS","unique_fire_identifier":"2025-MIMIS-180008","irwin_id":"{72A21A09-7255-409A-9459-42F42ABF1E1E}","global_id":"447cdfd2-a259-46ca-80fa-93e87c822bf2"}},{"type":"Feature","geometry":{"type":"Polygon","coordinates":[[[-85.95363,42.49407],[-85.95343,42.49426],[-85.95366,42.49438],[-85.95346,42.49464],[-85.95326,42.49457],[-85.9533,42.49445],[-85.95299,42.49437],[-85.95265,42.49474],[-85.95206,42.49476],[-85.95182,42.49438],[-85.95194,42.49426],[-85.9518,42.49407],[-85.95183,42.49362],[-85.95213,42.49351],[-85.95304,42.49397],[-85.95334,42.49369],[-85.953389,42.494013],[-85.95363,42.49407]]]},"properties":{"fire_id":"ufid:2025-MIMIS-030003","source_collection":"history-2025","source_objectid":38886,"incident_name":"42nd St","mapped_acres":3.24,"mapped_acres_source":"poly_GISAcres","gis_acres":3.24,"auto_acres":3.235402930142991,"reported_acres":3.3,"percent_contained":null,"state":"MI","state_wfigs":"US-MI","county":"Allegan","discovery_time_utc":"2025-04-14T18:50:00Z","perimeter_time_utc":null,"perimeter_edit_time_utc":"2025-04-22T16:26:28Z","incident_modified_time_utc":"2025-04-15T19:20:09Z","containment_time_utc":null,"control_time_utc":null,"fire_out_time_utc":null,"fire_cause":"Human","fire_cause_general":"Debris and open burning","map_method":"Mixed Methods","source_dataset":"2025 NIFS","unique_fire_identifier":"2025-MIMIS-030003","irwin_id":"{DE97997A-A328-4160-A7FB-D8983E8D8350}","global_id":"b94b02af-76c6-404c-acff-a93c2027152f"}},{"type":"Feature","geometry":{"type":"Polygon","coordinates":[[[-86.14908,43.58634],[-86.14938,43.58645],[-86.14908,43.5867],[-86.1489,43.58643],[-86.14908,43.58634]]]},"properties":{"fire_id":"ufid:2025-MIMIS-640004","source_collection":"history-2025","source_objectid":38916,"incident_name":"Oceana 3","mapped_acres":0.28,"mapped_acres_source":"poly_GISAcres","gis_acres":0.28,"auto_acres":0.27894713282484734,"reported_acres":0.3,"percent_contained":null,"state":"MI","state_wfigs":"US-MI","county":"Oceana","discovery_time_utc":"2025-03-14T18:40:00Z","perimeter_time_utc":null,"perimeter_edit_time_utc":"2025-04-23T15:43:34Z","incident_modified_time_utc":"2025-03-22T22:43:14Z","containment_time_utc":null,"control_time_utc":null,"fire_out_time_utc":null,"fire_cause":"Human","fire_cause_general":"Debris and open burning","map_method":"Mixed Methods","source_dataset":"2025 NIFS","unique_fire_identifier":"2025-MIMIS-640004","irwin_id":"{727FAF1A-2AE2-438C-B593-1FB4C548B9C7}","global_id":"c02b0e96-b4c8-4d14-b877-89488d7637a2"}},{"type":"Feature","geometry":{"type":"Polygon","coordinates":[[[-86.25555,43.54314],[-86.25567,43.54332],[-86.25553,43.54339],[-86.25514,43.54316],[-86.25518,43.54265],[-86.25553,43.54278],[-86.25557,43.54313],[-86.25542,43.54315],[-86.25555,43.54314]]]},"properties":{"fire_id":"ufid:2025-MIMIS-640002","source_collection":"history-2025","source_objectid":38917,"incident_name":"Oceana 2","mapped_acres":0.64,"mapped_acres_source":"poly_GISAcres","gis_acres":0.64,"auto_acres":0.637241716464605,"reported_acres":0.6,"percent_contained":null,"state":"MI","state_wfigs":"US-MI","county":"Oceana","discovery_time_utc":"2025-03-14T17:22:00Z","perimeter_time_utc":null,"perimeter_edit_time_utc":"2025-04-23T15:41:13Z","incident_modified_time_utc":"2025-03-22T22:39:34Z","containment_time_utc":null,"control_time_utc":null,"fire_out_time_utc":null,"fire_cause":"Human","fire_cause_general":"Other causes","map_method":"Mixed Methods","source_dataset":"2025 NIFS","unique_fire_identifier":"2025-MIMIS-640002","irwin_id":"{405E7D01-C721-49EB-8002-E2D77DBBEE61}","global_id":"cba89c11-99ab-4aa0-af10-041a22b0a73a"}},{"type":"Feature","geometry":{"type":"Polygon","coordinates":[[[-86.05284,43.59013],[-86.05241,43.58978],[-86.05249,43.5896],[-86.05362,43.58954],[-86.05358,43.58978],[-86.05284,43.58999],[-86.05284,43.59013]]]},"properties":{"fire_id":"ufid:2025-MIMIS-640001","source_collection":"history-2025","source_objectid":38918,"incident_name":"Oceana 1","mapped_acres":0.87,"mapped_acres_source":"poly_GISAcres","gis_acres":0.87,"auto_acres":0.872414000124507,"reported_acres":1.0,"percent_contained":null,"state":"MI","state_wfigs":"US-MI","county":"Oceana","discovery_time_utc":"2025-03-12T15:33:00Z","perimeter_time_utc":null,"perimeter_edit_time_utc":"2025-04-23T15:46:02Z","incident_modified_time_utc":"2025-03-22T22:36:50Z","containment_time_utc":null,"control_time_utc":null,"fire_out_time_utc":null,"fire_cause":"Human","fire_cause_general":"Debris and open burning","map_method":"Mixed Methods","source_dataset":"2025 NIFS","unique_fire_identifier":"2025-MIMIS-640001","irwin_id":"{D3CFB8C3-E1CE-48E2-8CE1-33003F148F6F}","global_id":"b710ab6a-80d4-4de7-9624-ebf61766cf46"}},{"type":"Feature","geometry":{"type":"Polygon","coordinates":[[[-85.0483,43.95341],[-85.04849,43.95349],[-85.04845,43.95381],[-85.04862,43.95391],[-85.04847,43.95435],[-85.04802,43.9544],[-85.04712,43.95407],[-85.04761,43.95352],[-85.0483,43.95341]],[[-85.04853,43.95397],[-85.04854,43.95402],[-85.04859,43.95393],[-85.04853,43.95397]]]},"properties":{"fire_id":"ufid:2025-MIMIS-180016","source_collection":"history-2025","source_objectid":39193,"incident_name":"Clare 10","mapped_acres":2.13,"mapped_acres_source":"poly_GISAcres","gis_acres":2.13,"auto_acres":2.1349215952071923,"reported_acres":2.1,"percent_contained":null,"state":"MI","state_wfigs":"US-MI","county":"Clare","discovery_time_utc":"2025-04-24T16:48:00Z","perimeter_time_utc":null,"perimeter_edit_time_utc":"2025-04-29T20:37:20Z","incident_modified_time_utc":"2025-04-28T20:44:30Z","containment_time_utc":null,"control_time_utc":null,"fire_out_time_utc":null,"fire_cause":"Human","fire_cause_general":"Debris and open burning","map_method":"Mixed Methods","source_dataset":"2025 NIFS","unique_fire_identifier":"2025-MIMIS-180016","irwin_id":"{2B16F1E5-C4CA-4C2A-8F89-DDB932826214}","global_id":"916fdab6-012f-4dbe-8a6d-65b333df7481"}},{"type":"Feature","geometry":{"type":"Polygon","coordinates":[[[-85.08162,43.84868],[-85.08194,43.84796],[-85.08274,43.84829],[-85.08323,43.84905],[-85.08314,43.84922],[-85.08249,43.84957],[-85.08202,43.84935],[-85.08162,43.84868]]]},"properties":{"fire_id":"ufid:2025-MIMIS-180014","source_collection":"history-2025","source_objectid":39194,"incident_name":"red oak fire","mapped_acres":3.52,"mapped_acres_source":"poly_GISAcres","gis_acres":3.52,"auto_acres":3.523276574543149,"reported_acres":3.5,"percent_contained":null,"state":"MI","state_wfigs":"US-MI","county":"Clare","discovery_time_utc":"2025-04-17T19:31:00Z","perimeter_time_utc":null,"perimeter_edit_time_utc":"2025-04-29T20:36:21Z","incident_modified_time_utc":"2025-04-19T12:50:11Z","containment_time_utc":null,"control_time_utc":null,"fire_out_time_utc":null,"fire_cause":"Human","fire_cause_general":"Debris and open burning","map_method":"Mixed Methods","source_dataset":"2025 NIFS","unique_fire_identifier":"2025-MIMIS-180014","irwin_id":"{C5E7F62E-5914-4B48-9A8C-3F823B3BE24C}","global_id":"b7c3fb23-5e92-407c-ac49-0a01a99f9980"}},{"type":"Feature","geometry":{"type":"MultiPolygon","coordinates":[[[[-86.02292,42.53502],[-86.02296,42.5351],[-86.02294,42.5351],[-86.02292,42.53502]]],[[[-86.023,42.53511],[-86.02299,42.5351],[-86.02303,42.53511],[-86.023,42.53511]]],[[[-86.02298,42.5351],[-86.023,42.53511],[-86.02296,42.53511],[-86.02298,42.5351]]],[[[-86.02278,42.53558],[-86.02244,42.53556],[-86.02197,42.53511],[-86.02201,42.53489],[-86.02218,42.53479],[-86.02293,42.53507],[-86.02302,42.53534],[-86.02278,42.53558]]]]},"properties":{"fire_id":"ufid:2025-MIMIS-030004","source_collection":"history-2025","source_objectid":39212,"incident_name":"Ely Fire","mapped_acres":1.2,"mapped_acres_source":"poly_GISAcres","gis_acres":1.2,"auto_acres":1.2024951171647127,"reported_acres":1.3,"percent_contained":null,"state":"MI","state_wfigs":"US-MI","county":"Allegan","discovery_time_utc":"2025-04-24T21:24:00Z","perimeter_time_utc":"2025-04-25T00:22:29Z","perimeter_edit_time_utc":"2025-04-30T14:54:46Z","incident_modified_time_utc":"2025-04-28T20:59:17Z","containment_time_utc":null,"control_time_utc":null,"fire_out_time_utc":null,"fire_cause":"Human","fire_cause_general":"Other causes","map_method":"Mixed Methods","source_dataset":"2025 NIFS","unique_fire_identifier":"2025-MIMIS-030004","irwin_id":"{F3ABA00D-A372-4AD4-9943-EDA7CA721074}","global_id":"4cbd0e35-90cd-4d76-886d-867f5159cc82"}},{"type":"Feature","geometry":{"type":"Polygon","coordinates":[[[-86.22395,43.37502],[-86.22429,43.37566],[-86.22387,43.37599],[-86.22368,43.37639],[-86.22323,43.37648],[-86.22293,43.37706],[-86.22229,43.3772],[-86.22145,43.3768],[-86.22083,43.37699],[-86.21987,43.37641],[-86.21914,43.37684],[-86.2183,43.37657],[-86.21849,43.3763],[-86.21988,43.37545],[-86.22018,43.37513],[-86.22019,43.37487],[-86.22059,43.37468],[-86.22099,43.37483],[-86.22125,43.37465],[-86.22152,43.37471],[-86.22225,43.37437],[-86.22272,43.37438],[-86.22297,43.37417],[-86.22368,43.37393],[-86.22401,43.37426],[-86.22395,43.37502]],[[-86.22086,43.3769],[-86.22089,43.37692],[-86.2209,43.37692],[-86.22086,43.3769]]]},"properties":{"fire_id":"ufid:2025-MIMIS-610001","source_collection":"history-2025","source_objectid":39232,"incident_name":"Dalton - Church Rd","mapped_acres":23.83,"mapped_acres_source":"poly_GISAcres","gis_acres":23.83,"auto_acres":23.833291655258304,"reported_acres":24.0,"percent_contained":null,"state":"MI","state_wfigs":"US-MI","county":"Muskegon","discovery_time_utc":"2025-04-25T14:02:00Z","perimeter_time_utc":null,"perimeter_edit_time_utc":"2025-04-30T17:24:13Z","incident_modified_time_utc":"2025-04-28T21:00:26Z","containment_time_utc":null,"control_time_utc":null,"fire_out_time_utc":null,"fire_cause":"Human","fire_cause_general":"Debris and open burning","map_method":"Mixed Methods","source_dataset":"2025 NIFS","unique_fire_identifier":"2025-MIMIS-610001","irwin_id":"{B5B5D761-AF14-4DAE-8531-578758C8C591}","global_id":"2fd2ad0e-4365-4b9d-9c9b-afbe7b97072b"}},{"type":"Feature","geometry":{"type":"Polygon","coordinates":[[[-85.04133,43.78786],[-85.04102,43.78784],[-85.0415,43.78752],[-85.04033,43.78696],[-85.04053,43.78679],[-85.04043,43.78632],[-85.04004,43.78589],[-85.04033,43.7853],[-85.04013,43.78508],[-85.04082,43.78502],[-85.04108,43.78543],[-85.0424,43.78629],[-85.0424,43.78653],[-85.04299,43.78737],[-85.04315,43.78788],[-85.0428,43.78791],[-85.04278,43.78835],[-85.0423,43.7885],[-85.04214,43.78873],[-85.04197,43.7887],[-85.04168,43.78829],[-85.04136,43.78827],[-85.04133,43.78786]]]},"properties":{"fire_id":"ufid:2025-MIMIS-370004","source_collection":"history-2025","source_objectid":39233,"incident_name":"Isabella #4","mapped_acres":12.53,"mapped_acres_source":"poly_GISAcres","gis_acres":12.53,"auto_acres":12.529444748615328,"reported_acres":12.2,"percent_contained":null,"state":"MI","state_wfigs":"US-MI","county":"Isabella","discovery_time_utc":"2025-04-13T18:45:00Z","perimeter_time_utc":null,"perimeter_edit_time_utc":"2025-04-30T17:20:39Z","incident_modified_time_utc":"2025-04-14T21:57:04Z","containment_time_utc":null,"control_time_utc":null,"fire_out_time_utc":null,"fire_cause":"Human","fire_cause_general":"Debris and open burning","map_method":"Mixed Methods","source_dataset":"2025 NIFS","unique_fire_identifier":"2025-MIMIS-370004","irwin_id":"{800B37AE-E9F5-409E-8B57-2C8392F15AD8}","global_id":"0172de3d-3cb9-4b3d-a02a-6b77f40f2a22"}},{"type":"Feature","geometry":{"type":"Polygon","coordinates":[[[-86.225681,43.378716],[-86.22628,43.37851],[-86.22639,43.37908],[-86.22612,43.37915],[-86.22612,43.37931],[-86.22586,43.37924],[-86.22586,43.37908],[-86.22597,43.37906],[-86.2256,43.37885],[-86.225681,43.378716]]]},"properties":{"fire_id":"ufid:2025-MIMIS-610002","source_collection":"history-2025","source_objectid":39234,"incident_name":"Dalton Part II","mapped_acres":0.88,"mapped_acres_source":"poly_GISAcres","gis_acres":0.88,"auto_acres":0.87973836931299,"reported_acres":0.9,"percent_contained":null,"state":"MI","state_wfigs":"US-MI","county":"Muskegon","discovery_time_utc":"2025-04-25T19:30:00Z","perimeter_time_utc":null,"perimeter_edit_time_utc":"2025-04-30T17:24:46Z","incident_modified_time_utc":"2025-04-28T21:03:16Z","containment_time_utc":null,"control_time_utc":null,"fire_out_time_utc":null,"fire_cause":"Human","fire_cause_general":"Debris and open burning","map_method":"Mixed Methods","source_dataset":"2025 NIFS","unique_fire_identifier":"2025-MIMIS-610002","irwin_id":"{367FE61A-B8B8-4BE7-B99D-EB5A446BEE9D}","global_id":"29b3d65c-4974-4f30-bc7b-b7874c9e00e2"}},{"type":"Feature","geometry":{"type":"MultiPolygon","coordinates":[[[[-85.6618,43.28463],[-85.66208,43.28367],[-85.66267,43.28331],[-85.66257,43.28315],[-85.66231,43.28315],[-85.66199,43.28273],[-85.66162,43.28283],[-85.66148,43.28304],[-85.66129,43.2829],[-85.6612,43.28306],[-85.66109,43.28193],[-85.66114,43.28042],[-85.66126,43.28045],[-85.66127,43.28081],[-85.66178,43.28083],[-85.66179,43.28065],[-85.66199,43.28061],[-85.6621,43.28069],[-85.66198,43.28084],[-85.66218,43.28111],[-85.66347,43.28134],[-85.66351,43.28146],[-85.66333,43.28151],[-85.66369,43.28218],[-85.66363,43.28238],[-85.6633,43.28263],[-85.66324,43.28289],[-85.66376,43.28316],[-85.66397,43.28357],[-85.66342,43.28456],[-85.66345,43.28498],[-85.66333,43.28521],[-85.66298,43.28518],[-85.66255,43.28474],[-85.6618,43.28463]]],[[[-85.66342,43.28166],[-85.66346,43.2817],[-85.66345,43.2817],[-85.66342,43.28166]]]]},"properties":{"fire_id":"ufid:2025-MIMIS-410001","source_collection":"history-2025","source_objectid":39235,"incident_name":"Kent 01","mapped_acres":16.77,"mapped_acres_source":"poly_GISAcres","gis_acres":16.77,"auto_acres":16.770480506728074,"reported_acres":17.0,"percent_contained":null,"state":"MI","state_wfigs":"US-MI","county":"Kent","discovery_time_utc":"2025-04-28T18:00:00Z","perimeter_time_utc":null,"perimeter_edit_time_utc":"2025-04-30T17:27:10Z","incident_modified_time_utc":"2025-04-29T20:53:09Z","containment_time_utc":null,"control_time_utc":null,"fire_out_time_utc":null,"fire_cause":"Human","fire_cause_general":"Debris and open burning","map_method":"Mixed Methods","source_dataset":"2025 NIFS","unique_fire_identifier":"2025-MIMIS-410001","irwin_id":"{AF98E68F-5E40-4076-930A-C7BDD3D263C6}","global_id":"f3723e01-307b-4df4-9327-9d26c46e0e73"}},{"type":"Feature","geometry":{"type":"Polygon","coordinates":[[[-86.13717,43.79224],[-86.13676,43.79238],[-86.13648,43.79283],[-86.13604,43.79276],[-86.13585,43.7924],[-86.1361,43.7922],[-86.13538,43.7918],[-86.13562,43.79121],[-86.13535,43.79103],[-86.1354,43.79079],[-86.13476,43.79038],[-86.13492,43.79001],[-86.13541,43.78987],[-86.13588,43.79032],[-86.13645,43.79053],[-86.13653,43.79101],[-86.13693,43.79107],[-86.13636,43.79169],[-86.13684,43.79175],[-86.13697,43.79165],[-86.13701,43.79194],[-86.13662,43.79216],[-86.13717,43.79224]]]},"properties":{"fire_id":"ufid:2025-MIMIS-640008","source_collection":"history-2025","source_objectid":39236,"incident_name":"168th ave Fire","mapped_acres":6.88,"mapped_acres_source":"poly_GISAcres","gis_acres":6.88,"auto_acres":6.877033395123547,"reported_acres":6.9,"percent_contained":null,"state":"MI","state_wfigs":"US-MI","county":"Oceana","discovery_time_utc":"2025-04-26T19:44:00Z","perimeter_time_utc":null,"perimeter_edit_time_utc":"2025-04-30T17:25:55Z","incident_modified_time_utc":"2025-04-28T21:04:35Z","containment_time_utc":null,"control_time_utc":null,"fire_out_time_utc":null,"fire_cause":"Human","fire_cause_general":"Recreation and ceremony","map_method":"Mixed Methods","source_dataset":"2025 NIFS","unique_fire_identifier":"2025-MIMIS-640008","irwin_id":"{ACA578F1-1124-41FE-864D-F6A5A22C444C}","global_id":"68a14823-a1bc-4852-986b-d2bf23e48e18"}},{"type":"Feature","geometry":{"type":"Polygon","coordinates":[[[-85.48659,43.41147],[-85.48716,43.41169],[-85.48729,43.41214],[-85.48732,43.41254],[-85.48699,43.4133],[-85.48656,43.41344],[-85.48586,43.41338],[-85.48542,43.41347],[-85.48527,43.41364],[-85.48485,43.41343],[-85.48451,43.41351],[-85.48436,43.41302],[-85.48424,43.41296],[-85.48443,43.41278],[-85.48435,43.41271],[-85.48447,43.41251],[-85.48482,43.41241],[-85.48508,43.412],[-85.4848,43.41176],[-85.48484,43.41124],[-85.484,43.41119],[-85.48432,43.41104],[-85.4851,43.41104],[-85.48514,43.41057],[-85.48578,43.41049],[-85.48629,43.41086],[-85.48554,43.41095],[-85.4856,43.41113],[-85.4855,43.41124],[-85.48519,43.41128],[-85.48659,43.41147]]]},"properties":{"fire_id":"ufid:2025-MIMIS-590004","source_collection":"history-2025","source_objectid":39288,"incident_name":"Montcalm 04","mapped_acres":13.11,"mapped_acres_source":"poly_GISAcres","gis_acres":13.11,"auto_acres":13.111155900834689,"reported_acres":12.7,"percent_contained":null,"state":"MI","state_wfigs":"US-MI","county":"Montcalm","discovery_time_utc":"2025-04-24T19:07:00Z","perimeter_time_utc":null,"perimeter_edit_time_utc":"2025-05-01T19:53:07Z","incident_modified_time_utc":"2025-04-28T20:56:16Z","containment_time_utc":null,"control_time_utc":null,"fire_out_time_utc":null,"fire_cause":"Human","fire_cause_general":"Debris and open burning","map_method":"Mixed Methods","source_dataset":"2025 NIFS","unique_fire_identifier":"2025-MIMIS-590004","irwin_id":"{0E083B91-107C-4A27-B9A1-D96343231BB1}","global_id":"d52c41af-a9e7-4319-81dc-ab3c7ea3807e"}},{"type":"Feature","geometry":{"type":"Polygon","coordinates":[[[-86.01339,42.54935],[-86.01376,42.54958],[-86.01354,42.54963],[-86.01326,42.54942],[-86.01339,42.54935]]]},"properties":{"fire_id":"ufid:2025-MIMIS-030005","source_collection":"history-2025","source_objectid":39418,"incident_name":"Round Lake","mapped_acres":0.15,"mapped_acres_source":"poly_GISAcres","gis_acres":0.15,"auto_acres":0.1534218291834606,"reported_acres":0.2,"percent_contained":null,"state":"MI","state_wfigs":"US-MI","county":"Allegan","discovery_time_utc":"2025-04-30T16:01:00Z","perimeter_time_utc":null,"perimeter_edit_time_utc":"2025-05-05T14:53:55Z","incident_modified_time_utc":"2025-05-02T18:18:16Z","containment_time_utc":null,"control_time_utc":null,"fire_out_time_utc":null,"fire_cause":"Human","fire_cause_general":"Debris and open burning","map_method":"Mixed Methods","source_dataset":"2025 NIFS","unique_fire_identifier":"2025-MIMIS-030005","irwin_id":"{999BB419-F2F0-458D-8E94-812C845D5F66}","global_id":"f5b4ac9c-ff3b-4025-9ba4-f971e8c40c87"}},{"type":"Feature","geometry":{"type":"Polygon","coordinates":[[[-86.19185,43.512],[-86.19104,43.51258],[-86.19066,43.51225],[-86.1901,43.51272],[-86.19016,43.51261],[-86.19002,43.51254],[-86.19019,43.51228],[-86.18999,43.51215],[-86.18995,43.51182],[-86.19034,43.51174],[-86.19094,43.51195],[-86.19155,43.51165],[-86.19181,43.51183],[-86.19185,43.512]]]},"properties":{"fire_id":"ufid:2025-MIMIS-640011","source_collection":"history-2025","source_objectid":39769,"incident_name":"Zone 10 Fire #1","mapped_acres":2.41,"mapped_acres_source":"poly_GISAcres","gis_acres":2.41,"auto_acres":2.4093514599233554,"reported_acres":3.0,"percent_contained":null,"state":"MI","state_wfigs":"US-MI","county":"Oceana","discovery_time_utc":"2025-05-08T18:27:00Z","perimeter_time_utc":null,"perimeter_edit_time_utc":"2025-05-13T20:20:22Z","incident_modified_time_utc":"2025-05-13T19:21:16Z","containment_time_utc":null,"control_time_utc":null,"fire_out_time_utc":null,"fire_cause":"Human","fire_cause_general":"Other causes","map_method":"Mixed Methods","source_dataset":"2025 NIFS","unique_fire_identifier":"2025-MIMIS-640011","irwin_id":"{F25440F7-37EC-4201-B08F-6BDAA9D2BDB4}","global_id":"bda69006-af4c-4782-80a7-0b1fac3ff7f1"}},{"type":"Feature","geometry":{"type":"Polygon","coordinates":[[[-86.39312,43.53429],[-86.3932,43.5347],[-86.39284,43.53467],[-86.39264,43.53451],[-86.39274,43.53432],[-86.39312,43.53429]]]},"properties":{"fire_id":"ufid:2025-MIMIS-640009","source_collection":"history-2025","source_objectid":39771,"incident_name":"Hillside Fire","mapped_acres":0.42,"mapped_acres_source":"poly_GISAcres","gis_acres":0.42,"auto_acres":0.41698900539348593,"reported_acres":0.5,"percent_contained":null,"state":"MI","state_wfigs":"US-MI","county":"Oceana","discovery_time_utc":"2025-04-30T17:42:00Z","perimeter_time_utc":null,"perimeter_edit_time_utc":"2025-05-13T20:23:39Z","incident_modified_time_utc":"2025-05-02T18:22:12Z","containment_time_utc":null,"control_time_utc":null,"fire_out_time_utc":null,"fire_cause":"Human","fire_cause_general":"Debris and open burning","map_method":"Mixed Methods","source_dataset":"2025 NIFS","unique_fire_identifier":"2025-MIMIS-640009","irwin_id":"{7C6BF222-3DA0-4D0D-8C97-EC70CB9E7735}","global_id":"f35deb49-fd9a-41da-919f-77a0076e6a02"}},{"type":"Feature","geometry":{"type":"Polygon","coordinates":[[[-86.08154,42.50845],[-86.08162,42.50938],[-86.08112,42.50978],[-86.08069,42.50912],[-86.08118,42.50856],[-86.08154,42.50845]]]},"properties":{"fire_id":"ufid:2025-MIMIS-030006","source_collection":"history-2025","source_objectid":39888,"incident_name":"Allegan 55th Street","mapped_acres":1.73,"mapped_acres_source":"poly_GISAcres","gis_acres":1.73,"auto_acres":1.7314145013658813,"reported_acres":1.7,"percent_contained":null,"state":"MI","state_wfigs":"US-MI","county":"Allegan","discovery_time_utc":"2025-05-08T19:30:00Z","perimeter_time_utc":null,"perimeter_edit_time_utc":"2025-05-19T12:34:19Z","incident_modified_time_utc":"2025-05-13T19:22:30Z","containment_time_utc":null,"control_time_utc":null,"fire_out_time_utc":null,"fire_cause":"Human","fire_cause_general":"Other causes","map_method":"Mixed Methods","source_dataset":"2025 NIFS","unique_fire_identifier":"2025-MIMIS-030006","irwin_id":"{96589050-B07D-4A3C-B579-7C91A9608014}","global_id":"7edeefa3-0b4e-4d32-949d-45beb6efc9cd"}},{"type":"Feature","geometry":{"type":"Polygon","coordinates":[[[-85.59321,43.56303],[-85.59307,43.56273],[-85.59341,43.56271],[-85.59376,43.56297],[-85.59351,43.56311],[-85.59321,43.56303]]]},"properties":{"fire_id":"ufid:2025-MIHMF-250217","source_collection":"history-2025","source_objectid":39934,"incident_name":"Daisy","mapped_acres":0.3,"mapped_acres_source":"poly_GISAcres","gis_acres":0.3,"auto_acres":0.38595864849894723,"reported_acres":0.3,"percent_contained":null,"state":"MI","state_wfigs":"US-MI","county":"Newaygo","discovery_time_utc":"2025-05-10T20:30:00Z","perimeter_time_utc":"2025-05-20T16:39:20Z","perimeter_edit_time_utc":null,"incident_modified_time_utc":"2025-05-12T16:35:34Z","containment_time_utc":"2025-05-10T22:45:00Z","control_time_utc":"2025-05-12T16:35:00Z","fire_out_time_utc":"2025-05-12T16:35:00Z","fire_cause":"Human","fire_cause_general":"Debris and open burning","map_method":"Auto-generated for InFORM","source_dataset":"FFP","unique_fire_identifier":"2025-MIHMF-250217","irwin_id":"{0144730C-C084-47D3-BCF7-F7D33C27DAEA}","global_id":"a1706b53-17a6-4a46-b294-5b1c69ef3651"}},{"type":"Feature","geometry":{"type":"MultiPolygon","coordinates":[[[[-85.89234,43.88736],[-85.89187,43.88755],[-85.89158,43.88742],[-85.89151,43.88713],[-85.89194,43.88666],[-85.89232,43.88664],[-85.89252,43.88694],[-85.89228,43.88713],[-85.89234,43.88736]]],[[[-85.891736,43.886794],[-85.89146,43.88673],[-85.8916,43.88661],[-85.891736,43.886794]]],[[[-85.891755,43.88682],[-85.891736,43.886794],[-85.89176,43.8868],[-85.891755,43.88682]]]]},"properties":{"fire_id":"ufid:2025-MIHMF-250207","source_collection":"history-2025","source_objectid":39935,"incident_name":"Atkins","mapped_acres":2.0,"mapped_acres_source":"poly_GISAcres","gis_acres":2.0,"auto_acres":1.3482878715867215,"reported_acres":1.38,"percent_contained":null,"state":"MI","state_wfigs":"US-MI","county":"Lake","discovery_time_utc":"2025-05-09T14:28:54Z","perimeter_time_utc":"2025-05-20T16:59:30Z","perimeter_edit_time_utc":null,"incident_modified_time_utc":"2025-05-14T15:59:10Z","containment_time_utc":"2025-05-09T18:28:00Z","control_time_utc":"2025-05-14T15:58:00Z","fire_out_time_utc":"2025-05-14T15:58:00Z","fire_cause":"Human","fire_cause_general":"Debris and open burning","map_method":"Auto-generated for InFORM","source_dataset":"FFP","unique_fire_identifier":"2025-MIHMF-250207","irwin_id":"{231709CE-1CE0-4F5E-8195-757AA55E28CE}","global_id":"3d3646e0-5e03-4d6b-a7cc-8be972f67061"}},{"type":"Feature","geometry":{"type":"Polygon","coordinates":[[[-85.58637,43.49725],[-85.58676,43.49726],[-85.5867,43.4975],[-85.58619,43.49754],[-85.58637,43.49725]]]},"properties":{"fire_id":"ufid:2025-MIHMF-250212","source_collection":"history-2025","source_objectid":39936,"incident_name":"Oopsie","mapped_acres":0.27,"mapped_acres_source":"poly_GISAcres","gis_acres":0.27,"auto_acres":0.27028122214037414,"reported_acres":0.27,"percent_contained":null,"state":"MI","state_wfigs":"US-MI","county":"Newaygo","discovery_time_utc":"2025-05-10T14:40:58Z","perimeter_time_utc":"2025-05-20T16:58:00Z","perimeter_edit_time_utc":null,"incident_modified_time_utc":"2025-05-20T12:39:08Z","containment_time_utc":"2025-05-10T15:47:00Z","control_time_utc":"2025-05-12T04:00:00Z","fire_out_time_utc":"2025-05-12T17:17:00Z","fire_cause":"Human","fire_cause_general":"Arson","map_method":"Auto-generated for InFORM","source_dataset":"FFP","unique_fire_identifier":"2025-MIHMF-250212","irwin_id":"{7DF99482-3CD5-467D-B825-EF28B41882BF}","global_id":"e0abc632-a5b5-42ca-9e27-ecca0d08d705"}},{"type":"Feature","geometry":{"type":"Polygon","coordinates":[[[-85.81891,43.70484],[-85.8193,43.70457],[-85.81928,43.70487],[-85.81891,43.70484]]]},"properties":{"fire_id":"ufid:2025-MIHMF-250204","source_collection":"history-2025","source_objectid":39937,"incident_name":"Grant","mapped_acres":0.5,"mapped_acres_source":"poly_GISAcres","gis_acres":0.5,"auto_acres":0.19158701156033622,"reported_acres":0.5,"percent_contained":null,"state":"MI","state_wfigs":"US-MI","county":"Newaygo","discovery_time_utc":"2025-05-08T20:33:32Z","perimeter_time_utc":"2025-05-20T17:00:18Z","perimeter_edit_time_utc":null,"incident_modified_time_utc":"2025-05-14T15:16:02Z","containment_time_utc":"2025-05-08T21:24:00Z","control_time_utc":"2025-05-11T19:10:00Z","fire_out_time_utc":"2025-05-14T14:39:00Z","fire_cause":"Human","fire_cause_general":"Debris and open burning","map_method":"Auto-generated for InFORM","source_dataset":"FFP","unique_fire_identifier":"2025-MIHMF-250204","irwin_id":"{4BB29838-4DA1-4784-8070-8EFADA34A901}","global_id":"db87af3b-8286-4404-bbf8-1fa837401b6d"}},{"type":"Feature","geometry":{"type":"Polygon","coordinates":[[[-86.04373,44.05846],[-86.04184,44.05835],[-86.04159,44.05808],[-86.04196,44.05788],[-86.04403,44.05781],[-86.04415,44.05835],[-86.04373,44.05846]]]},"properties":{"fire_id":"ufid:2025-MIHMF-250158","source_collection":"history-2025","source_objectid":39938,"incident_name":"Five Iron","mapped_acres":3.0,"mapped_acres_source":"poly_GISAcres","gis_acres":3.0,"auto_acres":2.986054822223021,"reported_acres":3.0,"percent_contained":null,"state":"MI","state_wfigs":"US-MI","county":"Mason","discovery_time_utc":"2025-04-29T20:26:26Z","perimeter_time_utc":"2025-05-20T17:16:01Z","perimeter_edit_time_utc":null,"incident_modified_time_utc":"2025-05-06T18:48:21Z","containment_time_utc":"2025-04-29T22:05:00Z","control_time_utc":"2025-05-06T18:47:00Z","fire_out_time_utc":"2025-05-06T18:48:00Z","fire_cause":"Human","fire_cause_general":"Power generation / transmission / distribution","map_method":"Mixed Methods","source_dataset":"FFP","unique_fire_identifier":"2025-MIHMF-250158","irwin_id":"{2BE3A6AB-9677-405E-B8D7-A652E009442F}","global_id":"333da1e1-3aef-4021-bed8-e29e815109a1"}},{"type":"Feature","geometry":{"type":"Polygon","coordinates":[[[-85.93225,44.05156],[-85.93232,44.05097],[-85.9328,44.05089],[-85.9333,44.05131],[-85.93351,44.0519],[-85.9332,44.05215],[-85.93283,44.0522],[-85.9325,44.05206],[-85.93241,44.05169],[-85.93225,44.05156]]]},"properties":{"fire_id":"ufid:2025-MIHMF-250118","source_collection":"history-2025","source_objectid":39942,"incident_name":"Brooks","mapped_acres":2.0,"mapped_acres_source":"poly_GISAcres","gis_acres":2.0,"auto_acres":2.641789917116824,"reported_acres":2.6,"percent_contained":null,"state":"MI","state_wfigs":"US-MI","county":"Lake","discovery_time_utc":"2025-04-24T20:25:09Z","perimeter_time_utc":"2025-05-20T17:35:44Z","perimeter_edit_time_utc":null,"incident_modified_time_utc":"2025-05-01T19:16:14Z","containment_time_utc":"2025-04-24T22:20:00Z","control_time_utc":"2025-04-30T19:34:00Z","fire_out_time_utc":"2025-04-30T19:34:00Z","fire_cause":"Human","fire_cause_general":"Debris and open burning","map_method":"Auto-generated for InFORM","source_dataset":"FFP","unique_fire_identifier":"2025-MIHMF-250118","irwin_id":"{A98277EA-4503-4ABF-BADB-EA15304BE15B}","global_id":"8ca992a0-f4b6-403e-aa7d-da0fe3a19e5e"}},{"type":"Feature","geometry":{"type":"Polygon","coordinates":[[[-85.85855,43.94007],[-85.85843,43.93967],[-85.85863,43.93954],[-85.85858,43.93932],[-85.85917,43.93889],[-85.85978,43.93894],[-85.85987,43.93903],[-85.85963,43.93907],[-85.85964,43.93924],[-85.85946,43.93931],[-85.85981,43.93935],[-85.85991,43.93925],[-85.8601,43.93939],[-85.86012,43.93977],[-85.85993,43.93999],[-85.85947,43.93984],[-85.85923,43.94008],[-85.85918,43.93993],[-85.8589,43.93981],[-85.85878,43.94007],[-85.85855,43.94007]]]},"properties":{"fire_id":"ufid:2025-MIHMF-250140","source_collection":"history-2025","source_objectid":40033,"incident_name":"Euclid","mapped_acres":1.0,"mapped_acres_source":"poly_GISAcres","gis_acres":1.0,"auto_acres":2.9659746464316776,"reported_acres":3.0,"percent_contained":null,"state":"MI","state_wfigs":"US-MI","county":"Lake","discovery_time_utc":"2025-04-28T20:50:00Z","perimeter_time_utc":"2025-05-22T17:46:55Z","perimeter_edit_time_utc":null,"incident_modified_time_utc":"2025-05-22T17:44:17Z","containment_time_utc":"2025-04-29T00:26:00Z","control_time_utc":"2025-05-05T23:02:00Z","fire_out_time_utc":"2025-05-06T15:19:00Z","fire_cause":"Human","fire_cause_general":"Debris and open burning","map_method":"Auto-generated for InFORM","source_dataset":"FFP","unique_fire_identifier":"2025-MIHMF-250140","irwin_id":"{21FB7571-B4F1-4F76-BFE0-1B053AD72436}","global_id":"3f6212ed-2190-4905-b908-707a7c468dcd"}},{"type":"Feature","geometry":{"type":"Polygon","coordinates":[[[-85.95164,43.90248],[-85.95158,43.90227],[-85.95197,43.902],[-85.95119,43.90165],[-85.9514,43.90133],[-85.9521,43.90113],[-85.9526,43.9008],[-85.95311,43.90073],[-85.9534,43.90042],[-85.95419,43.90036],[-85.95578,43.9012],[-85.95592,43.90146],[-85.95573,43.90152],[-85.95576,43.90178],[-85.95554,43.90208],[-85.95531,43.90216],[-85.9552,43.90245],[-85.95613,43.90312],[-85.95686,43.90389],[-85.95619,43.90412],[-85.95541,43.90482],[-85.95546,43.90498],[-85.95586,43.90516],[-85.9556,43.90544],[-85.95576,43.9056],[-85.95551,43.90579],[-85.9544,43.90533],[-85.95379,43.9054],[-85.95297,43.90572],[-85.95225,43.90556],[-85.95145,43.90572],[-85.95083,43.90568],[-85.95051,43.90583],[-85.95005,43.90569],[-85.94908,43.90573],[-85.94902,43.90561],[-85.94929,43.9053],[-85.95021,43.90526],[-85.95044,43.90514],[-85.95049,43.90469],[-85.95093,43.90461],[-85.95097,43.90442],[-85.95124,43.90433],[-85.95109,43.90416],[-85.95111,43.90385],[-85.95223,43.90336],[-85.95251,43.90335],[-85.95291,43.90308],[-85.95278,43.90273],[-85.95164,43.90248]]]},"properties":{"fire_id":"ufid:2025-MIHMF-250040","source_collection":"history-2025","source_objectid":40034,"incident_name":"Windy","mapped_acres":48.13541,"mapped_acres_source":"poly_GISAcres","gis_acres":48.13541,"auto_acres":48.13542268735092,"reported_acres":48.1,"percent_contained":null,"state":"MI","state_wfigs":"US-MI","county":"Lake","discovery_time_utc":"2025-03-15T18:49:11Z","perimeter_time_utc":"2025-05-22T17:52:50Z","perimeter_edit_time_utc":null,"incident_modified_time_utc":"2025-04-04T12:30:44Z","containment_time_utc":"2025-03-15T22:20:00Z","control_time_utc":"2025-03-17T18:24:00Z","fire_out_time_utc":"2025-04-04T12:28:00Z","fire_cause":"Human","fire_cause_general":"Debris and open burning","map_method":"Mixed Methods","source_dataset":"FFP","unique_fire_identifier":"2025-MIHMF-250040","irwin_id":"{9B944156-C1AE-4758-976C-E4F0E26F1E9C}","global_id":"32ab69b8-9d3b-4990-983d-3206bf1a160a"}},{"type":"Feature","geometry":{"type":"Polygon","coordinates":[[[-85.86004,43.9419],[-85.86008,43.94101],[-85.85999,43.94053],[-85.86062,43.94054],[-85.86058,43.94066],[-85.86031,43.94071],[-85.86035,43.9419],[-85.86004,43.9419]]]},"properties":{"fire_id":"ufid:2025-MIHMF-250141","source_collection":"history-2025","source_objectid":40035,"incident_name":"Euclid 2","mapped_acres":1.0,"mapped_acres_source":"poly_GISAcres","gis_acres":1.0,"auto_acres":1.08374149101588,"reported_acres":1.0,"percent_contained":null,"state":"MI","state_wfigs":"US-MI","county":"Lake","discovery_time_utc":"2025-04-29T00:21:29Z","perimeter_time_utc":"2025-05-22T17:43:15Z","perimeter_edit_time_utc":null,"incident_modified_time_utc":"2025-05-06T15:20:12Z","containment_time_utc":"2025-04-29T00:27:00Z","control_time_utc":"2025-05-05T23:02:00Z","fire_out_time_utc":"2025-05-06T15:19:00Z","fire_cause":"Human","fire_cause_general":"Debris and open burning","map_method":"Auto-generated for InFORM","source_dataset":"FFP","unique_fire_identifier":"2025-MIHMF-250141","irwin_id":"{460DF695-1C32-4D92-92C4-34CABA1B7BC1}","global_id":"3c4d01c6-6532-46e6-b30e-ba13e5c0b9d3"}},{"type":"Feature","geometry":{"type":"Polygon","coordinates":[[[-85.66686,43.47399],[-85.66703,43.474],[-85.66705,43.47424],[-85.66668,43.47422],[-85.66686,43.47399]]]},"properties":{"fire_id":"ufid:2025-MIHMF-250181","source_collection":"history-2025","source_objectid":40036,"incident_name":"Scotch","mapped_acres":0.1,"mapped_acres_source":"poly_GISAcres","gis_acres":0.1,"auto_acres":0.18365473036296484,"reported_acres":0.1,"percent_contained":null,"state":"MI","state_wfigs":"US-MI","county":"Newaygo","discovery_time_utc":"2025-05-04T19:43:33Z","perimeter_time_utc":"2025-05-22T17:41:37Z","perimeter_edit_time_utc":null,"incident_modified_time_utc":"2025-05-06T14:54:49Z","containment_time_utc":"2025-05-04T21:24:00Z","control_time_utc":"2025-05-06T14:54:00Z","fire_out_time_utc":"2025-05-06T14:55:00Z","fire_cause":"Human","fire_cause_general":"Debris and open burning","map_method":"Auto-generated for InFORM","source_dataset":"FFP","unique_fire_identifier":"2025-MIHMF-250181","irwin_id":"{7070A66F-D06A-4B1D-BA6B-C7956FE5599D}","global_id":"810d8a44-fd97-4df4-897c-6bfdfda404f2"}},{"type":"Feature","geometry":{"type":"Polygon","coordinates":[[[-85.9776,43.8749],[-85.97801,43.87483],[-85.9779,43.87503],[-85.9776,43.8749]]]},"properties":{"fire_id":"ufid:2025-MIHMF-250117","source_collection":"history-2025","source_objectid":40037,"incident_name":"LOC Evergreen","mapped_acres":0.25,"mapped_acres_source":"poly_GISAcres","gis_acres":0.25,"auto_acres":0.11934908309714266,"reported_acres":0.12,"percent_contained":null,"state":"MI","state_wfigs":"US-MI","county":"Lake","discovery_time_utc":"2025-04-24T19:05:21Z","perimeter_time_utc":"2025-05-22T17:50:56Z","perimeter_edit_time_utc":null,"incident_modified_time_utc":"2025-05-01T15:22:09Z","containment_time_utc":"2025-04-24T20:00:00Z","control_time_utc":"2025-05-01T15:20:00Z","fire_out_time_utc":"2025-05-01T15:21:00Z","fire_cause":"Human","fire_cause_general":"Debris and open burning","map_method":"Auto-generated for InFORM","source_dataset":"FFP","unique_fire_identifier":"2025-MIHMF-250117","irwin_id":"{58F5053E-60FA-4C04-A384-1CFF263AB4AF}","global_id":"0907f178-9d34-4fbf-b867-df90d1dbe58b"}},{"type":"Feature","geometry":{"type":"Polygon","coordinates":[[[-85.88344,43.81982],[-85.88333,43.81977],[-85.88351,43.81976],[-85.88344,43.81982]]]},"properties":{"fire_id":"ufid:2025-MIHMF-250107","source_collection":"history-2025","source_objectid":40043,"incident_name":"Earth","mapped_acres":0.1,"mapped_acres_source":"poly_GISAcres","gis_acres":0.1,"auto_acres":0.012903516138784097,"reported_acres":0.1,"percent_contained":null,"state":"MI","state_wfigs":"US-MI","county":"Lake","discovery_time_utc":"2025-04-22T12:15:40Z","perimeter_time_utc":"2025-05-22T18:15:38Z","perimeter_edit_time_utc":null,"incident_modified_time_utc":"2025-05-01T15:22:20Z","containment_time_utc":"2025-04-22T15:38:00Z","control_time_utc":"2025-04-25T14:43:00Z","fire_out_time_utc":"2025-05-01T15:21:00Z","fire_cause":"Human","fire_cause_general":"Debris and open burning","map_method":"Auto-generated for InFORM","source_dataset":"FFP","unique_fire_identifier":"2025-MIHMF-250107","irwin_id":"{E57A63FD-2D26-432E-A8F9-CDCEEE3EC338}","global_id":"919c094c-652e-4450-af19-1833abe62480"}},{"type":"Feature","geometry":{"type":"Polygon","coordinates":[[[-85.92584,44.10827],[-85.92605,44.10853],[-85.92587,44.10879],[-85.9257,44.1085],[-85.92584,44.10827]]]},"properties":{"fire_id":"ufid:2025-MIHMF-250191","source_collection":"history-2025","source_objectid":40110,"incident_name":"Tower View","mapped_acres":0.29,"mapped_acres_source":"poly_GISAcres","gis_acres":0.29,"auto_acres":0.2346996776588366,"reported_acres":0.29,"percent_contained":null,"state":"MI","state_wfigs":"US-MI","county":"Lake","discovery_time_utc":"2025-05-05T18:04:52Z","perimeter_time_utc":"2025-05-24T13:03:51Z","perimeter_edit_time_utc":null,"incident_modified_time_utc":"2025-05-13T14:33:47Z","containment_time_utc":"2025-05-05T19:12:00Z","control_time_utc":"2025-05-13T14:30:00Z","fire_out_time_utc":"2025-05-13T14:30:00Z","fire_cause":"Human","fire_cause_general":"Debris and open burning","map_method":"Auto-generated for InFORM","source_dataset":"FFP","unique_fire_identifier":"2025-MIHMF-250191","irwin_id":"{911D9582-9F22-4C65-A4C9-307F89621146}","global_id":"f14d0c45-ba77-4f1b-b5dc-354b16f7ee30"}},{"type":"Feature","geometry":{"type":"Polygon","coordinates":[[[-85.58511,43.40943],[-85.58485,43.40955],[-85.58473,43.4093],[-85.58495,43.40899],[-85.58512,43.40905],[-85.58511,43.40943]]]},"properties":{"fire_id":"ufid:2025-MIHMF-250178","source_collection":"history-2025","source_objectid":40111,"incident_name":"Tool Crib","mapped_acres":0.5,"mapped_acres_source":"poly_GISAcres","gis_acres":0.5,"auto_acres":0.3049392598716345,"reported_acres":0.5,"percent_contained":null,"state":"MI","state_wfigs":"US-MI","county":"Newaygo","discovery_time_utc":"2025-05-04T19:02:33Z","perimeter_time_utc":"2025-05-24T13:45:46Z","perimeter_edit_time_utc":null,"incident_modified_time_utc":"2025-05-06T21:40:38Z","containment_time_utc":"2025-05-04T20:45:00Z","control_time_utc":"2025-05-06T14:30:00Z","fire_out_time_utc":"2025-05-06T21:40:00Z","fire_cause":"Human","fire_cause_general":"Equipment and vehicle use","map_method":"Auto-generated for InFORM","source_dataset":"FFP","unique_fire_identifier":"2025-MIHMF-250178","irwin_id":"{72940077-5C29-4334-8F30-F4F68A24DAA9}","global_id":"6ba3d696-3a54-4071-a34c-038cad783df0"}},{"type":"Feature","geometry":{"type":"Polygon","coordinates":[[[-85.67393,43.55186],[-85.67381,43.55156],[-85.67362,43.55146],[-85.67344,43.55087],[-85.6735,43.55062],[-85.67368,43.55049],[-85.67363,43.55031],[-85.67399,43.55015],[-85.67424,43.55021],[-85.67415,43.55041],[-85.67438,43.55063],[-85.67449,43.55112],[-85.6743,43.55175],[-85.67393,43.55186]],[[-85.67442,43.55112],[-85.67445,43.55113],[-85.67446,43.55112],[-85.67442,43.55112]]]},"properties":{"fire_id":"ufid:2025-MIHMF-250128","source_collection":"history-2025","source_objectid":40112,"incident_name":"Marsh","mapped_acres":3.0,"mapped_acres_source":"poly_GISAcres","gis_acres":3.0,"auto_acres":2.6526404230231755,"reported_acres":2.7,"percent_contained":null,"state":"MI","state_wfigs":"US-MI","county":"Newaygo","discovery_time_utc":"2025-04-26T23:16:00Z","perimeter_time_utc":"2025-05-24T14:07:27Z","perimeter_edit_time_utc":null,"incident_modified_time_utc":"2025-05-01T20:43:35Z","containment_time_utc":"2025-04-27T14:22:00Z","control_time_utc":"2025-05-01T17:20:00Z","fire_out_time_utc":"2025-05-01T17:20:00Z","fire_cause":"Human","fire_cause_general":"Debris and open burning","map_method":"Auto-generated for InFORM","source_dataset":"FFP","unique_fire_identifier":"2025-MIHMF-250128","irwin_id":"{EC537737-B34E-4405-BCAA-FC88987D503A}","global_id":"6c07e187-7ea6-4a33-9f6d-6c4bbcabbc16"}},{"type":"Feature","geometry":{"type":"Polygon","coordinates":[[[-86.08648,42.54347],[-86.08712,42.5432],[-86.08727,42.54331],[-86.08719,42.54356],[-86.08692,42.54372],[-86.08657,42.54365],[-86.08648,42.54347]]]},"properties":{"fire_id":"ufid:2025-MIMIS-030007","source_collection":"history-2025","source_objectid":40471,"incident_name":"Pearl Cemetery","mapped_acres":0.57,"mapped_acres_source":"poly_GISAcres","gis_acres":0.57,"auto_acres":0.568173886722327,"reported_acres":0.6,"percent_contained":null,"state":"MI","state_wfigs":"US-MI","county":"Allegan","discovery_time_utc":"2025-06-01T18:57:00Z","perimeter_time_utc":null,"perimeter_edit_time_utc":"2025-06-05T17:55:12Z","incident_modified_time_utc":"2025-06-03T17:21:57Z","containment_time_utc":null,"control_time_utc":null,"fire_out_time_utc":null,"fire_cause":"Human","fire_cause_general":"Other causes","map_method":"Mixed Methods","source_dataset":"2025 NIFS","unique_fire_identifier":"2025-MIMIS-030007","irwin_id":"{F576B9FC-FE37-4F00-B6E9-C03B0793CAA9}","global_id":"dd60981b-b397-4c96-9211-20b36cce9944"}},{"type":"Feature","geometry":{"type":"Polygon","coordinates":[[[-85.9493,43.81123],[-85.9488,43.8112],[-85.94875,43.81098],[-85.94907,43.81094],[-85.94929,43.81106],[-85.9493,43.81123]]]},"properties":{"fire_id":"ufid:2025-MIHMF-250267","source_collection":"history-2025","source_objectid":40519,"incident_name":"Five Squared","mapped_acres":0.25,"mapped_acres_source":"poly_GISAcres","gis_acres":0.25,"auto_acres":0.34608135715860455,"reported_acres":0.25,"percent_contained":null,"state":"MI","state_wfigs":"US-MI","county":"Newaygo","discovery_time_utc":"2025-05-25T21:58:00Z","perimeter_time_utc":"2025-06-08T12:18:34Z","perimeter_edit_time_utc":null,"incident_modified_time_utc":"2025-05-29T14:33:31Z","containment_time_utc":"2025-05-25T22:47:00Z","control_time_utc":"2025-05-28T19:48:00Z","fire_out_time_utc":"2025-05-29T14:33:00Z","fire_cause":"Human","fire_cause_general":"Debris and open burning","map_method":"Auto-generated for InFORM","source_dataset":"FFP","unique_fire_identifier":"2025-MIHMF-250267","irwin_id":"{274C1CFB-3F0E-4E2F-A749-EAD4CC79BFE3}","global_id":"77cad1ef-ab83-4f6b-b13d-072783ee2997"}},{"type":"Feature","geometry":{"type":"Polygon","coordinates":[[[-85.855,43.93061],[-85.85492,43.93062],[-85.85492,43.93057],[-85.855,43.93061]]]},"properties":{"fire_id":"ufid:2025-MIHMF-250308","source_collection":"history-2025","source_objectid":40760,"incident_name":"Byron","mapped_acres":0.1,"mapped_acres_source":"poly_GISAcres","gis_acres":0.1,"auto_acres":0.009849343237392517,"reported_acres":0.1,"percent_contained":null,"state":"MI","state_wfigs":"US-MI","county":"Lake","discovery_time_utc":"2025-06-06T20:09:34Z","perimeter_time_utc":"2025-06-17T14:15:23Z","perimeter_edit_time_utc":null,"incident_modified_time_utc":"2025-06-12T15:57:46Z","containment_time_utc":"2025-06-06T20:26:00Z","control_time_utc":"2025-06-12T15:35:00Z","fire_out_time_utc":"2025-06-12T15:35:00Z","fire_cause":"Human","fire_cause_general":"Debris and open burning","map_method":"Auto-generated for InFORM","source_dataset":"FFP","unique_fire_identifier":"2025-MIHMF-250308","irwin_id":"{1B80517E-5AC8-4616-B51D-77E7D3719AF2}","global_id":"9f991837-1c68-4f14-b209-acf0ed693a35"}},{"type":"Feature","geometry":{"type":"Polygon","coordinates":[[[-85.84854,44.04708],[-85.84866,44.04721],[-85.84858,44.04731],[-85.84836,44.04718],[-85.84854,44.04708]]]},"properties":{"fire_id":"ufid:2025-MIHMF-250298","source_collection":"history-2025","source_objectid":40761,"incident_name":"Sedan","mapped_acres":0.1,"mapped_acres_source":"poly_GISAcres","gis_acres":0.1,"auto_acres":0.09946139781435497,"reported_acres":0.1,"percent_contained":null,"state":"MI","state_wfigs":"US-MI","county":"Lake","discovery_time_utc":"2025-06-03T19:46:01Z","perimeter_time_utc":"2025-06-17T14:16:31Z","perimeter_edit_time_utc":null,"incident_modified_time_utc":"2025-06-12T15:43:04Z","containment_time_utc":"2025-06-03T20:25:00Z","control_time_utc":"2025-06-08T13:10:00Z","fire_out_time_utc":"2025-06-12T15:42:00Z","fire_cause":"Human","fire_cause_general":"Equipment and vehicle use","map_method":"Auto-generated for InFORM","source_dataset":"FFP","unique_fire_identifier":"2025-MIHMF-250298","irwin_id":"{8FD0B462-5939-4128-859A-BB50BA2B1934}","global_id":"2e0c0f14-e419-407d-bd29-acb614e4b88f"}},{"type":"Feature","geometry":{"type":"Polygon","coordinates":[[[-85.84971,43.95621],[-85.84955,43.95668],[-85.85019,43.9564],[-85.85042,43.95684],[-85.85013,43.95714],[-85.84975,43.95709],[-85.84971,43.95722],[-85.84949,43.95722],[-85.84887,43.95644],[-85.84899,43.95629],[-85.84959,43.95613],[-85.84971,43.95621]]]},"properties":{"fire_id":"ufid:2025-MIHMF-250311","source_collection":"history-2025","source_objectid":40762,"incident_name":"Johns","mapped_acres":3.0,"mapped_acres_source":"poly_GISAcres","gis_acres":3.0,"auto_acres":2.144207550668671,"reported_acres":2.1,"percent_contained":null,"state":"MI","state_wfigs":"US-MI","county":"Lake","discovery_time_utc":"2025-06-08T18:19:26Z","perimeter_time_utc":"2025-06-17T14:15:58Z","perimeter_edit_time_utc":null,"incident_modified_time_utc":"2025-06-14T16:44:39Z","containment_time_utc":"2025-06-08T20:56:00Z","control_time_utc":"2025-06-14T16:44:00Z","fire_out_time_utc":"2025-06-14T16:44:00Z","fire_cause":"Human","fire_cause_general":"Debris and open burning","map_method":"Auto-generated for InFORM","source_dataset":"FFP","unique_fire_identifier":"2025-MIHMF-250311","irwin_id":"{DDC430B8-5F48-4852-8458-9309EE3AD72B}","global_id":"82abcbe6-7008-4d5b-a984-36f68128d60a"}},{"type":"Feature","geometry":{"type":"MultiPolygon","coordinates":[[[[-86.35554,44.07915],[-86.35556,44.07918],[-86.35557,44.07919],[-86.35554,44.07915]]],[[[-86.35539,44.07873],[-86.35578,44.07894],[-86.35567,44.07924],[-86.35552,44.07901],[-86.35513,44.0789],[-86.35539,44.07873]]]]},"properties":{"fire_id":"ufid:2025-MIHMF-250139","source_collection":"history-2025","source_objectid":40904,"incident_name":"Townline","mapped_acres":0.5,"mapped_acres_source":"poly_GISAcres","gis_acres":0.5,"auto_acres":0.3519304588014684,"reported_acres":0.35,"percent_contained":null,"state":"MI","state_wfigs":"US-MI","county":"Mason","discovery_time_utc":"2025-04-28T19:13:46Z","perimeter_time_utc":"2025-06-20T14:26:40Z","perimeter_edit_time_utc":null,"incident_modified_time_utc":"2025-05-22T17:49:51Z","containment_time_utc":"2025-04-28T20:37:00Z","control_time_utc":"2025-05-02T19:45:00Z","fire_out_time_utc":"2025-05-02T19:46:00Z","fire_cause":"Human","fire_cause_general":"Debris and open burning","map_method":"Auto-generated for InFORM","source_dataset":"FFP","unique_fire_identifier":"2025-MIHMF-250139","irwin_id":"{345A28CC-8501-4D4E-8939-D00F189A54EF}","global_id":"2e5de215-1af5-47e4-9453-199d6f241904"}},{"type":"Feature","geometry":{"type":"Polygon","coordinates":[[[-85.98908,44.36684],[-85.98917,44.36683],[-85.98911,44.36708],[-85.98927,44.36718],[-85.98923,44.3673],[-85.98853,44.36719],[-85.98819,44.367],[-85.98843,44.36671],[-85.98844,44.36645],[-85.98881,44.36627],[-85.98928,44.3663],[-85.98933,44.36659],[-85.98908,44.36684]]]},"properties":{"fire_id":"ufid:2025-MIHMF-250320","source_collection":"history-2025","source_objectid":40905,"incident_name":"Saturday","mapped_acres":2.0,"mapped_acres_source":"poly_GISAcres","gis_acres":2.0,"auto_acres":1.770126999338151,"reported_acres":2.0,"percent_contained":null,"state":"MI","state_wfigs":"US-MI","county":"Manistee","discovery_time_utc":"2025-06-14T19:21:31Z","perimeter_time_utc":"2025-06-20T14:19:32Z","perimeter_edit_time_utc":null,"incident_modified_time_utc":"2025-06-20T14:06:56Z","containment_time_utc":"2025-06-14T21:27:00Z","control_time_utc":"2025-06-18T19:11:00Z","fire_out_time_utc":"2025-06-20T14:05:00Z","fire_cause":"Human","fire_cause_general":"Debris and open burning","map_method":"Auto-generated for InFORM","source_dataset":"FFP","unique_fire_identifier":"2025-MIHMF-250320","irwin_id":"{16661585-DCDE-48BE-A65F-B52B38AD4E21}","global_id":"abeb71bc-9300-4a7f-be26-e2b6803366f8"}},{"type":"Feature","geometry":{"type":"Polygon","coordinates":[[[-85.88409,43.84023],[-85.88381,43.84037],[-85.88352,43.8402],[-85.88373,43.84005],[-85.88409,43.84023]]]},"properties":{"fire_id":"ufid:2025-MIHMF-250273","source_collection":"history-2025","source_objectid":40906,"incident_name":"Jenks","mapped_acres":0.25,"mapped_acres_source":"poly_GISAcres","gis_acres":0.25,"auto_acres":0.23717955261453613,"reported_acres":0.25,"percent_contained":null,"state":"MI","state_wfigs":"US-MI","county":"Lake","discovery_time_utc":"2025-05-26T20:02:23Z","perimeter_time_utc":"2025-06-20T14:36:22Z","perimeter_edit_time_utc":null,"incident_modified_time_utc":"2025-06-05T18:47:44Z","containment_time_utc":"2025-05-26T21:20:00Z","control_time_utc":"2025-05-29T19:41:00Z","fire_out_time_utc":"2025-05-29T19:41:00Z","fire_cause":"Human","fire_cause_general":"Other causes","map_method":"Auto-generated for InFORM","source_dataset":"FFP","unique_fire_identifier":"2025-MIHMF-250273","irwin_id":"{C5136680-72B9-40A9-A88E-620733D6615A}","global_id":"5b666306-08f9-41b2-ba6e-46133b298b8e"}},{"type":"Feature","geometry":{"type":"Polygon","coordinates":[[[-86.2258,44.38604],[-86.22585,44.38589],[-86.22635,44.38577],[-86.22632,44.38595],[-86.22642,44.38593],[-86.2266,44.38563],[-86.22683,44.38552],[-86.22712,44.38554],[-86.22701,44.38568],[-86.22733,44.38586],[-86.22712,44.38613],[-86.22687,44.38607],[-86.22688,44.38592],[-86.22676,44.38588],[-86.22639,44.38618],[-86.22601,44.38622],[-86.2261,44.38609],[-86.2258,44.38604]]]},"properties":{"fire_id":"ufid:2025-MIHMF-250081","source_collection":"history-2025","source_objectid":40907,"incident_name":"Horizon","mapped_acres":2.0,"mapped_acres_source":"poly_GISAcres","gis_acres":2.0,"auto_acres":1.0757065232397371,"reported_acres":1.1,"percent_contained":null,"state":"MI","state_wfigs":"US-MI","county":"Manistee","discovery_time_utc":"2025-04-12T21:18:03Z","perimeter_time_utc":"2025-06-20T14:30:32Z","perimeter_edit_time_utc":null,"incident_modified_time_utc":"2025-05-20T19:01:09Z","containment_time_utc":"2025-04-12T22:30:00Z","control_time_utc":"2025-04-15T19:00:00Z","fire_out_time_utc":"2025-05-20T19:01:00Z","fire_cause":"Human","fire_cause_general":"Debris and open burning","map_method":"Auto-generated for InFORM","source_dataset":"FFP","unique_fire_identifier":"2025-MIHMF-250081","irwin_id":"{AA287ADE-FF0F-4169-B20B-4764C2A22115}","global_id":"78c7b07f-f040-40eb-ae2e-a2dacdb62387"}},{"type":"Feature","geometry":{"type":"Polygon","coordinates":[[[-85.99334,43.92323],[-85.99317,43.92312],[-85.99358,43.92289],[-85.99388,43.92308],[-85.99344,43.92355],[-85.9933,43.92346],[-85.99334,43.92323]]]},"properties":{"fire_id":"ufid:2025-MIHMF-250289","source_collection":"history-2025","source_objectid":40908,"incident_name":"Deyman","mapped_acres":0.5,"mapped_acres_source":"poly_GISAcres","gis_acres":0.5,"auto_acres":0.5597211734401064,"reported_acres":0.5,"percent_contained":null,"state":"MI","state_wfigs":"US-MI","county":"Lake","discovery_time_utc":"2025-05-31T19:38:45Z","perimeter_time_utc":"2025-06-20T14:34:28Z","perimeter_edit_time_utc":null,"incident_modified_time_utc":"2025-06-12T15:49:33Z","containment_time_utc":"2025-05-31T20:21:00Z","control_time_utc":"2025-06-05T16:17:00Z","fire_out_time_utc":"2025-06-05T16:17:00Z","fire_cause":"Human","fire_cause_general":"Power generation / transmission / distribution","map_method":"Auto-generated for InFORM","source_dataset":"FFP","unique_fire_identifier":"2025-MIHMF-250289","irwin_id":"{B544EC2F-5C2D-4C00-8E31-AC5E65681182}","global_id":"71df3f1d-41f5-4cfb-9bf9-291e1eb16ccf"}},{"type":"Feature","geometry":{"type":"MultiPolygon","coordinates":[[[[-85.8636,43.94375],[-85.86422,43.94375],[-85.86389,43.94384],[-85.8636,43.94375]]],[[[-85.86392,43.94351],[-85.86394,43.94366],[-85.8638,43.94366],[-85.86377,43.94354],[-85.86392,43.94351]]]]},"properties":{"fire_id":"ufid:2025-MIHMF-250319","source_collection":"history-2025","source_objectid":40909,"incident_name":"Astor","mapped_acres":0.1,"mapped_acres_source":"poly_GISAcres","gis_acres":0.1,"auto_acres":0.20677776240878998,"reported_acres":0.22,"percent_contained":null,"state":"MI","state_wfigs":"US-MI","county":"Lake","discovery_time_utc":"2025-06-14T18:05:31Z","perimeter_time_utc":"2025-06-20T14:32:51Z","perimeter_edit_time_utc":null,"incident_modified_time_utc":"2025-06-20T14:06:33Z","containment_time_utc":"2025-06-14T19:00:00Z","control_time_utc":"2025-06-17T19:26:00Z","fire_out_time_utc":"2025-06-20T14:05:00Z","fire_cause":"Human","fire_cause_general":"Fireworks","map_method":"Auto-generated for InFORM","source_dataset":"FFP","unique_fire_identifier":"2025-MIHMF-250319","irwin_id":"{E3EAD55F-1EEC-455E-8532-6336F6D87E07}","global_id":"3d8b3f00-d265-42e4-a22a-a283735aa1c9"}},{"type":"Feature","geometry":{"type":"Polygon","coordinates":[[[-85.99516,43.91906],[-85.99523,43.91871],[-85.99542,43.91877],[-85.99542,43.91858],[-85.99563,43.91855],[-85.99612,43.91917],[-85.99571,43.91936],[-85.99552,43.91983],[-85.99525,43.91971],[-85.99535,43.91922],[-85.99516,43.91906]]]},"properties":{"fire_id":"ufid:2025-MIHMF-250253","source_collection":"history-2025","source_objectid":40910,"incident_name":"Marquette","mapped_acres":1.0,"mapped_acres_source":"poly_GISAcres","gis_acres":1.0,"auto_acres":1.4275950485053666,"reported_acres":1.4,"percent_contained":null,"state":"MI","state_wfigs":"US-MI","county":"Lake","discovery_time_utc":"2025-05-20T18:03:57Z","perimeter_time_utc":"2025-06-20T14:37:38Z","perimeter_edit_time_utc":null,"incident_modified_time_utc":"2025-05-24T14:51:37Z","containment_time_utc":"2025-05-20T19:27:00Z","control_time_utc":"2025-05-24T14:49:00Z","fire_out_time_utc":"2025-05-24T14:49:00Z","fire_cause":"Human","fire_cause_general":"Power generation / transmission / distribution","map_method":"Auto-generated for InFORM","source_dataset":"FFP","unique_fire_identifier":"2025-MIHMF-250253","irwin_id":"{615DFBB0-B268-40D5-8756-C2E2AF2217AE}","global_id":"552aa428-59c7-4191-b65e-4cd610632eee"}},{"type":"Feature","geometry":{"type":"Polygon","coordinates":[[[-85.72231,43.54139],[-85.72203,43.54129],[-85.72201,43.54108],[-85.72254,43.54111],[-85.72258,43.5413],[-85.72231,43.54139]]]},"properties":{"fire_id":"ufid:2025-MIHMF-250290","source_collection":"history-2025","source_objectid":40911,"incident_name":"Poplar","mapped_acres":0.25,"mapped_acres_source":"poly_GISAcres","gis_acres":0.25,"auto_acres":0.35952684113295197,"reported_acres":0.25,"percent_contained":null,"state":"MI","state_wfigs":"US-MI","county":"Newaygo","discovery_time_utc":"2025-06-01T13:03:40Z","perimeter_time_utc":"2025-06-20T14:33:37Z","perimeter_edit_time_utc":null,"incident_modified_time_utc":"2025-06-13T16:22:10Z","containment_time_utc":"2025-06-01T15:12:00Z","control_time_utc":"2025-06-13T16:20:00Z","fire_out_time_utc":"2025-06-13T16:20:00Z","fire_cause":"Human","fire_cause_general":"Debris and open burning","map_method":"Auto-generated for InFORM","source_dataset":"FFP","unique_fire_identifier":"2025-MIHMF-250290","irwin_id":"{13A03370-B129-4C4F-9C40-9BAB8289F49F}","global_id":"cb984700-124e-4e5e-b2e8-8ab268d1d7c8"}},{"type":"Feature","geometry":{"type":"Polygon","coordinates":[[[-85.64218,43.46251],[-85.64252,43.46272],[-85.64223,43.46265],[-85.64218,43.46251]]]},"properties":{"fire_id":"ufid:2025-MIHMF-250122","source_collection":"history-2025","source_objectid":41048,"incident_name":"Muskego","mapped_acres":0.1,"mapped_acres_source":"poly_GISAcres","gis_acres":0.1,"auto_acres":0.05853829146423848,"reported_acres":0.1,"percent_contained":null,"state":"MI","state_wfigs":"US-MI","county":"Newaygo","discovery_time_utc":"2025-04-25T19:06:33Z","perimeter_time_utc":"2025-06-23T15:45:14Z","perimeter_edit_time_utc":null,"incident_modified_time_utc":"2025-05-01T15:21:28Z","containment_time_utc":"2025-04-25T20:52:00Z","control_time_utc":"2025-04-26T13:35:00Z","fire_out_time_utc":"2025-05-01T15:21:00Z","fire_cause":"Human","fire_cause_general":"Debris and open burning","map_method":"Auto-generated for InFORM","source_dataset":"FFP","unique_fire_identifier":"2025-MIHMF-250122","irwin_id":"{23E469E9-3816-49E9-9691-822F4EC61D22}","global_id":"d14fe16e-979a-4647-8fa0-be8db5e73eae"}},{"type":"Feature","geometry":{"type":"Polygon","coordinates":[[[-85.61848,43.53474],[-85.61808,43.53443],[-85.61797,43.53407],[-85.61856,43.53401],[-85.61885,43.53416],[-85.6189,43.53449],[-85.61848,43.53474]]]},"properties":{"fire_id":"ufid:2025-MIHMF-250045","source_collection":"history-2025","source_objectid":41050,"incident_name":"045 Big Prairie","mapped_acres":1.5,"mapped_acres_source":"poly_GISAcres","gis_acres":1.5,"auto_acres":1.0313929304959815,"reported_acres":1.5,"percent_contained":null,"state":"MI","state_wfigs":"US-MI","county":"Newaygo","discovery_time_utc":"2025-03-15T21:21:22Z","perimeter_time_utc":"2025-06-23T15:48:15Z","perimeter_edit_time_utc":null,"incident_modified_time_utc":"2025-04-04T12:31:25Z","containment_time_utc":"2025-03-15T23:48:00Z","control_time_utc":"2025-03-16T18:15:00Z","fire_out_time_utc":"2025-04-04T12:31:00Z","fire_cause":"Human","fire_cause_general":"Debris and open burning","map_method":"Auto-generated for InFORM","source_dataset":"FFP","unique_fire_identifier":"2025-MIHMF-250045","irwin_id":"{3A539069-DCA2-4C07-AE1B-1F58955BBAC9}","global_id":"20088084-57a5-460d-aee8-a8b25b20ee14"}},{"type":"Feature","geometry":{"type":"Polygon","coordinates":[[[-85.79978,44.2235],[-85.79872,44.22484],[-85.79783,44.22472],[-85.7968,44.22402],[-85.79648,44.22327],[-85.79733,44.22269],[-85.79809,44.22251],[-85.79919,44.22262],[-85.7999,44.22303],[-85.79978,44.2235]]]},"properties":{"fire_id":"ufid:2025-MIHMF-250041","source_collection":"history-2025","source_objectid":41051,"incident_name":"55 and 37","mapped_acres":11.77,"mapped_acres_source":"poly_GISAcres","gis_acres":11.77,"auto_acres":11.765222160306125,"reported_acres":9.0,"percent_contained":null,"state":"MI","state_wfigs":"US-MI","county":"Wexford","discovery_time_utc":"2025-03-15T19:01:48Z","perimeter_time_utc":"2025-06-23T15:39:29Z","perimeter_edit_time_utc":null,"incident_modified_time_utc":"2025-03-16T15:53:17Z","containment_time_utc":"2025-03-15T21:21:00Z","control_time_utc":"2025-03-16T15:44:00Z","fire_out_time_utc":"2025-03-16T15:44:00Z","fire_cause":"Human","fire_cause_general":"Debris and open burning","map_method":"Hand Sketch","source_dataset":"FFP","unique_fire_identifier":"2025-MIHMF-250041","irwin_id":"{435E8E34-606E-4990-9B50-F269838EAEA8}","global_id":"c273781f-1e12-4a85-976d-c8bbd262aafe"}},{"type":"Feature","geometry":{"type":"Polygon","coordinates":[[[-85.75411,43.4679],[-85.75433,43.46801],[-85.75435,43.46816],[-85.75388,43.46827],[-85.75387,43.46798],[-85.75411,43.4679]]]},"properties":{"fire_id":"ufid:2025-MIHMF-250144","source_collection":"history-2025","source_objectid":41053,"incident_name":"Acorn Hollow","mapped_acres":0.5,"mapped_acres_source":"poly_GISAcres","gis_acres":0.5,"auto_acres":0.3134855393783461,"reported_acres":0.5,"percent_contained":null,"state":"MI","state_wfigs":"US-MI","county":"Newaygo","discovery_time_utc":"2025-04-29T01:51:00Z","perimeter_time_utc":"2025-06-23T15:44:47Z","perimeter_edit_time_utc":null,"incident_modified_time_utc":"2025-05-01T14:51:19Z","containment_time_utc":"2025-04-29T15:40:00Z","control_time_utc":"2025-04-30T20:21:00Z","fire_out_time_utc":"2025-05-01T14:43:00Z","fire_cause":"Human","fire_cause_general":"Debris and open burning","map_method":"Auto-generated for InFORM","source_dataset":"FFP","unique_fire_identifier":"2025-MIHMF-250144","irwin_id":"{9EBE7189-AB13-4DC9-85D3-4AF70568B520}","global_id":"88fa5801-dd7e-4197-af61-5b7d93e448a9"}},{"type":"Feature","geometry":{"type":"Polygon","coordinates":[[[-85.83119,44.30653],[-85.83164,44.30651],[-85.83192,44.30618],[-85.83152,44.3061],[-85.83133,44.30631],[-85.83107,44.3063],[-85.83105,44.30487],[-85.83125,44.30503],[-85.8312,44.30513],[-85.83146,44.30515],[-85.83155,44.30536],[-85.83174,44.3053],[-85.83243,44.30551],[-85.83282,44.30606],[-85.83262,44.30631],[-85.83166,44.30678],[-85.83119,44.30653]]]},"properties":{"fire_id":"ufid:2025-MIHMF-250063","source_collection":"history-2025","source_objectid":41054,"incident_name":"Number One","mapped_acres":4.0,"mapped_acres_source":"poly_GISAcres","gis_acres":4.0,"auto_acres":4.056524063601256,"reported_acres":4.0,"percent_contained":null,"state":"MI","state_wfigs":"US-MI","county":"Manistee","discovery_time_utc":"2025-04-06T20:49:00Z","perimeter_time_utc":"2025-06-23T15:32:26Z","perimeter_edit_time_utc":null,"incident_modified_time_utc":"2025-05-20T19:01:34Z","containment_time_utc":"2025-04-06T22:15:00Z","control_time_utc":"2025-04-09T18:30:00Z","fire_out_time_utc":"2025-05-20T19:01:00Z","fire_cause":"Human","fire_cause_general":"Debris and open burning","map_method":"Auto-generated for InFORM","source_dataset":"FFP","unique_fire_identifier":"2025-MIHMF-250063","irwin_id":"{5C64AA59-3A35-4A0E-869C-010DC1D257BD}","global_id":"927c2340-3d42-4c3b-a1af-93241e3e529e"}},{"type":"Feature","geometry":{"type":"Polygon","coordinates":[[[-86.00525,43.72155],[-86.00538,43.72174],[-86.00479,43.72242],[-86.00452,43.72255],[-86.00431,43.72224],[-86.00443,43.72177],[-86.00475,43.72157],[-86.00525,43.72155]]]},"properties":{"fire_id":"ufid:2025-MIHMF-250100","source_collection":"history-2025","source_objectid":41057,"incident_name":"Hayes","mapped_acres":1.4,"mapped_acres_source":"poly_GISAcres","gis_acres":1.4,"auto_acres":1.377513799369354,"reported_acres":1.4,"percent_contained":null,"state":"MI","state_wfigs":"US-MI","county":"Newaygo","discovery_time_utc":"2025-04-17T23:01:32Z","perimeter_time_utc":"2025-06-23T15:49:43Z","perimeter_edit_time_utc":null,"incident_modified_time_utc":"2025-04-29T23:47:15Z","containment_time_utc":"2025-04-18T00:08:00Z","control_time_utc":"2025-04-21T19:40:00Z","fire_out_time_utc":"2025-04-21T19:40:00Z","fire_cause":"Human","fire_cause_general":"Debris and open burning","map_method":"Auto-generated for InFORM","source_dataset":"FFP","unique_fire_identifier":"2025-MIHMF-250100","irwin_id":"{B3907FD8-F74B-41A3-A80E-5BAF32E5DBCF}","global_id":"497e22be-6a8d-4e62-a0c7-68bca45cd425"}},{"type":"Feature","geometry":{"type":"Polygon","coordinates":[[[-85.82789,43.82687],[-85.82795,43.82779],[-85.82786,43.82786],[-85.82766,43.82769],[-85.82773,43.82754],[-85.82759,43.82705],[-85.82789,43.82687]]]},"properties":{"fire_id":"ufid:2025-MIHMF-250046","source_collection":"history-2025","source_objectid":41058,"incident_name":"046 Everblooming","mapped_acres":0.6,"mapped_acres_source":"poly_GISAcres","gis_acres":0.6,"auto_acres":0.5042223275089598,"reported_acres":0.6,"percent_contained":null,"state":"MI","state_wfigs":"US-MI","county":"Lake","discovery_time_utc":"2025-03-15T21:55:52Z","perimeter_time_utc":"2025-06-23T15:44:10Z","perimeter_edit_time_utc":null,"incident_modified_time_utc":"2025-04-04T12:32:22Z","containment_time_utc":"2025-03-15T22:31:00Z","control_time_utc":"2025-03-16T18:15:00Z","fire_out_time_utc":"2025-04-04T12:32:00Z","fire_cause":"Human","fire_cause_general":"Debris and open burning","map_method":"Auto-generated for InFORM","source_dataset":"FFP","unique_fire_identifier":"2025-MIHMF-250046","irwin_id":"{DC2CBE8B-D6B9-42CD-9AD4-DFB5A6E09672}","global_id":"c6f8d765-8d62-46eb-99ad-5e81e7f84a21"}},{"type":"Feature","geometry":{"type":"Polygon","coordinates":[[[-86.03103,43.59408],[-86.03115,43.59403],[-86.03112,43.59409],[-86.03103,43.59408]]]},"properties":{"fire_id":"ufid:2025-MIHMF-250123","source_collection":"history-2025","source_objectid":41059,"incident_name":"Bear","mapped_acres":0.1,"mapped_acres_source":"poly_GISAcres","gis_acres":0.1,"auto_acres":0.012727146659111416,"reported_acres":0.1,"percent_contained":null,"state":"MI","state_wfigs":"US-MI","county":"Newaygo","discovery_time_utc":"2025-04-25T21:14:00Z","perimeter_time_utc":"2025-06-23T15:48:44Z","perimeter_edit_time_utc":null,"incident_modified_time_utc":"2025-05-04T15:32:28Z","containment_time_utc":"2025-04-25T22:08:00Z","control_time_utc":"2025-05-01T15:20:00Z","fire_out_time_utc":"2025-05-01T15:21:00Z","fire_cause":"Human","fire_cause_general":"Debris and open burning","map_method":"Auto-generated for InFORM","source_dataset":"FFP","unique_fire_identifier":"2025-MIHMF-250123","irwin_id":"{79269DE2-CF95-4353-AAB6-9CACED793D14}","global_id":"ac837830-054f-45e2-a2e7-c4050f4255d8"}},{"type":"Feature","geometry":{"type":"Polygon","coordinates":[[[-85.99966,43.65223],[-85.99966,43.65219],[-85.99969,43.6522],[-85.99966,43.65223]]]},"properties":{"fire_id":"ufid:2025-MIHMF-250064","source_collection":"history-2025","source_objectid":41060,"incident_name":"Comstock","mapped_acres":0.1,"mapped_acres_source":"poly_GISAcres","gis_acres":0.1,"auto_acres":0.002834805053789919,"reported_acres":0.1,"percent_contained":null,"state":"MI","state_wfigs":"US-MI","county":"Newaygo","discovery_time_utc":"2025-04-06T21:09:53Z","perimeter_time_utc":"2025-06-23T15:49:15Z","perimeter_edit_time_utc":null,"incident_modified_time_utc":"2025-04-08T15:01:11Z","containment_time_utc":"2025-04-07T16:30:00Z","control_time_utc":"2025-04-07T16:30:00Z","fire_out_time_utc":"2025-04-07T16:30:00Z","fire_cause":"Undetermined","fire_cause_general":"Undetermined","map_method":"Auto-generated for InFORM","source_dataset":"FFP","unique_fire_identifier":"2025-MIHMF-250064","irwin_id":"{1FB85761-5C17-4F50-9D39-80CF653F224D}","global_id":"f9fcbe81-555a-4315-a41c-03d689359164"}},{"type":"Feature","geometry":{"type":"Polygon","coordinates":[[[-85.84683,43.78519],[-85.84619,43.78507],[-85.847,43.785],[-85.84683,43.78519]]]},"properties":{"fire_id":"ufid:2025-MIHMF-250335","source_collection":"history-2025","source_objectid":42271,"incident_name":"Bybee","mapped_acres":0.5,"mapped_acres_source":"poly_GISAcres","gis_acres":0.5,"auto_acres":0.17835173914901184,"reported_acres":0.2,"percent_contained":null,"state":"MI","state_wfigs":"US-MI","county":"Newaygo","discovery_time_utc":"2025-07-01T19:26:58Z","perimeter_time_utc":"2025-07-18T18:05:15Z","perimeter_edit_time_utc":null,"incident_modified_time_utc":"2025-07-11T15:29:16Z","containment_time_utc":"2025-07-01T20:11:00Z","control_time_utc":"2025-07-06T14:08:00Z","fire_out_time_utc":"2025-07-11T15:28:00Z","fire_cause":"Human","fire_cause_general":"Power generation / transmission / distribution","map_method":"Auto-generated for InFORM","source_dataset":"FFP","unique_fire_identifier":"2025-MIHMF-250335","irwin_id":"{246D7407-4185-493E-BF6B-115E17149C27}","global_id":"ab5fb60e-7378-4021-83db-b8cf54c5d4c0"}},{"type":"Feature","geometry":{"type":"MultiPolygon","coordinates":[[[[-85.83766,43.84593],[-85.83764,43.8459],[-85.83765,43.8459],[-85.83766,43.84593]]],[[[-85.83606,43.84695],[-85.83568,43.84711],[-85.83544,43.84698],[-85.83518,43.84719],[-85.83477,43.84727],[-85.83344,43.84663],[-85.8339,43.84647],[-85.83378,43.84613],[-85.83391,43.84588],[-85.8337,43.84571],[-85.83352,43.84529],[-85.83423,43.84485],[-85.83491,43.84477],[-85.83547,43.84495],[-85.83568,43.84487],[-85.83605,43.84513],[-85.83639,43.8451],[-85.83663,43.84533],[-85.83761,43.84566],[-85.83756,43.84622],[-85.83772,43.84647],[-85.83706,43.84698],[-85.83606,43.84695]]]]},"properties":{"fire_id":"ufid:2025-MIHMF-250333","source_collection":"history-2025","source_objectid":42272,"incident_name":"Treat","mapped_acres":15.7,"mapped_acres_source":"poly_GISAcres","gis_acres":15.7,"auto_acres":16.37367535960121,"reported_acres":15.7,"percent_contained":null,"state":"MI","state_wfigs":"US-MI","county":"Lake","discovery_time_utc":"2025-06-28T19:54:35Z","perimeter_time_utc":"2025-07-18T17:45:59Z","perimeter_edit_time_utc":null,"incident_modified_time_utc":"2025-07-10T14:30:42Z","containment_time_utc":"2025-06-29T01:27:00Z","control_time_utc":"2025-07-07T15:49:00Z","fire_out_time_utc":"2025-07-10T14:30:00Z","fire_cause":"Natural","fire_cause_general":"Natural","map_method":"Auto-generated for InFORM","source_dataset":"FFP","unique_fire_identifier":"2025-MIHMF-250333","irwin_id":"{605F1545-C120-4344-9F5D-4A3BE74B539A}","global_id":"62b2141b-599b-4867-83e6-b80db01883e0"}},{"type":"Feature","geometry":{"type":"Polygon","coordinates":[[[-85.85846,43.71818],[-85.85858,43.71806],[-85.85885,43.71816],[-85.85857,43.71828],[-85.85846,43.71818]]]},"properties":{"fire_id":"ufid:2025-MIHMF-250339","source_collection":"history-2025","source_objectid":42273,"incident_name":"LOC Beechwood","mapped_acres":0.1,"mapped_acres_source":"poly_GISAcres","gis_acres":0.1,"auto_acres":0.13495732154622023,"reported_acres":0.1,"percent_contained":null,"state":"MI","state_wfigs":"US-MI","county":"Newaygo","discovery_time_utc":"2025-07-04T19:57:02Z","perimeter_time_utc":"2025-07-18T18:04:46Z","perimeter_edit_time_utc":null,"incident_modified_time_utc":"2025-07-11T15:28:38Z","containment_time_utc":"2025-07-04T20:46:00Z","control_time_utc":"2025-07-06T14:24:00Z","fire_out_time_utc":"2025-07-11T15:28:00Z","fire_cause":"Human","fire_cause_general":"Fireworks","map_method":"Auto-generated for InFORM","source_dataset":"FFP","unique_fire_identifier":"2025-MIHMF-250339","irwin_id":"{9E8FC12F-AB0C-45BE-8D95-FD5E4A43500D}","global_id":"2c9ef913-979e-49f6-ab4b-b4168df5158b"}},{"type":"Feature","geometry":{"type":"Polygon","coordinates":[[[-85.63531,43.79075],[-85.63426,43.79062],[-85.63422,43.79046],[-85.63437,43.79021],[-85.63435,43.7891],[-85.63466,43.78868],[-85.63519,43.78864],[-85.63529,43.78882],[-85.63514,43.79013],[-85.63546,43.79051],[-85.63542,43.79065],[-85.63531,43.79075]]]},"properties":{"fire_id":"ufid:2025-MIHMF-250344","source_collection":"history-2025","source_objectid":42274,"incident_name":"Scarecrow","mapped_acres":0.5,"mapped_acres_source":"poly_GISAcres","gis_acres":0.5,"auto_acres":4.070870032420042,"reported_acres":4.1,"percent_contained":null,"state":"MI","state_wfigs":"US-MI","county":"Newaygo","discovery_time_utc":"2025-07-05T19:34:37Z","perimeter_time_utc":"2025-07-18T18:06:35Z","perimeter_edit_time_utc":null,"incident_modified_time_utc":"2025-07-10T19:51:49Z","containment_time_utc":"2025-07-05T21:22:00Z","control_time_utc":"2025-07-09T18:32:00Z","fire_out_time_utc":"2025-07-10T19:51:00Z","fire_cause":"Human","fire_cause_general":"Debris and open burning","map_method":"Auto-generated for InFORM","source_dataset":"FFP","unique_fire_identifier":"2025-MIHMF-250344","irwin_id":"{EEC693CC-95AE-4A57-8C83-CDFD96D71F53}","global_id":"7063d332-367e-43df-b217-3cc8bd2180f6"}},{"type":"Feature","geometry":{"type":"Polygon","coordinates":[[[-85.68463,43.66594],[-85.68439,43.66603],[-85.68429,43.66627],[-85.6839,43.66626],[-85.68393,43.66614],[-85.6838,43.66609],[-85.68417,43.66591],[-85.68392,43.66573],[-85.68406,43.66553],[-85.68473,43.66552],[-85.6848,43.6656],[-85.68463,43.66594]]]},"properties":{"fire_id":"ufid:2025-MIHMF-250343","source_collection":"history-2025","source_objectid":42275,"incident_name":"Filmore","mapped_acres":0.25,"mapped_acres_source":"poly_GISAcres","gis_acres":0.25,"auto_acres":1.0057528285524524,"reported_acres":1.0,"percent_contained":null,"state":"MI","state_wfigs":"US-MI","county":"Newaygo","discovery_time_utc":"2025-07-05T17:35:22Z","perimeter_time_utc":"2025-07-18T18:04:21Z","perimeter_edit_time_utc":null,"incident_modified_time_utc":"2025-07-07T16:33:26Z","containment_time_utc":"2025-07-05T18:58:00Z","control_time_utc":"2025-07-09T18:45:00Z","fire_out_time_utc":"2025-07-10T19:52:00Z","fire_cause":"Human","fire_cause_general":"Other causes","map_method":"Auto-generated for InFORM","source_dataset":"FFP","unique_fire_identifier":"2025-MIHMF-250343","irwin_id":"{4A8A86DC-3C60-42C1-B550-2F9CFA619155}","global_id":"0ff96be0-8526-4eaf-855a-23bdd98c585d"}},{"type":"Feature","geometry":{"type":"Polygon","coordinates":[[[-85.95002,44.22334],[-85.95109,44.22342],[-85.95029,44.22351],[-85.94998,44.22346],[-85.95002,44.22334]]]},"properties":{"fire_id":"ufid:2025-MIHMF-250324","source_collection":"history-2025","source_objectid":42409,"incident_name":"LOC Baker road","mapped_acres":0.25,"mapped_acres_source":"poly_GISAcres","gis_acres":0.25,"auto_acres":0.316031133858244,"reported_acres":0.25,"percent_contained":null,"state":"MI","state_wfigs":"US-MI","county":"Manistee","discovery_time_utc":"2025-06-21T20:01:00Z","perimeter_time_utc":"2025-06-21T20:13:01Z","perimeter_edit_time_utc":"2025-07-22T16:05:59Z","incident_modified_time_utc":"2025-07-22T16:06:50Z","containment_time_utc":"2025-06-21T22:16:00Z","control_time_utc":"2025-06-24T15:07:00Z","fire_out_time_utc":"2025-07-21T17:12:00Z","fire_cause":"Human","fire_cause_general":null,"map_method":"Auto-generated for InFORM","source_dataset":"2025 NIFS","unique_fire_identifier":"2025-MIHMF-250324","irwin_id":"{87CE14BB-2F2F-4D23-BA1C-45684122A53E}","global_id":"ed6b4d1d-61e0-4060-aa7f-c93e79da5bcd"}},{"type":"Feature","geometry":{"type":"Polygon","coordinates":[[[-86.23793,44.21748],[-86.23785,44.21745],[-86.23792,44.21744],[-86.23793,44.21748]]]},"properties":{"fire_id":"ufid:2025-MIHMF-250323","source_collection":"history-2025","source_objectid":42410,"incident_name":"Steinberg","mapped_acres":0.1,"mapped_acres_source":"poly_GISAcres","gis_acres":0.1,"auto_acres":0.0045714592295102285,"reported_acres":0.1,"percent_contained":null,"state":"MI","state_wfigs":"US-MI","county":"Manistee","discovery_time_utc":"2025-06-21T18:04:09Z","perimeter_time_utc":"2025-06-21T18:45:55Z","perimeter_edit_time_utc":"2025-07-22T16:09:10Z","incident_modified_time_utc":"2025-07-21T17:19:56Z","containment_time_utc":"2025-06-21T18:58:00Z","control_time_utc":"2025-06-22T17:36:00Z","fire_out_time_utc":"2025-07-21T17:12:00Z","fire_cause":"Human","fire_cause_general":null,"map_method":"Auto-generated for InFORM","source_dataset":"2025 NIFS","unique_fire_identifier":"2025-MIHMF-250323","irwin_id":"{926EF0AC-1178-44C3-BB2A-E0A21BB306D6}","global_id":"6784327f-a453-49e1-b323-9428946ed5a7"}},{"type":"Feature","geometry":{"type":"Polygon","coordinates":[[[-85.96673,43.53415],[-85.96318,43.53397],[-85.96253,43.53324],[-85.96253,43.5327],[-85.964,43.53249],[-85.96552,43.53255],[-85.96575,43.53278],[-85.96671,43.53283],[-85.96746,43.53304],[-85.96798,43.53298],[-85.96846,43.53319],[-85.96803,43.53335],[-85.96799,43.53359],[-85.96887,43.53383],[-85.96829,43.53398],[-85.9676,43.53397],[-85.96783,43.53401],[-85.9678,43.53414],[-85.96695,43.53446],[-85.96673,43.53415]]]},"properties":{"fire_id":"ufid:2025-MIMIS-620006","source_collection":"history-2025","source_objectid":43162,"incident_name":"Oat Fire","mapped_acres":17.46,"mapped_acres_source":"poly_GISAcres","gis_acres":17.46,"auto_acres":17.45680763334421,"reported_acres":17.5,"percent_contained":null,"state":"MI","state_wfigs":"US-MI","county":"Newaygo","discovery_time_utc":"2025-08-04T19:06:00Z","perimeter_time_utc":null,"perimeter_edit_time_utc":"2025-08-08T19:42:11Z","incident_modified_time_utc":"2025-08-06T15:55:48Z","containment_time_utc":null,"control_time_utc":null,"fire_out_time_utc":null,"fire_cause":"Human","fire_cause_general":"Equipment and vehicle use","map_method":"Mixed Methods","source_dataset":"2025 NIFS","unique_fire_identifier":"2025-MIMIS-620006","irwin_id":"{86E954AE-3E4B-4F8D-9C81-20972F70C15B}","global_id":"f0124fe6-89c1-4e00-bc86-0074b89eadcc"}},{"type":"Feature","geometry":{"type":"Polygon","coordinates":[[[-86.0205,43.53424],[-86.02044,43.53433],[-86.0198,43.5342],[-86.01972,43.53381],[-86.01988,43.53346],[-86.0217,43.53307],[-86.02236,43.53305],[-86.02404,43.53326],[-86.0245,43.53352],[-86.02377,43.53378],[-86.02257,43.53365],[-86.02249,43.53378],[-86.02266,43.53441],[-86.02308,43.53439],[-86.02357,43.53413],[-86.02427,43.53409],[-86.0248,43.53423],[-86.02494,43.53439],[-86.02483,43.53453],[-86.02365,43.53492],[-86.02266,43.53472],[-86.02241,43.53435],[-86.0205,43.53424]]]},"properties":{"fire_id":"ufid:2025-MIMIS-620007","source_collection":"history-2025","source_objectid":43163,"incident_name":"8th St","mapped_acres":11.42,"mapped_acres_source":"poly_GISAcres","gis_acres":11.42,"auto_acres":11.420711057302272,"reported_acres":11.5,"percent_contained":null,"state":"MI","state_wfigs":"US-MI","county":"Newaygo","discovery_time_utc":"2025-08-05T17:20:00Z","perimeter_time_utc":null,"perimeter_edit_time_utc":"2025-08-08T19:48:35Z","incident_modified_time_utc":"2025-08-06T16:03:14Z","containment_time_utc":null,"control_time_utc":null,"fire_out_time_utc":null,"fire_cause":"Human","fire_cause_general":"Equipment and vehicle use","map_method":"Mixed Methods","source_dataset":"2025 NIFS","unique_fire_identifier":"2025-MIMIS-620007","irwin_id":"{054835C3-C3B3-4085-A158-52ED7ED09954}","global_id":"26e6ea55-64b6-4887-9281-8472561fc0d6"}},{"type":"Feature","geometry":{"type":"Polygon","coordinates":[[[-86.08309,43.3669],[-86.08304,43.36714],[-86.08275,43.36728],[-86.08275,43.36742],[-86.08292,43.36751],[-86.08289,43.36781],[-86.08263,43.36793],[-86.08225,43.36778],[-86.08217,43.36753],[-86.08179,43.36723],[-86.08207,43.36647],[-86.08276,43.36639],[-86.08291,43.36653],[-86.08287,43.36684],[-86.08309,43.3669]]]},"properties":{"fire_id":"ufid:2025-MIMIS-610004","source_collection":"history-2025","source_objectid":43164,"incident_name":"Ryerson Rd","mapped_acres":2.83,"mapped_acres_source":"poly_GISAcres","gis_acres":2.83,"auto_acres":2.8303719824442375,"reported_acres":2.8,"percent_contained":null,"state":"MI","state_wfigs":"US-MI","county":"Muskegon","discovery_time_utc":"2025-07-18T20:00:00Z","perimeter_time_utc":null,"perimeter_edit_time_utc":"2025-08-08T19:54:20Z","incident_modified_time_utc":"2025-07-28T16:21:43Z","containment_time_utc":null,"control_time_utc":null,"fire_out_time_utc":null,"fire_cause":"Human","fire_cause_general":"Debris and open burning","map_method":"Mixed Methods","source_dataset":"2025 NIFS","unique_fire_identifier":"2025-MIMIS-610004","irwin_id":"{5032C1C2-1579-496F-B520-BB99CBF1E404}","global_id":"cb0ff0bd-d028-4751-8448-c3d88b63c962"}},{"type":"Feature","geometry":{"type":"Polygon","coordinates":[[[-85.90966,43.60621],[-85.90853,43.60616],[-85.90848,43.60628],[-85.90845,43.60617],[-85.90822,43.60631],[-85.90841,43.60612],[-85.90966,43.60621]]]},"properties":{"fire_id":"ufid:2025-MIHMF-250376","source_collection":"history-2025","source_objectid":43694,"incident_name":"Alger","mapped_acres":0.1,"mapped_acres_source":"poly_GISAcres","gis_acres":0.1,"auto_acres":0.10306015842503194,"reported_acres":0.1,"percent_contained":null,"state":"MI","state_wfigs":"US-MI","county":"Newaygo","discovery_time_utc":"2025-08-09T00:16:04Z","perimeter_time_utc":"2025-08-20T14:20:19Z","perimeter_edit_time_utc":null,"incident_modified_time_utc":"2025-08-11T20:26:46Z","containment_time_utc":"2025-08-09T15:50:00Z","control_time_utc":"2025-08-10T17:33:00Z","fire_out_time_utc":"2025-08-11T20:25:00Z","fire_cause":"Human","fire_cause_general":"Power generation / transmission / distribution","map_method":"Auto-generated for InFORM","source_dataset":"FFP","unique_fire_identifier":"2025-MIHMF-250376","irwin_id":"{F98E1FA9-AE86-4342-A3B9-95410D0217C9}","global_id":"5f2cb0a0-797d-4ddd-ba5a-57eace6b91c7"}},{"type":"Feature","geometry":{"type":"Polygon","coordinates":[[[-85.79896,43.86089],[-85.7982,43.86094],[-85.79796,43.86043],[-85.79895,43.86043],[-85.79908,43.86072],[-85.79896,43.86089]]]},"properties":{"fire_id":"ufid:2025-MIHMF-250357","source_collection":"history-2025","source_objectid":43695,"incident_name":"Snack","mapped_acres":2.0,"mapped_acres_source":"poly_GISAcres","gis_acres":2.0,"auto_acres":1.1011237825487354,"reported_acres":1.1,"percent_contained":null,"state":"MI","state_wfigs":"US-MI","county":"Lake","discovery_time_utc":"2025-07-23T20:47:56Z","perimeter_time_utc":"2025-08-20T14:24:40Z","perimeter_edit_time_utc":null,"incident_modified_time_utc":"2025-07-31T19:23:04Z","containment_time_utc":"2025-07-23T23:18:00Z","control_time_utc":"2025-07-28T18:03:00Z","fire_out_time_utc":"2025-07-31T19:22:00Z","fire_cause":"Human","fire_cause_general":"Recreation and ceremony","map_method":"Auto-generated for InFORM","source_dataset":"FFP","unique_fire_identifier":"2025-MIHMF-250357","irwin_id":"{3D549CAE-6B31-4C78-A05B-9E5AD32A0AC6}","global_id":"83fe8e49-9647-42e6-bac1-deaee1f80246"}},{"type":"Feature","geometry":{"type":"Polygon","coordinates":[[[-85.6024,43.60428],[-85.60259,43.60444],[-85.60248,43.60466],[-85.6024,43.60428]]]},"properties":{"fire_id":"ufid:2025-MIHMF-250349","source_collection":"history-2025","source_objectid":43696,"incident_name":"Cottonwood","mapped_acres":0.2,"mapped_acres_source":"poly_GISAcres","gis_acres":0.2,"auto_acres":0.11159727768193149,"reported_acres":0.15,"percent_contained":null,"state":"MI","state_wfigs":"US-MI","county":"Newaygo","discovery_time_utc":"2025-07-14T18:07:40Z","perimeter_time_utc":"2025-08-20T14:28:33Z","perimeter_edit_time_utc":null,"incident_modified_time_utc":"2025-07-22T20:25:42Z","containment_time_utc":"2025-07-14T19:40:00Z","control_time_utc":"2025-07-16T16:06:00Z","fire_out_time_utc":"2025-07-21T17:10:00Z","fire_cause":"Human","fire_cause_general":"Power generation / transmission / distribution","map_method":"Auto-generated for InFORM","source_dataset":"FFP","unique_fire_identifier":"2025-MIHMF-250349","irwin_id":"{DE37A313-5C30-4877-BA46-E1A274273061}","global_id":"7e8f5128-2a93-4069-9a2d-ea8cf8430f43"}},{"type":"Feature","geometry":{"type":"Polygon","coordinates":[[[-85.66104,43.55307],[-85.66069,43.55302],[-85.66066,43.55288],[-85.66093,43.55284],[-85.66104,43.55307]]]},"properties":{"fire_id":"ufid:2025-MIHMF-250411","source_collection":"history-2025","source_objectid":47213,"incident_name":"LOC Locust  20","mapped_acres":0.1,"mapped_acres_source":"poly_GISAcres","gis_acres":0.1,"auto_acres":0.17209747381481155,"reported_acres":0.1,"percent_contained":null,"state":"MI","state_wfigs":"US-MI","county":"Newaygo","discovery_time_utc":"2025-10-02T21:57:48Z","perimeter_time_utc":"2025-10-02T22:27:39Z","perimeter_edit_time_utc":"2025-10-14T16:11:26Z","incident_modified_time_utc":"2025-11-17T16:23:32Z","containment_time_utc":"2025-10-02T22:50:00Z","control_time_utc":"2025-10-04T15:34:00Z","fire_out_time_utc":"2025-10-17T15:55:00Z","fire_cause":"Human","fire_cause_general":null,"map_method":"Auto-generated for InFORM","source_dataset":"2025 NIFS","unique_fire_identifier":"2025-MIHMF-250411","irwin_id":"{F75E0CD8-3A1E-410D-9F28-8EBD360C4F74}","global_id":"1e2c9bb1-d033-41f5-b844-acad64192c68"}},{"type":"Feature","geometry":{"type":"Polygon","coordinates":[[[-85.66184,43.47097],[-85.66167,43.471],[-85.66161,43.47095],[-85.66184,43.47097]]]},"properties":{"fire_id":"ufid:2025-MIHMF-250410","source_collection":"history-2025","source_objectid":47214,"incident_name":"Boxcar","mapped_acres":0.1,"mapped_acres_source":"poly_GISAcres","gis_acres":0.1,"auto_acres":0.02136847133717249,"reported_acres":0.1,"percent_contained":null,"state":"MI","state_wfigs":"US-MI","county":"Newaygo","discovery_time_utc":"2025-10-02T20:00:17Z","perimeter_time_utc":"2025-10-02T21:16:06Z","perimeter_edit_time_utc":"2025-10-14T16:20:22Z","incident_modified_time_utc":"2025-11-17T16:21:51Z","containment_time_utc":"2025-10-02T21:17:00Z","control_time_utc":"2025-10-03T15:20:00Z","fire_out_time_utc":"2025-10-17T15:55:00Z","fire_cause":"Human","fire_cause_general":null,"map_method":"Auto-generated for InFORM","source_dataset":"2025 NIFS","unique_fire_identifier":"2025-MIHMF-250410","irwin_id":"{C74F9201-2E49-47A5-9DE9-CC76954CF4C6}","global_id":"e0d573cd-17c3-41c7-9bef-b3630b0d973a"}},{"type":"Feature","geometry":{"type":"Polygon","coordinates":[[[-85.70141,43.8192],[-85.70141,43.81905],[-85.7016,43.81898],[-85.70141,43.8192]]]},"properties":{"fire_id":"ufid:2025-MIHMF-250413","source_collection":"history-2025","source_objectid":50130,"incident_name":"Caboose","mapped_acres":0.1,"mapped_acres_source":"poly_GISAcres","gis_acres":0.1,"auto_acres":0.06729373045793043,"reported_acres":0.1,"percent_contained":null,"state":"MI","state_wfigs":"US-MI","county":"Lake","discovery_time_utc":"2025-10-05T16:10:12Z","perimeter_time_utc":"2026-01-09T16:16:25Z","perimeter_edit_time_utc":null,"incident_modified_time_utc":"2025-10-07T19:55:10Z","containment_time_utc":"2025-10-05T20:50:00Z","control_time_utc":"2025-10-07T19:54:00Z","fire_out_time_utc":"2025-10-14T15:30:00Z","fire_cause":"Human","fire_cause_general":"Debris and open burning","map_method":"Auto-generated for InFORM","source_dataset":"FFP","unique_fire_identifier":"2025-MIHMF-250413","irwin_id":"{0B79449E-9242-41F4-BDC4-8CCEEE8DB1E9}","global_id":"6537880f-c786-4900-9bca-5e74f11fdcfa"}}]}
