{"type":"FeatureCollection","features":[{"type":"Feature","geometry":{"type":"Polygon","coordinates":[[[-87.06709,45.84819],[-87.06723,45.84845],[-87.06695,45.84848],[-87.06705,45.84859],[-87.06695,45.84865],[-87.06679,45.84841],[-87.06639,45.84835],[-87.06673,45.84854],[-87.06647,45.84861],[-87.06625,45.84837],[-87.06611,45.84848],[-87.06544,45.84846],[-87.0654,45.84836],[-87.06556,45.84826],[-87.06538,45.8481],[-87.06561,45.84796],[-87.06592,45.84814],[-87.06644,45.84799],[-87.06655,45.84805],[-87.06645,45.8482],[-87.06686,45.84829],[-87.06709,45.84819]]]},"properties":{"fire_id":"ufid:2025-MIMIS-210002","source_collection":"history-2025","source_objectid":38652,"incident_name":"Rivers 22nd","mapped_acres":1.3566412985878251,"mapped_acres_source":"poly_GISAcres","gis_acres":1.3566412985878251,"auto_acres":1.3566413366443426,"reported_acres":1.4,"percent_contained":null,"state":"MI","state_wfigs":"US-MI","county":"Delta","discovery_time_utc":"2025-04-13T18:10:00Z","perimeter_time_utc":null,"perimeter_edit_time_utc":"2025-06-02T15:51:51Z","incident_modified_time_utc":"2025-04-14T21:55:39Z","containment_time_utc":null,"control_time_utc":null,"fire_out_time_utc":null,"fire_cause":"Human","fire_cause_general":"Debris and open burning","map_method":"Mixed Methods","source_dataset":"2025 NIFS","unique_fire_identifier":"2025-MIMIS-210002","irwin_id":"{3AF15EF6-D8DC-4209-A864-581173C6901E}","global_id":"f81cc2ac-6ec1-49ee-8a48-98aba208405b"}},{"type":"Feature","geometry":{"type":"Polygon","coordinates":[[[-87.48132,45.52048],[-87.48145,45.52064],[-87.48125,45.52091],[-87.48066,45.52093],[-87.48068,45.52053],[-87.48132,45.52048]]]},"properties":{"fire_id":"ufid:2025-MIMIS-550003","source_collection":"history-2025","source_objectid":38655,"incident_name":"366 Fire","mapped_acres":0.6846571609706033,"mapped_acres_source":"poly_GISAcres","gis_acres":0.6846571609706033,"auto_acres":0.6846571804098601,"reported_acres":0.6,"percent_contained":null,"state":"MI","state_wfigs":"US-MI","county":"Menominee","discovery_time_utc":"2025-04-14T21:32:00Z","perimeter_time_utc":null,"perimeter_edit_time_utc":"2025-06-02T15:51:51Z","incident_modified_time_utc":"2025-04-15T19:27:09Z","containment_time_utc":null,"control_time_utc":null,"fire_out_time_utc":null,"fire_cause":"Human","fire_cause_general":"Debris and open burning","map_method":"Mixed Methods","source_dataset":"2025 NIFS","unique_fire_identifier":"2025-MIMIS-550003","irwin_id":"{32FC8BB1-DBF7-4B74-B6D7-B2DDC3B0A227}","global_id":"91b856fb-8ca4-4d67-bc77-cb887db76140"}},{"type":"Feature","geometry":{"type":"Polygon","coordinates":[[[-87.41818,45.40698],[-87.41784,45.40763],[-87.41747,45.40781],[-87.41719,45.40752],[-87.41727,45.40735],[-87.41716,45.407],[-87.41669,45.40675],[-87.41658,45.40654],[-87.41666,45.40621],[-87.41697,45.406],[-87.41718,45.40529],[-87.41789,45.4051],[-87.41797,45.40475],[-87.41779,45.40453],[-87.41799,45.40447],[-87.4181,45.40467],[-87.41799,45.40474],[-87.41812,45.40479],[-87.41802,45.40507],[-87.41855,45.40565],[-87.41823,45.40558],[-87.41809,45.40574],[-87.41837,45.40596],[-87.41882,45.40599],[-87.41891,45.40627],[-87.41865,45.40641],[-87.41846,45.40628],[-87.4183,45.40641],[-87.41816,45.40634],[-87.41803,45.40647],[-87.41808,45.4066],[-87.41763,45.40663],[-87.41795,45.40676],[-87.4178,45.4068],[-87.41788,45.40691],[-87.4181,45.40685],[-87.41818,45.40698]]]},"properties":{"fire_id":"ufid:2025-MIMIS-550006","source_collection":"history-2025","source_objectid":38774,"incident_name":"Wutkevitz Ln","mapped_acres":6.83688566195427,"mapped_acres_source":"poly_GISAcres","gis_acres":6.83688566195427,"auto_acres":6.8368858546558435,"reported_acres":6.8,"percent_contained":null,"state":"MI","state_wfigs":"US-MI","county":"Menominee","discovery_time_utc":"2025-04-17T19:39:00Z","perimeter_time_utc":null,"perimeter_edit_time_utc":"2025-06-02T15:51:51Z","incident_modified_time_utc":"2025-04-23T01:17:09Z","containment_time_utc":null,"control_time_utc":null,"fire_out_time_utc":null,"fire_cause":"Human","fire_cause_general":"Debris and open burning","map_method":"Mixed Methods","source_dataset":"2025 NIFS","unique_fire_identifier":"2025-MIMIS-550006","irwin_id":"{388F161D-BA37-495C-B725-D0E952E1C414}","global_id":"6acd7a41-2d61-4112-959d-eada1b87168b"}},{"type":"Feature","geometry":{"type":"Polygon","coordinates":[[[-86.99705,46.11553],[-86.99723,46.11558],[-86.99723,46.11576],[-86.99701,46.11576],[-86.99692,46.11598],[-86.99613,46.11605],[-86.99623,46.11591],[-86.99605,46.1158],[-86.99705,46.11553]]]},"properties":{"fire_id":"ufid:2025-MIMIS-210006","source_collection":"history-2025","source_objectid":39614,"incident_name":"Osier Road fire","mapped_acres":0.7719594508395586,"mapped_acres_source":"poly_GISAcres","gis_acres":0.7719594508395586,"auto_acres":0.7719594723344624,"reported_acres":0.8,"percent_contained":null,"state":"MI","state_wfigs":"US-MI","county":"Delta","discovery_time_utc":"2025-05-05T18:12:00Z","perimeter_time_utc":"2025-05-05T19:01:20Z","perimeter_edit_time_utc":"2025-06-02T15:51:51Z","incident_modified_time_utc":"2025-05-06T22:06:39Z","containment_time_utc":null,"control_time_utc":null,"fire_out_time_utc":null,"fire_cause":"Human","fire_cause_general":"Other causes","map_method":"Mixed Methods","source_dataset":"2025 NIFS","unique_fire_identifier":"2025-MIMIS-210006","irwin_id":"{2113A464-8E8A-4D25-8A06-C73A5CFA287E}","global_id":"bd86de7f-29d2-43f4-8c27-f13ede3184f9"}},{"type":"Feature","geometry":{"type":"Polygon","coordinates":[[[-87.16781,45.68507],[-87.16813,45.68505],[-87.16809,45.68519],[-87.16781,45.68507]]]},"properties":{"fire_id":"ufid:2025-MIMIS-210005","source_collection":"history-2025","source_objectid":39615,"incident_name":"J5 fire","mapped_acres":0.07822485494805026,"mapped_acres_source":"poly_GISAcres","gis_acres":0.07822485494805026,"auto_acres":0.07822485714134544,"reported_acres":0.1,"percent_contained":null,"state":"MI","state_wfigs":"US-MI","county":"Delta","discovery_time_utc":"2025-05-04T23:55:00Z","perimeter_time_utc":null,"perimeter_edit_time_utc":"2025-06-02T15:51:51Z","incident_modified_time_utc":"2025-05-13T19:11:07Z","containment_time_utc":null,"control_time_utc":null,"fire_out_time_utc":null,"fire_cause":"Human","fire_cause_general":"Debris and open burning","map_method":"Mixed Methods","source_dataset":"2025 NIFS","unique_fire_identifier":"2025-MIMIS-210005","irwin_id":"{E640C84A-7862-42E6-9F4F-D5D7BDB0B42D}","global_id":"38048501-8fa8-4e39-9279-e5d3ea684f20"}},{"type":"Feature","geometry":{"type":"Polygon","coordinates":[[[-87.96239,45.91368],[-87.96273,45.91352],[-87.96269,45.91343],[-87.96295,45.91345],[-87.96308,45.91325],[-87.96393,45.91298],[-87.96436,45.91302],[-87.96438,45.91331],[-87.96443,45.9132],[-87.96452,45.91327],[-87.96449,45.91368],[-87.9642,45.91399],[-87.96357,45.91399],[-87.96162,45.9145],[-87.96111,45.9145],[-87.96096,45.91429],[-87.9605,45.91417],[-87.9604,45.91399],[-87.96051,45.91378],[-87.96029,45.91367],[-87.96223,45.91319],[-87.96239,45.91368]]]},"properties":{"fire_id":"ufid:2025-MIMIS-220007","source_collection":"history-2025","source_objectid":40380,"incident_name":"Carney Outcrop Fire","mapped_acres":7.8818170759554835,"mapped_acres_source":"poly_GISAcres","gis_acres":7.8818170759554835,"auto_acres":7.881819718432474,"reported_acres":8.0,"percent_contained":null,"state":"MI","state_wfigs":"US-MI","county":"Dickinson","discovery_time_utc":"2025-06-02T00:31:00Z","perimeter_time_utc":null,"perimeter_edit_time_utc":"2025-06-02T20:50:01Z","incident_modified_time_utc":"2025-06-03T18:18:32Z","containment_time_utc":null,"control_time_utc":null,"fire_out_time_utc":null,"fire_cause":"Human","fire_cause_general":"Undetermined (remarks required)","map_method":"Mixed Methods","source_dataset":"2025 NIFS","unique_fire_identifier":"2025-MIMIS-220007","irwin_id":"{44ECCC38-F664-46FA-AE77-779850C3BBB9}","global_id":"743e1e27-5e18-4c5b-8d67-5cbef3b7618b"}},{"type":"Feature","geometry":{"type":"Polygon","coordinates":[[[-87.02961,45.85673],[-87.02962,45.85718],[-87.02931,45.85715],[-87.02911,45.85747],[-87.02899,45.85703],[-87.02961,45.85673]]]},"properties":{"fire_id":"ufid:2025-MIMIS-210008","source_collection":"history-2025","source_objectid":40514,"incident_name":"Buckeye no. 3","mapped_acres":0.58,"mapped_acres_source":"poly_GISAcres","gis_acres":0.58,"auto_acres":0.5822373539406281,"reported_acres":0.6,"percent_contained":null,"state":"MI","state_wfigs":"US-MI","county":"Delta","discovery_time_utc":"2025-05-09T17:57:00Z","perimeter_time_utc":null,"perimeter_edit_time_utc":"2025-06-07T18:59:02Z","incident_modified_time_utc":"2025-05-13T19:26:10Z","containment_time_utc":null,"control_time_utc":null,"fire_out_time_utc":null,"fire_cause":"Human","fire_cause_general":"Other causes","map_method":"Mixed Methods","source_dataset":"2025 NIFS","unique_fire_identifier":"2025-MIMIS-210008","irwin_id":"{52058DCD-A3A5-4ADD-A445-24DE23195F2D}","global_id":"c520ae49-e167-4d4d-a84a-c6a198cb6d88"}},{"type":"Feature","geometry":{"type":"Polygon","coordinates":[[[-88.75951,46.15975],[-88.75936,46.15987],[-88.75961,46.16001],[-88.75942,46.16006],[-88.75936,46.16024],[-88.75908,46.16021],[-88.75906,46.15978],[-88.75951,46.15975]]]},"properties":{"fire_id":"ufid:2025-MIOTF-250218","source_collection":"history-2025","source_objectid":40590,"incident_name":"Beechwood","mapped_acres":0.4221576,"mapped_acres_source":"poly_GISAcres","gis_acres":0.4221576,"auto_acres":0.4221576157018267,"reported_acres":0.4,"percent_contained":null,"state":"MI","state_wfigs":"US-MI","county":"Iron","discovery_time_utc":"2025-05-10T20:36:00Z","perimeter_time_utc":"2025-06-10T12:41:46Z","perimeter_edit_time_utc":null,"incident_modified_time_utc":"2025-05-14T17:01:08Z","containment_time_utc":"2025-05-10T22:29:00Z","control_time_utc":"2025-05-14T15:41:00Z","fire_out_time_utc":"2025-05-14T15:41:00Z","fire_cause":"Human","fire_cause_general":"Debris and open burning","map_method":"Auto-generated for InFORM","source_dataset":"FFP","unique_fire_identifier":"2025-MIOTF-250218","irwin_id":"{6096349C-1CC1-4C97-9F65-585510BACA39}","global_id":"60f324e3-1317-40fa-9a69-132c61362fdb"}},{"type":"Feature","geometry":{"type":"Polygon","coordinates":[[[-88.74572,46.15301],[-88.74524,46.15325],[-88.74529,46.15337],[-88.74501,46.15379],[-88.74535,46.15396],[-88.74523,46.15411],[-88.7453,46.15423],[-88.74522,46.15431],[-88.74506,46.15406],[-88.74494,46.15413],[-88.74476,46.15436],[-88.74477,46.15465],[-88.74491,46.15475],[-88.74467,46.15476],[-88.74461,46.1545],[-88.74425,46.15428],[-88.74424,46.15409],[-88.74457,46.1539],[-88.74493,46.15403],[-88.7447,46.15376],[-88.74499,46.15315],[-88.74489,46.15284],[-88.74507,46.15283],[-88.74494,46.15276],[-88.74572,46.15301]]]},"properties":{"fire_id":"ufid:2025-MIOTF-250241","source_collection":"history-2025","source_objectid":40591,"incident_name":"AmVets","mapped_acres":1.891491,"mapped_acres_source":"poly_GISAcres","gis_acres":1.891491,"auto_acres":1.891490789737159,"reported_acres":2.0,"percent_contained":null,"state":"MI","state_wfigs":"US-MI","county":"Iron","discovery_time_utc":"2025-05-15T19:08:14Z","perimeter_time_utc":"2025-06-10T12:42:31Z","perimeter_edit_time_utc":null,"incident_modified_time_utc":"2025-05-20T22:30:32Z","containment_time_utc":"2025-05-16T17:35:00Z","control_time_utc":"2025-05-17T14:34:00Z","fire_out_time_utc":"2025-05-18T14:40:00Z","fire_cause":"Undetermined","fire_cause_general":"Undetermined","map_method":"Auto-generated for InFORM","source_dataset":"FFP","unique_fire_identifier":"2025-MIOTF-250241","irwin_id":"{3E3AE336-8986-4153-88C7-BC52B663A508}","global_id":"ea061c5b-6c7f-4158-948e-ad67caecbea2"}},{"type":"Feature","geometry":{"type":"Polygon","coordinates":[[[-88.69426,46.02598],[-88.69465,46.02575],[-88.695,46.02595],[-88.69426,46.02598]]]},"properties":{"fire_id":"ufid:2025-MIMIS-360008","source_collection":"history-2025","source_objectid":48236,"incident_name":"Ski Brule Fire","mapped_acres":0.2,"mapped_acres_source":"poly_GISAcres","gis_acres":0.2,"auto_acres":0.20488077424313889,"reported_acres":0.5,"percent_contained":null,"state":"MI","state_wfigs":"US-MI","county":"Iron","discovery_time_utc":"2025-11-02T22:37:00Z","perimeter_time_utc":null,"perimeter_edit_time_utc":"2025-11-05T16:40:54Z","incident_modified_time_utc":"2025-11-13T15:29:09Z","containment_time_utc":null,"control_time_utc":null,"fire_out_time_utc":null,"fire_cause":"Human","fire_cause_general":"Debris and open burning","map_method":"Mixed Methods","source_dataset":"2025 NIFS","unique_fire_identifier":"2025-MIMIS-360008","irwin_id":"{F4421E5A-BF33-4810-99FE-B4A4CBD9EBC0}","global_id":"1dc1e7ff-9770-436a-afb9-c7e37ff8c99b"}},{"type":"Feature","geometry":{"type":"Polygon","coordinates":[[[-87.77576,45.59699],[-87.77573,45.5972],[-87.77557,45.59718],[-87.77562,45.59701],[-87.77576,45.59699]]]},"properties":{"fire_id":"ufid:2025-MIMIS-550010","source_collection":"history-2025","source_objectid":48625,"incident_name":"Hang em High","mapped_acres":0.09,"mapped_acres_source":"poly_GISAcres","gis_acres":0.09,"auto_acres":0.08556972072151536,"reported_acres":0.1,"percent_contained":null,"state":"MI","state_wfigs":"US-MI","county":"Menominee","discovery_time_utc":"2025-11-15T17:04:00Z","perimeter_time_utc":null,"perimeter_edit_time_utc":"2025-11-19T16:24:38Z","incident_modified_time_utc":"2025-11-17T14:45:20Z","containment_time_utc":null,"control_time_utc":null,"fire_out_time_utc":null,"fire_cause":"Human","fire_cause_general":"Other causes","map_method":"Mixed Methods","source_dataset":"2025 NIFS","unique_fire_identifier":"2025-MIMIS-550010","irwin_id":"{99C37941-CAA8-4B83-83CA-4B967D323FFA}","global_id":"d0997d67-ee7d-4814-9e85-f5cf0f7692f4"}}]}
