{"type":"FeatureCollection","features":[{"type":"Feature","geometry":{"type":"Polygon","coordinates":[[[-91.02423,31.38361],[-91.02441,31.38368],[-91.02466,31.38407],[-91.02501,31.38499],[-91.02502,31.38551],[-91.02532,31.38605],[-91.02526,31.38636],[-91.02468,31.38649],[-91.02395,31.38632],[-91.0235,31.38653],[-91.02333,31.38685],[-91.02247,31.3872],[-91.02207,31.38704],[-91.02153,31.38712],[-91.02107,31.38675],[-91.02055,31.38661],[-91.02032,31.38675],[-91.02021,31.38664],[-91.02022,31.38618],[-91.02042,31.38609],[-91.0206,31.38524],[-91.02102,31.38488],[-91.02154,31.38454],[-91.02186,31.38463],[-91.02213,31.38437],[-91.02267,31.38455],[-91.02304,31.38453],[-91.02343,31.38431],[-91.02382,31.38372],[-91.02423,31.38361]]]},"properties":{"fire_id":"ufid:2025-MSMNF-000014","source_collection":"history-2025","source_objectid":36644,"incident_name":"Wedding","mapped_acres":28.6,"mapped_acres_source":"poly_GISAcres","gis_acres":28.6,"auto_acres":28.60721891452781,"reported_acres":28.0,"percent_contained":null,"state":"MS","state_wfigs":"US-MS","county":"Franklin","discovery_time_utc":"2025-01-05T20:39:00Z","perimeter_time_utc":"2025-01-22T15:58:11Z","perimeter_edit_time_utc":"2025-01-22T15:58:11Z","incident_modified_time_utc":"2025-01-22T15:49:08Z","containment_time_utc":"2025-01-06T00:15:00Z","control_time_utc":"2025-01-06T16:00:00Z","fire_out_time_utc":"2025-01-10T18:00:00Z","fire_cause":"Human","fire_cause_general":"Arson","map_method":"Mixed Methods","source_dataset":"FFP","unique_fire_identifier":"2025-MSMNF-000014","irwin_id":"{E278DE97-ED1B-419D-B466-9B3FC2567F7B}","global_id":"7dbab526-249e-49c4-bcb1-0050b92185b2"}},{"type":"Feature","geometry":{"type":"Polygon","coordinates":[[[-90.91001,31.3681],[-90.91023,31.36783],[-90.91056,31.36781],[-90.91054,31.36797],[-90.91072,31.36808],[-90.91084,31.36794],[-90.91132,31.36785],[-90.91158,31.36738],[-90.91136,31.3671],[-90.91232,31.3666],[-90.91217,31.36629],[-90.91254,31.36647],[-90.91241,31.36609],[-90.91266,31.36602],[-90.9128,31.36571],[-90.9127,31.36529],[-90.91284,31.36499],[-90.91277,31.36474],[-90.91296,31.36462],[-90.91323,31.365],[-90.91355,31.36435],[-90.91387,31.36439],[-90.914,31.36429],[-90.91414,31.36434],[-90.91414,31.36461],[-90.9143,31.36459],[-90.91446,31.36429],[-90.9149,31.36422],[-90.9149,31.36401],[-90.91513,31.36398],[-90.91544,31.36426],[-90.91536,31.36444],[-90.9158,31.36416],[-90.91584,31.36398],[-90.91611,31.36428],[-90.91628,31.3643],[-90.9163,31.36413],[-90.91693,31.36401],[-90.91727,31.36426],[-90.91744,31.36421],[-90.9172,31.36393],[-90.91797,31.36376],[-90.91807,31.36384],[-90.91797,31.36405],[-90.91809,31.36419],[-90.91828,31.36412],[-90.91847,31.36458],[-90.9187,31.36477],[-90.91813,31.36549],[-90.91653,31.36632],[-90.91612,31.36675],[-90.91522,31.36728],[-90.91464,31.36787],[-90.91442,31.36841],[-90.91526,31.36978],[-90.91535,31.37059],[-90.91487,31.37129],[-90.91378,31.37206],[-90.91288,31.37303],[-90.91272,31.37397],[-90.91283,31.37452],[-90.91277,31.37534],[-90.91221,31.3758],[-90.91125,31.3758],[-90.90987,31.3771],[-90.9091,31.37718],[-90.90784,31.37607],[-90.90619,31.37582],[-90.90497,31.37617],[-90.90454,31.37723],[-90.90393,31.37766],[-90.90293,31.37735],[-90.90125,31.37799],[-90.90028,31.37766],[-90.89949,31.37717],[-90.89831,31.37759],[-90.8978,31.3776],[-90.89698,31.37717],[-90.89618,31.37605],[-90.89425,31.37478],[-90.8927,31.37448],[-90.89115,31.37246],[-90.89123,31.37136],[-90.89072,31.37054],[-90.8906,31.36946],[-90.89068,31.36901],[-90.89162,31.36803],[-90.89346,31.36538],[-90.89363,31.36465],[-90.89344,31.36163],[-90.89266,31.36065],[-90.89168,31.35743],[-90.89112,31.35647],[-90.89157,31.35556],[-90.89177,31.35548],[-90.89347,31.35615],[-90.89436,31.35598],[-90.89464,31.35605],[-90.89532,31.35726],[-90.89555,31.35747],[-90.89735,31.35689],[-90.89897,31.35743],[-90.90087,31.35743],[-90.90143,31.35781],[-90.90214,31.35798],[-90.9022,31.35819],[-90.90183,31.35921],[-90.90211,31.35997],[-90.90313,31.36115],[-90.90319,31.36167],[-90.90288,31.36224],[-90.90292,31.36262],[-90.90365,31.36301],[-90.90401,31.36404],[-90.9047,31.36444],[-90.90499,31.36495],[-90.90575,31.36559],[-90.90595,31.36604],[-90.90725,31.36612],[-90.9079,31.36691],[-90.90806,31.367],[-90.90885,31.36695],[-90.90974,31.36766],[-90.91001,31.3681]],[[-90.90971,31.36768],[-90.90974,31.36768],[-90.90972,31.36767],[-90.90971,31.36768]]]},"properties":{"fire_id":"ufid:2025-MSMNF-000041","source_collection":"history-2025","source_objectid":37738,"incident_name":"King’s Ferry","mapped_acres":871.0450097667454,"mapped_acres_source":"poly_Acres_AutoCalc_fallback","gis_acres":null,"auto_acres":871.0450097667454,"reported_acres":871.0,"percent_contained":null,"state":"MS","state_wfigs":"US-MS","county":"Franklin","discovery_time_utc":"2025-02-06T17:08:56Z","perimeter_time_utc":"2025-03-19T21:26:33Z","perimeter_edit_time_utc":null,"incident_modified_time_utc":"2025-02-12T13:58:19Z","containment_time_utc":"2025-02-07T00:48:00Z","control_time_utc":"2025-02-12T06:00:00Z","fire_out_time_utc":"2025-02-12T13:57:00Z","fire_cause":"Human","fire_cause_general":"Arson","map_method":"Mixed Methods","source_dataset":"FFP","unique_fire_identifier":"2025-MSMNF-000041","irwin_id":"{196501F8-19F1-42CF-BEC0-5CA4F7FDDF6D}","global_id":"73d219cf-3103-404b-bf71-8fe15636f1e8"}},{"type":"Feature","geometry":{"type":"Polygon","coordinates":[[[-90.77349,31.43747],[-90.77391,31.4376],[-90.77437,31.43744],[-90.77504,31.43779],[-90.77487,31.43813],[-90.77514,31.4381],[-90.77507,31.43843],[-90.77475,31.43836],[-90.7753,31.43885],[-90.77489,31.43929],[-90.77505,31.4395],[-90.77498,31.4397],[-90.77574,31.43975],[-90.77566,31.43992],[-90.77533,31.43992],[-90.77526,31.44014],[-90.77463,31.44076],[-90.77409,31.4405],[-90.77396,31.44033],[-90.77397,31.43999],[-90.77377,31.4398],[-90.7741,31.4396],[-90.77428,31.43963],[-90.77415,31.43938],[-90.7736,31.43952],[-90.77327,31.43906],[-90.77357,31.43902],[-90.77373,31.43925],[-90.77366,31.43899],[-90.77376,31.43856],[-90.77363,31.43857],[-90.77341,31.4389],[-90.77302,31.4388],[-90.77313,31.43831],[-90.77304,31.43814],[-90.7733,31.43805],[-90.77313,31.4378],[-90.77349,31.43747]]]},"properties":{"fire_id":"ufid:2025-MSMNF-000142","source_collection":"history-2025","source_objectid":38328,"incident_name":"B Town","mapped_acres":5.0,"mapped_acres_source":"poly_GISAcres","gis_acres":5.0,"auto_acres":12.171375460421146,"reported_acres":12.2,"percent_contained":null,"state":"MS","state_wfigs":"US-MS","county":"Franklin","discovery_time_utc":"2025-03-12T02:01:10Z","perimeter_time_utc":"2025-04-07T15:10:32Z","perimeter_edit_time_utc":null,"incident_modified_time_utc":"2025-03-24T15:19:00Z","containment_time_utc":"2025-03-12T13:06:00Z","control_time_utc":"2025-03-24T05:00:00Z","fire_out_time_utc":"2025-03-24T15:00:00Z","fire_cause":"Human","fire_cause_general":"Debris and open burning","map_method":"Auto-generated for InFORM","source_dataset":"FFP","unique_fire_identifier":"2025-MSMNF-000142","irwin_id":"{CDD69F93-C4CF-4D64-B24D-C805065B7DD2}","global_id":"3828ccf3-aaf2-4ac2-851a-be5928495847"}},{"type":"Feature","geometry":{"type":"Polygon","coordinates":[[[-90.87678,31.36591],[-90.8774,31.36611],[-90.87784,31.36608],[-90.87803,31.36621],[-90.87814,31.36597],[-90.87869,31.36582],[-90.87962,31.36599],[-90.88034,31.36641],[-90.88103,31.36626],[-90.88158,31.36529],[-90.88154,31.36455],[-90.88201,31.36316],[-90.88214,31.36199],[-90.88234,31.3614],[-90.88233,31.36104],[-90.88167,31.35956],[-90.88195,31.35879],[-90.88205,31.35717],[-90.8831,31.35658],[-90.88366,31.35573],[-90.88415,31.35533],[-90.88454,31.35523],[-90.88568,31.35544],[-90.88671,31.35449],[-90.88835,31.35401],[-90.88926,31.35277],[-90.88963,31.35268],[-90.89022,31.35286],[-90.89069,31.35327],[-90.89176,31.35484],[-90.89178,31.3553],[-90.89118,31.35648],[-90.89173,31.35748],[-90.89269,31.36068],[-90.89337,31.36144],[-90.89351,31.36197],[-90.89357,31.36519],[-90.89165,31.36804],[-90.89063,31.36923],[-90.89072,31.37045],[-90.89125,31.37135],[-90.89115,31.37216],[-90.89123,31.3726],[-90.89272,31.3745],[-90.89434,31.37481],[-90.89617,31.37602],[-90.89703,31.37719],[-90.89786,31.37764],[-90.89865,31.37752],[-90.89944,31.37719],[-90.90025,31.37767],[-90.9013,31.37802],[-90.90293,31.37733],[-90.90394,31.37762],[-90.90459,31.37717],[-90.90493,31.37621],[-90.90615,31.37583],[-90.90782,31.37606],[-90.90897,31.37711],[-90.90958,31.37719],[-90.90996,31.37707],[-90.91114,31.37587],[-90.91151,31.37572],[-90.91224,31.37586],[-90.91283,31.37618],[-90.91424,31.37744],[-90.91483,31.37768],[-90.91426,31.37797],[-90.91446,31.37865],[-90.91381,31.37942],[-90.91389,31.37978],[-90.9149,31.38056],[-90.91498,31.38079],[-90.91356,31.38283],[-90.91389,31.38341],[-90.91389,31.38409],[-90.91362,31.38433],[-90.91233,31.38469],[-90.91258,31.38551],[-90.91248,31.38557],[-90.91241,31.38615],[-90.91203,31.38673],[-90.91254,31.3877],[-90.91261,31.38829],[-90.91309,31.38911],[-90.91291,31.3895],[-90.91292,31.38988],[-90.9116,31.39102],[-90.91073,31.39113],[-90.90983,31.39154],[-90.90765,31.39174],[-90.90719,31.39154],[-90.90607,31.3918],[-90.90513,31.39158],[-90.90423,31.39166],[-90.90397,31.39207],[-90.90393,31.39241],[-90.90382,31.39241],[-90.90379,31.39293],[-90.9029,31.39351],[-90.90249,31.39424],[-90.90198,31.39477],[-90.90232,31.39513],[-90.90219,31.39566],[-90.90241,31.3965],[-90.90231,31.39762],[-90.90261,31.39871],[-90.9025,31.40012],[-90.90155,31.39912],[-90.9007,31.3994],[-90.90059,31.39853],[-90.89951,31.39795],[-90.89849,31.39859],[-90.89767,31.39863],[-90.89674,31.3981],[-90.89603,31.39747],[-90.8953,31.39715],[-90.89481,31.39816],[-90.89386,31.39808],[-90.89182,31.39734],[-90.8908,31.39335],[-90.88975,31.39303],[-90.8898,31.39418],[-90.88849,31.39412],[-90.88698,31.39443],[-90.88594,31.39322],[-90.88663,31.39095],[-90.88559,31.39045],[-90.8857,31.38972],[-90.88658,31.39013],[-90.88654,31.38822],[-90.88554,31.38818],[-90.88508,31.38743],[-90.88521,31.38669],[-90.88348,31.38629],[-90.88333,31.38553],[-90.88359,31.38489],[-90.88295,31.38446],[-90.88286,31.38362],[-90.8835,31.38358],[-90.8841,31.38338],[-90.88335,31.38239],[-90.88361,31.38109],[-90.88328,31.37984],[-90.88222,31.37872],[-90.88322,31.37789],[-90.88202,31.3756],[-90.8812,31.37355],[-90.88098,31.37231],[-90.87974,31.37214],[-90.87812,31.3713],[-90.87898,31.37028],[-90.87903,31.36985],[-90.87783,31.36956],[-90.87676,31.36903],[-90.8771,31.3678],[-90.87614,31.36623],[-90.87678,31.36591]]]},"properties":{"fire_id":"ufid:2025-MSMNF-000153","source_collection":"history-2025","source_objectid":38329,"incident_name":"Blue Stem","mapped_acres":2031.2228406578683,"mapped_acres_source":"poly_Acres_AutoCalc_fallback","gis_acres":null,"auto_acres":2031.2228406578683,"reported_acres":2031.2,"percent_contained":null,"state":"MS","state_wfigs":"US-MS","county":"Franklin","discovery_time_utc":"2025-03-13T13:04:52Z","perimeter_time_utc":"2025-04-07T15:09:25Z","perimeter_edit_time_utc":null,"incident_modified_time_utc":"2025-03-24T15:19:55Z","containment_time_utc":"2025-03-13T23:23:00Z","control_time_utc":"2025-03-24T05:00:00Z","fire_out_time_utc":"2025-03-24T15:00:00Z","fire_cause":"Human","fire_cause_general":"Arson","map_method":"Mixed Methods","source_dataset":"FFP","unique_fire_identifier":"2025-MSMNF-000153","irwin_id":"{5B065679-7C00-458D-B311-2074CA5BD92C}","global_id":"5ee024d0-bf86-44fa-a235-62940a03f6a3"}},{"type":"Feature","geometry":{"type":"MultiPolygon","coordinates":[[[[-90.847181,31.416758],[-90.84737,31.41703],[-90.84727,31.41713],[-90.847181,31.416758]]],[[[-90.846904,31.415594],[-90.84686,31.41541],[-90.847,31.41541],[-90.846904,31.415594]]],[[[-90.847181,31.416758],[-90.84689,31.41562],[-90.846904,31.415594],[-90.847181,31.416758]]]]},"properties":{"fire_id":"ufid:2025-MSMNF-000429","source_collection":"history-2025","source_objectid":48471,"incident_name":"Okhissa fire","mapped_acres":0.2,"mapped_acres_source":"poly_GISAcres","gis_acres":0.2,"auto_acres":0.35992650481528804,"reported_acres":0.36,"percent_contained":null,"state":"MS","state_wfigs":"US-MS","county":"Franklin","discovery_time_utc":"2025-11-05T17:31:42Z","perimeter_time_utc":"2025-11-13T18:21:47Z","perimeter_edit_time_utc":null,"incident_modified_time_utc":"2025-11-06T21:45:10Z","containment_time_utc":"2025-11-05T21:00:00Z","control_time_utc":"2025-11-06T21:45:00Z","fire_out_time_utc":"2025-11-06T21:45:00Z","fire_cause":"Human","fire_cause_general":"Equipment and vehicle use","map_method":"Mixed Methods","source_dataset":"FFP","unique_fire_identifier":"2025-MSMNF-000429","irwin_id":"{8926E1E4-358F-4C2D-B8E4-CEF9C4754188}","global_id":"9a5d34a0-0090-48f4-a319-36a29957a03e"}},{"type":"Feature","geometry":{"type":"MultiPolygon","coordinates":[[[[-90.94897,31.28132],[-90.94883,31.28133],[-90.9489,31.28131],[-90.94897,31.28132]]],[[[-90.94891,31.28125],[-90.94896,31.28129],[-90.94896,31.28131],[-90.94891,31.28125]]],[[[-90.9488,31.28133],[-90.94883,31.28133],[-90.9488,31.28135],[-90.9488,31.28133]]]]},"properties":{"fire_id":"ufid:2025-MSMNF-000495","source_collection":"history-2025","source_objectid":50408,"incident_name":"Fox Fire","mapped_acres":0.007424199277908282,"mapped_acres_source":"poly_Acres_AutoCalc_fallback","gis_acres":null,"auto_acres":0.007424199277908282,"reported_acres":0.1,"percent_contained":null,"state":"MS","state_wfigs":"US-MS","county":"Amite","discovery_time_utc":"2025-12-23T20:26:20Z","perimeter_time_utc":"2026-01-19T21:18:19Z","perimeter_edit_time_utc":null,"incident_modified_time_utc":"2025-12-30T15:56:22Z","containment_time_utc":"2025-12-23T22:00:00Z","control_time_utc":"2025-12-30T15:50:00Z","fire_out_time_utc":"2025-12-30T15:50:00Z","fire_cause":"Human","fire_cause_general":"Undetermined","map_method":"Mixed Methods","source_dataset":"FFP","unique_fire_identifier":"2025-MSMNF-000495","irwin_id":"{BE2AC38A-186C-4BA5-ADF4-81D289ACAD6F}","global_id":"8440ac4d-6eb2-46dc-b47e-54f9f1d025bb"}},{"type":"Feature","geometry":{"type":"Polygon","coordinates":[[[-90.78509,32.78775],[-90.78403,32.78808],[-90.78433,32.78638],[-90.7841,32.78616],[-90.78457,32.78537],[-90.78464,32.78482],[-90.78443,32.784],[-90.78461,32.78365],[-90.78498,32.78366],[-90.7847,32.78246],[-90.78431,32.78211],[-90.78432,32.78166],[-90.78468,32.78166],[-90.78491,32.78187],[-90.7857,32.78131],[-90.78617,32.78124],[-90.78691,32.78262],[-90.78645,32.78391],[-90.78593,32.78429],[-90.78646,32.78605],[-90.7858,32.78705],[-90.78509,32.78775]]]},"properties":{"fire_id":"ufid:2025-MSMNF-000500","source_collection":"history-2025","source_objectid":50425,"incident_name":"Canvasback fire","mapped_acres":29.31420527895506,"mapped_acres_source":"poly_Acres_AutoCalc_fallback","gis_acres":null,"auto_acres":29.31420527895506,"reported_acres":28.5,"percent_contained":null,"state":"MS","state_wfigs":"US-MS","county":"Sharkey","discovery_time_utc":"2025-12-28T01:39:30Z","perimeter_time_utc":"2026-01-20T17:53:20Z","perimeter_edit_time_utc":null,"incident_modified_time_utc":"2026-01-17T18:48:50Z","containment_time_utc":"2025-12-28T23:00:00Z","control_time_utc":"2026-01-17T16:00:00Z","fire_out_time_utc":"2026-01-17T18:48:00Z","fire_cause":"Undetermined","fire_cause_general":"Undetermined","map_method":"Mixed Methods","source_dataset":"FFP","unique_fire_identifier":"2025-MSMNF-000500","irwin_id":"{8EE7FC66-3531-497E-9F17-07C6D5788B6D}","global_id":"33d6674a-2907-4a70-932b-0b18972bee10"}},{"type":"Feature","geometry":{"type":"Polygon","coordinates":[[[-91.17909,31.71009],[-91.179,31.71],[-91.17913,31.70982],[-91.17925,31.70996],[-91.17909,31.71009]]]},"properties":{"fire_id":"ufid:2025-MSNAP-000497","source_collection":"history-2025","source_objectid":50432,"incident_name":"Coles Creek 1","mapped_acres":0.11,"mapped_acres_source":"poly_GISAcres","gis_acres":0.11,"auto_acres":0.11049700776103878,"reported_acres":0.11,"percent_contained":null,"state":"MS","state_wfigs":"US-MS","county":"Jefferson","discovery_time_utc":"2025-12-27T00:00:00Z","perimeter_time_utc":"2026-06-04T20:52:14Z","perimeter_edit_time_utc":null,"incident_modified_time_utc":"2026-01-21T01:09:58Z","containment_time_utc":"2025-12-27T17:15:00Z","control_time_utc":"2025-12-27T17:15:00Z","fire_out_time_utc":"2026-01-08T20:30:00Z","fire_cause":"Human","fire_cause_general":"Arson","map_method":"Hand Sketch","source_dataset":"FFP","unique_fire_identifier":"2025-MSNAP-000497","irwin_id":"{021087B2-0E62-4B59-890B-16598F7A88FC}","global_id":"0660849a-a1b2-4db0-be5c-0e1733562c43"}},{"type":"Feature","geometry":{"type":"Polygon","coordinates":[[[-91.17583,31.72316],[-91.17588,31.72309],[-91.17589,31.72317],[-91.17583,31.72316]]]},"properties":{"fire_id":"ufid:2025-MSNAP-000498","source_collection":"history-2025","source_objectid":50433,"incident_name":"Coles Creek 2","mapped_acres":0.01,"mapped_acres_source":"poly_GISAcres","gis_acres":0.01,"auto_acres":0.011179280410334301,"reported_acres":0.06,"percent_contained":null,"state":"MS","state_wfigs":"US-MS","county":"Jefferson","discovery_time_utc":"2025-12-27T00:00:00Z","perimeter_time_utc":"2026-06-04T20:53:29Z","perimeter_edit_time_utc":null,"incident_modified_time_utc":"2026-01-08T21:01:12Z","containment_time_utc":"2025-12-27T17:15:00Z","control_time_utc":"2025-12-27T17:15:00Z","fire_out_time_utc":"2026-01-08T20:30:00Z","fire_cause":"Undetermined","fire_cause_general":"Undetermined","map_method":"Hand Sketch","source_dataset":"FFP","unique_fire_identifier":"2025-MSNAP-000498","irwin_id":"{8035B2D9-4E4B-498B-9C54-D9FC53A78A20}","global_id":"92cc9b1a-b7cd-4e2a-85e7-e5c8b33a24a5"}},{"type":"Feature","geometry":{"type":"Polygon","coordinates":[[[-91.1596,31.38685],[-91.15977,31.38649],[-91.15949,31.3859],[-91.15954,31.38535],[-91.16025,31.38502],[-91.16121,31.38495],[-91.16117,31.3846],[-91.16072,31.38436],[-91.1605,31.38396],[-91.16098,31.38345],[-91.161,31.38306],[-91.1605,31.38262],[-91.16059,31.38202],[-91.16164,31.38103],[-91.16179,31.38061],[-91.16093,31.38026],[-91.1602,31.37872],[-91.16055,31.37821],[-91.16123,31.37782],[-91.16128,31.37742],[-91.1608,31.37705],[-91.16044,31.37654],[-91.1605,31.37574],[-91.16128,31.37513],[-91.16183,31.37487],[-91.16267,31.37504],[-91.1631,31.37574],[-91.16256,31.37643],[-91.16233,31.37738],[-91.16426,31.37854],[-91.16501,31.37837],[-91.16527,31.37808],[-91.16597,31.37806],[-91.16718,31.37832],[-91.1684,31.38002],[-91.16887,31.37993],[-91.16986,31.37944],[-91.17018,31.37945],[-91.17136,31.37973],[-91.17246,31.38035],[-91.17421,31.38268],[-91.17467,31.38422],[-91.17585,31.38471],[-91.1758,31.38548],[-91.17632,31.38623],[-91.17773,31.38731],[-91.17806,31.3894],[-91.1787,31.39022],[-91.17904,31.39096],[-91.17816,31.39259],[-91.17696,31.39358],[-91.17685,31.3946],[-91.1767,31.39512],[-91.17649,31.39532],[-91.17597,31.39506],[-91.17417,31.39524],[-91.17364,31.39482],[-91.17263,31.3944],[-91.17185,31.39424],[-91.17072,31.39433],[-91.16868,31.39504],[-91.16806,31.39502],[-91.16651,31.39446],[-91.16512,31.39376],[-91.16379,31.39237],[-91.16248,31.39138],[-91.16057,31.39057],[-91.16059,31.39028],[-91.16115,31.38966],[-91.16198,31.38969],[-91.16235,31.38947],[-91.16164,31.38847],[-91.1613,31.38865],[-91.16121,31.38911],[-91.16042,31.38907],[-91.1601,31.38856],[-91.15997,31.3879],[-91.15971,31.38755],[-91.1596,31.38685]]]},"properties":{"fire_id":"ufid:2025-MSMNF-000127","source_collection":"history-2025","source_objectid":51803,"incident_name":"Pipes Lake","mapped_acres":623.13,"mapped_acres_source":"poly_GISAcres","gis_acres":623.13,"auto_acres":623.1285584825321,"reported_acres":623.13,"percent_contained":null,"state":"MS","state_wfigs":"US-MS","county":"Adams","discovery_time_utc":"2025-03-06T01:00:00Z","perimeter_time_utc":"2026-03-30T19:39:42Z","perimeter_edit_time_utc":null,"incident_modified_time_utc":"2025-03-24T15:18:09Z","containment_time_utc":"2025-03-07T14:00:00Z","control_time_utc":"2025-03-24T05:00:00Z","fire_out_time_utc":"2025-03-24T15:00:00Z","fire_cause":"Human","fire_cause_general":"Power generation / transmission / distribution","map_method":"Hand Sketch","source_dataset":"FFP","unique_fire_identifier":"2025-MSMNF-000127","irwin_id":"{AACD14C3-04FF-42AF-91CD-623264F8D7CF}","global_id":"2eb47f87-bf92-433d-8a16-71f400fe5963"}},{"type":"Feature","geometry":{"type":"Polygon","coordinates":[[[-90.89007,31.35259],[-90.89146,31.35226],[-90.8926,31.35252],[-90.89307,31.3525],[-90.89365,31.35215],[-90.89442,31.35217],[-90.89481,31.35235],[-90.89545,31.35296],[-90.8964,31.35309],[-90.8973,31.35338],[-90.89734,31.35421],[-90.89715,31.35466],[-90.89496,31.35516],[-90.89462,31.3554],[-90.8944,31.35595],[-90.89348,31.35609],[-90.89266,31.35587],[-90.89172,31.35538],[-90.89174,31.35507],[-90.89144,31.35444],[-90.89007,31.35259]]]},"properties":{"fire_id":"ufid:2025-MSMNF-000038","source_collection":"history-2025","source_objectid":51804,"incident_name":"Ferry","mapped_acres":45.89,"mapped_acres_source":"poly_GISAcres","gis_acres":45.89,"auto_acres":45.886457763653425,"reported_acres":45.89,"percent_contained":null,"state":"MS","state_wfigs":"US-MS","county":"Franklin","discovery_time_utc":"2025-02-06T00:24:04Z","perimeter_time_utc":"2026-03-30T19:44:09Z","perimeter_edit_time_utc":null,"incident_modified_time_utc":"2025-02-12T13:58:26Z","containment_time_utc":"2025-02-06T03:00:00Z","control_time_utc":"2025-02-12T13:55:00Z","fire_out_time_utc":"2025-02-12T13:58:00Z","fire_cause":"Human","fire_cause_general":"Arson","map_method":"Hand Sketch","source_dataset":"FFP","unique_fire_identifier":"2025-MSMNF-000038","irwin_id":"{59AE91D1-C39B-4E8E-B3AF-9BE0097C62CE}","global_id":"fee08480-fe54-4511-be8f-181c79f33a2a"}}]}
