{"type":"FeatureCollection","features":[{"type":"Feature","geometry":{"type":"Polygon","coordinates":[[[-82.3086,35.2258],[-82.30854,35.22613],[-82.30872,35.22667],[-82.30797,35.22632],[-82.30705,35.22648],[-82.30672,35.22674],[-82.30646,35.2267],[-82.30641,35.22656],[-82.30668,35.22607],[-82.30731,35.22564],[-82.30719,35.22546],[-82.30591,35.22588],[-82.30561,35.22624],[-82.30515,35.22627],[-82.30508,35.22639],[-82.30472,35.22633],[-82.30466,35.22649],[-82.30484,35.22669],[-82.30407,35.22713],[-82.30268,35.22694],[-82.30254,35.2267],[-82.30226,35.22661],[-82.30209,35.2268],[-82.30159,35.22699],[-82.30087,35.22686],[-82.29921,35.22729],[-82.2985,35.22734],[-82.29748,35.22719],[-82.29682,35.22734],[-82.29539,35.22799],[-82.29471,35.2286],[-82.29438,35.2291],[-82.29422,35.2299],[-82.29346,35.23059],[-82.29348,35.23085],[-82.29275,35.23194],[-82.29078,35.23288],[-82.29068,35.23318],[-82.29132,35.23362],[-82.29055,35.23356],[-82.28949,35.23374],[-82.28871,35.23422],[-82.28829,35.23433],[-82.2872,35.23417],[-82.2857,35.23499],[-82.28369,35.23432],[-82.28257,35.2346],[-82.28091,35.23446],[-82.27786,35.23339],[-82.27701,35.23327],[-82.277,35.23287],[-82.27676,35.23229],[-82.27685,35.23184],[-82.27671,35.23133],[-82.27589,35.22986],[-82.27562,35.22867],[-82.27628,35.22799],[-82.27681,35.22794],[-82.27723,35.22827],[-82.27779,35.22841],[-82.27851,35.22783],[-82.27927,35.22767],[-82.2792,35.22753],[-82.27841,35.22712],[-82.27762,35.22729],[-82.27713,35.22689],[-82.27714,35.22592],[-82.27687,35.22546],[-82.27644,35.22541],[-82.2769,35.22515],[-82.27739,35.22543],[-82.27724,35.22421],[-82.28151,35.22428],[-82.28631,35.22466],[-82.28709,35.22449],[-82.29139,35.22285],[-82.29653,35.22259],[-82.29803,35.22197],[-82.29965,35.22222],[-82.30058,35.22191],[-82.3017,35.22192],[-82.30302,35.22229],[-82.30602,35.2225],[-82.30654,35.22244],[-82.30725,35.22201],[-82.30901,35.22169],[-82.31093,35.22211],[-82.31091,35.22272],[-82.31194,35.22321],[-82.31177,35.22391],[-82.31153,35.22424],[-82.31071,35.22454],[-82.31007,35.22581],[-82.30968,35.22611],[-82.30908,35.22622],[-82.3088,35.22581],[-82.3086,35.2258]]]},"properties":{"fire_id":"ufid:2025-NCNCS-250014","source_collection":"history-2025","source_objectid":37239,"incident_name":"3910","mapped_acres":619.7653930268724,"mapped_acres_source":"poly_GISAcres","gis_acres":619.7653930268724,"auto_acres":619.7631940053257,"reported_acres":619.0,"percent_contained":100.0,"state":"NC","state_wfigs":"US-NC","county":"Polk","discovery_time_utc":"2025-03-02T12:25:00Z","perimeter_time_utc":"2025-03-02T23:04:20Z","perimeter_edit_time_utc":"2025-03-04T16:16:19Z","incident_modified_time_utc":"2025-03-08T12:30:12Z","containment_time_utc":null,"control_time_utc":null,"fire_out_time_utc":null,"fire_cause":"Human","fire_cause_general":null,"map_method":"Auto-generated for InFORM","source_dataset":"2025 NIFS","unique_fire_identifier":"2025-NCNCS-250014","irwin_id":"{34A6C160-F478-42AE-BECE-225961DF5E3F}","global_id":"d06c7265-e931-4036-9bd0-85e312ee2bca"}},{"type":"Feature","geometry":{"type":"Polygon","coordinates":[[[-82.0165,35.76519],[-82.01687,35.76451],[-82.01686,35.76425],[-82.01724,35.76405],[-82.01724,35.76378],[-82.01696,35.7636],[-82.0169,35.7632],[-82.01641,35.76297],[-82.01625,35.76236],[-82.01742,35.7627],[-82.0178,35.76266],[-82.01849,35.76234],[-82.01855,35.76214],[-82.01833,35.76173],[-82.01846,35.76139],[-82.01807,35.76123],[-82.01786,35.76099],[-82.0182,35.76028],[-82.0187,35.76017],[-82.01929,35.76022],[-82.01963,35.76069],[-82.01991,35.76065],[-82.01986,35.75978],[-82.0191,35.75915],[-82.01915,35.75896],[-82.02007,35.75917],[-82.02128,35.75975],[-82.02169,35.76033],[-82.02186,35.76139],[-82.02233,35.76177],[-82.02289,35.76183],[-82.0236,35.76133],[-82.02467,35.76093],[-82.02558,35.76126],[-82.02645,35.76109],[-82.02671,35.76146],[-82.02703,35.76155],[-82.02683,35.76205],[-82.02724,35.76298],[-82.02773,35.76336],[-82.02827,35.76309],[-82.0287,35.76315],[-82.02919,35.76365],[-82.02939,35.7642],[-82.02942,35.7649],[-82.02898,35.76538],[-82.02942,35.76605],[-82.02879,35.76832],[-82.029,35.76929],[-82.02897,35.77027],[-82.0275,35.7715],[-82.02726,35.77198],[-82.02658,35.77229],[-82.0259,35.77312],[-82.02501,35.77323],[-82.02528,35.77358],[-82.02537,35.77432],[-82.02573,35.77504],[-82.02626,35.77526],[-82.02681,35.77528],[-82.02695,35.77581],[-82.02694,35.77649],[-82.02601,35.77699],[-82.02563,35.77697],[-82.02552,35.77677],[-82.02536,35.77675],[-82.02463,35.77699],[-82.02427,35.77687],[-82.02393,35.7772],[-82.02335,35.77722],[-82.02271,35.77702],[-82.02223,35.77728],[-82.02263,35.77818],[-82.02284,35.77816],[-82.02307,35.77787],[-82.02393,35.77819],[-82.0243,35.77814],[-82.02463,35.77838],[-82.02408,35.77926],[-82.02387,35.77987],[-82.02394,35.78044],[-82.02214,35.7801],[-82.02196,35.78017],[-82.02104,35.78128],[-82.02089,35.78333],[-82.0207,35.78384],[-82.02045,35.784],[-82.01959,35.78402],[-82.01844,35.78383],[-82.01657,35.784],[-82.01385,35.78113],[-82.01314,35.78118],[-82.01217,35.77824],[-82.01254,35.7782],[-82.01245,35.77794],[-82.0126,35.77732],[-82.01232,35.77698],[-82.01208,35.77636],[-82.01252,35.77536],[-82.01258,35.77455],[-82.01293,35.77401],[-82.01279,35.77331],[-82.0134,35.77277],[-82.01404,35.77252],[-82.01497,35.77257],[-82.01538,35.77244],[-82.01581,35.77207],[-82.01653,35.77207],[-82.01723,35.77147],[-82.01744,35.77075],[-82.01849,35.77035],[-82.01836,35.77012],[-82.01759,35.77023],[-82.01694,35.77046],[-82.01651,35.77093],[-82.01537,35.77125],[-82.01514,35.77116],[-82.01495,35.77074],[-82.01484,35.77004],[-82.0155,35.76981],[-82.01592,35.76914],[-82.01601,35.76852],[-82.0158,35.76809],[-82.01575,35.76738],[-82.0161,35.76684],[-82.01625,35.76622],[-82.01656,35.76568],[-82.0165,35.76519]]]},"properties":{"fire_id":"ufid:2025-NCNCF-250021","source_collection":"history-2025","source_objectid":37331,"incident_name":"North Fork","mapped_acres":643.7943,"mapped_acres_source":"poly_GISAcres","gis_acres":643.7943,"auto_acres":643.7919973903627,"reported_acres":644.0,"percent_contained":null,"state":"NC","state_wfigs":"US-NC","county":"McDowell","discovery_time_utc":"2025-01-29T21:05:53Z","perimeter_time_utc":"2025-03-06T13:53:08Z","perimeter_edit_time_utc":"2025-03-06T13:53:08Z","incident_modified_time_utc":"2025-02-18T18:59:19Z","containment_time_utc":"2025-02-09T20:15:00Z","control_time_utc":"2025-02-16T17:00:00Z","fire_out_time_utc":"2025-02-18T18:50:00Z","fire_cause":"Human","fire_cause_general":"Recreation and ceremony","map_method":"Mixed Methods","source_dataset":"FFP","unique_fire_identifier":"2025-NCNCF-250021","irwin_id":"{F63ADC5A-5722-4631-8BB4-26DF340FD22A}","global_id":"e6c5ce7b-9c5b-4675-a281-947cb1462448"}},{"type":"Feature","geometry":{"type":"Polygon","coordinates":[[[-83.41713,35.00883],[-83.41659,35.00932],[-83.41606,35.00905],[-83.41578,35.00842],[-83.416,35.0083],[-83.41683,35.00847],[-83.41713,35.00883]]]},"properties":{"fire_id":"ufid:2025-NCNCF-250038","source_collection":"history-2025","source_objectid":37411,"incident_name":"High Knob","mapped_acres":2.09,"mapped_acres_source":"poly_GISAcres","gis_acres":2.09,"auto_acres":2.0904277831004094,"reported_acres":2.09,"percent_contained":null,"state":"NC","state_wfigs":"US-NC","county":"Macon","discovery_time_utc":"2025-02-23T20:08:12Z","perimeter_time_utc":"2025-03-10T20:18:13Z","perimeter_edit_time_utc":"2025-03-10T20:18:13Z","incident_modified_time_utc":"2025-02-23T23:09:00Z","containment_time_utc":null,"control_time_utc":null,"fire_out_time_utc":"2025-03-10T20:16:00Z","fire_cause":"Undetermined","fire_cause_general":"Undetermined","map_method":"Auto-generated for InFORM","source_dataset":"FFP","unique_fire_identifier":"2025-NCNCF-250038","irwin_id":"{02CEBF59-FBB9-48BC-97C2-CA57FC278F27}","global_id":"3f6b5889-c546-4a73-ae32-2dc7a7016488"}},{"type":"Feature","geometry":{"type":"Polygon","coordinates":[[[-83.18583,35.02871],[-83.18389,35.02918],[-83.18347,35.02898],[-83.18325,35.02841],[-83.18328,35.02815],[-83.1841,35.02737],[-83.18558,35.02716],[-83.18604,35.02785],[-83.18577,35.02851],[-83.18583,35.02871]]]},"properties":{"fire_id":"ufid:2025-NCNCF-250066","source_collection":"history-2025","source_objectid":37412,"incident_name":"SATULAH","mapped_acres":10.0,"mapped_acres_source":"poly_GISAcres","gis_acres":10.0,"auto_acres":9.845427743148946,"reported_acres":10.0,"percent_contained":null,"state":"NC","state_wfigs":"US-NC","county":"Macon","discovery_time_utc":"2025-02-28T10:01:53Z","perimeter_time_utc":"2025-03-10T20:14:56Z","perimeter_edit_time_utc":"2025-03-10T20:14:57Z","incident_modified_time_utc":"2025-03-04T16:20:56Z","containment_time_utc":"2025-03-04T16:20:00Z","control_time_utc":null,"fire_out_time_utc":"2025-03-10T20:10:00Z","fire_cause":"Undetermined","fire_cause_general":"Undetermined","map_method":"Auto-generated for InFORM","source_dataset":"FFP","unique_fire_identifier":"2025-NCNCF-250066","irwin_id":"{FD9D69F5-C572-43C7-89F9-3625E2BF54FA}","global_id":"6f866a02-fbf5-482f-b0aa-d64a74ba732a"}},{"type":"Feature","geometry":{"type":"MultiPolygon","coordinates":[[[[-82.33844,35.25647],[-82.3394,35.25689],[-82.33952,35.25718],[-82.34004,35.25756],[-82.34008,35.2579],[-82.34184,35.25755],[-82.34197,35.25768],[-82.34205,35.25833],[-82.3427,35.25938],[-82.34262,35.26021],[-82.34321,35.26018],[-82.34393,35.26074],[-82.34437,35.26088],[-82.34387,35.26154],[-82.34387,35.26211],[-82.34405,35.2623],[-82.3438,35.26287],[-82.34356,35.26299],[-82.34343,35.26339],[-82.34354,35.26368],[-82.34631,35.26441],[-82.34696,35.26412],[-82.34766,35.26411],[-82.34751,35.26595],[-82.34769,35.26628],[-82.34777,35.26689],[-82.34808,35.26732],[-82.34784,35.26791],[-82.34789,35.26857],[-82.34715,35.26847],[-82.34666,35.26812],[-82.34561,35.26796],[-82.34485,35.26825],[-82.34402,35.26834],[-82.34213,35.26816],[-82.34183,35.26768],[-82.34122,35.26761],[-82.34099,35.26776],[-82.34092,35.26825],[-82.34038,35.26879],[-82.33983,35.26892],[-82.33972,35.26938],[-82.33917,35.26941],[-82.33911,35.26963],[-82.33927,35.26982],[-82.33919,35.27004],[-82.33845,35.27068],[-82.33768,35.27095],[-82.33738,35.27094],[-82.33713,35.27077],[-82.3368,35.27139],[-82.33584,35.27153],[-82.33488,35.27147],[-82.33405,35.27114],[-82.33328,35.271],[-82.3321,35.27009],[-82.3306,35.27008],[-82.32985,35.26994],[-82.32935,35.26964],[-82.3292,35.26909],[-82.32921,35.26825],[-82.3283,35.26684],[-82.32784,35.26636],[-82.32504,35.26484],[-82.32511,35.26405],[-82.32477,35.26336],[-82.32566,35.26152],[-82.32629,35.26143],[-82.32694,35.26096],[-82.3279,35.26097],[-82.32898,35.26117],[-82.32951,35.26108],[-82.32998,35.2608],[-82.3307,35.26081],[-82.33169,35.26053],[-82.33076,35.25996],[-82.33027,35.25913],[-82.32977,35.25913],[-82.32984,35.2589],[-82.32907,35.25812],[-82.32897,35.2578],[-82.32913,35.25764],[-82.32907,35.25729],[-82.32848,35.25561],[-82.32857,35.25538],[-82.32777,35.25521],[-82.32763,35.25501],[-82.32787,35.25462],[-82.33007,35.25428],[-82.33045,35.25438],[-82.33192,35.25437],[-82.33279,35.25525],[-82.33382,35.25482],[-82.33431,35.25484],[-82.33469,35.25503],[-82.33534,35.2548],[-82.33549,35.25515],[-82.33662,35.25513],[-82.33699,35.25572],[-82.33788,35.25587],[-82.33827,35.25615],[-82.33844,35.25647]]],[[[-82.35042,35.28285],[-82.35103,35.2819],[-82.35121,35.28133],[-82.35114,35.28084],[-82.35077,35.28038],[-82.3502,35.28016],[-82.34907,35.28023],[-82.34814,35.28013],[-82.3458,35.27915],[-82.34494,35.27904],[-82.3437,35.27866],[-82.34272,35.27824],[-82.34217,35.27784],[-82.34205,35.27734],[-82.34317,35.27604],[-82.34353,35.27475],[-82.34333,35.27445],[-82.34297,35.2744],[-82.34129,35.2746],[-82.34048,35.27435],[-82.33991,35.27352],[-82.34032,35.27306],[-82.33976,35.27265],[-82.3393,35.27259],[-82.33932,35.27229],[-82.33969,35.27171],[-82.33969,35.27115],[-82.3407,35.27073],[-82.341,35.27038],[-82.3415,35.27039],[-82.34188,35.27014],[-82.34217,35.27024],[-82.34213,35.27036],[-82.3419,35.27034],[-82.34197,35.27041],[-82.34233,35.27036],[-82.34249,35.26996],[-82.34241,35.2697],[-82.34289,35.26964],[-82.34312,35.26945],[-82.34338,35.26958],[-82.34353,35.26948],[-82.34345,35.26967],[-82.34374,35.26959],[-82.34343,35.27016],[-82.34376,35.27],[-82.34461,35.27073],[-82.34475,35.27099],[-82.3448,35.27137],[-82.34434,35.27169],[-82.34483,35.27228],[-82.34485,35.2728],[-82.34436,35.27329],[-82.34661,35.27353],[-82.34715,35.27374],[-82.34721,35.27339],[-82.34757,35.27304],[-82.34865,35.27305],[-82.34903,35.27327],[-82.34983,35.27336],[-82.35061,35.27407],[-82.35111,35.27398],[-82.35154,35.2741],[-82.3519,35.27397],[-82.35235,35.27413],[-82.35255,35.27445],[-82.35341,35.27487],[-82.354,35.27555],[-82.35433,35.2757],[-82.35431,35.27658],[-82.35478,35.27669],[-82.35514,35.27623],[-82.35599,35.27581],[-82.35609,35.27591],[-82.3564,35.27577],[-82.35652,35.27584],[-82.3566,35.27602],[-82.3565,35.27622],[-82.35664,35.27628],[-82.35708,35.27618],[-82.35674,35.27662],[-82.35678,35.27717],[-82.35699,35.27729],[-82.35668,35.27737],[-82.35654,35.27766],[-82.35625,35.27751],[-82.3562,35.27762],[-82.35581,35.27768],[-82.35587,35.27818],[-82.35543,35.27866],[-82.3552,35.27858],[-82.35545,35.27895],[-82.35541,35.27925],[-82.35557,35.27951],[-82.35547,35.2796],[-82.35629,35.27987],[-82.35653,35.28015],[-82.35599,35.28044],[-82.35561,35.28109],[-82.35682,35.28196],[-82.357,35.28223],[-82.35671,35.2835],[-82.3552,35.28337],[-82.35314,35.28379],[-82.35053,35.28312],[-82.35042,35.28285]]],[[[-82.3128,35.28946],[-82.31254,35.28986],[-82.31203,35.29012],[-82.31085,35.29011],[-82.31046,35.29038],[-82.31034,35.29126],[-82.31088,35.2915],[-82.31036,35.29187],[-82.31028,35.29211],[-82.31109,35.29266],[-82.31081,35.29293],[-82.30994,35.29323],[-82.30903,35.29514],[-82.30949,35.29607],[-82.30968,35.29677],[-82.30961,35.29833],[-82.30985,35.29905],[-82.30927,35.29955],[-82.30912,35.29986],[-82.30899,35.30052],[-82.3092,35.301],[-82.30903,35.30132],[-82.30932,35.30209],[-82.30968,35.30261],[-82.30966,35.30285],[-82.3104,35.30379],[-82.30829,35.30355],[-82.30662,35.30363],[-82.30628,35.30342],[-82.30628,35.30329],[-82.30579,35.30281],[-82.30492,35.30251],[-82.30344,35.30286],[-82.30256,35.30343],[-82.30043,35.30279],[-82.30006,35.30255],[-82.30112,35.30138],[-82.30129,35.29985],[-82.30089,35.29894],[-82.2994,35.29883],[-82.2993,35.29854],[-82.29991,35.29805],[-82.30043,35.29785],[-82.30008,35.2976],[-82.29876,35.29824],[-82.29868,35.29813],[-82.29903,35.29766],[-82.29979,35.29738],[-82.29968,35.29687],[-82.29927,35.29678],[-82.29908,35.29602],[-82.29871,35.29568],[-82.29823,35.29483],[-82.29737,35.29426],[-82.29713,35.29399],[-82.29729,35.29374],[-82.29708,35.29354],[-82.29669,35.29351],[-82.2955,35.29284],[-82.29576,35.29269],[-82.29579,35.29246],[-82.29548,35.29231],[-82.29542,35.29211],[-82.29486,35.29198],[-82.29425,35.29145],[-82.29352,35.29149],[-82.29278,35.29116],[-82.29235,35.29051],[-82.29216,35.28968],[-82.2927,35.28943],[-82.29282,35.28901],[-82.29273,35.28877],[-82.29337,35.28873],[-82.2929,35.28806],[-82.29301,35.28755],[-82.29313,35.28747],[-82.29326,35.28768],[-82.29371,35.28758],[-82.29317,35.28687],[-82.29376,35.28669],[-82.29367,35.28642],[-82.29403,35.28608],[-82.29562,35.28637],[-82.29618,35.28614],[-82.29696,35.28488],[-82.29724,35.28302],[-82.2977,35.28264],[-82.29889,35.28212],[-82.29917,35.28233],[-82.298617,35.283379],[-82.29925,35.28241],[-82.29891,35.282],[-82.29969,35.28131],[-82.30177,35.27999],[-82.30233,35.27896],[-82.30294,35.27942],[-82.30346,35.27952],[-82.30361,35.27928],[-82.30352,35.27911],[-82.30361,35.27897],[-82.30452,35.2791],[-82.30472,35.27897],[-82.30467,35.27858],[-82.30422,35.27829],[-82.30379,35.27757],[-82.30314,35.27732],[-82.30378,35.27729],[-82.30387,35.27713],[-82.30427,35.27702],[-82.30451,35.27664],[-82.3048,35.27653],[-82.30507,35.27606],[-82.30541,35.27582],[-82.30511,35.27523],[-82.30527,35.27454],[-82.30584,35.27435],[-82.30789,35.27415],[-82.30998,35.2729],[-82.31046,35.2724],[-82.31184,35.27185],[-82.31193,35.27167],[-82.31173,35.27141],[-82.31214,35.27129],[-82.31291,35.27024],[-82.3132,35.26952],[-82.31452,35.26857],[-82.31557,35.26806],[-82.31635,35.26718],[-82.31722,35.2669],[-82.3178,35.26689],[-82.31919,35.26632],[-82.32162,35.26569],[-82.32405,35.26585],[-82.32503,35.26657],[-82.32727,35.26661],[-82.32763,35.26672],[-82.32783,35.26709],[-82.32817,35.26708],[-82.32849,35.26735],[-82.32854,35.26814],[-82.32882,35.26855],[-82.3285,35.26901],[-82.32897,35.27031],[-82.32974,35.27076],[-82.33084,35.27069],[-82.33167,35.2709],[-82.33498,35.2723],[-82.33615,35.27209],[-82.33737,35.27239],[-82.34036,35.27489],[-82.34199,35.27536],[-82.34254,35.27543],[-82.34291,35.27528],[-82.34302,35.27582],[-82.34289,35.27601],[-82.3418,35.27712],[-82.34133,35.27717],[-82.34067,35.27828],[-82.33774,35.28024],[-82.33866,35.28041],[-82.33872,35.28002],[-82.33964,35.27912],[-82.34075,35.27893],[-82.34134,35.27859],[-82.34236,35.27855],[-82.34314,35.27889],[-82.34355,35.27934],[-82.34521,35.27927],[-82.34541,35.27984],[-82.34605,35.27969],[-82.34603,35.28033],[-82.34688,35.28048],[-82.3473,35.28013],[-82.35009,35.28042],[-82.35056,35.28058],[-82.35089,35.28105],[-82.35091,35.2813],[-82.35082,35.28167],[-82.35014,35.28258],[-82.35003,35.28314],[-82.35059,35.28344],[-82.35236,35.2839],[-82.35311,35.28396],[-82.35361,35.28394],[-82.35478,35.28355],[-82.35656,35.28374],[-82.35772,35.28341],[-82.35846,35.28337],[-82.35437,35.28581],[-82.3542,35.28629],[-82.35377,35.28665],[-82.35378,35.28724],[-82.35234,35.28823],[-82.35206,35.28849],[-82.35202,35.28884],[-82.35159,35.28889],[-82.35071,35.28958],[-82.3504,35.28999],[-82.34916,35.29055],[-82.34855,35.29108],[-82.34822,35.29118],[-82.34807,35.29156],[-82.34732,35.29191],[-82.34693,35.29153],[-82.34675,35.291],[-82.34659,35.29096],[-82.3459,35.29143],[-82.34529,35.29151],[-82.34458,35.29134],[-82.34416,35.29093],[-82.34344,35.29095],[-82.34317,35.29159],[-82.34325,35.28997],[-82.3429,35.2897],[-82.34208,35.28954],[-82.34146,35.28963],[-82.34029,35.29059],[-82.33848,35.29082],[-82.33727,35.29135],[-82.33605,35.29164],[-82.33508,35.2923],[-82.33434,35.29186],[-82.33387,35.29176],[-82.33218,35.29179],[-82.33105,35.29158],[-82.32908,35.29155],[-82.32834,35.29072],[-82.32784,35.29059],[-82.32737,35.2911],[-82.32716,35.29163],[-82.32698,35.29168],[-82.32675,35.29081],[-82.32826,35.29014],[-82.32862,35.28944],[-82.32909,35.28657],[-82.32823,35.28678],[-82.32659,35.28622],[-82.3258,35.28618],[-82.32409,35.28556],[-82.32235,35.28539],[-82.32126,35.2858],[-82.32068,35.28582],[-82.32046,35.28601],[-82.32072,35.28664],[-82.32043,35.28714],[-82.32002,35.28892],[-82.31971,35.28936],[-82.31917,35.28966],[-82.31838,35.29041],[-82.31803,35.29012],[-82.31804,35.28973],[-82.31922,35.28782],[-82.31925,35.28672],[-82.3189,35.28643],[-82.3179,35.28644],[-82.31792,35.28557],[-82.31679,35.28487],[-82.31709,35.28563],[-82.31692,35.28597],[-82.31622,35.28662],[-82.31644,35.28704],[-82.31514,35.2876],[-82.31241,35.28793],[-82.31285,35.28833],[-82.31295,35.28888],[-82.3128,35.28946]],[[-82.29875,35.28414],[-82.29949,35.28441],[-82.29965,35.28377],[-82.29907,35.28358],[-82.29887,35.28371],[-82.29866,35.283452],[-82.29889,35.28384],[-82.29875,35.28414]]]]},"properties":{"fire_id":"ufid:2025-NCNCS-250019","source_collection":"history-2025","source_objectid":37820,"incident_name":"Black Cove","mapped_acres":3501.5032286923747,"mapped_acres_source":"poly_GISAcres","gis_acres":3501.5032286923747,"auto_acres":3501.490803751383,"reported_acres":3502.0,"percent_contained":100.0,"state":"NC","state_wfigs":"US-NC","county":"Polk","discovery_time_utc":"2025-03-19T19:00:00Z","perimeter_time_utc":null,"perimeter_edit_time_utc":"2025-04-03T21:26:48Z","incident_modified_time_utc":"2025-04-10T20:34:32Z","containment_time_utc":null,"control_time_utc":null,"fire_out_time_utc":null,"fire_cause":"Human","fire_cause_general":null,"map_method":"Auto-generated","source_dataset":"2025 NIFS","unique_fire_identifier":"2025-NCNCS-250019","irwin_id":"{95C3C8D3-BA4E-435B-A996-D469B449DEF5}","global_id":"e61b2f52-bd21-499c-b947-3b2498e42c7d"}},{"type":"Feature","geometry":{"type":"Polygon","coordinates":[[[-82.28498,35.2621],[-82.28485,35.26198],[-82.28558,35.26035],[-82.28652,35.25949],[-82.28728,35.25899],[-82.28796,35.25881],[-82.29009,35.2577],[-82.29152,35.25756],[-82.29262,35.25717],[-82.29378,35.25724],[-82.2944,35.25701],[-82.29521,35.25699],[-82.29541,35.25749],[-82.29509,35.25765],[-82.29525,35.25815],[-82.29509,35.2583],[-82.29518,35.25884],[-82.29458,35.25892],[-82.2945,35.25929],[-82.29432,35.25943],[-82.29458,35.25944],[-82.29463,35.25985],[-82.2941,35.25995],[-82.29405,35.26057],[-82.29297,35.26184],[-82.29283,35.26262],[-82.29286,35.26337],[-82.29308,35.26372],[-82.29363,35.26379],[-82.29402,35.26412],[-82.29453,35.26417],[-82.29559,35.26325],[-82.29783,35.26272],[-82.29864,35.26318],[-82.30101,35.26504],[-82.30178,35.2659],[-82.30111,35.26679],[-82.3011,35.26712],[-82.30148,35.26783],[-82.30253,35.26808],[-82.30335,35.26801],[-82.30417,35.26821],[-82.30442,35.26812],[-82.30507,35.26724],[-82.30632,35.26657],[-82.30755,35.26532],[-82.30789,35.26514],[-82.30797,35.26498],[-82.30778,35.26454],[-82.30798,35.26399],[-82.30908,35.26366],[-82.30957,35.26319],[-82.30982,35.2627],[-82.31042,35.26216],[-82.31202,35.26293],[-82.31316,35.26366],[-82.31264,35.26434],[-82.31254,35.26458],[-82.31261,35.26491],[-82.31235,35.26544],[-82.31207,35.26561],[-82.31207,35.26588],[-82.31225,35.26646],[-82.31292,35.26678],[-82.31286,35.26703],[-82.31318,35.26713],[-82.31408,35.26699],[-82.31422,35.26722],[-82.31412,35.26754],[-82.31393,35.26764],[-82.31366,35.2675],[-82.31349,35.26755],[-82.31283,35.26864],[-82.31216,35.26887],[-82.31204,35.26904],[-82.31223,35.26919],[-82.31211,35.26926],[-82.31163,35.26911],[-82.31148,35.26941],[-82.31128,35.26934],[-82.31091,35.27026],[-82.31037,35.27028],[-82.31025,35.27049],[-82.31004,35.27036],[-82.30957,35.27044],[-82.30944,35.27114],[-82.30968,35.27125],[-82.30897,35.2716],[-82.30821,35.27221],[-82.30807,35.27196],[-82.30752,35.27182],[-82.30648,35.27222],[-82.30604,35.27211],[-82.30539,35.27255],[-82.3045,35.27367],[-82.30446,35.27398],[-82.30342,35.27474],[-82.30297,35.27539],[-82.30214,35.27567],[-82.30207,35.2764],[-82.30169,35.27677],[-82.30156,35.27716],[-82.30109,35.27741],[-82.30005,35.27836],[-82.29943,35.27851],[-82.29913,35.27878],[-82.29926,35.27903],[-82.29872,35.27971],[-82.29772,35.2799],[-82.29738,35.28023],[-82.29606,35.28078],[-82.29454,35.28099],[-82.29422,35.28129],[-82.29377,35.28147],[-82.29276,35.28123],[-82.29237,35.2805],[-82.29153,35.28032],[-82.29166,35.2808],[-82.29138,35.28167],[-82.29088,35.28246],[-82.29161,35.28268],[-82.29152,35.28313],[-82.29111,35.28336],[-82.29106,35.28396],[-82.29081,35.2841],[-82.29141,35.28459],[-82.29129,35.28513],[-82.29081,35.28522],[-82.28998,35.28503],[-82.28885,35.28547],[-82.28838,35.2858],[-82.28796,35.28634],[-82.28725,35.28658],[-82.28719,35.28716],[-82.28695,35.28726],[-82.28666,35.28716],[-82.28612,35.28668],[-82.28618,35.28658],[-82.28594,35.28614],[-82.28488,35.28595],[-82.28416,35.28604],[-82.2845,35.28659],[-82.28475,35.28659],[-82.28491,35.28682],[-82.28472,35.28695],[-82.28483,35.28719],[-82.28521,35.28727],[-82.28622,35.28832],[-82.28604,35.28874],[-82.28563,35.2889],[-82.28578,35.2893],[-82.2854,35.28985],[-82.28535,35.29021],[-82.28494,35.29055],[-82.28399,35.2907],[-82.28359,35.29064],[-82.28199,35.2915],[-82.2811,35.29232],[-82.28022,35.29384],[-82.28031,35.29573],[-82.28125,35.29757],[-82.28146,35.29836],[-82.28131,35.2991],[-82.28166,35.29919],[-82.2818,35.29942],[-82.28171,35.29968],[-82.2811,35.29979],[-82.28093,35.30024],[-82.28103,35.30041],[-82.27963,35.30068],[-82.27932,35.301],[-82.27897,35.3011],[-82.27861,35.301],[-82.27847,35.30079],[-82.27769,35.30118],[-82.27708,35.30169],[-82.27724,35.30216],[-82.27706,35.30258],[-82.27646,35.30321],[-82.27605,35.30333],[-82.27577,35.30363],[-82.27558,35.30412],[-82.27586,35.3043],[-82.27545,35.30521],[-82.27476,35.30607],[-82.27407,35.30615],[-82.2727,35.30574],[-82.27252,35.3048],[-82.27185,35.30494],[-82.27182,35.30476],[-82.27143,35.30468],[-82.27125,35.30449],[-82.27125,35.30429],[-82.27162,35.30393],[-82.27213,35.30369],[-82.27197,35.30332],[-82.27083,35.30319],[-82.26969,35.30382],[-82.26795,35.3022],[-82.26706,35.30172],[-82.26586,35.30141],[-82.26581,35.30154],[-82.2644,35.30171],[-82.26352,35.30204],[-82.26267,35.30282],[-82.2622,35.30379],[-82.2609,35.30572],[-82.2604,35.30692],[-82.26084,35.30895],[-82.2593,35.31231],[-82.25845,35.31374],[-82.25816,35.31416],[-82.25619,35.31542],[-82.25536,35.31578],[-82.25428,35.31602],[-82.25281,35.31687],[-82.25089,35.31627],[-82.24978,35.31576],[-82.24904,35.31563],[-82.24775,35.31494],[-82.24428,35.31478],[-82.2431,35.31488],[-82.24121,35.31424],[-82.24048,35.31416],[-82.23994,35.31388],[-82.2399,35.31373],[-82.2401,35.31367],[-82.23991,35.31324],[-82.24002,35.31304],[-82.23983,35.31267],[-82.23964,35.31261],[-82.23951,35.31185],[-82.2397,35.31171],[-82.24003,35.31175],[-82.24042,35.31148],[-82.24052,35.31091],[-82.24111,35.3101],[-82.24098,35.30945],[-82.24059,35.3089],[-82.24118,35.30834],[-82.24186,35.30718],[-82.24181,35.30701],[-82.24123,35.30679],[-82.24071,35.30681],[-82.24063,35.30673],[-82.24077,35.3065],[-82.24047,35.3064],[-82.23919,35.30627],[-82.23887,35.30596],[-82.23765,35.30575],[-82.23756,35.30542],[-82.23727,35.30519],[-82.2374,35.30409],[-82.23727,35.30379],[-82.23694,35.30374],[-82.23669,35.30452],[-82.23638,35.30501],[-82.23539,35.3047],[-82.23387,35.30456],[-82.23341,35.30428],[-82.23342,35.30404],[-82.23372,35.3037],[-82.23368,35.30306],[-82.23379,35.30284],[-82.23362,35.3025],[-82.23254,35.30172],[-82.23225,35.30127],[-82.23106,35.301],[-82.2305,35.30073],[-82.22983,35.29999],[-82.22936,35.29967],[-82.22975,35.29899],[-82.22954,35.29871],[-82.23048,35.29741],[-82.23164,35.29641],[-82.23254,35.29647],[-82.23336,35.29631],[-82.23391,35.29597],[-82.2342,35.29513],[-82.23496,35.29483],[-82.23515,35.29432],[-82.23642,35.29343],[-82.23873,35.29317],[-82.23948,35.29293],[-82.24027,35.29226],[-82.24101,35.29058],[-82.24166,35.28947],[-82.24292,35.2889],[-82.24303,35.28861],[-82.24341,35.28834],[-82.24376,35.28847],[-82.24477,35.28793],[-82.2453,35.28843],[-82.24591,35.28848],[-82.24633,35.28887],[-82.24712,35.28929],[-82.24768,35.29004],[-82.2487,35.29066],[-82.24976,35.29083],[-82.25023,35.29112],[-82.25016,35.29142],[-82.25059,35.29193],[-82.24981,35.29232],[-82.24964,35.29256],[-82.24996,35.293],[-82.24952,35.29389],[-82.24982,35.29412],[-82.25102,35.29455],[-82.25157,35.29374],[-82.25186,35.29378],[-82.25248,35.29419],[-82.25293,35.29426],[-82.25403,35.29415],[-82.2555,35.29324],[-82.25648,35.2933],[-82.25708,35.29385],[-82.25804,35.29421],[-82.25842,35.29422],[-82.25895,35.29355],[-82.25939,35.2933],[-82.25948,35.29307],[-82.26003,35.29302],[-82.2604,35.2924],[-82.2609,35.2921],[-82.26156,35.29193],[-82.26368,35.29024],[-82.26474,35.28997],[-82.26514,35.29006],[-82.26538,35.28937],[-82.26535,35.28904],[-82.2656,35.28869],[-82.26489,35.28845],[-82.2641,35.28762],[-82.2638,35.28753],[-82.26349,35.2868],[-82.26289,35.2862],[-82.26227,35.28588],[-82.26218,35.28569],[-82.26234,35.28458],[-82.26255,35.28446],[-82.26249,35.28434],[-82.26281,35.28377],[-82.2633,35.28341],[-82.26506,35.28258],[-82.26581,35.28238],[-82.26626,35.28245],[-82.2665,35.28289],[-82.26704,35.28322],[-82.26713,35.28349],[-82.2678,35.28348],[-82.26803,35.28365],[-82.26829,35.2835],[-82.26886,35.28383],[-82.27062,35.28409],[-82.27116,35.28362],[-82.27152,35.28356],[-82.27439,35.28352],[-82.27438,35.28237],[-82.27285,35.2813],[-82.27205,35.28021],[-82.27198,35.2799],[-82.27158,35.27966],[-82.2712,35.27963],[-82.27095,35.27907],[-82.27161,35.2786],[-82.27163,35.27833],[-82.27186,35.27804],[-82.27185,35.27775],[-82.27215,35.27756],[-82.27207,35.27732],[-82.27222,35.27719],[-82.2731,35.27732],[-82.2732,35.27739],[-82.273,35.27761],[-82.2731,35.27772],[-82.27301,35.27797],[-82.2735,35.27797],[-82.27358,35.27727],[-82.27404,35.27726],[-82.27403,35.27705],[-82.2744,35.27697],[-82.27408,35.2768],[-82.27403,35.27648],[-82.27419,35.27626],[-82.27394,35.27581],[-82.2743,35.27572],[-82.27448,35.27545],[-82.27479,35.27537],[-82.27584,35.27423],[-82.2754,35.27408],[-82.27505,35.27373],[-82.27465,35.27384],[-82.27424,35.27422],[-82.27363,35.27447],[-82.2729,35.27453],[-82.27296,35.27442],[-82.27281,35.27425],[-82.27253,35.27433],[-82.27248,35.27404],[-82.27233,35.27396],[-82.27255,35.27384],[-82.27248,35.27299],[-82.27259,35.27255],[-82.272,35.27226],[-82.27169,35.27225],[-82.27139,35.27244],[-82.27137,35.2722],[-82.27118,35.27208],[-82.27151,35.27184],[-82.27144,35.27168],[-82.27157,35.27155],[-82.27148,35.27151],[-82.27166,35.27139],[-82.27154,35.27114],[-82.27234,35.27084],[-82.27283,35.27094],[-82.27402,35.27079],[-82.2751,35.27083],[-82.27516,35.27061],[-82.27566,35.27044],[-82.27586,35.27009],[-82.27623,35.27032],[-82.27652,35.27016],[-82.2764,35.26966],[-82.27688,35.26954],[-82.27698,35.26947],[-82.27682,35.26937],[-82.27708,35.26919],[-82.27752,35.26914],[-82.27752,35.26939],[-82.278,35.26941],[-82.27782,35.26917],[-82.27782,35.26888],[-82.27754,35.26871],[-82.27773,35.26817],[-82.27811,35.2679],[-82.27806,35.26797],[-82.27837,35.26806],[-82.27878,35.26799],[-82.27889,35.26817],[-82.27916,35.26812],[-82.279,35.26782],[-82.2787,35.26794],[-82.27833,35.2679],[-82.27805,35.26763],[-82.27875,35.26702],[-82.27887,35.26724],[-82.27917,35.26706],[-82.27911,35.26697],[-82.27956,35.26707],[-82.27945,35.26666],[-82.28006,35.26614],[-82.28035,35.26558],[-82.28204,35.26494],[-82.28281,35.26441],[-82.28337,35.26451],[-82.28334,35.26479],[-82.2836,35.26483],[-82.28381,35.26453],[-82.284,35.26476],[-82.28442,35.26476],[-82.28423,35.26448],[-82.28474,35.26431],[-82.28514,35.26335],[-82.2847,35.26281],[-82.28498,35.2621]]]},"properties":{"fire_id":"ufid:2025-NCNCS-250021","source_collection":"history-2025","source_objectid":37821,"incident_name":"Deep Woods","mapped_acres":3975.453967698753,"mapped_acres_source":"poly_GISAcres","gis_acres":3975.453967698753,"auto_acres":3975.43986147229,"reported_acres":3969.0,"percent_contained":100.0,"state":"NC","state_wfigs":"US-NC","county":"Polk","discovery_time_utc":"2025-03-20T00:00:00Z","perimeter_time_utc":"2025-03-20T22:39:59Z","perimeter_edit_time_utc":"2025-04-03T21:26:48Z","incident_modified_time_utc":"2025-04-10T20:48:41Z","containment_time_utc":null,"control_time_utc":null,"fire_out_time_utc":null,"fire_cause":"Undetermined","fire_cause_general":null,"map_method":"Auto-generated","source_dataset":"2025 NIFS","unique_fire_identifier":"2025-NCNCS-250021","irwin_id":"{3CA6EA30-401D-4FAC-B023-C3FBA0779B9D}","global_id":"e36c4309-5fe9-4d6f-89d0-737f87e19f31"}},{"type":"Feature","geometry":{"type":"Polygon","coordinates":[[[-82.22869,35.34638],[-82.22927,35.34579],[-82.22956,35.34514],[-82.23051,35.34469],[-82.23113,35.3442],[-82.2313,35.34391],[-82.23186,35.34389],[-82.23335,35.34467],[-82.23368,35.34496],[-82.23352,35.34536],[-82.2331,35.34561],[-82.23293,35.34614],[-82.23322,35.34621],[-82.23349,35.34662],[-82.23452,35.34728],[-82.23451,35.34747],[-82.23353,35.34792],[-82.23308,35.34854],[-82.23287,35.3486],[-82.23289,35.34909],[-82.23239,35.34971],[-82.23213,35.34981],[-82.23178,35.34971],[-82.23145,35.35031],[-82.23022,35.35022],[-82.22894,35.34985],[-82.2289,35.35176],[-82.22813,35.35178],[-82.2275,35.3513],[-82.22748,35.35103],[-82.22763,35.35075],[-82.22718,35.35037],[-82.22648,35.35022],[-82.22494,35.34932],[-82.22365,35.34906],[-82.22259,35.34837],[-82.22274,35.3476],[-82.2232,35.34664],[-82.22366,35.34614],[-82.22366,35.34591],[-82.22278,35.34507],[-82.22202,35.34484],[-82.22131,35.34213],[-82.22163,35.34178],[-82.22192,35.34096],[-82.22291,35.3401],[-82.2236,35.33898],[-82.22349,35.33846],[-82.22261,35.33768],[-82.22261,35.33742],[-82.2228,35.33722],[-82.22319,35.33715],[-82.22375,35.3373],[-82.22509,35.33856],[-82.22564,35.33999],[-82.22555,35.34078],[-82.22577,35.34141],[-82.22635,35.3419],[-82.22657,35.34227],[-82.22707,35.34262],[-82.22706,35.34293],[-82.22662,35.3435],[-82.22712,35.34426],[-82.22689,35.34494],[-82.2277,35.34555],[-82.22809,35.34624],[-82.22869,35.34638]]]},"properties":{"fire_id":"ufid:2025-NCNCS-250024","source_collection":"history-2025","source_objectid":37841,"incident_name":"Fish Hook","mapped_acres":199.1736634866571,"mapped_acres_source":"poly_GISAcres","gis_acres":199.1736634866571,"auto_acres":199.17295655942232,"reported_acres":199.0,"percent_contained":100.0,"state":"NC","state_wfigs":"US-NC","county":"Polk","discovery_time_utc":"2025-03-20T21:00:00Z","perimeter_time_utc":"2025-03-21T20:22:06Z","perimeter_edit_time_utc":"2025-04-03T21:26:48Z","incident_modified_time_utc":"2025-04-03T19:58:28Z","containment_time_utc":null,"control_time_utc":null,"fire_out_time_utc":null,"fire_cause":"Human","fire_cause_general":null,"map_method":"Auto-generated","source_dataset":"2025 NIFS","unique_fire_identifier":"2025-NCNCS-250024","irwin_id":"{46761E5F-0271-4EDF-82F1-074D7AFF9C35}","global_id":"a483ef51-ec66-42f5-b8f5-b488053c4681"}},{"type":"Feature","geometry":{"type":"Polygon","coordinates":[[[-80.0703,35.39479],[-80.07162,35.3958],[-80.07168,35.39601],[-80.07158,35.39615],[-80.07122,35.3961],[-80.07103,35.3962],[-80.07099,35.39642],[-80.07127,35.39674],[-80.07114,35.39694],[-80.07131,35.39708],[-80.07106,35.39762],[-80.07169,35.39845],[-80.07235,35.399],[-80.07244,35.39941],[-80.07263,35.39945],[-80.0725,35.39975],[-80.07268,35.4007],[-80.07223,35.40095],[-80.07186,35.40098],[-80.07184,35.40118],[-80.07166,35.40128],[-80.07137,35.40109],[-80.0709,35.40105],[-80.07083,35.40204],[-80.07022,35.40286],[-80.07014,35.40367],[-80.06998,35.40372],[-80.06978,35.40422],[-80.06967,35.40535],[-80.06942,35.40541],[-80.06907,35.40517],[-80.06878,35.40475],[-80.06844,35.40473],[-80.06821,35.40494],[-80.06816,35.40531],[-80.06761,35.40528],[-80.06735,35.40555],[-80.06723,35.40586],[-80.06752,35.40641],[-80.06734,35.4066],[-80.06719,35.40662],[-80.0665,35.4059],[-80.06552,35.40576],[-80.06534,35.40543],[-80.06487,35.40566],[-80.06445,35.40617],[-80.06409,35.40632],[-80.06407,35.40655],[-80.06449,35.40719],[-80.06404,35.40751],[-80.06275,35.40714],[-80.06197,35.40711],[-80.0612,35.40663],[-80.0607,35.40658],[-80.05969,35.40678],[-80.05838,35.40632],[-80.05703,35.40639],[-80.05524,35.40673],[-80.05367,35.40589],[-80.05255,35.40573],[-80.05192,35.40488],[-80.05187,35.40421],[-80.05228,35.40351],[-80.05336,35.40273],[-80.05429,35.40237],[-80.05464,35.40195],[-80.05482,35.40127],[-80.05466,35.40066],[-80.05469,35.40022],[-80.0551,35.39943],[-80.05614,35.39798],[-80.05581,35.39692],[-80.05583,35.39655],[-80.05644,35.39602],[-80.05715,35.3958],[-80.05922,35.39592],[-80.05981,35.39623],[-80.06015,35.39538],[-80.06018,35.39448],[-80.05985,35.3939],[-80.06037,35.39363],[-80.06099,35.39297],[-80.06146,35.3928],[-80.06162,35.39234],[-80.06188,35.3922],[-80.06212,35.39153],[-80.06252,35.39148],[-80.06292,35.39176],[-80.06378,35.39182],[-80.06436,35.39229],[-80.06535,35.39232],[-80.0658,35.39253],[-80.06691,35.39319],[-80.06716,35.39362],[-80.06818,35.39463],[-80.0688,35.39494],[-80.06992,35.3959],[-80.07006,35.39571],[-80.06966,35.39508],[-80.07023,35.39502],[-80.0703,35.39479]]]},"properties":{"fire_id":"ufid:2025-NCNCF-250070","source_collection":"history-2025","source_objectid":37913,"incident_name":"Falls Dam","mapped_acres":504.7565,"mapped_acres_source":"poly_GISAcres","gis_acres":504.7565,"auto_acres":504.75470399368976,"reported_acres":505.0,"percent_contained":null,"state":"NC","state_wfigs":"US-NC","county":"Montgomery","discovery_time_utc":"2025-03-01T20:43:53Z","perimeter_time_utc":"2025-03-24T14:42:41Z","perimeter_edit_time_utc":null,"incident_modified_time_utc":"2025-03-17T13:40:59Z","containment_time_utc":"2025-03-11T20:45:00Z","control_time_utc":"2025-03-15T19:25:00Z","fire_out_time_utc":"2025-03-17T11:00:00Z","fire_cause":"Human","fire_cause_general":"Recreation and ceremony","map_method":"Digitized-Other","source_dataset":"FFP","unique_fire_identifier":"2025-NCNCF-250070","irwin_id":"{D7924AB7-96EB-477F-A8C1-560C725FFE09}","global_id":"f9117fdb-5a19-4c4d-842d-c91c14bbec90"}},{"type":"Feature","geometry":{"type":"Polygon","coordinates":[[[-83.39902,35.37958],[-83.39775,35.37958],[-83.39587,35.37833],[-83.39687,35.37702],[-83.39852,35.37521],[-83.39968,35.37287],[-83.39968,35.37214],[-83.40019,35.37137],[-83.39998,35.37085],[-83.39876,35.36981],[-83.39844,35.36937],[-83.39864,35.36813],[-83.39976,35.36674],[-83.39995,35.36584],[-83.3995,35.36545],[-83.3989,35.36529],[-83.39834,35.36493],[-83.39783,35.36433],[-83.3981,35.36384],[-83.39879,35.36358],[-83.39903,35.36242],[-83.39895,35.36188],[-83.39842,35.36115],[-83.39819,35.36057],[-83.39843,35.36012],[-83.39982,35.35923],[-83.40158,35.35889],[-83.4024,35.35889],[-83.40293,35.35832],[-83.40344,35.35825],[-83.40426,35.35856],[-83.40569,35.35761],[-83.4059,35.35766],[-83.40699,35.35643],[-83.40894,35.3563],[-83.41129,35.35672],[-83.41167,35.35689],[-83.41239,35.35623],[-83.41382,35.35653],[-83.41476,35.35695],[-83.41497,35.35742],[-83.41275,35.3579],[-83.41268,35.35801],[-83.413,35.35875],[-83.41297,35.35967],[-83.41439,35.35969],[-83.4154,35.35947],[-83.41576,35.35917],[-83.41725,35.35882],[-83.41774,35.35894],[-83.41987,35.35859],[-83.42148,35.36287],[-83.4219,35.36333],[-83.42205,35.36402],[-83.4225,35.36373],[-83.42266,35.36338],[-83.42334,35.36307],[-83.42354,35.36486],[-83.42339,35.36783],[-83.42355,35.36928],[-83.42331,35.37114],[-83.42345,35.37198],[-83.42339,35.37351],[-83.42349,35.37445],[-83.42384,35.37502],[-83.42443,35.37561],[-83.42672,35.37667],[-83.42708,35.37732],[-83.42727,35.37963],[-83.42826,35.38096],[-83.42856,35.3811],[-83.42911,35.38191],[-83.42935,35.38252],[-83.42868,35.38209],[-83.42755,35.38232],[-83.42723,35.38211],[-83.42727,35.38191],[-83.42719,35.38207],[-83.42685,35.38217],[-83.42716,35.38253],[-83.42707,35.38275],[-83.42669,35.38274],[-83.42615,35.38326],[-83.42591,35.38319],[-83.42575,35.38284],[-83.42555,35.38283],[-83.42559,35.38294],[-83.42546,35.38299],[-83.42619,35.38435],[-83.4261,35.38484],[-83.42478,35.3848],[-83.42405,35.38444],[-83.423,35.38477],[-83.4225,35.38431],[-83.42056,35.3846],[-83.41954,35.38514],[-83.41829,35.38479],[-83.41813,35.38464],[-83.41802,35.38404],[-83.41821,35.38269],[-83.418,35.38228],[-83.41805,35.3819],[-83.41762,35.38179],[-83.41719,35.38147],[-83.41733,35.38124],[-83.41709,35.38069],[-83.41763,35.38075],[-83.41771,35.38051],[-83.41742,35.38001],[-83.41727,35.38002],[-83.41711,35.37967],[-83.41671,35.37936],[-83.41718,35.37928],[-83.41748,35.37864],[-83.41791,35.37851],[-83.41722,35.37744],[-83.41723,35.37683],[-83.41619,35.37726],[-83.41618,35.37769],[-83.41628,35.37771],[-83.41618,35.37809],[-83.41635,35.3784],[-83.41636,35.3788],[-83.41631,35.37901],[-83.41594,35.37914],[-83.41601,35.37991],[-83.41591,35.38043],[-83.41556,35.38061],[-83.41498,35.38065],[-83.41447,35.38102],[-83.4144,35.38141],[-83.41299,35.3826],[-83.41273,35.38306],[-83.41172,35.38395],[-83.41161,35.38421],[-83.41041,35.38501],[-83.40951,35.38539],[-83.40912,35.38537],[-83.40906,35.38518],[-83.40826,35.38519],[-83.4077,35.38495],[-83.40799,35.38502],[-83.40777,35.38491],[-83.40748,35.38442],[-83.40685,35.38403],[-83.4065,35.38313],[-83.40625,35.38282],[-83.40645,35.38227],[-83.40645,35.38128],[-83.40583,35.38053],[-83.40568,35.38007],[-83.40555,35.38005],[-83.40473,35.38136],[-83.40372,35.38175],[-83.40354,35.38231],[-83.40299,35.38275],[-83.40194,35.38311],[-83.40139,35.38537],[-83.40073,35.38558],[-83.40061,35.3854],[-83.40073,35.38539],[-83.40076,35.38516],[-83.40052,35.38489],[-83.4007,35.38493],[-83.40069,35.38478],[-83.40102,35.38464],[-83.40119,35.38486],[-83.40122,35.38443],[-83.40166,35.38374],[-83.40126,35.3834],[-83.4012,35.38319],[-83.40132,35.38316],[-83.40125,35.38305],[-83.40136,35.38294],[-83.40118,35.38286],[-83.40127,35.38279],[-83.40116,35.38268],[-83.40128,35.3821],[-83.40138,35.38211],[-83.4013,35.38199],[-83.40147,35.38187],[-83.40144,35.38168],[-83.40169,35.38157],[-83.40141,35.38152],[-83.401,35.38174],[-83.40098,35.38191],[-83.40094,35.38166],[-83.40064,35.38199],[-83.40065,35.38146],[-83.40048,35.38132],[-83.40032,35.38137],[-83.40051,35.38119],[-83.40022,35.38113],[-83.40003,35.38067],[-83.40011,35.38022],[-83.39902,35.37958]]]},"properties":{"fire_id":"ufid:2025-NCNCS-250034","source_collection":"history-2025","source_objectid":38037,"incident_name":"ALARKA #5","mapped_acres":1574.6339763265971,"mapped_acres_source":"poly_GISAcres","gis_acres":1574.6339763265971,"auto_acres":1574.6346804053558,"reported_acres":1575.0,"percent_contained":100.0,"state":"NC","state_wfigs":"US-NC","county":"Swain","discovery_time_utc":"2025-03-25T19:00:00Z","perimeter_time_utc":"2025-03-26T19:39:31Z","perimeter_edit_time_utc":"2025-04-01T18:37:36Z","incident_modified_time_utc":"2025-04-08T21:41:14Z","containment_time_utc":null,"control_time_utc":null,"fire_out_time_utc":null,"fire_cause":"Undetermined","fire_cause_general":null,"map_method":"Mixed Methods","source_dataset":"2025 NIFS","unique_fire_identifier":"2025-NCNCS-250034","irwin_id":"{C54B0F23-E5E8-484D-8EAB-704AF2FBF666}","global_id":"e9b7a86a-404a-40cb-aac5-59357aae0290"}},{"type":"Feature","geometry":{"type":"Polygon","coordinates":[[[-80.02692,36.51615],[-80.02644,36.51576],[-80.02645,36.51553],[-80.0257,36.51535],[-80.02565,36.51493],[-80.02577,36.51489],[-80.02562,36.51448],[-80.02507,36.51448],[-80.02491,36.51436],[-80.02485,36.51388],[-80.02437,36.51374],[-80.02422,36.51352],[-80.02275,36.5126],[-80.02298,36.51133],[-80.02409,36.51107],[-80.02459,36.5107],[-80.02506,36.50977],[-80.02635,36.50807],[-80.02691,36.50783],[-80.02769,36.50777],[-80.02897,36.507],[-80.03019,36.50688],[-80.03078,36.5062],[-80.03145,36.50701],[-80.03233,36.50746],[-80.03281,36.50738],[-80.03283,36.50688],[-80.03318,36.5066],[-80.03342,36.50608],[-80.03423,36.50644],[-80.03447,36.50673],[-80.03542,36.50661],[-80.03585,36.50689],[-80.03609,36.50729],[-80.03623,36.50832],[-80.0367,36.50957],[-80.03653,36.51027],[-80.03593,36.51075],[-80.0359,36.5109],[-80.03608,36.51122],[-80.03698,36.51097],[-80.03728,36.51112],[-80.03741,36.51182],[-80.0367,36.51209],[-80.03641,36.51274],[-80.03683,36.51282],[-80.03722,36.51244],[-80.03749,36.51253],[-80.03757,36.51296],[-80.03746,36.51316],[-80.03759,36.51339],[-80.03742,36.51381],[-80.03757,36.514],[-80.03687,36.514],[-80.03663,36.51439],[-80.03579,36.51482],[-80.03578,36.51512],[-80.03561,36.51536],[-80.03498,36.51564],[-80.0347,36.51646],[-80.03517,36.51669],[-80.03545,36.51763],[-80.03478,36.51795],[-80.03432,36.518],[-80.03412,36.51787],[-80.03402,36.51759],[-80.03342,36.51748],[-80.03309,36.51689],[-80.03285,36.51676],[-80.03237,36.51689],[-80.03135,36.51791],[-80.03111,36.51793],[-80.03051,36.51751],[-80.03021,36.51647],[-80.02977,36.51641],[-80.02939,36.51587],[-80.02888,36.51581],[-80.02882,36.51597],[-80.02836,36.51596],[-80.02805,36.51566],[-80.02772,36.51561],[-80.02708,36.51577],[-80.02692,36.51615]]]},"properties":{"fire_id":"ufid:2025-NCNCS-250027","source_collection":"history-2025","source_objectid":38070,"incident_name":"Goinstown Road","mapped_acres":277.0,"mapped_acres_source":"poly_GISAcres","gis_acres":277.0,"auto_acres":274.0585758331835,"reported_acres":277.0,"percent_contained":100.0,"state":"NC","state_wfigs":"US-NC","county":"Rockingham","discovery_time_utc":"2025-03-22T18:30:00Z","perimeter_time_utc":"2025-03-27T16:19:54Z","perimeter_edit_time_utc":"2025-03-27T20:20:41Z","incident_modified_time_utc":"2025-03-27T16:19:27Z","containment_time_utc":null,"control_time_utc":null,"fire_out_time_utc":null,"fire_cause":"Undetermined","fire_cause_general":null,"map_method":"GPS-Walked/Driven","source_dataset":"2025 NIFS","unique_fire_identifier":"2025-NCNCS-250027","irwin_id":"{EBD5B9AA-B362-43AB-8E36-CFB51E0CCAFA}","global_id":"56972585-e0df-4aae-81db-45fcf172db0b"}},{"type":"Feature","geometry":{"type":"MultiPolygon","coordinates":[[[[-82.81951,35.42286],[-82.81918,35.42288],[-82.8193,35.42251],[-82.8191,35.42232],[-82.81822,35.42254],[-82.81742,35.42175],[-82.81738,35.42113],[-82.8187,35.42072],[-82.81767,35.41964],[-82.81545,35.41992],[-82.81508,35.42006],[-82.8146,35.42051],[-82.81349,35.41972],[-82.81394,35.41894],[-82.81305,35.41911],[-82.8125,35.41858],[-82.81218,35.41765],[-82.81241,35.41725],[-82.81405,35.41673],[-82.81442,35.41648],[-82.8152,35.41689],[-82.81549,35.41684],[-82.81589,35.41635],[-82.81571,35.41617],[-82.81562,35.41581],[-82.81578,35.41548],[-82.81503,35.41545],[-82.81523,35.41524],[-82.81488,35.4148],[-82.8149,35.41452],[-82.81506,35.41436],[-82.81472,35.41435],[-82.81461,35.41419],[-82.81472,35.41402],[-82.81438,35.41387],[-82.81441,35.41357],[-82.81414,35.41303],[-82.81372,35.41299],[-82.81382,35.41344],[-82.81373,35.41349],[-82.81293,35.41303],[-82.813,35.41289],[-82.81289,35.41271],[-82.81242,35.41251],[-82.812,35.41253],[-82.81221,35.41208],[-82.81209,35.41205],[-82.81233,35.41173],[-82.81225,35.41106],[-82.81267,35.41061],[-82.81357,35.41009],[-82.81477,35.40998],[-82.81593,35.41014],[-82.81618,35.41006],[-82.81651,35.41025],[-82.81672,35.41019],[-82.81676,35.41001],[-82.81643,35.40997],[-82.81632,35.40984],[-82.81615,35.40997],[-82.81581,35.40989],[-82.81482,35.40928],[-82.81487,35.40872],[-82.81509,35.40864],[-82.81479,35.40836],[-82.81472,35.40857],[-82.81439,35.40854],[-82.81438,35.40809],[-82.81455,35.40782],[-82.81407,35.40775],[-82.81379,35.40745],[-82.8135,35.40754],[-82.8134,35.40567],[-82.81371,35.40562],[-82.81373,35.4055],[-82.81331,35.40495],[-82.81258,35.40478],[-82.81084,35.40348],[-82.81051,35.40309],[-82.81034,35.4025],[-82.81054,35.40181],[-82.81093,35.40128],[-82.81196,35.40232],[-82.81322,35.40301],[-82.8141,35.40296],[-82.81479,35.40274],[-82.81502,35.40288],[-82.81524,35.40274],[-82.81629,35.40296],[-82.81666,35.40258],[-82.81664,35.40247],[-82.81695,35.40268],[-82.81772,35.4028],[-82.81885,35.40241],[-82.81954,35.40231],[-82.81992,35.40206],[-82.81985,35.40199],[-82.82056,35.40173],[-82.8207,35.40157],[-82.82017,35.40132],[-82.82084,35.40084],[-82.82097,35.40054],[-82.82034,35.40036],[-82.82033,35.40016],[-82.82111,35.39964],[-82.82172,35.39943],[-82.8232,35.39978],[-82.82499,35.39929],[-82.82545,35.39947],[-82.82597,35.39946],[-82.82792,35.39842],[-82.82899,35.39757],[-82.8302,35.39711],[-82.83121,35.39633],[-82.8317,35.39611],[-82.83289,35.39583],[-82.83459,35.39656],[-82.83893,35.39734],[-82.83964,35.39703],[-82.84026,35.39636],[-82.84077,35.39619],[-82.84152,35.39653],[-82.84181,35.39685],[-82.84185,35.39714],[-82.84194,35.3971],[-82.84276,35.39791],[-82.84271,35.398],[-82.84287,35.39792],[-82.84289,35.39811],[-82.84307,35.39817],[-82.8431,35.39858],[-82.84354,35.39858],[-82.84356,35.39878],[-82.84339,35.39885],[-82.84335,35.39909],[-82.84348,35.39921],[-82.84339,35.39928],[-82.84351,35.39962],[-82.84282,35.40016],[-82.84285,35.40045],[-82.84269,35.40045],[-82.84289,35.40062],[-82.84295,35.40124],[-82.84316,35.40142],[-82.8431,35.40151],[-82.84331,35.40167],[-82.84342,35.402],[-82.84367,35.40212],[-82.84367,35.4023],[-82.84404,35.40239],[-82.84389,35.40248],[-82.84433,35.40279],[-82.84414,35.40283],[-82.84415,35.40294],[-82.8444,35.40297],[-82.84493,35.40334],[-82.84508,35.40298],[-82.84543,35.40292],[-82.84562,35.4026],[-82.84606,35.40243],[-82.84632,35.40247],[-82.84649,35.40223],[-82.84674,35.40229],[-82.8467,35.40213],[-82.84628,35.40195],[-82.84595,35.402],[-82.8454,35.40172],[-82.84522,35.40142],[-82.84493,35.40132],[-82.84499,35.40116],[-82.84559,35.40098],[-82.84708,35.40001],[-82.84851,35.40122],[-82.8498,35.40266],[-82.85174,35.40595],[-82.85228,35.40662],[-82.85287,35.4069],[-82.8536,35.40685],[-82.85398,35.40656],[-82.85409,35.40607],[-82.85388,35.40562],[-82.85165,35.40343],[-82.85114,35.40275],[-82.85099,35.4022],[-82.85114,35.40165],[-82.85181,35.40121],[-82.85261,35.40116],[-82.85358,35.40156],[-82.85418,35.40212],[-82.85533,35.40355],[-82.85603,35.40498],[-82.85631,35.40638],[-82.85655,35.40691],[-82.85699,35.40712],[-82.85763,35.40706],[-82.85808,35.40678],[-82.85836,35.40633],[-82.85851,35.40484],[-82.85831,35.40381],[-82.85754,35.40195],[-82.85588,35.39961],[-82.85585,35.39784],[-82.85644,35.39753],[-82.85699,35.39755],[-82.85707,35.39728],[-82.85756,35.39731],[-82.85786,35.39712],[-82.85847,35.39738],[-82.85818,35.39786],[-82.85852,35.39806],[-82.85903,35.39864],[-82.86027,35.40034],[-82.861,35.40068],[-82.86188,35.40045],[-82.8632,35.3995],[-82.86331,35.39916],[-82.86372,35.39896],[-82.86457,35.39875],[-82.86524,35.39882],[-82.86454,35.39933],[-82.86468,35.39945],[-82.86444,35.3999],[-82.86494,35.40085],[-82.86459,35.4012],[-82.86426,35.40133],[-82.86401,35.40204],[-82.86387,35.40209],[-82.86215,35.40453],[-82.86177,35.40533],[-82.86155,35.40631],[-82.86128,35.40943],[-82.86191,35.41004],[-82.86302,35.41021],[-82.86812,35.41013],[-82.86884,35.41036],[-82.86897,35.41095],[-82.86837,35.41146],[-82.8673,35.4117],[-82.8662,35.41173],[-82.86245,35.41156],[-82.85804,35.41056],[-82.85287,35.40989],[-82.85207,35.40994],[-82.84948,35.41062],[-82.84894,35.4109],[-82.84793,35.41175],[-82.84713,35.4121],[-82.84595,35.41214],[-82.84497,35.41152],[-82.84446,35.41131],[-82.84403,35.4113],[-82.84347,35.41161],[-82.84317,35.41266],[-82.84269,35.41307],[-82.84052,35.41306],[-82.83806,35.41243],[-82.83712,35.41254],[-82.83589,35.4133],[-82.83531,35.41343],[-82.83431,35.41412],[-82.83352,35.41387],[-82.833,35.41352],[-82.83293,35.41416],[-82.83222,35.41513],[-82.83089,35.41582],[-82.82892,35.41582],[-82.82831,35.41556],[-82.82759,35.41586],[-82.82642,35.41684],[-82.82595,35.41821],[-82.82599,35.4187],[-82.82552,35.41961],[-82.82559,35.42023],[-82.82466,35.42164],[-82.82387,35.42201],[-82.8232,35.42195],[-82.82254,35.42214],[-82.82126,35.42272],[-82.82079,35.42281],[-82.82054,35.42254],[-82.82028,35.42253],[-82.82002,35.42295],[-82.81974,35.423],[-82.81951,35.42286]]],[[[-82.86305,35.35831],[-82.86354,35.35717],[-82.86364,35.35636],[-82.86351,35.35583],[-82.86422,35.3556],[-82.8647,35.35585],[-82.8652,35.35578],[-82.86504,35.35824],[-82.86387,35.35816],[-82.86275,35.35976],[-82.86245,35.35931],[-82.86305,35.35831]]],[[[-82.86488,35.37133],[-82.86519,35.37108],[-82.86512,35.37091],[-82.86547,35.37099],[-82.86541,35.37121],[-82.86488,35.37133]]],[[[-82.86497,35.39774],[-82.86469,35.39753],[-82.86475,35.39743],[-82.86445,35.39746],[-82.86423,35.39733],[-82.8645,35.39701],[-82.86443,35.39591],[-82.86463,35.39579],[-82.86469,35.39536],[-82.86521,35.39463],[-82.8652,35.39395],[-82.86544,35.39352],[-82.8656,35.39231],[-82.86596,35.3917],[-82.86607,35.39169],[-82.8661,35.39128],[-82.86688,35.39026],[-82.86746,35.38994],[-82.86893,35.388],[-82.86914,35.38796],[-82.86954,35.38826],[-82.86979,35.38822],[-82.86969,35.3886],[-82.86833,35.3903],[-82.86825,35.39068],[-82.86756,35.39091],[-82.86716,35.39139],[-82.867,35.39203],[-82.86649,35.39292],[-82.86647,35.39331],[-82.86664,35.39366],[-82.86659,35.39403],[-82.8664,35.39423],[-82.86637,35.39475],[-82.86622,35.39473],[-82.86616,35.39495],[-82.86597,35.39507],[-82.86582,35.395],[-82.86583,35.39526],[-82.86566,35.3954],[-82.86579,35.39556],[-82.86554,35.39619],[-82.86562,35.39651],[-82.86547,35.39721],[-82.86523,35.39761],[-82.86497,35.39774]]],[[[-82.8639,35.39854],[-82.86385,35.39842],[-82.86414,35.39824],[-82.86425,35.39848],[-82.8639,35.39854]]]]},"properties":{"fire_id":"ufid:2025-NCNCS-250035","source_collection":"history-2025","source_objectid":38124,"incident_name":"Rattlesnake Branch","mapped_acres":1857.7419183254249,"mapped_acres_source":"poly_GISAcres","gis_acres":1857.7419183254249,"auto_acres":1857.7353205668594,"reported_acres":1858.0,"percent_contained":26.0,"state":"NC","state_wfigs":"US-NC","county":"Haywood","discovery_time_utc":"2025-03-26T17:29:00Z","perimeter_time_utc":"2025-03-28T17:00:00Z","perimeter_edit_time_utc":"2025-04-09T23:16:51Z","incident_modified_time_utc":"2025-04-10T14:28:17Z","containment_time_utc":null,"control_time_utc":null,"fire_out_time_utc":null,"fire_cause":"Undetermined","fire_cause_general":null,"map_method":"Mixed Methods","source_dataset":"2025 NIFS","unique_fire_identifier":"2025-NCNCS-250035","irwin_id":"{043587D6-9889-4A91-A30A-EC036C3C6CDF}","global_id":"8821bfbb-bfbe-405b-8ed5-f806825d4d09"}},{"type":"Feature","geometry":{"type":"Polygon","coordinates":[[[-83.21399,35.24226],[-83.21383,35.24236],[-83.21356,35.24226],[-83.21356,35.24189],[-83.2139,35.24189],[-83.21426,35.24215],[-83.21423,35.24239],[-83.21399,35.24226]]]},"properties":{"fire_id":"ufid:2025-NCNCF-250185","source_collection":"history-2025","source_objectid":38154,"incident_name":"MOSS KNOB #2","mapped_acres":1.0,"mapped_acres_source":"poly_GISAcres","gis_acres":1.0,"auto_acres":0.6927688265418037,"reported_acres":1.0,"percent_contained":null,"state":"NC","state_wfigs":"US-NC","county":"Jackson","discovery_time_utc":"2025-03-27T23:47:49Z","perimeter_time_utc":"2025-03-31T17:05:41Z","perimeter_edit_time_utc":null,"incident_modified_time_utc":"2025-03-28T13:51:14Z","containment_time_utc":null,"control_time_utc":null,"fire_out_time_utc":"2025-03-31T17:02:00Z","fire_cause":"Undetermined","fire_cause_general":"Undetermined","map_method":"Auto-generated for InFORM","source_dataset":"FFP","unique_fire_identifier":"2025-NCNCF-250185","irwin_id":"{846F2DCF-5722-4D24-834A-75E29782692C}","global_id":"e02d8c8f-2f59-4c80-a7c6-791c0de0e73d"}},{"type":"Feature","geometry":{"type":"Polygon","coordinates":[[[-83.41302,35.01902],[-83.41303,35.01938],[-83.41286,35.01938],[-83.41288,35.01894],[-83.41332,35.01876],[-83.41327,35.01899],[-83.41302,35.01902]]]},"properties":{"fire_id":"ufid:2025-NCNCF-250199","source_collection":"history-2025","source_objectid":38390,"incident_name":"MULBERRY","mapped_acres":0.2,"mapped_acres_source":"poly_GISAcres","gis_acres":0.2,"auto_acres":0.33247557846382436,"reported_acres":0.2,"percent_contained":null,"state":"NC","state_wfigs":"US-NC","county":"Macon","discovery_time_utc":"2025-04-05T16:33:00Z","perimeter_time_utc":"2025-04-09T14:25:25Z","perimeter_edit_time_utc":null,"incident_modified_time_utc":"2025-04-09T14:25:04Z","containment_time_utc":null,"control_time_utc":null,"fire_out_time_utc":"2025-04-06T13:00:00Z","fire_cause":"Human","fire_cause_general":"Power generation / transmission / distribution","map_method":"Auto-generated for InFORM","source_dataset":"FFP","unique_fire_identifier":"2025-NCNCF-250199","irwin_id":"{53F9B021-7189-410B-83E2-C71D7F1EAAAD}","global_id":"fd7e84ac-c191-469f-b0e2-542c55e73aab"}},{"type":"Feature","geometry":{"type":"MultiPolygon","coordinates":[[[[-80.8976,36.55161],[-80.89865,36.55214],[-80.89908,36.55278],[-80.89945,36.55531],[-80.89873,36.55702],[-80.89835,36.55937],[-80.89838,36.56034],[-80.89713,36.55958],[-80.89656,36.55958],[-80.89615,36.55929],[-80.89539,36.55912],[-80.89357,36.55925],[-80.89268,36.55813],[-80.89418,36.55724],[-80.89436,36.55646],[-80.89481,36.5563],[-80.89521,36.55544],[-80.89672,36.55485],[-80.89748,36.55398],[-80.89755,36.55329],[-80.8979,36.55292],[-80.89752,36.55214],[-80.8965,36.55236],[-80.89632,36.5522],[-80.8964,36.55184],[-80.89676,36.55173],[-80.89698,36.55144],[-80.8976,36.55161]]],[[[-80.89905,36.55634],[-80.89902,36.55639],[-80.89905,36.5563],[-80.89905,36.55634]]]]},"properties":{"fire_id":"ufid:2025-NCNCS-250048","source_collection":"history-2025","source_objectid":39714,"incident_name":"LOWGAP MTN","mapped_acres":66.91,"mapped_acres_source":"poly_GISAcres","gis_acres":66.91,"auto_acres":66.92753606830118,"reported_acres":66.93,"percent_contained":null,"state":"NC","state_wfigs":"US-NC","county":"Surry","discovery_time_utc":"2025-04-16T23:17:00Z","perimeter_time_utc":"2025-05-12T18:45:17Z","perimeter_edit_time_utc":null,"incident_modified_time_utc":"2025-04-17T20:44:27Z","containment_time_utc":null,"control_time_utc":null,"fire_out_time_utc":"2025-04-26T18:45:00Z","fire_cause":"Human","fire_cause_general":"Equipment and vehicle use","map_method":"Hand Sketch","source_dataset":"FFP","unique_fire_identifier":"2025-NCNCS-250048","irwin_id":"{08076FE4-DC72-493E-8F22-31A8D5936B3D}","global_id":"e95a3618-874b-4ce2-8d43-1686831aaaa0"}},{"type":"Feature","geometry":{"type":"Polygon","coordinates":[[[-83.96728,35.36441],[-83.96494,35.36589],[-83.96123,35.36668],[-83.9586,35.36839],[-83.96031,35.36858],[-83.9616,35.36919],[-83.9623,35.36987],[-83.96313,35.37001],[-83.96322,35.37024],[-83.96355,35.37041],[-83.96363,35.37082],[-83.96388,35.37116],[-83.9638,35.37201],[-83.96401,35.37248],[-83.96459,35.37279],[-83.96542,35.37292],[-83.96654,35.37234],[-83.96708,35.37238],[-83.96824,35.37289],[-83.96985,35.37268],[-83.97014,35.37275],[-83.97106,35.37342],[-83.97232,35.37408],[-83.97334,35.37546],[-83.97368,35.37686],[-83.97363,35.37819],[-83.97406,35.38023],[-83.97369,35.3814],[-83.97368,35.38217],[-83.97384,35.38273],[-83.97551,35.38493],[-83.97493,35.38543],[-83.97441,35.38563],[-83.97296,35.38559],[-83.97203,35.38577],[-83.97072,35.38543],[-83.97016,35.38553],[-83.96939,35.38583],[-83.9693,35.38597],[-83.96884,35.38565],[-83.96776,35.38522],[-83.96467,35.3844],[-83.96347,35.38325],[-83.96339,35.38331],[-83.96293,35.38247],[-83.96255,35.38234],[-83.96218,35.38234],[-83.96193,35.38217],[-83.96122,35.38203],[-83.9601,35.38207],[-83.95968,35.3819],[-83.95931,35.38203],[-83.95881,35.38176],[-83.95836,35.38186],[-83.95825,35.38212],[-83.95801,35.38217],[-83.95786,35.38207],[-83.958,35.38188],[-83.95786,35.3818],[-83.95707,35.38169],[-83.95769,35.38044],[-83.95752,35.38],[-83.95719,35.37976],[-83.9574,35.37939],[-83.95719,35.37841],[-83.95686,35.37834],[-83.95599,35.37894],[-83.95609,35.38045],[-83.9565,35.38135],[-83.95647,35.38163],[-83.95619,35.38183],[-83.9552,35.38172],[-83.95265,35.38183],[-83.95207,35.38233],[-83.95147,35.3821],[-83.9506,35.38234],[-83.94504,35.38198],[-83.94398,35.3811],[-83.94246,35.38119],[-83.9381,35.38041],[-83.93694,35.37982],[-83.93588,35.37842],[-83.93536,35.37796],[-83.93416,35.37745],[-83.93136,35.37487],[-83.93049,35.37384],[-83.92936,35.37347],[-83.92933,35.37327],[-83.92998,35.37249],[-83.93001,35.37218],[-83.92974,35.37184],[-83.9299,35.37142],[-83.92976,35.37101],[-83.9286,35.36978],[-83.92723,35.36884],[-83.92547,35.36867],[-83.92478,35.36806],[-83.92492,35.36786],[-83.92434,35.36735],[-83.92396,35.36626],[-83.9241,35.36539],[-83.92387,35.3651],[-83.92339,35.36538],[-83.92253,35.36508],[-83.92253,35.36479],[-83.92231,35.3646],[-83.92058,35.36465],[-83.92021,35.36449],[-83.92002,35.36405],[-83.9201,35.36374],[-83.92098,35.36256],[-83.92102,35.36224],[-83.92237,35.3625],[-83.9228,35.36244],[-83.92422,35.36125],[-83.92518,35.36109],[-83.92592,35.36082],[-83.9278,35.35983],[-83.92885,35.35877],[-83.9306,35.3588],[-83.93129,35.35902],[-83.93176,35.35965],[-83.9327,35.35963],[-83.93238,35.35824],[-83.93385,35.35663],[-83.93557,35.35542],[-83.93685,35.35489],[-83.93731,35.35444],[-83.93813,35.35415],[-83.93847,35.35335],[-83.9405,35.35187],[-83.94134,35.35155],[-83.9415,35.35123],[-83.94175,35.35106],[-83.94181,35.35069],[-83.94198,35.35065],[-83.94204,35.35026],[-83.94324,35.34948],[-83.94333,35.34953],[-83.94349,35.34917],[-83.94432,35.34905],[-83.94557,35.34811],[-83.94574,35.34779],[-83.94595,35.34774],[-83.9464,35.34721],[-83.94733,35.34708],[-83.94764,35.3473],[-83.94793,35.34725],[-83.94851,35.34793],[-83.94902,35.34816],[-83.94922,35.34867],[-83.94966,35.34859],[-83.94987,35.34826],[-83.95019,35.34808],[-83.9503,35.3476],[-83.95062,35.34725],[-83.95052,35.34706],[-83.95074,35.34693],[-83.9506,35.34544],[-83.95068,35.34512],[-83.95181,35.34436],[-83.95187,35.34409],[-83.9527,35.34352],[-83.95314,35.34272],[-83.95305,35.34261],[-83.95322,35.34216],[-83.95436,35.34259],[-83.95262,35.34441],[-83.95298,35.34528],[-83.95353,35.34608],[-83.95436,35.34684],[-83.95967,35.34997],[-83.96072,35.3513],[-83.96254,35.35127],[-83.9625,35.35176],[-83.96708,35.35354],[-83.96619,35.35508],[-83.9655,35.35549],[-83.96671,35.35592],[-83.96708,35.35591],[-83.96767,35.35623],[-83.96813,35.35621],[-83.96925,35.35677],[-83.9696,35.35651],[-83.97036,35.3564],[-83.97013,35.3571],[-83.97032,35.35731],[-83.97076,35.35744],[-83.97096,35.35771],[-83.97045,35.35805],[-83.97075,35.35828],[-83.97089,35.35866],[-83.97101,35.35973],[-83.97062,35.36046],[-83.97112,35.361],[-83.97216,35.3614],[-83.97273,35.36148],[-83.97277,35.36177],[-83.97083,35.36222],[-83.97022,35.3621],[-83.96914,35.36247],[-83.96806,35.36318],[-83.96728,35.36441]]]},"properties":{"fire_id":"ufid:2025-NCNCF-250207","source_collection":"history-2025","source_objectid":40438,"incident_name":"Haoe Lead","mapped_acres":3100.345,"mapped_acres_source":"poly_GISAcres","gis_acres":3100.345,"auto_acres":3100.3467197488226,"reported_acres":3103.0,"percent_contained":null,"state":"NC","state_wfigs":"US-NC","county":"Graham","discovery_time_utc":"2025-04-12T22:05:00Z","perimeter_time_utc":"2025-06-04T13:18:45Z","perimeter_edit_time_utc":null,"incident_modified_time_utc":"2025-06-04T13:18:15Z","containment_time_utc":"2025-05-04T20:20:00Z","control_time_utc":null,"fire_out_time_utc":"2025-05-16T16:00:00Z","fire_cause":"Natural","fire_cause_general":"Natural","map_method":"Mixed Methods","source_dataset":"FFP","unique_fire_identifier":"2025-NCNCF-250207","irwin_id":"{ABA28082-B27A-4D4A-8C55-561D1690782A}","global_id":"8d8a6e90-ca5e-49f0-a34f-5efbdbe3c5dc"}},{"type":"Feature","geometry":{"type":"Polygon","coordinates":[[[-83.59117,35.42842],[-83.59193,35.42868],[-83.59203,35.42894],[-83.59137,35.42936],[-83.59124,35.42974],[-83.59087,35.43008],[-83.59093,35.43045],[-83.59075,35.43074],[-83.59019,35.4309],[-83.58957,35.43161],[-83.58851,35.4316],[-83.58736,35.43116],[-83.58672,35.43048],[-83.58679,35.4302],[-83.58723,35.42974],[-83.58853,35.42869],[-83.59117,35.42842]]]},"properties":{"fire_id":"ufid:2025-NCNCF-250209","source_collection":"history-2025","source_objectid":40439,"incident_name":"MOUSE BRANCH","mapped_acres":25.5,"mapped_acres_source":"poly_GISAcres","gis_acres":25.5,"auto_acres":26.10220323460402,"reported_acres":25.5,"percent_contained":null,"state":"NC","state_wfigs":"US-NC","county":"Graham","discovery_time_utc":"2025-04-14T13:12:08Z","perimeter_time_utc":"2025-06-04T13:42:00Z","perimeter_edit_time_utc":null,"incident_modified_time_utc":"2025-06-04T13:28:12Z","containment_time_utc":"2025-04-15T16:52:00Z","control_time_utc":"2025-04-16T19:32:00Z","fire_out_time_utc":"2025-04-23T14:07:00Z","fire_cause":"Natural","fire_cause_general":"Natural","map_method":"Auto-generated for InFORM","source_dataset":"FFP","unique_fire_identifier":"2025-NCNCF-250209","irwin_id":"{C5B420DA-5AC5-4502-B625-F7AB82B94A7E}","global_id":"7ee170d6-845b-4736-89b5-0112e90dae78"}},{"type":"Feature","geometry":{"type":"Polygon","coordinates":[[[-82.13558,35.82041],[-82.13466,35.82154],[-82.13419,35.82318],[-82.13422,35.82397],[-82.13481,35.82522],[-82.13474,35.82563],[-82.1344,35.82591],[-82.13411,35.82596],[-82.13279,35.82559],[-82.13238,35.82558],[-82.13193,35.82575],[-82.13114,35.8268],[-82.1303,35.82753],[-82.13044,35.82867],[-82.13031,35.829],[-82.12967,35.82939],[-82.12907,35.82935],[-82.12766,35.82799],[-82.1247,35.82758],[-82.12355,35.82727],[-82.12309,35.82701],[-82.12266,35.82639],[-82.12263,35.82501],[-82.12211,35.82454],[-82.12156,35.82451],[-82.12118,35.82465],[-82.12092,35.82485],[-82.12064,35.82548],[-82.11984,35.82535],[-82.11868,35.82475],[-82.11775,35.82352],[-82.11706,35.82217],[-82.11638,35.82143],[-82.11452,35.82016],[-82.11303,35.81876],[-82.11157,35.81607],[-82.10677,35.81221],[-82.10634,35.8122],[-82.10574,35.81173],[-82.10485,35.81138],[-82.10461,35.81108],[-82.10455,35.81054],[-82.10349,35.80909],[-82.10253,35.8085],[-82.10132,35.80654],[-82.10022,35.80572],[-82.09907,35.80531],[-82.09827,35.80523],[-82.09894,35.80533],[-82.09926,35.80554],[-82.09912,35.80589],[-82.09874,35.80594],[-82.09868,35.80694],[-82.09946,35.80768],[-82.0999,35.80781],[-82.0999,35.80823],[-82.09948,35.80874],[-82.0994,35.80906],[-82.09891,35.809],[-82.09802,35.80929],[-82.09768,35.80908],[-82.09714,35.80927],[-82.09611,35.80825],[-82.09517,35.80757],[-82.09434,35.80727],[-82.0939,35.80697],[-82.09386,35.80655],[-82.09411,35.80542],[-82.09405,35.80483],[-82.09429,35.80444],[-82.09543,35.8035],[-82.09596,35.80333],[-82.09604,35.80353],[-82.09653,35.80385],[-82.09731,35.80358],[-82.098,35.80312],[-82.09837,35.80322],[-82.09907,35.80299],[-82.09923,35.80214],[-82.10054,35.80194],[-82.10258,35.80099],[-82.10425,35.80086],[-82.10572,35.80046],[-82.10763,35.79964],[-82.11029,35.79827],[-82.11051,35.7982],[-82.11176,35.7985],[-82.11257,35.79848],[-82.11351,35.79815],[-82.11388,35.79795],[-82.1143,35.79714],[-82.1162,35.79657],[-82.11805,35.79543],[-82.11842,35.79544],[-82.12135,35.7964],[-82.12135,35.7969],[-82.12157,35.79725],[-82.12344,35.79784],[-82.12444,35.79842],[-82.12501,35.79924],[-82.12668,35.79966],[-82.12722,35.79967],[-82.12756,35.79942],[-82.12783,35.7994],[-82.12853,35.79966],[-82.12897,35.8],[-82.1296,35.80005],[-82.12974,35.80026],[-82.12996,35.80026],[-82.13065,35.8008],[-82.1314,35.80091],[-82.13281,35.80155],[-82.1333,35.80171],[-82.13356,35.80163],[-82.1336,35.80183],[-82.13371,35.80173],[-82.13419,35.80187],[-82.13447,35.80211],[-82.13464,35.80206],[-82.13533,35.80276],[-82.1359,35.803],[-82.13622,35.80367],[-82.13777,35.80457],[-82.13783,35.80518],[-82.13815,35.80558],[-82.138,35.80607],[-82.13829,35.80682],[-82.13896,35.80693],[-82.13924,35.80759],[-82.13963,35.80774],[-82.13946,35.80811],[-82.13959,35.80808],[-82.13966,35.80827],[-82.13989,35.80831],[-82.14008,35.80854],[-82.13999,35.80872],[-82.14114,35.8097],[-82.14123,35.80998],[-82.14104,35.81047],[-82.1412,35.81115],[-82.14159,35.81132],[-82.14168,35.81155],[-82.14199,35.81154],[-82.14244,35.8119],[-82.14262,35.81223],[-82.14134,35.81272],[-82.14018,35.81402],[-82.139,35.8146],[-82.13848,35.8165],[-82.13781,35.81766],[-82.13797,35.81887],[-82.13788,35.81918],[-82.1375,35.81952],[-82.13627,35.81989],[-82.13558,35.82041]]]},"properties":{"fire_id":"ufid:2025-NCNCS-250045","source_collection":"history-2025","source_objectid":43725,"incident_name":"Bee Rock Creek","mapped_acres":2084.717,"mapped_acres_source":"poly_GISAcres","gis_acres":2084.717,"auto_acres":2084.7090504388707,"reported_acres":2085.0,"percent_contained":null,"state":"NC","state_wfigs":"US-NC","county":"McDowell","discovery_time_utc":"2025-04-15T20:49:00Z","perimeter_time_utc":"2025-08-21T12:03:17Z","perimeter_edit_time_utc":null,"incident_modified_time_utc":"2025-05-12T18:55:02Z","containment_time_utc":null,"control_time_utc":null,"fire_out_time_utc":null,"fire_cause":"Human","fire_cause_general":"Debris and open burning","map_method":"Mixed Methods","source_dataset":"FFP","unique_fire_identifier":"2025-NCNCS-250045","irwin_id":"{260BC976-DFE9-4430-8135-7DA87EE2234A}","global_id":"1b367d06-b40d-46e8-8d52-4658998c7500"}},{"type":"Feature","geometry":{"type":"Polygon","coordinates":[[[-82.96113,35.18827],[-82.95443,35.18784],[-82.95441,35.18735],[-82.95851,35.18671],[-82.96206,35.18692],[-82.96113,35.18827]]]},"properties":{"fire_id":"ufid:2025-NCNCF-250229","source_collection":"history-2025","source_objectid":43768,"incident_name":"WINDING GAP","mapped_acres":16.9,"mapped_acres_source":"poly_GISAcres","gis_acres":16.9,"auto_acres":20.395332045964047,"reported_acres":20.4,"percent_contained":null,"state":"NC","state_wfigs":"US-NC","county":"Transylvania","discovery_time_utc":"2025-04-18T19:36:37Z","perimeter_time_utc":"2025-08-22T14:03:33Z","perimeter_edit_time_utc":null,"incident_modified_time_utc":"2025-08-21T12:10:13Z","containment_time_utc":"2025-04-19T19:39:00Z","control_time_utc":null,"fire_out_time_utc":"2025-04-25T12:08:00Z","fire_cause":"Human","fire_cause_general":"Undetermined","map_method":"Auto-generated for InFORM","source_dataset":"FFP","unique_fire_identifier":"2025-NCNCF-250229","irwin_id":"{E9AFA187-3B66-4C0D-8BEA-0E59AF8C6B0A}","global_id":"e7b4b2c1-0e3c-4c18-b54c-61a69373cd59"}},{"type":"Feature","geometry":{"type":"MultiPolygon","coordinates":[[[[-81.72678,36.01517],[-81.72675,36.01442],[-81.72696,36.01397],[-81.72731,36.01362],[-81.72814,36.01331],[-81.72859,36.0128],[-81.72915,36.01287],[-81.72929,36.01311],[-81.72965,36.01317],[-81.73027,36.01364],[-81.73011,36.01379],[-81.73012,36.01409],[-81.72982,36.01424],[-81.72985,36.01464],[-81.72945,36.01513],[-81.72921,36.01502],[-81.72841,36.01507],[-81.72814,36.01494],[-81.72768,36.01502],[-81.72745,36.01482],[-81.7273,36.01507],[-81.72706,36.01511],[-81.727,36.01524],[-81.72678,36.01517]]],[[[-81.72694,36.01626],[-81.72741,36.01591],[-81.72766,36.01605],[-81.72694,36.01653],[-81.72684,36.0165],[-81.72694,36.01626]]]]},"properties":{"fire_id":"ufid:2025-NCNCF-250164","source_collection":"history-2025","source_objectid":48535,"incident_name":"Wilson Ridge","mapped_acres":14.16681,"mapped_acres_source":"poly_GISAcres","gis_acres":14.16681,"auto_acres":14.166762740454512,"reported_acres":14.5,"percent_contained":null,"state":"NC","state_wfigs":"US-NC","county":"Caldwell","discovery_time_utc":"2025-03-23T16:37:00Z","perimeter_time_utc":"2025-11-17T17:26:02Z","perimeter_edit_time_utc":null,"incident_modified_time_utc":"2025-03-31T15:26:51Z","containment_time_utc":"2025-03-27T17:20:00Z","control_time_utc":"2025-03-27T17:21:00Z","fire_out_time_utc":"2025-03-31T15:30:00Z","fire_cause":"Human","fire_cause_general":"Power generation / transmission / distribution","map_method":"Digitized-Other","source_dataset":"FFP","unique_fire_identifier":"2025-NCNCF-250164","irwin_id":"{701F4B8A-0ABF-4149-AD5A-02FA4BB2C96A}","global_id":"5cbb3bf5-f543-4ae2-ae93-d60a414599dd"}},{"type":"Feature","geometry":{"type":"Polygon","coordinates":[[[-82.469,35.67116],[-82.46963,35.67119],[-82.4701,35.67148],[-82.47002,35.67168],[-82.47013,35.6722],[-82.47027,35.67236],[-82.47056,35.67228],[-82.47063,35.67249],[-82.47046,35.6726],[-82.47012,35.67257],[-82.47015,35.67277],[-82.4697,35.67298],[-82.46968,35.67261],[-82.46947,35.67247],[-82.46926,35.67258],[-82.46931,35.67269],[-82.46909,35.67294],[-82.46862,35.673],[-82.46845,35.6727],[-82.46856,35.67257],[-82.46828,35.67253],[-82.46801,35.67196],[-82.46774,35.67196],[-82.46727,35.67083],[-82.46745,35.67081],[-82.46784,35.67119],[-82.46835,35.67128],[-82.46876,35.67067],[-82.46903,35.6708],[-82.4694,35.67051],[-82.469,35.67116]]]},"properties":{"fire_id":"ufid:2025-NCNCS-250067","source_collection":"history-2025","source_objectid":48559,"incident_name":"Rector Road","mapped_acres":9.6,"mapped_acres_source":"poly_GISAcres","gis_acres":9.6,"auto_acres":9.642409859351808,"reported_acres":null,"percent_contained":null,"state":"NC","state_wfigs":"US-NC","county":"Buncombe","discovery_time_utc":"2025-11-16T19:12:00Z","perimeter_time_utc":null,"perimeter_edit_time_utc":"2025-11-17T19:28:59Z","incident_modified_time_utc":"2026-01-21T14:48:50Z","containment_time_utc":null,"control_time_utc":null,"fire_out_time_utc":null,"fire_cause":null,"fire_cause_general":null,"map_method":"GPS-Walked","source_dataset":"2025 NIFS","unique_fire_identifier":"2025-NCNCS-250067","irwin_id":"{CB5CAE56-9805-4E6D-AD4E-24FDC7AEA652}","global_id":"5e4a908b-073f-44cb-b8dc-7e70b5887070"}},{"type":"Feature","geometry":{"type":"Polygon","coordinates":[[[-83.506,35.04205],[-83.50599,35.04203],[-83.50602,35.04204],[-83.506,35.04205]]]},"properties":{"fire_id":"ufid:2025-NCNCF-250269","source_collection":"history-2025","source_objectid":48578,"incident_name":"NAN 269","mapped_acres":0.1,"mapped_acres_source":"poly_GISAcres","gis_acres":0.1,"auto_acres":0.0005894326194271509,"reported_acres":0.1,"percent_contained":null,"state":"NC","state_wfigs":"US-NC","county":"Macon","discovery_time_utc":"2025-09-02T12:18:01Z","perimeter_time_utc":"2025-11-18T14:26:34Z","perimeter_edit_time_utc":null,"incident_modified_time_utc":"2025-09-04T12:42:55Z","containment_time_utc":"2025-09-02T14:00:00Z","control_time_utc":"2025-09-04T12:30:00Z","fire_out_time_utc":"2025-09-04T12:30:00Z","fire_cause":"Human","fire_cause_general":"Recreation and ceremony","map_method":"Auto-generated for InFORM","source_dataset":"FFP","unique_fire_identifier":"2025-NCNCF-250269","irwin_id":"{7E7DDB33-87F6-4CDB-8933-C509AB10AF87}","global_id":"c21eeeb1-3dc7-4a61-9096-8be3d0e38d92"}},{"type":"Feature","geometry":{"type":"Polygon","coordinates":[[[-83.50942,35.16502],[-83.50947,35.16501],[-83.50943,35.16506],[-83.50942,35.16502]]]},"properties":{"fire_id":"ufid:2025-NCNCF-250304","source_collection":"history-2025","source_objectid":48665,"incident_name":"WAYAH DEPOT","mapped_acres":0.1,"mapped_acres_source":"poly_GISAcres","gis_acres":0.1,"auto_acres":0.004611248701292569,"reported_acres":0.1,"percent_contained":null,"state":"NC","state_wfigs":"US-NC","county":"Macon","discovery_time_utc":"2025-11-16T20:07:06Z","perimeter_time_utc":"2025-11-19T20:56:06Z","perimeter_edit_time_utc":null,"incident_modified_time_utc":"2025-11-18T14:45:11Z","containment_time_utc":null,"control_time_utc":null,"fire_out_time_utc":"2025-11-18T14:44:00Z","fire_cause":"Human","fire_cause_general":"Power generation / transmission / distribution","map_method":"Auto-generated for InFORM","source_dataset":"FFP","unique_fire_identifier":"2025-NCNCF-250304","irwin_id":"{E941067E-5D4B-4D51-909B-AAA7687FAABE}","global_id":"4f4e19f3-27c6-431d-a08e-38ee6b3938ac"}},{"type":"Feature","geometry":{"type":"Polygon","coordinates":[[[-83.56333,35.22156],[-83.56327,35.22147],[-83.56342,35.22152],[-83.56333,35.22156]]]},"properties":{"fire_id":"ufid:2025-NCNCF-250302","source_collection":"history-2025","source_objectid":48666,"incident_name":"NAN 302","mapped_acres":0.1,"mapped_acres_source":"poly_GISAcres","gis_acres":0.1,"auto_acres":0.023742565648817545,"reported_acres":0.1,"percent_contained":null,"state":"NC","state_wfigs":"US-NC","county":"Macon","discovery_time_utc":"2025-11-16T16:17:07Z","perimeter_time_utc":"2025-11-19T20:59:15Z","perimeter_edit_time_utc":null,"incident_modified_time_utc":"2025-11-16T17:48:41Z","containment_time_utc":"2025-11-16T17:33:00Z","control_time_utc":"2025-11-16T17:33:00Z","fire_out_time_utc":"2025-11-16T17:33:00Z","fire_cause":"Human","fire_cause_general":"Recreation and ceremony","map_method":"Auto-generated for InFORM","source_dataset":"FFP","unique_fire_identifier":"2025-NCNCF-250302","irwin_id":"{C5DF845F-3981-4ED0-B852-7FFA840958B7}","global_id":"17997b00-047a-48d3-8666-a3867fe46023"}},{"type":"Feature","geometry":{"type":"Polygon","coordinates":[[[-83.0315,35.72802],[-83.03046,35.72809],[-83.02896,35.7279],[-83.02629,35.73005],[-83.0259,35.72995],[-83.02605,35.72975],[-83.02585,35.72963],[-83.02511,35.72966],[-83.025,35.72951],[-83.02498,35.7292],[-83.02562,35.72817],[-83.02558,35.72749],[-83.02625,35.72619],[-83.02655,35.726],[-83.02672,35.72564],[-83.02763,35.72498],[-83.02816,35.72409],[-83.02923,35.7238],[-83.02975,35.72389],[-83.03138,35.72379],[-83.03256,35.72396],[-83.03371,35.7243],[-83.03451,35.72428],[-83.03692,35.72498],[-83.03899,35.72496],[-83.04005,35.72459],[-83.04062,35.72511],[-83.04262,35.72506],[-83.04357,35.7253],[-83.04417,35.72564],[-83.04456,35.72614],[-83.0467,35.7271],[-83.0471,35.72742],[-83.04712,35.7276],[-83.04683,35.72793],[-83.04683,35.7281],[-83.04636,35.72834],[-83.04627,35.72898],[-83.04576,35.72897],[-83.04538,35.72912],[-83.04459,35.72993],[-83.04397,35.72946],[-83.04279,35.7292],[-83.04161,35.72867],[-83.04071,35.72861],[-83.03965,35.72828],[-83.03871,35.7286],[-83.0376,35.72866],[-83.03541,35.72826],[-83.03204,35.72818],[-83.0315,35.72802]]]},"properties":{"fire_id":"ufid:2025-NCNCF-250075","source_collection":"history-2025","source_objectid":49111,"incident_name":"Hicks Cemetery Fire","mapped_acres":194.0,"mapped_acres_source":"poly_GISAcres","gis_acres":194.0,"auto_acres":197.5794297098096,"reported_acres":194.0,"percent_contained":null,"state":"NC","state_wfigs":"US-NC","county":"Haywood","discovery_time_utc":"2025-03-01T22:23:05Z","perimeter_time_utc":"2025-12-08T19:38:39Z","perimeter_edit_time_utc":null,"incident_modified_time_utc":"2025-04-03T13:23:23Z","containment_time_utc":"2025-03-09T21:00:00Z","control_time_utc":"2025-03-16T13:30:00Z","fire_out_time_utc":"2025-03-17T17:28:00Z","fire_cause":"Undetermined","fire_cause_general":"Undetermined","map_method":"Auto-generated for InFORM","source_dataset":"FFP","unique_fire_identifier":"2025-NCNCF-250075","irwin_id":"{19D9A685-5E4A-4786-81BF-0F3FBF906255}","global_id":"63f37324-4692-4c1e-8666-965289aceef3"}}]}
