{"type":"FeatureCollection","features":[{"type":"Feature","geometry":{"type":"Polygon","coordinates":[[[-74.17629,39.84101],[-74.17583,39.841],[-74.17581,39.84082],[-74.17627,39.84075],[-74.1762,39.84096],[-74.17629,39.84101]]]},"properties":{"fire_id":"ufid:2025-NJERR-250001","source_collection":"history-2025","source_objectid":40742,"incident_name":"Game Farm","mapped_acres":0.5,"mapped_acres_source":"poly_GISAcres","gis_acres":0.5,"auto_acres":0.2844999389098942,"reported_acres":0.28,"percent_contained":null,"state":"NJ","state_wfigs":"US-NJ","county":"Ocean","discovery_time_utc":"2025-03-16T17:58:05Z","perimeter_time_utc":"2025-06-16T20:19:13Z","perimeter_edit_time_utc":null,"incident_modified_time_utc":"2025-03-17T13:04:49Z","containment_time_utc":"2025-03-16T18:30:00Z","control_time_utc":"2025-03-16T18:30:00Z","fire_out_time_utc":"2025-03-17T15:30:00Z","fire_cause":"Human","fire_cause_general":"Misuse of fire by a minor","map_method":"Auto-generated for InFORM","source_dataset":"FFP","unique_fire_identifier":"2025-NJERR-250001","irwin_id":"{3EA938F3-512A-4EB4-B2A8-1CC065FC23DD}","global_id":"3b8dc681-48c7-4fb3-8600-fbd8481f65c8"}}]}
