{"type":"FeatureCollection","features":[{"type":"Feature","geometry":{"type":"Polygon","coordinates":[[[-114.71891,36.53565],[-114.7191,36.53554],[-114.71877,36.53586],[-114.71891,36.53565]]]},"properties":{"fire_id":"ufid:2025-NVMVFX-500346","source_collection":"history-2025","source_objectid":38930,"incident_name":"Ute","mapped_acres":0.1,"mapped_acres_source":"poly_GISAcres","gis_acres":0.1,"auto_acres":0.09904760930248974,"reported_acres":0.1,"percent_contained":null,"state":"NV","state_wfigs":"US-NV","county":"Clark","discovery_time_utc":"2025-04-14T21:34:49Z","perimeter_time_utc":null,"perimeter_edit_time_utc":"2025-04-23T17:26:53Z","incident_modified_time_utc":"2025-04-22T15:43:04Z","containment_time_utc":"2025-04-14T21:45:00Z","control_time_utc":"2025-04-14T21:45:00Z","fire_out_time_utc":"2025-04-17T05:00:00Z","fire_cause":"Human","fire_cause_general":null,"map_method":"Mixed Methods","source_dataset":"2025 NIFS","unique_fire_identifier":"2025-NVMVFX-500346","irwin_id":"{17ABBAE1-3E2E-4D47-A6FD-BEBA26806F50}","global_id":"19ab6c79-5849-45a9-a005-40bab67f0b20"}},{"type":"Feature","geometry":{"type":"Polygon","coordinates":[[[-114.77739,39.12421],[-114.77786,39.12467],[-114.77809,39.12523],[-114.77739,39.12421]]]},"properties":{"fire_id":"ufid:2025-NVELD-040145","source_collection":"history-2025","source_objectid":42392,"incident_name":"Elk View","mapped_acres":0.35,"mapped_acres_source":"poly_GISAcres","gis_acres":0.35,"auto_acres":0.35486217255441743,"reported_acres":0.35,"percent_contained":null,"state":"NV","state_wfigs":"US-NV","county":"White Pine","discovery_time_utc":"2025-06-19T23:04:28Z","perimeter_time_utc":"2026-06-12T18:02:14Z","perimeter_edit_time_utc":null,"incident_modified_time_utc":"2025-09-17T20:52:56Z","containment_time_utc":"2025-06-19T23:53:00Z","control_time_utc":"2025-06-20T00:18:00Z","fire_out_time_utc":"2025-06-26T20:00:00Z","fire_cause":"Human","fire_cause_general":"Undetermined","map_method":"Mixed Methods","source_dataset":"FFP","unique_fire_identifier":"2025-NVELD-040145","irwin_id":"{3FAA5B1E-B9FD-416A-93FE-727E40E955EC}","global_id":"69b48741-64a8-4010-84fb-d45f3d380d24"}},{"type":"Feature","geometry":{"type":"Polygon","coordinates":[[[-114.21892,38.41163],[-114.22029,38.41003],[-114.22118,38.4087],[-114.22205,38.40792],[-114.22441,38.40671],[-114.22651,38.40595],[-114.22781,38.40509],[-114.22826,38.40502],[-114.2287,38.40513],[-114.22966,38.40575],[-114.2314,38.40657],[-114.23187,38.40703],[-114.23232,38.40781],[-114.23346,38.4088],[-114.23359,38.40954],[-114.23266,38.41115],[-114.23236,38.41264],[-114.23207,38.41308],[-114.23142,38.41353],[-114.22964,38.41388],[-114.22913,38.41425],[-114.22902,38.41475],[-114.22921,38.41584],[-114.22964,38.4165],[-114.23176,38.41826],[-114.23241,38.41969],[-114.23348,38.42111],[-114.23414,38.42242],[-114.2349,38.42304],[-114.2362,38.42348],[-114.23641,38.42373],[-114.23633,38.42419],[-114.23556,38.42483],[-114.23293,38.42617],[-114.23238,38.4268],[-114.23155,38.42822],[-114.23064,38.4291],[-114.22964,38.42953],[-114.22858,38.42972],[-114.2279,38.42965],[-114.22737,38.42944],[-114.22689,38.42889],[-114.22682,38.42849],[-114.22699,38.42672],[-114.22683,38.42585],[-114.22654,38.42537],[-114.22618,38.42524],[-114.22451,38.42535],[-114.2231,38.42473],[-114.22229,38.42501],[-114.22174,38.42492],[-114.22163,38.42457],[-114.22192,38.42385],[-114.22231,38.42201],[-114.22227,38.42178],[-114.22208,38.42163],[-114.22135,38.42164],[-114.22032,38.42211],[-114.219,38.42245],[-114.21742,38.42397],[-114.21677,38.42433],[-114.21604,38.42442],[-114.21543,38.42419],[-114.21527,38.4239],[-114.21537,38.42364],[-114.21658,38.42296],[-114.21679,38.42271],[-114.21681,38.42243],[-114.21621,38.42199],[-114.21471,38.42166],[-114.21428,38.42127],[-114.21431,38.4208],[-114.21479,38.42027],[-114.21499,38.41982],[-114.21473,38.41804],[-114.21443,38.41761],[-114.21336,38.41687],[-114.21324,38.41632],[-114.21386,38.41554],[-114.21591,38.414],[-114.21732,38.41204],[-114.21892,38.41163]]]},"properties":{"fire_id":"ufid:2025-NVELD-040127","source_collection":"history-2025","source_objectid":42393,"incident_name":"Rosencrans","mapped_acres":727.22,"mapped_acres_source":"poly_GISAcres","gis_acres":727.22,"auto_acres":727.2126891603501,"reported_acres":727.0,"percent_contained":null,"state":"NV","state_wfigs":"US-NV","county":"Lincoln","discovery_time_utc":"2025-06-11T20:05:39Z","perimeter_time_utc":"2025-07-21T21:43:26Z","perimeter_edit_time_utc":null,"incident_modified_time_utc":"2025-07-11T15:54:39Z","containment_time_utc":"2025-06-16T02:08:00Z","control_time_utc":"2025-06-22T22:00:00Z","fire_out_time_utc":"2025-07-11T20:00:00Z","fire_cause":"Natural","fire_cause_general":"Natural","map_method":"Mixed Methods","source_dataset":"FFP","unique_fire_identifier":"2025-NVELD-040127","irwin_id":"{BA82374F-C1E4-45FA-8897-761D3A409B1C}","global_id":"9fa9c58e-4de1-4e87-b0db-78d7f002eb94"}},{"type":"Feature","geometry":{"type":"MultiPolygon","coordinates":[[[[-114.58572,38.14282],[-114.58571,38.14281],[-114.58572,38.14281],[-114.58572,38.14282]]],[[[-114.58567,38.1417],[-114.58585,38.14265],[-114.58572,38.1428],[-114.58542,38.14281],[-114.58547,38.14357],[-114.58532,38.14373],[-114.58517,38.14178],[-114.58526,38.1417],[-114.58557,38.14187],[-114.58567,38.1417]]]]},"properties":{"fire_id":"ufid:2025-NVELD-040143","source_collection":"history-2025","source_objectid":42394,"incident_name":"Twenty One Mile","mapped_acres":1.8,"mapped_acres_source":"poly_GISAcres","gis_acres":1.8,"auto_acres":1.8028552282292085,"reported_acres":1.8,"percent_contained":null,"state":"NV","state_wfigs":"US-NV","county":"Lincoln","discovery_time_utc":"2025-06-19T01:46:12Z","perimeter_time_utc":"2025-07-21T21:41:51Z","perimeter_edit_time_utc":null,"incident_modified_time_utc":"2025-06-27T22:17:54Z","containment_time_utc":"2025-06-19T04:11:00Z","control_time_utc":"2025-06-19T04:45:00Z","fire_out_time_utc":"2025-06-26T20:00:00Z","fire_cause":"Human","fire_cause_general":"Equipment and vehicle use","map_method":"Mixed Methods","source_dataset":"FFP","unique_fire_identifier":"2025-NVELD-040143","irwin_id":"{3B9CEDD2-C8CB-42CD-96AE-AEC241E77DDF}","global_id":"9f0028b1-ffc2-495b-8bdc-64af8baac7ae"}},{"type":"Feature","geometry":{"type":"Polygon","coordinates":[[[-114.46493,36.55692],[-114.46451,36.5569],[-114.46383,36.55653],[-114.46424,36.5564],[-114.46436,36.55654],[-114.4646,36.55645],[-114.46493,36.55692]]]},"properties":{"fire_id":"ufid:2025-NVMVFX-500922","source_collection":"history-2025","source_objectid":42958,"incident_name":"Cave","mapped_acres":0.72,"mapped_acres_source":"poly_GISAcres","gis_acres":0.72,"auto_acres":0.7151616707086932,"reported_acres":0.75,"percent_contained":null,"state":"NV","state_wfigs":"US-NV","county":"Clark","discovery_time_utc":"2025-07-31T20:31:25Z","perimeter_time_utc":null,"perimeter_edit_time_utc":"2025-08-04T14:55:43Z","incident_modified_time_utc":"2025-08-01T02:32:58Z","containment_time_utc":null,"control_time_utc":null,"fire_out_time_utc":null,"fire_cause":"Human","fire_cause_general":null,"map_method":"Mixed Methods","source_dataset":"2025 NIFS","unique_fire_identifier":"2025-NVMVFX-500922","irwin_id":"{9520766E-5513-42AE-89DB-3A1B182EF7B4}","global_id":"51a61462-c7c8-482b-9954-eef580a3986e"}},{"type":"Feature","geometry":{"type":"Polygon","coordinates":[[[-114.59545,39.08019],[-114.59544,39.08031],[-114.59534,39.08016],[-114.59545,39.08019]]]},"properties":{"fire_id":"ufid:2025-NVHTF-040275","source_collection":"history-2025","source_objectid":45348,"incident_name":"Cooper Canyon","mapped_acres":0.03,"mapped_acres_source":"poly_GISAcres","gis_acres":0.03,"auto_acres":0.030381131562354606,"reported_acres":0.1,"percent_contained":null,"state":"NV","state_wfigs":"US-NV","county":"White Pine","discovery_time_utc":"2025-08-22T13:08:19Z","perimeter_time_utc":"2025-09-03T15:13:18Z","perimeter_edit_time_utc":null,"incident_modified_time_utc":"2025-09-02T15:57:05Z","containment_time_utc":"2025-08-23T00:00:00Z","control_time_utc":"2025-08-23T19:30:00Z","fire_out_time_utc":"2025-09-01T22:00:00Z","fire_cause":"Natural","fire_cause_general":"Natural","map_method":"Mixed Methods","source_dataset":"FFP","unique_fire_identifier":"2025-NVHTF-040275","irwin_id":"{EE2E083D-461A-40FA-A4B1-9D5A86ADCE08}","global_id":"d336e63e-ad20-4526-b07b-f574be9a7492"}},{"type":"Feature","geometry":{"type":"Polygon","coordinates":[[[-114.67687,39.03253],[-114.67684,39.03266],[-114.67668,39.03258],[-114.67687,39.03253]]]},"properties":{"fire_id":"ufid:2025-NVHTF-040272","source_collection":"history-2025","source_objectid":45349,"incident_name":"Conner Canyon","mapped_acres":0.05,"mapped_acres_source":"poly_GISAcres","gis_acres":0.05,"auto_acres":0.054741562376933034,"reported_acres":0.1,"percent_contained":null,"state":"NV","state_wfigs":"US-NV","county":"White Pine","discovery_time_utc":"2025-08-22T00:37:36Z","perimeter_time_utc":"2025-09-03T15:15:38Z","perimeter_edit_time_utc":null,"incident_modified_time_utc":"2025-09-02T15:30:26Z","containment_time_utc":"2025-08-22T03:00:00Z","control_time_utc":"2025-08-22T18:45:00Z","fire_out_time_utc":"2025-09-01T22:00:00Z","fire_cause":"Natural","fire_cause_general":"Natural","map_method":"Mixed Methods","source_dataset":"FFP","unique_fire_identifier":"2025-NVHTF-040272","irwin_id":"{B3268FF9-EDDD-4A9D-AFB5-205CEB611030}","global_id":"13df7c81-d4d4-492e-a805-ee8f9c74528d"}},{"type":"Feature","geometry":{"type":"Polygon","coordinates":[[[-114.59472,37.37377],[-114.5957,37.37444],[-114.59572,37.37492],[-114.5961,37.37521],[-114.59651,37.37613],[-114.59717,37.37646],[-114.59818,37.37655],[-114.59887,37.37694],[-114.599,37.37713],[-114.59894,37.37753],[-114.59858,37.37811],[-114.59811,37.37828],[-114.59762,37.37822],[-114.59687,37.37842],[-114.5963,37.37822],[-114.59546,37.37765],[-114.59531,37.37726],[-114.59477,37.37678],[-114.5946,37.37632],[-114.59426,37.37621],[-114.59349,37.37556],[-114.59317,37.37502],[-114.59308,37.37428],[-114.59331,37.37385],[-114.59393,37.37347],[-114.59394,37.37252],[-114.59424,37.37277],[-114.59472,37.37377]]]},"properties":{"fire_id":"ufid:2025-NVELD-040215","source_collection":"history-2025","source_objectid":45352,"incident_name":"Riggs","mapped_acres":32.49,"mapped_acres_source":"poly_GISAcres","gis_acres":32.49,"auto_acres":32.48970770905032,"reported_acres":32.5,"percent_contained":null,"state":"NV","state_wfigs":"US-NV","county":"Lincoln","discovery_time_utc":"2025-07-19T16:55:00Z","perimeter_time_utc":"2025-09-03T15:23:09Z","perimeter_edit_time_utc":null,"incident_modified_time_utc":"2025-07-29T20:59:23Z","containment_time_utc":"2025-07-19T23:35:00Z","control_time_utc":"2025-07-20T19:02:00Z","fire_out_time_utc":"2025-07-28T03:00:00Z","fire_cause":"Natural","fire_cause_general":"Natural","map_method":"Mixed Methods","source_dataset":"FFP","unique_fire_identifier":"2025-NVELD-040215","irwin_id":"{9C22154B-4FBA-4232-B6E3-5C056D173161}","global_id":"4ba30997-8d64-4e2a-9bcd-4eb1d1871164"}},{"type":"Feature","geometry":{"type":"Polygon","coordinates":[[[-114.05571,39.72495],[-114.05605,39.72457],[-114.0566,39.72491],[-114.05715,39.7248],[-114.05754,39.72492],[-114.05801,39.72521],[-114.05768,39.72548],[-114.05785,39.72558],[-114.05787,39.72586],[-114.05777,39.72605],[-114.0576,39.72603],[-114.05762,39.72592],[-114.05747,39.72612],[-114.05729,39.72587],[-114.05715,39.72599],[-114.05699,39.72591],[-114.05692,39.72571],[-114.05651,39.72546],[-114.05606,39.72578],[-114.05593,39.72565],[-114.05594,39.72538],[-114.05575,39.72533],[-114.05583,39.72507],[-114.05571,39.72495]]]},"properties":{"fire_id":"ufid:2025-NVELD-040206","source_collection":"history-2025","source_objectid":45354,"incident_name":"Essex","mapped_acres":4.45,"mapped_acres_source":"poly_GISAcres","gis_acres":4.45,"auto_acres":4.451560869094728,"reported_acres":4.5,"percent_contained":null,"state":"NV","state_wfigs":"US-NV","county":"White Pine","discovery_time_utc":"2025-07-17T21:47:44Z","perimeter_time_utc":"2025-09-03T15:29:31Z","perimeter_edit_time_utc":null,"incident_modified_time_utc":"2025-07-29T21:29:30Z","containment_time_utc":"2025-07-19T14:40:00Z","control_time_utc":"2025-07-19T22:28:00Z","fire_out_time_utc":"2025-07-28T03:00:00Z","fire_cause":"Natural","fire_cause_general":"Natural","map_method":"Mixed Methods","source_dataset":"FFP","unique_fire_identifier":"2025-NVELD-040206","irwin_id":"{37745153-8C2D-438D-880F-0D1EA1BFF78E}","global_id":"21982b5d-3639-4f8e-8811-89b823907aee"}},{"type":"Feature","geometry":{"type":"Polygon","coordinates":[[[-114.18763,38.30046],[-114.18602,38.29788],[-114.18584,38.29648],[-114.18593,38.29527],[-114.18647,38.29442],[-114.18776,38.29362],[-114.19085,38.29238],[-114.19412,38.29084],[-114.19811,38.28856],[-114.20044,38.28691],[-114.2009,38.2863],[-114.20137,38.28529],[-114.20202,38.2847],[-114.20294,38.28451],[-114.20562,38.28479],[-114.20696,38.2847],[-114.2082,38.28434],[-114.21063,38.28312],[-114.21205,38.28283],[-114.2129,38.2829],[-114.21366,38.28315],[-114.2143,38.28356],[-114.21475,38.28413],[-114.2154,38.28619],[-114.21614,38.28976],[-114.21644,38.2937],[-114.21638,38.29446],[-114.2158,38.2962],[-114.2152,38.29881],[-114.21468,38.29968],[-114.21402,38.30018],[-114.21287,38.30059],[-114.21058,38.30107],[-114.20952,38.30164],[-114.20908,38.30257],[-114.20909,38.30417],[-114.20889,38.30477],[-114.20691,38.3071],[-114.20616,38.30765],[-114.20486,38.30808],[-114.20445,38.30809],[-114.20388,38.30787],[-114.2033,38.30728],[-114.20232,38.30498],[-114.20146,38.30378],[-114.19955,38.30236],[-114.19775,38.30133],[-114.19683,38.30101],[-114.19588,38.3009],[-114.19166,38.30113],[-114.18885,38.30095],[-114.18763,38.30046]]]},"properties":{"fire_id":"ufid:2025-NVELD-040126","source_collection":"history-2025","source_objectid":45355,"incident_name":"Burnt Canyon","mapped_acres":1067.81,"mapped_acres_source":"poly_GISAcres","gis_acres":1067.81,"auto_acres":1067.951352533734,"reported_acres":1068.0,"percent_contained":null,"state":"NV","state_wfigs":"US-NV","county":"Lincoln","discovery_time_utc":"2025-06-11T19:13:00Z","perimeter_time_utc":"2025-09-03T15:31:08Z","perimeter_edit_time_utc":null,"incident_modified_time_utc":"2025-07-11T15:54:31Z","containment_time_utc":"2025-06-20T01:00:00Z","control_time_utc":"2025-06-22T22:00:00Z","fire_out_time_utc":"2025-07-11T20:00:00Z","fire_cause":"Natural","fire_cause_general":"Natural","map_method":"Mixed Methods","source_dataset":"FFP","unique_fire_identifier":"2025-NVELD-040126","irwin_id":"{F62DF1D9-3391-450D-A782-378FB7E25B2A}","global_id":"806377da-9cf2-4e0f-a95d-c6d43d155f94"}},{"type":"Feature","geometry":{"type":"Polygon","coordinates":[[[-114.51054,37.33052],[-114.51006,37.33026],[-114.5093,37.3293],[-114.5089,37.32919],[-114.50865,37.32889],[-114.50804,37.32888],[-114.50855,37.32944],[-114.508,37.33009],[-114.50781,37.33011],[-114.50731,37.32985],[-114.50721,37.32958],[-114.50665,37.32962],[-114.50645,37.32939],[-114.50575,37.32931],[-114.50513,37.32872],[-114.50482,37.32861],[-114.50436,37.32915],[-114.50468,37.32942],[-114.50441,37.32992],[-114.50357,37.33009],[-114.50306,37.33006],[-114.503,37.3299],[-114.50323,37.32977],[-114.50319,37.32963],[-114.50346,37.32958],[-114.50352,37.32922],[-114.50251,37.32911],[-114.50228,37.32925],[-114.50213,37.32911],[-114.5021,37.32881],[-114.50246,37.32842],[-114.5026,37.32798],[-114.50291,37.32765],[-114.50322,37.32763],[-114.50354,37.32724],[-114.50348,37.32703],[-114.50324,37.32691],[-114.50306,37.32716],[-114.50281,37.32721],[-114.50275,37.32708],[-114.50279,37.32681],[-114.50305,37.3268],[-114.5034,37.32636],[-114.50365,37.32636],[-114.50368,37.32617],[-114.50336,37.32617],[-114.50343,37.3257],[-114.50327,37.32559],[-114.5034,37.32553],[-114.50341,37.32533],[-114.50315,37.32511],[-114.5029,37.32513],[-114.50294,37.32473],[-114.50312,37.3246],[-114.50017,37.32205],[-114.49949,37.32164],[-114.4989,37.32167],[-114.49855,37.32133],[-114.49835,37.32134],[-114.49795,37.32166],[-114.49782,37.32207],[-114.49764,37.32215],[-114.49753,37.32194],[-114.4976,37.32173],[-114.49807,37.32131],[-114.49816,37.32096],[-114.49809,37.32058],[-114.49761,37.32034],[-114.49753,37.32015],[-114.49696,37.31994],[-114.49593,37.31983],[-114.49601,37.31966],[-114.49581,37.31944],[-114.49583,37.31917],[-114.49529,37.319],[-114.49565,37.31888],[-114.49566,37.31862],[-114.49652,37.31842],[-114.49843,37.3188],[-114.49839,37.31867],[-114.49892,37.31861],[-114.49916,37.31835],[-114.4991,37.31802],[-114.49922,37.31792],[-114.49968,37.31804],[-114.50056,37.3186],[-114.50117,37.3202],[-114.50162,37.32043],[-114.50177,37.32029],[-114.50222,37.32036],[-114.5018,37.32083],[-114.50202,37.3213],[-114.50198,37.32177],[-114.50229,37.32206],[-114.50294,37.32237],[-114.5033,37.32235],[-114.50403,37.32194],[-114.50435,37.32155],[-114.5058,37.32145],[-114.50603,37.32173],[-114.50598,37.32185],[-114.50564,37.3221],[-114.50542,37.32207],[-114.50513,37.32248],[-114.50541,37.32257],[-114.50553,37.32314],[-114.50535,37.32326],[-114.50507,37.32315],[-114.50537,37.3238],[-114.50563,37.324],[-114.50568,37.32438],[-114.50664,37.32543],[-114.50691,37.32557],[-114.50706,37.32595],[-114.50658,37.32612],[-114.50671,37.32652],[-114.50808,37.32727],[-114.50865,37.32784],[-114.50931,37.32868],[-114.50971,37.32948],[-114.51039,37.33013],[-114.51054,37.33052]]]},"properties":{"fire_id":"ufid:2025-NVLINX-040038","source_collection":"history-2025","source_objectid":45366,"incident_name":"Elgin","mapped_acres":115.5,"mapped_acres_source":"poly_GISAcres","gis_acres":115.5,"auto_acres":119.10719494720591,"reported_acres":115.5,"percent_contained":null,"state":"NV","state_wfigs":"US-NV","county":"Lincoln","discovery_time_utc":"2025-04-24T20:04:49Z","perimeter_time_utc":"2025-09-03T15:59:42Z","perimeter_edit_time_utc":null,"incident_modified_time_utc":"2025-04-26T18:07:56Z","containment_time_utc":"2025-04-26T01:00:00Z","control_time_utc":"2025-05-02T01:00:00Z","fire_out_time_utc":"2025-05-07T23:00:00Z","fire_cause":"Human","fire_cause_general":"Debris and open burning","map_method":"Auto-generated for InFORM","source_dataset":"FFP","unique_fire_identifier":"2025-NVLINX-040038","irwin_id":"{EAE3B3BC-6B2F-4167-81E7-54DD36935898}","global_id":"a3efde70-5113-4d05-b14a-4a99741ea99f"}},{"type":"Feature","geometry":{"type":"MultiPolygon","coordinates":[[[[-114.97783,36.20036],[-114.9782,36.20025],[-114.97805,36.19996],[-114.97854,36.19988],[-114.97832,36.20004],[-114.97864,36.20033],[-114.97837,36.20051],[-114.97822,36.20037],[-114.97797,36.2005],[-114.97783,36.20036]]],[[[-114.97862,36.20021],[-114.97862,36.20025],[-114.97858,36.20024],[-114.97862,36.20021]]]]},"properties":{"fire_id":"ufid:2025-NVSND-500361","source_collection":"history-2025","source_objectid":46417,"incident_name":"Frenchman","mapped_acres":0.56,"mapped_acres_source":"poly_GISAcres","gis_acres":0.56,"auto_acres":0.5644161966002108,"reported_acres":0.56,"percent_contained":null,"state":"NV","state_wfigs":"US-NV","county":"Clark","discovery_time_utc":"2025-04-23T05:32:16Z","perimeter_time_utc":"2025-09-25T23:14:53Z","perimeter_edit_time_utc":null,"incident_modified_time_utc":"2025-05-09T16:05:13Z","containment_time_utc":"2025-04-23T08:20:00Z","control_time_utc":"2025-04-23T15:57:00Z","fire_out_time_utc":"2025-04-29T15:00:00Z","fire_cause":"Human","fire_cause_general":"Undetermined","map_method":"Mixed Methods","source_dataset":"FFP","unique_fire_identifier":"2025-NVSND-500361","irwin_id":"{405A2EB5-E661-44BD-B3C2-973E15F6AA95}","global_id":"35beaff5-ee9e-45a8-98c3-c60ccebdb68f"}},{"type":"Feature","geometry":{"type":"Polygon","coordinates":[[[-114.08369,36.79217],[-114.08395,36.79223],[-114.084,36.79238],[-114.08359,36.79241],[-114.08369,36.79217]]]},"properties":{"fire_id":"ufid:2025-NVSND-500067","source_collection":"history-2025","source_objectid":46419,"incident_name":"Bunkerville Ditch","mapped_acres":0.1664199,"mapped_acres_source":"poly_GISAcres","gis_acres":0.1664199,"auto_acres":0.1664192293659626,"reported_acres":0.2,"percent_contained":null,"state":"NV","state_wfigs":"US-NV","county":"Clark","discovery_time_utc":"2025-01-21T07:15:00Z","perimeter_time_utc":"2025-09-25T23:25:30Z","perimeter_edit_time_utc":null,"incident_modified_time_utc":"2025-01-31T18:52:26Z","containment_time_utc":"2025-01-21T12:00:00Z","control_time_utc":"2025-01-21T12:30:00Z","fire_out_time_utc":"2025-01-29T20:00:00Z","fire_cause":"Human","fire_cause_general":"Undetermined","map_method":"Mixed Methods","source_dataset":"FFP","unique_fire_identifier":"2025-NVSND-500067","irwin_id":"{9B16CCBB-8EDD-4242-AD14-5370D192AC24}","global_id":"51766eac-a885-4d67-919a-5d718638043a"}},{"type":"Feature","geometry":{"type":"Polygon","coordinates":[[[-114.85039,38.97719],[-114.85074,38.9772],[-114.85064,38.97745],[-114.8504,38.97735],[-114.85039,38.97719]]]},"properties":{"fire_id":"ufid:2025-NVELD-040370","source_collection":"history-2025","source_objectid":47593,"incident_name":"Rock Spring","mapped_acres":0.17,"mapped_acres_source":"poly_GISAcres","gis_acres":0.17,"auto_acres":0.17066962394650215,"reported_acres":0.3,"percent_contained":null,"state":"NV","state_wfigs":"US-NV","county":"White Pine","discovery_time_utc":"2025-09-25T20:57:31Z","perimeter_time_utc":"2025-10-20T20:41:47Z","perimeter_edit_time_utc":null,"incident_modified_time_utc":"2025-10-08T20:28:34Z","containment_time_utc":"2025-09-26T15:00:00Z","control_time_utc":"2025-09-27T01:00:00Z","fire_out_time_utc":"2025-10-04T00:00:00Z","fire_cause":"Natural","fire_cause_general":"Natural","map_method":"Mixed Methods","source_dataset":"FFP","unique_fire_identifier":"2025-NVELD-040370","irwin_id":"{358B179E-BADB-44BB-B7FE-C1F8DEC074B8}","global_id":"c444c99c-e6aa-4fb8-a28f-61e610f8cd26"}},{"type":"Feature","geometry":{"type":"Polygon","coordinates":[[[-114.39576,37.47419],[-114.39546,37.4741],[-114.39521,37.47423],[-114.3952,37.47408],[-114.39492,37.4742],[-114.39505,37.47387],[-114.39493,37.47366],[-114.39565,37.47342],[-114.39597,37.47359],[-114.3961,37.4739],[-114.39576,37.47419]]]},"properties":{"fire_id":"ufid:2025-NVELD-040360","source_collection":"history-2025","source_objectid":47599,"incident_name":"Fife","mapped_acres":1.59,"mapped_acres_source":"poly_GISAcres","gis_acres":1.59,"auto_acres":1.5871332306557724,"reported_acres":1.6,"percent_contained":null,"state":"NV","state_wfigs":"US-NV","county":"Lincoln","discovery_time_utc":"2025-09-25T19:44:00Z","perimeter_time_utc":"2025-10-20T20:50:17Z","perimeter_edit_time_utc":null,"incident_modified_time_utc":"2025-10-08T17:50:04Z","containment_time_utc":"2025-09-26T21:45:00Z","control_time_utc":"2025-09-29T21:55:00Z","fire_out_time_utc":"2025-10-07T00:00:00Z","fire_cause":"Natural","fire_cause_general":"Natural","map_method":"Mixed Methods","source_dataset":"FFP","unique_fire_identifier":"2025-NVELD-040360","irwin_id":"{A5209D2B-9A45-4621-90B7-034FCBA93438}","global_id":"13969971-5f41-4251-9352-80d44c95709f"}},{"type":"Feature","geometry":{"type":"Polygon","coordinates":[[[-114.9869,36.08667],[-114.98693,36.08667],[-114.98693,36.0867],[-114.9869,36.08667]]]},"properties":{"fire_id":"ufid:2025-NVLCL-500959","source_collection":"history-2025","source_objectid":48254,"incident_name":"Sewage","mapped_acres":0.1,"mapped_acres_source":"poly_GISAcres","gis_acres":0.1,"auto_acres":0.0020521604494657788,"reported_acres":0.1,"percent_contained":null,"state":"NV","state_wfigs":"US-NV","county":"Clark","discovery_time_utc":"2025-08-09T00:27:50Z","perimeter_time_utc":"2025-11-05T21:34:09Z","perimeter_edit_time_utc":null,"incident_modified_time_utc":"2025-11-03T19:30:13Z","containment_time_utc":"2025-08-09T01:30:00Z","control_time_utc":"2025-08-09T01:35:00Z","fire_out_time_utc":"2025-08-13T17:00:00Z","fire_cause":"Human","fire_cause_general":"Undetermined","map_method":"Mixed Methods","source_dataset":"FFP","unique_fire_identifier":"2025-NVLCL-500959","irwin_id":"{2A8C819E-8E9D-4422-931D-90E892D94492}","global_id":"0c533692-6c02-4eb1-a50d-195df28c96ff"}},{"type":"Feature","geometry":{"type":"Polygon","coordinates":[[[-114.99479,36.20077],[-114.99496,36.20071],[-114.99492,36.20079],[-114.99479,36.20077]]]},"properties":{"fire_id":"ufid:2025-NVSND-501247","source_collection":"history-2025","source_objectid":49030,"incident_name":"SR147 MM35","mapped_acres":0.03,"mapped_acres_source":"poly_GISAcres","gis_acres":0.03,"auto_acres":0.032269195436653665,"reported_acres":0.1,"percent_contained":null,"state":"NV","state_wfigs":"US-NV","county":"Clark","discovery_time_utc":"2025-11-13T21:45:11Z","perimeter_time_utc":null,"perimeter_edit_time_utc":"2025-12-05T22:29:12Z","incident_modified_time_utc":"2025-11-18T16:17:57Z","containment_time_utc":"2025-11-14T00:15:00Z","control_time_utc":"2025-11-14T00:15:00Z","fire_out_time_utc":"2025-11-16T06:00:00Z","fire_cause":"Human","fire_cause_general":null,"map_method":"Mixed Methods","source_dataset":"2025 NIFS","unique_fire_identifier":"2025-NVSND-501247","irwin_id":"{DDF4055D-C6AC-4765-BFBD-96C83BD62596}","global_id":"e1b0e78b-0cd1-4f2e-acf7-d910bb032e70"}},{"type":"Feature","geometry":{"type":"MultiPolygon","coordinates":[[[[-114.97243,39.28028],[-114.97231,39.28028],[-114.97241,39.28024],[-114.97243,39.28028]]],[[[-114.9723,39.28028],[-114.97231,39.28028],[-114.9723,39.28029],[-114.9723,39.28028]]],[[[-114.96953,39.28113],[-114.96891,39.28178],[-114.96911,39.28123],[-114.96935,39.28108],[-114.96933,39.28081],[-114.9696,39.28074],[-114.96953,39.28113]]],[[[-114.9686,39.28231],[-114.96767,39.28257],[-114.96757,39.28248],[-114.96846,39.28212],[-114.96859,39.2821],[-114.9686,39.28231]]]]},"properties":{"fire_id":"ufid:2025-NVELD-040412","source_collection":"history-2025","source_objectid":54838,"incident_name":"Wye","mapped_acres":1.070598,"mapped_acres_source":"poly_GISAcres","gis_acres":1.070598,"auto_acres":1.0705937926897797,"reported_acres":1.0,"percent_contained":null,"state":"NV","state_wfigs":"US-NV","county":"White Pine","discovery_time_utc":"2025-11-01T20:57:00Z","perimeter_time_utc":"2026-06-12T17:48:35Z","perimeter_edit_time_utc":null,"incident_modified_time_utc":"2025-11-03T16:27:21Z","containment_time_utc":"2025-11-02T00:45:00Z","control_time_utc":"2025-11-02T17:00:00Z","fire_out_time_utc":"2025-11-06T02:00:00Z","fire_cause":"Human","fire_cause_general":"Undetermined","map_method":"Mixed Methods","source_dataset":"FFP","unique_fire_identifier":"2025-NVELD-040412","irwin_id":"{29518771-93DE-4D30-99EF-CEE4DF854E96}","global_id":"ef7eb0bc-50ce-4629-bc3d-3bef8cd398f1"}}]}
