{"type":"FeatureCollection","features":[{"type":"Feature","geometry":{"type":"Polygon","coordinates":[[[-96.63534,36.478],[-96.63505,36.47805],[-96.63448,36.47769],[-96.63456,36.4773],[-96.63482,36.47713],[-96.63566,36.47768],[-96.63534,36.478]]]},"properties":{"fire_id":"ufid:2025-OKOSA-000130","source_collection":"history-2025","source_objectid":36783,"incident_name":"CREEK LAND","mapped_acres":1.0,"mapped_acres_source":"poly_GISAcres","gis_acres":1.0,"auto_acres":1.5924111813463844,"reported_acres":1.0,"percent_contained":null,"state":"OK","state_wfigs":"US-OK","county":"Osage","discovery_time_utc":"2025-01-27T21:30:00Z","perimeter_time_utc":"2025-01-30T14:59:32Z","perimeter_edit_time_utc":"2025-01-30T14:59:32Z","incident_modified_time_utc":"2025-01-28T14:23:45Z","containment_time_utc":"2025-01-28T22:00:00Z","control_time_utc":"2025-01-29T21:00:00Z","fire_out_time_utc":"2025-01-30T18:00:00Z","fire_cause":"Human","fire_cause_general":"Equipment and vehicle use","map_method":"Auto-generated for InFORM","source_dataset":"FFP","unique_fire_identifier":"2025-OKOSA-000130","irwin_id":"{EEC7CDEB-D8FB-4E6F-82DC-D77450679700}","global_id":"7076bdc5-49d9-4a68-b3fa-2207a96f3ce8"}},{"type":"Feature","geometry":{"type":"Polygon","coordinates":[[[-97.08618,36.60531],[-97.08574,36.60489],[-97.08564,36.605],[-97.08569,36.60539],[-97.0855,36.60532],[-97.08551,36.60441],[-97.08592,36.6038],[-97.08656,36.60378],[-97.08641,36.60486],[-97.08618,36.60531]]]},"properties":{"fire_id":"ufid:2025-OKPAA-000101","source_collection":"history-2025","source_objectid":36784,"incident_name":"02-Bravo-PAA","mapped_acres":3.0,"mapped_acres_source":"poly_GISAcres","gis_acres":3.0,"auto_acres":2.7324530830636675,"reported_acres":3.0,"percent_contained":null,"state":"OK","state_wfigs":"US-OK","county":"Kay","discovery_time_utc":"2025-01-24T22:00:00Z","perimeter_time_utc":"2025-01-30T16:06:00Z","perimeter_edit_time_utc":"2025-01-30T16:06:00Z","incident_modified_time_utc":"2025-01-27T15:11:00Z","containment_time_utc":"2025-01-24T23:00:00Z","control_time_utc":"2025-01-25T17:00:00Z","fire_out_time_utc":"2025-01-27T17:00:00Z","fire_cause":"Human","fire_cause_general":"Arson","map_method":"Auto-generated for InFORM","source_dataset":"FFP","unique_fire_identifier":"2025-OKPAA-000101","irwin_id":"{657FE8C1-F5D3-439F-9F2E-93657A9A1102}","global_id":"e6fad2bc-ff56-4e31-9abf-3ec4b45883e0"}},{"type":"Feature","geometry":{"type":"Polygon","coordinates":[[[-96.18703,36.73205],[-96.1887,36.73284],[-96.19044,36.73386],[-96.191,36.73361],[-96.19127,36.73334],[-96.19116,36.73209],[-96.19181,36.73102],[-96.19222,36.73076],[-96.19318,36.73054],[-96.19357,36.73065],[-96.19417,36.73131],[-96.19471,36.73236],[-96.19654,36.73663],[-96.19722,36.73789],[-96.1993,36.74102],[-96.20017,36.74162],[-96.2021,36.74246],[-96.2031,36.74269],[-96.20349,36.74246],[-96.20422,36.74155],[-96.20452,36.74194],[-96.20468,36.74194],[-96.20484,36.74184],[-96.20486,36.7416],[-96.20507,36.74133],[-96.20534,36.74127],[-96.20553,36.74157],[-96.2052,36.74186],[-96.20538,36.74225],[-96.20565,36.74245],[-96.20551,36.74301],[-96.20444,36.74331],[-96.20395,36.74444],[-96.20256,36.74535],[-96.20181,36.74532],[-96.20157,36.74455],[-96.20121,36.74438],[-96.20117,36.74406],[-96.20081,36.74392],[-96.20032,36.74412],[-96.19975,36.74474],[-96.19926,36.7446],[-96.19817,36.74481],[-96.19679,36.74535],[-96.1958,36.74557],[-96.19417,36.74651],[-96.19374,36.74794],[-96.19276,36.74957],[-96.19222,36.74949],[-96.19127,36.7497],[-96.191,36.74959],[-96.19051,36.74911],[-96.19009,36.74904],[-96.19004,36.7483],[-96.18952,36.74812],[-96.18826,36.74569],[-96.18776,36.74553],[-96.18777,36.74146],[-96.18759,36.74065],[-96.18772,36.74008],[-96.1873,36.73927],[-96.18728,36.73898],[-96.18748,36.738],[-96.18793,36.73792],[-96.18849,36.73744],[-96.18857,36.73714],[-96.18853,36.7368],[-96.18808,36.73645],[-96.18714,36.7365],[-96.1872,36.73344],[-96.18711,36.73267],[-96.18694,36.73243],[-96.18703,36.73205]]]},"properties":{"fire_id":"ufid:2025-OKOSA-000264","source_collection":"history-2025","source_objectid":37192,"incident_name":"CROSS TIMBERS","mapped_acres":402.6,"mapped_acres_source":"poly_GISAcres","gis_acres":402.6,"auto_acres":405.857258297444,"reported_acres":402.6,"percent_contained":100.0,"state":"OK","state_wfigs":"US-OK","county":"Osage","discovery_time_utc":"2025-02-27T22:37:28Z","perimeter_time_utc":"2025-02-28T13:36:46Z","perimeter_edit_time_utc":"2025-02-28T17:27:02Z","incident_modified_time_utc":"2025-03-19T15:41:49Z","containment_time_utc":"2025-03-18T17:00:00Z","control_time_utc":"2025-03-18T17:00:00Z","fire_out_time_utc":"2025-03-18T17:00:00Z","fire_cause":"Undetermined","fire_cause_general":null,"map_method":"Auto-generated for InFORM","source_dataset":"2025 NIFS","unique_fire_identifier":"2025-OKOSA-000264","irwin_id":"{FF9B8643-14CD-48AC-BFEC-13EB5A1BFAD3}","global_id":"218d8c14-0883-4cc2-833d-c1a16ccf15ce"}},{"type":"Feature","geometry":{"type":"Polygon","coordinates":[[[-96.12221,36.44114],[-96.12315,36.44123],[-96.12317,36.44205],[-96.12369,36.44233],[-96.12406,36.44179],[-96.12493,36.4415],[-96.12501,36.44134],[-96.12512,36.44175],[-96.12533,36.44196],[-96.1251,36.44226],[-96.12492,36.44229],[-96.12473,36.44299],[-96.12247,36.44293],[-96.12215,36.44272],[-96.12214,36.4415],[-96.1223,36.44118],[-96.12221,36.44114]]]},"properties":{"fire_id":"ufid:2025-OKOSA-000321","source_collection":"history-2025","source_objectid":37273,"incident_name":"CORBO","mapped_acres":12.0,"mapped_acres_source":"poly_GISAcres","gis_acres":12.0,"auto_acres":9.337371194488886,"reported_acres":12.0,"percent_contained":null,"state":"OK","state_wfigs":"US-OK","county":"Osage","discovery_time_utc":"2025-03-01T18:30:00Z","perimeter_time_utc":"2025-03-03T22:16:20Z","perimeter_edit_time_utc":"2025-03-03T22:16:20Z","incident_modified_time_utc":"2025-03-03T18:45:02Z","containment_time_utc":null,"control_time_utc":null,"fire_out_time_utc":"2025-03-03T22:30:00Z","fire_cause":"Human","fire_cause_general":"Debris and open burning","map_method":"Auto-generated for InFORM","source_dataset":"FFP","unique_fire_identifier":"2025-OKOSA-000321","irwin_id":"{01C9EAEE-B2B4-4C13-A10D-930C15B3EC6A}","global_id":"450ecb3a-eb45-4427-a0ea-1943671189c4"}},{"type":"Feature","geometry":{"type":"MultiPolygon","coordinates":[[[[-96.13772,36.44042],[-96.13702,36.4426],[-96.13705,36.44425],[-96.13755,36.44394],[-96.13778,36.44355],[-96.1377,36.44322],[-96.13805,36.44296],[-96.13819,36.44308],[-96.13812,36.4433],[-96.13844,36.44379],[-96.13835,36.44422],[-96.13853,36.44435],[-96.13792,36.44466],[-96.13768,36.44492],[-96.13726,36.44509],[-96.13673,36.44509],[-96.1363,36.44538],[-96.13534,36.44545],[-96.13523,36.44583],[-96.13476,36.44588],[-96.13384,36.4456],[-96.13109,36.44555],[-96.12977,36.44516],[-96.12977,36.44728],[-96.12953,36.44755],[-96.12907,36.44752],[-96.12835,36.44704],[-96.12791,36.44719],[-96.12748,36.44682],[-96.12657,36.44659],[-96.12657,36.44618],[-96.12632,36.44551],[-96.1261,36.44542],[-96.12605,36.44525],[-96.12626,36.44482],[-96.12677,36.4447],[-96.12699,36.4445],[-96.12702,36.44469],[-96.12725,36.4448],[-96.12785,36.44424],[-96.12792,36.44398],[-96.12805,36.44398],[-96.12817,36.4442],[-96.12851,36.44414],[-96.12866,36.44426],[-96.12915,36.44429],[-96.12912,36.44376],[-96.12948,36.443],[-96.12973,36.44278],[-96.12978,36.44246],[-96.13002,36.44253],[-96.13042,36.44234],[-96.13055,36.442],[-96.13153,36.44233],[-96.13177,36.44275],[-96.13192,36.44279],[-96.13194,36.44222],[-96.1317,36.44187],[-96.13195,36.44174],[-96.13187,36.4416],[-96.13204,36.4413],[-96.13192,36.44113],[-96.13254,36.44065],[-96.13263,36.44072],[-96.13248,36.44096],[-96.13268,36.4411],[-96.13364,36.44109],[-96.13398,36.44096],[-96.1344,36.44107],[-96.13592,36.44002],[-96.13615,36.44017],[-96.13604,36.44032],[-96.13616,36.44044],[-96.13692,36.43958],[-96.13729,36.43941],[-96.13772,36.44042]]],[[[-96.12654,36.44639],[-96.12655,36.44641],[-96.12653,36.44641],[-96.12654,36.44639]]],[[[-96.12652,36.44641],[-96.12653,36.44641],[-96.1265,36.44644],[-96.12652,36.44641]]],[[[-96.12666,36.44665],[-96.12669,36.44665],[-96.12669,36.44666],[-96.12666,36.44665]]]]},"properties":{"fire_id":"ufid:2025-OKOSA-000339","source_collection":"history-2025","source_objectid":37274,"incident_name":"310Y","mapped_acres":100.0,"mapped_acres_source":"poly_GISAcres","gis_acres":100.0,"auto_acres":109.22617968220936,"reported_acres":100.0,"percent_contained":null,"state":"OK","state_wfigs":"US-OK","county":"Osage","discovery_time_utc":"2025-03-01T16:30:00Z","perimeter_time_utc":"2025-03-03T22:57:47Z","perimeter_edit_time_utc":"2025-03-03T22:57:48Z","incident_modified_time_utc":"2025-03-02T15:27:28Z","containment_time_utc":"2025-03-02T18:00:00Z","control_time_utc":"2025-03-02T22:30:00Z","fire_out_time_utc":"2025-03-03T22:30:00Z","fire_cause":"Human","fire_cause_general":"Debris and open burning","map_method":"Auto-generated for InFORM","source_dataset":"FFP","unique_fire_identifier":"2025-OKOSA-000339","irwin_id":"{57DC6E95-D144-4D6B-BDA1-D80193090395}","global_id":"994dfb69-82c8-4978-892b-c9f7fa7fcdcf"}},{"type":"Feature","geometry":{"type":"Polygon","coordinates":[[[-96.60334,35.29453],[-96.60043,35.29446],[-96.60041,35.2902],[-96.60535,35.29016],[-96.60537,35.29141],[-96.60513,35.29215],[-96.6047,35.29233],[-96.60461,35.29273],[-96.60493,35.29318],[-96.6054,35.29352],[-96.60574,35.29357],[-96.60562,35.29382],[-96.60576,35.29397],[-96.60525,35.29403],[-96.60526,35.29428],[-96.60559,35.29442],[-96.60334,35.29453]]]},"properties":{"fire_id":"ufid:2025-OKWEA-000344","source_collection":"history-2025","source_objectid":37403,"incident_name":"ALMOST","mapped_acres":51.1,"mapped_acres_source":"poly_GISAcres","gis_acres":51.1,"auto_acres":51.61548087847644,"reported_acres":51.1,"percent_contained":null,"state":"OK","state_wfigs":"US-OK","county":"Seminole","discovery_time_utc":"2025-03-01T14:00:00Z","perimeter_time_utc":"2025-03-10T16:53:37Z","perimeter_edit_time_utc":"2025-03-10T16:53:37Z","incident_modified_time_utc":"2025-03-02T16:41:56Z","containment_time_utc":"2025-03-01T18:00:00Z","control_time_utc":null,"fire_out_time_utc":null,"fire_cause":"Human","fire_cause_general":"Arson","map_method":"Auto-generated for InFORM","source_dataset":"FFP","unique_fire_identifier":"2025-OKWEA-000344","irwin_id":"{234A9284-B847-4E89-A254-9F89EC9C7C11}","global_id":"5605d652-92bf-4d6e-b009-5224ec1c985d"}},{"type":"Feature","geometry":{"type":"MultiPolygon","coordinates":[[[[-96.38349,36.32592],[-96.3836,36.32586],[-96.3837,36.32581],[-96.38349,36.32592]]],[[[-96.4176,36.33706],[-96.41761,36.33705],[-96.4176,36.33707],[-96.4176,36.33706]]],[[[-96.39812,36.31849],[-96.39845,36.32002],[-96.39849,36.3219],[-96.40328,36.32209],[-96.40358,36.32246],[-96.40352,36.32263],[-96.40264,36.3232],[-96.40165,36.32421],[-96.40097,36.32541],[-96.4007,36.32638],[-96.40055,36.32802],[-96.40058,36.32829],[-96.40067,36.32819],[-96.40077,36.33077],[-96.40184,36.33104],[-96.40207,36.3312],[-96.40234,36.33168],[-96.40272,36.33185],[-96.40661,36.33237],[-96.40739,36.33229],[-96.40749,36.3326],[-96.40763,36.33263],[-96.41036,36.33267],[-96.41054,36.33283],[-96.41142,36.33267],[-96.41221,36.33279],[-96.41261,36.33268],[-96.41547,36.3327],[-96.41594,36.33194],[-96.41699,36.33078],[-96.41719,36.32998],[-96.41742,36.32983],[-96.41766,36.32995],[-96.41797,36.33044],[-96.41821,36.33145],[-96.41792,36.33242],[-96.41935,36.33333],[-96.41826,36.335],[-96.41583,36.34226],[-96.41523,36.34425],[-96.41531,36.34601],[-96.41337,36.34645],[-96.41262,36.34681],[-96.41147,36.34779],[-96.41087,36.34874],[-96.41063,36.34967],[-96.40953,36.35769],[-96.4093,36.35806],[-96.40841,36.35767],[-96.40816,36.35768],[-96.40559,36.35636],[-96.40509,36.35629],[-96.40495,36.35606],[-96.40437,36.35576],[-96.39536,36.3514],[-96.39277,36.35002],[-96.3921,36.34946],[-96.3913,36.34908],[-96.39046,36.34888],[-96.38876,36.34793],[-96.38863,36.34772],[-96.38916,36.3469],[-96.38886,36.34604],[-96.38914,36.34561],[-96.38921,36.34519],[-96.38861,36.34304],[-96.3869,36.34295],[-96.38478,36.34374],[-96.38398,36.3437],[-96.3831,36.34395],[-96.38014,36.34369],[-96.37919,36.34344],[-96.37632,36.34135],[-96.37577,36.3414],[-96.37584,36.34134],[-96.37535,36.34129],[-96.3748,36.34098],[-96.37415,36.34083],[-96.37336,36.341],[-96.37304,36.34095],[-96.37234,36.33997],[-96.37162,36.3398],[-96.3716,36.33029],[-96.37177,36.32986],[-96.37221,36.32937],[-96.3733,36.32892],[-96.37709,36.32914],[-96.37832,36.32888],[-96.38565,36.32478],[-96.39496,36.31853],[-96.39604,36.31823],[-96.39773,36.31825],[-96.39812,36.31849]]]]},"properties":{"fire_id":"ufid:2025-OKOSA-000502","source_collection":"history-2025","source_objectid":37495,"incident_name":"NADEL","mapped_acres":2398.0,"mapped_acres_source":"poly_GISAcres","gis_acres":2398.0,"auto_acres":2372.9139053154913,"reported_acres":2398.0,"percent_contained":100.0,"state":"OK","state_wfigs":"US-OK","county":"Osage","discovery_time_utc":"2025-03-11T21:15:00Z","perimeter_time_utc":"2025-03-12T14:31:43Z","perimeter_edit_time_utc":"2025-03-13T16:44:53Z","incident_modified_time_utc":"2025-05-06T20:30:57Z","containment_time_utc":"2025-03-28T13:00:00Z","control_time_utc":"2025-03-31T13:00:00Z","fire_out_time_utc":"2025-03-31T13:00:00Z","fire_cause":"Undetermined","fire_cause_general":null,"map_method":"Auto-generated for InFORM","source_dataset":"2025 NIFS","unique_fire_identifier":"2025-OKOSA-000502","irwin_id":"{4B8226AD-30CB-44B7-99B5-D6CE28C23B80}","global_id":"1d59e58d-5954-4bd5-9834-b81b7f93b59b"}},{"type":"Feature","geometry":{"type":"MultiPolygon","coordinates":[[[[-96.33224,36.50078],[-96.33325,36.50096],[-96.33405,36.50173],[-96.33412,36.50228],[-96.33437,36.5026],[-96.33423,36.50283],[-96.33155,36.50293],[-96.33245,36.50288],[-96.33206,36.50191],[-96.33259,36.50164],[-96.33169,36.501],[-96.33102,36.50012],[-96.33098,36.49961],[-96.33111,36.49921],[-96.33189,36.50093],[-96.33224,36.50078]]],[[[-96.33423,36.50283],[-96.33666,36.50283],[-96.3343,36.50288],[-96.33423,36.50283]]],[[[-96.33155,36.50293],[-96.33152,36.50293],[-96.33156,36.5029],[-96.33155,36.50293]]],[[[-96.33557,36.50531],[-96.33557,36.50546],[-96.33578,36.50544],[-96.33582,36.50586],[-96.3361,36.50585],[-96.33611,36.50605],[-96.33564,36.5065],[-96.33517,36.50654],[-96.33481,36.50639],[-96.33456,36.50608],[-96.33466,36.50591],[-96.33383,36.50558],[-96.33245,36.50434],[-96.33225,36.50378],[-96.33146,36.50312],[-96.33154,36.50296],[-96.33457,36.50575],[-96.33254,36.50291],[-96.3343,36.50288],[-96.33522,36.50444],[-96.33527,36.50513],[-96.33557,36.50531]]]]},"properties":{"fire_id":"ufid:2025-OKOSA-000941","source_collection":"history-2025","source_objectid":38479,"incident_name":"GRACE","mapped_acres":25.8,"mapped_acres_source":"poly_GISAcres","gis_acres":25.8,"auto_acres":25.806491797761854,"reported_acres":15.0,"percent_contained":null,"state":"OK","state_wfigs":"US-OK","county":"Osage","discovery_time_utc":"2025-04-10T22:30:00Z","perimeter_time_utc":"2025-04-11T12:51:56Z","perimeter_edit_time_utc":"2025-04-12T15:08:53Z","incident_modified_time_utc":"2025-05-06T21:45:26Z","containment_time_utc":"2025-04-11T17:00:00Z","control_time_utc":"2025-04-20T17:00:00Z","fire_out_time_utc":"2025-04-20T17:00:00Z","fire_cause":"Undetermined","fire_cause_general":null,"map_method":"Auto-generated for InFORM","source_dataset":"2025 NIFS","unique_fire_identifier":"2025-OKOSA-000941","irwin_id":"{2DE91046-E728-40E8-9A92-F941E231A6C0}","global_id":"39903ca3-0bf2-458a-8501-745cd594536a"}},{"type":"Feature","geometry":{"type":"MultiPolygon","coordinates":[[[[-98.4214,35.08084],[-98.42123,35.08077],[-98.42116,35.08031],[-98.42144,35.08068],[-98.4214,35.08084]]],[[[-98.42117,35.0815],[-98.42044,35.08153],[-98.41999,35.08122],[-98.41987,35.08086],[-98.42014,35.0806],[-98.42058,35.08054],[-98.42091,35.08083],[-98.42127,35.08093],[-98.42129,35.08139],[-98.42117,35.0815]]],[[[-98.4256,35.08502],[-98.42541,35.08535],[-98.42514,35.08543],[-98.42499,35.08523],[-98.42458,35.08511],[-98.42402,35.08473],[-98.42427,35.08435],[-98.4256,35.08502]]],[[[-98.41944,35.07738],[-98.42468,35.07441],[-98.42691,35.07296],[-98.42709,35.07294],[-98.42977,35.07424],[-98.42968,35.07404],[-98.42988,35.07372],[-98.4299,35.07273],[-98.43347,35.07269],[-98.43345,35.07292],[-98.43134,35.07291],[-98.4319,35.07322],[-98.43198,35.07356],[-98.43232,35.07367],[-98.4325,35.07399],[-98.43188,35.07436],[-98.43182,35.07452],[-98.43238,35.07528],[-98.43263,35.0755],[-98.43313,35.07552],[-98.43403,35.07588],[-98.43413,35.07624],[-98.43378,35.07693],[-98.43439,35.07688],[-98.43475,35.07708],[-98.43496,35.07836],[-98.43531,35.07945],[-98.435,35.08016],[-98.43578,35.08176],[-98.43613,35.08315],[-98.43705,35.08496],[-98.43322,35.08536],[-98.43258,35.08548],[-98.43251,35.08563],[-98.43223,35.08555],[-98.43219,35.08541],[-98.43093,35.08553],[-98.43043,35.08524],[-98.43057,35.08494],[-98.43089,35.08469],[-98.43089,35.08453],[-98.43069,35.08442],[-98.43049,35.08458],[-98.4304,35.08517],[-98.42892,35.08512],[-98.429,35.08491],[-98.42914,35.08509],[-98.42963,35.08498],[-98.43006,35.08435],[-98.43003,35.08403],[-98.4298,35.08388],[-98.4295,35.08398],[-98.42955,35.08427],[-98.42908,35.08445],[-98.42886,35.08492],[-98.42813,35.08493],[-98.42793,35.08519],[-98.4283,35.08534],[-98.42792,35.08531],[-98.42778,35.08553],[-98.42704,35.08538],[-98.42662,35.08509],[-98.42559,35.08472],[-98.42554,35.08452],[-98.42525,35.08472],[-98.42369,35.08366],[-98.42282,35.08273],[-98.42013,35.07827],[-98.41944,35.07738]]],[[[-98.43353,35.08581],[-98.43326,35.08574],[-98.43326,35.08563],[-98.43348,35.08565],[-98.43353,35.08581]]]]},"properties":{"fire_id":"ufid:2025-OKANA-001523","source_collection":"history-2025","source_objectid":42877,"incident_name":"38-LINCOLN-ANA","mapped_acres":375.0,"mapped_acres_source":"poly_GISAcres","gis_acres":375.0,"auto_acres":373.19552489636936,"reported_acres":375.0,"percent_contained":100.0,"state":"OK","state_wfigs":"US-OK","county":"Caddo","discovery_time_utc":"2025-07-28T21:00:00Z","perimeter_time_utc":"2025-08-01T14:45:03Z","perimeter_edit_time_utc":"2025-08-02T21:25:36Z","incident_modified_time_utc":"2025-08-26T13:39:58Z","containment_time_utc":"2025-08-01T17:00:00Z","control_time_utc":"2025-08-25T17:00:00Z","fire_out_time_utc":"2025-08-25T17:00:00Z","fire_cause":"Undetermined","fire_cause_general":null,"map_method":"Auto-generated for InFORM","source_dataset":"2025 NIFS","unique_fire_identifier":"2025-OKANA-001523","irwin_id":"{05F5C92E-344A-4A98-8721-006B69DECE20}","global_id":"f01e8551-c14a-4f11-826c-e5fb0a49983f"}},{"type":"Feature","geometry":{"type":"Polygon","coordinates":[[[-96.07278,35.42737],[-96.07065,35.42736],[-96.07044,35.42666],[-96.07045,35.42531],[-96.07031,35.42466],[-96.07038,35.42425],[-96.07066,35.42404],[-96.07128,35.42406],[-96.07174,35.42443],[-96.0721,35.42538],[-96.07202,35.42559],[-96.0721,35.42629],[-96.07251,35.42638],[-96.07292,35.4268],[-96.07278,35.42737]]]},"properties":{"fire_id":"ufid:2025-OKOMA-001752","source_collection":"history-2025","source_objectid":43685,"incident_name":"BURNT BALER","mapped_acres":14.5,"mapped_acres_source":"poly_GISAcres","gis_acres":14.5,"auto_acres":14.454708941504032,"reported_acres":14.5,"percent_contained":null,"state":"OK","state_wfigs":"US-OK","county":"Okmulgee","discovery_time_utc":"2025-08-16T20:00:00Z","perimeter_time_utc":"2025-08-17T13:09:02Z","perimeter_edit_time_utc":"2025-08-20T00:41:28Z","incident_modified_time_utc":"2025-09-04T14:32:21Z","containment_time_utc":"2025-08-16T22:00:00Z","control_time_utc":"2025-09-01T17:00:00Z","fire_out_time_utc":"2025-09-01T17:00:00Z","fire_cause":"Human","fire_cause_general":null,"map_method":"Auto-generated for InFORM","source_dataset":"2025 NIFS","unique_fire_identifier":"2025-OKOMA-001752","irwin_id":"{DB4F74E9-9995-4473-AAA0-747E54DEC2E9}","global_id":"ed11f5f4-dd07-47fd-b1f2-0f1280ee0f99"}},{"type":"Feature","geometry":{"type":"MultiPolygon","coordinates":[[[[-96.17404,35.18124],[-96.17516,35.1825],[-96.17503,35.18291],[-96.17596,35.18375],[-96.17601,35.18393],[-96.1756,35.1838],[-96.1755,35.18395],[-96.17519,35.18397],[-96.17509,35.18383],[-96.1748,35.18388],[-96.17473,35.18407],[-96.17429,35.18411],[-96.17395,35.18374],[-96.17358,35.18368],[-96.17357,35.18353],[-96.17382,35.18335],[-96.17361,35.1825],[-96.17325,35.1821],[-96.17307,35.1816],[-96.17311,35.18145],[-96.17365,35.18142],[-96.17362,35.1812],[-96.17376,35.18113],[-96.17404,35.18124]]],[[[-96.17602,35.18381],[-96.17599,35.18379],[-96.17599,35.18378],[-96.17602,35.18381]]]]},"properties":{"fire_id":"ufid:2025-OKOMA-001807","source_collection":"history-2025","source_objectid":43726,"incident_name":"GREEN","mapped_acres":10.2,"mapped_acres_source":"poly_GISAcres","gis_acres":10.2,"auto_acres":10.245582115660033,"reported_acres":10.2,"percent_contained":null,"state":"OK","state_wfigs":"US-OK","county":"Hughes","discovery_time_utc":"2025-08-19T21:05:00Z","perimeter_time_utc":"2025-08-20T14:11:05Z","perimeter_edit_time_utc":"2025-08-21T15:16:36Z","incident_modified_time_utc":"2025-08-26T21:03:11Z","containment_time_utc":"2025-08-19T23:13:00Z","control_time_utc":"2025-08-26T17:00:00Z","fire_out_time_utc":"2025-08-26T17:00:00Z","fire_cause":"Human","fire_cause_general":null,"map_method":"Auto-generated for InFORM","source_dataset":"2025 NIFS","unique_fire_identifier":"2025-OKOMA-001807","irwin_id":"{1F7DAF9D-054F-4F73-A522-CC4041C2C02D}","global_id":"6e275bdd-0773-45d0-b539-d7dd4cf04662"}},{"type":"Feature","geometry":{"type":"Polygon","coordinates":[[[-98.35939,35.04243],[-98.36005,35.04231],[-98.36045,35.04174],[-98.36051,35.04092],[-98.35965,35.04042],[-98.3596,35.03903],[-98.36041,35.03626],[-98.36178,35.03621],[-98.36246,35.0357],[-98.36312,35.03559],[-98.36333,35.03632],[-98.36374,35.03637],[-98.36416,35.0377],[-98.36466,35.03857],[-98.36529,35.0405],[-98.36703,35.04273],[-98.36719,35.0435],[-98.35908,35.04346],[-98.35939,35.04243]]]},"properties":{"fire_id":"ufid:2025-OKANA-001458","source_collection":"history-2025","source_objectid":43767,"incident_name":"37-KING-ANA","mapped_acres":98.0,"mapped_acres_source":"poly_GISAcres","gis_acres":98.0,"auto_acres":99.18047006331741,"reported_acres":98.0,"percent_contained":null,"state":"OK","state_wfigs":"US-OK","county":"Caddo","discovery_time_utc":"2025-07-20T20:00:00Z","perimeter_time_utc":"2025-08-22T13:57:19Z","perimeter_edit_time_utc":null,"incident_modified_time_utc":"2025-08-20T13:24:59Z","containment_time_utc":null,"control_time_utc":null,"fire_out_time_utc":"2025-08-20T13:24:12Z","fire_cause":"Human","fire_cause_general":"Debris and open burning","map_method":"Auto-generated for InFORM","source_dataset":"FFP","unique_fire_identifier":"2025-OKANA-001458","irwin_id":"{6CC5F465-F4E6-43C0-981B-A2A3A59E5C41}","global_id":"5426e8d6-5ac2-4e92-99f6-6fb43ab8a4d6"}},{"type":"Feature","geometry":{"type":"Polygon","coordinates":[[[-98.36561,35.01467],[-98.36433,35.01168],[-98.36166,35.00728],[-98.36268,35.00664],[-98.36398,35.00749],[-98.36524,35.00865],[-98.36639,35.0104],[-98.36853,35.01255],[-98.36905,35.01468],[-98.36561,35.01467]]]},"properties":{"fire_id":"ufid:2025-OKANA-000704","source_collection":"history-2025","source_objectid":43773,"incident_name":"28 BOY","mapped_acres":60.0,"mapped_acres_source":"poly_GISAcres","gis_acres":60.0,"auto_acres":59.1829993993161,"reported_acres":60.0,"percent_contained":null,"state":"OK","state_wfigs":"US-OK","county":"Caddo","discovery_time_utc":"2025-03-19T22:30:00Z","perimeter_time_utc":"2025-08-22T14:26:12Z","perimeter_edit_time_utc":null,"incident_modified_time_utc":"2025-04-15T16:14:31Z","containment_time_utc":"2025-03-20T00:20:00Z","control_time_utc":"2025-04-01T17:00:00Z","fire_out_time_utc":"2025-04-02T17:00:00Z","fire_cause":"Human","fire_cause_general":"Undetermined","map_method":"Auto-generated for InFORM","source_dataset":"FFP","unique_fire_identifier":"2025-OKANA-000704","irwin_id":"{A5B34099-AC9C-4A2A-B5B8-D88E427382EC}","global_id":"b1340a2a-d784-4c06-a055-9e3f846765c8"}},{"type":"Feature","geometry":{"type":"Polygon","coordinates":[[[-98.41975,35.91201],[-98.41941,35.91159],[-98.41876,35.91124],[-98.41823,35.91141],[-98.41811,35.91171],[-98.41838,35.91172],[-98.41852,35.91204],[-98.41818,35.91312],[-98.41483,35.91306],[-98.4147,35.91244],[-98.41491,35.90611],[-98.41524,35.90626],[-98.41506,35.91273],[-98.41586,35.91278],[-98.41705,35.91218],[-98.41732,35.91156],[-98.41971,35.91064],[-98.42067,35.91057],[-98.42072,35.9109],[-98.41975,35.91201]]]},"properties":{"fire_id":"ufid:2025-OKCOA-000731","source_collection":"history-2025","source_objectid":43817,"incident_name":"07-GOLF-COA","mapped_acres":24.5,"mapped_acres_source":"poly_GISAcres","gis_acres":24.5,"auto_acres":17.904612632659056,"reported_acres":24.5,"percent_contained":null,"state":"OK","state_wfigs":"US-OK","county":"Blaine","discovery_time_utc":"2025-03-20T17:10:00Z","perimeter_time_utc":"2025-08-22T19:46:25Z","perimeter_edit_time_utc":null,"incident_modified_time_utc":"2025-04-15T16:28:03Z","containment_time_utc":"2025-03-20T19:45:00Z","control_time_utc":"2025-04-01T17:00:00Z","fire_out_time_utc":"2025-04-02T17:00:00Z","fire_cause":"Human","fire_cause_general":"Debris and open burning","map_method":"Auto-generated for InFORM","source_dataset":"FFP","unique_fire_identifier":"2025-OKCOA-000731","irwin_id":"{BCC1C350-216C-4AF1-BAFF-60748415031C}","global_id":"785361e4-c933-460e-98c5-07842c956aea"}},{"type":"Feature","geometry":{"type":"Polygon","coordinates":[[[-96.68724,36.03676],[-96.67851,36.03665],[-96.67846,36.0352],[-96.68154,36.03352],[-96.68289,36.03369],[-96.68371,36.03399],[-96.68446,36.03385],[-96.68456,36.03335],[-96.68743,36.03424],[-96.68724,36.03676]]]},"properties":{"fire_id":"ufid:2025-OKPAA-000716","source_collection":"history-2025","source_objectid":43825,"incident_name":"04-DELTA-PAA","mapped_acres":58.4,"mapped_acres_source":"poly_GISAcres","gis_acres":58.4,"auto_acres":60.31616385201679,"reported_acres":58.4,"percent_contained":null,"state":"OK","state_wfigs":"US-OK","county":"Payne","discovery_time_utc":"2025-03-14T17:00:00Z","perimeter_time_utc":"2025-08-22T20:50:48Z","perimeter_edit_time_utc":null,"incident_modified_time_utc":"2025-03-31T13:20:22Z","containment_time_utc":"2025-03-15T17:00:00Z","control_time_utc":"2025-03-26T17:00:00Z","fire_out_time_utc":"2025-03-28T17:00:00Z","fire_cause":"Undetermined","fire_cause_general":"Undetermined","map_method":"Auto-generated for InFORM","source_dataset":"FFP","unique_fire_identifier":"2025-OKPAA-000716","irwin_id":"{7C72528E-F7A6-4C52-9E7B-29DC49FFCBC4}","global_id":"0053181a-5d3a-4315-b504-443e27b84aa9"}},{"type":"Feature","geometry":{"type":"Polygon","coordinates":[[[-96.76791,36.22823],[-96.76661,36.22777],[-96.76655,36.22659],[-96.76703,36.2255],[-96.76776,36.22498],[-96.76876,36.22497],[-96.76891,36.22563],[-96.76882,36.22727],[-96.76864,36.2277],[-96.76819,36.22792],[-96.76791,36.22823]]]},"properties":{"fire_id":"ufid:2025-OKPAA-000862","source_collection":"history-2025","source_objectid":43831,"incident_name":"11-KILO-PAA","mapped_acres":15.0,"mapped_acres_source":"poly_GISAcres","gis_acres":15.0,"auto_acres":15.023691687655914,"reported_acres":15.0,"percent_contained":null,"state":"OK","state_wfigs":"US-OK","county":"Pawnee","discovery_time_utc":"2025-03-17T22:15:00Z","perimeter_time_utc":"2025-08-22T21:18:50Z","perimeter_edit_time_utc":null,"incident_modified_time_utc":"2025-04-21T16:35:49Z","containment_time_utc":"2025-03-18T22:00:00Z","control_time_utc":"2025-04-01T17:00:00Z","fire_out_time_utc":"2025-04-01T17:00:00Z","fire_cause":"Human","fire_cause_general":"Undetermined","map_method":"Auto-generated for InFORM","source_dataset":"FFP","unique_fire_identifier":"2025-OKPAA-000862","irwin_id":"{E75F6C5F-2E4E-4DCF-A865-07144EAC9B80}","global_id":"7d708805-107f-4853-95a5-8ab05fdcc036"}},{"type":"Feature","geometry":{"type":"Polygon","coordinates":[[[-97.07908,36.59789],[-97.07893,36.59767],[-97.0793,36.59758],[-97.07908,36.59789]]]},"properties":{"fire_id":"ufid:2025-OKPAA-001039","source_collection":"history-2025","source_objectid":43833,"incident_name":"15 OSCAR-PAA","mapped_acres":0.17,"mapped_acres_source":"poly_GISAcres","gis_acres":0.17,"auto_acres":0.1842105509731472,"reported_acres":0.17,"percent_contained":null,"state":"OK","state_wfigs":"US-OK","county":"Kay","discovery_time_utc":"2025-04-19T05:30:00Z","perimeter_time_utc":"2025-08-22T21:25:49Z","perimeter_edit_time_utc":null,"incident_modified_time_utc":"2025-04-21T17:02:01Z","containment_time_utc":"2025-04-19T06:30:00Z","control_time_utc":"2025-04-19T18:15:00Z","fire_out_time_utc":"2025-04-20T17:00:00Z","fire_cause":"Human","fire_cause_general":"Undetermined","map_method":"Auto-generated for InFORM","source_dataset":"FFP","unique_fire_identifier":"2025-OKPAA-001039","irwin_id":"{ACFBF22D-FA5F-4BA7-9C93-D55C9F309BC9}","global_id":"4de0a3f0-f55f-4a6c-acbf-80cc06487b40"}},{"type":"Feature","geometry":{"type":"Polygon","coordinates":[[[-96.02241,35.60641],[-96.02158,35.60643],[-96.02183,35.60596],[-96.02149,35.60537],[-96.02334,35.60537],[-96.02241,35.60641]]]},"properties":{"fire_id":"ufid:2025-OKDFR-000641","source_collection":"history-2025","source_objectid":45579,"incident_name":"Paddys","mapped_acres":3.0,"mapped_acres_source":"poly_GISAcres","gis_acres":3.0,"auto_acres":3.117491319856519,"reported_acres":3.0,"percent_contained":null,"state":"OK","state_wfigs":"US-OK","county":"Okmulgee","discovery_time_utc":"2025-03-17T16:59:00Z","perimeter_time_utc":"2025-09-08T18:05:06Z","perimeter_edit_time_utc":null,"incident_modified_time_utc":"2025-09-05T16:39:50Z","containment_time_utc":"2025-03-17T20:00:00Z","control_time_utc":"2025-03-20T21:30:00Z","fire_out_time_utc":"2025-03-20T22:00:00Z","fire_cause":"Undetermined","fire_cause_general":"Undetermined","map_method":"Auto-generated for InFORM","source_dataset":"FFP","unique_fire_identifier":"2025-OKDFR-000641","irwin_id":"{799FA608-579D-4FB6-B7A4-253F667E1A6B}","global_id":"50a5f23f-560e-4146-a3e5-960dbb9d1b49"}},{"type":"Feature","geometry":{"type":"Polygon","coordinates":[[[-98.71384,35.08723],[-98.71381,35.0868],[-98.71317,35.08685],[-98.71268,35.0867],[-98.71241,35.08597],[-98.7124,35.08571],[-98.71254,35.08556],[-98.71333,35.08545],[-98.71375,35.08581],[-98.71416,35.08579],[-98.71446,35.086],[-98.71463,35.0864],[-98.71458,35.08711],[-98.71424,35.08728],[-98.71384,35.08723]]]},"properties":{"fire_id":"ufid:2025-OKANA-002242","source_collection":"history-2025","source_objectid":47757,"incident_name":"CEDAR CREEK","mapped_acres":6.0,"mapped_acres_source":"poly_GISAcres","gis_acres":6.0,"auto_acres":6.753409939094759,"reported_acres":6.0,"percent_contained":null,"state":"OK","state_wfigs":"US-OK","county":"Kiowa","discovery_time_utc":"2025-10-19T18:05:00Z","perimeter_time_utc":"2025-10-22T21:36:35Z","perimeter_edit_time_utc":"2025-10-22T21:49:34Z","incident_modified_time_utc":"2025-10-27T13:48:01Z","containment_time_utc":"2025-10-19T22:30:00Z","control_time_utc":"2025-10-21T17:00:00Z","fire_out_time_utc":"2025-10-24T17:00:00Z","fire_cause":"Human","fire_cause_general":null,"map_method":"Auto-generated for InFORM","source_dataset":"2025 NIFS","unique_fire_identifier":"2025-OKANA-002242","irwin_id":"{05B02985-0D6E-42B4-8B6E-AEFE6F4A4813}","global_id":"e03fb7c3-ed76-4c86-8e90-752e135abd48"}},{"type":"Feature","geometry":{"type":"MultiPolygon","coordinates":[[[[-96.18441,35.38393],[-96.1845,35.38426],[-96.18462,35.38429],[-96.18446,35.38437],[-96.1846,35.38463],[-96.18412,35.38501],[-96.18415,35.38514],[-96.18437,35.38517],[-96.1844,35.38545],[-96.18394,35.38576],[-96.18379,35.3857],[-96.1838,35.38558],[-96.18359,35.38562],[-96.1837,35.3864],[-96.18332,35.38671],[-96.18323,35.38696],[-96.18295,35.38697],[-96.18258,35.38663],[-96.18168,35.38673],[-96.18116,35.38664],[-96.18106,35.38635],[-96.18149,35.38611],[-96.1814,35.38588],[-96.18178,35.38571],[-96.18217,35.38584],[-96.18231,35.38568],[-96.18235,35.38515],[-96.18192,35.38495],[-96.18193,35.38442],[-96.18291,35.38435],[-96.1828,35.38446],[-96.18309,35.38466],[-96.18315,35.38445],[-96.18406,35.38443],[-96.1842,35.38429],[-96.18385,35.38429],[-96.18425,35.38426],[-96.18441,35.38393]]],[[[-96.18468,35.38426],[-96.18462,35.38429],[-96.1846,35.38426],[-96.18468,35.38426]]]]},"properties":{"fire_id":"ufid:2025-OKOMA-002239","source_collection":"history-2025","source_objectid":48230,"incident_name":"ALABAMA","mapped_acres":13.1,"mapped_acres_source":"poly_GISAcres","gis_acres":13.1,"auto_acres":13.08793536500721,"reported_acres":13.1,"percent_contained":null,"state":"OK","state_wfigs":"US-OK","county":"Okfuskee","discovery_time_utc":"2025-10-21T19:27:00Z","perimeter_time_utc":"2025-11-05T16:07:40Z","perimeter_edit_time_utc":null,"incident_modified_time_utc":"2025-10-22T14:28:15Z","containment_time_utc":"2025-10-21T21:48:00Z","control_time_utc":null,"fire_out_time_utc":null,"fire_cause":"Undetermined","fire_cause_general":"Undetermined","map_method":"Auto-generated for InFORM","source_dataset":"FFP","unique_fire_identifier":"2025-OKOMA-002239","irwin_id":"{6CD07A43-2727-44AD-8662-B6DF5645A394}","global_id":"83003e87-a30d-4b32-a3b0-3617b5383785"}},{"type":"Feature","geometry":{"type":"MultiPolygon","coordinates":[[[[-96.12597,35.23347],[-96.12683,35.23438],[-96.12691,35.23504],[-96.12737,35.23588],[-96.12744,35.23663],[-96.1272,35.23703],[-96.12735,35.23733],[-96.12723,35.23767],[-96.12746,35.23831],[-96.12743,35.23874],[-96.12678,35.23934],[-96.12627,35.23915],[-96.12618,35.23922],[-96.12604,35.23903],[-96.12567,35.23917],[-96.12538,35.2391],[-96.12528,35.23929],[-96.12435,35.2392],[-96.12431,35.23901],[-96.12418,35.23919],[-96.12302,35.23922],[-96.12299,35.23803],[-96.12313,35.23767],[-96.12499,35.23588],[-96.12535,35.23527],[-96.12536,35.23466],[-96.12475,35.23336],[-96.12498,35.23316],[-96.12597,35.23347]]],[[[-96.12622,35.23922],[-96.12628,35.23918],[-96.12631,35.2392],[-96.12622,35.23922]]],[[[-96.12626,35.23932],[-96.12619,35.23922],[-96.12622,35.23922],[-96.12626,35.23932]]]]},"properties":{"fire_id":"ufid:2025-OKOMA-002287","source_collection":"history-2025","source_objectid":48232,"incident_name":"WINDY","mapped_acres":41.4,"mapped_acres_source":"poly_GISAcres","gis_acres":41.4,"auto_acres":41.34965282347991,"reported_acres":41.4,"percent_contained":null,"state":"OK","state_wfigs":"US-OK","county":"Hughes","discovery_time_utc":"2025-11-04T20:30:00Z","perimeter_time_utc":"2025-11-05T14:55:16Z","perimeter_edit_time_utc":"2025-11-05T16:09:44Z","incident_modified_time_utc":"2025-11-19T16:00:45Z","containment_time_utc":"2025-11-05T00:00:00Z","control_time_utc":"2025-11-18T18:00:00Z","fire_out_time_utc":"2025-11-18T18:00:00Z","fire_cause":"Undetermined","fire_cause_general":null,"map_method":"Auto-generated for InFORM","source_dataset":"2025 NIFS","unique_fire_identifier":"2025-OKOMA-002287","irwin_id":"{0E40B91F-BD74-452C-BA42-BFBB46A517F1}","global_id":"b2ca21e2-4ed4-42c0-84a4-2e0b6f6c6e33"}},{"type":"Feature","geometry":{"type":"Polygon","coordinates":[[[-96.56911,36.68088],[-96.57032,36.68074],[-96.57074,36.68139],[-96.57079,36.68261],[-96.57019,36.68571],[-96.56986,36.68631],[-96.56935,36.6868],[-96.56868,36.68714],[-96.56763,36.68743],[-96.56673,36.68726],[-96.56665,36.68668],[-96.56686,36.68662],[-96.5671,36.68623],[-96.56675,36.68576],[-96.56677,36.68415],[-96.56705,36.68349],[-96.56716,36.68279],[-96.56765,36.68239],[-96.56791,36.68174],[-96.56821,36.68136],[-96.56911,36.68088]]]},"properties":{"fire_id":"ufid:2025-OKOSA-002286","source_collection":"history-2025","source_objectid":48510,"incident_name":"WHITEHOUSE","mapped_acres":32.6,"mapped_acres_source":"poly_GISAcres","gis_acres":32.6,"auto_acres":49.47332453054442,"reported_acres":32.6,"percent_contained":null,"state":"OK","state_wfigs":"US-OK","county":"Osage","discovery_time_utc":"2025-11-04T20:43:00Z","perimeter_time_utc":"2025-11-16T16:07:45Z","perimeter_edit_time_utc":null,"incident_modified_time_utc":"2025-11-10T00:04:25Z","containment_time_utc":"2025-11-05T00:00:00Z","control_time_utc":"2025-11-07T21:30:00Z","fire_out_time_utc":"2025-11-09T21:30:00Z","fire_cause":"Human","fire_cause_general":"Power generation / transmission / distribution","map_method":"Auto-generated for InFORM","source_dataset":"FFP","unique_fire_identifier":"2025-OKOSA-002286","irwin_id":"{79E8CA31-AD64-4911-9CEB-6CD6834420D8}","global_id":"aba34d84-8f55-432d-beba-4786681ff3cb"}},{"type":"Feature","geometry":{"type":"Polygon","coordinates":[[[-96.33572,36.50649],[-96.3354,36.503],[-96.33417,36.50293],[-96.33411,36.5012],[-96.3329,36.49883],[-96.33285,36.4972],[-96.3372,36.49723],[-96.34111,36.49928],[-96.34221,36.50162],[-96.34442,36.50284],[-96.34439,36.5045],[-96.3447,36.50516],[-96.34519,36.50535],[-96.34576,36.50611],[-96.34564,36.50655],[-96.33572,36.50649]]]},"properties":{"fire_id":"ufid:2025-OKOSA-001741","source_collection":"history-2025","source_objectid":48768,"incident_name":"HOT HAY","mapped_acres":190.0,"mapped_acres_source":"poly_GISAcres","gis_acres":190.0,"auto_acres":188.94568902070432,"reported_acres":190.0,"percent_contained":null,"state":"OK","state_wfigs":"US-OK","county":"Osage","discovery_time_utc":"2025-08-15T18:32:00Z","perimeter_time_utc":"2025-11-24T16:44:07Z","perimeter_edit_time_utc":null,"incident_modified_time_utc":"2025-10-08T13:56:02Z","containment_time_utc":"2025-09-03T17:00:00Z","control_time_utc":"2025-09-04T13:00:00Z","fire_out_time_utc":"2025-09-04T13:00:00Z","fire_cause":"Human","fire_cause_general":"Arson","map_method":"Auto-generated for InFORM","source_dataset":"FFP","unique_fire_identifier":"2025-OKOSA-001741","irwin_id":"{7E6184E9-F1BF-4F7A-91B7-8B25BE9346DD}","global_id":"ea2761f7-9173-4f88-88ab-49633b9804f6"}},{"type":"Feature","geometry":{"type":"Polygon","coordinates":[[[-96.29026,36.57221],[-96.29053,36.57196],[-96.29052,36.57076],[-96.29019,36.57059],[-96.28984,36.57014],[-96.28964,36.56925],[-96.28924,36.5683],[-96.28998,36.5677],[-96.29227,36.56639],[-96.29278,36.56521],[-96.29224,36.56441],[-96.29261,36.56372],[-96.29276,36.56195],[-96.29454,36.56053],[-96.2952,36.55981],[-96.29538,36.55979],[-96.296,36.55926],[-96.29631,36.55921],[-96.29643,36.55891],[-96.29686,36.55882],[-96.29701,36.55867],[-96.2971,36.55856],[-96.29684,36.5585],[-96.29705,36.55733],[-96.29788,36.55734],[-96.29951,36.55658],[-96.2995,36.55613],[-96.29981,36.55574],[-96.30041,36.55588],[-96.30051,36.55542],[-96.30116,36.55566],[-96.30274,36.55521],[-96.30294,36.55494],[-96.30341,36.55496],[-96.30361,36.55514],[-96.30379,36.55508],[-96.30463,36.55563],[-96.30394,36.55591],[-96.30331,36.55599],[-96.3034,36.55632],[-96.30281,36.55687],[-96.30212,36.55784],[-96.30223,36.55821],[-96.30207,36.55846],[-96.30207,36.55897],[-96.30181,36.55996],[-96.30123,36.56142],[-96.30132,36.56175],[-96.30013,36.56302],[-96.29959,36.56455],[-96.29907,36.56484],[-96.29843,36.56604],[-96.2971,36.56746],[-96.29687,36.56833],[-96.29659,36.56878],[-96.29601,36.56917],[-96.29564,36.56923],[-96.29505,36.56966],[-96.29463,36.57113],[-96.29398,36.57139],[-96.29388,36.57156],[-96.2942,36.57174],[-96.29387,36.5719],[-96.29342,36.57187],[-96.29302,36.57167],[-96.29243,36.57167],[-96.29121,36.57221],[-96.29111,36.57244],[-96.29088,36.57256],[-96.29055,36.57251],[-96.29026,36.57221]]]},"properties":{"fire_id":"ufid:2025-OKOSA-002228","source_collection":"history-2025","source_objectid":48943,"incident_name":"DAVIS","mapped_acres":246.33,"mapped_acres_source":"poly_GISAcres","gis_acres":246.33,"auto_acres":246.33281641760965,"reported_acres":45.0,"percent_contained":null,"state":"OK","state_wfigs":"US-OK","county":"Osage","discovery_time_utc":"2025-10-20T16:53:00Z","perimeter_time_utc":"2025-10-20T20:26:18Z","perimeter_edit_time_utc":"2025-12-02T21:09:11Z","incident_modified_time_utc":"2025-10-27T13:48:59Z","containment_time_utc":"2025-10-24T17:00:00Z","control_time_utc":"2025-10-24T17:00:00Z","fire_out_time_utc":"2025-10-24T17:00:00Z","fire_cause":"Human","fire_cause_general":null,"map_method":"Auto-generated for InFORM","source_dataset":"2025 NIFS","unique_fire_identifier":"2025-OKOSA-002228","irwin_id":"{AD562935-CF32-4AC1-A1A5-8C75B826F945}","global_id":"2255c273-367e-4bed-9089-381d1fbdfece"}},{"type":"Feature","geometry":{"type":"Polygon","coordinates":[[[-96.48485,36.62959],[-96.48448,36.63003],[-96.48347,36.63059],[-96.4824,36.63067],[-96.48096,36.63054],[-96.48023,36.63019],[-96.47673,36.62696],[-96.47561,36.62626],[-96.47468,36.62617],[-96.47413,36.62632],[-96.47384,36.6259],[-96.47485,36.62475],[-96.47517,36.62378],[-96.48485,36.62959]]]},"properties":{"fire_id":"ufid:2025-OKOSA-002682","source_collection":"history-2025","source_objectid":49867,"incident_name":"CORNCRIB","mapped_acres":62.2,"mapped_acres_source":"poly_GISAcres","gis_acres":62.2,"auto_acres":62.17992288883533,"reported_acres":62.2,"percent_contained":null,"state":"OK","state_wfigs":"US-OK","county":"Osage","discovery_time_utc":"2025-12-29T11:17:00Z","perimeter_time_utc":"2025-12-29T18:59:01Z","perimeter_edit_time_utc":"2025-12-29T20:08:33Z","incident_modified_time_utc":"2026-01-05T15:33:23Z","containment_time_utc":"2026-01-01T18:00:00Z","control_time_utc":"2026-01-02T18:00:00Z","fire_out_time_utc":"2026-01-03T18:00:00Z","fire_cause":"Undetermined","fire_cause_general":null,"map_method":"Auto-generated for InFORM","source_dataset":"2025 NIFS","unique_fire_identifier":"2025-OKOSA-002682","irwin_id":"{FDE68A90-C13F-4227-A33E-643CDA7667AC}","global_id":"ed0ccb4a-c6f0-4b6b-ac05-4701e4af607a"}},{"type":"Feature","geometry":{"type":"Polygon","coordinates":[[[-97.00026,36.67848],[-97.00008,36.6772],[-97.00028,36.67689],[-97.00025,36.67604],[-97.00119,36.67617],[-97.00178,36.67577],[-97.00245,36.67564],[-97.00388,36.67591],[-97.00409,36.67638],[-97.0046,36.67692],[-97.00453,36.67708],[-97.00499,36.67743],[-97.00492,36.67794],[-97.00512,36.67809],[-97.00498,36.67817],[-97.00546,36.67868],[-97.00546,36.67911],[-97.00603,36.68052],[-97.00313,36.68045],[-97.00043,36.67991],[-97.00022,36.67945],[-97.00031,36.67891],[-97.00017,36.67863],[-97.00026,36.67848]]]},"properties":{"fire_id":"ufid:2025-OKOSA-002679","source_collection":"history-2025","source_objectid":49868,"incident_name":"DOUBLE CUT","mapped_acres":48.0,"mapped_acres_source":"poly_GISAcres","gis_acres":48.0,"auto_acres":52.945184448418004,"reported_acres":48.0,"percent_contained":null,"state":"OK","state_wfigs":"US-OK","county":"Osage","discovery_time_utc":"2025-12-28T19:34:00Z","perimeter_time_utc":"2025-12-29T02:03:12Z","perimeter_edit_time_utc":"2025-12-29T20:30:47Z","incident_modified_time_utc":"2026-01-14T14:44:01Z","containment_time_utc":"2026-01-01T18:00:00Z","control_time_utc":"2026-01-01T18:00:00Z","fire_out_time_utc":"2026-01-01T18:00:00Z","fire_cause":"Undetermined","fire_cause_general":null,"map_method":"Auto-generated for InFORM","source_dataset":"2025 NIFS","unique_fire_identifier":"2025-OKOSA-002679","irwin_id":"{75CF03C8-E8C4-4774-8260-D15D5AFCDE8C}","global_id":"4de715f8-ac8c-418d-8862-fbe2aebad7f4"}},{"type":"Feature","geometry":{"type":"MultiPolygon","coordinates":[[[[-95.93061,35.16343],[-95.93058,35.1634],[-95.93064,35.16343],[-95.93061,35.16343]]],[[[-95.93188,35.16006],[-95.93252,35.1603],[-95.93293,35.16023],[-95.93327,35.16039],[-95.93396,35.16027],[-95.93459,35.16049],[-95.93477,35.16084],[-95.93419,35.16122],[-95.93291,35.16162],[-95.93245,35.16154],[-95.93206,35.16174],[-95.93196,35.16151],[-95.93093,35.16169],[-95.93072,35.16156],[-95.93044,35.16246],[-95.93058,35.1634],[-95.93044,35.16338],[-95.93,35.16294],[-95.93005,35.16278],[-95.9298,35.1622],[-95.92993,35.16179],[-95.93024,35.16149],[-95.92995,35.1613],[-95.93025,35.16091],[-95.93022,35.16069],[-95.93037,35.16062],[-95.93051,35.16076],[-95.93076,35.16074],[-95.93111,35.16055],[-95.93101,35.16035],[-95.9311,35.16016],[-95.93188,35.16006]]],[[[-95.93008,35.16141],[-95.93004,35.16144],[-95.93006,35.16141],[-95.93008,35.16141]]]]},"properties":{"fire_id":"ufid:2025-OKOMA-002616","source_collection":"history-2025","source_objectid":49935,"incident_name":"RAILROAD","mapped_acres":15.5,"mapped_acres_source":"poly_GISAcres","gis_acres":15.5,"auto_acres":15.468518533325156,"reported_acres":15.5,"percent_contained":100.0,"state":"OK","state_wfigs":"US-OK","county":"McIntosh","discovery_time_utc":"2025-12-21T20:37:00Z","perimeter_time_utc":"2025-12-22T21:15:32Z","perimeter_edit_time_utc":"2025-12-31T20:55:04Z","incident_modified_time_utc":"2026-01-05T16:54:21Z","containment_time_utc":"2025-12-21T23:05:00Z","control_time_utc":"2025-12-26T18:00:00Z","fire_out_time_utc":"2025-12-26T18:00:00Z","fire_cause":"Undetermined","fire_cause_general":null,"map_method":"Auto-generated for InFORM","source_dataset":"2025 NIFS","unique_fire_identifier":"2025-OKOMA-002616","irwin_id":"{A301F0E1-D88A-42F0-BC6D-C20FC8884042}","global_id":"faf8f08b-042c-4da9-a5dc-55b560f953bc"}},{"type":"Feature","geometry":{"type":"Polygon","coordinates":[[[-95.93612,35.16516],[-95.93596,35.16505],[-95.9362,35.1647],[-95.93667,35.1647],[-95.93721,35.16429],[-95.93753,35.16422],[-95.93759,35.16397],[-95.93868,35.16444],[-95.93884,35.16496],[-95.93934,35.16528],[-95.93964,35.16574],[-95.93994,35.16595],[-95.93974,35.16625],[-95.93874,35.16675],[-95.93797,35.16734],[-95.93779,35.16739],[-95.93716,35.1671],[-95.93731,35.16754],[-95.93717,35.16784],[-95.93675,35.16808],[-95.93663,35.16795],[-95.93649,35.16799],[-95.93615,35.16839],[-95.93594,35.1684],[-95.93565,35.16819],[-95.93527,35.16824],[-95.93447,35.16866],[-95.93414,35.16841],[-95.93383,35.16845],[-95.93353,35.16878],[-95.93349,35.169],[-95.93237,35.1694],[-95.93227,35.16971],[-95.93213,35.16976],[-95.93133,35.16927],[-95.93122,35.16912],[-95.93133,35.16899],[-95.93112,35.16858],[-95.93126,35.1676],[-95.93119,35.16726],[-95.93197,35.16696],[-95.93223,35.16712],[-95.933,35.16674],[-95.93447,35.16661],[-95.93531,35.16627],[-95.93584,35.16632],[-95.93594,35.16544],[-95.93609,35.1654],[-95.93612,35.16516]]]},"properties":{"fire_id":"ufid:2025-OKOMA-002609","source_collection":"history-2025","source_objectid":49936,"incident_name":"TOLBERT MOUNTAIN","mapped_acres":51.1,"mapped_acres_source":"poly_GISAcres","gis_acres":51.1,"auto_acres":51.076250863127306,"reported_acres":51.1,"percent_contained":null,"state":"OK","state_wfigs":"US-OK","county":"McIntosh","discovery_time_utc":"2025-12-21T20:37:00Z","perimeter_time_utc":"2025-12-22T20:39:10Z","perimeter_edit_time_utc":"2025-12-31T20:58:12Z","incident_modified_time_utc":"2026-01-05T16:51:51Z","containment_time_utc":"2025-12-21T23:55:00Z","control_time_utc":"2025-12-23T18:00:00Z","fire_out_time_utc":"2025-12-26T18:00:00Z","fire_cause":"Human","fire_cause_general":null,"map_method":"Auto-generated for InFORM","source_dataset":"2025 NIFS","unique_fire_identifier":"2025-OKOMA-002609","irwin_id":"{45B3ECDA-5101-41F4-8022-74D361990821}","global_id":"5f808100-0071-4858-a3f3-7d640defb898"}},{"type":"Feature","geometry":{"type":"Polygon","coordinates":[[[-96.1805,35.38802],[-96.17696,35.38787],[-96.17618,35.38788],[-96.17579,35.38803],[-96.17544,35.38783],[-96.17575,35.38707],[-96.17571,35.38626],[-96.17542,35.3863],[-96.17441,35.38583],[-96.1745,35.3855],[-96.17435,35.38458],[-96.17286,35.38437],[-96.17293,35.38409],[-96.17259,35.38347],[-96.173,35.38334],[-96.17296,35.38286],[-96.17232,35.38285],[-96.17209,35.38242],[-96.17198,35.38249],[-96.17213,35.38274],[-96.17201,35.38291],[-96.17138,35.38289],[-96.17104,35.3823],[-96.17084,35.38226],[-96.17086,35.38245],[-96.17073,35.38241],[-96.17074,35.38191],[-96.17037,35.38191],[-96.17031,35.38175],[-96.17064,35.38129],[-96.17107,35.38144],[-96.17118,35.38124],[-96.17146,35.3812],[-96.17158,35.38098],[-96.17147,35.38074],[-96.17166,35.38062],[-96.17158,35.38047],[-96.17176,35.38013],[-96.17175,35.37948],[-96.17195,35.3794],[-96.17232,35.37958],[-96.17252,35.37921],[-96.17274,35.37932],[-96.17294,35.37901],[-96.17303,35.37906],[-96.17301,35.37847],[-96.17311,35.37819],[-96.17333,35.37807],[-96.17327,35.37775],[-96.17343,35.3778],[-96.17356,35.37747],[-96.17339,35.37722],[-96.17293,35.3773],[-96.1729,35.37715],[-96.17262,35.37701],[-96.17307,35.37689],[-96.17382,35.37693],[-96.17399,35.3768],[-96.17392,35.37648],[-96.17345,35.37618],[-96.17337,35.37633],[-96.17319,35.37634],[-96.17328,35.37623],[-96.17314,35.37602],[-96.1733,35.37584],[-96.1725,35.37536],[-96.17254,35.37513],[-96.17225,35.37445],[-96.17142,35.37408],[-96.1708,35.37307],[-96.17009,35.37268],[-96.17245,35.37106],[-96.17288,35.3709],[-96.17391,35.37085],[-96.17496,35.37049],[-96.17587,35.36975],[-96.17596,35.36989],[-96.17596,35.37808],[-96.17622,35.37881],[-96.17999,35.38559],[-96.18061,35.38782],[-96.1805,35.38802]]]},"properties":{"fire_id":"ufid:2025-OKOMA-002515","source_collection":"history-2025","source_objectid":49937,"incident_name":"BOVINE","mapped_acres":202.0,"mapped_acres_source":"poly_GISAcres","gis_acres":202.0,"auto_acres":201.80525450751463,"reported_acres":202.0,"percent_contained":null,"state":"OK","state_wfigs":"US-OK","county":"Okfuskee","discovery_time_utc":"2025-12-10T22:00:00Z","perimeter_time_utc":"2025-12-12T14:06:17Z","perimeter_edit_time_utc":"2025-12-31T21:35:40Z","incident_modified_time_utc":"2026-01-05T17:43:51Z","containment_time_utc":"2025-12-13T18:00:00Z","control_time_utc":"2025-12-27T18:00:00Z","fire_out_time_utc":"2025-12-27T18:00:00Z","fire_cause":"Human","fire_cause_general":null,"map_method":"Auto-generated for InFORM","source_dataset":"2025 NIFS","unique_fire_identifier":"2025-OKOMA-002515","irwin_id":"{B15004A6-7B05-4C4B-B532-5A221990D9E6}","global_id":"d708cbce-c4b9-4265-bc56-419731f4396d"}},{"type":"Feature","geometry":{"type":"Polygon","coordinates":[[[-96.2036,35.40961],[-96.2035,35.4098],[-96.20359,35.41012],[-96.20343,35.41034],[-96.20298,35.41054],[-96.20285,35.41039],[-96.20299,35.41125],[-96.20315,35.41145],[-96.20283,35.41298],[-96.20379,35.41396],[-96.20392,35.41428],[-96.20446,35.41453],[-96.20474,35.4144],[-96.20534,35.41447],[-96.20559,35.41496],[-96.20608,35.41547],[-96.20649,35.41565],[-96.20677,35.41646],[-96.20671,35.41668],[-96.20577,35.4165],[-96.20568,35.41653],[-96.20571,35.41692],[-96.206,35.41694],[-96.20702,35.41782],[-96.20711,35.41803],[-96.20675,35.41866],[-96.20618,35.41871],[-96.20585,35.41905],[-96.20616,35.41953],[-96.20574,35.41958],[-96.20593,35.42012],[-96.20602,35.42003],[-96.20689,35.42053],[-96.20766,35.42042],[-96.20811,35.4206],[-96.20799,35.42095],[-96.20729,35.42166],[-96.2068,35.42166],[-96.20632,35.42132],[-96.20589,35.42124],[-96.20548,35.42183],[-96.20518,35.42193],[-96.20491,35.42178],[-96.20469,35.42213],[-96.20462,35.42243],[-96.20514,35.42298],[-96.20519,35.42321],[-96.20484,35.42382],[-96.20507,35.4241],[-96.2051,35.42445],[-96.20496,35.42461],[-96.20508,35.42504],[-96.20453,35.42543],[-96.2049,35.42564],[-96.20501,35.42594],[-96.20485,35.42616],[-96.20459,35.42721],[-96.20431,35.42666],[-96.20401,35.42668],[-96.20371,35.42626],[-96.20357,35.42585],[-96.20363,35.42561],[-96.20381,35.42551],[-96.20329,35.42519],[-96.20326,35.42476],[-96.20342,35.42474],[-96.20315,35.42445],[-96.20315,35.42425],[-96.20385,35.42421],[-96.20345,35.42409],[-96.20339,35.42383],[-96.2032,35.42391],[-96.20296,35.42381],[-96.20277,35.4235],[-96.20284,35.42336],[-96.20188,35.42307],[-96.2019,35.42283],[-96.20178,35.42272],[-96.20176,35.4225],[-96.20197,35.42245],[-96.20195,35.42207],[-96.20171,35.42161],[-96.20206,35.42127],[-96.20211,35.4207],[-96.20184,35.42048],[-96.20212,35.41954],[-96.20203,35.41911],[-96.20216,35.41878],[-96.20183,35.41858],[-96.20156,35.4181],[-96.20167,35.41764],[-96.20122,35.41738],[-96.20126,35.4166],[-96.20109,35.4165],[-96.20071,35.41569],[-96.20083,35.4155],[-96.20066,35.41527],[-96.20046,35.41407],[-96.20129,35.4133],[-96.20131,35.4127],[-96.20166,35.41243],[-96.2015,35.41195],[-96.2015,35.41118],[-96.20088,35.41078],[-96.19961,35.41029],[-96.19948,35.41006],[-96.19958,35.40971],[-96.19821,35.40985],[-96.19791,35.41034],[-96.19752,35.41046],[-96.19734,35.41037],[-96.19745,35.40967],[-96.19731,35.40907],[-96.19694,35.4085],[-96.19747,35.40794],[-96.19751,35.40662],[-96.19769,35.40637],[-96.19843,35.40604],[-96.19835,35.40562],[-96.19908,35.40543],[-96.19961,35.40601],[-96.19993,35.40592],[-96.20006,35.40559],[-96.20029,35.4055],[-96.20017,35.40518],[-96.20033,35.405],[-96.20059,35.40492],[-96.20126,35.4054],[-96.20169,35.40514],[-96.20186,35.40518],[-96.20204,35.40499],[-96.20222,35.40528],[-96.20237,35.40521],[-96.20273,35.40554],[-96.20287,35.40773],[-96.20302,35.40833],[-96.20291,35.40896],[-96.20343,35.40921],[-96.2036,35.40961]]]},"properties":{"fire_id":"ufid:2025-OKOMA-002516","source_collection":"history-2025","source_objectid":49938,"incident_name":"PONY","mapped_acres":125.0,"mapped_acres_source":"poly_GISAcres","gis_acres":125.0,"auto_acres":202.0929208792006,"reported_acres":125.0,"percent_contained":null,"state":"OK","state_wfigs":"US-OK","county":"Okfuskee","discovery_time_utc":"2025-12-11T18:43:00Z","perimeter_time_utc":"2025-12-12T14:12:55Z","perimeter_edit_time_utc":"2025-12-31T21:40:05Z","incident_modified_time_utc":"2026-01-05T17:43:08Z","containment_time_utc":"2025-12-16T18:00:00Z","control_time_utc":"2025-12-22T18:00:00Z","fire_out_time_utc":"2025-12-22T18:00:00Z","fire_cause":"Human","fire_cause_general":null,"map_method":"Auto-generated for InFORM","source_dataset":"2025 NIFS","unique_fire_identifier":"2025-OKOMA-002516","irwin_id":"{0CCCF2E5-6BD2-42A4-96CC-F18BBEE33F8A}","global_id":"20cf6fa0-4e0f-4fa7-9bd6-d901da60b6ed"}},{"type":"Feature","geometry":{"type":"Polygon","coordinates":[[[-96.15654,35.26412],[-96.15659,35.26442],[-96.15573,35.26455],[-96.15536,35.26477],[-96.1551,35.26465],[-96.15424,35.26274],[-96.15609,35.26352],[-96.15814,35.26329],[-96.15817,35.26486],[-96.15731,35.26478],[-96.15654,35.26412]]]},"properties":{"fire_id":"ufid:2025-OKOMA-002488","source_collection":"history-2025","source_objectid":49939,"incident_name":"CANADIAN","mapped_acres":10.9,"mapped_acres_source":"poly_GISAcres","gis_acres":10.9,"auto_acres":10.922175653485988,"reported_acres":10.9,"percent_contained":null,"state":"OK","state_wfigs":"US-OK","county":"Hughes","discovery_time_utc":"2025-12-09T20:00:00Z","perimeter_time_utc":"2025-12-10T15:14:11Z","perimeter_edit_time_utc":"2025-12-31T21:47:10Z","incident_modified_time_utc":"2026-01-05T15:18:46Z","containment_time_utc":"2025-12-09T23:00:00Z","control_time_utc":"2025-12-10T18:00:00Z","fire_out_time_utc":"2025-12-12T18:00:00Z","fire_cause":"Human","fire_cause_general":null,"map_method":"Auto-generated for InFORM","source_dataset":"2025 NIFS","unique_fire_identifier":"2025-OKOMA-002488","irwin_id":"{6273B435-8278-4678-B508-E980AB82859A}","global_id":"2872beaa-e2fb-461b-98e9-445955d869eb"}},{"type":"Feature","geometry":{"type":"Polygon","coordinates":[[[-96.19692,35.51007],[-96.19958,35.51185],[-96.19954,35.51284],[-96.1989,35.51488],[-96.19403,35.51502],[-96.19303,35.51468],[-96.19246,35.51397],[-96.19206,35.51372],[-96.1921,35.51335],[-96.19229,35.51326],[-96.19244,35.51297],[-96.19232,35.51264],[-96.19319,35.51215],[-96.19385,35.51211],[-96.19413,35.51196],[-96.19448,35.51147],[-96.1949,35.51134],[-96.19521,35.51067],[-96.19603,35.51063],[-96.19607,35.51043],[-96.19653,35.50996],[-96.19692,35.51007]]]},"properties":{"fire_id":"ufid:2025-OKOMA-000578","source_collection":"history-2025","source_objectid":49940,"incident_name":"OAK LEAF","mapped_acres":327.0,"mapped_acres_source":"poly_GISAcres","gis_acres":327.0,"auto_acres":64.24315691675335,"reported_acres":327.0,"percent_contained":100.0,"state":"OK","state_wfigs":"US-OK","county":"Hughes","discovery_time_utc":"2025-03-14T19:00:00Z","perimeter_time_utc":"2025-03-31T13:33:54Z","perimeter_edit_time_utc":"2025-12-31T21:51:24Z","incident_modified_time_utc":"2025-03-31T13:33:33Z","containment_time_utc":"2025-03-17T13:00:00Z","control_time_utc":"2025-03-26T17:00:00Z","fire_out_time_utc":"2025-03-29T17:00:00Z","fire_cause":"Undetermined","fire_cause_general":null,"map_method":"Auto-generated for InFORM","source_dataset":"2025 NIFS","unique_fire_identifier":"2025-OKOMA-000578","irwin_id":"{4554926B-773F-41A7-8824-89AA1DCBF6FA}","global_id":"90ed9bab-9bb1-4b5b-a758-f543cdd7f1a4"}}]}
