{"type":"FeatureCollection","features":[{"type":"Feature","geometry":{"type":"Polygon","coordinates":[[[-98.13738,34.9285],[-98.13654,34.9286],[-98.13623,34.92821],[-98.13659,34.92693],[-98.13644,34.92679],[-98.13605,34.92702],[-98.13586,34.92697],[-98.13583,34.92625],[-98.13594,34.92605],[-98.13584,34.92574],[-98.13545,34.9257],[-98.13523,34.92583],[-98.13497,34.92654],[-98.13455,34.9266],[-98.13433,34.92636],[-98.13415,34.92643],[-98.13409,34.92663],[-98.13387,34.92622],[-98.13327,34.92645],[-98.13341,34.92735],[-98.13321,34.92743],[-98.13319,34.92766],[-98.13153,34.92745],[-98.1283,34.92746],[-98.12825,34.92408],[-98.14055,34.92382],[-98.1406,34.92444],[-98.14015,34.9246],[-98.13983,34.9246],[-98.13961,34.92436],[-98.13937,34.92448],[-98.13935,34.92464],[-98.13971,34.92487],[-98.13946,34.92519],[-98.13963,34.92581],[-98.13911,34.92664],[-98.139,34.92701],[-98.13911,34.92725],[-98.13906,34.92755],[-98.13829,34.92806],[-98.13747,34.92795],[-98.13752,34.92825],[-98.13738,34.9285]]]},"properties":{"fire_id":"ufid:2025-OKANA-000626","source_collection":"history-2025","source_objectid":43783,"incident_name":"25-YANKEY-ANA","mapped_acres":96.0,"mapped_acres_source":"poly_GISAcres","gis_acres":96.0,"auto_acres":95.96395667726631,"reported_acres":96.0,"percent_contained":null,"state":"OK","state_wfigs":"US-OK","county":"Caddo","discovery_time_utc":"2025-03-14T19:40:00Z","perimeter_time_utc":"2025-08-22T15:55:33Z","perimeter_edit_time_utc":null,"incident_modified_time_utc":"2025-08-20T13:55:47Z","containment_time_utc":"2025-03-17T13:00:00Z","control_time_utc":"2025-03-19T17:00:00Z","fire_out_time_utc":"2025-03-22T17:00:00Z","fire_cause":"Human","fire_cause_general":"Power generation / transmission / distribution","map_method":"Auto-generated for InFORM","source_dataset":"FFP","unique_fire_identifier":"2025-OKANA-000626","irwin_id":"{EC809BF5-462B-4327-B93C-5DC14F126C6C}","global_id":"5cf7b87b-f87a-422f-9f03-bf7cf10a1908"}},{"type":"Feature","geometry":{"type":"Polygon","coordinates":[[[-98.52198,34.14469],[-98.52136,34.14468],[-98.52149,34.14462],[-98.52198,34.14469]]]},"properties":{"fire_id":"ufid:2025-OKANA-001299","source_collection":"history-2025","source_objectid":43888,"incident_name":"33-GEORGE-ANA","mapped_acres":0.08,"mapped_acres_source":"poly_GISAcres","gis_acres":0.08,"auto_acres":0.08120474999076414,"reported_acres":0.5,"percent_contained":null,"state":"OK","state_wfigs":"US-OK","county":"Cotton","discovery_time_utc":"2025-06-30T02:30:00Z","perimeter_time_utc":"2025-08-25T13:25:48Z","perimeter_edit_time_utc":null,"incident_modified_time_utc":"2025-08-22T19:26:25Z","containment_time_utc":"2025-06-30T04:59:00Z","control_time_utc":null,"fire_out_time_utc":"2025-07-02T22:00:00Z","fire_cause":"Human","fire_cause_general":"Fireworks","map_method":"Hand Sketch","source_dataset":"FFP","unique_fire_identifier":"2025-OKANA-001299","irwin_id":"{F1EA289A-674A-4FE5-A733-9C0A5DE675FA}","global_id":"274fef03-c905-4747-8a30-8911fd299271"}},{"type":"Feature","geometry":{"type":"Polygon","coordinates":[[[-98.79105,34.55105],[-98.7909,34.54325],[-98.79135,34.543],[-98.79153,34.54258],[-98.79143,34.5421],[-98.79213,34.54215],[-98.79369,34.54108],[-98.79451,34.54245],[-98.79569,34.54398],[-98.79533,34.54453],[-98.79541,34.55074],[-98.79555,34.55095],[-98.79614,34.55094],[-98.79615,34.55104],[-98.79105,34.55105]]]},"properties":{"fire_id":"ufid:2025-OKANA-001839","source_collection":"history-2025","source_objectid":43889,"incident_name":"Woodlawn","mapped_acres":95.0,"mapped_acres_source":"poly_GISAcres","gis_acres":95.0,"auto_acres":99.16583132295281,"reported_acres":95.0,"percent_contained":null,"state":"OK","state_wfigs":"US-OK","county":"Comanche","discovery_time_utc":"2025-08-23T17:00:00Z","perimeter_time_utc":"2025-08-25T13:26:30Z","perimeter_edit_time_utc":null,"incident_modified_time_utc":"2025-08-24T13:43:48Z","containment_time_utc":"2025-08-23T21:00:00Z","control_time_utc":null,"fire_out_time_utc":null,"fire_cause":"Human","fire_cause_general":"Debris and open burning","map_method":"Auto-generated for InFORM","source_dataset":"FFP","unique_fire_identifier":"2025-OKANA-001839","irwin_id":"{19B442F7-F9D0-4DDB-B2E4-2B2CF71D1FAF}","global_id":"8809b30e-2a24-4df7-953e-e33c87c68810"}},{"type":"Feature","geometry":{"type":"Polygon","coordinates":[[[-98.53637,34.79665],[-98.53599,34.79666],[-98.53596,34.79656],[-98.53628,34.79647],[-98.53637,34.79665]]]},"properties":{"fire_id":"ufid:2025-OKCOA-001694","source_collection":"history-2025","source_objectid":46068,"incident_name":"CHASENAH","mapped_acres":0.18,"mapped_acres_source":"poly_GISAcres","gis_acres":0.18,"auto_acres":0.18142453600449326,"reported_acres":0.1,"percent_contained":null,"state":"OK","state_wfigs":"US-OK","county":"Comanche","discovery_time_utc":"2025-08-12T18:00:00Z","perimeter_time_utc":"2025-09-18T20:58:06Z","perimeter_edit_time_utc":null,"incident_modified_time_utc":"2025-12-08T17:19:01Z","containment_time_utc":"2025-08-12T18:05:00Z","control_time_utc":"2025-08-26T17:00:00Z","fire_out_time_utc":"2025-08-26T17:00:00Z","fire_cause":"Human","fire_cause_general":null,"map_method":"Hand Sketch","source_dataset":"Decertified","unique_fire_identifier":"2025-OKCOA-001694","irwin_id":"{B146D87D-224A-42FE-9A31-F89EEDC02586}","global_id":"4db3bca9-236f-449a-ac05-32a71d0869de"}},{"type":"Feature","geometry":{"type":"Polygon","coordinates":[[[-98.45368,34.89294],[-98.45378,34.89313],[-98.45438,34.89307],[-98.45474,34.89323],[-98.45494,34.8937],[-98.45489,34.894],[-98.45426,34.89442],[-98.45392,34.89439],[-98.45365,34.89418],[-98.45345,34.89365],[-98.45368,34.89294]]]},"properties":{"fire_id":"ufid:2025-OKANA-002243","source_collection":"history-2025","source_objectid":47758,"incident_name":"SOUTH BOONE","mapped_acres":3.0,"mapped_acres_source":"poly_GISAcres","gis_acres":3.0,"auto_acres":4.047819160361885,"reported_acres":3.0,"percent_contained":null,"state":"OK","state_wfigs":"US-OK","county":"Caddo","discovery_time_utc":"2025-10-21T16:05:00Z","perimeter_time_utc":"2025-10-22T21:39:27Z","perimeter_edit_time_utc":"2025-10-22T22:08:36Z","incident_modified_time_utc":"2025-10-27T13:49:59Z","containment_time_utc":"2025-10-21T16:30:00Z","control_time_utc":"2025-10-22T17:00:00Z","fire_out_time_utc":"2025-10-24T17:00:00Z","fire_cause":"Undetermined","fire_cause_general":null,"map_method":"Auto-generated for InFORM","source_dataset":"2025 NIFS","unique_fire_identifier":"2025-OKANA-002243","irwin_id":"{0D27715B-F8AC-4165-B6DB-8B50ACCC4DE9}","global_id":"d8e57e60-11eb-4fed-8c23-b14f4248cbbe"}},{"type":"Feature","geometry":{"type":"Polygon","coordinates":[[[-98.37922,34.86801],[-98.37812,34.86861],[-98.37735,34.86849],[-98.37691,34.86804],[-98.37657,34.86789],[-98.37643,34.86762],[-98.37646,34.8673],[-98.37724,34.8666],[-98.37721,34.86602],[-98.37746,34.86553],[-98.37834,34.86511],[-98.37892,34.86421],[-98.37908,34.86423],[-98.37918,34.86449],[-98.37899,34.86501],[-98.37962,34.86439],[-98.37989,34.8643],[-98.38004,34.86484],[-98.38015,34.86495],[-98.38048,34.86493],[-98.38058,34.8651],[-98.38054,34.86579],[-98.3802,34.86645],[-98.38,34.8672],[-98.37972,34.86758],[-98.37922,34.86801]]]},"properties":{"fire_id":"ufid:2025-OKANA-002241","source_collection":"history-2025","source_objectid":47759,"incident_name":"62 RAILROAD","mapped_acres":20.0,"mapped_acres_source":"poly_GISAcres","gis_acres":20.0,"auto_acres":27.233799827472506,"reported_acres":20.0,"percent_contained":null,"state":"OK","state_wfigs":"US-OK","county":"Caddo","discovery_time_utc":"2025-10-21T18:50:00Z","perimeter_time_utc":"2025-10-22T21:34:14Z","perimeter_edit_time_utc":"2025-10-22T22:17:40Z","incident_modified_time_utc":"2025-11-19T16:20:19Z","containment_time_utc":"2025-10-21T21:30:00Z","control_time_utc":"2025-11-18T18:00:00Z","fire_out_time_utc":"2025-11-18T18:00:00Z","fire_cause":"Human","fire_cause_general":null,"map_method":"Auto-generated for InFORM","source_dataset":"2025 NIFS","unique_fire_identifier":"2025-OKANA-002241","irwin_id":"{2E75DF99-5368-45A3-AD15-9F99E93D0BD0}","global_id":"45cbd002-29f6-45ae-b2ab-02c7415669d3"}},{"type":"Feature","geometry":{"type":"Polygon","coordinates":[[[-95.8326,34.61714],[-95.83344,34.61638],[-95.83393,34.61547],[-95.83388,34.61531],[-95.83421,34.61456],[-95.8345,34.61438],[-95.83525,34.61451],[-95.83646,34.61546],[-95.83714,34.61691],[-95.83915,34.61728],[-95.83913,34.61833],[-95.83882,34.61874],[-95.83957,34.61945],[-95.84034,34.61985],[-95.84007,34.62035],[-95.84001,34.62086],[-95.83939,34.62184],[-95.83776,34.62244],[-95.83723,34.62246],[-95.83661,34.62313],[-95.83576,34.62275],[-95.83551,34.62238],[-95.83509,34.62229],[-95.83464,34.62189],[-95.83395,34.62177],[-95.8327,34.62179],[-95.83252,34.62164],[-95.8325,34.62137],[-95.83255,34.61976],[-95.8327,34.6191],[-95.83251,34.6181],[-95.8326,34.61714]]]},"properties":{"fire_id":"ufid:2025-OKTLA-002247","source_collection":"history-2025","source_objectid":48141,"incident_name":"PIPELINE","mapped_acres":109.0,"mapped_acres_source":"poly_GISAcres","gis_acres":109.0,"auto_acres":109.31237632360177,"reported_acres":109.0,"percent_contained":null,"state":"OK","state_wfigs":"US-OK","county":"Pittsburg","discovery_time_utc":"2025-10-22T20:30:00Z","perimeter_time_utc":"2025-10-23T15:43:39Z","perimeter_edit_time_utc":"2025-11-03T17:36:47Z","incident_modified_time_utc":"2025-11-19T16:13:10Z","containment_time_utc":"2025-10-23T04:00:00Z","control_time_utc":"2025-11-12T18:00:00Z","fire_out_time_utc":"2025-11-12T18:00:00Z","fire_cause":"Human","fire_cause_general":null,"map_method":"Auto-generated for InFORM","source_dataset":"2025 NIFS","unique_fire_identifier":"2025-OKTLA-002247","irwin_id":"{9DC17AFA-8B87-4E74-939E-23127D227B39}","global_id":"c43c6c0a-eb6f-4d26-9bab-cbc890ab31c0"}},{"type":"Feature","geometry":{"type":"Polygon","coordinates":[[[-99.11394,34.86924],[-99.11331,34.8695],[-99.11287,34.86937],[-99.11277,34.86955],[-99.11252,34.86963],[-99.11194,34.86939],[-99.11214,34.86872],[-99.11175,34.868],[-99.11374,34.86739],[-99.11418,34.86814],[-99.11391,34.86844],[-99.1141,34.86899],[-99.11394,34.86924]]]},"properties":{"fire_id":"ufid:2025-OKANA-002441","source_collection":"history-2025","source_objectid":49035,"incident_name":"ELK CREEK","mapped_acres":8.0,"mapped_acres_source":"poly_GISAcres","gis_acres":8.0,"auto_acres":9.618246544265144,"reported_acres":8.0,"percent_contained":null,"state":"OK","state_wfigs":"US-OK","county":"Kiowa","discovery_time_utc":"2025-11-22T20:00:00Z","perimeter_time_utc":"2025-12-06T17:30:22Z","perimeter_edit_time_utc":null,"incident_modified_time_utc":"2025-11-24T19:14:50Z","containment_time_utc":"2025-11-23T23:00:00Z","control_time_utc":null,"fire_out_time_utc":"2025-11-28T23:00:00Z","fire_cause":"Human","fire_cause_general":"Arson","map_method":"Auto-generated for InFORM","source_dataset":"FFP","unique_fire_identifier":"2025-OKANA-002441","irwin_id":"{47734BF8-F015-4E7A-AB89-D5D8F569EED8}","global_id":"2bc07fb4-e706-4454-b725-181d0f30316b"}},{"type":"Feature","geometry":{"type":"Polygon","coordinates":[[[-98.36674,34.62807],[-98.36696,34.62862],[-98.36694,34.6295],[-98.36707,34.63003],[-98.36696,34.6305],[-98.36647,34.63052],[-98.36627,34.6309],[-98.36607,34.63093],[-98.36613,34.63023],[-98.3658,34.62988],[-98.36563,34.62871],[-98.36584,34.62746],[-98.36648,34.62669],[-98.36676,34.62735],[-98.36674,34.62807]]]},"properties":{"fire_id":"ufid:2025-OKANA-001753","source_collection":"history-2025","source_objectid":49083,"incident_name":"EAST BALE FIRE","mapped_acres":10.02,"mapped_acres_source":"poly_GISAcres","gis_acres":10.02,"auto_acres":10.019636097403792,"reported_acres":10.0,"percent_contained":null,"state":"OK","state_wfigs":"US-OK","county":"Cotton","discovery_time_utc":"2025-08-15T20:30:00Z","perimeter_time_utc":"2025-12-08T17:18:03Z","perimeter_edit_time_utc":"2025-12-08T17:18:05Z","incident_modified_time_utc":"2025-12-08T17:15:28Z","containment_time_utc":"2025-08-17T17:00:00Z","control_time_utc":"2025-09-01T17:00:00Z","fire_out_time_utc":"2025-09-02T17:00:00Z","fire_cause":"Human","fire_cause_general":null,"map_method":"Hand Sketch","source_dataset":"2025 NIFS","unique_fire_identifier":"2025-OKANA-001753","irwin_id":"{1319128F-5C08-4C27-9B4B-0AFDAAF38E6A}","global_id":"0e5d2f96-7879-46f1-84db-2b4bb9adfcb2"}}]}
