{"type":"FeatureCollection","features":[{"type":"Feature","geometry":{"type":"Polygon","coordinates":[[[-101.19509,36.64842],[-101.19569,36.6487],[-101.19564,36.6492],[-101.19526,36.64922],[-101.19498,36.64894],[-101.19492,36.64871],[-101.19509,36.64842]]]},"properties":{"fire_id":"ufid:2025-OKOPR-001699","source_collection":"history-2025","source_objectid":45576,"incident_name":"Food Plot","mapped_acres":1.16,"mapped_acres_source":"poly_GISAcres","gis_acres":1.16,"auto_acres":1.1550466163753452,"reported_acres":1.16,"percent_contained":null,"state":"OK","state_wfigs":"US-OK","county":"Texas","discovery_time_utc":"2025-08-08T23:00:00Z","perimeter_time_utc":"2025-09-08T17:41:27Z","perimeter_edit_time_utc":null,"incident_modified_time_utc":"2025-08-13T21:30:12Z","containment_time_utc":"2025-08-10T23:00:00Z","control_time_utc":"2025-08-11T23:00:00Z","fire_out_time_utc":"2025-08-13T20:00:00Z","fire_cause":"Natural","fire_cause_general":"Natural","map_method":"Auto-generated for InFORM","source_dataset":"FFP","unique_fire_identifier":"2025-OKOPR-001699","irwin_id":"{2CBB74E1-0B0D-4743-9E3C-9EAC902B71AC}","global_id":"9b7e9975-07ce-4f1e-9113-dbc4626647b3"}}]}
