{"type":"FeatureCollection","features":[{"type":"Feature","geometry":{"type":"Polygon","coordinates":[[[-77.44967,40.02694],[-77.44912,40.02785],[-77.44804,40.0279],[-77.4474,40.02747],[-77.44713,40.02744],[-77.44617,40.02785],[-77.44378,40.02827],[-77.44331,40.02945],[-77.44175,40.03057],[-77.44138,40.03124],[-77.44036,40.0316],[-77.43944,40.03221],[-77.43813,40.03273],[-77.43776,40.03235],[-77.43763,40.03196],[-77.4375,40.03203],[-77.43757,40.03171],[-77.43714,40.03138],[-77.43724,40.03122],[-77.43695,40.03054],[-77.43593,40.02936],[-77.43628,40.02871],[-77.43636,40.02826],[-77.43695,40.02742],[-77.43873,40.02524],[-77.44048,40.02372],[-77.44054,40.02334],[-77.43562,40.02364],[-77.43295,40.02242],[-77.43084,40.02249],[-77.42886,40.02161],[-77.42872,40.02131],[-77.42893,40.01949],[-77.42821,40.01746],[-77.42798,40.0163],[-77.42576,40.01097],[-77.42552,40.00923],[-77.42564,40.00878],[-77.42538,40.00803],[-77.42511,40.00777],[-77.42382,40.00712],[-77.42257,40.00673],[-77.4195,40.00534],[-77.41915,40.00456],[-77.41825,40.00383],[-77.41851,40.00352],[-77.41878,40.00345],[-77.41945,40.00352],[-77.42325,40.00556],[-77.42403,40.00571],[-77.42488,40.00552],[-77.42512,40.00522],[-77.42501,40.00488],[-77.42334,40.00393],[-77.42298,40.00352],[-77.42277,40.00304],[-77.42286,40.00185],[-77.42345,40.00068],[-77.42544,39.99881],[-77.42841,39.99656],[-77.4293,39.99594],[-77.42956,39.99589],[-77.43025,39.99515],[-77.43134,39.99355],[-77.43205,39.99283],[-77.43326,39.99205],[-77.43582,39.99086],[-77.43787,39.99068],[-77.43976,39.99086],[-77.44053,39.99166],[-77.44448,39.99473],[-77.44589,39.99548],[-77.44796,39.99606],[-77.44872,39.99648],[-77.4508,39.99849],[-77.45099,39.99881],[-77.45123,40.00088],[-77.45155,40.00225],[-77.45165,40.00366],[-77.4537,40.00505],[-77.45536,40.00593],[-77.4595,40.00728],[-77.45998,40.00766],[-77.46162,40.01001],[-77.46173,40.0108],[-77.46103,40.01284],[-77.46057,40.01298],[-77.45745,40.01583],[-77.45761,40.01633],[-77.45818,40.01664],[-77.45831,40.01702],[-77.45811,40.01774],[-77.45815,40.01839],[-77.45826,40.01853],[-77.45811,40.01929],[-77.4578,40.01943],[-77.45759,40.0197],[-77.45763,40.02009],[-77.45719,40.02077],[-77.45655,40.02345],[-77.45644,40.02333],[-77.45635,40.02368],[-77.45638,40.02443],[-77.45612,40.02513],[-77.45588,40.02531],[-77.45484,40.02548],[-77.45392,40.0252],[-77.45313,40.02479],[-77.45282,40.02384],[-77.45282,40.02327],[-77.45175,40.02309],[-77.45124,40.02275],[-77.45092,40.02273],[-77.45074,40.02238],[-77.44986,40.02231],[-77.44985,40.0252],[-77.4499,40.02592],[-77.45016,40.02664],[-77.44967,40.02694]]]},"properties":{"fire_id":"ufid:2025-PAPAS-000331","source_collection":"history-2025","source_objectid":39001,"incident_name":"Thompson Hollow","mapped_acres":2323.0672144857385,"mapped_acres_source":"poly_GISAcres","gis_acres":2323.0672144857385,"auto_acres":2247.6503555180943,"reported_acres":2248.0,"percent_contained":100.0,"state":"PA","state_wfigs":"US-PA","county":"Adams","discovery_time_utc":"2025-04-23T20:00:00Z","perimeter_time_utc":"2025-04-24T21:04:19Z","perimeter_edit_time_utc":"2025-04-26T18:22:16Z","incident_modified_time_utc":"2025-06-02T14:42:36Z","containment_time_utc":"2025-05-06T18:00:00Z","control_time_utc":null,"fire_out_time_utc":null,"fire_cause":"Undetermined","fire_cause_general":null,"map_method":"Auto-generated for InFORM","source_dataset":"2025 NIFS","unique_fire_identifier":"2025-PAPAS-000331","irwin_id":"{D8A9E717-C998-4385-A21D-60542558BCD0}","global_id":"67277afc-e914-4ba0-b66f-d6b13ced6ef5"}},{"type":"Feature","geometry":{"type":"Polygon","coordinates":[[[-75.12818,40.95253],[-75.1286,40.95257],[-75.12845,40.95283],[-75.12828,40.95287],[-75.12836,40.95302],[-75.12825,40.9532],[-75.12804,40.953],[-75.12821,40.95289],[-75.12796,40.95272],[-75.12818,40.95253]]]},"properties":{"fire_id":"ufid:2025-PADWP-250002","source_collection":"history-2025","source_objectid":39850,"incident_name":"Slateford Farm","mapped_acres":0.532203,"mapped_acres_source":"poly_GISAcres","gis_acres":0.532203,"auto_acres":0.5322008395321803,"reported_acres":0.5,"percent_contained":null,"state":"PA","state_wfigs":"US-PA","county":"Northampton","discovery_time_utc":"2025-03-10T18:30:52Z","perimeter_time_utc":"2025-05-16T15:14:34Z","perimeter_edit_time_utc":null,"incident_modified_time_utc":"2025-03-11T00:02:18Z","containment_time_utc":"2025-03-11T18:30:00Z","control_time_utc":null,"fire_out_time_utc":"2025-03-31T17:29:00Z","fire_cause":"Human","fire_cause_general":"Undetermined","map_method":"Auto-generated for InFORM","source_dataset":"FFP","unique_fire_identifier":"2025-PADWP-250002","irwin_id":"{65EC2EE9-10FE-4689-BD58-4CCBFD29E6F7}","global_id":"89263331-9291-4565-91a2-b9f36d42973f"}},{"type":"Feature","geometry":{"type":"Polygon","coordinates":[[[-75.42751,40.11316],[-75.4277,40.11322],[-75.42745,40.11358],[-75.42844,40.11393],[-75.42861,40.11411],[-75.42849,40.11433],[-75.42881,40.1144],[-75.42842,40.11459],[-75.42875,40.11471],[-75.42859,40.11488],[-75.42877,40.11512],[-75.42853,40.11529],[-75.42851,40.1155],[-75.42805,40.11563],[-75.42797,40.11546],[-75.42756,40.11556],[-75.42536,40.11484],[-75.42506,40.11469],[-75.42506,40.11447],[-75.42477,40.11418],[-75.42447,40.11425],[-75.4241,40.11376],[-75.42374,40.11363],[-75.42413,40.11342],[-75.42463,40.1136],[-75.4249,40.11397],[-75.42507,40.11401],[-75.42751,40.11316]]]},"properties":{"fire_id":"ufid:2025-PAVFP-250001","source_collection":"history-2025","source_objectid":39855,"incident_name":"Catfish","mapped_acres":14.72228,"mapped_acres_source":"poly_GISAcres","gis_acres":14.72228,"auto_acres":14.722224202650498,"reported_acres":15.0,"percent_contained":null,"state":"PA","state_wfigs":"US-PA","county":"Montgomery","discovery_time_utc":"2025-03-13T21:30:00Z","perimeter_time_utc":"2025-05-16T16:42:45Z","perimeter_edit_time_utc":null,"incident_modified_time_utc":"2025-03-17T12:24:19Z","containment_time_utc":"2025-03-14T16:36:00Z","control_time_utc":null,"fire_out_time_utc":"2025-05-16T16:36:45Z","fire_cause":"Human","fire_cause_general":"Misuse of fire by a minor","map_method":"GPS-Walked","source_dataset":"FFP","unique_fire_identifier":"2025-PAVFP-250001","irwin_id":"{0D321E9F-1E2E-4476-8851-EC110FBE0527}","global_id":"8b48dace-6cfc-4591-9b7c-3658b2939441"}},{"type":"Feature","geometry":{"type":"Polygon","coordinates":[[[-78.16539,40.08926],[-78.16568,40.08941],[-78.16559,40.08967],[-78.16553,40.08949],[-78.16531,40.08967],[-78.16507,40.08946],[-78.16511,40.08931],[-78.16539,40.08926]]]},"properties":{"fire_id":"ufid:2025-PA02S-02252010","source_collection":"history-2025","source_objectid":46884,"incident_name":"Sprowl","mapped_acres":0.33745495341428483,"mapped_acres_source":"poly_Acres_AutoCalc_fallback","gis_acres":null,"auto_acres":0.33745495341428483,"reported_acres":0.34,"percent_contained":null,"state":"PA","state_wfigs":"US-PA","county":"Fulton","discovery_time_utc":"2025-09-20T18:00:00Z","perimeter_time_utc":"2025-10-07T14:01:48Z","perimeter_edit_time_utc":null,"incident_modified_time_utc":"2025-10-07T13:54:02Z","containment_time_utc":null,"control_time_utc":null,"fire_out_time_utc":null,"fire_cause":"Human","fire_cause_general":"Debris and open burning","map_method":"Mixed Methods","source_dataset":"FFP","unique_fire_identifier":"2025-PA02S-02252010","irwin_id":"{9A1BB06A-4688-46C2-BAA4-455D5F4C253D}","global_id":"1c5f7894-b90e-4471-b268-72bb944042a7"}},{"type":"Feature","geometry":{"type":"Polygon","coordinates":[[[-78.71349,40.0171],[-78.71337,40.01748],[-78.71227,40.01707],[-78.71259,40.01679],[-78.71288,40.01717],[-78.71327,40.01724],[-78.71349,40.0171]]]},"properties":{"fire_id":"ufid:2025-PA02S-02252007","source_collection":"history-2025","source_objectid":46887,"incident_name":"Mowry road","mapped_acres":0.670572678538537,"mapped_acres_source":"poly_Acres_AutoCalc_fallback","gis_acres":null,"auto_acres":0.670572678538537,"reported_acres":0.67,"percent_contained":null,"state":"PA","state_wfigs":"US-PA","county":"Bedford","discovery_time_utc":"2025-09-13T22:28:17Z","perimeter_time_utc":"2025-10-07T14:15:05Z","perimeter_edit_time_utc":null,"incident_modified_time_utc":"2025-10-07T14:08:06Z","containment_time_utc":null,"control_time_utc":null,"fire_out_time_utc":null,"fire_cause":"Human","fire_cause_general":"Debris and open burning","map_method":"Mixed Methods","source_dataset":"FFP","unique_fire_identifier":"2025-PA02S-02252007","irwin_id":"{3D3519CE-0203-4A2C-A567-4F990C9FBBF5}","global_id":"b857f928-d2fe-4b04-b7a0-cac34c68e699"}},{"type":"Feature","geometry":{"type":"Polygon","coordinates":[[[-78.25278,40.16399],[-78.25274,40.16411],[-78.25249,40.16414],[-78.25234,40.16393],[-78.25278,40.16399]]]},"properties":{"fire_id":"ufid:2025-PA02S-02252006","source_collection":"history-2025","source_objectid":46888,"incident_name":"River view lane","mapped_acres":0.1726998994380566,"mapped_acres_source":"poly_Acres_AutoCalc_fallback","gis_acres":null,"auto_acres":0.1726998994380566,"reported_acres":0.17,"percent_contained":null,"state":"PA","state_wfigs":"US-PA","county":"Bedford","discovery_time_utc":"2025-09-13T22:01:54Z","perimeter_time_utc":"2025-10-07T14:22:18Z","perimeter_edit_time_utc":null,"incident_modified_time_utc":"2025-10-07T14:17:12Z","containment_time_utc":null,"control_time_utc":null,"fire_out_time_utc":null,"fire_cause":"Human","fire_cause_general":"Debris and open burning","map_method":"Mixed Methods","source_dataset":"FFP","unique_fire_identifier":"2025-PA02S-02252006","irwin_id":"{EF0B1788-8775-4556-BC34-B4D0B10E7F43}","global_id":"fa6c8677-55bb-4bf8-a63e-a3be9e5eb757"}},{"type":"Feature","geometry":{"type":"MultiPolygon","coordinates":[[[[-78.54165,40.26361],[-78.54198,40.26325],[-78.54191,40.2637],[-78.54173,40.26378],[-78.54165,40.26361]]],[[[-78.54134,40.26313],[-78.54159,40.26329],[-78.54139,40.26336],[-78.54126,40.2632],[-78.54134,40.26313]]],[[[-78.5416,40.26329],[-78.54175,40.26338],[-78.54162,40.26334],[-78.5416,40.26329]]]]},"properties":{"fire_id":"ufid:2025-PA02S-02252003","source_collection":"history-2025","source_objectid":46893,"incident_name":"Beaver dam road","mapped_acres":0.4066229997951117,"mapped_acres_source":"poly_Acres_AutoCalc_fallback","gis_acres":null,"auto_acres":0.4066229997951117,"reported_acres":0.41,"percent_contained":null,"state":"PA","state_wfigs":"US-PA","county":"Bedford","discovery_time_utc":"2025-09-10T19:46:32Z","perimeter_time_utc":"2025-10-07T14:46:00Z","perimeter_edit_time_utc":null,"incident_modified_time_utc":"2025-10-07T14:41:44Z","containment_time_utc":"2025-09-11T18:00:00Z","control_time_utc":null,"fire_out_time_utc":"2025-09-12T17:00:00Z","fire_cause":"Human","fire_cause_general":"Equipment and vehicle use","map_method":"Mixed Methods","source_dataset":"FFP","unique_fire_identifier":"2025-PA02S-02252003","irwin_id":"{4774EC0B-BA9C-4AAE-B2EF-F158F1B81336}","global_id":"7774a031-48f6-4e01-afd4-51845a785e6c"}},{"type":"Feature","geometry":{"type":"Polygon","coordinates":[[[-78.23968,40.2275],[-78.2403,40.22769],[-78.24034,40.22804],[-78.2401,40.22831],[-78.23986,40.22809],[-78.23966,40.22815],[-78.23907,40.22782],[-78.23936,40.22754],[-78.23956,40.22762],[-78.23968,40.2275]]]},"properties":{"fire_id":"ufid:2025-PA02S-02252001","source_collection":"history-2025","source_objectid":46894,"incident_name":"Power Plant Road","mapped_acres":1.3834447780040058,"mapped_acres_source":"poly_Acres_AutoCalc_fallback","gis_acres":null,"auto_acres":1.3834447780040058,"reported_acres":1.38,"percent_contained":null,"state":"PA","state_wfigs":"US-PA","county":"Bedford","discovery_time_utc":"2025-08-26T01:20:06Z","perimeter_time_utc":"2025-10-07T14:52:15Z","perimeter_edit_time_utc":null,"incident_modified_time_utc":"2025-10-07T14:48:30Z","containment_time_utc":null,"control_time_utc":null,"fire_out_time_utc":"2025-08-26T15:00:00Z","fire_cause":"Human","fire_cause_general":"Power generation / transmission / distribution","map_method":"Mixed Methods","source_dataset":"FFP","unique_fire_identifier":"2025-PA02S-02252001","irwin_id":"{3D5A18B3-CD1B-42E5-B368-E123BD9BAD02}","global_id":"e6a05a29-aa6d-4137-80f1-2c675ceded36"}},{"type":"Feature","geometry":{"type":"Polygon","coordinates":[[[-77.96463,40.06949],[-77.96449,40.0695],[-77.96457,40.06973],[-77.96447,40.0701],[-77.9643,40.07023],[-77.96404,40.07023],[-77.96368,40.06988],[-77.96415,40.06943],[-77.96463,40.06949]]]},"properties":{"fire_id":"ufid:2025-PA02S-02252002","source_collection":"history-2025","source_objectid":46897,"incident_name":"Sinoquipe","mapped_acres":1.1114208355597968,"mapped_acres_source":"poly_Acres_AutoCalc_fallback","gis_acres":null,"auto_acres":1.1114208355597968,"reported_acres":1.11,"percent_contained":null,"state":"PA","state_wfigs":"US-PA","county":"Fulton","discovery_time_utc":"2025-09-05T21:20:54Z","perimeter_time_utc":"2025-10-07T15:00:31Z","perimeter_edit_time_utc":null,"incident_modified_time_utc":"2025-10-07T14:59:15Z","containment_time_utc":"2025-09-06T02:30:00Z","control_time_utc":null,"fire_out_time_utc":"2025-09-06T18:00:00Z","fire_cause":"Human","fire_cause_general":"Debris and open burning","map_method":"Mixed Methods","source_dataset":"FFP","unique_fire_identifier":"2025-PA02S-02252002","irwin_id":"{EB3CACF3-CF6F-4D4B-AC3C-CE493F3A1F5C}","global_id":"0e19008a-3d13-4bbf-a3ad-fb11540fbeb3"}},{"type":"Feature","geometry":{"type":"Polygon","coordinates":[[[-78.12271,40.04524],[-78.12278,40.04527],[-78.12263,40.04547],[-78.12271,40.04524]]]},"properties":{"fire_id":"ufid:2025-PA02S-1760025729","source_collection":"history-2025","source_objectid":47014,"incident_name":"Mile marker 169","mapped_acres":0.04682986576866678,"mapped_acres_source":"poly_Acres_AutoCalc_fallback","gis_acres":null,"auto_acres":0.04682986576866678,"reported_acres":0.05,"percent_contained":null,"state":"PA","state_wfigs":"US-PA","county":"Fulton","discovery_time_utc":"2025-10-07T14:45:00Z","perimeter_time_utc":"2025-10-08T18:11:43Z","perimeter_edit_time_utc":null,"incident_modified_time_utc":"2025-10-08T17:54:59Z","containment_time_utc":null,"control_time_utc":null,"fire_out_time_utc":"2025-10-07T16:41:00Z","fire_cause":"Human","fire_cause_general":"Equipment and vehicle use","map_method":"Mixed Methods","source_dataset":"FFP","unique_fire_identifier":"2025-PA02S-1760025729","irwin_id":"{41DF40A6-2003-4FF0-9ACE-2BBC8445D977}","global_id":"99a36e6f-a57d-4a57-8041-2b57ec7fd0ca"}},{"type":"Feature","geometry":{"type":"Polygon","coordinates":[[[-78.5346,40.23477],[-78.53633,40.23527],[-78.53705,40.2358],[-78.53711,40.23607],[-78.53756,40.23655],[-78.53751,40.23672],[-78.53708,40.23662],[-78.53684,40.23671],[-78.53673,40.23649],[-78.53573,40.23589],[-78.5355,40.23598],[-78.53519,40.23586],[-78.53511,40.23599],[-78.53478,40.2356],[-78.53499,40.23549],[-78.53493,40.23541],[-78.53476,40.2352],[-78.53444,40.23515],[-78.5346,40.23477]]]},"properties":{"fire_id":"ufid:2025-PA02S-1759873308","source_collection":"history-2025","source_objectid":47041,"incident_name":"Feathers road","mapped_acres":5.45835620905377,"mapped_acres_source":"poly_Acres_AutoCalc_fallback","gis_acres":null,"auto_acres":5.45835620905377,"reported_acres":5.46,"percent_contained":null,"state":"PA","state_wfigs":"US-PA","county":"Bedford","discovery_time_utc":"2025-10-06T18:40:00Z","perimeter_time_utc":"2025-10-09T16:09:39Z","perimeter_edit_time_utc":null,"incident_modified_time_utc":"2025-10-07T12:01:16Z","containment_time_utc":"2025-10-06T19:36:00Z","control_time_utc":"2025-10-06T19:55:00Z","fire_out_time_utc":"2025-10-06T22:00:00Z","fire_cause":"Human","fire_cause_general":"Debris and open burning","map_method":"Mixed Methods","source_dataset":"FFP","unique_fire_identifier":"2025-PA02S-1759873308","irwin_id":"{73C1AD83-49FA-4296-BEBE-DA114AF8A754}","global_id":"37aaf933-3d63-4b73-ae3f-96242c8cc942"}},{"type":"Feature","geometry":{"type":"Polygon","coordinates":[[[-78.07223,40.22078],[-78.0722,40.2222],[-78.07197,40.2224],[-78.07125,40.22252],[-78.07114,40.22226],[-78.07151,40.2213],[-78.07106,40.22109],[-78.0713,40.2206],[-78.07172,40.22042],[-78.07223,40.22078]]]},"properties":{"fire_id":"ufid:2025-PA05S-05252-008","source_collection":"history-2025","source_objectid":48175,"incident_name":"Cooks road","mapped_acres":4.413273870447763,"mapped_acres_source":"poly_Acres_AutoCalc_fallback","gis_acres":null,"auto_acres":4.413273870447763,"reported_acres":4.41,"percent_contained":null,"state":"PA","state_wfigs":"US-PA","county":"Huntingdon","discovery_time_utc":"2025-11-02T20:42:49Z","perimeter_time_utc":null,"perimeter_edit_time_utc":"2025-11-04T14:02:34Z","incident_modified_time_utc":"2025-11-04T14:05:32Z","containment_time_utc":"2025-11-02T23:44:00Z","control_time_utc":"2025-11-03T19:00:00Z","fire_out_time_utc":null,"fire_cause":"Human","fire_cause_general":"Debris and open burning","map_method":"Mixed Methods","source_dataset":"2025 NIFS","unique_fire_identifier":"2025-PA05S-05252-008","irwin_id":"{81941BE4-2743-446D-AFDA-D7A5002D5CD7}","global_id":"3a1e4aa3-c8a4-4e87-8706-be3f4391702f"}},{"type":"Feature","geometry":{"type":"Polygon","coordinates":[[[-78.4297,40.22999],[-78.42963,40.23035],[-78.42925,40.23058],[-78.42676,40.23082],[-78.42632,40.23065],[-78.42651,40.23029],[-78.42594,40.22974],[-78.42621,40.22915],[-78.42617,40.22896],[-78.42633,40.22888],[-78.42988,40.22995],[-78.4297,40.22999]]]},"properties":{"fire_id":"ufid:2025-PA02S-1762449466","source_collection":"history-2025","source_objectid":48245,"incident_name":"Barely church","mapped_acres":10.86780724297747,"mapped_acres_source":"poly_Acres_AutoCalc_fallback","gis_acres":null,"auto_acres":10.86780724297747,"reported_acres":10.86,"percent_contained":null,"state":"PA","state_wfigs":"US-PA","county":"Bedford","discovery_time_utc":"2025-11-04T17:23:00Z","perimeter_time_utc":"2025-11-06T19:22:16Z","perimeter_edit_time_utc":null,"incident_modified_time_utc":"2025-11-05T19:28:24Z","containment_time_utc":null,"control_time_utc":null,"fire_out_time_utc":null,"fire_cause":"Human","fire_cause_general":"Debris and open burning","map_method":"Mixed Methods","source_dataset":"FFP","unique_fire_identifier":"2025-PA02S-1762449466","irwin_id":"{5A63D380-0AB0-4F0E-9982-EDF235056359}","global_id":"74beaf5a-b4ab-4580-b4d6-449023106207"}},{"type":"Feature","geometry":{"type":"Polygon","coordinates":[[[-78.29179,40.1415],[-78.29202,40.1415],[-78.292,40.14166],[-78.29174,40.14164],[-78.29179,40.1415]]]},"properties":{"fire_id":"ufid:2025-PA02S-1762517696","source_collection":"history-2025","source_objectid":48331,"incident_name":"Plank road","mapped_acres":0.08658361631612696,"mapped_acres_source":"poly_Acres_AutoCalc_fallback","gis_acres":null,"auto_acres":0.08658361631612696,"reported_acres":0.09,"percent_contained":null,"state":"PA","state_wfigs":"US-PA","county":"Bedford","discovery_time_utc":"2025-11-06T02:01:00Z","perimeter_time_utc":"2025-11-07T13:32:35Z","perimeter_edit_time_utc":null,"incident_modified_time_utc":"2025-11-06T19:39:24Z","containment_time_utc":"2025-11-06T02:51:00Z","control_time_utc":null,"fire_out_time_utc":"2025-11-06T03:12:00Z","fire_cause":"Human","fire_cause_general":"Power generation / transmission / distribution","map_method":"Mixed Methods","source_dataset":"FFP","unique_fire_identifier":"2025-PA02S-1762517696","irwin_id":"{49FFC883-A671-426D-A2B6-7FEE8566E71E}","global_id":"b0137b87-8df4-438f-8bc0-de1e43a5f138"}},{"type":"Feature","geometry":{"type":"Polygon","coordinates":[[[-78.03476,40.06146],[-78.03554,40.06204],[-78.03572,40.06191],[-78.03581,40.06215],[-78.03525,40.0625],[-78.03503,40.06253],[-78.03493,40.06234],[-78.03424,40.0626],[-78.03421,40.06235],[-78.03434,40.06221],[-78.03458,40.0621],[-78.03482,40.06228],[-78.03495,40.06215],[-78.03479,40.06208],[-78.03484,40.06194],[-78.03445,40.0618],[-78.03436,40.06166],[-78.03445,40.06156],[-78.03476,40.06146]]]},"properties":{"fire_id":"ufid:2025-PA02S-1762517697","source_collection":"history-2025","source_objectid":48332,"incident_name":"Hollow Log","mapped_acres":2.0382226900435967,"mapped_acres_source":"poly_Acres_AutoCalc_fallback","gis_acres":null,"auto_acres":2.0382226900435967,"reported_acres":2.04,"percent_contained":null,"state":"PA","state_wfigs":"US-PA","county":"Fulton","discovery_time_utc":"2025-11-06T01:40:00Z","perimeter_time_utc":"2025-11-07T13:57:55Z","perimeter_edit_time_utc":null,"incident_modified_time_utc":"2025-11-06T19:43:55Z","containment_time_utc":"2025-11-06T03:12:00Z","control_time_utc":"2025-11-06T04:39:00Z","fire_out_time_utc":null,"fire_cause":"Human","fire_cause_general":"Power generation / transmission / distribution","map_method":"Mixed Methods","source_dataset":"FFP","unique_fire_identifier":"2025-PA02S-1762517697","irwin_id":"{2B880ACA-EBFD-4321-876A-5D097E1BA347}","global_id":"7a2bfb4e-82d4-4ad0-9375-c0e9772efe1d"}},{"type":"Feature","geometry":{"type":"Polygon","coordinates":[[[-77.9211,40.43489],[-77.92138,40.4347],[-77.92131,40.43488],[-77.9211,40.43489]]]},"properties":{"fire_id":"ufid:2025-PA05S-1762449734","source_collection":"history-2025","source_objectid":48371,"incident_name":"Mountain road","mapped_acres":0.07177792320694372,"mapped_acres_source":"poly_Acres_AutoCalc_fallback","gis_acres":null,"auto_acres":0.07177792320694372,"reported_acres":0.07,"percent_contained":null,"state":"PA","state_wfigs":"US-PA","county":"Huntingdon","discovery_time_utc":"2025-11-05T16:35:00Z","perimeter_time_utc":"2025-11-07T20:44:45Z","perimeter_edit_time_utc":null,"incident_modified_time_utc":"2025-11-05T20:14:27Z","containment_time_utc":"2025-11-05T16:43:00Z","control_time_utc":"2025-11-05T17:07:00Z","fire_out_time_utc":"2025-11-05T17:23:53Z","fire_cause":"Human","fire_cause_general":"Other causes","map_method":"Mixed Methods","source_dataset":"FFP","unique_fire_identifier":"2025-PA05S-1762449734","irwin_id":"{7CDB906E-E2FD-4EBE-899B-A8A435A313B8}","global_id":"615abfe1-bfb4-469f-b2a5-b9e1b10d84c6"}},{"type":"Feature","geometry":{"type":"Polygon","coordinates":[[[-77.8117,40.48739],[-77.81069,40.487],[-77.81064,40.48677],[-77.81099,40.4867],[-77.81175,40.48704],[-77.81187,40.48727],[-77.81173,40.48727],[-77.8117,40.48739]]]},"properties":{"fire_id":"ufid:2025-PA05S-1762367285","source_collection":"history-2025","source_objectid":48386,"incident_name":"Little Kansas","mapped_acres":0.97,"mapped_acres_source":"poly_GISAcres","gis_acres":0.97,"auto_acres":0.9727974145325416,"reported_acres":0.97,"percent_contained":null,"state":"PA","state_wfigs":"US-PA","county":"Mifflin","discovery_time_utc":"2025-11-04T16:32:00Z","perimeter_time_utc":"2025-11-10T14:04:14Z","perimeter_edit_time_utc":null,"incident_modified_time_utc":"2025-11-07T20:50:52Z","containment_time_utc":"2025-11-04T17:45:00Z","control_time_utc":null,"fire_out_time_utc":"2025-11-04T20:00:00Z","fire_cause":"Human","fire_cause_general":"Power generation / transmission / distribution","map_method":"Mixed Methods","source_dataset":"FFP","unique_fire_identifier":"2025-PA05S-1762367285","irwin_id":"{DEE5501F-8EC4-4B78-9FF1-4F3A9C62AF6B}","global_id":"81d88823-6c52-49ab-a92e-9287fbf8e351"}},{"type":"Feature","geometry":{"type":"Polygon","coordinates":[[[-77.85229,40.62733],[-77.85144,40.62829],[-77.85141,40.62825],[-77.85229,40.62733]]]},"properties":{"fire_id":"ufid:2025-PA05S-1762617164","source_collection":"history-2025","source_objectid":48488,"incident_name":"White fence","mapped_acres":0.09,"mapped_acres_source":"poly_GISAcres","gis_acres":0.09,"auto_acres":0.08570267751236146,"reported_acres":0.09,"percent_contained":null,"state":"PA","state_wfigs":"US-PA","county":"Huntingdon","discovery_time_utc":"2025-11-05T18:13:00Z","perimeter_time_utc":"2025-11-14T18:22:59Z","perimeter_edit_time_utc":null,"incident_modified_time_utc":"2025-11-07T16:35:09Z","containment_time_utc":"2025-11-05T18:47:00Z","control_time_utc":"2025-11-05T18:47:00Z","fire_out_time_utc":"2025-11-05T18:47:00Z","fire_cause":"Human","fire_cause_general":"Equipment and vehicle use","map_method":"Mixed Methods","source_dataset":"FFP","unique_fire_identifier":"2025-PA05S-1762617164","irwin_id":"{C34CC34E-E360-41AD-AC5F-749CD56E7406}","global_id":"b6ba105d-59a1-4174-92c6-1075122717d2"}},{"type":"Feature","geometry":{"type":"Polygon","coordinates":[[[-77.96338,40.15667],[-77.96323,40.15667],[-77.96307,40.15652],[-77.96338,40.15667]]]},"properties":{"fire_id":"ufid:2025-PA05S-1763221342","source_collection":"history-2025","source_objectid":48541,"incident_name":"Grissimel","mapped_acres":0.05,"mapped_acres_source":"poly_GISAcres","gis_acres":0.05,"auto_acres":0.04849069957707836,"reported_acres":0.05,"percent_contained":null,"state":"PA","state_wfigs":"US-PA","county":"Huntingdon","discovery_time_utc":"2025-11-06T05:22:00Z","perimeter_time_utc":"2025-11-17T18:21:31Z","perimeter_edit_time_utc":null,"incident_modified_time_utc":"2025-11-14T18:50:34Z","containment_time_utc":"2025-11-06T05:58:00Z","control_time_utc":"2025-11-06T06:48:00Z","fire_out_time_utc":"2025-11-06T06:48:00Z","fire_cause":"Human","fire_cause_general":"Power generation / transmission / distribution","map_method":"Mixed Methods","source_dataset":"FFP","unique_fire_identifier":"2025-PA05S-1763221342","irwin_id":"{D1C0065A-B26C-4FDD-8E17-80DCE3F19F5D}","global_id":"7f33b1fc-859c-4d29-bda6-833154359c93"}},{"type":"Feature","geometry":{"type":"Polygon","coordinates":[[[-78.07223,40.22078],[-78.0722,40.2222],[-78.07197,40.2224],[-78.07125,40.22252],[-78.07114,40.22226],[-78.07151,40.2213],[-78.07106,40.22109],[-78.0713,40.2206],[-78.07172,40.22042],[-78.07223,40.22078]]]},"properties":{"fire_id":"ufid:2025-PA05S-1762261943","source_collection":"history-2025","source_objectid":48544,"incident_name":"Cooks road","mapped_acres":4.413273870447763,"mapped_acres_source":"poly_Acres_AutoCalc_fallback","gis_acres":null,"auto_acres":4.413273870447763,"reported_acres":4.41,"percent_contained":null,"state":"PA","state_wfigs":"US-PA","county":"Huntingdon","discovery_time_utc":"2025-11-02T20:42:38Z","perimeter_time_utc":"2025-11-17T18:42:18Z","perimeter_edit_time_utc":null,"incident_modified_time_utc":"2025-11-17T18:37:06Z","containment_time_utc":"2025-11-02T23:44:00Z","control_time_utc":"2025-11-02T23:44:00Z","fire_out_time_utc":"2025-11-03T19:00:00Z","fire_cause":"Human","fire_cause_general":"Debris and open burning","map_method":"Mixed Methods","source_dataset":"FFP","unique_fire_identifier":"2025-PA05S-1762261943","irwin_id":"{413B8A09-8ACB-4A62-BFEB-27BD90ACAE9C}","global_id":"d5411c29-857a-444b-a8b2-a81f17946681"}},{"type":"Feature","geometry":{"type":"Polygon","coordinates":[[[-77.86937,40.48622],[-77.86952,40.48641],[-77.86944,40.48651],[-77.86926,40.48631],[-77.86937,40.48622]]]},"properties":{"fire_id":"ufid:2025-PA05S-1763733421","source_collection":"history-2025","source_objectid":48682,"incident_name":"Airydale","mapped_acres":0.09,"mapped_acres_source":"poly_GISAcres","gis_acres":0.09,"auto_acres":0.09364250466694146,"reported_acres":0.09,"percent_contained":null,"state":"PA","state_wfigs":"US-PA","county":"Huntingdon","discovery_time_utc":"2025-11-17T19:04:00Z","perimeter_time_utc":"2025-11-20T14:23:14Z","perimeter_edit_time_utc":null,"incident_modified_time_utc":"2025-11-20T14:11:38Z","containment_time_utc":"2025-11-17T19:56:00Z","control_time_utc":"2025-11-17T19:56:00Z","fire_out_time_utc":"2025-11-17T19:57:00Z","fire_cause":"Human","fire_cause_general":"Debris and open burning","map_method":"Mixed Methods","source_dataset":"FFP","unique_fire_identifier":"2025-PA05S-1763733421","irwin_id":"{FC57236B-8897-4EEF-9F06-339433E9AED0}","global_id":"18f6e125-7e86-46d6-9b01-156e49f2627b"}},{"type":"Feature","geometry":{"type":"Polygon","coordinates":[[[-78.55021,40.04533],[-78.54983,40.04499],[-78.54922,40.04475],[-78.54923,40.04442],[-78.54892,40.04415],[-78.54913,40.04391],[-78.54948,40.04391],[-78.54977,40.04373],[-78.54948,40.0445],[-78.55001,40.04469],[-78.55042,40.04522],[-78.55021,40.04533]]]},"properties":{"fire_id":"ufid:2025-PA02S-1763487643","source_collection":"history-2025","source_objectid":49878,"incident_name":"Swamp oak","mapped_acres":1.7834998786987075,"mapped_acres_source":"poly_Acres_AutoCalc_fallback","gis_acres":null,"auto_acres":1.7834998786987075,"reported_acres":1.78,"percent_contained":null,"state":"PA","state_wfigs":"US-PA","county":"Bedford","discovery_time_utc":"2025-12-18T08:00:00Z","perimeter_time_utc":"2025-12-30T15:18:30Z","perimeter_edit_time_utc":null,"incident_modified_time_utc":"2025-12-30T15:08:47Z","containment_time_utc":null,"control_time_utc":null,"fire_out_time_utc":null,"fire_cause":"Human","fire_cause_general":"Equipment and vehicle use","map_method":"Mixed Methods","source_dataset":"FFP","unique_fire_identifier":"2025-PA02S-1763487643","irwin_id":"{5F4C069A-585B-439C-8E80-7B9F3632A666}","global_id":"7127d553-dd20-4ae0-be78-9bf8dd5b3746"}}]}
