{"type":"FeatureCollection","features":[{"type":"Feature","geometry":{"type":"Polygon","coordinates":[[[-84.25762,35.29986],[-84.25911,35.29859],[-84.25953,35.29868],[-84.25952,35.29809],[-84.25936,35.29781],[-84.25972,35.29739],[-84.25974,35.29725],[-84.25956,35.29718],[-84.2598,35.29691],[-84.26017,35.29699],[-84.26068,35.29683],[-84.26094,35.29638],[-84.26147,35.29618],[-84.26273,35.29653],[-84.26306,35.29588],[-84.26327,35.29599],[-84.26324,35.29653],[-84.26392,35.29678],[-84.26424,35.29712],[-84.26404,35.29774],[-84.26423,35.29832],[-84.26469,35.29835],[-84.26475,35.29875],[-84.26494,35.29898],[-84.2651,35.29907],[-84.26553,35.29887],[-84.26587,35.29919],[-84.26607,35.29921],[-84.2662,35.29948],[-84.26645,35.29949],[-84.2666,35.2999],[-84.26705,35.30006],[-84.26744,35.30098],[-84.2673,35.30137],[-84.26742,35.30143],[-84.26724,35.30156],[-84.26724,35.30176],[-84.26758,35.30199],[-84.26794,35.302],[-84.26824,35.30229],[-84.26828,35.30269],[-84.26861,35.30286],[-84.26872,35.3031],[-84.26838,35.30322],[-84.26865,35.3035],[-84.26852,35.30386],[-84.26852,35.30458],[-84.26893,35.305],[-84.26797,35.30595],[-84.26808,35.30614],[-84.26792,35.30659],[-84.26803,35.3068],[-84.26837,35.30663],[-84.26893,35.30658],[-84.26937,35.30677],[-84.26924,35.30702],[-84.26875,35.30732],[-84.26911,35.30762],[-84.26862,35.30809],[-84.26873,35.30831],[-84.26867,35.30858],[-84.26771,35.30871],[-84.26735,35.30915],[-84.26826,35.30935],[-84.26842,35.3099],[-84.26804,35.31047],[-84.26794,35.31088],[-84.2683,35.31114],[-84.26836,35.3114],[-84.2677,35.31133],[-84.26722,35.31177],[-84.26697,35.31239],[-84.26648,35.31247],[-84.26593,35.31231],[-84.26572,35.31294],[-84.26533,35.31318],[-84.26516,35.31315],[-84.2653,35.31297],[-84.26518,35.31227],[-84.26492,35.31192],[-84.26512,35.31187],[-84.26523,35.31163],[-84.26468,35.31117],[-84.26468,35.31098],[-84.26489,35.31086],[-84.26492,35.31067],[-84.26471,35.31006],[-84.26431,35.3095],[-84.26438,35.30924],[-84.26452,35.30919],[-84.26443,35.30857],[-84.26479,35.30833],[-84.26438,35.30825],[-84.26394,35.30766],[-84.26326,35.3077],[-84.26292,35.30742],[-84.26214,35.30748],[-84.26194,35.30734],[-84.26188,35.30712],[-84.26169,35.30705],[-84.26157,35.30666],[-84.26194,35.30596],[-84.26126,35.30611],[-84.26091,35.30599],[-84.26091,35.30542],[-84.26111,35.3052],[-84.2609,35.305],[-84.26064,35.30538],[-84.26026,35.30552],[-84.26028,35.30497],[-84.25992,35.30428],[-84.25863,35.30345],[-84.25857,35.30286],[-84.25844,35.30272],[-84.25871,35.30247],[-84.25871,35.3023],[-84.25778,35.30135],[-84.25755,35.30088],[-84.25778,35.30051],[-84.25758,35.30008],[-84.25762,35.29986]]]},"properties":{"fire_id":"ufid:2025-TNTNS-250299","source_collection":"history-2025","source_objectid":37503,"incident_name":"Monroe - Holder Cemetery Road","mapped_acres":281.0,"mapped_acres_source":"poly_GISAcres","gis_acres":281.0,"auto_acres":255.9867528280558,"reported_acres":281.0,"percent_contained":100.0,"state":"TN","state_wfigs":"US-TN","county":"Monroe","discovery_time_utc":"2025-03-05T00:29:25Z","perimeter_time_utc":"2025-03-10T14:48:52Z","perimeter_edit_time_utc":"2025-03-13T19:11:30Z","incident_modified_time_utc":"2025-03-10T14:50:32Z","containment_time_utc":"2025-03-09T21:33:40Z","control_time_utc":null,"fire_out_time_utc":"2025-03-10T13:11:49Z","fire_cause":"Human","fire_cause_general":"Power generation/transmission/distribution","map_method":"Auto-generated for InFORM","source_dataset":"2025 NIFS","unique_fire_identifier":"2025-TNTNS-250299","irwin_id":"{2E146AAD-2322-41CF-AF83-D194F14EB6FA}","global_id":"be27cc11-5bf9-43ed-9cee-828899e06e0c"}},{"type":"Feature","geometry":{"type":"Polygon","coordinates":[[[-84.22752,35.344],[-84.22758,35.34499],[-84.22729,35.34563],[-84.22696,35.34581],[-84.22602,35.34597],[-84.22549,35.34567],[-84.2247,35.34552],[-84.22456,35.34528],[-84.22433,35.3453],[-84.22409,35.34514],[-84.22385,35.34478],[-84.22346,35.3448],[-84.2239,35.3447],[-84.22427,35.34492],[-84.22435,35.34461],[-84.2242,35.3444],[-84.22516,35.34406],[-84.22436,35.34383],[-84.22374,35.34382],[-84.22434,35.34332],[-84.22525,35.3435],[-84.22553,35.3434],[-84.22665,35.3435],[-84.22689,35.34374],[-84.22734,35.34383],[-84.22752,35.344]]]},"properties":{"fire_id":"ufid:2025-TNCNF-000108","source_collection":"history-2025","source_objectid":38095,"incident_name":"Caney Branch","mapped_acres":23.0,"mapped_acres_source":"poly_GISAcres","gis_acres":23.0,"auto_acres":17.767907970219756,"reported_acres":18.0,"percent_contained":null,"state":"TN","state_wfigs":"US-TN","county":"Monroe","discovery_time_utc":"2025-03-05T04:50:00Z","perimeter_time_utc":"2025-03-28T16:18:01Z","perimeter_edit_time_utc":null,"incident_modified_time_utc":"2025-03-23T15:36:42Z","containment_time_utc":"2025-03-05T22:50:00Z","control_time_utc":"2025-03-23T15:21:00Z","fire_out_time_utc":"2025-03-23T15:21:00Z","fire_cause":"Human","fire_cause_general":"Power generation / transmission / distribution","map_method":"Auto-generated for InFORM","source_dataset":"FFP","unique_fire_identifier":"2025-TNCNF-000108","irwin_id":"{C2E227AE-6285-47C4-98C0-6E6778849ECF}","global_id":"c2832be0-6368-4730-aa87-874c6d7e6169"}},{"type":"Feature","geometry":{"type":"Polygon","coordinates":[[[-84.33197,35.0616],[-84.33244,35.06178],[-84.33222,35.06208],[-84.33244,35.06258],[-84.33203,35.06296],[-84.33161,35.06297],[-84.33158,35.06255],[-84.33115,35.06234],[-84.33107,35.06285],[-84.33039,35.06333],[-84.32936,35.06339],[-84.32857,35.06312],[-84.32732,35.06296],[-84.32741,35.06265],[-84.32666,35.06248],[-84.32566,35.06244],[-84.32443,35.06268],[-84.32429,35.0625],[-84.32452,35.06172],[-84.3247,35.06151],[-84.32466,35.06131],[-84.3249,35.0611],[-84.32478,35.06097],[-84.32491,35.06088],[-84.32484,35.06068],[-84.32493,35.06068],[-84.32496,35.06036],[-84.32478,35.06015],[-84.32471,35.05936],[-84.32461,35.05934],[-84.32535,35.05903],[-84.3256,35.05929],[-84.32645,35.05935],[-84.32679,35.05963],[-84.32718,35.05948],[-84.32817,35.05987],[-84.32847,35.05975],[-84.32927,35.05992],[-84.33006,35.05989],[-84.33051,35.05999],[-84.331,35.0603],[-84.33127,35.06021],[-84.33198,35.06037],[-84.33197,35.0616]]]},"properties":{"fire_id":"ufid:2025-TNTNS-250706","source_collection":"history-2025","source_objectid":38622,"incident_name":"Polk - Sassafras Ridge Road","mapped_acres":80.0,"mapped_acres_source":"poly_GISAcres","gis_acres":80.0,"auto_acres":58.42611984664292,"reported_acres":73.9,"percent_contained":100.0,"state":"TN","state_wfigs":"US-TN","county":"Polk","discovery_time_utc":"2025-04-14T17:52:00Z","perimeter_time_utc":null,"perimeter_edit_time_utc":"2025-04-17T13:23:55Z","incident_modified_time_utc":"2025-04-23T13:28:04Z","containment_time_utc":"2025-04-17T20:36:17Z","control_time_utc":"2025-04-22T12:52:50Z","fire_out_time_utc":"2025-04-23T13:27:50Z","fire_cause":"Human","fire_cause_general":"Debris and open burning","map_method":"Auto-generated for InFORM","source_dataset":"2025 NIFS","unique_fire_identifier":"2025-TNTNS-250706","irwin_id":"{BE923F74-5155-4825-B41E-182BD7D82AA2}","global_id":"3281600b-4fd5-4fdf-91e0-806f1af56ba9"}},{"type":"Feature","geometry":{"type":"Polygon","coordinates":[[[-83.363781,35.776334],[-83.36385,35.77617],[-83.36349,35.77614],[-83.36358,35.7763],[-83.3634,35.77623],[-83.36317,35.77649],[-83.36281,35.77632],[-83.36255,35.77634],[-83.36171,35.7768],[-83.36133,35.7765],[-83.3612,35.77664],[-83.36031,35.77644],[-83.36042,35.77618],[-83.35981,35.77626],[-83.35972,35.77605],[-83.36051,35.77445],[-83.36162,35.77293],[-83.36139,35.7727],[-83.36125,35.77216],[-83.36152,35.7719],[-83.3621,35.77061],[-83.36407,35.7705],[-83.36436,35.77074],[-83.3646,35.77065],[-83.36477,35.77038],[-83.36515,35.77045],[-83.36572,35.77031],[-83.36578,35.77015],[-83.36596,35.77019],[-83.36616,35.77],[-83.36625,35.76972],[-83.36615,35.76964],[-83.36637,35.76953],[-83.36638,35.76916],[-83.36676,35.76899],[-83.3671,35.76917],[-83.36737,35.76884],[-83.36704,35.76869],[-83.36689,35.76838],[-83.367,35.76833],[-83.36681,35.7682],[-83.36682,35.76803],[-83.36672,35.76806],[-83.36662,35.76758],[-83.36641,35.76738],[-83.36614,35.76738],[-83.36581,35.76703],[-83.36564,35.76706],[-83.36574,35.76697],[-83.36549,35.76708],[-83.36519,35.7667],[-83.3652,35.7665],[-83.36493,35.76642],[-83.36486,35.76612],[-83.36495,35.76604],[-83.36479,35.76602],[-83.36475,35.76573],[-83.36462,35.76573],[-83.36434,35.76528],[-83.36446,35.76514],[-83.36435,35.76505],[-83.36448,35.76498],[-83.36432,35.76494],[-83.36436,35.76469],[-83.36426,35.76467],[-83.36439,35.76468],[-83.36438,35.76458],[-83.36407,35.76432],[-83.36426,35.76417],[-83.36408,35.76413],[-83.36419,35.76409],[-83.36407,35.76387],[-83.36395,35.76389],[-83.36379,35.7634],[-83.3637,35.7629],[-83.36394,35.76164],[-83.36418,35.76105],[-83.36527,35.7599],[-83.36628,35.76022],[-83.36911,35.76042],[-83.36937,35.76059],[-83.37033,35.76075],[-83.37222,35.76165],[-83.37313,35.7617],[-83.37376,35.76159],[-83.37398,35.76194],[-83.3739,35.76215],[-83.374,35.76215],[-83.3738,35.76248],[-83.3741,35.76266],[-83.37385,35.76285],[-83.37398,35.76313],[-83.37422,35.76309],[-83.37484,35.7633],[-83.37519,35.76324],[-83.37529,35.76338],[-83.37562,35.76324],[-83.37592,35.76327],[-83.3764,35.76382],[-83.37665,35.76378],[-83.37676,35.76394],[-83.37711,35.76405],[-83.37685,35.76433],[-83.3769,35.76443],[-83.37661,35.76458],[-83.37668,35.76495],[-83.37567,35.76523],[-83.37581,35.76539],[-83.3766,35.76527],[-83.37667,35.76547],[-83.37637,35.76588],[-83.37601,35.76606],[-83.37491,35.7671],[-83.37513,35.76751],[-83.3739,35.76757],[-83.37348,35.76783],[-83.37323,35.76831],[-83.37386,35.76962],[-83.3742,35.76959],[-83.37469,35.76988],[-83.378,35.77052],[-83.37753,35.77113],[-83.37694,35.77138],[-83.37692,35.77209],[-83.37741,35.77232],[-83.37743,35.77248],[-83.37796,35.77295],[-83.378,35.77325],[-83.37786,35.77364],[-83.37807,35.77374],[-83.38002,35.77345],[-83.37993,35.77386],[-83.3793,35.77444],[-83.37929,35.77483],[-83.37952,35.77539],[-83.38007,35.7759],[-83.38012,35.77626],[-83.38063,35.77706],[-83.3808,35.77755],[-83.3807,35.77829],[-83.38079,35.7785],[-83.3815,35.778],[-83.3816,35.77811],[-83.3815,35.77897],[-83.38109,35.78035],[-83.38091,35.7806],[-83.38048,35.78082],[-83.38036,35.78121],[-83.38005,35.78128],[-83.38006,35.78142],[-83.37971,35.78182],[-83.3796,35.78172],[-83.37936,35.78191],[-83.37869,35.78158],[-83.37834,35.78155],[-83.37817,35.78191],[-83.37796,35.78202],[-83.37804,35.78217],[-83.37771,35.78235],[-83.37788,35.78252],[-83.37767,35.78267],[-83.37636,35.78218],[-83.37633,35.78203],[-83.37576,35.7825],[-83.3755,35.78245],[-83.37512,35.78225],[-83.37468,35.78169],[-83.37445,35.78164],[-83.37449,35.78153],[-83.37429,35.78134],[-83.37402,35.78143],[-83.37393,35.78165],[-83.37405,35.7819],[-83.37388,35.78198],[-83.37393,35.78216],[-83.3738,35.78227],[-83.37389,35.78236],[-83.37379,35.78258],[-83.37366,35.78258],[-83.3738,35.78267],[-83.37367,35.78276],[-83.37385,35.78312],[-83.37402,35.78312],[-83.37389,35.78329],[-83.37413,35.78334],[-83.37376,35.78352],[-83.37393,35.78369],[-83.37387,35.78396],[-83.37328,35.78438],[-83.37251,35.78533],[-83.37257,35.78552],[-83.37291,35.78576],[-83.37272,35.78613],[-83.37294,35.78671],[-83.37377,35.78715],[-83.37395,35.7875],[-83.37379,35.78786],[-83.37335,35.7876],[-83.37292,35.78753],[-83.37221,35.78793],[-83.37219,35.78778],[-83.37096,35.78737],[-83.37075,35.78721],[-83.37076,35.78706],[-83.37053,35.78701],[-83.37015,35.78725],[-83.36936,35.78714],[-83.36874,35.78667],[-83.36868,35.78638],[-83.36732,35.78578],[-83.3661,35.78587],[-83.36592,35.78611],[-83.36567,35.786],[-83.36497,35.78608],[-83.3645,35.78583],[-83.36389,35.78591],[-83.36378,35.78575],[-83.36365,35.78582],[-83.36362,35.78567],[-83.36348,35.78574],[-83.36329,35.78559],[-83.36316,35.78568],[-83.36305,35.78553],[-83.36257,35.78573],[-83.36252,35.78556],[-83.36225,35.7856],[-83.36214,35.78535],[-83.36202,35.78543],[-83.36134,35.78513],[-83.36131,35.78499],[-83.36161,35.78481],[-83.36149,35.78477],[-83.36211,35.78457],[-83.36213,35.78435],[-83.36241,35.78431],[-83.36231,35.78431],[-83.36237,35.78419],[-83.36263,35.78409],[-83.36257,35.78397],[-83.36276,35.78379],[-83.36266,35.78354],[-83.36286,35.78359],[-83.36285,35.78349],[-83.36269,35.7835],[-83.36278,35.7834],[-83.36255,35.78325],[-83.36267,35.78287],[-83.36221,35.78218],[-83.36241,35.78213],[-83.36251,35.78181],[-83.36271,35.78165],[-83.36259,35.78145],[-83.36281,35.7813],[-83.3627,35.78115],[-83.36292,35.78098],[-83.36293,35.7807],[-83.36311,35.78067],[-83.36305,35.78035],[-83.36316,35.7803],[-83.36317,35.77997],[-83.36348,35.77987],[-83.36334,35.77977],[-83.36357,35.77983],[-83.36382,35.77944],[-83.3638,35.77907],[-83.3644,35.77873],[-83.36387,35.77845],[-83.36361,35.77854],[-83.36357,35.77843],[-83.36323,35.77839],[-83.36309,35.77821],[-83.3633,35.77768],[-83.36361,35.77764],[-83.36373,35.77743],[-83.36351,35.77726],[-83.36322,35.77734],[-83.36307,35.77665],[-83.363781,35.776334]]]},"properties":{"fire_id":"ufid:2025-TNTNS-250305","source_collection":"history-2025","source_objectid":39803,"incident_name":"Sevier - East Parkway","mapped_acres":864.6903,"mapped_acres_source":"poly_GISAcres","gis_acres":864.6903,"auto_acres":864.6903432800995,"reported_acres":864.7,"percent_contained":null,"state":"TN","state_wfigs":"US-TN","county":"Sevier","discovery_time_utc":"2025-03-05T02:43:35Z","perimeter_time_utc":"2025-05-14T17:08:37Z","perimeter_edit_time_utc":null,"incident_modified_time_utc":"2025-05-14T17:07:33Z","containment_time_utc":"2025-03-14T19:11:48Z","control_time_utc":"2025-03-14T19:11:58Z","fire_out_time_utc":"2025-03-16T12:23:31Z","fire_cause":"Human","fire_cause_general":"Power generation / transmission / distribution","map_method":"Auto-generated for InFORM","source_dataset":"FFP","unique_fire_identifier":"2025-TNTNS-250305","irwin_id":"{2EC0619D-B29F-4BA5-8CC0-7E164FC27870}","global_id":"68d215ae-c042-45a1-ab5e-795f07429c2e"}},{"type":"Feature","geometry":{"type":"Polygon","coordinates":[[[-83.48493,35.68126],[-83.48477,35.68133],[-83.48481,35.68121],[-83.48493,35.68126]]]},"properties":{"fire_id":"ufid:2025-TNGSP-000066","source_collection":"history-2025","source_objectid":46565,"incident_name":"Orchard","mapped_acres":0.25,"mapped_acres_source":"poly_GISAcres","gis_acres":0.25,"auto_acres":0.02752013313132577,"reported_acres":0.25,"percent_contained":null,"state":"TN","state_wfigs":"US-TN","county":"Sevier","discovery_time_utc":"2025-02-15T21:15:00Z","perimeter_time_utc":"2025-09-30T12:35:36Z","perimeter_edit_time_utc":null,"incident_modified_time_utc":"2025-02-20T20:44:22Z","containment_time_utc":"2025-02-16T16:45:00Z","control_time_utc":"2025-02-16T16:45:00Z","fire_out_time_utc":"2025-02-20T20:44:00Z","fire_cause":"Human","fire_cause_general":"Equipment and vehicle use","map_method":"Auto-generated for InFORM","source_dataset":"FFP","unique_fire_identifier":"2025-TNGSP-000066","irwin_id":"{065855E3-82B7-4DCB-B972-4BF77053B370}","global_id":"1b2869d7-e024-4234-93c1-16ecdd75a98b"}},{"type":"Feature","geometry":{"type":"Polygon","coordinates":[[[-83.13926,35.87301],[-83.13567,35.87604],[-83.13553,35.87597],[-83.13427,35.87365],[-83.13304,35.87291],[-83.13184,35.87301],[-83.12992,35.8718],[-83.12768,35.8713],[-83.12384,35.87112],[-83.12362,35.87042],[-83.12398,35.8702],[-83.124,35.87003],[-83.12368,35.86952],[-83.12391,35.8692],[-83.12385,35.8689],[-83.12407,35.86883],[-83.12405,35.86863],[-83.12448,35.8684],[-83.12475,35.8685],[-83.12514,35.86827],[-83.12652,35.86812],[-83.1268,35.86778],[-83.1272,35.86773],[-83.12752,35.86749],[-83.12837,35.86741],[-83.12835,35.86754],[-83.12889,35.86754],[-83.1293,35.86772],[-83.12949,35.86812],[-83.13003,35.8683],[-83.13036,35.86834],[-83.13035,35.8682],[-83.13055,35.8681],[-83.13104,35.86844],[-83.13308,35.86827],[-83.13378,35.86853],[-83.13424,35.86891],[-83.13476,35.86889],[-83.13574,35.86922],[-83.13599,35.86943],[-83.13598,35.86973],[-83.13737,35.87032],[-83.13756,35.87049],[-83.13768,35.87087],[-83.13841,35.87085],[-83.13884,35.87064],[-83.13911,35.87093],[-83.14002,35.87108],[-83.13947,35.87196],[-83.13926,35.87301]]]},"properties":{"fire_id":"ufid:2025-TNCNF-000140","source_collection":"history-2025","source_objectid":48518,"incident_name":"Bear Fire","mapped_acres":157.4412,"mapped_acres_source":"poly_GISAcres","gis_acres":157.4412,"auto_acres":157.44127882913313,"reported_acres":165.0,"percent_contained":null,"state":"TN","state_wfigs":"US-TN","county":"Cocke","discovery_time_utc":"2025-03-15T11:55:00Z","perimeter_time_utc":"2025-11-17T14:03:10Z","perimeter_edit_time_utc":null,"incident_modified_time_utc":"2025-03-24T19:54:37Z","containment_time_utc":"2025-03-22T20:00:00Z","control_time_utc":"2025-03-24T16:00:00Z","fire_out_time_utc":"2025-03-24T16:15:00Z","fire_cause":"Undetermined","fire_cause_general":"Undetermined","map_method":"Auto-generated for InFORM","source_dataset":"FFP","unique_fire_identifier":"2025-TNCNF-000140","irwin_id":"{E90989A2-EFF3-4A2F-AD75-F0F8DE582303}","global_id":"3f5fbe7c-3a8e-4d84-9501-b0971c388156"}},{"type":"Feature","geometry":{"type":"Polygon","coordinates":[[[-84.73231,36.55891],[-84.73221,36.55879],[-84.7324,36.5588],[-84.73231,36.55891]]]},"properties":{"fire_id":"ufid:2025-TNBSP-250265","source_collection":"history-2025","source_objectid":54608,"incident_name":"BSP - Sourwood Fire","mapped_acres":0.1,"mapped_acres_source":"poly_GISAcres","gis_acres":0.1,"auto_acres":0.045474565158322586,"reported_acres":0.05,"percent_contained":null,"state":"TN","state_wfigs":"US-TN","county":"Scott","discovery_time_utc":"2025-10-18T17:50:00Z","perimeter_time_utc":"2026-06-04T21:13:29Z","perimeter_edit_time_utc":null,"incident_modified_time_utc":"2025-12-15T15:12:15Z","containment_time_utc":"2025-10-18T18:00:00Z","control_time_utc":"2025-10-18T18:05:00Z","fire_out_time_utc":"2025-10-18T18:05:00Z","fire_cause":"Human","fire_cause_general":"Recreation and ceremony","map_method":"Auto-generated for InFORM","source_dataset":"FFP","unique_fire_identifier":"2025-TNBSP-250265","irwin_id":"{09F0A7C9-9228-4172-80DF-B229FC8CB894}","global_id":"2bfd015b-63f2-4726-88d4-a8153adf8929"}},{"type":"Feature","geometry":{"type":"Polygon","coordinates":[[[-84.70015,36.49126],[-84.70017,36.49119],[-84.7002,36.49122],[-84.70015,36.49126]]]},"properties":{"fire_id":"ufid:2025-TNBSP-250233","source_collection":"history-2025","source_objectid":54609,"incident_name":"BSP - Ash Fire","mapped_acres":0.1,"mapped_acres_source":"poly_GISAcres","gis_acres":0.1,"auto_acres":0.008400833216497325,"reported_acres":0.1,"percent_contained":null,"state":"TN","state_wfigs":"US-TN","county":"Scott","discovery_time_utc":"2025-10-10T13:15:00Z","perimeter_time_utc":"2026-06-04T21:13:57Z","perimeter_edit_time_utc":null,"incident_modified_time_utc":"2025-12-15T15:14:06Z","containment_time_utc":"2025-10-10T13:30:00Z","control_time_utc":"2025-10-12T14:57:00Z","fire_out_time_utc":"2025-10-12T14:57:00Z","fire_cause":"Human","fire_cause_general":"Recreation and ceremony","map_method":"Auto-generated for InFORM","source_dataset":"FFP","unique_fire_identifier":"2025-TNBSP-250233","irwin_id":"{950D8389-BF7E-45CB-A419-D9E069FCBF9B}","global_id":"e9e06f10-f662-481c-8ee8-77748e4d5fe6"}}]}
