{"type":"FeatureCollection","features":[{"type":"Feature","geometry":{"type":"Polygon","coordinates":[[[-100.12243,33.05106],[-100.12255,33.05089],[-100.12336,33.0507],[-100.1234,33.05096],[-100.12309,33.05119],[-100.12348,33.05167],[-100.1236,33.05159],[-100.1237,33.05107],[-100.12405,33.05135],[-100.12408,33.05198],[-100.12433,33.05212],[-100.12416,33.05241],[-100.12418,33.05263],[-100.12456,33.05267],[-100.12461,33.05281],[-100.12419,33.05413],[-100.12459,33.05463],[-100.12468,33.05519],[-100.12438,33.05587],[-100.12434,33.05631],[-100.1236,33.05746],[-100.12149,33.05748],[-100.12134,33.05738],[-100.12134,33.05429],[-100.12207,33.05381],[-100.12204,33.05336],[-100.12236,33.05298],[-100.12243,33.05106]]]},"properties":{"fire_id":"ufid:2025-TXTXS-250186","source_collection":"history-2025","source_objectid":36881,"incident_name":"Frio","mapped_acres":40.96406642598953,"mapped_acres_source":"poly_GISAcres","gis_acres":40.96406642598953,"auto_acres":40.964082240223135,"reported_acres":41.0,"percent_contained":100.0,"state":"TX","state_wfigs":"US-TX","county":"Stonewall","discovery_time_utc":"2025-01-21T17:01:05Z","perimeter_time_utc":"2025-01-28T23:11:18Z","perimeter_edit_time_utc":"2025-02-07T15:44:07Z","incident_modified_time_utc":"2025-02-11T22:57:45Z","containment_time_utc":"2025-01-21T23:00:16Z","control_time_utc":"2025-01-28T23:10:34Z","fire_out_time_utc":null,"fire_cause":"Human","fire_cause_general":"Power generation/transmission/distribution","map_method":"Mixed Methods","source_dataset":"2025 NIFS","unique_fire_identifier":"2025-TXTXS-250186","irwin_id":"{7752AC76-5FA9-48BC-A742-E8E54104F1E3}","global_id":"0dd84e8b-ca30-4f48-afcc-984c3236e7f2"}},{"type":"Feature","geometry":{"type":"Polygon","coordinates":[[[-101.05983,34.26411],[-101.04975,34.26415],[-101.04906,34.2641],[-101.0482,34.26377],[-101.04801,34.26352],[-101.04789,34.26053],[-101.0461,34.2604],[-101.04716,34.2571],[-101.04728,34.25706],[-101.05061,34.2585],[-101.05263,34.25919],[-101.0573,34.26165],[-101.05963,34.26264],[-101.05986,34.26296],[-101.05983,34.26411]]]},"properties":{"fire_id":"ufid:2025-TXTXS-250365","source_collection":"history-2025","source_objectid":36883,"incident_name":"Patrick Creek","mapped_acres":136.76100454307843,"mapped_acres_source":"poly_GISAcres","gis_acres":136.76100454307843,"auto_acres":136.76105532915543,"reported_acres":150.0,"percent_contained":100.0,"state":"TX","state_wfigs":"US-TX","county":"Floyd","discovery_time_utc":"2025-02-03T17:55:57Z","perimeter_time_utc":"2025-02-06T22:41:19Z","perimeter_edit_time_utc":"2025-02-07T16:59:54Z","incident_modified_time_utc":"2025-02-24T15:14:22Z","containment_time_utc":"2025-02-04T00:00:12Z","control_time_utc":null,"fire_out_time_utc":null,"fire_cause":"Human","fire_cause_general":"Equipment and vehicle use","map_method":"Mixed Methods","source_dataset":"2025 NIFS","unique_fire_identifier":"2025-TXTXS-250365","irwin_id":"{A2127795-B9F4-4F6E-AC25-DD6D81A20668}","global_id":"3948d3dc-49be-45d6-93b7-d05df1f7fbd2"}},{"type":"Feature","geometry":{"type":"Polygon","coordinates":[[[-101.71249,33.61789],[-101.711,33.61917],[-101.71059,33.61912],[-101.71013,33.61926],[-101.70988,33.61915],[-101.70954,33.61934],[-101.70872,33.61925],[-101.70867,33.61911],[-101.70884,33.61888],[-101.70919,33.61882],[-101.70918,33.61866],[-101.70954,33.61825],[-101.70953,33.61805],[-101.70886,33.61833],[-101.70857,33.61827],[-101.70827,33.61838],[-101.70811,33.6186],[-101.70758,33.61843],[-101.708,33.61823],[-101.70883,33.61815],[-101.70895,33.61796],[-101.70931,33.61785],[-101.70932,33.61773],[-101.70908,33.61763],[-101.70873,33.61766],[-101.70913,33.61743],[-101.70954,33.61744],[-101.70955,33.61774],[-101.70967,33.61783],[-101.71044,33.61762],[-101.71057,33.61738],[-101.71197,33.61726],[-101.71223,33.61736],[-101.71229,33.61751],[-101.71219,33.61762],[-101.71249,33.61789]]]},"properties":{"fire_id":"ufid:2025-TXTXS-250445","source_collection":"history-2025","source_objectid":36963,"incident_name":"64 Tumbleweed","mapped_acres":13.063539433814071,"mapped_acres_source":"poly_GISAcres","gis_acres":13.063539433814071,"auto_acres":13.063544333968034,"reported_acres":13.0,"percent_contained":100.0,"state":"TX","state_wfigs":"US-TX","county":"Lubbock","discovery_time_utc":"2025-02-08T22:45:14Z","perimeter_time_utc":"2025-02-09T02:50:27Z","perimeter_edit_time_utc":"2025-02-10T21:31:17Z","incident_modified_time_utc":"2025-02-24T15:14:21Z","containment_time_utc":"2025-02-09T00:34:49Z","control_time_utc":"2025-02-11T22:28:50Z","fire_out_time_utc":null,"fire_cause":"Human","fire_cause_general":"Debris and open burning","map_method":"Mixed Methods","source_dataset":"2025 NIFS","unique_fire_identifier":"2025-TXTXS-250445","irwin_id":"{7B90EE52-FFC6-49A9-8889-65473ECE1AAB}","global_id":"8ddc3a42-649c-44e1-a14e-4a4e8190f347"}},{"type":"Feature","geometry":{"type":"Polygon","coordinates":[[[-102.43999,33.59428],[-102.43965,33.59395],[-102.43971,33.59295],[-102.43989,33.59272],[-102.44138,33.5928],[-102.44045,33.59217],[-102.43967,33.59188],[-102.44169,33.59195],[-102.44213,33.59161],[-102.44268,33.59144],[-102.44427,33.59162],[-102.44405,33.59044],[-102.44417,33.58993],[-102.44486,33.58959],[-102.44492,33.58934],[-102.44569,33.5895],[-102.44593,33.58934],[-102.44582,33.58919],[-102.44545,33.58918],[-102.44542,33.58894],[-102.4457,33.58872],[-102.44794,33.58891],[-102.44927,33.58922],[-102.44957,33.58944],[-102.44996,33.58935],[-102.45032,33.58952],[-102.45146,33.5897],[-102.4527,33.58949],[-102.45396,33.58964],[-102.45405,33.58839],[-102.45507,33.58867],[-102.45717,33.58882],[-102.45963,33.58922],[-102.46299,33.59016],[-102.46353,33.59002],[-102.46372,33.58973],[-102.46411,33.58966],[-102.46675,33.58998],[-102.46733,33.59033],[-102.46778,33.58992],[-102.47107,33.59054],[-102.4709,33.59074],[-102.47176,33.59036],[-102.47208,33.59041],[-102.47365,33.59099],[-102.47468,33.5918],[-102.47471,33.59211],[-102.4775,33.59206],[-102.47804,33.59221],[-102.48076,33.59237],[-102.48085,33.59226],[-102.48348,33.59227],[-102.4838,33.59241],[-102.48408,33.59229],[-102.48893,33.59231],[-102.48938,33.59243],[-102.48976,33.59232],[-102.49233,33.59226],[-102.49245,33.59249],[-102.49277,33.59233],[-102.49505,33.59244],[-102.49547,33.59261],[-102.49612,33.59235],[-102.49923,33.59243],[-102.49954,33.59277],[-102.49947,33.59324],[-102.49843,33.59401],[-102.49706,33.59432],[-102.49663,33.59466],[-102.49544,33.59469],[-102.49503,33.59493],[-102.48955,33.59471],[-102.48281,33.59483],[-102.4805,33.59464],[-102.46753,33.59467],[-102.46737,33.59425],[-102.45364,33.59463],[-102.4448,33.59457],[-102.44472,33.59439],[-102.44359,33.59422],[-102.43999,33.59428]]]},"properties":{"fire_id":"ufid:2025-TXTXS-250169","source_collection":"history-2025","source_objectid":36964,"incident_name":"Coyote Run","mapped_acres":555.4136775040928,"mapped_acres_source":"poly_GISAcres","gis_acres":555.4136775040928,"auto_acres":555.413876971144,"reported_acres":555.0,"percent_contained":100.0,"state":"TX","state_wfigs":"US-TX","county":"Hockley","discovery_time_utc":"2025-01-17T20:02:48Z","perimeter_time_utc":"2025-02-07T16:48:50Z","perimeter_edit_time_utc":"2025-02-10T21:31:17Z","incident_modified_time_utc":"2025-02-07T16:48:41Z","containment_time_utc":"2025-01-18T19:03:19Z","control_time_utc":"2025-01-23T20:38:52Z","fire_out_time_utc":null,"fire_cause":"Human","fire_cause_general":"Power generation/transmission/distribution","map_method":"Mixed Methods","source_dataset":"2025 NIFS","unique_fire_identifier":"2025-TXTXS-250169","irwin_id":"{A92916E4-5811-4D44-BB37-A1086AB9C1C2}","global_id":"1705cdee-9c1a-4582-9ddb-c6938b03334d"}},{"type":"Feature","geometry":{"type":"Polygon","coordinates":[[[-102.11075,33.56405],[-102.11092,33.56355],[-102.11154,33.56254],[-102.11332,33.56096],[-102.11337,33.56071],[-102.1138,33.56023],[-102.1149,33.55981],[-102.11575,33.55894],[-102.11679,33.55825],[-102.11712,33.55821],[-102.11748,33.55849],[-102.11803,33.55864],[-102.11793,33.55986],[-102.117,33.56045],[-102.11596,33.56075],[-102.11408,33.56198],[-102.11307,33.56288],[-102.11104,33.56416],[-102.11161,33.56429],[-102.11148,33.56444],[-102.11125,33.56445],[-102.11056,33.56484],[-102.11058,33.56469],[-102.11033,33.56474],[-102.11034,33.56455],[-102.11075,33.56405]]]},"properties":{"fire_id":"ufid:2025-TXTXS-250610","source_collection":"history-2025","source_objectid":37201,"incident_name":"West Owl","mapped_acres":32.221604648677676,"mapped_acres_source":"poly_GISAcres","gis_acres":32.221604648677676,"auto_acres":32.221616564186924,"reported_acres":32.0,"percent_contained":100.0,"state":"TX","state_wfigs":"US-TX","county":"Hockley","discovery_time_utc":"2025-02-26T21:31:13Z","perimeter_time_utc":"2025-02-26T22:18:08Z","perimeter_edit_time_utc":"2025-02-28T20:44:31Z","incident_modified_time_utc":"2025-03-18T21:10:23Z","containment_time_utc":"2025-02-27T02:36:44Z","control_time_utc":"2025-03-01T22:29:30Z","fire_out_time_utc":null,"fire_cause":"Human","fire_cause_general":"Equipment and vehicle use","map_method":"Mixed Methods","source_dataset":"2025 NIFS","unique_fire_identifier":"2025-TXTXS-250610","irwin_id":"{55CC9930-9CCE-41A5-B376-40202A729E52}","global_id":"63f3a7ed-3e71-43c4-aed9-0f88a3cdceaf"}},{"type":"Feature","geometry":{"type":"Polygon","coordinates":[[[-100.82438,33.68119],[-100.8249,33.68117],[-100.82504,33.68089],[-100.82624,33.6805],[-100.8261,33.68039],[-100.82615,33.68024],[-100.82636,33.68029],[-100.82652,33.67992],[-100.82765,33.68023],[-100.82786,33.6804],[-100.82778,33.68161],[-100.82738,33.68219],[-100.82672,33.68251],[-100.82643,33.68252],[-100.82672,33.68212],[-100.82626,33.68177],[-100.82466,33.68179],[-100.82402,33.68144],[-100.82438,33.68119]]]},"properties":{"fire_id":"ufid:2025-TXTXS-250691","source_collection":"history-2025","source_objectid":37233,"incident_name":"Bell 28","mapped_acres":12.594686746902783,"mapped_acres_source":"poly_GISAcres","gis_acres":12.594686746902783,"auto_acres":12.594641147222518,"reported_acres":13.0,"percent_contained":100.0,"state":"TX","state_wfigs":"US-TX","county":"Dickens","discovery_time_utc":"2025-02-28T20:03:49Z","perimeter_time_utc":"2025-03-01T22:25:44Z","perimeter_edit_time_utc":"2025-03-02T21:19:37Z","incident_modified_time_utc":"2025-03-21T07:03:27Z","containment_time_utc":"2025-03-01T22:24:05Z","control_time_utc":"2025-03-07T22:35:52Z","fire_out_time_utc":null,"fire_cause":"Human","fire_cause_general":"Firearms and explosives use","map_method":"Mixed Methods","source_dataset":"2025 NIFS","unique_fire_identifier":"2025-TXTXS-250691","irwin_id":"{E04D3154-D85F-44D6-8701-E9D81EA128C0}","global_id":"211cb857-d30c-4167-b13b-9d13f828a69e"}},{"type":"Feature","geometry":{"type":"Polygon","coordinates":[[[-100.10329,33.10479],[-100.10321,33.10278],[-100.10352,33.10292],[-100.1038,33.10271],[-100.10477,33.10289],[-100.10522,33.10285],[-100.10522,33.10372],[-100.1056,33.10381],[-100.10563,33.10393],[-100.10512,33.10455],[-100.10471,33.10473],[-100.10393,33.10468],[-100.10329,33.10479]]]},"properties":{"fire_id":"ufid:2025-TXTXS-250849","source_collection":"history-2025","source_objectid":37299,"incident_name":"Riddle","mapped_acres":10.362299815588061,"mapped_acres_source":"poly_GISAcres","gis_acres":10.362299815588061,"auto_acres":10.362262322497875,"reported_acres":10.0,"percent_contained":100.0,"state":"TX","state_wfigs":"US-TX","county":"Stonewall","discovery_time_utc":"2025-03-04T18:34:50Z","perimeter_time_utc":"2025-03-04T20:32:13Z","perimeter_edit_time_utc":"2025-03-04T21:15:46Z","incident_modified_time_utc":"2025-03-18T14:51:22Z","containment_time_utc":"2025-03-04T23:35:12Z","control_time_utc":"2025-03-11T18:37:03Z","fire_out_time_utc":"2025-03-09T01:51:45Z","fire_cause":"Undetermined","fire_cause_general":"Undetermined (remarks required)","map_method":"Mixed Methods","source_dataset":"2025 NIFS","unique_fire_identifier":"2025-TXTXS-250849","irwin_id":"{A774CAA3-5BE9-4FF7-85B7-FA2C2F707332}","global_id":"f9a3ba13-8882-467c-9e55-a0a8ecb7eeed"}},{"type":"Feature","geometry":{"type":"Polygon","coordinates":[[[-100.10519,33.0598],[-100.1051,33.05662],[-100.10422,33.0565],[-100.10345,33.05613],[-100.10233,33.05505],[-100.10174,33.05476],[-100.10151,33.05394],[-100.10172,33.05369],[-100.10148,33.05327],[-100.1015,33.05301],[-100.10167,33.05288],[-100.10221,33.05284],[-100.10257,33.05353],[-100.10274,33.05351],[-100.10314,33.05378],[-100.1033,33.0537],[-100.10422,33.05432],[-100.10515,33.05579],[-100.10528,33.05304],[-100.10544,33.05309],[-100.10538,33.05318],[-100.1058,33.05313],[-100.10639,33.05375],[-100.10809,33.05395],[-100.1081,33.0545],[-100.10856,33.05493],[-100.10892,33.05494],[-100.10943,33.05566],[-100.10976,33.05581],[-100.11089,33.05773],[-100.11121,33.05783],[-100.11209,33.05903],[-100.11231,33.05913],[-100.11245,33.05972],[-100.11269,33.06],[-100.11375,33.06005],[-100.11409,33.06029],[-100.11401,33.0618],[-100.11438,33.06216],[-100.11443,33.06238],[-100.11489,33.06261],[-100.1154,33.06319],[-100.11543,33.06358],[-100.11577,33.06385],[-100.11611,33.06468],[-100.11604,33.06492],[-100.11659,33.06545],[-100.11652,33.06579],[-100.11678,33.06608],[-100.11699,33.06674],[-100.11701,33.06769],[-100.11735,33.06791],[-100.11734,33.06816],[-100.11776,33.06823],[-100.11777,33.06839],[-100.1171,33.06847],[-100.11689,33.06879],[-100.11668,33.06875],[-100.11652,33.06853],[-100.11605,33.06848],[-100.11567,33.06811],[-100.11548,33.06832],[-100.11489,33.06842],[-100.11432,33.06823],[-100.11415,33.06833],[-100.11398,33.06774],[-100.11363,33.06753],[-100.11411,33.06703],[-100.11388,33.06655],[-100.11387,33.06616],[-100.1136,33.06621],[-100.1133,33.06606],[-100.11322,33.06579],[-100.11255,33.06585],[-100.1124,33.0657],[-100.11195,33.06565],[-100.11207,33.06587],[-100.11184,33.06587],[-100.11174,33.06573],[-100.11134,33.06563],[-100.1113,33.06549],[-100.11011,33.06468],[-100.10969,33.06466],[-100.10916,33.06425],[-100.1086,33.06348],[-100.10914,33.06355],[-100.10907,33.06333],[-100.10874,33.06322],[-100.10852,33.06339],[-100.10879,33.06311],[-100.10904,33.06171],[-100.10842,33.06156],[-100.10798,33.06165],[-100.10734,33.06152],[-100.1072,33.06123],[-100.10701,33.06119],[-100.10678,33.06083],[-100.10649,33.0607],[-100.10595,33.05987],[-100.10519,33.0598]]]},"properties":{"fire_id":"ufid:2025-TXTXS-250861","source_collection":"history-2025","source_objectid":37329,"incident_name":"Double Fork","mapped_acres":216.38295972080272,"mapped_acres_source":"poly_GISAcres","gis_acres":216.38295972080272,"auto_acres":216.38304301474133,"reported_acres":216.0,"percent_contained":100.0,"state":"TX","state_wfigs":"US-TX","county":"Stonewall","discovery_time_utc":"2025-03-04T21:48:10Z","perimeter_time_utc":"2025-03-05T20:34:37Z","perimeter_edit_time_utc":"2025-03-05T23:55:55Z","incident_modified_time_utc":"2025-03-18T14:52:27Z","containment_time_utc":"2025-03-05T20:33:51Z","control_time_utc":"2025-03-11T18:36:23Z","fire_out_time_utc":null,"fire_cause":"Undetermined","fire_cause_general":"Undetermined (remarks required)","map_method":"Mixed Methods","source_dataset":"2025 NIFS","unique_fire_identifier":"2025-TXTXS-250861","irwin_id":"{E5740342-0A4F-43F6-9E71-29932445C0A1}","global_id":"93f5ee9f-3871-4c38-9ce5-4721f9629c43"}},{"type":"Feature","geometry":{"type":"Polygon","coordinates":[[[-101.72445,34.18254],[-101.72443,34.18063],[-101.72714,34.18055],[-101.72768,34.18085],[-101.72878,34.1811],[-101.72982,34.18096],[-101.72963,34.1813],[-101.72928,34.18151],[-101.72988,34.18172],[-101.72982,34.18212],[-101.72959,34.18204],[-101.72873,34.18224],[-101.72814,34.18216],[-101.72793,34.18197],[-101.7252,34.18257],[-101.72445,34.18254]]]},"properties":{"fire_id":"ufid:2025-TXTXS-251491","source_collection":"history-2025","source_objectid":37684,"incident_name":"Quincy","mapped_acres":20.296236681615355,"mapped_acres_source":"poly_GISAcres","gis_acres":20.296236681615355,"auto_acres":20.296162006916877,"reported_acres":20.0,"percent_contained":100.0,"state":"TX","state_wfigs":"US-TX","county":"Hale","discovery_time_utc":"2025-03-19T02:08:49Z","perimeter_time_utc":"2025-03-19T06:08:18Z","perimeter_edit_time_utc":"2025-03-19T12:30:39Z","incident_modified_time_utc":"2025-04-29T14:29:44Z","containment_time_utc":"2025-03-19T13:57:44Z","control_time_utc":"2025-03-20T23:45:05Z","fire_out_time_utc":null,"fire_cause":"Human","fire_cause_general":"Power generation/transmission/distribution","map_method":"Mixed Methods","source_dataset":"2025 NIFS","unique_fire_identifier":"2025-TXTXS-251491","irwin_id":"{C7D893BB-29FB-4976-924A-620B1B3C2AAB}","global_id":"c422ff5e-f3fc-4f7f-9d6f-3bcb32d7d96b"}},{"type":"Feature","geometry":{"type":"Polygon","coordinates":[[[-100.09268,33.10443],[-100.09527,33.10445],[-100.09625,33.10455],[-100.09735,33.10486],[-100.09818,33.10445],[-100.10056,33.10457],[-100.10174,33.10437],[-100.10236,33.10452],[-100.10313,33.10447],[-100.10307,33.11202],[-100.10293,33.11214],[-100.10192,33.11208],[-100.10165,33.11219],[-100.10083,33.11376],[-100.10037,33.11409],[-100.10038,33.11483],[-100.10022,33.11527],[-100.09975,33.11532],[-100.09924,33.11503],[-100.0922,33.10823],[-100.09189,33.10801],[-100.09087,33.10817],[-100.09179,33.10651],[-100.09268,33.10443]]]},"properties":{"fire_id":"ufid:2025-TXTXS-251495","source_collection":"history-2025","source_objectid":37689,"incident_name":"Devils Canyon","mapped_acres":219.11350621200762,"mapped_acres_source":"poly_GISAcres","gis_acres":219.11350621200762,"auto_acres":219.1127141192375,"reported_acres":219.0,"percent_contained":100.0,"state":"TX","state_wfigs":"US-TX","county":"Stonewall","discovery_time_utc":"2025-03-19T11:55:59Z","perimeter_time_utc":"2025-03-19T13:19:23Z","perimeter_edit_time_utc":"2025-03-19T14:41:07Z","incident_modified_time_utc":"2025-04-29T14:26:27Z","containment_time_utc":"2025-03-20T17:22:13Z","control_time_utc":"2025-03-25T17:00:00Z","fire_out_time_utc":null,"fire_cause":"Human","fire_cause_general":"Power generation/transmission/distribution","map_method":"Mixed Methods","source_dataset":"2025 NIFS","unique_fire_identifier":"2025-TXTXS-251495","irwin_id":"{636E1589-EBD0-4C64-841C-2E89FE61F859}","global_id":"38f3fd1f-0746-4518-96c4-7fbdea4fe86e"}},{"type":"Feature","geometry":{"type":"Polygon","coordinates":[[[-101.76022,34.22866],[-101.76026,34.23],[-101.75995,34.23077],[-101.75974,34.23243],[-101.75929,34.23301],[-101.75865,34.2333],[-101.75837,34.23328],[-101.75735,34.2328],[-101.75656,34.2321],[-101.7564,34.23116],[-101.75522,34.22865],[-101.7543,34.22621],[-101.75493,34.22621],[-101.75529,34.22579],[-101.75589,34.22618],[-101.7603,34.22613],[-101.76037,34.22842],[-101.76022,34.22866]]]},"properties":{"fire_id":"ufid:2025-TXTXS-251527","source_collection":"history-2025","source_objectid":37700,"incident_name":"194","mapped_acres":77.81555676835107,"mapped_acres_source":"poly_GISAcres","gis_acres":77.81555676835107,"auto_acres":77.81527406684218,"reported_acres":77.8,"percent_contained":100.0,"state":"TX","state_wfigs":"US-TX","county":"Hale","discovery_time_utc":"2025-03-19T18:19:14Z","perimeter_time_utc":"2025-03-19T19:06:03Z","perimeter_edit_time_utc":"2025-03-19T19:23:41Z","incident_modified_time_utc":"2025-04-29T14:29:42Z","containment_time_utc":"2025-03-19T19:29:45Z","control_time_utc":"2025-03-22T21:52:11Z","fire_out_time_utc":null,"fire_cause":"Undetermined","fire_cause_general":"Undetermined (remarks required)","map_method":"Mixed Methods","source_dataset":"2025 NIFS","unique_fire_identifier":"2025-TXTXS-251527","irwin_id":"{E184E952-C8D3-46B0-8980-B81FBC116479}","global_id":"afa0390f-30ad-46fb-9d38-2c043d6aedbd"}},{"type":"Feature","geometry":{"type":"Polygon","coordinates":[[[-102.49206,30.46311],[-102.49436,30.46419],[-102.49456,30.46407],[-102.4955,30.46455],[-102.49551,30.46478],[-102.49623,30.46513],[-102.49616,30.46526],[-102.49515,30.46482],[-102.49496,30.46514],[-102.49252,30.46399],[-102.49264,30.46384],[-102.49211,30.46344],[-102.49191,30.46318],[-102.49206,30.46311]]]},"properties":{"fire_id":"ufid:2025-TXTXS-251912","source_collection":"history-2025","source_objectid":40774,"incident_name":"Battery","mapped_acres":6.001811124183561,"mapped_acres_source":"poly_GISAcres","gis_acres":6.001811124183561,"auto_acres":6.001788964394949,"reported_acres":8.0,"percent_contained":100.0,"state":"TX","state_wfigs":"US-TX","county":"Pecos","discovery_time_utc":"2025-03-29T17:16:14Z","perimeter_time_utc":"2025-04-02T13:35:42Z","perimeter_edit_time_utc":"2025-06-17T15:48:55Z","incident_modified_time_utc":"2025-08-08T20:20:00Z","containment_time_utc":"2025-03-29T20:54:28Z","control_time_utc":"2025-03-31T01:13:38Z","fire_out_time_utc":null,"fire_cause":"Human","fire_cause_general":"Equipment and vehicle use","map_method":"Mixed Methods","source_dataset":"2025 NIFS","unique_fire_identifier":"2025-TXTXS-251912","irwin_id":"{613A9151-61BF-46CA-B15E-E674E723341D}","global_id":"dc8c77eb-a358-4598-9748-e6f2f3035987"}},{"type":"Feature","geometry":{"type":"Polygon","coordinates":[[[-104.13626,30.61103],[-104.13636,30.61073],[-104.13651,30.61077],[-104.13691,30.61055],[-104.13722,30.60995],[-104.13738,30.6099],[-104.13741,30.61005],[-104.13758,30.60998],[-104.13778,30.60962],[-104.13804,30.60954],[-104.13778,30.61014],[-104.13752,30.61019],[-104.13756,30.61042],[-104.13723,30.61074],[-104.13696,30.61076],[-104.13688,30.61099],[-104.13699,30.61112],[-104.13688,30.61124],[-104.13662,30.61131],[-104.13642,30.6112],[-104.13626,30.61103]]]},"properties":{"fire_id":"ufid:2025-TXTXS-252614","source_collection":"history-2025","source_objectid":40775,"incident_name":"Blue","mapped_acres":2.1751277146816954,"mapped_acres_source":"poly_GISAcres","gis_acres":2.1751277146816954,"auto_acres":2.1751198453269733,"reported_acres":3.0,"percent_contained":100.0,"state":"TX","state_wfigs":"US-TX","county":"Jeff Davis","discovery_time_utc":"2025-05-10T22:35:10Z","perimeter_time_utc":"2025-05-12T19:01:35Z","perimeter_edit_time_utc":"2025-06-17T15:46:05Z","incident_modified_time_utc":"2025-12-11T17:54:40Z","containment_time_utc":"2025-05-20T00:40:51Z","control_time_utc":"2025-05-20T00:41:03Z","fire_out_time_utc":null,"fire_cause":"Natural","fire_cause_general":"Natural","map_method":"Mixed Methods","source_dataset":"2025 NIFS","unique_fire_identifier":"2025-TXTXS-252614","irwin_id":"{74FE8E5E-63D2-4870-BE49-820E027860E3}","global_id":"c5978b0f-68ab-4fff-8817-6bd1cca6cd45"}},{"type":"Feature","geometry":{"type":"Polygon","coordinates":[[[-104.07332,30.65467],[-104.07343,30.65456],[-104.07335,30.65436],[-104.07367,30.65431],[-104.07377,30.65416],[-104.07347,30.65392],[-104.07355,30.65381],[-104.07394,30.65356],[-104.07419,30.65363],[-104.07446,30.65348],[-104.07477,30.6539],[-104.07514,30.65394],[-104.07523,30.65417],[-104.07585,30.65414],[-104.07613,30.65435],[-104.07658,30.65445],[-104.07691,30.65475],[-104.07683,30.655],[-104.07699,30.65511],[-104.07701,30.65534],[-104.07653,30.65577],[-104.07612,30.65565],[-104.07585,30.65596],[-104.07552,30.65586],[-104.07461,30.65594],[-104.07448,30.65571],[-104.0746,30.65557],[-104.07424,30.6554],[-104.07387,30.65546],[-104.0737,30.6553],[-104.07409,30.65523],[-104.07415,30.655],[-104.07384,30.65509],[-104.07385,30.65523],[-104.07353,30.65516],[-104.07377,30.65507],[-104.07378,30.65478],[-104.07363,30.6547],[-104.07366,30.65487],[-104.07345,30.65495],[-104.07349,30.65468],[-104.07332,30.65467]]]},"properties":{"fire_id":"ufid:2025-TXTXS-253075","source_collection":"history-2025","source_objectid":40776,"incident_name":"Tully Canyon","mapped_acres":14.56088554612459,"mapped_acres_source":"poly_GISAcres","gis_acres":14.56088554612459,"auto_acres":14.560832806303486,"reported_acres":15.0,"percent_contained":100.0,"state":"TX","state_wfigs":"US-TX","county":"Jeff Davis","discovery_time_utc":"2025-06-13T19:29:50Z","perimeter_time_utc":"2025-06-14T15:48:35Z","perimeter_edit_time_utc":"2025-06-17T15:43:02Z","incident_modified_time_utc":"2025-06-16T16:09:42Z","containment_time_utc":"2025-06-14T21:08:28Z","control_time_utc":null,"fire_out_time_utc":null,"fire_cause":"Natural","fire_cause_general":"Natural","map_method":"Mixed Methods","source_dataset":"2025 NIFS","unique_fire_identifier":"2025-TXTXS-253075","irwin_id":"{B9DC6131-BE53-4FE7-942D-225C921ECEF0}","global_id":"16b69f4d-04f2-4630-9de4-f7e50d9a9842"}},{"type":"Feature","geometry":{"type":"Polygon","coordinates":[[[-100.09682,34.46411],[-100.0956,34.46134],[-100.09563,34.46064],[-100.09604,34.46036],[-100.0962,34.4603],[-100.09648,34.46044],[-100.09658,34.46077],[-100.09705,34.46116],[-100.09723,34.46108],[-100.09726,34.46087],[-100.0977,34.46052],[-100.0977,34.4604],[-100.0983,34.46009],[-100.09884,34.46011],[-100.09943,34.46055],[-100.09952,34.46086],[-100.09934,34.46119],[-100.09938,34.46146],[-100.10039,34.46169],[-100.10053,34.46193],[-100.10097,34.46218],[-100.10185,34.46212],[-100.10219,34.46252],[-100.1022,34.4628],[-100.10132,34.46316],[-100.10123,34.46584],[-100.10181,34.46592],[-100.10205,34.46634],[-100.10243,34.46797],[-100.10236,34.46827],[-100.10197,34.46813],[-100.10194,34.46773],[-100.10004,34.46609],[-100.09978,34.46616],[-100.09945,34.46591],[-100.0992,34.46592],[-100.09832,34.46624],[-100.09801,34.46665],[-100.09768,34.46665],[-100.09741,34.46585],[-100.097,34.46566],[-100.09682,34.46411]]]},"properties":{"fire_id":"ufid:2025-TXTXS-253236","source_collection":"history-2025","source_objectid":42513,"incident_name":"Weekend","mapped_acres":71.57459156301468,"mapped_acres_source":"poly_GISAcres","gis_acres":71.57459156301468,"auto_acres":71.57433188678031,"reported_acres":72.0,"percent_contained":100.0,"state":"TX","state_wfigs":"US-TX","county":"Childress","discovery_time_utc":"2025-06-29T21:54:16Z","perimeter_time_utc":"2025-06-30T01:28:36Z","perimeter_edit_time_utc":"2025-07-25T15:28:50Z","incident_modified_time_utc":"2025-07-14T13:40:45Z","containment_time_utc":"2025-06-30T21:07:49Z","control_time_utc":"2025-07-03T13:27:51Z","fire_out_time_utc":null,"fire_cause":"Natural","fire_cause_general":"Natural","map_method":"Mixed Methods","source_dataset":"2025 NIFS","unique_fire_identifier":"2025-TXTXS-253236","irwin_id":"{A13B2850-1BFB-467D-98C6-6AB3432ECCFC}","global_id":"25700536-a454-4aa5-b2a1-ed9b56bdec64"}},{"type":"Feature","geometry":{"type":"Polygon","coordinates":[[[-100.63572,34.24578],[-100.63637,34.24619],[-100.63615,34.24686],[-100.63617,34.24742],[-100.63502,34.24761],[-100.63463,34.24687],[-100.63529,34.24584],[-100.63572,34.24578]]]},"properties":{"fire_id":"ufid:2025-TXTXS-253531","source_collection":"history-2025","source_objectid":42654,"incident_name":"Pitt","mapped_acres":5.535106945752664,"mapped_acres_source":"poly_GISAcres","gis_acres":5.535106945752664,"auto_acres":5.535086242441477,"reported_acres":5.5,"percent_contained":100.0,"state":"TX","state_wfigs":"US-TX","county":"Motley","discovery_time_utc":"2025-07-25T00:31:31Z","perimeter_time_utc":"2025-07-25T13:26:17Z","perimeter_edit_time_utc":"2025-07-28T15:45:31Z","incident_modified_time_utc":"2025-08-06T16:35:44Z","containment_time_utc":"2025-07-25T15:21:44Z","control_time_utc":"2025-07-28T21:48:10Z","fire_out_time_utc":null,"fire_cause":"Natural","fire_cause_general":"Natural","map_method":"Mixed Methods","source_dataset":"2025 NIFS","unique_fire_identifier":"2025-TXTXS-253531","irwin_id":"{633DC7E9-6C07-45A1-A7BD-7CD7331560E4}","global_id":"61e7df0e-7c06-4db8-b7e5-cda42da07bab"}},{"type":"Feature","geometry":{"type":"MultiPolygon","coordinates":[[[[-100.15886,32.35718],[-100.15854,32.35706],[-100.15838,32.35581],[-100.15794,32.35497],[-100.15794,32.35317],[-100.1581,32.35307],[-100.15889,32.35331],[-100.15972,32.35453],[-100.15952,32.35488],[-100.15935,32.35485],[-100.15953,32.35515],[-100.15947,32.35532],[-100.15911,32.35557],[-100.15943,32.35601],[-100.1597,32.35611],[-100.15995,32.35695],[-100.15886,32.35718]]],[[[-100.16042,32.35643],[-100.16048,32.35666],[-100.1603,32.3566],[-100.16042,32.35643]]],[[[-100.16043,32.35643],[-100.16042,32.35643],[-100.16042,32.35642],[-100.16043,32.35643]]]]},"properties":{"fire_id":"ufid:2025-TXTXS-253853","source_collection":"history-2025","source_objectid":43504,"incident_name":"Lister","mapped_acres":13.377690770297193,"mapped_acres_source":"poly_GISAcres","gis_acres":13.377690770297193,"auto_acres":13.377642498979585,"reported_acres":14.0,"percent_contained":100.0,"state":"TX","state_wfigs":"US-TX","county":"Nolan","discovery_time_utc":"2025-08-15T19:33:34Z","perimeter_time_utc":"2025-08-15T22:11:19Z","perimeter_edit_time_utc":"2025-08-18T14:14:23Z","incident_modified_time_utc":"2025-09-17T20:07:29Z","containment_time_utc":"2025-08-15T22:35:18Z","control_time_utc":"2025-08-21T01:05:00Z","fire_out_time_utc":null,"fire_cause":"Human","fire_cause_general":"Equipment and vehicle use","map_method":"Mixed Methods","source_dataset":"2025 NIFS","unique_fire_identifier":"2025-TXTXS-253853","irwin_id":"{4D8306D0-850F-4B4E-8769-80F05FF6EF1A}","global_id":"ff21a8ec-77a4-4a82-8553-89a0741313b2"}},{"type":"Feature","geometry":{"type":"Polygon","coordinates":[[[-101.5248,30.36973],[-101.5238,30.36955],[-101.52364,30.36934],[-101.52373,30.36916],[-101.52363,30.36899],[-101.52373,30.36889],[-101.52393,30.36897],[-101.52423,30.36872],[-101.52407,30.36862],[-101.52418,30.36838],[-101.52346,30.36806],[-101.52363,30.3678],[-101.52405,30.36785],[-101.52499,30.36829],[-101.52521,30.36825],[-101.52514,30.36842],[-101.52541,30.36864],[-101.52435,30.36854],[-101.52503,30.36916],[-101.52571,30.36892],[-101.52651,30.36903],[-101.52657,30.36917],[-101.52637,30.36965],[-101.52611,30.36954],[-101.52618,30.36934],[-101.52605,30.36925],[-101.52582,30.36944],[-101.52557,30.36943],[-101.52553,30.36967],[-101.52522,30.36991],[-101.52535,30.36964],[-101.52513,30.36952],[-101.52515,30.3694],[-101.5248,30.36973]]]},"properties":{"fire_id":"ufid:2025-TXTXS-253841","source_collection":"history-2025","source_objectid":43505,"incident_name":"Black Top","mapped_acres":6.807221660244087,"mapped_acres_source":"poly_GISAcres","gis_acres":6.807221660244087,"auto_acres":6.807197125219776,"reported_acres":7.0,"percent_contained":100.0,"state":"TX","state_wfigs":"US-TX","county":"Crockett","discovery_time_utc":"2025-08-15T11:20:39Z","perimeter_time_utc":"2025-08-15T17:05:05Z","perimeter_edit_time_utc":"2025-08-18T14:17:18Z","incident_modified_time_utc":"2025-08-26T18:22:35Z","containment_time_utc":"2025-08-16T19:33:07Z","control_time_utc":"2025-08-18T01:00:09Z","fire_out_time_utc":null,"fire_cause":"Natural","fire_cause_general":"Natural","map_method":"Mixed Methods","source_dataset":"2025 NIFS","unique_fire_identifier":"2025-TXTXS-253841","irwin_id":"{1B243E08-AB66-4296-A086-6C0F9447EA87}","global_id":"4859e156-401b-4420-a5fc-e039533727f4"}},{"type":"Feature","geometry":{"type":"Polygon","coordinates":[[[-100.16155,34.48391],[-100.16224,34.48341],[-100.1627,34.48335],[-100.16343,34.48366],[-100.16432,34.48327],[-100.16504,34.48339],[-100.16541,34.48331],[-100.1658,34.48381],[-100.16558,34.48433],[-100.16512,34.48456],[-100.16471,34.48452],[-100.16443,34.48422],[-100.16326,34.48444],[-100.1634,34.48516],[-100.16319,34.48565],[-100.16302,34.48576],[-100.16262,34.48554],[-100.16231,34.48582],[-100.1624,34.48607],[-100.16265,34.48622],[-100.16273,34.48677],[-100.16263,34.48691],[-100.16206,34.48669],[-100.16184,34.48687],[-100.16181,34.487],[-100.16226,34.48736],[-100.16199,34.48776],[-100.16179,34.48794],[-100.16108,34.48794],[-100.15999,34.48839],[-100.15989,34.48739],[-100.16017,34.48643],[-100.16044,34.48619],[-100.16048,34.48518],[-100.16063,34.48497],[-100.16099,34.48489],[-100.16108,34.48455],[-100.16155,34.48391]]]},"properties":{"fire_id":"ufid:2025-TXTXS-253915","source_collection":"history-2025","source_objectid":43589,"incident_name":"Half Cocked Range","mapped_acres":31.5492928071622,"mapped_acres_source":"poly_GISAcres","gis_acres":31.5492928071622,"auto_acres":31.54917843223414,"reported_acres":32.0,"percent_contained":100.0,"state":"TX","state_wfigs":"US-TX","county":"Childress","discovery_time_utc":"2025-08-18T23:54:21Z","perimeter_time_utc":"2025-08-19T01:36:59Z","perimeter_edit_time_utc":"2025-08-19T02:23:32Z","incident_modified_time_utc":"2025-09-16T20:39:54Z","containment_time_utc":"2025-08-19T19:05:17Z","control_time_utc":"2025-08-22T01:03:23Z","fire_out_time_utc":null,"fire_cause":"Natural","fire_cause_general":"Natural","map_method":"Mixed Methods","source_dataset":"2025 NIFS","unique_fire_identifier":"2025-TXTXS-253915","irwin_id":"{73B9FC42-FF33-4CF8-BFA3-606D8D8664DF}","global_id":"59e765b9-71a6-4349-b7b7-e1eedb290595"}},{"type":"Feature","geometry":{"type":"MultiPolygon","coordinates":[[[[-100.55938,34.00972],[-100.55942,34.00975],[-100.55939,34.00973],[-100.55938,34.00972]]],[[[-100.56903,34.02116],[-100.56882,34.02179],[-100.56833,34.02251],[-100.56822,34.02357],[-100.56812,34.02369],[-100.56769,34.02365],[-100.56741,34.02388],[-100.56505,34.02083],[-100.5651,34.02004],[-100.56491,34.02033],[-100.56495,34.02065],[-100.56472,34.0208],[-100.56459,34.02112],[-100.56385,34.02134],[-100.56332,34.02075],[-100.56394,34.02034],[-100.56378,34.02009],[-100.56396,34.0199],[-100.56396,34.01971],[-100.56373,34.01957],[-100.56384,34.01923],[-100.56272,34.01955],[-100.56252,34.0198],[-100.56196,34.02004],[-100.56148,34.02002],[-100.56114,34.01956],[-100.55993,34.01908],[-100.55934,34.01866],[-100.55879,34.01806],[-100.55731,34.0169],[-100.55653,34.01673],[-100.55603,34.0158],[-100.55395,34.01424],[-100.55309,34.01309],[-100.55222,34.01258],[-100.55216,34.01191],[-100.55237,34.0116],[-100.55241,34.0111],[-100.55279,34.01069],[-100.55327,34.01054],[-100.55345,34.01029],[-100.55397,34.01005],[-100.55653,34.00913],[-100.55682,34.00921],[-100.55732,34.00898],[-100.55777,34.00917],[-100.55865,34.00926],[-100.55939,34.00975],[-100.55938,34.00987],[-100.559,34.01005],[-100.559,34.01045],[-100.55937,34.01075],[-100.5603,34.01072],[-100.56077,34.0102],[-100.56102,34.00946],[-100.56153,34.0094],[-100.56265,34.00879],[-100.56371,34.00852],[-100.56425,34.00881],[-100.56438,34.00918],[-100.56478,34.00929],[-100.56492,34.00961],[-100.56481,34.00986],[-100.56424,34.00976],[-100.56428,34.01004],[-100.56475,34.01027],[-100.56504,34.01025],[-100.56504,34.01048],[-100.56522,34.01069],[-100.56575,34.01065],[-100.56567,34.01111],[-100.56517,34.01214],[-100.56535,34.0122],[-100.56526,34.0124],[-100.56549,34.01259],[-100.56597,34.0123],[-100.56627,34.01231],[-100.5662,34.01279],[-100.56662,34.01361],[-100.56633,34.01403],[-100.56689,34.01393],[-100.56728,34.01426],[-100.56756,34.0141],[-100.56812,34.01416],[-100.56935,34.01388],[-100.56959,34.01363],[-100.56954,34.01323],[-100.56996,34.01287],[-100.56994,34.01264],[-100.57048,34.01224],[-100.5719,34.0125],[-100.57205,34.01271],[-100.57272,34.01295],[-100.57361,34.01306],[-100.57385,34.01333],[-100.57445,34.01339],[-100.57499,34.01375],[-100.57408,34.01396],[-100.57418,34.01414],[-100.57403,34.0144],[-100.57417,34.01464],[-100.57467,34.01467],[-100.57483,34.0145],[-100.57491,34.01465],[-100.57514,34.01438],[-100.57559,34.01496],[-100.57605,34.01512],[-100.57651,34.01551],[-100.57656,34.01618],[-100.57644,34.01666],[-100.57595,34.01687],[-100.57581,34.01706],[-100.57557,34.01699],[-100.57545,34.01719],[-100.57582,34.01761],[-100.57622,34.0177],[-100.5762,34.01811],[-100.57589,34.01826],[-100.57507,34.01832],[-100.57465,34.01817],[-100.57442,34.01794],[-100.57423,34.01802],[-100.57412,34.01827],[-100.57346,34.01827],[-100.57299,34.01787],[-100.5726,34.01776],[-100.57243,34.01716],[-100.57164,34.01708],[-100.57132,34.01726],[-100.57126,34.01752],[-100.57144,34.01773],[-100.57113,34.01801],[-100.57111,34.01846],[-100.5706,34.01849],[-100.57048,34.01823],[-100.57056,34.0179],[-100.57032,34.01782],[-100.57067,34.01751],[-100.57045,34.01724],[-100.5706,34.01695],[-100.57034,34.01706],[-100.57012,34.01685],[-100.56977,34.01689],[-100.5696,34.01664],[-100.56925,34.01661],[-100.56939,34.01639],[-100.56929,34.01623],[-100.56864,34.0166],[-100.56838,34.01636],[-100.56801,34.01629],[-100.56793,34.01592],[-100.56719,34.01591],[-100.56714,34.01607],[-100.56734,34.01629],[-100.56774,34.01639],[-100.56751,34.01656],[-100.56791,34.01662],[-100.56786,34.01672],[-100.56811,34.01692],[-100.56867,34.01685],[-100.56876,34.01704],[-100.56872,34.01724],[-100.56835,34.01731],[-100.56804,34.01709],[-100.56774,34.01711],[-100.56755,34.01736],[-100.56784,34.01749],[-100.56769,34.01771],[-100.56775,34.01792],[-100.56814,34.01767],[-100.56824,34.01777],[-100.56839,34.01759],[-100.5685,34.01815],[-100.56875,34.01831],[-100.56842,34.01843],[-100.56805,34.01834],[-100.56815,34.01869],[-100.56865,34.01879],[-100.5689,34.0186],[-100.56914,34.01871],[-100.56952,34.01866],[-100.56964,34.0187],[-100.56963,34.01885],[-100.57009,34.01877],[-100.57012,34.01899],[-100.57064,34.01911],[-100.57057,34.0194],[-100.57041,34.01931],[-100.56997,34.01956],[-100.57011,34.01997],[-100.57034,34.01996],[-100.57032,34.02011],[-100.56994,34.02031],[-100.56976,34.02009],[-100.569171,34.01996],[-100.56903,34.02116]]]]},"properties":{"fire_id":"ufid:2025-TXTXS-253931","source_collection":"history-2025","source_objectid":43711,"incident_name":"East 62","mapped_acres":426.6350891027507,"mapped_acres_source":"poly_GISAcres","gis_acres":426.6350891027507,"auto_acres":426.6335236542743,"reported_acres":427.0,"percent_contained":100.0,"state":"TX","state_wfigs":"US-TX","county":"Motley","discovery_time_utc":"2025-08-19T18:39:47Z","perimeter_time_utc":"2025-08-20T18:34:12Z","perimeter_edit_time_utc":"2025-08-20T20:39:45Z","incident_modified_time_utc":"2025-09-07T22:44:51Z","containment_time_utc":"2025-08-22T02:43:03Z","control_time_utc":"2025-08-26T01:00:00Z","fire_out_time_utc":null,"fire_cause":"Natural","fire_cause_general":"Natural","map_method":"Mixed Methods","source_dataset":"2025 NIFS","unique_fire_identifier":"2025-TXTXS-253931","irwin_id":"{4FAEDEF5-DB7A-450D-85F4-9278C4915030}","global_id":"45cb18d2-5085-44b7-96e3-2bbba65cde73"}},{"type":"Feature","geometry":{"type":"Polygon","coordinates":[[[-100.63096,31.28406],[-100.63085,31.2843],[-100.63093,31.28438],[-100.63077,31.28451],[-100.63056,31.28427],[-100.63081,31.28351],[-100.63098,31.28367],[-100.63085,31.28398],[-100.63096,31.28406]]]},"properties":{"fire_id":"ufid:2025-TXTXS-254247","source_collection":"history-2025","source_objectid":45896,"incident_name":"Riverbank","mapped_acres":0.5710494284787292,"mapped_acres_source":"poly_GISAcres","gis_acres":0.5710494284787292,"auto_acres":0.5710473696826648,"reported_acres":1.0,"percent_contained":100.0,"state":"TX","state_wfigs":"US-TX","county":"Tom Green","discovery_time_utc":"2025-09-09T15:34:52Z","perimeter_time_utc":"2025-09-09T17:47:44Z","perimeter_edit_time_utc":"2025-09-15T16:12:15Z","incident_modified_time_utc":"2025-10-03T13:20:32Z","containment_time_utc":"2025-09-10T18:02:03Z","control_time_utc":"2025-09-13T02:23:11Z","fire_out_time_utc":null,"fire_cause":"Human","fire_cause_general":"Debris and open burning","map_method":"Mixed Methods","source_dataset":"2025 NIFS","unique_fire_identifier":"2025-TXTXS-254247","irwin_id":"{863AD89C-2E70-4F2F-944D-72FB8E7CCDD6}","global_id":"f525ad3a-e124-49ce-a50b-23862878adbb"}},{"type":"Feature","geometry":{"type":"MultiPolygon","coordinates":[[[[-101.38487,34.50816],[-101.38325,34.50803],[-101.38325,34.48814],[-101.38343,34.48828],[-101.38339,34.4888],[-101.38504,34.48844],[-101.38342,34.48892],[-101.38344,34.49282],[-101.38598,34.49282],[-101.38687,34.4935],[-101.38769,34.49495],[-101.38819,34.49616],[-101.38843,34.49719],[-101.38872,34.49759],[-101.38926,34.49979],[-101.38986,34.50152],[-101.38982,34.50278],[-101.39045,34.50333],[-101.39095,34.50402],[-101.39127,34.50475],[-101.39145,34.50602],[-101.39196,34.507],[-101.39174,34.50721],[-101.39188,34.50733],[-101.39182,34.50864],[-101.39193,34.51026],[-101.39175,34.51089],[-101.38861,34.511],[-101.38858,34.5135],[-101.39071,34.5135],[-101.39065,34.51358],[-101.39129,34.51446],[-101.39209,34.51612],[-101.3924,34.51757],[-101.39238,34.518],[-101.39212,34.5184],[-101.39227,34.51899],[-101.39231,34.5204],[-101.39222,34.52128],[-101.39182,34.52169],[-101.3871,34.52179],[-101.38603,34.52168],[-101.38506,34.52132],[-101.38442,34.52091],[-101.38377,34.52022],[-101.38347,34.51969],[-101.3833,34.51916],[-101.38345,34.517],[-101.38402,34.51592],[-101.38497,34.51557],[-101.38501,34.51508],[-101.38373,34.51445],[-101.38547,34.50888],[-101.38564,34.50863],[-101.38544,34.50774],[-101.38512,34.50764],[-101.38487,34.50816]]],[[[-101.42105,34.50711],[-101.42107,34.50717],[-101.42105,34.50714],[-101.42105,34.50711]]],[[[-101.42178,34.50876],[-101.42166,34.5098],[-101.42134,34.5089],[-101.41938,34.50892],[-101.42034,34.51037],[-101.42014,34.51147],[-101.41902,34.51142],[-101.41901,34.51155],[-101.41955,34.51232],[-101.41976,34.51226],[-101.41983,34.51208],[-101.42013,34.51209],[-101.4206,34.5129],[-101.42192,34.51308],[-101.42306,34.51304],[-101.42334,34.51353],[-101.42328,34.51371],[-101.42263,34.51365],[-101.4223,34.51382],[-101.42196,34.51443],[-101.42158,34.5145],[-101.42098,34.51437],[-101.42067,34.51464],[-101.42004,34.51465],[-101.41998,34.51479],[-101.42025,34.51514],[-101.42087,34.51529],[-101.42097,34.51549],[-101.42003,34.51605],[-101.41998,34.51617],[-101.42018,34.51622],[-101.41893,34.51645],[-101.41869,34.51667],[-101.41846,34.51669],[-101.41846,34.5169],[-101.41899,34.51763],[-101.41907,34.51786],[-101.41896,34.5181],[-101.41868,34.51819],[-101.41848,34.51854],[-101.41803,34.51847],[-101.41804,34.5186],[-101.41767,34.51882],[-101.41751,34.51911],[-101.41658,34.51955],[-101.41649,34.51983],[-101.41567,34.5201],[-101.41572,34.52032],[-101.41531,34.52026],[-101.41566,34.52068],[-101.41509,34.52115],[-101.41498,34.52146],[-101.4151,34.52151],[-101.4154,34.52115],[-101.41552,34.52131],[-101.41615,34.52143],[-101.41616,34.52164],[-101.41642,34.52168],[-101.41657,34.52189],[-101.41658,34.52231],[-101.41724,34.52447],[-101.41723,34.52567],[-101.41766,34.52651],[-101.41802,34.52777],[-101.41794,34.52874],[-101.41775,34.52866],[-101.41732,34.52772],[-101.41708,34.52785],[-101.41703,34.52837],[-101.41728,34.52907],[-101.41777,34.52973],[-101.41803,34.53095],[-101.41742,34.53069],[-101.40976,34.52573],[-101.4096,34.52619],[-101.40966,34.52647],[-101.41063,34.52795],[-101.4105,34.52838],[-101.41145,34.53109],[-101.41174,34.53229],[-101.41171,34.53288],[-101.41142,34.5331],[-101.41092,34.53271],[-101.41027,34.53269],[-101.41007,34.53199],[-101.40963,34.53171],[-101.4099,34.53102],[-101.40987,34.53081],[-101.4096,34.53051],[-101.40906,34.53023],[-101.40888,34.5299],[-101.40788,34.5301],[-101.40803,34.53147],[-101.40845,34.5319],[-101.40855,34.53221],[-101.40861,34.53296],[-101.40847,34.53349],[-101.40847,34.53452],[-101.40858,34.53546],[-101.40894,34.5359],[-101.40854,34.53601],[-101.40862,34.53558],[-101.40836,34.53622],[-101.40791,34.53625],[-101.40779,34.53652],[-101.40866,34.53776],[-101.40925,34.53986],[-101.40971,34.54245],[-101.41006,34.54271],[-101.41101,34.54281],[-101.41125,34.54306],[-101.41105,34.543],[-101.40975,34.54364],[-101.40952,34.54462],[-101.40996,34.54508],[-101.40997,34.54524],[-101.4097,34.54529],[-101.40964,34.54658],[-101.40943,34.54693],[-101.40936,34.54779],[-101.40783,34.54868],[-101.4067,34.54846],[-101.40594,34.5486],[-101.40525,34.54888],[-101.40381,34.54998],[-101.40335,34.54976],[-101.403,34.54929],[-101.40302,34.54853],[-101.40348,34.54821],[-101.4038,34.54721],[-101.40423,34.5469],[-101.4028,34.5466],[-101.40229,34.54598],[-101.40207,34.54545],[-101.40242,34.54486],[-101.40243,34.54446],[-101.40295,34.54369],[-101.40286,34.54359],[-101.40298,34.54336],[-101.40302,34.54224],[-101.40348,34.5411],[-101.40358,34.53982],[-101.40344,34.5393],[-101.40353,34.53911],[-101.40384,34.53897],[-101.40368,34.5381],[-101.40393,34.5379],[-101.40419,34.53439],[-101.40439,34.53409],[-101.40555,34.52964],[-101.40569,34.52943],[-101.40625,34.52931],[-101.40622,34.52919],[-101.40659,34.5291],[-101.40679,34.5289],[-101.40689,34.52783],[-101.40726,34.52723],[-101.40722,34.52677],[-101.40747,34.52653],[-101.40768,34.52594],[-101.40817,34.52536],[-101.40862,34.52507],[-101.40366,34.52197],[-101.40236,34.52169],[-101.4,34.52165],[-101.40022,34.5196],[-101.40085,34.51895],[-101.40111,34.5182],[-101.40197,34.51667],[-101.40185,34.51611],[-101.40226,34.51572],[-101.40219,34.5154],[-101.40242,34.51497],[-101.40232,34.51487],[-101.40238,34.51447],[-101.40254,34.51431],[-101.40237,34.51418],[-101.40264,34.51343],[-101.40264,34.51272],[-101.4032,34.51211],[-101.40359,34.51104],[-101.4037,34.51014],[-101.40406,34.50965],[-101.40489,34.50964],[-101.40523,34.50927],[-101.40541,34.5088],[-101.40594,34.5084],[-101.40616,34.50801],[-101.4072,34.50762],[-101.40756,34.50711],[-101.40746,34.50684],[-101.40616,34.50686],[-101.40614,34.50001],[-101.40546,34.50001],[-101.40501,34.50603],[-101.40492,34.50603],[-101.40532,34.5015],[-101.40251,34.50162],[-101.40222,34.50154],[-101.40293,34.50003],[-101.40314,34.49844],[-101.40422,34.49526],[-101.40426,34.49463],[-101.40494,34.49242],[-101.40566,34.49154],[-101.40626,34.4913],[-101.40648,34.49103],[-101.40738,34.49044],[-101.40689,34.48947],[-101.40656,34.48801],[-101.40625,34.48796],[-101.40559,34.48831],[-101.40513,34.48816],[-101.40445,34.48729],[-101.40368,34.48545],[-101.40282,34.48517],[-101.40266,34.48449],[-101.40226,34.48415],[-101.40101,34.47921],[-101.40104,34.47883],[-101.40134,34.47835],[-101.40327,34.47838],[-101.40366,34.47862],[-101.40422,34.47942],[-101.40518,34.48035],[-101.4061,34.48164],[-101.40675,34.48293],[-101.40736,34.48453],[-101.40741,34.48586],[-101.40758,34.48652],[-101.40798,34.48737],[-101.40817,34.48749],[-101.40923,34.48653],[-101.40935,34.48592],[-101.40885,34.4857],[-101.40893,34.48532],[-101.40912,34.48507],[-101.40926,34.48504],[-101.40929,34.48516],[-101.4094,34.48499],[-101.40977,34.4834],[-101.41051,34.48244],[-101.41179,34.47973],[-101.41206,34.47954],[-101.41273,34.47938],[-101.41305,34.4791],[-101.41315,34.47842],[-101.41267,34.47842],[-101.41431,34.47818],[-101.41801,34.47815],[-101.41808,34.47831],[-101.41951,34.47827],[-101.42027,34.47877],[-101.42064,34.47951],[-101.42126,34.48004],[-101.42196,34.4835],[-101.42102,34.48355],[-101.42083,34.48366],[-101.42239,34.48364],[-101.42275,34.4852],[-101.42261,34.48538],[-101.4202,34.48564],[-101.42079,34.48711],[-101.42099,34.48833],[-101.4207,34.49119],[-101.42156,34.49118],[-101.42195,34.49166],[-101.42203,34.49201],[-101.42171,34.49253],[-101.42177,34.49267],[-101.42119,34.49333],[-101.4215,34.49259],[-101.41851,34.49262],[-101.41817,34.49247],[-101.41808,34.49256],[-101.41815,34.49724],[-101.41861,34.49728],[-101.41881,34.49759],[-101.41934,34.49794],[-101.41955,34.49869],[-101.41991,34.49925],[-101.42033,34.50136],[-101.42125,34.50238],[-101.42173,34.50579],[-101.42144,34.50605],[-101.42151,34.50652],[-101.42105,34.50711],[-101.41826,34.50717],[-101.41829,34.50886],[-101.42139,34.50885],[-101.42136,34.50825],[-101.42107,34.50717],[-101.42131,34.50762],[-101.4214,34.50824],[-101.42178,34.50876]]]]},"properties":{"fire_id":"ufid:2025-TXTXS-254672","source_collection":"history-2025","source_objectid":46764,"incident_name":"Tule","mapped_acres":2547.709387335029,"mapped_acres_source":"poly_GISAcres","gis_acres":2547.709387335029,"auto_acres":2547.698118010721,"reported_acres":2547.7,"percent_contained":100.0,"state":"TX","state_wfigs":"US-TX","county":"Briscoe","discovery_time_utc":"2025-10-04T18:41:10Z","perimeter_time_utc":"2025-10-05T18:17:11Z","perimeter_edit_time_utc":"2025-10-05T19:33:13Z","incident_modified_time_utc":"2025-10-20T15:48:15Z","containment_time_utc":"2025-10-06T01:11:06Z","control_time_utc":"2025-10-09T00:49:48Z","fire_out_time_utc":null,"fire_cause":"Human","fire_cause_general":"Other causes","map_method":"Mixed Methods","source_dataset":"2025 NIFS","unique_fire_identifier":"2025-TXTXS-254672","irwin_id":"{08957217-8A75-4864-8C4C-5B7787D17CBE}","global_id":"69ac38e4-8a71-4884-acb1-08ff42bb95ed"}},{"type":"Feature","geometry":{"type":"Polygon","coordinates":[[[-101.91238,34.77824],[-101.91232,34.77188],[-101.91222,34.77111],[-101.91205,34.77097],[-101.90738,34.7709],[-101.90591,34.77101],[-101.90583,34.77088],[-101.9063,34.77035],[-101.90628,34.77015],[-101.90647,34.76987],[-101.90694,34.76948],[-101.90766,34.76858],[-101.90808,34.76785],[-101.9084,34.76781],[-101.90878,34.76729],[-101.90911,34.76725],[-101.90974,34.76661],[-101.91203,34.76517],[-101.912,34.76501],[-101.91155,34.76473],[-101.91186,34.76432],[-101.91232,34.76431],[-101.91227,34.76379],[-101.91404,34.76375],[-101.91427,34.76414],[-101.91412,34.76501],[-101.91356,34.76505],[-101.91344,34.76517],[-101.91371,34.76546],[-101.914,34.76691],[-101.914,34.77008],[-101.91368,34.77104],[-101.91361,34.77154],[-101.91376,34.77174],[-101.91344,34.77265],[-101.91351,34.77286],[-101.91338,34.77295],[-101.91348,34.77405],[-101.91279,34.77824],[-101.91238,34.77824]]]},"properties":{"fire_id":"ufid:2025-TXTXS-254756","source_collection":"history-2025","source_objectid":47113,"incident_name":"Running Waters","mapped_acres":106.89206872650453,"mapped_acres_source":"poly_GISAcres","gis_acres":106.89206872650453,"auto_acres":106.89168121869676,"reported_acres":106.0,"percent_contained":100.0,"state":"TX","state_wfigs":"US-TX","county":"Randall","discovery_time_utc":"2025-10-09T20:42:21Z","perimeter_time_utc":"2025-10-09T22:08:23Z","perimeter_edit_time_utc":"2025-10-10T16:22:36Z","incident_modified_time_utc":"2025-11-03T17:23:46Z","containment_time_utc":"2025-10-09T23:38:57Z","control_time_utc":"2025-10-13T01:00:00Z","fire_out_time_utc":null,"fire_cause":"Undetermined","fire_cause_general":"Undetermined (remarks required)","map_method":"Mixed Methods","source_dataset":"2025 NIFS","unique_fire_identifier":"2025-TXTXS-254756","irwin_id":"{668CB839-128F-440D-A622-25602AAD198D}","global_id":"0f375701-367f-4f62-9d4d-f63cf26be512"}},{"type":"Feature","geometry":{"type":"Polygon","coordinates":[[[-100.46822,32.95293],[-100.46773,32.95399],[-100.46599,32.95563],[-100.46493,32.9563],[-100.46284,32.95699],[-100.46281,32.95663],[-100.4633,32.95625],[-100.46346,32.95627],[-100.46351,32.9561],[-100.46305,32.9557],[-100.46333,32.95568],[-100.46431,32.95441],[-100.46503,32.95253],[-100.46581,32.95229],[-100.466,32.95185],[-100.46648,32.95181],[-100.46669,32.95191],[-100.46695,32.95242],[-100.46744,32.95273],[-100.46756,32.95319],[-100.46822,32.95293]]]},"properties":{"fire_id":"ufid:2025-TXTXS-254795","source_collection":"history-2025","source_objectid":47240,"incident_name":"White Canyon","mapped_acres":30.755145958175817,"mapped_acres_source":"poly_GISAcres","gis_acres":30.755145958175817,"auto_acres":30.755034745202924,"reported_acres":30.0,"percent_contained":100.0,"state":"TX","state_wfigs":"US-TX","county":"Fisher","discovery_time_utc":"2025-10-11T22:37:05Z","perimeter_time_utc":"2025-10-12T03:17:52Z","perimeter_edit_time_utc":"2025-10-14T17:48:58Z","incident_modified_time_utc":"2025-12-11T17:35:36Z","containment_time_utc":"2025-10-12T05:39:43Z","control_time_utc":"2025-10-18T00:50:56Z","fire_out_time_utc":null,"fire_cause":"Human","fire_cause_general":"Equipment and vehicle use","map_method":"Mixed Methods","source_dataset":"2025 NIFS","unique_fire_identifier":"2025-TXTXS-254795","irwin_id":"{AA3B1E15-C9F3-4CBE-9DB8-DF9DF836D81A}","global_id":"9b40fd01-e855-4a2e-a4f9-3a772eb372d1"}},{"type":"Feature","geometry":{"type":"Polygon","coordinates":[[[-101.38012,34.67581],[-101.37974,34.67664],[-101.37944,34.67847],[-101.37895,34.68018],[-101.37776,34.68292],[-101.37721,34.68364],[-101.37635,34.68412],[-101.37602,34.68419],[-101.37499,34.68397],[-101.37458,34.68337],[-101.37453,34.68292],[-101.37469,34.68292],[-101.37464,34.68254],[-101.37423,34.68174],[-101.3742,34.68116],[-101.37394,34.68068],[-101.37384,34.67939],[-101.37344,34.67754],[-101.37337,34.67582],[-101.38012,34.67581]]]},"properties":{"fire_id":"ufid:2025-TXTXS-255040","source_collection":"history-2025","source_objectid":47951,"incident_name":"Triple H","mapped_acres":100.69340080754489,"mapped_acres_source":"poly_GISAcres","gis_acres":100.69340080754489,"auto_acres":100.69304046187862,"reported_acres":100.0,"percent_contained":100.0,"state":"TX","state_wfigs":"US-TX","county":"Briscoe","discovery_time_utc":"2025-10-28T18:21:35Z","perimeter_time_utc":"2025-10-28T19:57:18Z","perimeter_edit_time_utc":"2025-10-28T21:24:58Z","incident_modified_time_utc":"2025-12-01T20:43:01Z","containment_time_utc":"2025-10-28T20:40:43Z","control_time_utc":"2025-10-31T23:55:19Z","fire_out_time_utc":null,"fire_cause":"Human","fire_cause_general":"Equipment and vehicle use","map_method":"Mixed Methods","source_dataset":"2025 NIFS","unique_fire_identifier":"2025-TXTXS-255040","irwin_id":"{F81BC625-BB29-46A4-AEAB-413FEA6BA9B0}","global_id":"f023df85-20c7-4b72-aad1-1be6cc2bb5b2"}},{"type":"Feature","geometry":{"type":"Polygon","coordinates":[[[-101.24014,34.96707],[-101.23926,34.9674],[-101.23903,34.96732],[-101.23902,34.96697],[-101.23877,34.96686],[-101.23923,34.96679],[-101.23951,34.96646],[-101.24025,34.96657],[-101.2404,34.96641],[-101.24127,34.9668],[-101.24104,34.96696],[-101.24014,34.96707]]]},"properties":{"fire_id":"ufid:2025-TXTXS-255279","source_collection":"history-2025","source_objectid":48439,"incident_name":"Blue Creek","mapped_acres":3.0997089161258717,"mapped_acres_source":"poly_GISAcres","gis_acres":3.0997089161258717,"auto_acres":3.0996976494403166,"reported_acres":3.5,"percent_contained":100.0,"state":"TX","state_wfigs":"US-TX","county":"Armstrong","discovery_time_utc":"2025-11-11T16:22:11Z","perimeter_time_utc":"2025-11-11T17:11:49Z","perimeter_edit_time_utc":"2025-11-11T19:52:05Z","incident_modified_time_utc":"2025-12-01T20:23:33Z","containment_time_utc":"2025-11-11T20:33:02Z","control_time_utc":"2025-11-15T22:04:04Z","fire_out_time_utc":null,"fire_cause":"Human","fire_cause_general":"Equipment and vehicle use","map_method":"Mixed Methods","source_dataset":"2025 NIFS","unique_fire_identifier":"2025-TXTXS-255279","irwin_id":"{2F63A258-B8C1-4428-A4E8-90D1FB559D9C}","global_id":"37b20ece-40b9-48b9-b7a0-15994633fefb"}},{"type":"Feature","geometry":{"type":"Polygon","coordinates":[[[-100.6241,34.89326],[-100.62331,34.89326],[-100.62384,34.89288],[-100.62385,34.89253],[-100.62364,34.89208],[-100.62373,34.89196],[-100.62359,34.89183],[-100.62373,34.89152],[-100.62356,34.89125],[-100.62264,34.89078],[-100.62246,34.89011],[-100.62219,34.89021],[-100.62204,34.89048],[-100.62254,34.89129],[-100.62257,34.89162],[-100.62239,34.8917],[-100.62161,34.89301],[-100.62065,34.89299],[-100.61982,34.89002],[-100.61987,34.8895],[-100.62087,34.88955],[-100.62087,34.88877],[-100.62145,34.88873],[-100.62238,34.88905],[-100.62238,34.88948],[-100.62279,34.88981],[-100.62332,34.88987],[-100.62343,34.88975],[-100.62416,34.88963],[-100.62421,34.89076],[-100.62477,34.8909],[-100.62543,34.89064],[-100.62565,34.89088],[-100.6261,34.89105],[-100.62682,34.891],[-100.62737,34.89123],[-100.62745,34.89143],[-100.62785,34.89139],[-100.62823,34.8916],[-100.62823,34.89205],[-100.62843,34.89224],[-100.62842,34.89287],[-100.62824,34.89301],[-100.62757,34.8928],[-100.62622,34.89288],[-100.62616,34.89311],[-100.62546,34.89315],[-100.62514,34.8934],[-100.62464,34.89354],[-100.62423,34.89346],[-100.6241,34.89326]]]},"properties":{"fire_id":"ufid:2025-TXTXS-255340","source_collection":"history-2025","source_objectid":48467,"incident_name":"Pink Skies","mapped_acres":49.765853219427676,"mapped_acres_source":"poly_GISAcres","gis_acres":49.765853219427676,"auto_acres":49.76567146604958,"reported_acres":54.0,"percent_contained":100.0,"state":"TX","state_wfigs":"US-TX","county":"Donley","discovery_time_utc":"2025-11-13T15:17:49Z","perimeter_time_utc":"2025-11-13T16:12:45Z","perimeter_edit_time_utc":"2025-11-14T14:45:48Z","incident_modified_time_utc":"2025-12-01T20:42:59Z","containment_time_utc":"2025-11-14T21:03:57Z","control_time_utc":"2025-11-19T02:00:56Z","fire_out_time_utc":null,"fire_cause":"Human","fire_cause_general":"Equipment and vehicle use","map_method":"Mixed Methods","source_dataset":"2025 NIFS","unique_fire_identifier":"2025-TXTXS-255340","irwin_id":"{A56B6E2E-9FFB-4DB6-80C7-D2BC570F102D}","global_id":"8542509e-4f93-4f6a-81d8-1ad21d4a9486"}},{"type":"Feature","geometry":{"type":"Polygon","coordinates":[[[-100.90806,34.99675],[-100.90846,34.99627],[-100.90822,34.99567],[-100.90847,34.99572],[-100.90857,34.99537],[-100.90768,34.99506],[-100.90796,34.9947],[-100.908,34.99443],[-100.90783,34.99439],[-100.90831,34.99348],[-100.90821,34.99336],[-100.90829,34.99267],[-100.90859,34.99241],[-100.9084,34.99246],[-100.90811,34.99282],[-100.9081,34.99311],[-100.90779,34.99363],[-100.90758,34.99382],[-100.90747,34.99377],[-100.90755,34.99321],[-100.90779,34.99303],[-100.90769,34.99288],[-100.90784,34.99249],[-100.90765,34.99207],[-100.90765,34.9916],[-100.90783,34.99115],[-100.90839,34.99061],[-100.90871,34.99062],[-100.90911,34.99086],[-100.90931,34.99082],[-100.90902,34.98993],[-100.90904,34.98902],[-100.90886,34.98849],[-100.91045,34.98673],[-100.91117,34.98572],[-100.91307,34.98471],[-100.91433,34.98374],[-100.91573,34.98295],[-100.91736,34.98257],[-100.91788,34.98268],[-100.91814,34.98309],[-100.91832,34.98432],[-100.91809,34.98499],[-100.91737,34.98576],[-100.91496,34.98711],[-100.91416,34.98826],[-100.91335,34.98877],[-100.913,34.98916],[-100.91379,34.9903],[-100.91325,34.99065],[-100.91327,34.9912],[-100.91264,34.99251],[-100.91268,34.99262],[-100.91311,34.99264],[-100.91338,34.99284],[-100.91303,34.99335],[-100.91266,34.99347],[-100.9127,34.99372],[-100.91319,34.99408],[-100.91254,34.99456],[-100.91046,34.99407],[-100.91032,34.99381],[-100.9101,34.9939],[-100.90991,34.99442],[-100.90987,34.99469],[-100.91001,34.99485],[-100.91044,34.99492],[-100.91158,34.99561],[-100.91253,34.99566],[-100.91304,34.99603],[-100.91436,34.99791],[-100.91523,34.99871],[-100.91532,34.99898],[-100.91496,34.99902],[-100.91487,34.99923],[-100.91516,34.99978],[-100.91372,35.00139],[-100.91321,35.00162],[-100.91128,35.00108],[-100.90899,35.00062],[-100.90881,35.00028],[-100.9092,34.99864],[-100.90917,34.99764],[-100.90904,34.99744],[-100.90843,34.99726],[-100.9085,34.99698],[-100.90818,34.99699],[-100.90806,34.99675]]]},"properties":{"fire_id":"ufid:2025-TXTXS-255344","source_collection":"history-2025","source_objectid":48481,"incident_name":"Green Belt Way","mapped_acres":223.55141346279095,"mapped_acres_source":"poly_GISAcres","gis_acres":223.55141346279095,"auto_acres":223.55060134506576,"reported_acres":223.0,"percent_contained":100.0,"state":"TX","state_wfigs":"US-TX","county":"Donley","discovery_time_utc":"2025-11-13T21:02:57Z","perimeter_time_utc":"2025-11-13T22:30:51Z","perimeter_edit_time_utc":"2025-11-14T14:42:07Z","incident_modified_time_utc":"2025-12-01T20:24:09Z","containment_time_utc":"2025-11-14T17:01:24Z","control_time_utc":"2025-11-19T02:12:44Z","fire_out_time_utc":null,"fire_cause":"Human","fire_cause_general":"Debris and open burning","map_method":"Mixed Methods","source_dataset":"2025 NIFS","unique_fire_identifier":"2025-TXTXS-255344","irwin_id":"{E44D1621-8FC7-4AFA-BB6D-6DC3A7CDDA2A}","global_id":"a1f5d081-1fd3-427e-aeb1-7732c0449203"}},{"type":"Feature","geometry":{"type":"Polygon","coordinates":[[[-100.95943,34.28122],[-100.95956,34.28081],[-100.95941,34.28031],[-100.95968,34.27915],[-100.96,34.27883],[-100.96023,34.27892],[-100.96019,34.27863],[-100.96123,34.27775],[-100.96147,34.27775],[-100.96144,34.27758],[-100.96163,34.27762],[-100.96174,34.27741],[-100.96239,34.27741],[-100.96204,34.27762],[-100.96195,34.27778],[-100.96206,34.2779],[-100.96299,34.27795],[-100.96235,34.27968],[-100.96191,34.28023],[-100.96189,34.28065],[-100.9611,34.28106],[-100.96018,34.28132],[-100.95961,34.2814],[-100.95943,34.28122]]]},"properties":{"fire_id":"ufid:2025-TXTXS-255395","source_collection":"history-2025","source_objectid":48872,"incident_name":"Motley Creek","mapped_acres":21.350344022083416,"mapped_acres_source":"poly_GISAcres","gis_acres":21.350344022083416,"auto_acres":21.350266568193415,"reported_acres":22.0,"percent_contained":100.0,"state":"TX","state_wfigs":"US-TX","county":"Motley","discovery_time_utc":"2025-11-15T23:30:11Z","perimeter_time_utc":"2025-11-16T01:31:33Z","perimeter_edit_time_utc":"2025-12-01T18:58:13Z","incident_modified_time_utc":"2025-12-02T15:36:35Z","containment_time_utc":"2025-11-16T17:55:21Z","control_time_utc":"2025-11-20T01:56:36Z","fire_out_time_utc":null,"fire_cause":"Human","fire_cause_general":"Equipment and vehicle use","map_method":"Mixed Methods","source_dataset":"2025 NIFS","unique_fire_identifier":"2025-TXTXS-255395","irwin_id":"{BFA1A202-8649-470E-8696-4C787C4AB364}","global_id":"09d773de-9e32-46c4-ae46-6bd37466256f"}},{"type":"Feature","geometry":{"type":"Polygon","coordinates":[[[-101.35214,34.0112],[-101.35461,34.01467],[-101.3545,34.01534],[-101.34593,34.01546],[-101.34605,34.01516],[-101.34786,34.01378],[-101.34888,34.01326],[-101.34866,34.0133],[-101.34902,34.01322],[-101.34931,34.0129],[-101.35081,34.01207],[-101.35098,34.01184],[-101.35191,34.01149],[-101.35214,34.0112]]]},"properties":{"fire_id":"ufid:2025-TXTXS-255852","source_collection":"history-2025","source_objectid":49815,"incident_name":"North 70","mapped_acres":50.884737748121104,"mapped_acres_source":"poly_GISAcres","gis_acres":50.884737748121104,"auto_acres":50.88456488442929,"reported_acres":51.0,"percent_contained":100.0,"state":"TX","state_wfigs":"US-TX","county":"Floyd","discovery_time_utc":"2025-12-19T21:24:43Z","perimeter_time_utc":"2025-12-19T23:38:03Z","perimeter_edit_time_utc":"2025-12-23T15:20:03Z","incident_modified_time_utc":"2026-01-23T19:43:22Z","containment_time_utc":"2025-12-20T00:33:11Z","control_time_utc":"2025-12-23T17:00:19Z","fire_out_time_utc":null,"fire_cause":"Human","fire_cause_general":"Equipment and vehicle use","map_method":"Mixed Methods","source_dataset":"2025 NIFS","unique_fire_identifier":"2025-TXTXS-255852","irwin_id":"{41A2B660-9E5A-4B43-90A8-AC92AD865015}","global_id":"350ad961-2351-4c9d-83be-7c666cf838b2"}}]}
