{"type":"FeatureCollection","features":[{"type":"Feature","geometry":{"type":"Polygon","coordinates":[[[-78.96558,37.92453],[-78.96528,37.92462],[-78.96547,37.9244],[-78.96558,37.92453]]]},"properties":{"fire_id":"ufid:2025-NCBRP-250045","source_collection":"history-2025","source_objectid":40089,"incident_name":"Mile Marker 11","mapped_acres":0.095215,"mapped_acres_source":"poly_GISAcres","gis_acres":0.095215,"auto_acres":0.09521485859707192,"reported_acres":0.5,"percent_contained":null,"state":"VA","state_wfigs":"US-VA","county":"Augusta","discovery_time_utc":"2025-03-23T17:17:58Z","perimeter_time_utc":"2025-05-23T19:03:37Z","perimeter_edit_time_utc":null,"incident_modified_time_utc":"2025-03-27T17:13:46Z","containment_time_utc":null,"control_time_utc":null,"fire_out_time_utc":"2025-03-25T16:00:00Z","fire_cause":"Human","fire_cause_general":"Equipment and vehicle use","map_method":"GPS-Walked","source_dataset":"FFP","unique_fire_identifier":"2025-NCBRP-250045","irwin_id":"{D120E93D-FFD3-4284-AD6E-5F9B50A92857}","global_id":"fd898fe5-5cb6-47f1-83a9-3f3d781f1e2a"}},{"type":"Feature","geometry":{"type":"Polygon","coordinates":[[[-78.88504,37.96155],[-78.88397,37.96289],[-78.88378,37.96305],[-78.88328,37.96314],[-78.88324,37.96338],[-78.88257,37.96385],[-78.88213,37.9637],[-78.88181,37.96307],[-78.88167,37.96301],[-78.88159,37.96321],[-78.88137,37.96325],[-78.88135,37.96353],[-78.88077,37.96405],[-78.88135,37.96443],[-78.88119,37.96493],[-78.88148,37.96513],[-78.88167,37.96556],[-78.88115,37.96594],[-78.88122,37.96632],[-78.88084,37.96645],[-78.87987,37.9665],[-78.87987,37.9664],[-78.87951,37.96627],[-78.87908,37.96632],[-78.8789,37.966],[-78.87804,37.96612],[-78.87797,37.96591],[-78.8774,37.96635],[-78.87696,37.96605],[-78.87699,37.96593],[-78.87665,37.9655],[-78.87643,37.96539],[-78.87616,37.96545],[-78.87578,37.96515],[-78.8756,37.9651],[-78.87515,37.96538],[-78.87483,37.96533],[-78.8745,37.96523],[-78.87435,37.9649],[-78.87408,37.96477],[-78.87306,37.96461],[-78.87262,37.96481],[-78.87232,37.96459],[-78.87225,37.96476],[-78.87201,37.96471],[-78.87182,37.9649],[-78.87182,37.9647],[-78.87141,37.96442],[-78.87151,37.96418],[-78.87189,37.96415],[-78.87189,37.96381],[-78.87507,37.96301],[-78.8752,37.96287],[-78.87498,37.9624],[-78.87581,37.96235],[-78.87677,37.96165],[-78.87659,37.96199],[-78.87669,37.96203],[-78.87759,37.96143],[-78.87808,37.96138],[-78.87803,37.96164],[-78.87867,37.96181],[-78.87877,37.96244],[-78.87917,37.96272],[-78.87991,37.96247],[-78.88015,37.9621],[-78.88004,37.962],[-78.88012,37.96154],[-78.88036,37.9613],[-78.88086,37.96121],[-78.88124,37.96083],[-78.88182,37.96104],[-78.88243,37.96105],[-78.88248,37.96117],[-78.88264,37.96105],[-78.8829,37.96111],[-78.88303,37.96096],[-78.88337,37.96102],[-78.88417,37.96086],[-78.88504,37.96155]]]},"properties":{"fire_id":"ufid:2025-NCBRP-250053","source_collection":"history-2025","source_objectid":40091,"incident_name":"Glass Hollow","mapped_acres":90.66485,"mapped_acres_source":"poly_GISAcres","gis_acres":90.66485,"auto_acres":90.66488552656959,"reported_acres":90.0,"percent_contained":null,"state":"VA","state_wfigs":"US-VA","county":"Nelson","discovery_time_utc":"2025-03-27T18:02:00Z","perimeter_time_utc":"2025-05-23T19:01:05Z","perimeter_edit_time_utc":null,"incident_modified_time_utc":"2025-04-29T14:21:57Z","containment_time_utc":"2025-04-01T20:00:00Z","control_time_utc":"2025-04-10T18:00:00Z","fire_out_time_utc":"2025-04-24T14:30:00Z","fire_cause":"Human","fire_cause_general":"Recreation and ceremony","map_method":"GPS-Walked","source_dataset":"FFP","unique_fire_identifier":"2025-NCBRP-250053","irwin_id":"{8FB1A221-DAA0-4AFE-AED5-3581E813D027}","global_id":"86e8d2bc-ab05-4944-a105-b287bccd264e"}},{"type":"Feature","geometry":{"type":"Polygon","coordinates":[[[-79.29435,38.33871],[-79.29065,38.33936],[-79.28942,38.33943],[-79.28765,38.33932],[-79.28653,38.339],[-79.28602,38.33873],[-79.28409,38.33708],[-79.28357,38.33612],[-79.28345,38.33559],[-79.28329,38.33331],[-79.28274,38.331],[-79.28286,38.33041],[-79.28358,38.32901],[-79.28495,38.32697],[-79.28564,38.32633],[-79.28659,38.32595],[-79.28734,38.32592],[-79.28777,38.32727],[-79.2912,38.32813],[-79.29173,38.32846],[-79.2921,38.32896],[-79.29247,38.33085],[-79.29294,38.33208],[-79.29371,38.33324],[-79.29596,38.33573],[-79.29679,38.33702],[-79.29677,38.33742],[-79.29652,38.33781],[-79.29551,38.33835],[-79.29435,38.33871]]]},"properties":{"fire_id":"ufid:2025-VAVAF-250069","source_collection":"history-2025","source_objectid":40315,"incident_name":"Rattlesnake Run","mapped_acres":294.5369,"mapped_acres_source":"poly_GISAcres","gis_acres":294.5369,"auto_acres":294.5357555921585,"reported_acres":294.0,"percent_contained":null,"state":"VA","state_wfigs":"US-VA","county":"Augusta","discovery_time_utc":"2025-04-20T15:45:00Z","perimeter_time_utc":"2025-05-30T19:49:45Z","perimeter_edit_time_utc":null,"incident_modified_time_utc":"2025-05-22T20:07:42Z","containment_time_utc":"2025-04-21T20:50:00Z","control_time_utc":"2025-05-01T18:00:00Z","fire_out_time_utc":"2025-05-22T20:00:00Z","fire_cause":"Human","fire_cause_general":"Undetermined","map_method":"Mixed Methods","source_dataset":"FFP","unique_fire_identifier":"2025-VAVAF-250069","irwin_id":"{BA2546C5-0899-4F95-8720-0521A297A8F8}","global_id":"499b9734-8d3c-46dc-99fd-aed5554e0b55"}},{"type":"Feature","geometry":{"type":"Polygon","coordinates":[[[-76.55356,36.60714],[-76.55412,36.60825],[-76.55377,36.60848],[-76.55348,36.60846],[-76.55328,36.60868],[-76.55225,36.60879],[-76.55177,36.60867],[-76.55167,36.6085],[-76.55182,36.60841],[-76.55169,36.60776],[-76.5522,36.60758],[-76.55212,36.60727],[-76.55226,36.60702],[-76.55238,36.60713],[-76.55356,36.60714]]]},"properties":{"fire_id":"ufid:2025-VAGDR-VAGDR-01","source_collection":"history-2025","source_objectid":41226,"incident_name":"VAGDR-01-BrothersSouth","mapped_acres":3.0,"mapped_acres_source":"poly_GISAcres","gis_acres":3.0,"auto_acres":7.616771391886479,"reported_acres":7.6,"percent_contained":null,"state":"VA","state_wfigs":"US-VA","county":"Suffolk","discovery_time_utc":"2025-06-25T17:31:47Z","perimeter_time_utc":"2025-06-27T12:31:37Z","perimeter_edit_time_utc":null,"incident_modified_time_utc":"2025-06-26T11:48:21Z","containment_time_utc":"2025-06-25T20:16:00Z","control_time_utc":"2025-06-26T13:55:00Z","fire_out_time_utc":"2025-06-26T20:20:00Z","fire_cause":"Human","fire_cause_general":"Power generation / transmission / distribution","map_method":"Auto-generated for InFORM","source_dataset":"FFP","unique_fire_identifier":"2025-VAGDR-VAGDR-01","irwin_id":"{4388EDE2-7C45-4CF1-8EF6-38A52449C2A2}","global_id":"d9cba1f0-062d-452a-876e-a1688cb07672"}},{"type":"Feature","geometry":{"type":"Polygon","coordinates":[[[-77.70867,38.30063],[-77.70861,38.30048],[-77.70875,38.30055],[-77.70867,38.30063]]]},"properties":{"fire_id":"ufid:2025-VAFSP-250003","source_collection":"history-2025","source_objectid":46533,"incident_name":"Brock Rd","mapped_acres":1.0,"mapped_acres_source":"poly_GISAcres","gis_acres":1.0,"auto_acres":0.028723403813257074,"reported_acres":0.1,"percent_contained":null,"state":"VA","state_wfigs":"US-VA","county":"Spotsylvania","discovery_time_utc":"2025-08-12T21:55:14Z","perimeter_time_utc":"2025-10-27T13:48:57Z","perimeter_edit_time_utc":null,"incident_modified_time_utc":"2025-08-21T21:14:40Z","containment_time_utc":null,"control_time_utc":null,"fire_out_time_utc":"2025-08-14T16:27:00Z","fire_cause":"Undetermined","fire_cause_general":"Undetermined","map_method":"Auto-generated for InFORM","source_dataset":"FFP","unique_fire_identifier":"2025-VAFSP-250003","irwin_id":"{D6CB409A-EDD4-45C1-8B43-181751CC9F76}","global_id":"eae26451-f81b-4d1b-abb8-e7df1a5c79ea"}},{"type":"Feature","geometry":{"type":"Polygon","coordinates":[[[-77.41873,38.59777],[-77.41864,38.59775],[-77.41869,38.59767],[-77.41873,38.59777]]]},"properties":{"fire_id":"ufid:2025-VAPWP-250014","source_collection":"history-2025","source_objectid":46539,"incident_name":"Bunny","mapped_acres":0.02,"mapped_acres_source":"poly_GISAcres","gis_acres":0.02,"auto_acres":0.02139601049552914,"reported_acres":0.02,"percent_contained":null,"state":"VA","state_wfigs":"US-VA","county":"Prince William","discovery_time_utc":"2025-04-21T16:00:00Z","perimeter_time_utc":"2025-09-29T19:16:20Z","perimeter_edit_time_utc":null,"incident_modified_time_utc":"2025-04-22T18:07:13Z","containment_time_utc":"2025-04-21T17:30:00Z","control_time_utc":null,"fire_out_time_utc":"2025-04-22T15:00:00Z","fire_cause":"Human","fire_cause_general":"Recreation and ceremony","map_method":"GPS-Walked","source_dataset":"FFP","unique_fire_identifier":"2025-VAPWP-250014","irwin_id":"{3F99EC24-58FB-4B2E-A384-8FC99DCDDF54}","global_id":"2e41b19b-8672-467f-a357-2319e8a64900"}},{"type":"Feature","geometry":{"type":"Polygon","coordinates":[[[-77.35891,38.56342],[-77.35888,38.56343],[-77.35888,38.56341],[-77.35891,38.56342]]]},"properties":{"fire_id":"ufid:2025-VAPWP-250018","source_collection":"history-2025","source_objectid":46541,"incident_name":"Peep","mapped_acres":0.01,"mapped_acres_source":"poly_GISAcres","gis_acres":0.01,"auto_acres":0.0020738118599053106,"reported_acres":0.01,"percent_contained":null,"state":"VA","state_wfigs":"US-VA","county":"Prince William","discovery_time_utc":"2025-04-25T16:30:56Z","perimeter_time_utc":"2025-09-29T19:15:28Z","perimeter_edit_time_utc":null,"incident_modified_time_utc":"2025-05-19T20:22:04Z","containment_time_utc":null,"control_time_utc":null,"fire_out_time_utc":"2025-04-26T14:00:00Z","fire_cause":"Human","fire_cause_general":"Recreation and ceremony","map_method":"Hand Sketch","source_dataset":"FFP","unique_fire_identifier":"2025-VAPWP-250018","irwin_id":"{1E90A29F-A293-47D1-B3D1-AFD3C5DCA5F8}","global_id":"7a08325e-d88f-4037-9fba-fcb585084c0f"}},{"type":"Feature","geometry":{"type":"Polygon","coordinates":[[[-77.04255,38.72195],[-77.04273,38.72189],[-77.04303,38.72244],[-77.04252,38.72268],[-77.04243,38.72264],[-77.04255,38.72195]]]},"properties":{"fire_id":"ufid:2025-VAGMP-250005","source_collection":"history-2025","source_objectid":47385,"incident_name":"Eagle Fort","mapped_acres":0.67,"mapped_acres_source":"poly_GISAcres","gis_acres":0.67,"auto_acres":0.665695687976475,"reported_acres":0.66,"percent_contained":null,"state":"VA","state_wfigs":"US-VA","county":"Fairfax","discovery_time_utc":"2025-03-01T18:45:40Z","perimeter_time_utc":"2025-10-16T21:52:44Z","perimeter_edit_time_utc":null,"incident_modified_time_utc":"2025-03-03T18:55:06Z","containment_time_utc":"2025-03-02T20:30:00Z","control_time_utc":"2025-03-03T13:30:00Z","fire_out_time_utc":"2025-04-21T16:30:00Z","fire_cause":"Human","fire_cause_general":"Undetermined","map_method":"GPS-Walked","source_dataset":"FFP","unique_fire_identifier":"2025-VAGMP-250005","irwin_id":"{F91E3FD8-56BE-4271-A44E-7E8D3DFABD43}","global_id":"083758cb-d66d-4473-9143-16c93a3640f4"}},{"type":"Feature","geometry":{"type":"Polygon","coordinates":[[[-78.29485,38.74578],[-78.29483,38.74558],[-78.29498,38.74571],[-78.29485,38.74578]]]},"properties":{"fire_id":"ufid:2025-VASHP-250005","source_collection":"history-2025","source_objectid":47818,"incident_name":"Helicopter Electrical","mapped_acres":0.0319996,"mapped_acres_source":"poly_GISAcres","gis_acres":0.0319996,"auto_acres":0.047089611804656636,"reported_acres":0.1,"percent_contained":null,"state":"VA","state_wfigs":"US-VA","county":"Rappahannock","discovery_time_utc":"2025-03-18T20:32:00Z","perimeter_time_utc":"2025-10-24T17:39:13Z","perimeter_edit_time_utc":null,"incident_modified_time_utc":"2025-03-18T22:34:15Z","containment_time_utc":null,"control_time_utc":null,"fire_out_time_utc":"2025-03-19T22:00:00Z","fire_cause":"Human","fire_cause_general":"Power generation / transmission / distribution","map_method":"Mixed Methods","source_dataset":"FFP","unique_fire_identifier":"2025-VASHP-250005","irwin_id":"{350F2977-C8CB-4BF9-9BFB-41BC9B6C49AD}","global_id":"8f5a9e71-aed0-4f19-9d4a-b2be6be7306c"}},{"type":"Feature","geometry":{"type":"Polygon","coordinates":[[[-77.72793,38.30131],[-77.72813,38.30143],[-77.72804,38.30174],[-77.72724,38.30194],[-77.72769,38.30138],[-77.72793,38.30131]]]},"properties":{"fire_id":"ufid:2025-VAFSP-250002","source_collection":"history-2025","source_objectid":47819,"incident_name":"LAKE WILDERNESS 2","mapped_acres":0.01,"mapped_acres_source":"poly_GISAcres","gis_acres":0.01,"auto_acres":0.780595981884042,"reported_acres":1.0,"percent_contained":null,"state":"VA","state_wfigs":"US-VA","county":"Spotsylvania","discovery_time_utc":"2025-03-31T17:22:00Z","perimeter_time_utc":"2025-10-24T17:43:34Z","perimeter_edit_time_utc":null,"incident_modified_time_utc":"2025-04-11T16:19:54Z","containment_time_utc":null,"control_time_utc":null,"fire_out_time_utc":"2025-04-01T22:00:00Z","fire_cause":"Human","fire_cause_general":"Recreation and ceremony","map_method":"Hand Sketch","source_dataset":"FFP","unique_fire_identifier":"2025-VAFSP-250002","irwin_id":"{DF212A0B-5EA7-49C5-B7DA-2DFCFBB3E37F}","global_id":"0197a8e3-f837-46fb-9a02-2da40a817384"}},{"type":"Feature","geometry":{"type":"Polygon","coordinates":[[[-78.43041,38.51544],[-78.42978,38.51535],[-78.43001,38.51514],[-78.43026,38.5153],[-78.4307,38.51524],[-78.43106,38.51554],[-78.4309,38.51561],[-78.43099,38.51572],[-78.43061,38.51596],[-78.43043,38.5157],[-78.43023,38.51583],[-78.43012,38.51577],[-78.4304,38.5156],[-78.43041,38.51544]]]},"properties":{"fire_id":"ufid:2025-VASHP-250008","source_collection":"history-2025","source_objectid":47821,"incident_name":"Big Meadows Powerline","mapped_acres":1.0,"mapped_acres_source":"poly_GISAcres","gis_acres":1.0,"auto_acres":1.1193410766191916,"reported_acres":1.1,"percent_contained":null,"state":"VA","state_wfigs":"US-VA","county":"Madison","discovery_time_utc":"2025-03-24T14:30:00Z","perimeter_time_utc":"2025-10-24T17:49:55Z","perimeter_edit_time_utc":null,"incident_modified_time_utc":"2025-03-26T14:51:58Z","containment_time_utc":null,"control_time_utc":null,"fire_out_time_utc":"2025-03-25T16:00:00Z","fire_cause":"Human","fire_cause_general":"Power generation / transmission / distribution","map_method":"GPS-Walked","source_dataset":"FFP","unique_fire_identifier":"2025-VASHP-250008","irwin_id":"{5785D81D-1092-4F4C-8AAE-36F61BE469E2}","global_id":"e77d29db-2c4c-4f35-829d-71e7248e38e1"}},{"type":"Feature","geometry":{"type":"Polygon","coordinates":[[[-75.98641,36.73244],[-75.9863,36.73241],[-75.98632,36.73235],[-75.98641,36.73244]]]},"properties":{"fire_id":"ufid:2025-VABBR-VABBR1","source_collection":"history-2025","source_objectid":48387,"incident_name":"Lotus","mapped_acres":0.02,"mapped_acres_source":"poly_GISAcres","gis_acres":0.02,"auto_acres":0.018115109053542907,"reported_acres":0.1,"percent_contained":null,"state":"VA","state_wfigs":"US-VA","county":"Virginia Beach","discovery_time_utc":"2025-11-07T19:14:38Z","perimeter_time_utc":"2025-11-13T16:56:49Z","perimeter_edit_time_utc":null,"incident_modified_time_utc":"2025-11-09T11:54:46Z","containment_time_utc":"2025-11-07T20:01:00Z","control_time_utc":"2025-11-08T15:00:00Z","fire_out_time_utc":"2025-11-08T16:00:00Z","fire_cause":"Human","fire_cause_general":"Power generation / transmission / distribution","map_method":"Hand Sketch","source_dataset":"FFP","unique_fire_identifier":"2025-VABBR-VABBR1","irwin_id":"{B08F3991-C3A1-4A1A-979B-9E064A9E2CA8}","global_id":"18a788b1-f164-40cc-828c-234feabe9588"}},{"type":"Feature","geometry":{"type":"Polygon","coordinates":[[[-78.80348,38.06925],[-78.80331,38.06962],[-78.80352,38.06994],[-78.80324,38.07017],[-78.80287,38.06979],[-78.80262,38.06987],[-78.8021,38.06955],[-78.8022,38.06903],[-78.80242,38.06889],[-78.80243,38.06872],[-78.80278,38.0686],[-78.80287,38.0684],[-78.80241,38.06803],[-78.80243,38.06782],[-78.80231,38.06785],[-78.80201,38.06738],[-78.80216,38.06722],[-78.80213,38.06679],[-78.80226,38.06666],[-78.80223,38.06645],[-78.80198,38.0662],[-78.80231,38.06591],[-78.80295,38.06576],[-78.80362,38.06541],[-78.80387,38.06514],[-78.80415,38.06527],[-78.80395,38.06543],[-78.80404,38.0656],[-78.80433,38.06555],[-78.80446,38.06609],[-78.80471,38.06614],[-78.80448,38.06642],[-78.80467,38.06665],[-78.80455,38.06688],[-78.80401,38.06736],[-78.8043,38.06751],[-78.80435,38.06779],[-78.80469,38.06805],[-78.80485,38.06875],[-78.80453,38.06917],[-78.80348,38.06925]]]},"properties":{"fire_id":"ufid:2025-WVAPP-000002","source_collection":"history-2025","source_objectid":49592,"incident_name":"Bear Den Mtn","mapped_acres":21.35033,"mapped_acres_source":"poly_GISAcres","gis_acres":21.35033,"auto_acres":21.35024205605736,"reported_acres":21.0,"percent_contained":null,"state":"VA","state_wfigs":"US-VA","county":"Augusta","discovery_time_utc":"2025-11-17T01:00:00Z","perimeter_time_utc":"2025-12-18T14:25:24Z","perimeter_edit_time_utc":null,"incident_modified_time_utc":"2025-11-17T15:26:24Z","containment_time_utc":null,"control_time_utc":null,"fire_out_time_utc":"2025-12-04T20:45:00Z","fire_cause":"Human","fire_cause_general":"Power generation / transmission / distribution","map_method":"GPS-Walked","source_dataset":"FFP","unique_fire_identifier":"2025-WVAPP-000002","irwin_id":"{7BA83E52-0B0F-4E07-A07F-DEE3577F3053}","global_id":"d24d6ba4-dcd3-482b-adde-845db95b77c9"}},{"type":"Feature","geometry":{"type":"Polygon","coordinates":[[[-78.81067,38.07144],[-78.80983,38.07122],[-78.81128,38.07126],[-78.81165,38.07088],[-78.81198,38.07082],[-78.8123,38.0716],[-78.81196,38.07194],[-78.81114,38.07196],[-78.8108,38.07189],[-78.81067,38.07144]]]},"properties":{"fire_id":"ufid:2025-VASHP-250012","source_collection":"history-2025","source_objectid":49593,"incident_name":"Spring Fed","mapped_acres":3.115844,"mapped_acres_source":"poly_GISAcres","gis_acres":3.115844,"auto_acres":3.2317739003725556,"reported_acres":3.12,"percent_contained":null,"state":"VA","state_wfigs":"US-VA","county":"Augusta","discovery_time_utc":"2025-11-12T20:30:56Z","perimeter_time_utc":"2025-12-17T15:08:23Z","perimeter_edit_time_utc":null,"incident_modified_time_utc":"2025-12-17T16:12:45Z","containment_time_utc":null,"control_time_utc":null,"fire_out_time_utc":"2025-11-20T21:00:00Z","fire_cause":"Human","fire_cause_general":"Power generation/transmission/distribution","map_method":"Auto-generated for InFORM","source_dataset":"Decertified","unique_fire_identifier":"2025-VASHP-250012","irwin_id":"{67EB680B-B479-4807-95C9-A69EB782155C}","global_id":"74c91fa2-5cd6-4e1b-badd-2124a3518793"}},{"type":"Feature","geometry":{"type":"MultiPolygon","coordinates":[[[[-77.650169,38.310751],[-77.65224,38.31104],[-77.65173,38.31107],[-77.650169,38.310751]]],[[[-77.649759,38.310694],[-77.64864,38.31065],[-77.64824,38.31054],[-77.6483,38.31049],[-77.649759,38.310694]]],[[[-77.650169,38.310751],[-77.649759,38.310694],[-77.64992,38.3107],[-77.650169,38.310751]]]]},"properties":{"fire_id":"ufid:2025-VAFSP-250005","source_collection":"history-2025","source_objectid":49645,"incident_name":"Plank Rd","mapped_acres":0.5,"mapped_acres_source":"poly_GISAcres","gis_acres":0.5,"auto_acres":0.512678882885294,"reported_acres":0.5,"percent_contained":null,"state":"VA","state_wfigs":"US-VA","county":"Spotsylvania","discovery_time_utc":"2025-11-11T14:55:07Z","perimeter_time_utc":"2025-12-18T14:15:41Z","perimeter_edit_time_utc":null,"incident_modified_time_utc":"2025-11-12T17:11:52Z","containment_time_utc":null,"control_time_utc":"2025-11-11T16:00:00Z","fire_out_time_utc":"2025-11-12T14:00:00Z","fire_cause":"Human","fire_cause_general":"Equipment and vehicle use","map_method":"GPS-Walked","source_dataset":"FFP","unique_fire_identifier":"2025-VAFSP-250005","irwin_id":"{E140896A-CA16-4549-98EA-D8CA2538879C}","global_id":"85796c60-5d02-4590-855d-9109d9b44b1f"}},{"type":"Feature","geometry":{"type":"MultiPolygon","coordinates":[[[[-77.42254,38.57419],[-77.42168,38.57358],[-77.42176,38.5735],[-77.42201,38.57364],[-77.42202,38.57344],[-77.42227,38.57346],[-77.42252,38.57389],[-77.42254,38.57419]]],[[[-77.42232,38.57446],[-77.42202,38.57399],[-77.42263,38.57435],[-77.4225,38.57452],[-77.42232,38.57446]]]]},"properties":{"fire_id":"ufid:2025-VAPWP-250022","source_collection":"history-2025","source_objectid":49684,"incident_name":"Belfair","mapped_acres":0.9896758,"mapped_acres_source":"poly_GISAcres","gis_acres":0.9896758,"auto_acres":0.9896721240778922,"reported_acres":1.0,"percent_contained":null,"state":"VA","state_wfigs":"US-VA","county":"Prince William","discovery_time_utc":"2025-11-06T12:30:00Z","perimeter_time_utc":"2025-12-18T18:55:50Z","perimeter_edit_time_utc":null,"incident_modified_time_utc":"2025-11-14T18:27:12Z","containment_time_utc":null,"control_time_utc":null,"fire_out_time_utc":"2025-11-13T17:30:00Z","fire_cause":"Human","fire_cause_general":"Power generation / transmission / distribution","map_method":"GPS-Walked","source_dataset":"FFP","unique_fire_identifier":"2025-VAPWP-250022","irwin_id":"{7A3CE063-10CD-42E9-8046-86CC5D3064A8}","global_id":"20620869-d81d-4673-9d32-f07f7445e3bf"}},{"type":"Feature","geometry":{"type":"Polygon","coordinates":[[[-79.85237,38.09087],[-79.85117,38.09106],[-79.85044,38.09098],[-79.85008,38.09079],[-79.84946,38.09098],[-79.84776,38.09084],[-79.84774,38.09067],[-79.84744,38.09052],[-79.8478,38.08996],[-79.84772,38.08968],[-79.84737,38.08957],[-79.84688,38.08907],[-79.84705,38.08883],[-79.84791,38.0887],[-79.84823,38.08838],[-79.85023,38.08839],[-79.85064,38.08854],[-79.85091,38.08914],[-79.85186,38.08932],[-79.85291,38.09],[-79.85297,38.09033],[-79.85285,38.09067],[-79.85237,38.09087]]]},"properties":{"fire_id":"ufid:2025-VAVAF-250105","source_collection":"history-2025","source_objectid":50510,"incident_name":"Back Creek","mapped_acres":27.26,"mapped_acres_source":"poly_GISAcres","gis_acres":27.26,"auto_acres":27.255912301837867,"reported_acres":27.0,"percent_contained":null,"state":"VA","state_wfigs":"US-VA","county":"Bath","discovery_time_utc":"2025-11-17T10:38:00Z","perimeter_time_utc":"2026-01-29T14:51:40Z","perimeter_edit_time_utc":null,"incident_modified_time_utc":"2025-11-25T18:04:15Z","containment_time_utc":"2025-11-18T21:26:00Z","control_time_utc":"2025-11-25T18:02:00Z","fire_out_time_utc":"2025-11-25T18:02:00Z","fire_cause":"Human","fire_cause_general":"Power generation / transmission / distribution","map_method":"Hand Sketch","source_dataset":"FFP","unique_fire_identifier":"2025-VAVAF-250105","irwin_id":"{3969F1E9-545C-42D9-BEF8-866A85DD8AC7}","global_id":"3f655c97-8226-4e02-8ff4-4ba5d8bc74cb"}},{"type":"Feature","geometry":{"type":"Polygon","coordinates":[[[-79.73526,37.82393],[-79.73552,37.8245],[-79.73468,37.82474],[-79.73297,37.82471],[-79.73236,37.82457],[-79.73215,37.8242],[-79.73213,37.82352],[-79.73232,37.82313],[-79.73329,37.82293],[-79.73436,37.82337],[-79.73526,37.82393]]]},"properties":{"fire_id":"ufid:2025-VAVAS-250085","source_collection":"history-2025","source_objectid":52655,"incident_name":"Sharver's Run","mapped_acres":10.91,"mapped_acres_source":"poly_GISAcres","gis_acres":10.91,"auto_acres":10.914515496653191,"reported_acres":11.0,"percent_contained":null,"state":"VA","state_wfigs":"US-VA","county":"Alleghany","discovery_time_utc":"2025-08-27T01:06:00Z","perimeter_time_utc":"2026-04-23T14:57:03Z","perimeter_edit_time_utc":null,"incident_modified_time_utc":"2025-09-29T14:19:23Z","containment_time_utc":"2025-08-28T22:30:00Z","control_time_utc":"2025-09-11T20:00:00Z","fire_out_time_utc":"2025-09-11T20:00:00Z","fire_cause":"Natural","fire_cause_general":"Natural","map_method":"Hand Sketch","source_dataset":"FFP","unique_fire_identifier":"2025-VAVAS-250085","irwin_id":"{56A568BA-4ED7-4EAA-9573-3D46918DC983}","global_id":"5c44efdb-20b2-49e0-9ced-d1bbb9364fa4"}},{"type":"Feature","geometry":{"type":"Polygon","coordinates":[[[-79.28662,37.65753],[-79.28347,37.6554],[-79.28282,37.6557],[-79.28307,37.65599],[-79.28324,37.65663],[-79.28139,37.65731],[-79.2801,37.65658],[-79.27967,37.65647],[-79.27935,37.65545],[-79.27935,37.65475],[-79.2799,37.65405],[-79.28118,37.65307],[-79.28367,37.65203],[-79.28591,37.65294],[-79.28633,37.65411],[-79.28671,37.65597],[-79.28662,37.65753]]]},"properties":{"fire_id":"ufid:2025-VAVAF-250065","source_collection":"history-2025","source_objectid":53966,"incident_name":"Browns Creek","mapped_acres":63.94,"mapped_acres_source":"poly_GISAcres","gis_acres":63.94,"auto_acres":63.943385166289715,"reported_acres":64.0,"percent_contained":null,"state":"VA","state_wfigs":"US-VA","county":"Amherst","discovery_time_utc":"2025-04-16T13:47:00Z","perimeter_time_utc":"2026-05-20T14:47:52Z","perimeter_edit_time_utc":null,"incident_modified_time_utc":"2025-05-30T14:08:35Z","containment_time_utc":"2025-04-17T22:00:00Z","control_time_utc":"2025-04-27T18:30:00Z","fire_out_time_utc":"2025-05-07T04:00:00Z","fire_cause":"Natural","fire_cause_general":"Natural","map_method":"Hand Sketch","source_dataset":"FFP","unique_fire_identifier":"2025-VAVAF-250065","irwin_id":"{7A1E4458-4F2C-4893-9450-08C6F2E02DAF}","global_id":"32879e5e-2a3f-4b69-8aa4-45944039d997"}},{"type":"Feature","geometry":{"type":"Polygon","coordinates":[[[-77.87025,39.10613],[-77.86985,39.1064],[-77.86937,39.10637],[-77.86888,39.10615],[-77.86988,39.10589],[-77.87007,39.10591],[-77.87025,39.10613]]]},"properties":{"fire_id":"ufid:2025-WVAPP-250001","source_collection":"history-2025","source_objectid":54958,"incident_name":"Ebenezer","mapped_acres":1.0020834780588983,"mapped_acres_source":"poly_Acres_AutoCalc_fallback","gis_acres":null,"auto_acres":1.0020834780588983,"reported_acres":1.0,"percent_contained":null,"state":"VA","state_wfigs":"US-VA","county":"Clarke","discovery_time_utc":"2025-11-16T03:00:00Z","perimeter_time_utc":"2026-06-16T20:01:06Z","perimeter_edit_time_utc":null,"incident_modified_time_utc":"2025-12-18T14:56:18Z","containment_time_utc":null,"control_time_utc":null,"fire_out_time_utc":"2025-11-20T22:00:00Z","fire_cause":"Human","fire_cause_general":"Recreation and ceremony","map_method":"GPS-Walked","source_dataset":"FFP","unique_fire_identifier":"2025-WVAPP-250001","irwin_id":"{9F631154-A399-487E-9E05-1A5A004E0829}","global_id":"3b3e4022-f0e6-4275-abf4-41e568acd127"}}]}
