{"type":"FeatureCollection","features":[{"type":"Feature","geometry":{"type":"Polygon","coordinates":[[[-80.07045,38.21282],[-80.07159,38.21262],[-80.07414,38.21257],[-80.07378,38.21431],[-80.07313,38.21452],[-80.07281,38.21483],[-80.07186,38.21497],[-80.07128,38.21493],[-80.07104,38.21477],[-80.07067,38.21393],[-80.07045,38.21282]],[[-80.07375,38.21421],[-80.07375,38.21423],[-80.07377,38.21422],[-80.07375,38.21421]]]},"properties":{"fire_id":"ufid:2025-WVMOF-000321","source_collection":"history-2025","source_objectid":39442,"incident_name":"Marlin Mountain","mapped_acres":16.69625576182802,"mapped_acres_source":"poly_Acres_AutoCalc_fallback","gis_acres":null,"auto_acres":16.69625576182802,"reported_acres":16.7,"percent_contained":null,"state":"WV","state_wfigs":"US-WV","county":"Pocahontas","discovery_time_utc":"2025-04-22T17:49:00Z","perimeter_time_utc":"2025-05-12T17:38:10Z","perimeter_edit_time_utc":null,"incident_modified_time_utc":"2025-05-12T17:36:24Z","containment_time_utc":"2025-04-25T18:18:00Z","control_time_utc":"2025-04-30T19:26:00Z","fire_out_time_utc":"2025-05-02T21:50:00Z","fire_cause":"Human","fire_cause_general":"Arson","map_method":"GPS-Walked","source_dataset":"FFP","unique_fire_identifier":"2025-WVMOF-000321","irwin_id":"{D05A47F4-22F1-430A-874B-9FA770378863}","global_id":"dfcb43fc-9f0f-48a5-9751-2fb544f0829b"}},{"type":"Feature","geometry":{"type":"Polygon","coordinates":[[[-80.2109,37.86228],[-80.2114,37.86255],[-80.21222,37.86271],[-80.21298,37.8626],[-80.2135,37.86276],[-80.21359,37.86268],[-80.2146,37.86324],[-80.21645,37.86303],[-80.2169,37.86318],[-80.2169,37.86341],[-80.21671,37.86363],[-80.21558,37.86414],[-80.21498,37.86394],[-80.21487,37.86433],[-80.21497,37.86454],[-80.21519,37.86463],[-80.21515,37.86475],[-80.21547,37.86508],[-80.21572,37.86511],[-80.21577,37.8653],[-80.21562,37.86557],[-80.21532,37.86568],[-80.21507,37.86619],[-80.21487,37.8662],[-80.21468,37.86647],[-80.21391,37.86665],[-80.2138,37.86652],[-80.21365,37.86659],[-80.21394,37.86724],[-80.21388,37.86757],[-80.21409,37.86769],[-80.21395,37.86824],[-80.21383,37.86823],[-80.2139,37.86838],[-80.21367,37.86844],[-80.21357,37.86876],[-80.21371,37.86888],[-80.21359,37.86884],[-80.21354,37.86917],[-80.21374,37.86936],[-80.21361,37.86963],[-80.2138,37.86964],[-80.21358,37.86998],[-80.21369,37.86991],[-80.21365,37.87005],[-80.21411,37.87035],[-80.21414,37.87065],[-80.21433,37.87068],[-80.21428,37.87082],[-80.21448,37.87099],[-80.21439,37.87123],[-80.21464,37.87129],[-80.21468,37.87149],[-80.21456,37.87156],[-80.21464,37.87168],[-80.21477,37.87163],[-80.21476,37.87194],[-80.21498,37.87198],[-80.21495,37.87229],[-80.2152,37.87257],[-80.21509,37.87273],[-80.21531,37.87306],[-80.21523,37.87342],[-80.21544,37.87353],[-80.21535,37.87373],[-80.21574,37.8739],[-80.21572,37.87412],[-80.21553,37.87429],[-80.21558,37.87466],[-80.21519,37.87576],[-80.21534,37.87605],[-80.215,37.87655],[-80.21506,37.87725],[-80.21494,37.87749],[-80.21509,37.87756],[-80.21508,37.87794],[-80.21496,37.878],[-80.21517,37.87842],[-80.21503,37.8785],[-80.21504,37.87877],[-80.21537,37.87901],[-80.21539,37.8794],[-80.21562,37.87965],[-80.21546,37.8798],[-80.21503,37.87949],[-80.2148,37.87947],[-80.21381,37.87854],[-80.21349,37.87839],[-80.21185,37.87804],[-80.21147,37.87808],[-80.2113,37.8782],[-80.21112,37.87814],[-80.21099,37.87888],[-80.21034,37.87954],[-80.21036,37.87999],[-80.20961,37.88051],[-80.20874,37.88063],[-80.20863,37.88078],[-80.20812,37.88091],[-80.20801,37.88107],[-80.20754,37.88085],[-80.20632,37.88118],[-80.20642,37.88089],[-80.20631,37.88084],[-80.20642,37.88077],[-80.20632,37.88065],[-80.20661,37.88016],[-80.20629,37.87993],[-80.20632,37.87972],[-80.20608,37.87959],[-80.20614,37.87944],[-80.20603,37.87935],[-80.2062,37.87921],[-80.20593,37.87925],[-80.20602,37.87902],[-80.2055,37.87898],[-80.20565,37.87884],[-80.20552,37.87865],[-80.20561,37.87851],[-80.20541,37.87839],[-80.20545,37.8781],[-80.20528,37.87801],[-80.20541,37.8775],[-80.20524,37.87723],[-80.20524,37.87694],[-80.20494,37.87682],[-80.20496,37.8766],[-80.20475,37.87638],[-80.20478,37.87613],[-80.20446,37.87618],[-80.20458,37.87584],[-80.20441,37.87579],[-80.20446,37.87548],[-80.20391,37.8748],[-80.20412,37.87469],[-80.20395,37.87416],[-80.20415,37.87399],[-80.2039,37.87314],[-80.20414,37.87315],[-80.20406,37.87288],[-80.20373,37.87279],[-80.20352,37.87287],[-80.2037,37.87261],[-80.2035,37.87255],[-80.20369,37.87254],[-80.2036,37.87226],[-80.20377,37.87217],[-80.20382,37.8719],[-80.20369,37.87174],[-80.20383,37.8718],[-80.20384,37.87162],[-80.20398,37.87165],[-80.20414,37.87131],[-80.20409,37.87117],[-80.20418,37.87125],[-80.20429,37.87113],[-80.20444,37.87078],[-80.20443,37.87035],[-80.20484,37.87008],[-80.20442,37.87003],[-80.20453,37.86983],[-80.20425,37.86984],[-80.20447,37.86943],[-80.20459,37.86947],[-80.20455,37.86913],[-80.20493,37.86908],[-80.20513,37.8689],[-80.205,37.86875],[-80.20554,37.86835],[-80.20556,37.86796],[-80.20574,37.86773],[-80.20562,37.86769],[-80.20574,37.86764],[-80.20552,37.86731],[-80.20559,37.86717],[-80.2054,37.86704],[-80.20645,37.86548],[-80.20709,37.86368],[-80.2077,37.86306],[-80.20758,37.86286],[-80.208,37.86231],[-80.20795,37.86207],[-80.20825,37.86227],[-80.2085,37.86214],[-80.20887,37.8622],[-80.20892,37.86209],[-80.21006,37.86222],[-80.21016,37.86208],[-80.21033,37.86222],[-80.2107,37.86223],[-80.21072,37.86233],[-80.2109,37.86228]]]},"properties":{"fire_id":"ufid:2025-WVMOF-000308","source_collection":"history-2025","source_objectid":40028,"incident_name":"Whitman","mapped_acres":398.1861,"mapped_acres_source":"poly_GISAcres","gis_acres":398.1861,"auto_acres":398.18468397787734,"reported_acres":398.0,"percent_contained":null,"state":"WV","state_wfigs":"US-WV","county":"Greenbrier","discovery_time_utc":"2025-04-20T17:23:00Z","perimeter_time_utc":"2025-05-22T16:53:49Z","perimeter_edit_time_utc":null,"incident_modified_time_utc":"2025-05-22T13:31:27Z","containment_time_utc":"2025-04-22T20:00:00Z","control_time_utc":"2025-05-14T18:11:00Z","fire_out_time_utc":"2025-05-17T20:00:00Z","fire_cause":"Undetermined","fire_cause_general":"Undetermined","map_method":"Mixed Methods","source_dataset":"FFP","unique_fire_identifier":"2025-WVMOF-000308","irwin_id":"{3CE99B04-633D-430F-9328-0B42C1535A40}","global_id":"7beec5dd-7c81-44f3-800f-e6626145bd77"}},{"type":"Feature","geometry":{"type":"Polygon","coordinates":[[[-81.06998,37.83478],[-81.07015,37.83472],[-81.0701,37.83481],[-81.06998,37.83478]]]},"properties":{"fire_id":"ufid:2025-WVNRP-000453","source_collection":"history-2025","source_objectid":42761,"incident_name":"Shelter #2","mapped_acres":0.1,"mapped_acres_source":"poly_GISAcres","gis_acres":0.1,"auto_acres":0.03369704096580096,"reported_acres":0.1,"percent_contained":null,"state":"WV","state_wfigs":"US-WV","county":"Raleigh","discovery_time_utc":"2025-06-25T11:33:00Z","perimeter_time_utc":"2025-07-30T17:24:45Z","perimeter_edit_time_utc":null,"incident_modified_time_utc":"2025-07-07T12:21:38Z","containment_time_utc":"2025-06-25T14:00:00Z","control_time_utc":"2025-06-25T16:00:00Z","fire_out_time_utc":"2025-06-25T20:00:00Z","fire_cause":"Human","fire_cause_general":"Debris and open burning","map_method":"Mixed Methods","source_dataset":"FFP","unique_fire_identifier":"2025-WVNRP-000453","irwin_id":"{DD722C1A-9D71-4328-B917-275F2E38BDD8}","global_id":"34605322-bef1-4a59-8f31-31423dcaf60c"}},{"type":"Feature","geometry":{"type":"Polygon","coordinates":[[[-81.07899,37.96179],[-81.07901,37.96203],[-81.07835,37.9624],[-81.07823,37.96217],[-81.07809,37.96221],[-81.07804,37.96199],[-81.07785,37.96192],[-81.07803,37.96188],[-81.07803,37.96167],[-81.07773,37.96169],[-81.07778,37.96146],[-81.078,37.96146],[-81.07899,37.96179]]]},"properties":{"fire_id":"ufid:2025-WVNRP-000839","source_collection":"history-2025","source_objectid":48962,"incident_name":"Copper","mapped_acres":1.541451,"mapped_acres_source":"poly_GISAcres","gis_acres":1.541451,"auto_acres":1.5414450973797464,"reported_acres":14.0,"percent_contained":null,"state":"WV","state_wfigs":"US-WV","county":"Fayette","discovery_time_utc":"2025-11-28T23:53:00Z","perimeter_time_utc":"2025-12-03T21:42:01Z","perimeter_edit_time_utc":null,"incident_modified_time_utc":"2025-12-04T16:26:27Z","containment_time_utc":null,"control_time_utc":null,"fire_out_time_utc":"2025-12-03T18:00:00Z","fire_cause":"Human","fire_cause_general":null,"map_method":"Auto-generated for InFORM","source_dataset":"Decertified","unique_fire_identifier":"2025-WVNRP-000839","irwin_id":"{A4EDACD4-3958-4462-8653-3733FA760D4F}","global_id":"c92229b3-fc07-4bf6-918b-c3c4739490f8"}}]}
