{"type":"FeatureCollection","features":[{"type":"Feature","geometry":{"type":"Polygon","coordinates":[[[-79.28492,38.82176],[-79.28492,38.82145],[-79.28461,38.82148],[-79.28438,38.81986],[-79.28473,38.81893],[-79.28551,38.81926],[-79.28542,38.81919],[-79.28565,38.81912],[-79.28582,38.81885],[-79.28583,38.81913],[-79.28639,38.81922],[-79.28668,38.81955],[-79.28655,38.81968],[-79.28669,38.82025],[-79.28623,38.82108],[-79.28584,38.82101],[-79.28563,38.82121],[-79.28543,38.82122],[-79.28518,38.82148],[-79.28507,38.82182],[-79.28517,38.82193],[-79.28492,38.82176]]]},"properties":{"fire_id":"ufid:2025-WVMOF-000314","source_collection":"history-2025","source_objectid":39750,"incident_name":"Eagle rock","mapped_acres":10.59535551732539,"mapped_acres_source":"poly_Acres_AutoCalc_fallback","gis_acres":null,"auto_acres":10.59535551732539,"reported_acres":10.0,"percent_contained":null,"state":"WV","state_wfigs":"US-WV","county":"Pendleton","discovery_time_utc":"2025-04-21T16:29:00Z","perimeter_time_utc":"2025-05-13T18:09:10Z","perimeter_edit_time_utc":null,"incident_modified_time_utc":"2025-05-12T15:44:21Z","containment_time_utc":"2025-04-26T21:04:00Z","control_time_utc":"2025-04-30T20:30:00Z","fire_out_time_utc":"2025-05-05T13:14:00Z","fire_cause":"Human","fire_cause_general":"Power generation / transmission / distribution","map_method":"Mixed Methods","source_dataset":"FFP","unique_fire_identifier":"2025-WVMOF-000314","irwin_id":"{D18F3654-57E7-47EB-BA2A-95264A01AE0A}","global_id":"568e5606-cf95-4c68-9d98-13bf75ec249a"}},{"type":"Feature","geometry":{"type":"Polygon","coordinates":[[[-79.58404,38.58163],[-79.58356,38.58134],[-79.58323,38.58135],[-79.58309,38.58086],[-79.58334,38.57998],[-79.583,38.57985],[-79.58266,38.58013],[-79.58077,38.58039],[-79.57836,38.58097],[-79.57821,38.58],[-79.57545,38.58022],[-79.57476,38.57978],[-79.57458,38.57915],[-79.57413,38.57944],[-79.57306,38.57973],[-79.57326,38.5807],[-79.57307,38.58078],[-79.57217,38.58074],[-79.57159,38.58047],[-79.57142,38.58033],[-79.57151,38.5802],[-79.57118,38.58],[-79.57034,38.58],[-79.5694,38.57943],[-79.56907,38.57973],[-79.56883,38.57945],[-79.5682,38.57912],[-79.56831,38.57858],[-79.56842,38.57854],[-79.56832,38.57818],[-79.56859,38.57788],[-79.56853,38.57767],[-79.56923,38.57705],[-79.56954,38.57659],[-79.56937,38.57647],[-79.56943,38.57613],[-79.56883,38.57607],[-79.56868,38.57586],[-79.56853,38.57586],[-79.56858,38.57566],[-79.569,38.57548],[-79.56932,38.57558],[-79.56977,38.57544],[-79.56983,38.5752],[-79.5697,38.575],[-79.56991,38.57472],[-79.57169,38.57396],[-79.57171,38.5737],[-79.57147,38.57344],[-79.57155,38.5734],[-79.57141,38.57331],[-79.57135,38.57302],[-79.57161,38.57235],[-79.57208,38.5721],[-79.57282,38.57207],[-79.57307,38.57193],[-79.57474,38.57173],[-79.57496,38.57182],[-79.57525,38.57165],[-79.57536,38.57121],[-79.57699,38.5717],[-79.57831,38.57154],[-79.57823,38.57137],[-79.5784,38.57126],[-79.57899,38.57122],[-79.57938,38.57158],[-79.5797,38.57133],[-79.58001,38.57158],[-79.57993,38.5717],[-79.58047,38.5718],[-79.58076,38.57224],[-79.58245,38.57223],[-79.58542,38.57263],[-79.58589,38.57296],[-79.58613,38.5735],[-79.58654,38.57338],[-79.58705,38.57377],[-79.58891,38.57565],[-79.58932,38.57591],[-79.59035,38.57607],[-79.59103,38.57712],[-79.59102,38.57773],[-79.5907,38.57845],[-79.58996,38.5791],[-79.58809,38.57996],[-79.58603,38.5812],[-79.58476,38.58176],[-79.58404,38.58163]]]},"properties":{"fire_id":"ufid:2025-WVWVS-000780","source_collection":"history-2025","source_objectid":49564,"incident_name":"Woodside","mapped_acres":384.5652,"mapped_acres_source":"poly_GISAcres","gis_acres":384.5652,"auto_acres":384.56377920029485,"reported_acres":384.56,"percent_contained":null,"state":"WV","state_wfigs":"US-WV","county":"Pendleton","discovery_time_utc":"2025-11-05T16:58:28Z","perimeter_time_utc":"2025-12-16T13:50:02Z","perimeter_edit_time_utc":null,"incident_modified_time_utc":"2025-12-08T20:34:54Z","containment_time_utc":"2025-11-14T22:15:00Z","control_time_utc":"2025-11-20T20:20:00Z","fire_out_time_utc":"2025-12-05T16:00:00Z","fire_cause":"Human","fire_cause_general":"Debris and open burning","map_method":"Mixed Methods","source_dataset":"FFP","unique_fire_identifier":"2025-WVWVS-000780","irwin_id":"{77722694-9885-4C0B-86A7-42211074A766}","global_id":"bec9bb53-279b-45de-9218-2698ce33fa9e"}}]}
