{"type":"FeatureCollection","features":[{"type":"Feature","geometry":{"type":"Polygon","coordinates":[[[-151.09296,59.79017],[-151.09312,59.79021],[-151.09279,59.79034],[-151.09296,59.79017]]]},"properties":{"fire_id":"ufid:2024-AKKKS-403012","source_collection":"history-2024","source_objectid":29345,"incident_name":"Mile 22 East End Rd","mapped_acres":0.02685406,"mapped_acres_source":"poly_GISAcres","gis_acres":0.02685406,"auto_acres":0.02685396788036821,"reported_acres":0.03,"percent_contained":null,"state":"AK","state_wfigs":"US-AK","county":"Kenai Peninsula","discovery_time_utc":"2024-04-15T22:55:59Z","perimeter_time_utc":"2024-08-30T18:56:48Z","perimeter_edit_time_utc":"2024-08-30T18:56:48Z","incident_modified_time_utc":"2024-07-03T00:30:32Z","containment_time_utc":"2024-04-16T02:00:00Z","control_time_utc":"2024-04-17T21:30:00Z","fire_out_time_utc":"2024-04-17T23:07:00Z","fire_cause":"Human","fire_cause_general":"Other causes","map_method":"Mixed Methods","source_dataset":"FFP","unique_fire_identifier":"2024-AKKKS-403012","irwin_id":"{C11F84C8-DC68-4259-8271-FCE580E5FE7E}","global_id":"2150f6cb-f0c9-47aa-80fe-1ef10ffadaa4"}},{"type":"Feature","geometry":{"type":"Polygon","coordinates":[[[-151.52514,59.64632],[-151.52561,59.6463],[-151.52555,59.64641],[-151.52513,59.64647],[-151.52514,59.64632]]]},"properties":{"fire_id":"ufid:2024-AKKKS-403207","source_collection":"history-2024","source_objectid":29457,"incident_name":"Lake St","mapped_acres":0.1164208,"mapped_acres_source":"poly_GISAcres","gis_acres":0.1164208,"auto_acres":0.11642060070985019,"reported_acres":0.1,"percent_contained":null,"state":"AK","state_wfigs":"US-AK","county":"Kenai Peninsula","discovery_time_utc":"2024-06-22T02:22:12Z","perimeter_time_utc":"2024-07-15T18:06:06Z","perimeter_edit_time_utc":"2024-07-15T18:06:06Z","incident_modified_time_utc":"2024-06-28T21:42:36Z","containment_time_utc":"2024-06-22T03:50:00Z","control_time_utc":"2024-06-22T03:51:00Z","fire_out_time_utc":"2024-06-24T23:03:00Z","fire_cause":"Human","fire_cause_general":"Other causes","map_method":"Mixed Methods","source_dataset":"FFP","unique_fire_identifier":"2024-AKKKS-403207","irwin_id":"{2119863B-9507-4A6B-A7FB-80452E9827B5}","global_id":"6618b042-377e-4bdb-b847-d2c3044401d4"}}]}
