{"type":"FeatureCollection","features":[{"type":"Feature","geometry":{"type":"Polygon","coordinates":[[[-85.20026,34.6857],[-85.20015,34.68633],[-85.19974,34.6865],[-85.19987,34.68637],[-85.19969,34.6862],[-85.19922,34.68645],[-85.19894,34.68561],[-85.19833,34.68526],[-85.19769,34.68437],[-85.1977,34.684],[-85.19746,34.6839],[-85.19819,34.6834],[-85.19857,34.68337],[-85.19949,34.6836],[-85.19973,34.68385],[-85.20061,34.68431],[-85.20089,34.68459],[-85.20088,34.68499],[-85.20053,34.6853],[-85.20061,34.68542],[-85.20079,34.68539],[-85.20113,34.68512],[-85.20115,34.68566],[-85.20026,34.6857]]]},"properties":{"fire_id":"ufid:2024-GAGAS-240033","source_collection":"history-2024","source_objectid":30762,"incident_name":"South Maddox Gap","mapped_acres":0.25,"mapped_acres_source":"poly_GISAcres","gis_acres":0.25,"auto_acres":15.713624966284538,"reported_acres":15.7,"percent_contained":null,"state":"GA","state_wfigs":"US-GA","county":"Walker","discovery_time_utc":"2024-02-24T20:04:55Z","perimeter_time_utc":"2024-08-09T12:59:43Z","perimeter_edit_time_utc":"2024-08-09T12:59:44Z","incident_modified_time_utc":"2024-04-03T16:38:36Z","containment_time_utc":"2024-02-25T01:25:00Z","control_time_utc":"2024-02-25T05:00:00Z","fire_out_time_utc":"2024-03-01T20:25:00Z","fire_cause":"Human","fire_cause_general":"Power generation / transmission / distribution","map_method":"Hand Sketch","source_dataset":"FFP","unique_fire_identifier":"2024-GAGAS-240033","irwin_id":"{510D0853-0C93-426C-844E-FBED2ED63BAB}","global_id":"d80f921f-0a33-4e0e-9432-87716f934b31"}},{"type":"Feature","geometry":{"type":"Polygon","coordinates":[[[-85.31243,34.45992],[-85.31351,34.45981],[-85.31389,34.46007],[-85.31455,34.46003],[-85.31516,34.46015],[-85.31572,34.46097],[-85.31573,34.46142],[-85.3153,34.46151],[-85.31546,34.46167],[-85.31541,34.46182],[-85.31506,34.46197],[-85.31498,34.46225],[-85.31473,34.46233],[-85.31458,34.46214],[-85.31465,34.46136],[-85.31411,34.46134],[-85.31379,34.46112],[-85.31375,34.46079],[-85.31302,34.4612],[-85.31239,34.46123],[-85.31228,34.46138],[-85.31143,34.46123],[-85.31081,34.4614],[-85.31031,34.46111],[-85.31009,34.46113],[-85.30994,34.4609],[-85.30981,34.46009],[-85.31025,34.45993],[-85.31046,34.46],[-85.31063,34.45968],[-85.31115,34.45925],[-85.3117,34.45917],[-85.31201,34.45935],[-85.31197,34.45968],[-85.31243,34.45992]]]},"properties":{"fire_id":"ufid:2024-GAGAS-240080","source_collection":"history-2024","source_objectid":30764,"incident_name":"Sloppy Floyd Lake Rd","mapped_acres":22.0,"mapped_acres_source":"poly_GISAcres","gis_acres":22.0,"auto_acres":21.950319368686564,"reported_acres":22.0,"percent_contained":null,"state":"GA","state_wfigs":"US-GA","county":"Chattooga","discovery_time_utc":"2024-03-25T03:06:23Z","perimeter_time_utc":"2024-08-09T13:00:38Z","perimeter_edit_time_utc":"2024-08-09T13:00:39Z","incident_modified_time_utc":"2024-06-26T12:54:27Z","containment_time_utc":"2024-03-25T06:21:00Z","control_time_utc":"2024-04-01T18:53:00Z","fire_out_time_utc":"2024-04-05T16:00:00Z","fire_cause":"Human","fire_cause_general":"Debris and open burning","map_method":"Hand Sketch","source_dataset":"FFP","unique_fire_identifier":"2024-GAGAS-240080","irwin_id":"{BD5FABB0-44B2-4E16-A7C5-BE1302C4267F}","global_id":"367bb90c-83e7-40c8-90f0-0060b8e7dd92"}}]}
