{"type":"FeatureCollection","features":[{"type":"Feature","geometry":{"type":"Polygon","coordinates":[[[-83.17196,34.9662],[-83.17332,34.96729],[-83.17417,34.96711],[-83.17501,34.9677],[-83.17576,34.96801],[-83.17551,34.96891],[-83.17507,34.9695],[-83.17444,34.96954],[-83.17381,34.97001],[-83.17293,34.97101],[-83.17186,34.97185],[-83.17148,34.97199],[-83.1708,34.97158],[-83.17058,34.97106],[-83.17056,34.97053],[-83.17082,34.9699],[-83.17091,34.96899],[-83.17137,34.96812],[-83.17132,34.96696],[-83.17154,34.96646],[-83.17196,34.9662]]]},"properties":{"fire_id":"ufid:2024-GACHF-240098","source_collection":"history-2024","source_objectid":25643,"incident_name":"Glade","mapped_acres":20.0,"mapped_acres_source":"poly_GISAcres","gis_acres":20.0,"auto_acres":41.19650921542665,"reported_acres":41.31,"percent_contained":null,"state":"GA","state_wfigs":"US-GA","county":"Rabun","discovery_time_utc":"2024-04-08T16:10:00Z","perimeter_time_utc":"2024-11-07T14:06:00Z","perimeter_edit_time_utc":"2024-11-07T14:06:01Z","incident_modified_time_utc":"2024-04-15T15:21:06Z","containment_time_utc":"2024-04-09T01:17:00Z","control_time_utc":"2024-04-10T14:00:00Z","fire_out_time_utc":"2024-04-15T15:20:00Z","fire_cause":"Human","fire_cause_general":"Undetermined","map_method":"Hand Sketch","source_dataset":"FFP","unique_fire_identifier":"2024-GACHF-240098","irwin_id":"{74730650-C686-447D-BE1F-D844DFA15B5B}","global_id":"2162bb51-f457-4b0f-9a98-0d7939f0c237"}},{"type":"Feature","geometry":{"type":"Polygon","coordinates":[[[-84.04885,34.58264],[-84.04907,34.58241],[-84.04937,34.58242],[-84.04969,34.58205],[-84.05014,34.58188],[-84.05062,34.58187],[-84.05063,34.58257],[-84.05025,34.58296],[-84.0501,34.58342],[-84.05026,34.58467],[-84.04845,34.58554],[-84.04825,34.58592],[-84.04756,34.58659],[-84.04701,34.58673],[-84.04655,34.5866],[-84.04651,34.5869],[-84.04586,34.58749],[-84.04491,34.58752],[-84.04413,34.58735],[-84.04381,34.58736],[-84.04381,34.58753],[-84.04353,34.58747],[-84.04311,34.58706],[-84.04309,34.58687],[-84.04371,34.58641],[-84.04357,34.58621],[-84.0441,34.58602],[-84.04405,34.58561],[-84.04301,34.58505],[-84.04276,34.58525],[-84.04253,34.58518],[-84.0425,34.58539],[-84.0422,34.58534],[-84.04215,34.58492],[-84.0412,34.58435],[-84.04088,34.58375],[-84.04108,34.58298],[-84.04097,34.58276],[-84.04106,34.58258],[-84.04167,34.58246],[-84.04173,34.58221],[-84.04225,34.58265],[-84.04332,34.58229],[-84.04463,34.58264],[-84.04499,34.58305],[-84.04522,34.58298],[-84.04582,34.58323],[-84.04608,34.58355],[-84.04608,34.58388],[-84.04626,34.58412],[-84.04634,34.58379],[-84.04659,34.58348],[-84.04686,34.58346],[-84.04687,34.58326],[-84.04712,34.58301],[-84.04745,34.58293],[-84.04868,34.58363],[-84.04891,34.58345],[-84.04878,34.58327],[-84.04885,34.58264]]]},"properties":{"fire_id":"ufid:2024-GACHF-240060","source_collection":"history-2024","source_objectid":30763,"incident_name":"OHV","mapped_acres":5.0,"mapped_acres_source":"poly_GISAcres","gis_acres":5.0,"auto_acres":76.60251064652846,"reported_acres":76.6,"percent_contained":null,"state":"GA","state_wfigs":"US-GA","county":"Lumpkin","discovery_time_utc":"2024-03-14T21:33:03Z","perimeter_time_utc":"2024-08-09T13:02:32Z","perimeter_edit_time_utc":"2024-08-09T13:02:32Z","incident_modified_time_utc":"2024-06-26T13:00:56Z","containment_time_utc":"2024-03-22T15:55:00Z","control_time_utc":"2024-03-22T15:55:00Z","fire_out_time_utc":"2024-03-24T16:00:00Z","fire_cause":"Human","fire_cause_general":"Undetermined","map_method":"Hand Sketch","source_dataset":"FFP","unique_fire_identifier":"2024-GACHF-240060","irwin_id":"{7FA6A2BA-9917-47DC-85D1-25BD43E9B350}","global_id":"1a442894-d792-48dd-ae95-dff21d10c18c"}},{"type":"Feature","geometry":{"type":"Polygon","coordinates":[[[-84.14237,34.85511],[-84.14204,34.85484],[-84.14214,34.85465],[-84.14194,34.85373],[-84.14227,34.85339],[-84.14217,34.85306],[-84.14263,34.85245],[-84.14257,34.85227],[-84.14308,34.85285],[-84.14388,34.85284],[-84.14385,34.85294],[-84.1441,34.85307],[-84.14422,34.85367],[-84.14407,34.85444],[-84.14395,34.85455],[-84.14237,34.85511]]]},"properties":{"fire_id":"ufid:2024-GACHF-240087","source_collection":"history-2024","source_objectid":30780,"incident_name":"Darlene","mapped_acres":2.0,"mapped_acres_source":"poly_GISAcres","gis_acres":2.0,"auto_acres":10.594392611029233,"reported_acres":11.5,"percent_contained":null,"state":"GA","state_wfigs":"US-GA","county":"Fannin","discovery_time_utc":"2024-03-30T23:20:50Z","perimeter_time_utc":"2024-08-09T17:00:23Z","perimeter_edit_time_utc":"2024-08-09T17:00:24Z","incident_modified_time_utc":"2024-06-26T13:03:30Z","containment_time_utc":"2024-04-02T16:47:00Z","control_time_utc":"2024-04-05T15:14:00Z","fire_out_time_utc":"2024-04-13T15:08:00Z","fire_cause":"Human","fire_cause_general":"Undetermined","map_method":"Hand Sketch","source_dataset":"FFP","unique_fire_identifier":"2024-GACHF-240087","irwin_id":"{A412B53C-D1DE-4165-B051-DF8FCF9285EC}","global_id":"c610a1a8-ddea-4cc3-a776-1829bbaa17e4"}},{"type":"Feature","geometry":{"type":"Polygon","coordinates":[[[-80.97553,31.8817],[-80.97483,31.88223],[-80.97434,31.88204],[-80.97389,31.8822],[-80.97386,31.88247],[-80.97343,31.88247],[-80.97352,31.88268],[-80.97321,31.88275],[-80.97277,31.8831],[-80.97232,31.88266],[-80.97216,31.88264],[-80.97208,31.8828],[-80.9719,31.88278],[-80.97164,31.883],[-80.97149,31.88333],[-80.97122,31.88321],[-80.97104,31.88328],[-80.97114,31.88302],[-80.97097,31.88291],[-80.97059,31.88295],[-80.97065,31.88312],[-80.97033,31.88335],[-80.97043,31.88377],[-80.97001,31.88383],[-80.96988,31.88423],[-80.96932,31.88432],[-80.96924,31.88447],[-80.96896,31.88413],[-80.9688,31.88416],[-80.96861,31.88439],[-80.9684,31.88442],[-80.96827,31.88467],[-80.9677,31.88494],[-80.96767,31.88509],[-80.96732,31.88508],[-80.96733,31.8849],[-80.96837,31.88433],[-80.96792,31.88388],[-80.9678,31.88339],[-80.9672,31.88361],[-80.96732,31.88375],[-80.96711,31.88387],[-80.96703,31.88419],[-80.9668,31.88424],[-80.96682,31.88447],[-80.96644,31.88424],[-80.96615,31.8843],[-80.96635,31.8846],[-80.96595,31.88479],[-80.96563,31.88474],[-80.96579,31.88433],[-80.96545,31.88416],[-80.96539,31.88384],[-80.96525,31.88374],[-80.96604,31.88301],[-80.96661,31.88279],[-80.96675,31.88233],[-80.96749,31.88168],[-80.96795,31.88155],[-80.96821,31.88104],[-80.96879,31.88068],[-80.96883,31.88052],[-80.96911,31.88053],[-80.96946,31.88012],[-80.96995,31.87993],[-80.97078,31.87902],[-80.97133,31.87877],[-80.9727,31.87762],[-80.97305,31.87709],[-80.97389,31.87642],[-80.97395,31.87619],[-80.97463,31.87577],[-80.97544,31.87496],[-80.97668,31.87407],[-80.97708,31.87352],[-80.97879,31.87201],[-80.97956,31.87206],[-80.98008,31.87255],[-80.98025,31.87312],[-80.98066,31.87358],[-80.98057,31.87377],[-80.98089,31.87432],[-80.98209,31.87479],[-80.98223,31.87496],[-80.98229,31.8755],[-80.98316,31.87628],[-80.9787,31.87939],[-80.97857,31.87949],[-80.97858,31.87969],[-80.97824,31.87973],[-80.97596,31.8813],[-80.97577,31.88178],[-80.97553,31.8817]]]},"properties":{"fire_id":"ufid:2024-SCWAR-240298","source_collection":"history-2024","source_objectid":31773,"incident_name":"Pavilion Trail","mapped_acres":210.3,"mapped_acres_source":"poly_GISAcres","gis_acres":210.3,"auto_acres":210.27035923718293,"reported_acres":210.0,"percent_contained":null,"state":"GA","state_wfigs":"US-GA","county":"Chatham","discovery_time_utc":"2024-07-13T19:00:00Z","perimeter_time_utc":"2024-09-03T16:37:34Z","perimeter_edit_time_utc":"2024-09-03T16:37:34Z","incident_modified_time_utc":"2024-08-01T19:35:53Z","containment_time_utc":"2024-07-28T13:00:00Z","control_time_utc":"2024-07-30T12:00:00Z","fire_out_time_utc":"2024-07-31T12:00:00Z","fire_cause":"Natural","fire_cause_general":"Natural","map_method":"Auto-generated","source_dataset":"FFP","unique_fire_identifier":"2024-SCWAR-240298","irwin_id":"{2FD94F46-78D2-4031-BBB1-46A92481F3D5}","global_id":"acc6dbea-5855-4300-ae72-e9b6a3a9d182"}},{"type":"Feature","geometry":{"type":"Polygon","coordinates":[[[-82.11295,30.74912],[-82.11229,30.74979],[-82.11212,30.74979],[-82.11182,30.74956],[-82.11151,30.74874],[-82.11226,30.7481],[-82.11324,30.74861],[-82.1133,30.74901],[-82.11295,30.74912]]]},"properties":{"fire_id":"ufid:2024-GAOKR-001330","source_collection":"history-2024","source_objectid":33885,"incident_name":"Branch Head Road","mapped_acres":4.5,"mapped_acres_source":"poly_GISAcres","gis_acres":4.5,"auto_acres":4.6896684955997765,"reported_acres":0.25,"percent_contained":null,"state":"GA","state_wfigs":"US-GA","county":"Charlton","discovery_time_utc":"2024-04-30T16:37:52Z","perimeter_time_utc":"2024-10-28T14:35:59Z","perimeter_edit_time_utc":"2024-10-28T14:35:59Z","incident_modified_time_utc":"2024-06-13T16:59:35Z","containment_time_utc":"2024-04-30T19:30:00Z","control_time_utc":null,"fire_out_time_utc":"2024-05-11T16:59:00Z","fire_cause":"Human","fire_cause_general":"Equipment and vehicle use","map_method":"Auto-generated","source_dataset":"FFP","unique_fire_identifier":"2024-GAOKR-001330","irwin_id":"{1E4F84F2-F225-42F1-BFEF-4685DA0B6A4D}","global_id":"abb0185e-c18f-4515-b5be-5bcffa731a9a"}},{"type":"Feature","geometry":{"type":"Polygon","coordinates":[[[-83.09388,31.03611],[-83.09384,31.03556],[-83.09408,31.03512],[-83.09389,31.03499],[-83.09402,31.03479],[-83.0944,31.03463],[-83.09516,31.03462],[-83.09517,31.03508],[-83.09464,31.03572],[-83.09461,31.03612],[-83.09388,31.03611]]]},"properties":{"fire_id":"ufid:2024-GABNR-002805","source_collection":"history-2024","source_objectid":34149,"incident_name":"Banks Lake","mapped_acres":2.2,"mapped_acres_source":"poly_GISAcres","gis_acres":2.2,"auto_acres":3.630686618675123,"reported_acres":6.6,"percent_contained":null,"state":"GA","state_wfigs":"US-GA","county":"Lanier","discovery_time_utc":"2024-10-20T15:00:00Z","perimeter_time_utc":"2024-11-04T14:06:58Z","perimeter_edit_time_utc":"2024-11-04T14:06:58Z","incident_modified_time_utc":"2024-11-01T15:53:58Z","containment_time_utc":"2024-10-21T18:00:00Z","control_time_utc":"2024-10-24T16:00:00Z","fire_out_time_utc":"2024-11-04T14:06:00Z","fire_cause":"Human","fire_cause_general":"Debris and open burning","map_method":"Auto-generated for InFORM","source_dataset":"FFP","unique_fire_identifier":"2024-GABNR-002805","irwin_id":"{6DC75AFE-FB4F-44B1-878B-25010DAAD925}","global_id":"49e73244-54d2-4e6e-805b-dcfe1f7f960f"}},{"type":"Feature","geometry":{"type":"Polygon","coordinates":[[[-84.35414,34.01044],[-84.35408,34.01063],[-84.3543,34.0105],[-84.35449,34.01073],[-84.35425,34.01099],[-84.35337,34.01101],[-84.35382,34.01076],[-84.35376,34.01016],[-84.35414,34.01044]]]},"properties":{"fire_id":"ufid:2024-GAPDR-240067","source_collection":"history-2024","source_objectid":35793,"incident_name":"Vickery Creek","mapped_acres":2.0,"mapped_acres_source":"poly_GISAcres","gis_acres":2.0,"auto_acres":1.0032468290337468,"reported_acres":1.0,"percent_contained":null,"state":"GA","state_wfigs":"US-GA","county":"Fulton","discovery_time_utc":"2024-03-19T12:15:00Z","perimeter_time_utc":"2024-12-12T20:07:13Z","perimeter_edit_time_utc":"2024-12-12T20:07:13Z","incident_modified_time_utc":"2024-12-12T19:09:16Z","containment_time_utc":null,"control_time_utc":null,"fire_out_time_utc":"2024-03-22T22:00:00Z","fire_cause":"Human","fire_cause_general":"Fireworks","map_method":"Auto-generated","source_dataset":"FFP","unique_fire_identifier":"2024-GAPDR-240067","irwin_id":"{97478B2F-780C-4C86-B7AA-7AEA2E494FF2}","global_id":"160ebf98-6a81-4978-9200-e9cda4aba425"}}]}
