{"type":"FeatureCollection","features":[{"type":"Feature","geometry":{"type":"Polygon","coordinates":[[[-92.64376,41.99948],[-92.64295,41.99908],[-92.64239,41.9992],[-92.64216,41.99899],[-92.64141,41.99897],[-92.64153,41.99876],[-92.64114,41.99881],[-92.64092,41.9984],[-92.64018,41.99812],[-92.64026,41.9976],[-92.64046,41.99751],[-92.6416,41.99767],[-92.64267,41.99846],[-92.64284,41.99878],[-92.64326,41.99869],[-92.64385,41.9992],[-92.64367,41.9993],[-92.64376,41.99948]]]},"properties":{"fire_id":"ufid:2024-IASFA-F5124001","source_collection":"history-2024","source_objectid":24554,"incident_name":"Kapayou 241","mapped_acres":6.52,"mapped_acres_source":"poly_GISAcres","gis_acres":6.52,"auto_acres":6.5210438244232085,"reported_acres":6.52,"percent_contained":null,"state":"IA","state_wfigs":"US-IA","county":"Tama","discovery_time_utc":"2024-02-22T20:18:36Z","perimeter_time_utc":"2024-03-01T15:33:02Z","perimeter_edit_time_utc":"2024-03-01T15:33:03Z","incident_modified_time_utc":"2024-02-23T16:52:28Z","containment_time_utc":null,"control_time_utc":null,"fire_out_time_utc":"2024-02-22T22:00:00Z","fire_cause":"Human","fire_cause_general":"Arson","map_method":"Hand Sketch","source_dataset":"FFP","unique_fire_identifier":"2024-IASFA-F5124001","irwin_id":"{DFC2D101-0B7D-425F-8361-D3E8827CE911}","global_id":"c3a6df92-f9c2-4e89-8b52-addb3df66918"}},{"type":"Feature","geometry":{"type":"Polygon","coordinates":[[[-92.16174,41.82604],[-92.16169,41.82641],[-92.15273,41.82613],[-92.15122,41.82451],[-92.15106,41.82261],[-92.15415,41.82254],[-92.15424,41.82355],[-92.15506,41.82352],[-92.15496,41.8226],[-92.15793,41.82256],[-92.15789,41.82478],[-92.15818,41.82505],[-92.15935,41.82474],[-92.16076,41.82469],[-92.16174,41.82604]]]},"properties":{"fire_id":"ufid:2024-IAPLR-000001","source_collection":"history-2024","source_objectid":24643,"incident_name":"Formanek","mapped_acres":62.0,"mapped_acres_source":"poly_GISAcres","gis_acres":62.0,"auto_acres":63.2305184202061,"reported_acres":62.0,"percent_contained":null,"state":"IA","state_wfigs":"US-IA","county":"Iowa","discovery_time_utc":"2024-02-12T19:13:22Z","perimeter_time_utc":"2024-03-05T20:32:10Z","perimeter_edit_time_utc":"2024-03-05T20:32:10Z","incident_modified_time_utc":"2024-02-14T19:15:49Z","containment_time_utc":null,"control_time_utc":null,"fire_out_time_utc":"2024-03-05T20:30:00Z","fire_cause":"Undetermined","fire_cause_general":"Undetermined","map_method":"Hand Sketch","source_dataset":"FFP","unique_fire_identifier":"2024-IAPLR-000001","irwin_id":"{3EB460C8-8243-4908-B64C-1F58396622B3}","global_id":"4aa26a48-dc6a-46fe-9b09-d50774e47f7e"}},{"type":"Feature","geometry":{"type":"MultiPolygon","coordinates":[[[[-92.6405,41.96416],[-92.6405,41.96415],[-92.64051,41.96416],[-92.6405,41.96416]]],[[[-92.6405,41.96416],[-92.64053,41.96518],[-92.64072,41.96557],[-92.64117,41.96594],[-92.64262,41.96621],[-92.64318,41.96595],[-92.64456,41.96619],[-92.64493,41.96643],[-92.64509,41.96685],[-92.64482,41.96719],[-92.64485,41.9675],[-92.64458,41.96777],[-92.64483,41.96814],[-92.64354,41.96778],[-92.64238,41.96805],[-92.64133,41.9688],[-92.64075,41.9689],[-92.64049,41.96873],[-92.6404,41.96843],[-92.64045,41.96714],[-92.63996,41.96681],[-92.63915,41.96649],[-92.63767,41.96665],[-92.63684,41.96643],[-92.6366,41.96612],[-92.63631,41.96513],[-92.6366,41.96417],[-92.6405,41.96416]]],[[[-92.64874,41.97422],[-92.64855,41.97407],[-92.64725,41.97411],[-92.64753,41.97346],[-92.6474,41.97226],[-92.64759,41.97135],[-92.64738,41.97108],[-92.64747,41.97067],[-92.64703,41.97063],[-92.6468,41.97103],[-92.64718,41.97127],[-92.64668,41.97162],[-92.64471,41.97145],[-92.64407,41.97121],[-92.64388,41.97099],[-92.64395,41.97067],[-92.64454,41.97015],[-92.64493,41.96958],[-92.64564,41.96965],[-92.64594,41.96952],[-92.64614,41.96925],[-92.6463,41.96834],[-92.64677,41.96866],[-92.64734,41.96996],[-92.64789,41.96999],[-92.6483,41.9698],[-92.64846,41.96985],[-92.64895,41.97009],[-92.64955,41.97085],[-92.64997,41.97098],[-92.64991,41.97125],[-92.64968,41.97138],[-92.64973,41.97187],[-92.65019,41.97202],[-92.65212,41.97201],[-92.65229,41.97214],[-92.65193,41.97269],[-92.65191,41.97305],[-92.65201,41.9735],[-92.6519,41.97402],[-92.65225,41.97457],[-92.65142,41.97473],[-92.64874,41.97422]]]]},"properties":{"fire_id":"ufid:2024-IASFA-F5124003","source_collection":"history-2024","source_objectid":24888,"incident_name":"E49","mapped_acres":100.0,"mapped_acres_source":"poly_GISAcres","gis_acres":100.0,"auto_acres":93.6878851057575,"reported_acres":100.0,"percent_contained":null,"state":"IA","state_wfigs":"US-IA","county":"Tama","discovery_time_utc":"2024-03-11T20:07:49Z","perimeter_time_utc":"2024-03-12T01:07:49Z","perimeter_edit_time_utc":"2024-03-19T14:06:00Z","incident_modified_time_utc":"2024-03-19T13:45:39Z","containment_time_utc":null,"control_time_utc":null,"fire_out_time_utc":null,"fire_cause":null,"fire_cause_general":null,"map_method":"Hand Sketch","source_dataset":"2024 NIFS","unique_fire_identifier":"2024-IASFA-F5124003","irwin_id":"{8D9C286E-174F-4E31-986C-D2BA571B5F21}","global_id":"5d14d9a9-bfdf-40ab-8fc3-0a82258b5a46"}},{"type":"Feature","geometry":{"type":"Polygon","coordinates":[[[-92.63742,42.00468],[-92.6374,42.00455],[-92.63719,42.00452],[-92.63736,42.00406],[-92.63717,42.00368],[-92.63735,42.00353],[-92.63753,42.00364],[-92.63761,42.00401],[-92.63742,42.00468]]]},"properties":{"fire_id":"ufid:2024-IASFA-F5124004","source_collection":"history-2024","source_objectid":24891,"incident_name":"East Village Road","mapped_acres":0.5,"mapped_acres_source":"poly_GISAcres","gis_acres":0.5,"auto_acres":0.712063836434163,"reported_acres":0.5,"percent_contained":null,"state":"IA","state_wfigs":"US-IA","county":"Tama","discovery_time_utc":"2024-03-11T21:45:17Z","perimeter_time_utc":"2024-03-12T02:45:17Z","perimeter_edit_time_utc":"2024-03-19T14:27:25Z","incident_modified_time_utc":"2024-03-19T14:20:55Z","containment_time_utc":null,"control_time_utc":null,"fire_out_time_utc":null,"fire_cause":null,"fire_cause_general":null,"map_method":"Hand Sketch","source_dataset":"2024 NIFS","unique_fire_identifier":"2024-IASFA-F5124004","irwin_id":"{B305B516-58F4-4D85-9E35-9740DEEAA13C}","global_id":"18bc6eb6-2de4-4b06-8536-706b2d597178"}},{"type":"Feature","geometry":{"type":"Polygon","coordinates":[[[-92.61082,41.96698],[-92.61175,41.96715],[-92.61171,41.96739],[-92.61242,41.96733],[-92.61443,41.96766],[-92.6183,41.96866],[-92.61806,41.96882],[-92.61672,41.96875],[-92.61635,41.9689],[-92.61587,41.96883],[-92.61542,41.96842],[-92.61455,41.96844],[-92.61383,41.96824],[-92.61277,41.96823],[-92.61218,41.96791],[-92.61152,41.96786],[-92.61142,41.96717],[-92.61082,41.96698]]]},"properties":{"fire_id":"ufid:2024-IASFA-F5124006","source_collection":"history-2024","source_objectid":25316,"incident_name":"E492","mapped_acres":9.76,"mapped_acres_source":"poly_GISAcres","gis_acres":9.76,"auto_acres":9.762884827195057,"reported_acres":9.8,"percent_contained":null,"state":"IA","state_wfigs":"US-IA","county":"Tama","discovery_time_utc":"2024-04-05T22:27:00Z","perimeter_time_utc":"2024-04-08T19:22:11Z","perimeter_edit_time_utc":"2024-04-08T19:22:11Z","incident_modified_time_utc":"2024-04-08T19:12:08Z","containment_time_utc":null,"control_time_utc":null,"fire_out_time_utc":"2024-04-06T01:00:00Z","fire_cause":"Human","fire_cause_general":"Undetermined","map_method":"Hand Sketch","source_dataset":"FFP","unique_fire_identifier":"2024-IASFA-F5124006","irwin_id":"{EFD91729-AF45-4C69-B47E-7D514781B409}","global_id":"e27607da-edb3-4556-9fab-c755eb537ae7"}},{"type":"Feature","geometry":{"type":"Polygon","coordinates":[[[-92.63872,41.96126],[-92.63954,41.96127],[-92.64038,41.96198],[-92.63966,41.96224],[-92.63896,41.96203],[-92.63864,41.96181],[-92.63872,41.96126]]]},"properties":{"fire_id":"ufid:2024-IASFA-F5124008","source_collection":"history-2024","source_objectid":25491,"incident_name":"Logger Fire 2","mapped_acres":2.59,"mapped_acres_source":"poly_GISAcres","gis_acres":2.59,"auto_acres":2.585194903873962,"reported_acres":2.6,"percent_contained":null,"state":"IA","state_wfigs":"US-IA","county":"Tama","discovery_time_utc":"2024-04-15T18:22:36Z","perimeter_time_utc":"2024-04-16T20:52:43Z","perimeter_edit_time_utc":"2024-04-16T20:52:44Z","incident_modified_time_utc":"2024-04-16T20:45:49Z","containment_time_utc":null,"control_time_utc":null,"fire_out_time_utc":"2024-04-16T18:00:00Z","fire_cause":"Human","fire_cause_general":"Equipment and vehicle use","map_method":"Hand Sketch","source_dataset":"FFP","unique_fire_identifier":"2024-IASFA-F5124008","irwin_id":"{7A12AFF9-18FF-4BE2-B466-B0BD8023B9EE}","global_id":"d206f8bf-6aa4-4383-80a9-ab277b386afe"}},{"type":"Feature","geometry":{"type":"Polygon","coordinates":[[[-92.63792,41.96153],[-92.6381,41.96128],[-92.6387,41.96116],[-92.63864,41.96181],[-92.63818,41.96179],[-92.63792,41.96153]]]},"properties":{"fire_id":"ufid:2024-IASFA-F5124007","source_collection":"history-2024","source_objectid":25492,"incident_name":"Logger Fire 1","mapped_acres":0.96,"mapped_acres_source":"poly_GISAcres","gis_acres":0.96,"auto_acres":0.9613107275608078,"reported_acres":1.0,"percent_contained":null,"state":"IA","state_wfigs":"US-IA","county":"Tama","discovery_time_utc":"2024-04-15T17:10:11Z","perimeter_time_utc":"2024-04-16T20:52:21Z","perimeter_edit_time_utc":"2024-04-16T20:52:21Z","incident_modified_time_utc":"2024-04-16T20:38:40Z","containment_time_utc":null,"control_time_utc":null,"fire_out_time_utc":"2024-04-16T18:00:00Z","fire_cause":"Human","fire_cause_general":"Equipment and vehicle use","map_method":"Hand Sketch","source_dataset":"FFP","unique_fire_identifier":"2024-IASFA-F5124007","irwin_id":"{FF8480E5-1FE1-4AA0-942D-31BC848DE08A}","global_id":"66721802-088b-47ef-8d35-1db7127b0702"}},{"type":"Feature","geometry":{"type":"MultiPolygon","coordinates":[[[[-91.27895,43.46585],[-91.27968,43.46572],[-91.27961,43.466],[-91.27907,43.46636],[-91.27743,43.46686],[-91.27743,43.46617],[-91.27844,43.46611],[-91.27895,43.46585]]],[[[-91.27008,43.47017],[-91.26959,43.46986],[-91.2688,43.47004],[-91.26865,43.46987],[-91.26905,43.4692],[-91.26892,43.46903],[-91.26943,43.46893],[-91.26972,43.46919],[-91.27012,43.46915],[-91.27018,43.46943],[-91.26989,43.46954],[-91.27029,43.47001],[-91.27008,43.47017]]],[[[-91.27604,43.47295],[-91.2745,43.47214],[-91.2741,43.4724],[-91.27264,43.47174],[-91.27224,43.47076],[-91.27092,43.4708],[-91.27092,43.47048],[-91.27206,43.47035],[-91.27197,43.46917],[-91.27131,43.46841],[-91.2703,43.46802],[-91.26934,43.46802],[-91.26894,43.46818],[-91.26815,43.46927],[-91.26745,43.46987],[-91.26719,43.46965],[-91.26706,43.46911],[-91.26648,43.4692],[-91.26569,43.46907],[-91.26552,43.46834],[-91.26411,43.46751],[-91.2628,43.46697],[-91.26229,43.46775],[-91.26275,43.46821],[-91.26318,43.46816],[-91.26256,43.46868],[-91.26237,43.46867],[-91.26222,43.46799],[-91.26209,43.46793],[-91.26183,43.46815],[-91.26025,43.46809],[-91.26025,43.46774],[-91.25994,43.46754],[-91.25972,43.46777],[-91.25889,43.4678],[-91.25876,43.46726],[-91.25841,43.46748],[-91.25783,43.46742],[-91.25783,43.46697],[-91.25757,43.46659],[-91.25691,43.46662],[-91.25603,43.46608],[-91.25696,43.46506],[-91.25634,43.46461],[-91.2552,43.46471],[-91.2552,43.46433],[-91.25608,43.46407],[-91.25608,43.46369],[-91.25577,43.46299],[-91.25498,43.46308],[-91.25454,43.46299],[-91.25617,43.462],[-91.25696,43.462],[-91.2573,43.46],[-91.25675,43.45946],[-91.25556,43.45918],[-91.25572,43.45874],[-91.25643,43.45805],[-91.25632,43.4591],[-91.25661,43.45904],[-91.25719,43.45792],[-91.25756,43.45757],[-91.25774,43.45809],[-91.25743,43.45939],[-91.2578,43.46025],[-91.25832,43.46059],[-91.25916,43.46061],[-91.25974,43.46013],[-91.25964,43.4595],[-91.26037,43.45937],[-91.26047,43.45954],[-91.26008,43.4606],[-91.26071,43.46088],[-91.26154,43.46067],[-91.26222,43.46032],[-91.26261,43.45898],[-91.26305,43.45898],[-91.26261,43.46046],[-91.26305,43.46159],[-91.26422,43.46148],[-91.26436,43.46117],[-91.26504,43.46096],[-91.26563,43.46141],[-91.2666,43.46177],[-91.2667,43.46216],[-91.26422,43.4629],[-91.26319,43.46261],[-91.26208,43.46198],[-91.26169,43.46226],[-91.26178,43.46283],[-91.26237,43.46311],[-91.26295,43.46374],[-91.26344,43.4636],[-91.26353,43.46293],[-91.26436,43.46325],[-91.26538,43.46339],[-91.26592,43.46332],[-91.2667,43.4629],[-91.26694,43.46244],[-91.26869,43.463],[-91.26859,43.46233],[-91.26913,43.4618],[-91.26898,43.46096],[-91.26821,43.46011],[-91.26743,43.46074],[-91.26679,43.46032],[-91.26884,43.45915],[-91.26869,43.45841],[-91.26728,43.45802],[-91.26748,43.45735],[-91.26689,43.45644],[-91.26679,43.45601],[-91.26845,43.45583],[-91.26976,43.45619],[-91.27035,43.45725],[-91.27181,43.45742],[-91.27263,43.45799],[-91.27215,43.45859],[-91.27263,43.45951],[-91.27346,43.46018],[-91.27385,43.46131],[-91.27361,43.46276],[-91.27472,43.46276],[-91.27477,43.46145],[-91.27594,43.46099],[-91.27711,43.46021],[-91.27876,43.46021],[-91.27998,43.46071],[-91.27837,43.46057],[-91.27745,43.46088],[-91.27735,43.46177],[-91.27759,43.46247],[-91.2791,43.46258],[-91.2791,43.46314],[-91.27866,43.46346],[-91.27832,43.46424],[-91.27798,43.46438],[-91.27618,43.46403],[-91.27604,43.46427],[-91.27628,43.46516],[-91.27628,43.46593],[-91.27589,43.4665],[-91.27492,43.46678],[-91.27448,43.46738],[-91.27375,43.46706],[-91.27404,43.46742],[-91.27365,43.46759],[-91.27409,43.46841],[-91.27425,43.4684],[-91.27423,43.46865],[-91.27373,43.46892],[-91.2735,43.46924],[-91.27376,43.46934],[-91.2745,43.46926],[-91.27481,43.46897],[-91.27448,43.46839],[-91.27511,43.46837],[-91.27458,43.46781],[-91.27502,43.46738],[-91.27584,43.46802],[-91.27662,43.46756],[-91.27604,43.46689],[-91.27691,43.46664],[-91.27764,43.46742],[-91.27755,43.47091],[-91.28217,43.47095],[-91.28222,43.47494],[-91.28044,43.47519],[-91.27941,43.47496],[-91.27771,43.47435],[-91.27684,43.47378],[-91.27604,43.47295]]]]},"properties":{"fire_id":"ufid:2024-IAMGR-000001","source_collection":"history-2024","source_objectid":25515,"incident_name":"Upper Iowa River Wildfire","mapped_acres":458.0,"mapped_acres_source":"poly_GISAcres","gis_acres":458.0,"auto_acres":465.32021337290826,"reported_acres":465.32,"percent_contained":null,"state":"IA","state_wfigs":"US-IA","county":"Allamakee","discovery_time_utc":"2024-04-02T17:00:07Z","perimeter_time_utc":"2024-04-17T16:41:07Z","perimeter_edit_time_utc":"2024-04-17T16:41:08Z","incident_modified_time_utc":"2024-04-12T16:28:59Z","containment_time_utc":null,"control_time_utc":null,"fire_out_time_utc":"2024-04-17T16:35:00Z","fire_cause":"Undetermined","fire_cause_general":"Undetermined","map_method":"Hand Sketch","source_dataset":"FFP","unique_fire_identifier":"2024-IAMGR-000001","irwin_id":"{E50FE826-944E-4D25-B2F8-ADA79A492FF5}","global_id":"44092e18-b274-4e6c-8ab3-dc5243a33f86"}},{"type":"Feature","geometry":{"type":"Polygon","coordinates":[[[-94.15802,43.24309],[-94.15572,43.24308],[-94.15574,43.24217],[-94.15475,43.2416],[-94.15803,43.24157],[-94.15802,43.24309]]]},"properties":{"fire_id":"ufid:2024-IAUSR-000002","source_collection":"history-2024","source_objectid":25565,"incident_name":"330th Fire","mapped_acres":0.22,"mapped_acres_source":"poly_GISAcres","gis_acres":0.22,"auto_acres":8.334957027208143,"reported_acres":8.33,"percent_contained":null,"state":"IA","state_wfigs":"US-IA","county":"Kossuth","discovery_time_utc":"2024-04-15T13:00:35Z","perimeter_time_utc":"2025-03-04T14:27:55Z","perimeter_edit_time_utc":"2025-03-04T14:27:56Z","incident_modified_time_utc":"2024-04-19T15:29:52Z","containment_time_utc":null,"control_time_utc":null,"fire_out_time_utc":"2024-04-15T18:00:00Z","fire_cause":"Undetermined","fire_cause_general":"Undetermined","map_method":"Hand Sketch","source_dataset":"FFP","unique_fire_identifier":"2024-IAUSR-000002","irwin_id":"{D318DF11-9C28-4E52-A51B-FAA2062C7001}","global_id":"823f0de8-8af1-4dfb-ab4d-b9c0093549ec"}},{"type":"Feature","geometry":{"type":"Polygon","coordinates":[[[-92.64533,42.0097],[-92.64547,42.00948],[-92.64573,42.00956],[-92.64588,42.00979],[-92.64584,42.00997],[-92.64491,42.0101],[-92.64498,42.00968],[-92.64533,42.0097]]]},"properties":{"fire_id":"ufid:2024-IASFA-F5124009","source_collection":"history-2024","source_objectid":26068,"incident_name":"168 Circle Ridge","mapped_acres":0.99,"mapped_acres_source":"poly_GISAcres","gis_acres":0.99,"auto_acres":0.9936022350329868,"reported_acres":1.0,"percent_contained":null,"state":"IA","state_wfigs":"US-IA","county":"Tama","discovery_time_utc":"2024-05-05T17:23:35Z","perimeter_time_utc":"2024-05-06T17:39:44Z","perimeter_edit_time_utc":"2024-05-06T17:39:45Z","incident_modified_time_utc":"2024-05-06T17:29:22Z","containment_time_utc":null,"control_time_utc":null,"fire_out_time_utc":"2024-05-05T18:15:00Z","fire_cause":"Human","fire_cause_general":"Debris and open burning","map_method":"Hand Sketch","source_dataset":"FFP","unique_fire_identifier":"2024-IASFA-F5124009","irwin_id":"{0FBB4BE5-BA4C-45D4-B07C-42D6462126FA}","global_id":"b7cf3978-47bc-4a86-bc1e-3731e43a3658"}},{"type":"Feature","geometry":{"type":"Polygon","coordinates":[[[-92.1628,41.82607],[-92.16192,41.826],[-92.16174,41.82579],[-92.16177,41.82407],[-92.1609,41.82403],[-92.16097,41.81972],[-92.16265,41.82443],[-92.1628,41.82607]]]},"properties":{"fire_id":"ufid:2024-IANSR-000002","source_collection":"history-2024","source_objectid":27685,"incident_name":"Drahos Wildfire","mapped_acres":12.2,"mapped_acres_source":"poly_GISAcres","gis_acres":12.2,"auto_acres":12.248493706422277,"reported_acres":12.0,"percent_contained":null,"state":"IA","state_wfigs":"US-IA","county":"Iowa","discovery_time_utc":"2024-04-03T17:00:07Z","perimeter_time_utc":"2024-06-27T16:54:22Z","perimeter_edit_time_utc":"2024-06-27T16:54:22Z","incident_modified_time_utc":"2024-06-27T15:23:53Z","containment_time_utc":null,"control_time_utc":null,"fire_out_time_utc":"2024-04-17T17:00:00Z","fire_cause":"Undetermined","fire_cause_general":"Undetermined","map_method":"Auto-generated","source_dataset":"FFP","unique_fire_identifier":"2024-IANSR-000002","irwin_id":"{3A629858-AB00-4B57-B136-9BE68D1CC632}","global_id":"bddf0301-ec10-4795-8025-74e5b0e8c747"}},{"type":"Feature","geometry":{"type":"Polygon","coordinates":[[[-92.64282,42.00839],[-92.64258,42.00826],[-92.64207,42.00832],[-92.64223,42.00811],[-92.64277,42.00806],[-92.64286,42.00809],[-92.64282,42.00839]]]},"properties":{"fire_id":"ufid:2024-IASFA-F5124012","source_collection":"history-2024","source_objectid":33642,"incident_name":"219 Edgewood","mapped_acres":0.25,"mapped_acres_source":"poly_GISAcres","gis_acres":0.25,"auto_acres":0.3472554925109829,"reported_acres":0.25,"percent_contained":null,"state":"IA","state_wfigs":"US-IA","county":"Tama","discovery_time_utc":"2024-10-17T00:31:27Z","perimeter_time_utc":"2024-10-21T15:28:26Z","perimeter_edit_time_utc":"2024-10-21T15:28:27Z","incident_modified_time_utc":"2024-10-21T14:31:57Z","containment_time_utc":null,"control_time_utc":null,"fire_out_time_utc":"2024-10-17T01:15:00Z","fire_cause":"Human","fire_cause_general":"Other causes","map_method":"Auto-generated for InFORM","source_dataset":"FFP","unique_fire_identifier":"2024-IASFA-F5124012","irwin_id":"{6B66B94D-6415-445A-BADC-986F7557A84B}","global_id":"25209427-fe06-4234-832d-09157a359bf3"}},{"type":"Feature","geometry":{"type":"Polygon","coordinates":[[[-92.6362,41.94763],[-92.636,41.94684],[-92.63635,41.94686],[-92.6365,41.94588],[-92.63693,41.94564],[-92.63673,41.94674],[-92.637,41.94699],[-92.63756,41.94713],[-92.63757,41.94725],[-92.63721,41.9474],[-92.63709,41.94797],[-92.63652,41.94794],[-92.6362,41.94763]]]},"properties":{"fire_id":"ufid:2024-IASFA-F5124013","source_collection":"history-2024","source_objectid":42206,"incident_name":"Dolash","mapped_acres":3.85,"mapped_acres_source":"poly_GISAcres","gis_acres":3.85,"auto_acres":3.8499222741236316,"reported_acres":3.7,"percent_contained":null,"state":"IA","state_wfigs":"US-IA","county":"Tama","discovery_time_utc":"2024-10-17T20:12:48Z","perimeter_time_utc":"2024-10-21T15:27:42Z","perimeter_edit_time_utc":"2024-10-21T15:27:53Z","incident_modified_time_utc":"2024-10-21T15:17:45Z","containment_time_utc":null,"control_time_utc":null,"fire_out_time_utc":"2024-10-17T21:45:00Z","fire_cause":"Human","fire_cause_general":"Equipment and vehicle use","map_method":"Hand Sketch","source_dataset":"FFP","unique_fire_identifier":"2024-IASFA-F5124013","irwin_id":"{3504CD41-FB0C-4A95-9F16-E9A33D8F5296}","global_id":"4064a15c-dd5b-49ab-b253-0b956f9abdd5"}}]}
