{"type":"FeatureCollection","features":[{"type":"Feature","geometry":{"type":"Polygon","coordinates":[[[-90.10424,41.95563],[-90.1042,41.95489],[-90.10436,41.95503],[-90.10433,41.95563],[-90.10424,41.95563]]]},"properties":{"fire_id":"ufid:2024-ILSVR-000001","source_collection":"history-2024","source_objectid":24641,"incident_name":"Thomson Prairie Wildfire","mapped_acres":1.0,"mapped_acres_source":"poly_GISAcres","gis_acres":1.0,"auto_acres":0.18947924344272885,"reported_acres":1.0,"percent_contained":null,"state":"IL","state_wfigs":"US-IL","county":"Carroll","discovery_time_utc":"2024-02-26T19:56:45Z","perimeter_time_utc":"2024-03-05T20:29:26Z","perimeter_edit_time_utc":"2024-03-05T20:29:26Z","incident_modified_time_utc":"2024-02-29T22:07:42Z","containment_time_utc":null,"control_time_utc":null,"fire_out_time_utc":"2024-03-04T15:03:00Z","fire_cause":"Human","fire_cause_general":"Debris and open burning","map_method":"Hand Sketch","source_dataset":"FFP","unique_fire_identifier":"2024-ILSVR-000001","irwin_id":"{39118847-9C70-4BE5-AFD4-AAD534BC267F}","global_id":"43fdcab3-7c76-4958-9db0-b47e75d12db2"}}]}
