{"type":"FeatureCollection","features":[{"type":"Feature","geometry":{"type":"Polygon","coordinates":[[[-86.54886,38.98098],[-86.54855,38.98061],[-86.54858,38.98017],[-86.54837,38.98009],[-86.54869,38.97969],[-86.54855,38.97935],[-86.54901,38.97877],[-86.54987,38.97856],[-86.55104,38.97846],[-86.55133,38.97856],[-86.55143,38.9788],[-86.55127,38.97908],[-86.55133,38.97948],[-86.55118,38.97996],[-86.55015,38.98068],[-86.54935,38.98085],[-86.54922,38.98103],[-86.54886,38.98098]]]},"properties":{"fire_id":"ufid:2024-INHOF-240052","source_collection":"history-2024","source_objectid":25280,"incident_name":"Helton","mapped_acres":15.0,"mapped_acres_source":"poly_GISAcres","gis_acres":15.0,"auto_acres":12.603561180564236,"reported_acres":12.6,"percent_contained":null,"state":"IN","state_wfigs":"US-IN","county":"Lawrence","discovery_time_utc":"2024-03-29T21:16:49Z","perimeter_time_utc":"2024-04-06T12:19:04Z","perimeter_edit_time_utc":"2024-04-06T12:19:05Z","incident_modified_time_utc":"2024-04-05T14:55:24Z","containment_time_utc":null,"control_time_utc":null,"fire_out_time_utc":null,"fire_cause":"Human","fire_cause_general":"Debris and open burning","map_method":"Hand Sketch","source_dataset":"FFP","unique_fire_identifier":"2024-INHOF-240052","irwin_id":"{0AF0C390-9758-4595-BC16-C7A5BC8AFD87}","global_id":"05e3cdb6-0b64-4a21-812b-52bdf68c1cf3"}},{"type":"Feature","geometry":{"type":"Polygon","coordinates":[[[-86.51499,38.49622],[-86.51573,38.4963],[-86.5161,38.4973],[-86.51588,38.49797],[-86.5155,38.49799],[-86.51545,38.49832],[-86.51513,38.49793],[-86.51486,38.49789],[-86.51457,38.4973],[-86.51445,38.49732],[-86.51436,38.49677],[-86.51499,38.49622]]]},"properties":{"fire_id":"ufid:2024-INHOF-240046","source_collection":"history-2024","source_objectid":25756,"incident_name":"310 West","mapped_acres":3.0,"mapped_acres_source":"poly_GISAcres","gis_acres":3.0,"auto_acres":5.730036625357468,"reported_acres":5.6,"percent_contained":null,"state":"IN","state_wfigs":"US-IN","county":"Orange","discovery_time_utc":"2024-03-23T21:08:47Z","perimeter_time_utc":"2024-04-27T18:26:21Z","perimeter_edit_time_utc":"2024-04-27T18:26:21Z","incident_modified_time_utc":"2024-04-18T15:55:17Z","containment_time_utc":"2024-03-23T23:39:00Z","control_time_utc":"2024-04-04T18:00:00Z","fire_out_time_utc":"2024-04-04T18:00:00Z","fire_cause":"Human","fire_cause_general":"Other causes","map_method":"Hand Sketch","source_dataset":"FFP","unique_fire_identifier":"2024-INHOF-240046","irwin_id":"{EC3362D8-7897-4E7F-A929-E077832D54B9}","global_id":"b4b5896b-487b-4fe1-8de0-2e93a4f1cb21"}},{"type":"Feature","geometry":{"type":"Polygon","coordinates":[[[-86.27172,39.08564],[-86.27367,39.08748],[-86.27223,39.08856],[-86.27215,39.08812],[-86.27127,39.08817],[-86.27081,39.08769],[-86.27036,39.08777],[-86.27,39.0873],[-86.27031,39.08682],[-86.27142,39.08606],[-86.27172,39.08564]]]},"properties":{"fire_id":"ufid:2024-INHOF-240060","source_collection":"history-2024","source_objectid":26789,"incident_name":"Trail D","mapped_acres":10.0,"mapped_acres_source":"poly_GISAcres","gis_acres":10.0,"auto_acres":12.506989192436144,"reported_acres":12.5,"percent_contained":null,"state":"IN","state_wfigs":"US-IN","county":"Brown","discovery_time_utc":"2024-04-14T18:05:59Z","perimeter_time_utc":"2024-09-27T14:42:02Z","perimeter_edit_time_utc":"2024-09-27T14:42:02Z","incident_modified_time_utc":"2024-05-06T15:43:42Z","containment_time_utc":"2024-04-15T00:00:00Z","control_time_utc":"2024-04-18T14:40:00Z","fire_out_time_utc":"2024-05-06T15:33:00Z","fire_cause":"Undetermined","fire_cause_general":"Undetermined","map_method":"GPS-Driven","source_dataset":"FFP","unique_fire_identifier":"2024-INHOF-240060","irwin_id":"{D196F3E3-AB78-4870-B404-0C32E7DC96D3}","global_id":"671246a2-2544-41c4-acce-0e6b9de58536"}},{"type":"Feature","geometry":{"type":"Polygon","coordinates":[[[-85.42097,38.99649],[-85.41911,38.99644],[-85.41879,38.99671],[-85.41846,38.99675],[-85.41761,38.99656],[-85.41796,38.99636],[-85.4187,38.9963],[-85.41901,38.99564],[-85.4196,38.99549],[-85.4209,38.99597],[-85.42112,38.99632],[-85.42097,38.99649]]]},"properties":{"fire_id":"ufid:2024-INBOR-000002","source_collection":"history-2024","source_objectid":32102,"incident_name":"Shunk Farm","mapped_acres":5.0,"mapped_acres_source":"poly_GISAcres","gis_acres":5.0,"auto_acres":5.056106619062005,"reported_acres":5.0,"percent_contained":null,"state":"IN","state_wfigs":"US-IN","county":"Ripley","discovery_time_utc":"2024-09-07T17:00:28Z","perimeter_time_utc":"2024-09-10T18:23:59Z","perimeter_edit_time_utc":"2024-09-10T18:23:59Z","incident_modified_time_utc":"2024-09-09T18:43:16Z","containment_time_utc":null,"control_time_utc":null,"fire_out_time_utc":"2024-09-09T19:50:38Z","fire_cause":"Human","fire_cause_general":"Firearms and explosives use","map_method":"Hand Sketch","source_dataset":"FFP","unique_fire_identifier":"2024-INBOR-000002","irwin_id":"{0FEE71AE-CA91-44FB-9FB9-8EAE6BB54ABE}","global_id":"ae63a89c-4f60-447c-b9d3-807b3f0e3498"}}]}
