{"type":"FeatureCollection","features":[{"type":"Feature","geometry":{"type":"Polygon","coordinates":[[[-99.15998,39.03836],[-99.15911,39.03805],[-99.15857,39.03802],[-99.15803,39.03776],[-99.1574,39.03778],[-99.1569,39.03749],[-99.15659,39.03711],[-99.15569,39.03704],[-99.15452,39.03646],[-99.15389,39.03658],[-99.15336,39.03711],[-99.15237,39.03708],[-99.15179,39.03697],[-99.15138,39.03635],[-99.15057,39.0367],[-99.14976,39.03631],[-99.1494,39.03634],[-99.14868,39.03613],[-99.14715,39.03515],[-99.14603,39.03474],[-99.14526,39.03404],[-99.14335,39.03312],[-99.14327,39.03268],[-99.14288,39.03226],[-99.14296,39.03191],[-99.14277,39.03146],[-99.14142,39.03111],[-99.14112,39.03077],[-99.14058,39.03058],[-99.14013,39.02995],[-99.13917,39.02929],[-99.13841,39.02849],[-99.13815,39.02779],[-99.13738,39.02708],[-99.13723,39.02638],[-99.13662,39.02561],[-99.1364,39.02505],[-99.13561,39.02443],[-99.13529,39.02391],[-99.13383,39.02281],[-99.13289,39.02186],[-99.13261,39.02127],[-99.13192,39.02058],[-99.13167,39.02008],[-99.13167,39.0193],[-99.13205,39.01902],[-99.13159,39.01825],[-99.1318,39.01773],[-99.13238,39.01729],[-99.1331,39.01719],[-99.13382,39.01682],[-99.13427,39.01746],[-99.13445,39.01746],[-99.13476,39.01713],[-99.13508,39.01709],[-99.13569,39.01727],[-99.13597,39.01762],[-99.13625,39.01775],[-99.13637,39.01769],[-99.13614,39.01735],[-99.13608,39.01699],[-99.13624,39.01673],[-99.13714,39.01665],[-99.13777,39.01678],[-99.13803,39.01727],[-99.13822,39.01733],[-99.13869,39.017],[-99.13921,39.01704],[-99.13926,39.0167],[-99.13822,39.01614],[-99.13786,39.01575],[-99.13735,39.01556],[-99.13648,39.01413],[-99.13644,39.01369],[-99.13516,39.01372],[-99.13458,39.01338],[-99.13417,39.0125],[-99.13374,39.01208],[-99.13423,39.01159],[-99.13426,39.01111],[-99.13499,39.01047],[-99.13495,39.01019],[-99.13479,39.01015],[-99.13464,39.01035],[-99.1338,39.01067],[-99.13363,39.01105],[-99.13331,39.011],[-99.13327,39.01074],[-99.13361,39.01047],[-99.13337,39.01012],[-99.13346,39.00921],[-99.13318,39.00918],[-99.133,39.00946],[-99.13242,39.00973],[-99.1327,39.009],[-99.13254,39.00851],[-99.13224,39.00811],[-99.13157,39.00794],[-99.13055,39.0072],[-99.13069,39.00683],[-99.13045,39.00655],[-99.13053,39.00582],[-99.13039,39.00542],[-99.12814,39.00496],[-99.12741,39.00425],[-99.12661,39.00411],[-99.12535,39.00276],[-99.12449,39.00253],[-99.12382,39.00209],[-99.12328,39.00201],[-99.1231,39.00179],[-99.12264,39.00159],[-99.12238,39.00112],[-99.12208,39.00095],[-99.12215,39.00074],[-99.12269,39.0006],[-99.12211,39.0005],[-99.12197,39.00032],[-99.12203,39.00019],[-99.12239,39.00011],[-99.12211,38.99962],[-99.12235,38.99939],[-99.12257,38.99849],[-99.12208,38.9978],[-99.12157,38.99792],[-99.12151,38.99745],[-99.12121,38.9971],[-99.12058,38.99684],[-99.11949,38.99612],[-99.11929,38.99577],[-99.11948,38.99556],[-99.11893,38.99507],[-99.1191,38.99476],[-99.11941,38.99459],[-99.12068,38.99459],[-99.12069,38.99434],[-99.11999,38.9943],[-99.11961,38.99402],[-99.11995,38.99304],[-99.1199,38.99283],[-99.11928,38.99271],[-99.11886,38.99202],[-99.11788,38.99191],[-99.11751,38.99164],[-99.11743,38.99136],[-99.11614,38.99117],[-99.11565,38.99073],[-99.11574,38.99039],[-99.11609,38.99017],[-99.11603,38.98996],[-99.11636,38.98982],[-99.11596,38.9897],[-99.11561,38.98934],[-99.11572,38.98863],[-99.1167,38.98798],[-99.11706,38.98816],[-99.11731,38.98813],[-99.1173,38.98771],[-99.11778,38.98743],[-99.11712,38.98659],[-99.11699,38.98624],[-99.1171,38.98603],[-99.11769,38.9858],[-99.11823,38.98648],[-99.11898,38.98603],[-99.11896,38.98588],[-99.11831,38.9857],[-99.11813,38.98547],[-99.11838,38.98482],[-99.11869,38.98456],[-99.11858,38.98446],[-99.11831,38.98457],[-99.11812,38.98421],[-99.11855,38.98386],[-99.11889,38.9833],[-99.1185,38.9828],[-99.11748,38.98247],[-99.11723,38.98228],[-99.1171,38.98204],[-99.11714,38.98169],[-99.11688,38.98148],[-99.11553,38.98085],[-99.11512,38.98008],[-99.11513,38.97987],[-99.11561,38.97991],[-99.11624,38.98064],[-99.11669,38.98066],[-99.11734,38.98035],[-99.11703,38.97986],[-99.11701,38.97937],[-99.11723,38.97928],[-99.11825,38.97984],[-99.11905,38.98061],[-99.12046,38.98233],[-99.12091,38.98421],[-99.12092,38.98512],[-99.12123,38.98561],[-99.12149,38.98652],[-99.12202,38.98734],[-99.12227,38.98746],[-99.12262,38.98736],[-99.12389,38.98742],[-99.12409,38.98757],[-99.1239,38.98785],[-99.12425,38.98862],[-99.12409,38.9889],[-99.12434,38.98997],[-99.12508,38.98972],[-99.1254,38.99017],[-99.12578,38.99043],[-99.12606,38.99024],[-99.12613,38.98973],[-99.12667,38.98984],[-99.12736,38.98924],[-99.12739,38.98898],[-99.12784,38.98901],[-99.12835,38.98954],[-99.12884,38.99035],[-99.12903,38.99099],[-99.12946,38.99153],[-99.12964,38.99134],[-99.12996,38.99141],[-99.13021,38.99239],[-99.13085,38.99337],[-99.13101,38.99392],[-99.13135,38.9942],[-99.13156,38.99415],[-99.13171,38.9939],[-99.13182,38.99399],[-99.13164,38.9945],[-99.13181,38.99486],[-99.13182,38.99562],[-99.13167,38.99611],[-99.1318,38.99639],[-99.13173,38.99681],[-99.13184,38.99716],[-99.1317,38.99758],[-99.13183,38.99786],[-99.13177,38.99989],[-99.1319,39.00052],[-99.13226,39.00062],[-99.13353,39.00058],[-99.13373,39.00084],[-99.13367,39.0018],[-99.13403,39.00194],[-99.13568,39.00202],[-99.13703,39.00192],[-99.13819,39.00213],[-99.13829,39.002],[-99.13891,39.00209],[-99.13927,39.00196],[-99.14098,39.00214],[-99.14187,39.00196],[-99.14251,39.00211],[-99.14267,39.00226],[-99.14257,39.0024],[-99.14234,39.00246],[-99.14205,39.00232],[-99.14181,39.00245],[-99.14225,39.00253],[-99.1424,39.00275],[-99.14215,39.00352],[-99.14232,39.00423],[-99.14322,39.00398],[-99.14376,39.00405],[-99.14433,39.00441],[-99.14448,39.00485],[-99.14538,39.00469],[-99.14571,39.00492],[-99.14578,39.00576],[-99.14599,39.00611],[-99.14537,39.00667],[-99.14536,39.00709],[-99.1449,39.0078],[-99.14533,39.0084],[-99.14532,39.00885],[-99.14561,39.00902],[-99.1455,39.00925],[-99.14611,39.00943],[-99.14656,39.0093],[-99.14761,39.00932],[-99.14833,39.00949],[-99.14843,39.00975],[-99.14837,39.01017],[-99.148,39.01055],[-99.14757,39.01053],[-99.14763,39.01116],[-99.14782,39.01126],[-99.14809,39.01123],[-99.14848,39.01076],[-99.14858,39.01024],[-99.14911,39.00975],[-99.14901,39.00961],[-99.14909,39.00947],[-99.14941,39.00935],[-99.14949,39.00964],[-99.14978,39.00975],[-99.14951,39.00988],[-99.14941,39.01015],[-99.14929,39.01153],[-99.14863,39.01194],[-99.14836,39.01251],[-99.14848,39.01452],[-99.14817,39.01528],[-99.14765,39.01536],[-99.14819,39.01571],[-99.14857,39.01555],[-99.14846,39.01589],[-99.14819,39.01579],[-99.14816,39.01634],[-99.14913,39.01694],[-99.14975,39.01767],[-99.15057,39.01806],[-99.1508,39.01837],[-99.15062,39.01851],[-99.14981,39.01859],[-99.14945,39.01837],[-99.14927,39.01844],[-99.14943,39.01874],[-99.14927,39.01914],[-99.14952,39.01952],[-99.14955,39.02019],[-99.14935,39.02075],[-99.14953,39.02139],[-99.14931,39.02181],[-99.14982,39.02233],[-99.15063,39.02251],[-99.15062,39.02272],[-99.15028,39.02307],[-99.15022,39.02356],[-99.15037,39.02405],[-99.15026,39.02405],[-99.15021,39.02368],[-99.15009,39.02362],[-99.14974,39.02419],[-99.14991,39.02442],[-99.14937,39.02433],[-99.14913,39.02396],[-99.14927,39.02363],[-99.14916,39.02342],[-99.14944,39.02293],[-99.14931,39.02263],[-99.14901,39.02265],[-99.14847,39.02314],[-99.1482,39.02295],[-99.14823,39.02272],[-99.14845,39.02251],[-99.14827,39.02237],[-99.14876,39.02193],[-99.14836,39.02214],[-99.14783,39.02215],[-99.14765,39.02237],[-99.14761,39.02279],[-99.14778,39.02349],[-99.14752,39.02482],[-99.14762,39.02552],[-99.14786,39.0258],[-99.14814,39.0265],[-99.14779,39.02748],[-99.14846,39.02966],[-99.14848,39.03134],[-99.14876,39.03139],[-99.14892,39.03176],[-99.14859,39.03239],[-99.14876,39.03254],[-99.14948,39.03239],[-99.14997,39.03197],[-99.15006,39.03155],[-99.14968,39.03134],[-99.15005,39.03099],[-99.15015,39.03071],[-99.14966,39.03049],[-99.14968,39.03034],[-99.14979,39.03018],[-99.15038,39.03],[-99.15045,39.0298],[-99.15007,39.02958],[-99.15001,39.0292],[-99.15217,39.02961],[-99.15237,39.03028],[-99.15231,39.03063],[-99.15262,39.03057],[-99.15291,39.03069],[-99.15321,39.03154],[-99.15368,39.03177],[-99.15404,39.03238],[-99.15394,39.03301],[-99.15429,39.03326],[-99.15457,39.03371],[-99.15531,39.03413],[-99.15529,39.03448],[-99.15548,39.03472],[-99.15558,39.03518],[-99.15544,39.03553],[-99.15587,39.03587],[-99.15598,39.0356],[-99.15568,39.03532],[-99.15573,39.03518],[-99.15597,39.03517],[-99.15625,39.03545],[-99.15641,39.03545],[-99.15659,39.03511],[-99.1573,39.0349],[-99.15787,39.03413],[-99.15766,39.0339],[-99.15768,39.0335],[-99.15703,39.0328],[-99.15658,39.03271],[-99.15604,39.03287],[-99.15598,39.03243],[-99.15546,39.03217],[-99.15536,39.03196],[-99.15667,39.03169],[-99.15731,39.03183],[-99.15766,39.03142],[-99.15813,39.0318],[-99.15874,39.03175],[-99.15886,39.03196],[-99.15866,39.03243],[-99.15907,39.03266],[-99.15898,39.03301],[-99.15928,39.03359],[-99.16,39.03391],[-99.16047,39.0339],[-99.16132,39.03415],[-99.16127,39.03539],[-99.16138,39.03614],[-99.16166,39.03658],[-99.16164,39.03679],[-99.16089,39.03763],[-99.16073,39.03806],[-99.15998,39.03836]]]},"properties":{"fire_id":"ufid:2024-KSELX-000347","source_collection":"history-2024","source_objectid":27011,"incident_name":"Codell Rd","mapped_acres":1750.0,"mapped_acres_source":"poly_GISAcres","gis_acres":1750.0,"auto_acres":1567.68012795644,"reported_acres":1750.0,"percent_contained":100.0,"state":"KS","state_wfigs":"US-KS","county":"Ellis","discovery_time_utc":"2024-04-11T16:31:00Z","perimeter_time_utc":"2024-04-11T21:31:00Z","perimeter_edit_time_utc":"2024-06-07T15:30:16Z","incident_modified_time_utc":"2024-06-26T13:35:21Z","containment_time_utc":"2024-04-16T23:00:00Z","control_time_utc":"2024-04-22T14:00:00Z","fire_out_time_utc":"2024-04-22T14:00:00Z","fire_cause":"Human","fire_cause_general":null,"map_method":"Auto-generated","source_dataset":"2024 NIFS","unique_fire_identifier":"2024-KSELX-000347","irwin_id":"{45EF70B3-493D-4B55-A5F8-8554DA3B8BEA}","global_id":"cf32643e-61b7-4e11-bab4-e6f44b2fd12c"}},{"type":"Feature","geometry":{"type":"Polygon","coordinates":[[[-99.37355,39.69431],[-99.37308,39.6942],[-99.37302,39.69408],[-99.37365,39.69226],[-99.37363,39.69191],[-99.37413,39.6911],[-99.37446,39.69022],[-99.37526,39.68903],[-99.37519,39.68816],[-99.37574,39.68736],[-99.37666,39.68649],[-99.3763,39.68616],[-99.37625,39.68554],[-99.37637,39.68503],[-99.37625,39.68399],[-99.37648,39.68351],[-99.37721,39.68337],[-99.37981,39.68336],[-99.38015,39.68351],[-99.38034,39.68426],[-99.38061,39.68446],[-99.38146,39.68391],[-99.38148,39.68377],[-99.38111,39.68342],[-99.38199,39.68342],[-99.38182,39.68465],[-99.38201,39.68543],[-99.38178,39.68626],[-99.38191,39.68682],[-99.38178,39.68744],[-99.38162,39.68757],[-99.38103,39.68728],[-99.38096,39.68703],[-99.38072,39.68682],[-99.38056,39.68731],[-99.381,39.68789],[-99.38154,39.68802],[-99.38176,39.68855],[-99.38178,39.68883],[-99.38144,39.6896],[-99.38155,39.69043],[-99.38127,39.6914],[-99.37985,39.69227],[-99.37914,39.69252],[-99.37869,39.69233],[-99.37862,39.69245],[-99.37879,39.69273],[-99.37851,39.693],[-99.37726,39.69336],[-99.37609,39.69349],[-99.37591,39.69418],[-99.37355,39.69431]]]},"properties":{"fire_id":"ufid:2024-KSPLX-000287","source_collection":"history-2024","source_objectid":27012,"incident_name":"Hanchett","mapped_acres":550.0,"mapped_acres_source":"poly_GISAcres","gis_acres":550.0,"auto_acres":145.773237811581,"reported_acres":550.0,"percent_contained":100.0,"state":"KS","state_wfigs":"US-KS","county":"Phillips","discovery_time_utc":"2024-02-29T20:15:00Z","perimeter_time_utc":"2024-03-01T02:15:00Z","perimeter_edit_time_utc":"2024-06-07T15:38:31Z","incident_modified_time_utc":"2024-07-20T15:57:36Z","containment_time_utc":"2024-03-01T11:00:00Z","control_time_utc":"2024-03-01T11:30:00Z","fire_out_time_utc":"2024-03-01T12:00:00Z","fire_cause":"Human","fire_cause_general":null,"map_method":"Auto-generated","source_dataset":"2024 NIFS","unique_fire_identifier":"2024-KSPLX-000287","irwin_id":"{8FFFD2AA-9254-436F-8F4F-5905BE2A07D0}","global_id":"5ee1f094-b0d2-427d-9b6e-7d4c3b4fcffa"}},{"type":"Feature","geometry":{"type":"Polygon","coordinates":[[[-96.00052,38.39872],[-95.99743,38.39873],[-95.99781,38.3972],[-95.99873,38.39715],[-95.999,38.39679],[-95.9998,38.39667],[-96.00034,38.39679],[-96.00017,38.39733],[-96.00021,38.39791],[-96.00262,38.39805],[-96.00244,38.40001],[-96.00104,38.39993],[-96.00052,38.39872]]]},"properties":{"fire_id":"ufid:2024-KSLYX-000258","source_collection":"history-2024","source_objectid":32465,"incident_name":"Bulson","mapped_acres":20.0,"mapped_acres_source":"poly_GISAcres","gis_acres":20.0,"auto_acres":20.38087938412373,"reported_acres":20.0,"percent_contained":null,"state":"KS","state_wfigs":"US-KS","county":"Lyon","discovery_time_utc":"2024-03-22T22:15:00Z","perimeter_time_utc":"2024-03-23T03:15:00Z","perimeter_edit_time_utc":"2024-09-18T19:15:02Z","incident_modified_time_utc":"2024-09-17T15:42:29Z","containment_time_utc":"2024-03-23T00:30:00Z","control_time_utc":"2024-03-30T00:30:00Z","fire_out_time_utc":"2024-04-06T00:30:00Z","fire_cause":"Human","fire_cause_general":null,"map_method":"Hand Sketch","source_dataset":"2024 NIFS","unique_fire_identifier":"2024-KSLYX-000258","irwin_id":"{86EA17A1-40C3-496E-9BCA-CF9770A8039C}","global_id":"ed56f9d1-b03d-49fb-a42f-6d8fa447d344"}},{"type":"Feature","geometry":{"type":"Polygon","coordinates":[[[-95.92274,38.27165],[-95.92256,38.25979],[-95.92712,38.25982],[-95.92711,38.26346],[-95.93183,38.26347],[-95.9315,38.2677],[-95.93107,38.26835],[-95.93134,38.26879],[-95.93164,38.27168],[-95.92919,38.27217],[-95.92843,38.27183],[-95.92828,38.27149],[-95.92762,38.27179],[-95.92656,38.27183],[-95.92591,38.27216],[-95.92466,38.27225],[-95.92406,38.27194],[-95.92274,38.27165]]]},"properties":{"fire_id":"ufid:2024-KSCFX-000348","source_collection":"history-2024","source_objectid":33203,"incident_name":"Blackbird Lane","mapped_acres":215.0,"mapped_acres_source":"poly_GISAcres","gis_acres":215.0,"auto_acres":220.74214765079245,"reported_acres":215.0,"percent_contained":null,"state":"KS","state_wfigs":"US-KS","county":"Coffey","discovery_time_utc":"2024-04-12T20:00:00Z","perimeter_time_utc":"2024-10-08T17:56:43Z","perimeter_edit_time_utc":"2024-10-08T17:56:43Z","incident_modified_time_utc":"2024-09-17T15:25:48Z","containment_time_utc":"2024-04-12T23:42:00Z","control_time_utc":"2024-04-19T22:00:00Z","fire_out_time_utc":"2024-04-23T16:00:00Z","fire_cause":"Human","fire_cause_general":"Debris and open burning","map_method":"Hand Sketch","source_dataset":"FFP","unique_fire_identifier":"2024-KSCFX-000348","irwin_id":"{FEF5BB5F-9DC1-44B2-AE97-2E34EFD9FB1C}","global_id":"0474accf-ba23-4b09-b81a-62d995cb7067"}},{"type":"Feature","geometry":{"type":"Polygon","coordinates":[[[-95.8217,38.28303],[-95.82602,38.28397],[-95.827,38.28599],[-95.82657,38.28693],[-95.82486,38.28797],[-95.82533,38.28951],[-95.82601,38.29053],[-95.82479,38.29127],[-95.82452,38.29203],[-95.82548,38.29504],[-95.82557,38.29577],[-95.81191,38.29575],[-95.81199,38.28752],[-95.81067,38.2875],[-95.81018,38.28839],[-95.8096,38.28845],[-95.80858,38.28822],[-95.80707,38.28672],[-95.80668,38.28594],[-95.80533,38.28584],[-95.80429,38.2856],[-95.80348,38.28521],[-95.8033,38.28484],[-95.80274,38.28462],[-95.8027,38.28145],[-95.80413,38.28137],[-95.81065,38.28321],[-95.81389,38.28373],[-95.81413,38.28653],[-95.81546,38.28676],[-95.81622,38.28132],[-95.81705,38.28102],[-95.81812,38.28088],[-95.82007,38.28111],[-95.82151,38.28239],[-95.8217,38.28303]]]},"properties":{"fire_id":"ufid:2024-KSCFX-000333","source_collection":"history-2024","source_objectid":33204,"incident_name":"Iris","mapped_acres":1.0,"mapped_acres_source":"poly_GISAcres","gis_acres":1.0,"auto_acres":517.8516803334389,"reported_acres":518.0,"percent_contained":null,"state":"KS","state_wfigs":"US-KS","county":"Coffey","discovery_time_utc":"2024-04-09T00:45:00Z","perimeter_time_utc":"2024-10-08T17:57:36Z","perimeter_edit_time_utc":"2024-10-08T17:57:37Z","incident_modified_time_utc":"2024-09-17T15:32:05Z","containment_time_utc":"2024-04-09T04:00:00Z","control_time_utc":"2024-07-05T06:00:00Z","fire_out_time_utc":"2024-07-05T06:00:00Z","fire_cause":"Human","fire_cause_general":"Debris and open burning","map_method":"Hand Sketch","source_dataset":"FFP","unique_fire_identifier":"2024-KSCFX-000333","irwin_id":"{FF73DF77-0EE7-4A2A-AD49-3248AB98C888}","global_id":"ebb5e134-38ec-4589-9fd4-7545de4d3a72"}},{"type":"Feature","geometry":{"type":"Polygon","coordinates":[[[-95.9645,38.31089],[-95.96455,38.31206],[-95.96654,38.31324],[-95.96704,38.31462],[-95.96687,38.31491],[-95.96696,38.31537],[-95.96679,38.31601],[-95.96759,38.31691],[-95.9676,38.31729],[-95.96736,38.31792],[-95.9669,38.31798],[-95.96659,38.31821],[-95.9664,38.31856],[-95.96651,38.31883],[-95.96706,38.3193],[-95.96756,38.32002],[-95.96794,38.32082],[-95.96815,38.32175],[-95.96808,38.3225],[-95.96783,38.32266],[-95.96735,38.32266],[-95.96734,38.32242],[-95.96664,38.32226],[-95.96649,38.32255],[-95.96606,38.32259],[-95.96578,38.32228],[-95.96578,38.32202],[-95.96596,38.32182],[-95.9652,38.32133],[-95.96524,38.32102],[-95.96506,38.32043],[-95.96471,38.31993],[-95.96475,38.31957],[-95.96444,38.31875],[-95.96444,38.31797],[-95.96431,38.31788],[-95.96431,38.31178],[-95.96421,38.31149],[-95.96398,38.31132],[-95.96397,38.31104],[-95.9641,38.31088],[-95.9645,38.31089]]]},"properties":{"fire_id":"ufid:2024-KSFLR-000323","source_collection":"history-2024","source_objectid":33205,"incident_name":"Maple Y2","mapped_acres":0.1,"mapped_acres_source":"poly_GISAcres","gis_acres":0.1,"auto_acres":62.39455478322856,"reported_acres":62.0,"percent_contained":null,"state":"KS","state_wfigs":"US-KS","county":"Lyon","discovery_time_utc":"2024-04-06T21:57:15Z","perimeter_time_utc":"2024-10-08T17:57:59Z","perimeter_edit_time_utc":"2024-10-08T17:57:59Z","incident_modified_time_utc":"2024-07-20T16:03:36Z","containment_time_utc":"2024-04-08T00:30:00Z","control_time_utc":"2024-04-14T00:30:00Z","fire_out_time_utc":"2024-05-01T00:30:00Z","fire_cause":"Human","fire_cause_general":"Undetermined","map_method":"Hand Sketch","source_dataset":"FFP","unique_fire_identifier":"2024-KSFLR-000323","irwin_id":"{1C1732C8-C136-4A05-893C-470A2B77BF5E}","global_id":"8b0f2da7-e6ee-4171-b7ed-d8074150338a"}},{"type":"Feature","geometry":{"type":"Polygon","coordinates":[[[-95.90823,38.26902],[-95.90815,38.27201],[-95.90701,38.27206],[-95.90465,38.27026],[-95.90343,38.2706],[-95.90214,38.27058],[-95.9032,38.26939],[-95.90118,38.26709],[-95.90147,38.26517],[-95.90404,38.26526],[-95.90405,38.26374],[-95.90325,38.26323],[-95.90339,38.26246],[-95.90549,38.26242],[-95.9066,38.26378],[-95.90682,38.26697],[-95.91332,38.26694],[-95.91326,38.2716],[-95.91273,38.27169],[-95.91227,38.27152],[-95.91131,38.2705],[-95.91125,38.26964],[-95.91159,38.26839],[-95.91043,38.26839],[-95.91025,38.26877],[-95.90988,38.26865],[-95.90944,38.26786],[-95.90748,38.26838],[-95.90823,38.26902]]]},"properties":{"fire_id":"ufid:2024-KSCFX-000338","source_collection":"history-2024","source_objectid":33208,"incident_name":"P Road","mapped_acres":126.0,"mapped_acres_source":"poly_GISAcres","gis_acres":126.0,"auto_acres":127.62076851520538,"reported_acres":126.0,"percent_contained":null,"state":"KS","state_wfigs":"US-KS","county":"Coffey","discovery_time_utc":"2024-04-10T20:35:40Z","perimeter_time_utc":"2024-10-08T17:57:06Z","perimeter_edit_time_utc":"2024-10-08T17:57:06Z","incident_modified_time_utc":"2024-09-17T15:27:11Z","containment_time_utc":"2024-04-10T20:40:00Z","control_time_utc":"2024-04-17T22:00:00Z","fire_out_time_utc":"2024-04-22T17:30:00Z","fire_cause":"Human","fire_cause_general":"Debris and open burning","map_method":"Hand Sketch","source_dataset":"FFP","unique_fire_identifier":"2024-KSCFX-000338","irwin_id":"{1CE6D42A-4F63-49BC-81E7-F8E454ADD05A}","global_id":"d9314bc1-e6a3-45de-b196-ad2c0766d5c6"}},{"type":"Feature","geometry":{"type":"Polygon","coordinates":[[[-95.95475,38.27432],[-95.95532,38.27452],[-95.9552,38.27487],[-95.9558,38.27533],[-95.95579,38.27546],[-95.95715,38.27548],[-95.95717,38.27509],[-95.95745,38.27514],[-95.95744,38.27432],[-95.95915,38.27432],[-95.95915,38.2756],[-95.95834,38.2756],[-95.95824,38.27645],[-95.9591,38.27652],[-95.95917,38.28159],[-95.95023,38.28147],[-95.95027,38.27977],[-95.95164,38.27977],[-95.95194,38.2795],[-95.95219,38.2743],[-95.95475,38.27432]]]},"properties":{"fire_id":"ufid:2024-KSLYX-000301","source_collection":"history-2024","source_objectid":33210,"incident_name":"Olpe Hartford Rd","mapped_acres":1.0,"mapped_acres_source":"poly_GISAcres","gis_acres":1.0,"auto_acres":123.01617730596642,"reported_acres":122.25,"percent_contained":null,"state":"KS","state_wfigs":"US-KS","county":"Lyon","discovery_time_utc":"2024-04-01T13:30:00Z","perimeter_time_utc":"2024-10-08T17:58:33Z","perimeter_edit_time_utc":"2024-10-08T17:58:34Z","incident_modified_time_utc":"2024-09-17T15:29:10Z","containment_time_utc":"2024-04-02T16:00:00Z","control_time_utc":"2024-04-09T22:00:00Z","fire_out_time_utc":"2024-04-22T16:30:00Z","fire_cause":"Human","fire_cause_general":"Debris and open burning","map_method":"Hand Sketch","source_dataset":"FFP","unique_fire_identifier":"2024-KSLYX-000301","irwin_id":"{432D9BB4-0A93-4531-9EE8-65DA700B8AFF}","global_id":"43080c39-22f0-45cd-b242-1ce06c349b22"}},{"type":"Feature","geometry":{"type":"Polygon","coordinates":[[[-95.85788,38.31274],[-95.85792,38.30691],[-95.85984,38.30678],[-95.86067,38.30697],[-95.8609,38.30728],[-95.8613,38.30706],[-95.86172,38.30707],[-95.86208,38.30751],[-95.86188,38.30916],[-95.86202,38.30941],[-95.86186,38.30949],[-95.86163,38.31019],[-95.86138,38.31045],[-95.86113,38.31181],[-95.86056,38.31186],[-95.86025,38.31286],[-95.85958,38.31265],[-95.85944,38.31283],[-95.85918,38.31278],[-95.85869,38.31248],[-95.85851,38.31266],[-95.85788,38.31274]]]},"properties":{"fire_id":"ufid:2024-KSCFX-000283","source_collection":"history-2024","source_objectid":33213,"incident_name":"East Benedict Creek","mapped_acres":49.5,"mapped_acres_source":"poly_GISAcres","gis_acres":49.5,"auto_acres":50.32201436334087,"reported_acres":49.5,"percent_contained":null,"state":"KS","state_wfigs":"US-KS","county":"Coffey","discovery_time_utc":"2024-03-28T13:30:00Z","perimeter_time_utc":"2024-10-08T18:03:28Z","perimeter_edit_time_utc":"2024-10-08T18:03:29Z","incident_modified_time_utc":"2024-09-17T15:30:57Z","containment_time_utc":"2024-04-02T14:00:00Z","control_time_utc":"2024-04-02T18:00:00Z","fire_out_time_utc":"2024-04-22T16:00:00Z","fire_cause":"Human","fire_cause_general":"Debris and open burning","map_method":"Hand Sketch","source_dataset":"FFP","unique_fire_identifier":"2024-KSCFX-000283","irwin_id":"{9E3E6C36-C6CC-4786-AA2E-F4672D34CAB4}","global_id":"dd3f9575-4438-44cb-9535-3d83e7f2d316"}},{"type":"Feature","geometry":{"type":"Polygon","coordinates":[[[-95.84504,39.32774],[-95.84515,39.32774],[-95.84511,39.3278],[-95.84504,39.32774]]]},"properties":{"fire_id":"ufid:2024-KSHOA-000147","source_collection":"history-2024","source_objectid":35967,"incident_name":"3 Charlie 24","mapped_acres":0.1,"mapped_acres_source":"poly_GISAcres","gis_acres":0.1,"auto_acres":0.011537254508638226,"reported_acres":0.01,"percent_contained":null,"state":"KS","state_wfigs":"US-KS","county":"Jackson","discovery_time_utc":"2024-02-27T03:48:00Z","perimeter_time_utc":"2024-12-19T14:48:48Z","perimeter_edit_time_utc":"2024-12-19T14:48:48Z","incident_modified_time_utc":"2024-07-20T15:54:30Z","containment_time_utc":"2024-02-27T03:55:00Z","control_time_utc":"2024-03-03T13:00:00Z","fire_out_time_utc":"2024-03-19T01:00:00Z","fire_cause":"Human","fire_cause_general":"Other causes","map_method":"Hand Sketch","source_dataset":"FFP","unique_fire_identifier":"2024-KSHOA-000147","irwin_id":"{C06A272E-6522-4128-B79B-96B09878E7A5}","global_id":"839f1283-e29c-42a8-9eef-646cc2cc97a3"}},{"type":"Feature","geometry":{"type":"MultiPolygon","coordinates":[[[[-95.78359,39.34945],[-95.78402,39.34969],[-95.78355,39.3495],[-95.78359,39.34945]]],[[[-95.78102,39.34874],[-95.78355,39.3495],[-95.77982,39.35321],[-95.77597,39.35829],[-95.77019,39.35632],[-95.77051,39.35286],[-95.77009,39.35056],[-95.77337,39.34974],[-95.77474,39.34957],[-95.77579,39.34875],[-95.78102,39.34874]]]]},"properties":{"fire_id":"ufid:2024-KSHOA-000211","source_collection":"history-2024","source_objectid":35968,"incident_name":"6 Foxtrot 24","mapped_acres":20.0,"mapped_acres_source":"poly_GISAcres","gis_acres":20.0,"auto_acres":185.28263053661783,"reported_acres":180.0,"percent_contained":null,"state":"KS","state_wfigs":"US-KS","county":"Jackson","discovery_time_utc":"2024-03-03T20:14:00Z","perimeter_time_utc":"2024-12-19T14:59:55Z","perimeter_edit_time_utc":"2024-12-19T14:59:56Z","incident_modified_time_utc":"2024-07-20T15:59:26Z","containment_time_utc":"2024-03-04T00:41:00Z","control_time_utc":"2024-03-04T01:00:00Z","fire_out_time_utc":"2024-03-26T01:00:00Z","fire_cause":"Human","fire_cause_general":"Debris and open burning","map_method":"Hand Sketch","source_dataset":"FFP","unique_fire_identifier":"2024-KSHOA-000211","irwin_id":"{951B58BE-6B00-46F4-A4D6-6015FAF8C987}","global_id":"73bb85a3-c3ed-4da8-bcd5-d0cdd5301cc0"}},{"type":"Feature","geometry":{"type":"Polygon","coordinates":[[[-95.88046,39.30041],[-95.8907,39.30079],[-95.89068,39.30192],[-95.88554,39.30339],[-95.87967,39.3033],[-95.87968,39.30256],[-95.87916,39.30252],[-95.87908,39.30151],[-95.87974,39.30069],[-95.88046,39.30041]]]},"properties":{"fire_id":"ufid:2024-KSHOA-000123","source_collection":"history-2024","source_objectid":35969,"incident_name":"1 Alpha 24","mapped_acres":20.0,"mapped_acres_source":"poly_GISAcres","gis_acres":20.0,"auto_acres":65.22290464073681,"reported_acres":64.0,"percent_contained":null,"state":"KS","state_wfigs":"US-KS","county":"Jackson","discovery_time_utc":"2024-02-13T19:46:00Z","perimeter_time_utc":"2024-12-19T14:45:34Z","perimeter_edit_time_utc":"2024-12-19T14:45:34Z","incident_modified_time_utc":"2024-07-20T15:48:57Z","containment_time_utc":"2024-02-13T22:50:00Z","control_time_utc":"2024-02-13T22:55:00Z","fire_out_time_utc":"2024-03-25T13:00:00Z","fire_cause":"Human","fire_cause_general":"Other causes","map_method":"Hand Sketch","source_dataset":"FFP","unique_fire_identifier":"2024-KSHOA-000123","irwin_id":"{D6213F06-1DC9-4D58-8D85-1B96481D33C9}","global_id":"a5d13de8-806f-4cb6-a539-e4302b4545a6"}},{"type":"Feature","geometry":{"type":"Polygon","coordinates":[[[-95.79326,39.32185],[-95.79334,39.32187],[-95.79333,39.32275],[-95.7932,39.32273],[-95.79326,39.32185]]]},"properties":{"fire_id":"ufid:2024-KSHOA-000160","source_collection":"history-2024","source_objectid":35971,"incident_name":"5 Echo 24","mapped_acres":0.25,"mapped_acres_source":"poly_GISAcres","gis_acres":0.25,"auto_acres":0.2258237317045915,"reported_acres":0.25,"percent_contained":null,"state":"KS","state_wfigs":"US-KS","county":"Jackson","discovery_time_utc":"2024-02-27T22:10:00Z","perimeter_time_utc":"2024-12-19T14:59:32Z","perimeter_edit_time_utc":"2024-12-19T14:59:33Z","incident_modified_time_utc":"2024-07-20T15:55:56Z","containment_time_utc":"2024-02-27T22:20:00Z","control_time_utc":"2024-03-03T13:00:00Z","fire_out_time_utc":"2024-03-19T01:00:00Z","fire_cause":"Undetermined","fire_cause_general":"Undetermined","map_method":"Hand Sketch","source_dataset":"FFP","unique_fire_identifier":"2024-KSHOA-000160","irwin_id":"{6EABC887-3F9B-40A6-B6DF-80787F0538DA}","global_id":"fe6c47de-3597-4628-918b-70da9dc9ff70"}},{"type":"Feature","geometry":{"type":"Polygon","coordinates":[[[-95.80645,39.32096],[-95.80609,39.32056],[-95.8074,39.32011],[-95.80737,39.32077],[-95.80645,39.32096]]]},"properties":{"fire_id":"ufid:2024-KSHOA-000157","source_collection":"history-2024","source_objectid":35972,"incident_name":"2 Bravo 24","mapped_acres":1.0,"mapped_acres_source":"poly_GISAcres","gis_acres":1.0,"auto_acres":1.5018656360360843,"reported_acres":1.5,"percent_contained":null,"state":"KS","state_wfigs":"US-KS","county":"Jackson","discovery_time_utc":"2024-02-25T20:20:00Z","perimeter_time_utc":"2024-12-19T14:56:00Z","perimeter_edit_time_utc":"2024-12-19T14:56:00Z","incident_modified_time_utc":"2024-07-20T15:51:42Z","containment_time_utc":"2024-02-25T21:40:00Z","control_time_utc":"2024-02-25T21:45:00Z","fire_out_time_utc":"2024-03-19T01:00:00Z","fire_cause":"Human","fire_cause_general":"Debris and open burning","map_method":"Hand Sketch","source_dataset":"FFP","unique_fire_identifier":"2024-KSHOA-000157","irwin_id":"{7B400272-B9E3-46F7-9644-7F1F51054616}","global_id":"d6bd52a4-0e8e-45e7-819f-7de995297a77"}},{"type":"Feature","geometry":{"type":"Polygon","coordinates":[[[-95.84962,39.32674],[-95.84968,39.32673],[-95.84965,39.32684],[-95.84962,39.32674]]]},"properties":{"fire_id":"ufid:2024-KSHOA-001709","source_collection":"history-2024","source_objectid":36039,"incident_name":"7 Golf 24","mapped_acres":0.1,"mapped_acres_source":"poly_GISAcres","gis_acres":0.1,"auto_acres":0.05833879438706762,"reported_acres":0.1,"percent_contained":null,"state":"KS","state_wfigs":"US-KS","county":"Jackson","discovery_time_utc":"2024-10-03T17:23:00Z","perimeter_time_utc":"2024-10-03T22:23:00Z","perimeter_edit_time_utc":"2024-12-20T15:10:53Z","incident_modified_time_utc":"2024-12-20T15:16:22Z","containment_time_utc":"2024-10-03T17:27:00Z","control_time_utc":"2024-10-21T14:00:00Z","fire_out_time_utc":"2024-10-22T14:00:00Z","fire_cause":"Human","fire_cause_general":null,"map_method":"Hand Sketch","source_dataset":"2024 NIFS","unique_fire_identifier":"2024-KSHOA-001709","irwin_id":"{F43B9DE3-36B7-4EF3-A4BD-8210F42506D9}","global_id":"be285ba9-ad1b-472a-b8d8-895978f6c07e"}},{"type":"Feature","geometry":{"type":"Polygon","coordinates":[[[-95.84374,39.3017],[-95.84371,39.30166],[-95.84379,39.30165],[-95.84374,39.3017]]]},"properties":{"fire_id":"ufid:2024-KSHOA-001719","source_collection":"history-2024","source_objectid":36040,"incident_name":"8 HOTEL 24","mapped_acres":0.1,"mapped_acres_source":"poly_GISAcres","gis_acres":0.1,"auto_acres":0.07385897316012643,"reported_acres":0.1,"percent_contained":null,"state":"KS","state_wfigs":"US-KS","county":"Jackson","discovery_time_utc":"2024-10-08T21:12:00Z","perimeter_time_utc":"2024-10-22T17:13:54Z","perimeter_edit_time_utc":"2024-12-20T16:13:06Z","incident_modified_time_utc":"2024-12-20T16:23:51Z","containment_time_utc":"2024-10-08T21:31:00Z","control_time_utc":"2024-10-21T14:00:00Z","fire_out_time_utc":"2024-10-22T14:00:00Z","fire_cause":"Human","fire_cause_general":null,"map_method":"Hand Sketch","source_dataset":"2024 NIFS","unique_fire_identifier":"2024-KSHOA-001719","irwin_id":"{5C5B9B69-0CA3-4E8A-A0F4-FA8FCBE62EFE}","global_id":"4588d08c-9013-44f3-91b7-594647be92fa"}},{"type":"Feature","geometry":{"type":"Polygon","coordinates":[[[-95.83302,39.33088],[-95.83316,39.33089],[-95.83313,39.33096],[-95.83302,39.33088]]]},"properties":{"fire_id":"ufid:2024-KSHOA-001774","source_collection":"history-2024","source_objectid":36041,"incident_name":"9 India 24","mapped_acres":0.1,"mapped_acres_source":"poly_GISAcres","gis_acres":0.1,"auto_acres":0.029946265530061973,"reported_acres":0.1,"percent_contained":null,"state":"KS","state_wfigs":"US-KS","county":"Jackson","discovery_time_utc":"2024-10-13T20:09:00Z","perimeter_time_utc":"2024-10-25T16:50:20Z","perimeter_edit_time_utc":"2024-12-20T16:42:31Z","incident_modified_time_utc":"2024-12-20T16:44:21Z","containment_time_utc":"2024-10-13T20:22:00Z","control_time_utc":"2024-10-21T14:00:00Z","fire_out_time_utc":"2024-10-22T14:00:00Z","fire_cause":"Human","fire_cause_general":null,"map_method":"Auto-generated for InFORM","source_dataset":"2024 NIFS","unique_fire_identifier":"2024-KSHOA-001774","irwin_id":"{70FC753A-752B-4561-9FED-8268EF3D1E35}","global_id":"80f7f15e-37b4-42e5-b3c6-601185a3936b"}},{"type":"Feature","geometry":{"type":"Polygon","coordinates":[[[-95.84973,39.27786],[-95.8496,39.27734],[-95.8504,39.27754],[-95.85106,39.27731],[-95.85171,39.27733],[-95.85163,39.27744],[-95.84973,39.27786]]]},"properties":{"fire_id":"ufid:2024-KSHOA-001776","source_collection":"history-2024","source_objectid":36042,"incident_name":"10 Juliet 24","mapped_acres":0.5,"mapped_acres_source":"poly_GISAcres","gis_acres":0.5,"auto_acres":1.1890280768268606,"reported_acres":0.5,"percent_contained":null,"state":"KS","state_wfigs":"US-KS","county":"Jackson","discovery_time_utc":"2024-10-22T00:33:00Z","perimeter_time_utc":"2024-10-25T16:52:39Z","perimeter_edit_time_utc":"2024-12-20T16:47:56Z","incident_modified_time_utc":"2024-12-20T16:48:39Z","containment_time_utc":"2024-10-22T01:05:00Z","control_time_utc":"2024-10-23T18:00:00Z","fire_out_time_utc":"2024-10-23T18:00:00Z","fire_cause":"Human","fire_cause_general":null,"map_method":"Auto-generated for InFORM","source_dataset":"2024 NIFS","unique_fire_identifier":"2024-KSHOA-001776","irwin_id":"{D9FBEE70-D02B-4A00-8F90-F8C7F9171A9B}","global_id":"34fa7055-4ec4-4c04-8ad0-2e06aa2b3c84"}},{"type":"Feature","geometry":{"type":"Polygon","coordinates":[[[-95.82377,39.32112],[-95.82341,39.32034],[-95.82346,39.31946],[-95.82396,39.3186],[-95.82436,39.3184],[-95.82527,39.3183],[-95.82529,39.31988],[-95.82568,39.3211],[-95.8256,39.32173],[-95.8253,39.32196],[-95.82424,39.32155],[-95.82377,39.32112]]]},"properties":{"fire_id":"ufid:2024-KSHOA-001827","source_collection":"history-2024","source_objectid":36043,"incident_name":"11 Kilo 24","mapped_acres":13.5,"mapped_acres_source":"poly_GISAcres","gis_acres":13.5,"auto_acres":13.813625074692046,"reported_acres":13.5,"percent_contained":null,"state":"KS","state_wfigs":"US-KS","county":"Jackson","discovery_time_utc":"2024-10-30T02:39:00Z","perimeter_time_utc":"2024-11-06T20:05:45Z","perimeter_edit_time_utc":"2024-12-20T16:50:44Z","incident_modified_time_utc":"2024-12-20T16:53:54Z","containment_time_utc":"2024-10-30T03:35:00Z","control_time_utc":"2024-10-30T03:37:00Z","fire_out_time_utc":"2024-10-30T04:50:00Z","fire_cause":"Human","fire_cause_general":null,"map_method":"Auto-generated for InFORM","source_dataset":"2024 NIFS","unique_fire_identifier":"2024-KSHOA-001827","irwin_id":"{0C9CE20F-F5E9-4557-BB1B-7BEEA4294B93}","global_id":"bc6d2726-b525-4691-bab0-b4b23da70879"}},{"type":"Feature","geometry":{"type":"Polygon","coordinates":[[[-95.84875,39.29606],[-95.84946,39.29619],[-95.84933,39.29646],[-95.84841,39.29641],[-95.84875,39.29606]]]},"properties":{"fire_id":"ufid:2024-KSHOA-001890","source_collection":"history-2024","source_objectid":36046,"incident_name":"12 Lima 24 HOA","mapped_acres":0.75,"mapped_acres_source":"poly_GISAcres","gis_acres":0.75,"auto_acres":0.6899174219701258,"reported_acres":0.75,"percent_contained":null,"state":"KS","state_wfigs":"US-KS","county":"Jackson","discovery_time_utc":"2024-12-08T17:50:00Z","perimeter_time_utc":"2024-12-16T23:40:08Z","perimeter_edit_time_utc":"2024-12-20T16:56:39Z","incident_modified_time_utc":"2024-12-20T16:57:15Z","containment_time_utc":"2024-12-08T18:12:00Z","control_time_utc":"2024-12-16T14:00:00Z","fire_out_time_utc":"2024-12-16T14:00:00Z","fire_cause":"Human","fire_cause_general":null,"map_method":"Auto-generated for InFORM","source_dataset":"2024 NIFS","unique_fire_identifier":"2024-KSHOA-001890","irwin_id":"{5A157677-C880-41F5-A188-4441D83B68FF}","global_id":"e1878c93-9734-4d0e-b3b0-1cb7ed54b8eb"}},{"type":"Feature","geometry":{"type":"Polygon","coordinates":[[[-95.94103,38.34312],[-95.94309,38.34311],[-95.94398,38.34323],[-95.94453,38.34349],[-95.94444,38.34376],[-95.94492,38.34385],[-95.94477,38.34413],[-95.94453,38.34425],[-95.94369,38.34426],[-95.9435,38.34413],[-95.9436,38.34388],[-95.94289,38.34342],[-95.94107,38.34351],[-95.94103,38.34312]]]},"properties":{"fire_id":"ufid:2024-KSFLR-000213","source_collection":"history-2024","source_objectid":36422,"incident_name":"Troublesome Creek","mapped_acres":4.77,"mapped_acres_source":"poly_GISAcres","gis_acres":4.77,"auto_acres":4.77009187545684,"reported_acres":4.77,"percent_contained":null,"state":"KS","state_wfigs":"US-KS","county":"Coffey","discovery_time_utc":"2024-03-06T20:00:00Z","perimeter_time_utc":"2025-01-10T14:49:30Z","perimeter_edit_time_utc":"2025-01-10T14:49:30Z","incident_modified_time_utc":"2025-01-10T14:43:14Z","containment_time_utc":"2024-03-07T00:00:00Z","control_time_utc":"2024-03-08T22:30:00Z","fire_out_time_utc":"2024-03-28T15:00:00Z","fire_cause":"Human","fire_cause_general":"Debris and open burning","map_method":"Hand Sketch","source_dataset":"FFP","unique_fire_identifier":"2024-KSFLR-000213","irwin_id":"{8DF08D25-C112-4024-BBDB-43F8BB2F472F}","global_id":"313f84b4-6117-45b5-bbb7-1c5efaaffe90"}},{"type":"Feature","geometry":{"type":"Polygon","coordinates":[[[-95.89113,38.31052],[-95.89106,38.31052],[-95.89108,38.31043],[-95.89113,38.31052]]]},"properties":{"fire_id":"ufid:2024-KSFLR-000390","source_collection":"history-2024","source_objectid":36488,"incident_name":"Fishing Dock","mapped_acres":0.01,"mapped_acres_source":"poly_GISAcres","gis_acres":0.01,"auto_acres":0.010905502954046794,"reported_acres":0.01,"percent_contained":null,"state":"KS","state_wfigs":"US-KS","county":"Coffey","discovery_time_utc":"2024-04-19T15:00:00Z","perimeter_time_utc":"2025-01-14T17:49:46Z","perimeter_edit_time_utc":"2025-01-14T17:49:46Z","incident_modified_time_utc":"2024-09-17T15:46:53Z","containment_time_utc":"2024-04-20T23:00:00Z","control_time_utc":"2024-04-20T23:00:00Z","fire_out_time_utc":"2024-04-22T17:00:00Z","fire_cause":"Human","fire_cause_general":"Undetermined","map_method":"Hand Sketch","source_dataset":"FFP","unique_fire_identifier":"2024-KSFLR-000390","irwin_id":"{A236F83A-AA83-4BB3-9DB3-4AD378216E50}","global_id":"ef640f47-280f-463e-882f-d180d41c05ee"}},{"type":"Feature","geometry":{"type":"Polygon","coordinates":[[[-98.45471,38.22918],[-98.45471,38.22916],[-98.45474,38.22917],[-98.45471,38.22918]]]},"properties":{"fire_id":"ufid:2024-KSQUR-000802","source_collection":"history-2024","source_objectid":36494,"incident_name":"Pipe Post","mapped_acres":0.01,"mapped_acres_source":"poly_GISAcres","gis_acres":0.01,"auto_acres":0.0009121089216395244,"reported_acres":0.01,"percent_contained":null,"state":"KS","state_wfigs":"US-KS","county":"Rice","discovery_time_utc":"2024-06-25T20:00:00Z","perimeter_time_utc":"2025-01-14T18:03:49Z","perimeter_edit_time_utc":"2025-01-14T18:03:50Z","incident_modified_time_utc":"2024-09-17T16:10:12Z","containment_time_utc":"2024-06-25T21:15:00Z","control_time_utc":"2024-06-27T21:00:00Z","fire_out_time_utc":"2024-06-27T21:00:00Z","fire_cause":"Human","fire_cause_general":"Equipment and vehicle use","map_method":"Hand Sketch","source_dataset":"FFP","unique_fire_identifier":"2024-KSQUR-000802","irwin_id":"{EADD9864-DBF3-43C4-BA0D-537AAC7061E7}","global_id":"788eff3f-002b-4719-8a1d-4e8889808b4c"}},{"type":"Feature","geometry":{"type":"Polygon","coordinates":[[[-95.87435,38.30311],[-95.87149,38.30312],[-95.87159,38.30285],[-95.87187,38.30271],[-95.87183,38.30254],[-95.8721,38.30242],[-95.8725,38.30242],[-95.87289,38.30265],[-95.87342,38.30258],[-95.87435,38.30311]]]},"properties":{"fire_id":"ufid:2024-KSFLR-001818","source_collection":"history-2024","source_objectid":38646,"incident_name":"Lairds Pond","mapped_acres":3.12,"mapped_acres_source":"poly_GISAcres","gis_acres":3.12,"auto_acres":3.1186375576125416,"reported_acres":3.0,"percent_contained":null,"state":"KS","state_wfigs":"US-KS","county":"Coffey","discovery_time_utc":"2024-10-29T05:30:00Z","perimeter_time_utc":"2025-07-02T16:12:07Z","perimeter_edit_time_utc":null,"incident_modified_time_utc":"2024-11-13T20:14:40Z","containment_time_utc":"2024-10-29T15:00:00Z","control_time_utc":"2024-10-30T21:30:00Z","fire_out_time_utc":"2024-11-04T16:00:00Z","fire_cause":"Human","fire_cause_general":"Arson","map_method":"Hand Sketch","source_dataset":"FFP","unique_fire_identifier":"2024-KSFLR-001818","irwin_id":"{9EE418F1-4A39-49A3-B4CE-D0796F35AAC9}","global_id":"004263a0-c4cf-43c7-a57b-23212f781096"}}]}
