{"type":"FeatureCollection","features":[{"type":"Feature","geometry":{"type":"Polygon","coordinates":[[[-70.2235,44.51016],[-70.2236,44.51024],[-70.22353,44.51054],[-70.22294,44.51061],[-70.22279,44.51041],[-70.2235,44.51016]]]},"properties":{"fire_id":"ufid:2024-MEMES-24000999","source_collection":"history-2024","source_objectid":25568,"incident_name":"Snow Fire","mapped_acres":0.5,"mapped_acres_source":"poly_GISAcres","gis_acres":0.5,"auto_acres":0.5170534815009795,"reported_acres":0.5,"percent_contained":null,"state":"ME","state_wfigs":"US-ME","county":"Franklin","discovery_time_utc":"2024-03-20T16:15:35Z","perimeter_time_utc":"2024-12-17T14:46:28Z","perimeter_edit_time_utc":"2024-12-17T14:46:28Z","incident_modified_time_utc":"2024-03-20T19:57:43Z","containment_time_utc":"2024-03-20T17:45:00Z","control_time_utc":"2024-03-20T17:45:00Z","fire_out_time_utc":"2024-03-20T18:00:00Z","fire_cause":"Human","fire_cause_general":"Debris and open burning","map_method":"Auto-generated","source_dataset":"FFP","unique_fire_identifier":"2024-MEMES-24000999","irwin_id":"{754B046D-83AF-489C-BA09-31A2C620C57C}","global_id":"103c242d-8baf-403d-9973-0d20e8e3455c"}},{"type":"Feature","geometry":{"type":"Polygon","coordinates":[[[-70.18111,43.87564],[-70.18149,43.87566],[-70.18149,43.8759],[-70.18114,43.8765],[-70.18068,43.87686],[-70.18019,43.87668],[-70.18013,43.87641],[-70.18032,43.87636],[-70.18035,43.87621],[-70.1807,43.87625],[-70.18111,43.87564]]]},"properties":{"fire_id":"ufid:2024-MEMES-24000794","source_collection":"history-2024","source_objectid":25648,"incident_name":"Hodsdon Road Grass Fire","mapped_acres":2.2,"mapped_acres_source":"poly_GISAcres","gis_acres":2.2,"auto_acres":1.759337717271657,"reported_acres":2.2,"percent_contained":null,"state":"ME","state_wfigs":"US-ME","county":"Cumberland","discovery_time_utc":"2024-03-01T19:25:00Z","perimeter_time_utc":"2024-04-23T16:38:35Z","perimeter_edit_time_utc":"2024-04-23T16:38:35Z","incident_modified_time_utc":"2024-03-22T18:44:46Z","containment_time_utc":"2024-03-01T20:33:00Z","control_time_utc":null,"fire_out_time_utc":"2024-03-01T20:47:00Z","fire_cause":"Human","fire_cause_general":"Debris and open burning","map_method":"Hand Sketch","source_dataset":"FFP","unique_fire_identifier":"2024-MEMES-24000794","irwin_id":"{DA3A74E7-FF9B-4F6A-A976-625718FD3DAE}","global_id":"0cd87865-3ebc-452e-bcff-cc018bca58c8"}},{"type":"Feature","geometry":{"type":"Polygon","coordinates":[[[-70.06082,43.97147],[-70.06056,43.97155],[-70.06053,43.97177],[-70.05984,43.97192],[-70.0591,43.97154],[-70.05919,43.9714],[-70.0594,43.97139],[-70.05931,43.97103],[-70.05954,43.97087],[-70.06,43.97125],[-70.05997,43.9714],[-70.06014,43.97129],[-70.06014,43.97096],[-70.06029,43.97089],[-70.06059,43.97117],[-70.06059,43.97141],[-70.06082,43.97147]]]},"properties":{"fire_id":"ufid:2024-MEMES-24001033","source_collection":"history-2024","source_objectid":25652,"incident_name":"Pinkham Crossing Fire","mapped_acres":2.3,"mapped_acres_source":"poly_GISAcres","gis_acres":2.3,"auto_acres":2.291816674984896,"reported_acres":2.3,"percent_contained":null,"state":"ME","state_wfigs":"US-ME","county":"Androscoggin","discovery_time_utc":"2024-03-22T17:30:00Z","perimeter_time_utc":"2024-04-23T17:47:23Z","perimeter_edit_time_utc":"2024-04-23T17:47:23Z","incident_modified_time_utc":"2024-03-22T19:52:31Z","containment_time_utc":"2024-03-22T17:54:28Z","control_time_utc":"2024-03-22T17:54:28Z","fire_out_time_utc":"2024-03-22T19:44:28Z","fire_cause":"Human","fire_cause_general":"Debris and open burning","map_method":"Auto-generated","source_dataset":"FFP","unique_fire_identifier":"2024-MEMES-24001033","irwin_id":"{3401466C-4CA8-4D83-AE8A-A1EEAD965D84}","global_id":"58bf3c01-19f7-484c-ad9c-c1dd78c60beb"}},{"type":"Feature","geometry":{"type":"Polygon","coordinates":[[[-70.96936,44.0142],[-70.97064,44.01384],[-70.97081,44.01406],[-70.97011,44.01468],[-70.96972,44.01438],[-70.96948,44.01443],[-70.96967,44.01422],[-70.96936,44.0142]]]},"properties":{"fire_id":"ufid:2024-MEMES-24001527","source_collection":"history-2024","source_objectid":25653,"incident_name":"Trail-side Fire","mapped_acres":1.4,"mapped_acres_source":"poly_GISAcres","gis_acres":1.4,"auto_acres":1.4041219728967669,"reported_acres":1.4,"percent_contained":null,"state":"ME","state_wfigs":"US-ME","county":"Oxford","discovery_time_utc":"2024-04-21T17:25:00Z","perimeter_time_utc":"2024-04-23T18:02:46Z","perimeter_edit_time_utc":"2024-04-23T18:02:46Z","incident_modified_time_utc":"2024-04-21T20:50:14Z","containment_time_utc":"2024-04-21T17:55:00Z","control_time_utc":"2024-04-21T17:55:00Z","fire_out_time_utc":"2024-04-21T18:31:00Z","fire_cause":"Human","fire_cause_general":"Undetermined","map_method":"Auto-generated","source_dataset":"FFP","unique_fire_identifier":"2024-MEMES-24001527","irwin_id":"{2E3592BC-345C-494C-88DD-35134A15CB4E}","global_id":"eb1036e6-a493-4609-9a7a-147c11149e96"}},{"type":"Feature","geometry":{"type":"Polygon","coordinates":[[[-70.11014,44.74071],[-70.11055,44.74077],[-70.11087,44.74125],[-70.11025,44.74132],[-70.11002,44.74123],[-70.11007,44.74106],[-70.10994,44.74097],[-70.11014,44.74071]]]},"properties":{"fire_id":"ufid:2024-MEMES-240001652","source_collection":"history-2024","source_objectid":25776,"incident_name":"Ice Cream Box Fire","mapped_acres":0.8,"mapped_acres_source":"poly_GISAcres","gis_acres":0.8,"auto_acres":0.8247678363152076,"reported_acres":0.8,"percent_contained":null,"state":"ME","state_wfigs":"US-ME","county":"Franklin","discovery_time_utc":"2024-04-23T19:15:00Z","perimeter_time_utc":"2024-12-09T12:29:09Z","perimeter_edit_time_utc":"2024-12-09T12:29:09Z","incident_modified_time_utc":"2024-04-23T21:00:11Z","containment_time_utc":"2024-04-23T20:00:00Z","control_time_utc":"2024-04-23T20:00:00Z","fire_out_time_utc":"2024-04-23T21:00:00Z","fire_cause":"Human","fire_cause_general":"Recreation and ceremony","map_method":"Auto-generated","source_dataset":"FFP","unique_fire_identifier":"2024-MEMES-240001652","irwin_id":"{AFECE5D8-1430-4A80-8FD1-837AD696CF78}","global_id":"e444a9a2-8f59-49ca-881c-8d3d8482579b"}},{"type":"Feature","geometry":{"type":"Polygon","coordinates":[[[-70.32564,43.96016],[-70.32656,43.96057],[-70.32708,43.9611],[-70.327,43.9614],[-70.32601,43.9614],[-70.32547,43.96109],[-70.32514,43.96054],[-70.32528,43.9602],[-70.32553,43.96029],[-70.32564,43.96016]],[[-70.32584,43.9612],[-70.32581,43.9612],[-70.32588,43.96126],[-70.32584,43.9612]]]},"properties":{"fire_id":"ufid:2024-MEMES-24001648","source_collection":"history-2024","source_objectid":26141,"incident_name":"Brookside Fire","mapped_acres":3.3,"mapped_acres_source":"poly_GISAcres","gis_acres":3.3,"auto_acres":3.307377735129362,"reported_acres":3.3,"percent_contained":null,"state":"ME","state_wfigs":"US-ME","county":"Cumberland","discovery_time_utc":"2024-04-23T18:13:00Z","perimeter_time_utc":"2024-05-08T18:55:02Z","perimeter_edit_time_utc":"2024-05-08T18:55:02Z","incident_modified_time_utc":"2024-04-30T13:38:53Z","containment_time_utc":"2024-04-23T19:20:00Z","control_time_utc":"2024-04-23T20:14:00Z","fire_out_time_utc":"2024-04-23T21:00:00Z","fire_cause":"Human","fire_cause_general":"Debris and open burning","map_method":"Auto-generated","source_dataset":"FFP","unique_fire_identifier":"2024-MEMES-24001648","irwin_id":"{0023A5A2-93E4-4DE1-AE01-A820C16025D9}","global_id":"de70157f-588c-48ae-9fba-0eaad6b24012"}},{"type":"Feature","geometry":{"type":"Polygon","coordinates":[[[-70.54514,43.54283],[-70.54538,43.54279],[-70.54652,43.54352],[-70.54629,43.54378],[-70.54389,43.54404],[-70.54387,43.54391],[-70.54366,43.54396],[-70.54349,43.54356],[-70.54321,43.54361],[-70.54316,43.54344],[-70.54239,43.54321],[-70.54322,43.54227],[-70.54416,43.54279],[-70.5446,43.54285],[-70.54485,43.54266],[-70.54514,43.54283]]]},"properties":{"fire_id":"ufid:2024-MEMES-24001014","source_collection":"history-2024","source_objectid":26142,"incident_name":"Old River Road Fire","mapped_acres":8.2,"mapped_acres_source":"poly_GISAcres","gis_acres":8.2,"auto_acres":8.443906935059504,"reported_acres":8.3,"percent_contained":null,"state":"ME","state_wfigs":"US-ME","county":"York","discovery_time_utc":"2024-03-21T16:52:00Z","perimeter_time_utc":"2024-05-08T19:19:41Z","perimeter_edit_time_utc":"2024-05-08T19:19:41Z","incident_modified_time_utc":"2024-07-03T14:53:52Z","containment_time_utc":"2024-03-21T18:27:00Z","control_time_utc":null,"fire_out_time_utc":"2024-03-21T20:15:00Z","fire_cause":"Human","fire_cause_general":"Power generation/transmission/distribution","map_method":"Hand Sketch","source_dataset":"Decertified","unique_fire_identifier":"2024-MEMES-24001014","irwin_id":"{96BC5241-7F79-48C7-A4E1-56E048F9B15B}","global_id":"8377f5d8-de5e-45d2-9a4f-b8bffb212a49"}},{"type":"Feature","geometry":{"type":"Polygon","coordinates":[[[-70.66056,43.79118],[-70.66097,43.79126],[-70.66091,43.79143],[-70.66116,43.79151],[-70.66133,43.79177],[-70.66133,43.79203],[-70.66118,43.79206],[-70.6608,43.79177],[-70.66079,43.79199],[-70.66046,43.79205],[-70.66054,43.79166],[-70.66032,43.7914],[-70.66056,43.79118]],[[-70.66066,43.79125],[-70.66072,43.79125],[-70.6607,43.79124],[-70.66066,43.79125]]]},"properties":{"fire_id":"ufid:2024-MEMES-24001789","source_collection":"history-2024","source_objectid":26664,"incident_name":"Saco River Beach Fire","mapped_acres":1.2,"mapped_acres_source":"poly_GISAcres","gis_acres":1.2,"auto_acres":1.195544821882111,"reported_acres":1.3,"percent_contained":null,"state":"ME","state_wfigs":"US-ME","county":"Cumberland","discovery_time_utc":"2024-04-27T18:12:00Z","perimeter_time_utc":"2024-05-21T19:21:49Z","perimeter_edit_time_utc":"2024-05-21T19:21:49Z","incident_modified_time_utc":"2024-05-10T15:07:46Z","containment_time_utc":"2024-04-27T19:06:00Z","control_time_utc":"2024-04-27T19:06:00Z","fire_out_time_utc":"2024-04-27T21:11:00Z","fire_cause":"Human","fire_cause_general":"Misuse of fire by a minor","map_method":"Auto-generated","source_dataset":"FFP","unique_fire_identifier":"2024-MEMES-24001789","irwin_id":"{882C97C0-2D89-4BF2-8E0F-E2AD0860CF61}","global_id":"68b32518-10bd-456a-b9a3-51360401cdba"}},{"type":"Feature","geometry":{"type":"MultiPolygon","coordinates":[[[[-70.37336,44.26609],[-70.37336,44.26608],[-70.37338,44.26611],[-70.37336,44.26609]]],[[[-70.37407,44.26665],[-70.37335,44.2668],[-70.37355,44.26648],[-70.37345,44.26614],[-70.37325,44.26598],[-70.37343,44.26585],[-70.37322,44.26544],[-70.3734,44.26512],[-70.37444,44.265],[-70.37467,44.26525],[-70.37464,44.26543],[-70.37485,44.26546],[-70.375,44.26581],[-70.37444,44.26668],[-70.3742,44.26675],[-70.37407,44.26665]]]]},"properties":{"fire_id":"ufid:2024-MEMES-24004597","source_collection":"history-2024","source_objectid":34416,"incident_name":"South Pond Shore Fire","mapped_acres":4.5,"mapped_acres_source":"poly_GISAcres","gis_acres":4.5,"auto_acres":5.033571169035897,"reported_acres":5.0,"percent_contained":null,"state":"ME","state_wfigs":"US-ME","county":"Oxford","discovery_time_utc":"2024-10-26T21:30:00Z","perimeter_time_utc":"2024-11-09T21:22:12Z","perimeter_edit_time_utc":"2024-11-09T21:22:13Z","incident_modified_time_utc":"2024-10-27T16:00:53Z","containment_time_utc":"2024-10-27T00:00:00Z","control_time_utc":null,"fire_out_time_utc":"2024-10-30T20:21:00Z","fire_cause":"Human","fire_cause_general":"Recreation and ceremony","map_method":"Auto-generated for InFORM","source_dataset":"FFP","unique_fire_identifier":"2024-MEMES-24004597","irwin_id":"{29AEC3A8-6104-416E-88A4-9C8D07EFB630}","global_id":"9a64d9b2-f1a6-45fb-9def-690d36a0b999"}},{"type":"Feature","geometry":{"type":"MultiPolygon","coordinates":[[[[-70.10472,44.25246],[-70.10479,44.25247],[-70.10476,44.25249],[-70.10472,44.25246]]],[[[-70.10586,44.25201],[-70.10641,44.25203],[-70.10672,44.25218],[-70.10702,44.25258],[-70.10717,44.25335],[-70.10692,44.25362],[-70.10703,44.25387],[-70.10685,44.25424],[-70.10696,44.2543],[-70.10692,44.25485],[-70.10674,44.2552],[-70.10616,44.25549],[-70.10629,44.25571],[-70.10538,44.25579],[-70.10496,44.25543],[-70.10481,44.25479],[-70.10466,44.25468],[-70.10472,44.25418],[-70.10432,44.25368],[-70.10454,44.25325],[-70.10453,44.25283],[-70.10479,44.25268],[-70.10479,44.25247],[-70.10513,44.25222],[-70.10586,44.25201]]]]},"properties":{"fire_id":"ufid:2024-MEMES-24004647","source_collection":"history-2024","source_objectid":34417,"incident_name":"Spooky Fire","mapped_acres":17.1,"mapped_acres_source":"poly_GISAcres","gis_acres":17.1,"auto_acres":17.17673915384004,"reported_acres":17.1,"percent_contained":null,"state":"ME","state_wfigs":"US-ME","county":"Androscoggin","discovery_time_utc":"2024-10-29T21:01:00Z","perimeter_time_utc":"2024-11-09T21:09:17Z","perimeter_edit_time_utc":"2024-11-09T21:09:18Z","incident_modified_time_utc":"2024-10-30T19:54:18Z","containment_time_utc":"2024-10-29T23:01:00Z","control_time_utc":"2024-10-29T23:30:00Z","fire_out_time_utc":"2024-10-30T15:55:00Z","fire_cause":"Human","fire_cause_general":"Equipment and vehicle use","map_method":"GPS-Walked","source_dataset":"FFP","unique_fire_identifier":"2024-MEMES-24004647","irwin_id":"{F06BEA6A-3ED5-401D-A58E-E22F4CF3ED05}","global_id":"dd259030-0602-4feb-ba62-3a660d612d9c"}},{"type":"Feature","geometry":{"type":"Polygon","coordinates":[[[-70.6121,43.19837],[-70.61254,43.19856],[-70.61165,43.19929],[-70.61143,43.19889],[-70.61173,43.19881],[-70.61183,43.19848],[-70.6121,43.19837]]]},"properties":{"fire_id":"ufid:2024-MEMES-24004753","source_collection":"history-2024","source_objectid":34418,"incident_name":"24004753","mapped_acres":1.0,"mapped_acres_source":"poly_GISAcres","gis_acres":1.0,"auto_acres":1.036305273958887,"reported_acres":1.0,"percent_contained":null,"state":"ME","state_wfigs":"US-ME","county":"York","discovery_time_utc":"2024-11-05T07:00:00Z","perimeter_time_utc":"2024-11-09T21:50:53Z","perimeter_edit_time_utc":"2024-11-09T21:50:53Z","incident_modified_time_utc":"2024-11-07T20:48:40Z","containment_time_utc":"2024-11-05T09:03:00Z","control_time_utc":"2024-11-05T09:03:00Z","fire_out_time_utc":"2024-11-05T09:20:00Z","fire_cause":"Human","fire_cause_general":"Debris and open burning","map_method":"Auto-generated for InFORM","source_dataset":"FFP","unique_fire_identifier":"2024-MEMES-24004753","irwin_id":"{260AB6A5-35BA-4B2A-9B87-1E5879280DDC}","global_id":"83f8ccca-1b9d-41ba-8d48-e26f0f729afc"}},{"type":"Feature","geometry":{"type":"MultiPolygon","coordinates":[[[[-70.31645,43.80679],[-70.31644,43.8068],[-70.31644,43.80678],[-70.31645,43.80679]]],[[[-70.31661,43.80922],[-70.31623,43.80871],[-70.31634,43.80836],[-70.31593,43.80828],[-70.3158,43.80811],[-70.31633,43.80801],[-70.31623,43.80761],[-70.31643,43.80756],[-70.31626,43.80688],[-70.31633,43.80678],[-70.31644,43.8068],[-70.31661,43.80922]]]]},"properties":{"fire_id":"ufid:2024-MEMES-24004691","source_collection":"history-2024","source_objectid":34419,"incident_name":"MM58 Fire","mapped_acres":1.2,"mapped_acres_source":"poly_GISAcres","gis_acres":1.2,"auto_acres":1.1713927620555347,"reported_acres":1.2,"percent_contained":null,"state":"ME","state_wfigs":"US-ME","county":"Cumberland","discovery_time_utc":"2024-11-01T16:30:00Z","perimeter_time_utc":"2024-11-09T21:30:37Z","perimeter_edit_time_utc":"2024-11-09T21:30:38Z","incident_modified_time_utc":"2024-11-03T16:26:43Z","containment_time_utc":"2024-11-01T17:08:00Z","control_time_utc":"2024-11-01T17:35:13Z","fire_out_time_utc":"2024-11-01T17:50:24Z","fire_cause":"Human","fire_cause_general":"Equipment and vehicle use","map_method":"Phone/Tablet","source_dataset":"FFP","unique_fire_identifier":"2024-MEMES-24004691","irwin_id":"{DAFE508E-AB36-475A-881C-801946C87D83}","global_id":"786fb415-8ec1-4d7e-bc6b-85a2e89e08fc"}},{"type":"Feature","geometry":{"type":"Polygon","coordinates":[[[-70.62661,43.38963],[-70.62566,43.38981],[-70.62558,43.38945],[-70.62593,43.38913],[-70.62677,43.38949],[-70.62661,43.38963]]]},"properties":{"fire_id":"ufid:2024-MEMES-24004692","source_collection":"history-2024","source_objectid":34420,"incident_name":"Maguire Fire","mapped_acres":1.1,"mapped_acres_source":"poly_GISAcres","gis_acres":1.1,"auto_acres":1.0617404771821162,"reported_acres":1.5,"percent_contained":null,"state":"ME","state_wfigs":"US-ME","county":"York","discovery_time_utc":"2024-11-01T18:51:00Z","perimeter_time_utc":"2024-11-09T22:02:16Z","perimeter_edit_time_utc":"2024-11-09T22:02:16Z","incident_modified_time_utc":"2024-11-01T19:24:01Z","containment_time_utc":"2024-11-01T19:22:00Z","control_time_utc":"2024-11-01T19:23:30Z","fire_out_time_utc":"2024-11-01T21:58:00Z","fire_cause":"Human","fire_cause_general":"Power generation / transmission / distribution","map_method":"Auto-generated for InFORM","source_dataset":"FFP","unique_fire_identifier":"2024-MEMES-24004692","irwin_id":"{AE477DE8-BEF1-46F9-9FF2-FCCE3DEEE934}","global_id":"993a4aed-c22d-4e98-8230-2a00cc6e36f7"}},{"type":"Feature","geometry":{"type":"Polygon","coordinates":[[[-70.83664,43.90746],[-70.83662,43.90769],[-70.83592,43.90759],[-70.83577,43.90767],[-70.8358,43.90785],[-70.83566,43.90786],[-70.83533,43.90765],[-70.83541,43.90752],[-70.83527,43.90737],[-70.83604,43.90706],[-70.83604,43.90717],[-70.83621,43.90716],[-70.83651,43.90748],[-70.83664,43.90746]]]},"properties":{"fire_id":"ufid:2024-MEMES-24004575","source_collection":"history-2024","source_objectid":34576,"incident_name":"Gould Farm Fire","mapped_acres":1.4,"mapped_acres_source":"poly_GISAcres","gis_acres":1.4,"auto_acres":1.3682480920459095,"reported_acres":1.4,"percent_contained":null,"state":"ME","state_wfigs":"US-ME","county":"Oxford","discovery_time_utc":"2024-10-25T20:50:00Z","perimeter_time_utc":"2024-11-16T15:08:25Z","perimeter_edit_time_utc":"2024-11-16T15:08:25Z","incident_modified_time_utc":"2024-11-11T16:57:42Z","containment_time_utc":"2024-10-25T23:12:00Z","control_time_utc":"2024-10-26T00:12:00Z","fire_out_time_utc":"2024-10-26T00:13:00Z","fire_cause":"Human","fire_cause_general":"Undetermined","map_method":"Auto-generated for InFORM","source_dataset":"FFP","unique_fire_identifier":"2024-MEMES-24004575","irwin_id":"{922EC49F-0F86-4662-82D3-A8A17CE519B7}","global_id":"a9060590-d3bc-400d-a9f2-b892ceb1143e"}},{"type":"Feature","geometry":{"type":"Polygon","coordinates":[[[-70.3327,43.87196],[-70.33233,43.87212],[-70.33219,43.87211],[-70.3327,43.87196]]]},"properties":{"fire_id":"ufid:2024-MEMES-24004820","source_collection":"history-2024","source_objectid":34577,"incident_name":"Early Morning Fire","mapped_acres":0.1,"mapped_acres_source":"poly_GISAcres","gis_acres":0.1,"auto_acres":0.05871942192999833,"reported_acres":0.5,"percent_contained":null,"state":"ME","state_wfigs":"US-ME","county":"Cumberland","discovery_time_utc":"2024-11-10T06:22:00Z","perimeter_time_utc":"2024-11-16T15:03:32Z","perimeter_edit_time_utc":"2024-11-16T15:03:33Z","incident_modified_time_utc":"2024-11-10T19:28:42Z","containment_time_utc":"2024-11-10T07:07:00Z","control_time_utc":null,"fire_out_time_utc":"2024-11-10T09:28:00Z","fire_cause":"Human","fire_cause_general":"Smoking","map_method":"Auto-generated for InFORM","source_dataset":"FFP","unique_fire_identifier":"2024-MEMES-24004820","irwin_id":"{E460126A-5BB6-4272-ACDC-7E560479C345}","global_id":"7874a359-b8bd-478c-9fc2-985533e1b67c"}},{"type":"Feature","geometry":{"type":"MultiPolygon","coordinates":[[[[-70.95502,43.58556],[-70.95499,43.58555],[-70.95501,43.58553],[-70.95502,43.58556]]],[[[-70.95467,43.58566],[-70.95496,43.58555],[-70.95516,43.58566],[-70.95521,43.58607],[-70.95508,43.58622],[-70.95455,43.5862],[-70.95467,43.58566]]]]},"properties":{"fire_id":"ufid:2024-MEMES-24004958","source_collection":"history-2024","source_objectid":34995,"incident_name":"Ice Road Fire","mapped_acres":0.8,"mapped_acres_source":"poly_GISAcres","gis_acres":0.8,"auto_acres":0.8403357783400306,"reported_acres":0.8,"percent_contained":null,"state":"ME","state_wfigs":"US-ME","county":"York","discovery_time_utc":"2024-11-17T15:33:00Z","perimeter_time_utc":"2024-11-25T23:22:44Z","perimeter_edit_time_utc":"2024-11-25T23:22:44Z","incident_modified_time_utc":"2024-11-22T21:28:28Z","containment_time_utc":"2024-11-17T16:45:00Z","control_time_utc":"2024-11-17T16:45:00Z","fire_out_time_utc":"2024-11-17T18:00:00Z","fire_cause":"Human","fire_cause_general":"Debris and open burning","map_method":"Auto-generated for InFORM","source_dataset":"FFP","unique_fire_identifier":"2024-MEMES-24004958","irwin_id":"{D821D92C-FB9D-4C36-982D-A00F4F9E1BA6}","global_id":"3a8d0f20-4095-4eba-a0ba-8e5643d0860b"}},{"type":"Feature","geometry":{"type":"Polygon","coordinates":[[[-70.29161,44.03054],[-70.29169,44.03073],[-70.29185,44.03067],[-70.29203,44.03104],[-70.29181,44.03119],[-70.29142,44.03107],[-70.29097,44.03118],[-70.2909,44.0309],[-70.29107,44.0309],[-70.29099,44.03077],[-70.29112,44.03081],[-70.29113,44.03064],[-70.29083,44.03054],[-70.2908,44.03034],[-70.2909,44.03027],[-70.29125,44.03052],[-70.29161,44.03054]]]},"properties":{"fire_id":"ufid:2024-MEMES-24004956","source_collection":"history-2024","source_objectid":34996,"incident_name":"Hotel Road Fire","mapped_acres":1.3,"mapped_acres_source":"poly_GISAcres","gis_acres":1.3,"auto_acres":1.3447590728495318,"reported_acres":1.3,"percent_contained":null,"state":"ME","state_wfigs":"US-ME","county":"Androscoggin","discovery_time_utc":"2024-11-17T11:30:00Z","perimeter_time_utc":"2024-11-25T23:23:54Z","perimeter_edit_time_utc":"2024-11-25T23:23:54Z","incident_modified_time_utc":"2024-11-20T22:15:18Z","containment_time_utc":"2024-11-17T12:30:00Z","control_time_utc":"2024-11-17T12:31:00Z","fire_out_time_utc":"2024-11-17T13:45:00Z","fire_cause":"Human","fire_cause_general":"Smoking","map_method":"GPS-Walked","source_dataset":"FFP","unique_fire_identifier":"2024-MEMES-24004956","irwin_id":"{D7A9C51B-03CE-4F1D-A450-5E72CA4388BB}","global_id":"7d97ee2f-4172-4544-9e39-8057b35e8b78"}},{"type":"Feature","geometry":{"type":"MultiPolygon","coordinates":[[[[-70.05958,44.13449],[-70.05953,44.1345],[-70.05954,44.1345],[-70.05958,44.13449]]],[[[-70.0591,44.1336],[-70.05954,44.13377],[-70.05935,44.13407],[-70.05916,44.13412],[-70.05953,44.1345],[-70.05941,44.13461],[-70.05889,44.13447],[-70.05872,44.13424],[-70.05869,44.13413],[-70.0591,44.1336]]]]},"properties":{"fire_id":"ufid:2024-MEMES-24004779","source_collection":"history-2024","source_objectid":34997,"incident_name":"24R004779","mapped_acres":1.1,"mapped_acres_source":"poly_GISAcres","gis_acres":1.1,"auto_acres":1.0850080907004531,"reported_acres":1.1,"percent_contained":null,"state":"ME","state_wfigs":"US-ME","county":"Androscoggin","discovery_time_utc":"2024-11-07T16:30:00Z","perimeter_time_utc":"2024-11-25T23:11:58Z","perimeter_edit_time_utc":"2024-11-25T23:11:59Z","incident_modified_time_utc":"2024-11-07T21:57:06Z","containment_time_utc":"2024-11-13T14:15:00Z","control_time_utc":null,"fire_out_time_utc":"2024-11-19T15:44:32Z","fire_cause":"Human","fire_cause_general":"Debris and open burning","map_method":"Auto-generated for InFORM","source_dataset":"FFP","unique_fire_identifier":"2024-MEMES-24004779","irwin_id":"{147B2F69-3614-4328-8821-BBB5FF446E09}","global_id":"20041905-8051-46f3-acf8-d86bd5e388f7"}},{"type":"Feature","geometry":{"type":"Polygon","coordinates":[[[-70.57248,44.34928],[-70.57242,44.34936],[-70.57308,44.34949],[-70.57318,44.34979],[-70.57268,44.35002],[-70.57239,44.34997],[-70.57209,44.34954],[-70.57227,44.3493],[-70.57248,44.34928]]]},"properties":{"fire_id":"ufid:2024-MEMES-24004920","source_collection":"history-2024","source_objectid":34998,"incident_name":"Miclon Fire","mapped_acres":1.2,"mapped_acres_source":"poly_GISAcres","gis_acres":1.2,"auto_acres":1.1689769987463299,"reported_acres":1.2,"percent_contained":null,"state":"ME","state_wfigs":"US-ME","county":"Oxford","discovery_time_utc":"2024-11-15T17:15:00Z","perimeter_time_utc":"2024-11-25T23:19:34Z","perimeter_edit_time_utc":"2024-11-25T23:19:34Z","incident_modified_time_utc":"2024-11-23T21:14:13Z","containment_time_utc":"2024-11-15T18:45:00Z","control_time_utc":"2024-11-15T18:45:00Z","fire_out_time_utc":"2024-11-15T20:00:00Z","fire_cause":"Human","fire_cause_general":"Smoking","map_method":"Auto-generated for InFORM","source_dataset":"FFP","unique_fire_identifier":"2024-MEMES-24004920","irwin_id":"{B634B83A-7A98-4A34-AE0E-A411ED4EFFDE}","global_id":"748120e4-218f-4cb7-b392-1a5051a9f993"}},{"type":"Feature","geometry":{"type":"Polygon","coordinates":[[[-70.96162,43.84589],[-70.96201,43.84624],[-70.96175,43.84624],[-70.96165,43.84656],[-70.96178,43.84664],[-70.96177,43.84686],[-70.9616,43.84684],[-70.96153,43.84713],[-70.96186,43.84708],[-70.96187,43.84719],[-70.96156,43.84736],[-70.96146,43.84729],[-70.96157,43.84747],[-70.96134,43.84757],[-70.96104,43.84745],[-70.96124,43.84729],[-70.96125,43.84711],[-70.96108,43.84697],[-70.96121,43.84692],[-70.96069,43.84685],[-70.96089,43.84669],[-70.96101,43.84678],[-70.96136,43.84651],[-70.96157,43.84656],[-70.96128,43.84645],[-70.96118,43.84652],[-70.9609,43.84602],[-70.96118,43.84596],[-70.96149,43.84617],[-70.96156,43.84612],[-70.96136,43.846],[-70.96162,43.84589]]]},"properties":{"fire_id":"ufid:2024-MEMES-24004776","source_collection":"history-2024","source_objectid":34999,"incident_name":"Lady Slipper Fire","mapped_acres":2.2,"mapped_acres_source":"poly_GISAcres","gis_acres":2.2,"auto_acres":2.188653255703295,"reported_acres":2.2,"percent_contained":null,"state":"ME","state_wfigs":"US-ME","county":"Oxford","discovery_time_utc":"2024-11-07T14:10:00Z","perimeter_time_utc":"2024-11-25T23:28:20Z","perimeter_edit_time_utc":"2024-11-25T23:28:20Z","incident_modified_time_utc":"2024-11-07T21:56:23Z","containment_time_utc":"2024-11-07T15:00:00Z","control_time_utc":"2024-11-07T16:30:00Z","fire_out_time_utc":"2024-11-07T21:54:00Z","fire_cause":"Human","fire_cause_general":"Power generation / transmission / distribution","map_method":"GPS-Walked","source_dataset":"FFP","unique_fire_identifier":"2024-MEMES-24004776","irwin_id":"{C47AD427-5494-4EEA-A6B2-C9AF39684C33}","global_id":"350ec6dc-176b-4830-90ef-6805fcce0895"}},{"type":"Feature","geometry":{"type":"Polygon","coordinates":[[[-70.75202,43.7108],[-70.75125,43.71091],[-70.75125,43.71079],[-70.75059,43.71036],[-70.75085,43.71036],[-70.75114,43.71014],[-70.75152,43.71018],[-70.7516,43.71036],[-70.75204,43.71064],[-70.75202,43.7108]]]},"properties":{"fire_id":"ufid:2024-MEMES-24004963","source_collection":"history-2024","source_objectid":35000,"incident_name":"Staples Hill Fire","mapped_acres":1.3,"mapped_acres_source":"poly_GISAcres","gis_acres":1.3,"auto_acres":1.3479359255912335,"reported_acres":1.3,"percent_contained":null,"state":"ME","state_wfigs":"US-ME","county":"York","discovery_time_utc":"2024-11-17T18:09:00Z","perimeter_time_utc":"2024-11-25T23:39:51Z","perimeter_edit_time_utc":"2024-11-25T23:39:51Z","incident_modified_time_utc":"2024-11-18T18:34:36Z","containment_time_utc":"2024-11-17T18:55:00Z","control_time_utc":"2024-11-17T19:30:00Z","fire_out_time_utc":"2024-11-17T20:19:00Z","fire_cause":"Human","fire_cause_general":"Undetermined","map_method":"Auto-generated for InFORM","source_dataset":"FFP","unique_fire_identifier":"2024-MEMES-24004963","irwin_id":"{4256F41E-866F-4D19-9B65-60605BBA5D1E}","global_id":"07b1dc74-d329-45f4-b871-1efbc934ea0e"}},{"type":"Feature","geometry":{"type":"Polygon","coordinates":[[[-70.9362,43.6835],[-70.93716,43.68367],[-70.93701,43.6838],[-70.93708,43.68385],[-70.93662,43.68403],[-70.9363,43.68397],[-70.93613,43.68365],[-70.9362,43.6835]]]},"properties":{"fire_id":"ufid:2024-MEMES-24004860","source_collection":"history-2024","source_objectid":35458,"incident_name":"Mountain Road Fire","mapped_acres":0.7,"mapped_acres_source":"poly_GISAcres","gis_acres":0.7,"auto_acres":0.6729581055349015,"reported_acres":0.7,"percent_contained":null,"state":"ME","state_wfigs":"US-ME","county":"York","discovery_time_utc":"2024-11-12T05:00:00Z","perimeter_time_utc":"2024-12-06T22:34:38Z","perimeter_edit_time_utc":"2024-12-06T22:34:38Z","incident_modified_time_utc":"2024-12-06T14:49:10Z","containment_time_utc":"2024-11-12T05:30:00Z","control_time_utc":"2024-11-12T05:50:00Z","fire_out_time_utc":"2024-12-06T14:44:15Z","fire_cause":"Human","fire_cause_general":"Power generation / transmission / distribution","map_method":"Auto-generated for InFORM","source_dataset":"FFP","unique_fire_identifier":"2024-MEMES-24004860","irwin_id":"{F0DB183A-17E2-4045-8411-E177F2611FF5}","global_id":"78e6ebbe-fb63-47c1-94e0-563a122947fc"}},{"type":"Feature","geometry":{"type":"Polygon","coordinates":[[[-70.17366,44.17266],[-70.17347,44.17274],[-70.17313,44.1724],[-70.17288,44.17234],[-70.1729,44.1721],[-70.17266,44.17194],[-70.1726,44.17172],[-70.17272,44.1715],[-70.17236,44.1713],[-70.17237,44.17119],[-70.17323,44.17093],[-70.17348,44.17106],[-70.17341,44.17116],[-70.17356,44.17151],[-70.17384,44.17143],[-70.17395,44.17184],[-70.1738,44.17199],[-70.17402,44.17216],[-70.17366,44.17266]]]},"properties":{"fire_id":"ufid:2024-MEMES-24005017","source_collection":"history-2024","source_objectid":35907,"incident_name":"The 202 Fire","mapped_acres":3.7,"mapped_acres_source":"poly_GISAcres","gis_acres":3.7,"auto_acres":3.745482729163579,"reported_acres":3.9,"percent_contained":null,"state":"ME","state_wfigs":"US-ME","county":"Androscoggin","discovery_time_utc":"2024-11-19T19:20:00Z","perimeter_time_utc":"2024-12-17T14:43:51Z","perimeter_edit_time_utc":"2024-12-17T14:43:52Z","incident_modified_time_utc":"2024-12-09T20:01:10Z","containment_time_utc":"2024-11-19T20:43:00Z","control_time_utc":"2024-11-19T21:07:00Z","fire_out_time_utc":"2024-12-09T19:52:15Z","fire_cause":"Human","fire_cause_general":"Equipment and vehicle use","map_method":"Auto-generated for InFORM","source_dataset":"FFP","unique_fire_identifier":"2024-MEMES-24005017","irwin_id":"{D73B56D1-83E4-4569-AAB6-3F279570FB99}","global_id":"d20cf318-ae08-4296-9243-a8d3e8786b7f"}},{"type":"Feature","geometry":{"type":"Polygon","coordinates":[[[-70.23746,44.31012],[-70.2374,44.31003],[-70.23751,44.30996],[-70.23774,44.31003],[-70.23742,44.31027],[-70.23665,44.31043],[-70.23682,44.31031],[-70.2367,44.31016],[-70.23675,44.30997],[-70.23746,44.31012]]]},"properties":{"fire_id":"ufid:2024-MEMES-24005027","source_collection":"history-2024","source_objectid":35908,"incident_name":"Wagon Wheel Fire","mapped_acres":0.6,"mapped_acres_source":"poly_GISAcres","gis_acres":0.6,"auto_acres":0.5632056859980118,"reported_acres":0.6,"percent_contained":null,"state":"ME","state_wfigs":"US-ME","county":"Androscoggin","discovery_time_utc":"2024-11-20T06:07:00Z","perimeter_time_utc":"2024-12-17T14:42:03Z","perimeter_edit_time_utc":"2024-12-17T14:42:03Z","incident_modified_time_utc":"2024-11-20T15:53:37Z","containment_time_utc":"2024-11-20T07:00:00Z","control_time_utc":null,"fire_out_time_utc":"2024-11-20T17:40:00Z","fire_cause":"Human","fire_cause_general":"Other causes","map_method":"Auto-generated for InFORM","source_dataset":"FFP","unique_fire_identifier":"2024-MEMES-24005027","irwin_id":"{7DF80346-92C2-4E79-B28E-BF05C807E912}","global_id":"57cad4b2-43e6-417b-9c80-5e3b53854b29"}}]}
