{"type":"FeatureCollection","features":[{"type":"Feature","geometry":{"type":"Polygon","coordinates":[[[-68.37843,44.82701],[-68.37929,44.82724],[-68.37907,44.82772],[-68.37917,44.82799],[-68.37906,44.82812],[-68.37844,44.82805],[-68.37831,44.82781],[-68.3785,44.82778],[-68.37843,44.82701]]]},"properties":{"fire_id":"ufid:2024-MEMES-24001434","source_collection":"history-2024","source_objectid":25675,"incident_name":"Blueberry Reclaim Fire","mapped_acres":1.5,"mapped_acres_source":"poly_GISAcres","gis_acres":1.5,"auto_acres":1.53793536536125,"reported_acres":1.5,"percent_contained":null,"state":"ME","state_wfigs":"US-ME","county":"Hancock","discovery_time_utc":"2024-04-18T16:12:00Z","perimeter_time_utc":"2024-04-24T13:41:28Z","perimeter_edit_time_utc":"2024-04-24T13:41:29Z","incident_modified_time_utc":"2024-12-13T18:44:07Z","containment_time_utc":"2024-04-18T18:00:00Z","control_time_utc":"2024-04-18T18:05:00Z","fire_out_time_utc":"2024-04-18T18:25:00Z","fire_cause":"Human","fire_cause_general":"Debris and open burning","map_method":"Auto-generated","source_dataset":"Decertified","unique_fire_identifier":"2024-MEMES-24001434","irwin_id":"{AD949491-5567-42F0-B5F6-0C9CCE9BA6E5}","global_id":"e8c1a3f5-3cab-4441-b7bf-c362ad284fea"}},{"type":"Feature","geometry":{"type":"MultiPolygon","coordinates":[[[[-67.5654,44.60452],[-67.56541,44.60453],[-67.56539,44.60452],[-67.5654,44.60452]]],[[[-67.56343,44.6041],[-67.56404,44.60436],[-67.56496,44.60435],[-67.56556,44.60463],[-67.56564,44.60484],[-67.56515,44.60528],[-67.5647,44.60502],[-67.56427,44.60516],[-67.56416,44.605],[-67.56379,44.60499],[-67.56342,44.60517],[-67.56373,44.60495],[-67.56364,44.60461],[-67.56342,44.60465],[-67.56365,44.60446],[-67.56343,44.6041]]]]},"properties":{"fire_id":"ufid:2024-MEMES-24001108","source_collection":"history-2024","source_objectid":25677,"incident_name":"41220000","mapped_acres":3.1,"mapped_acres_source":"poly_GISAcres","gis_acres":3.1,"auto_acres":3.0970749929296657,"reported_acres":3.1,"percent_contained":null,"state":"ME","state_wfigs":"US-ME","county":"Washington","discovery_time_utc":"2024-03-31T15:54:00Z","perimeter_time_utc":"2024-04-24T14:05:24Z","perimeter_edit_time_utc":"2024-04-24T14:05:24Z","incident_modified_time_utc":"2024-04-01T14:00:34Z","containment_time_utc":"2024-03-31T16:46:00Z","control_time_utc":null,"fire_out_time_utc":"2024-03-31T17:45:00Z","fire_cause":"Human","fire_cause_general":"Debris and open burning","map_method":"Hand Sketch","source_dataset":"FFP","unique_fire_identifier":"2024-MEMES-24001108","irwin_id":"{CAECC6E8-4C9D-46D5-BA61-3DA8BE3405FF}","global_id":"2d8aafba-b859-4a03-8446-49b15461dbed"}},{"type":"Feature","geometry":{"type":"Polygon","coordinates":[[[-69.26271,44.37986],[-69.26336,44.38024],[-69.26322,44.38039],[-69.26328,44.38048],[-69.26298,44.38038],[-69.26262,44.38052],[-69.26236,44.38042],[-69.26236,44.38022],[-69.26252,44.38034],[-69.26272,44.38026],[-69.2626,44.38018],[-69.2626,44.37996],[-69.26234,44.37978],[-69.26256,44.37936],[-69.26268,44.37945],[-69.26264,44.3796],[-69.26276,44.37962],[-69.26271,44.37986]]]},"properties":{"fire_id":"ufid:2024-MEMES-24001850","source_collection":"history-2024","source_objectid":25990,"incident_name":"Choate Float Fire","mapped_acres":1.0,"mapped_acres_source":"poly_GISAcres","gis_acres":1.0,"auto_acres":0.9570969812363627,"reported_acres":1.0,"percent_contained":null,"state":"ME","state_wfigs":"US-ME","county":"Waldo","discovery_time_utc":"2024-04-29T16:45:00Z","perimeter_time_utc":"2024-12-17T19:00:48Z","perimeter_edit_time_utc":"2024-12-17T19:00:48Z","incident_modified_time_utc":"2024-04-29T19:17:33Z","containment_time_utc":"2024-04-29T17:40:00Z","control_time_utc":"2024-04-29T17:45:00Z","fire_out_time_utc":"2024-04-29T18:45:00Z","fire_cause":"Human","fire_cause_general":"Debris and open burning","map_method":null,"source_dataset":"FFP","unique_fire_identifier":"2024-MEMES-24001850","irwin_id":"{32D65869-B25E-48EA-9183-E6713901E6C9}","global_id":"bd13c694-32b1-4793-9560-c38305a52757"}},{"type":"Feature","geometry":{"type":"Polygon","coordinates":[[[-67.11608,44.89667],[-67.11614,44.89701],[-67.1155,44.89718],[-67.11556,44.89692],[-67.11608,44.89667]]]},"properties":{"fire_id":"ufid:2024-MEMES-24001807","source_collection":"history-2024","source_objectid":26823,"incident_name":"Leighton Point Fire","mapped_acres":0.5,"mapped_acres_source":"poly_GISAcres","gis_acres":0.5,"auto_acres":0.5023685853997953,"reported_acres":0.5,"percent_contained":null,"state":"ME","state_wfigs":"US-ME","county":"Washington","discovery_time_utc":"2024-04-27T20:46:00Z","perimeter_time_utc":"2024-12-13T19:58:56Z","perimeter_edit_time_utc":"2024-12-13T19:58:56Z","incident_modified_time_utc":"2024-12-04T18:02:41Z","containment_time_utc":"2024-04-27T21:40:00Z","control_time_utc":"2024-04-27T21:50:00Z","fire_out_time_utc":"2024-04-27T22:24:00Z","fire_cause":"Human","fire_cause_general":"Arson","map_method":"Hand Sketch","source_dataset":"FFP","unique_fire_identifier":"2024-MEMES-24001807","irwin_id":"{7062A7F4-C48C-450F-B794-62795684D8DC}","global_id":"18b9892f-2d5d-489c-9ae9-be414e488e49"}},{"type":"Feature","geometry":{"type":"MultiPolygon","coordinates":[[[[-68.18505,44.57326],[-68.18507,44.57317],[-68.18521,44.57324],[-68.18527,44.57359],[-68.18583,44.57372],[-68.18603,44.57396],[-68.18604,44.57434],[-68.18585,44.57436],[-68.18578,44.57472],[-68.1862,44.57475],[-68.18609,44.57491],[-68.18636,44.57514],[-68.18622,44.57537],[-68.1863,44.57539],[-68.18571,44.57542],[-68.18518,44.57511],[-68.18429,44.57516],[-68.18415,44.57504],[-68.18418,44.57484],[-68.18398,44.57463],[-68.18424,44.5745],[-68.18417,44.57407],[-68.18374,44.57365],[-68.1839,44.57326],[-68.18407,44.57327],[-68.18424,44.57348],[-68.1847,44.57338],[-68.18465,44.57324],[-68.18486,44.57309],[-68.18505,44.57326]]],[[[-68.18408,44.57474],[-68.18407,44.57474],[-68.18404,44.57471],[-68.18408,44.57474]]]]},"properties":{"fire_id":"ufid:2024-MEMES-24002159","source_collection":"history-2024","source_objectid":26824,"incident_name":"Powerline fire","mapped_acres":7.8,"mapped_acres_source":"poly_GISAcres","gis_acres":7.8,"auto_acres":7.750809615712462,"reported_acres":7.8,"percent_contained":null,"state":"ME","state_wfigs":"US-ME","county":"Hancock","discovery_time_utc":"2024-05-15T17:00:00Z","perimeter_time_utc":"2024-09-22T16:03:12Z","perimeter_edit_time_utc":"2024-09-22T16:03:13Z","incident_modified_time_utc":"2024-12-13T18:49:44Z","containment_time_utc":"2024-05-15T22:04:21Z","control_time_utc":"2024-05-15T22:45:00Z","fire_out_time_utc":"2024-05-15T22:50:00Z","fire_cause":"Human","fire_cause_general":"Power generation/transmission/distribution","map_method":"Auto-generated","source_dataset":"Decertified","unique_fire_identifier":"2024-MEMES-24002159","irwin_id":"{096CA578-C1C4-4968-8781-AACF07544B68}","global_id":"f4520a4a-0787-4f14-a88c-279f753792b4"}},{"type":"Feature","geometry":{"type":"Polygon","coordinates":[[[-68.23678,44.56511],[-68.23772,44.56506],[-68.23781,44.56549],[-68.23757,44.56555],[-68.23782,44.56574],[-68.23775,44.56591],[-68.23755,44.56592],[-68.23748,44.56605],[-68.23736,44.5654],[-68.23707,44.56554],[-68.2368,44.56531],[-68.23639,44.56526],[-68.23635,44.56513],[-68.23675,44.565],[-68.23678,44.56511]]]},"properties":{"fire_id":"ufid:2024-MEMES-24001646","source_collection":"history-2024","source_objectid":26827,"incident_name":"Hog Bay Fire","mapped_acres":1.4,"mapped_acres_source":"poly_GISAcres","gis_acres":1.4,"auto_acres":1.4129267003508008,"reported_acres":1.5,"percent_contained":null,"state":"ME","state_wfigs":"US-ME","county":"Hancock","discovery_time_utc":"2024-04-23T19:15:00Z","perimeter_time_utc":"2025-01-06T18:57:44Z","perimeter_edit_time_utc":"2025-01-06T18:57:44Z","incident_modified_time_utc":"2024-04-23T21:17:59Z","containment_time_utc":"2024-04-23T20:45:00Z","control_time_utc":"2024-04-23T21:16:16Z","fire_out_time_utc":"2024-04-24T02:57:00Z","fire_cause":"Human","fire_cause_general":"Debris and open burning","map_method":"Auto-generated","source_dataset":"FFP","unique_fire_identifier":"2024-MEMES-24001646","irwin_id":"{55F1C328-6C86-4557-8153-4071FA3F07E0}","global_id":"2a025b66-2dae-4ada-9d70-4e59cfe3d456"}},{"type":"Feature","geometry":{"type":"Polygon","coordinates":[[[-67.8571,44.90475],[-67.85782,44.90498],[-67.8587,44.90567],[-67.85827,44.90578],[-67.85839,44.90561],[-67.85803,44.90545],[-67.8579,44.90562],[-67.85824,44.90568],[-67.85818,44.90594],[-67.85802,44.90602],[-67.85821,44.90646],[-67.85781,44.90661],[-67.85778,44.90673],[-67.85816,44.90682],[-67.85767,44.90743],[-67.85724,44.90745],[-67.85678,44.90507],[-67.8571,44.90475]]]},"properties":{"fire_id":"ufid:2024-MEMES-24001860","source_collection":"history-2024","source_objectid":26842,"incident_name":"Bad Brakes fire","mapped_acres":6.0,"mapped_acres_source":"poly_GISAcres","gis_acres":6.0,"auto_acres":5.9759311250576825,"reported_acres":6.5,"percent_contained":null,"state":"ME","state_wfigs":"US-ME","county":"Washington","discovery_time_utc":"2024-04-29T21:45:00Z","perimeter_time_utc":"2024-05-31T20:19:49Z","perimeter_edit_time_utc":"2024-05-31T20:19:49Z","incident_modified_time_utc":"2024-12-13T19:32:40Z","containment_time_utc":"2024-04-29T23:50:00Z","control_time_utc":"2024-04-30T00:00:00Z","fire_out_time_utc":"2024-04-30T17:00:00Z","fire_cause":"Human","fire_cause_general":"Equipment and vehicle use","map_method":"Auto-generated","source_dataset":"Decertified","unique_fire_identifier":"2024-MEMES-24001860","irwin_id":"{0CA6A511-C96D-46E2-A6F4-980959DB8690}","global_id":"cca67e94-ffcf-4212-8a20-8c75ea140549"}},{"type":"Feature","geometry":{"type":"Polygon","coordinates":[[[-68.80952,44.79119],[-68.80491,44.79594],[-68.79996,44.79194],[-68.80952,44.79119]]]},"properties":{"fire_id":"ufid:2024-MEMES-24003335","source_collection":"history-2024","source_objectid":29888,"incident_name":"Third Venture Way Fire","mapped_acres":0.1,"mapped_acres_source":"poly_GISAcres","gis_acres":0.1,"auto_acres":531.8315135301749,"reported_acres":0.1,"percent_contained":null,"state":"ME","state_wfigs":"US-ME","county":"Penobscot","discovery_time_utc":"2024-07-22T19:14:00Z","perimeter_time_utc":"2024-07-23T00:14:00Z","perimeter_edit_time_utc":"2024-07-23T19:31:40Z","incident_modified_time_utc":"2024-12-07T13:52:17Z","containment_time_utc":"2024-07-22T19:20:00Z","control_time_utc":null,"fire_out_time_utc":"2024-07-22T19:28:00Z","fire_cause":"Human","fire_cause_general":"Debris and open burning","map_method":"Hand Sketch","source_dataset":"2024 NIFS","unique_fire_identifier":"2024-MEMES-24003335","irwin_id":"{DF931D2D-12CE-485D-9186-EFB85CEC3665}","global_id":"8a5cfcc9-636e-42b7-a564-a10278070695"}},{"type":"Feature","geometry":{"type":"Polygon","coordinates":[[[-68.52298,44.68002],[-68.52328,44.68038],[-68.52359,44.68047],[-68.52328,44.68072],[-68.52298,44.68067],[-68.52284,44.68085],[-68.52286,44.68067],[-68.52273,44.68063],[-68.52284,44.68041],[-68.52261,44.68025],[-68.52274,44.68003],[-68.52298,44.68002]]]},"properties":{"fire_id":"ufid:2024-MEMES-24003017","source_collection":"history-2024","source_objectid":31431,"incident_name":"Beech Hill Pond Fire","mapped_acres":0.8,"mapped_acres_source":"poly_GISAcres","gis_acres":0.8,"auto_acres":0.8430849021388955,"reported_acres":0.9,"percent_contained":null,"state":"ME","state_wfigs":"US-ME","county":"Hancock","discovery_time_utc":"2024-07-03T19:09:00Z","perimeter_time_utc":"2024-12-13T18:56:19Z","perimeter_edit_time_utc":"2024-12-13T18:56:20Z","incident_modified_time_utc":"2024-07-03T20:43:36Z","containment_time_utc":"2024-07-03T20:42:33Z","control_time_utc":"2024-07-03T20:45:00Z","fire_out_time_utc":"2024-07-03T21:06:00Z","fire_cause":"Human","fire_cause_general":"Equipment and vehicle use","map_method":"Auto-generated","source_dataset":"FFP","unique_fire_identifier":"2024-MEMES-24003017","irwin_id":"{79FD8BA2-1ABF-4E93-BF60-1A9822A30F49}","global_id":"db34a821-bee0-4d8d-bc9f-83810fb59b30"}},{"type":"Feature","geometry":{"type":"Polygon","coordinates":[[[-68.33029,44.31688],[-68.33043,44.31704],[-68.33021,44.31721],[-68.33014,44.31695],[-68.33029,44.31688]]]},"properties":{"fire_id":"ufid:2024-MEACP-240001","source_collection":"history-2024","source_objectid":32043,"incident_name":"Saint Sauveur","mapped_acres":0.1,"mapped_acres_source":"poly_GISAcres","gis_acres":0.1,"auto_acres":0.12447035233654989,"reported_acres":0.25,"percent_contained":null,"state":"ME","state_wfigs":"US-ME","county":"Hancock","discovery_time_utc":"2024-05-11T20:00:00Z","perimeter_time_utc":"2024-09-09T19:16:12Z","perimeter_edit_time_utc":"2024-09-09T19:16:13Z","incident_modified_time_utc":"2024-05-20T15:17:32Z","containment_time_utc":null,"control_time_utc":null,"fire_out_time_utc":"2024-09-09T19:15:39Z","fire_cause":"Human","fire_cause_general":"Arson","map_method":"Auto-generated","source_dataset":"FFP","unique_fire_identifier":"2024-MEACP-240001","irwin_id":"{3ADA3ED5-A2D3-464B-907D-8C511437E62C}","global_id":"e3d14810-504d-4956-a403-9d8577cf791a"}},{"type":"Feature","geometry":{"type":"Polygon","coordinates":[[[-68.32964,44.31471],[-68.32992,44.31486],[-68.3295,44.31501],[-68.32964,44.31471]]]},"properties":{"fire_id":"ufid:2024-MEACP-240002","source_collection":"history-2024","source_objectid":32045,"incident_name":"Saint Sauveur 2","mapped_acres":0.2,"mapped_acres_source":"poly_GISAcres","gis_acres":0.2,"auto_acres":0.16177968407726945,"reported_acres":0.1,"percent_contained":null,"state":"ME","state_wfigs":"US-ME","county":"Hancock","discovery_time_utc":"2024-05-11T20:00:00Z","perimeter_time_utc":"2024-09-09T19:17:38Z","perimeter_edit_time_utc":"2024-09-09T19:17:38Z","incident_modified_time_utc":"2024-05-12T17:50:04Z","containment_time_utc":null,"control_time_utc":null,"fire_out_time_utc":"2024-09-09T19:16:27Z","fire_cause":"Human","fire_cause_general":"Arson","map_method":"Auto-generated","source_dataset":"FFP","unique_fire_identifier":"2024-MEACP-240002","irwin_id":"{F1F43269-21BF-4FE9-B33F-3D601B2C6B34}","global_id":"deba03a9-71af-46b2-b50a-fc941de3ec6e"}},{"type":"Feature","geometry":{"type":"Polygon","coordinates":[[[-69.34645,44.2061],[-69.34626,44.20593],[-69.34673,44.20552],[-69.34714,44.20558],[-69.34714,44.20571],[-69.34743,44.20563],[-69.34757,44.20572],[-69.3474,44.20586],[-69.34784,44.20586],[-69.34794,44.20602],[-69.34838,44.20617],[-69.34822,44.20647],[-69.34835,44.20647],[-69.34837,44.20675],[-69.34808,44.20698],[-69.34711,44.2073],[-69.34678,44.20729],[-69.34597,44.20688],[-69.34609,44.20655],[-69.34619,44.20661],[-69.34616,44.20651],[-69.34629,44.20648],[-69.34575,44.20621],[-69.34598,44.20604],[-69.34645,44.2061]]]},"properties":{"fire_id":"ufid:2024-MEMES-24004604","source_collection":"history-2024","source_objectid":34536,"incident_name":"Mow Blow Fire","mapped_acres":6.6,"mapped_acres_source":"poly_GISAcres","gis_acres":6.6,"auto_acres":6.632277404197807,"reported_acres":6.6,"percent_contained":null,"state":"ME","state_wfigs":"US-ME","county":"Lincoln","discovery_time_utc":"2024-10-27T18:30:00Z","perimeter_time_utc":"2024-11-14T21:30:02Z","perimeter_edit_time_utc":"2024-11-14T21:30:02Z","incident_modified_time_utc":"2024-11-11T21:30:35Z","containment_time_utc":"2024-10-27T20:10:00Z","control_time_utc":"2024-10-27T21:10:00Z","fire_out_time_utc":"2024-10-28T20:10:00Z","fire_cause":"Human","fire_cause_general":"Equipment and vehicle use","map_method":"Auto-generated for InFORM","source_dataset":"FFP","unique_fire_identifier":"2024-MEMES-24004604","irwin_id":"{E87760D9-6E8C-4A44-918B-32956778250E}","global_id":"c30bea74-bbdf-4740-86bf-1995cc217eab"}},{"type":"Feature","geometry":{"type":"Polygon","coordinates":[[[-69.60033,44.28296],[-69.60043,44.2831],[-69.60026,44.28314],[-69.60029,44.28326],[-69.60073,44.28336],[-69.60084,44.28351],[-69.60085,44.28328],[-69.60114,44.28342],[-69.60111,44.28354],[-69.60086,44.2836],[-69.60109,44.28372],[-69.60092,44.28395],[-69.6002,44.28393],[-69.59992,44.28379],[-69.6002,44.28377],[-69.59982,44.28354],[-69.59995,44.28342],[-69.59981,44.28313],[-69.60033,44.28296]]]},"properties":{"fire_id":"ufid:2024-MEMES-24004937","source_collection":"history-2024","source_objectid":35798,"incident_name":"Fairground Fire","mapped_acres":1.8,"mapped_acres_source":"poly_GISAcres","gis_acres":1.8,"auto_acres":1.7152064092632657,"reported_acres":1.7,"percent_contained":null,"state":"ME","state_wfigs":"US-ME","county":"Kennebec","discovery_time_utc":"2024-11-16T15:45:00Z","perimeter_time_utc":"2024-12-12T21:51:25Z","perimeter_edit_time_utc":"2024-12-12T21:51:25Z","incident_modified_time_utc":"2024-12-02T15:05:20Z","containment_time_utc":"2024-11-16T19:29:00Z","control_time_utc":"2024-11-16T20:00:00Z","fire_out_time_utc":"2024-11-17T18:00:00Z","fire_cause":"Human","fire_cause_general":"Smoking","map_method":"GPS-Walked","source_dataset":"FFP","unique_fire_identifier":"2024-MEMES-24004937","irwin_id":"{A0A034A5-E980-4B06-B7DE-159BE203D54E}","global_id":"374ccef6-d4a7-4831-903c-5d7dc89785b8"}},{"type":"Feature","geometry":{"type":"MultiPolygon","coordinates":[[[[-69.464601,44.061479],[-69.46461,44.06147],[-69.46462,44.06146],[-69.464601,44.061479]]],[[[-69.46401,44.06139],[-69.46459,44.06143],[-69.464601,44.061479],[-69.46466,44.06173],[-69.46488,44.06183],[-69.46479,44.06218],[-69.46426,44.0625],[-69.46365,44.06216],[-69.46356,44.06154],[-69.46377,44.06125],[-69.46401,44.06139]]]]},"properties":{"fire_id":"ufid:2024-MEMES-24004863","source_collection":"history-2024","source_objectid":35800,"incident_name":"Cove Lane Fire","mapped_acres":2.0,"mapped_acres_source":"poly_GISAcres","gis_acres":2.0,"auto_acres":2.487060154336072,"reported_acres":2.5,"percent_contained":null,"state":"ME","state_wfigs":"US-ME","county":"Lincoln","discovery_time_utc":"2024-11-12T17:15:00Z","perimeter_time_utc":"2024-12-13T11:57:40Z","perimeter_edit_time_utc":"2024-12-13T11:57:40Z","incident_modified_time_utc":"2024-11-19T14:37:34Z","containment_time_utc":"2024-11-12T18:20:00Z","control_time_utc":null,"fire_out_time_utc":"2024-11-12T21:30:00Z","fire_cause":"Human","fire_cause_general":"Power generation / transmission / distribution","map_method":"Auto-generated for InFORM","source_dataset":"FFP","unique_fire_identifier":"2024-MEMES-24004863","irwin_id":"{A7068E93-415D-4F51-BE90-1B74FCAEBCBF}","global_id":"3e216d24-4b20-4dea-8eb6-649856638574"}},{"type":"Feature","geometry":{"type":"Polygon","coordinates":[[[-67.77486,44.68434],[-67.77506,44.68433],[-67.77539,44.68469],[-67.77521,44.68511],[-67.77484,44.68561],[-67.77455,44.68566],[-67.77437,44.68601],[-67.774177,44.686025],[-67.77426,44.68573],[-67.774128,44.686029],[-67.77386,44.68605],[-67.77396,44.68554],[-67.77458,44.68519],[-67.77462,44.68447],[-67.77487,44.68423],[-67.77486,44.68434]],[[-67.77458,44.6852],[-67.77457,44.6852],[-67.77456,44.68522],[-67.77458,44.6852]]]},"properties":{"fire_id":"ufid:2024-MEMES-24001134","source_collection":"history-2024","source_objectid":35823,"incident_name":"Epping Rd Fire","mapped_acres":2.5,"mapped_acres_source":"poly_GISAcres","gis_acres":2.5,"auto_acres":2.5211889070139053,"reported_acres":2.5,"percent_contained":null,"state":"ME","state_wfigs":"US-ME","county":"Washington","discovery_time_utc":"2024-04-02T20:00:00Z","perimeter_time_utc":"2025-01-06T18:56:19Z","perimeter_edit_time_utc":"2025-01-06T18:56:19Z","incident_modified_time_utc":"2024-04-02T21:24:56Z","containment_time_utc":"2024-04-02T20:30:00Z","control_time_utc":"2024-04-02T21:01:00Z","fire_out_time_utc":"2024-04-02T23:55:00Z","fire_cause":"Human","fire_cause_general":"Equipment and vehicle use","map_method":"Mixed Methods","source_dataset":"FFP","unique_fire_identifier":"2024-MEMES-24001134","irwin_id":"{83D66B5C-40C2-4F83-9BD0-66A2FF449B27}","global_id":"f116986e-3643-425d-9938-79fc642cc78b"}},{"type":"Feature","geometry":{"type":"Polygon","coordinates":[[[-69.49977,44.31467],[-69.49935,44.31449],[-69.49872,44.31454],[-69.49863,44.31439],[-69.49882,44.31373],[-69.49905,44.31362],[-69.49952,44.31383],[-69.49972,44.31378],[-69.49983,44.31409],[-69.49977,44.31467]]]},"properties":{"fire_id":"ufid:2024-MEMES-24004932","source_collection":"history-2024","source_objectid":35827,"incident_name":"Somerville Hunting Shack","mapped_acres":1.9,"mapped_acres_source":"poly_GISAcres","gis_acres":1.9,"auto_acres":1.9478402669684263,"reported_acres":2.0,"percent_contained":null,"state":"ME","state_wfigs":"US-ME","county":"Lincoln","discovery_time_utc":"2024-11-16T14:19:00Z","perimeter_time_utc":"2024-12-19T20:40:20Z","perimeter_edit_time_utc":"2024-12-19T20:40:20Z","incident_modified_time_utc":"2024-12-13T19:52:12Z","containment_time_utc":"2024-11-16T15:20:00Z","control_time_utc":"2024-11-16T15:25:00Z","fire_out_time_utc":"2024-11-16T15:25:00Z","fire_cause":"Human","fire_cause_general":"Undetermined","map_method":"Auto-generated for InFORM","source_dataset":"FFP","unique_fire_identifier":"2024-MEMES-24004932","irwin_id":"{75608FD1-7843-435C-84DF-3B6AF5CC6DAA}","global_id":"4dfed711-a0a8-430b-9505-3526482697ce"}},{"type":"Feature","geometry":{"type":"Polygon","coordinates":[[[-69.03711,44.28559],[-69.03803,44.28545],[-69.03835,44.28572],[-69.03879,44.28574],[-69.04078,44.28527],[-69.04134,44.28543],[-69.04144,44.28621],[-69.04116,44.28653],[-69.03981,44.28653],[-69.03907,44.28638],[-69.03761,44.28658],[-69.03727,44.28643],[-69.03718,44.28618],[-69.03727,44.28588],[-69.03711,44.28559]]]},"properties":{"fire_id":"ufid:2024-MEMES-24R002134","source_collection":"history-2024","source_objectid":36020,"incident_name":"Burned Bridge Fire","mapped_acres":2.0,"mapped_acres_source":"poly_GISAcres","gis_acres":2.0,"auto_acres":9.280677707656974,"reported_acres":9.3,"percent_contained":null,"state":"ME","state_wfigs":"US-ME","county":"Waldo","discovery_time_utc":"2024-05-13T18:30:00Z","perimeter_time_utc":"2024-12-19T20:23:52Z","perimeter_edit_time_utc":"2024-12-19T20:23:52Z","incident_modified_time_utc":"2024-12-17T19:13:42Z","containment_time_utc":"2024-05-13T20:06:00Z","control_time_utc":null,"fire_out_time_utc":"2024-05-14T00:00:00Z","fire_cause":"Human","fire_cause_general":"Other causes","map_method":"Hand Sketch","source_dataset":"FFP","unique_fire_identifier":"2024-MEMES-24R002134","irwin_id":"{ED6E133A-9723-4CA9-98E4-C46488C0DBB2}","global_id":"2d7f6404-0dd4-481b-b3a3-c889aa8ec3cf"}}]}
