{"type":"FeatureCollection","features":[{"type":"Feature","geometry":{"type":"Polygon","coordinates":[[[-84.8209,46.36328],[-84.82247,46.36326],[-84.82266,46.36335],[-84.82264,46.36475],[-84.82232,46.36518],[-84.82193,46.3662],[-84.82126,46.36673],[-84.82113,46.36702],[-84.8206,46.36697],[-84.82017,46.36729],[-84.81895,46.36701],[-84.81873,46.36681],[-84.81869,46.36635],[-84.81894,46.36548],[-84.81949,46.36468],[-84.81997,46.36444],[-84.8209,46.36328]]]},"properties":{"fire_id":"ufid:2024-MIHIF-240374","source_collection":"history-2024","source_objectid":32359,"incident_name":"Cody","mapped_acres":1.0,"mapped_acres_source":"poly_GISAcres","gis_acres":1.0,"auto_acres":22.52187309219943,"reported_acres":23.0,"percent_contained":null,"state":"MI","state_wfigs":"US-MI","county":"Chippewa","discovery_time_utc":"2024-08-08T18:39:26Z","perimeter_time_utc":"2024-09-16T19:45:46Z","perimeter_edit_time_utc":"2024-09-16T19:45:46Z","incident_modified_time_utc":"2024-09-16T18:20:46Z","containment_time_utc":"2024-08-09T16:47:00Z","control_time_utc":"2024-08-19T13:50:00Z","fire_out_time_utc":"2024-09-16T18:20:00Z","fire_cause":"Human","fire_cause_general":"Recreation and ceremony","map_method":"Phone/Tablet","source_dataset":"FFP","unique_fire_identifier":"2024-MIHIF-240374","irwin_id":"{6E42F00A-DF97-4747-93C9-05E8998DD6A7}","global_id":"5a276b75-5566-4ecc-ae30-960cb8827811"}}]}
