{"type":"FeatureCollection","features":[{"type":"Feature","geometry":{"type":"Polygon","coordinates":[[[-95.98784,44.63773],[-95.98947,44.63773],[-95.98932,44.63798],[-95.98882,44.63824],[-95.98819,44.6382],[-95.98784,44.63773]]]},"properties":{"fire_id":"ufid:2024-MN3XS-001961","source_collection":"history-2024","source_objectid":26126,"incident_name":"Erie","mapped_acres":1.0,"mapped_acres_source":"poly_GISAcres","gis_acres":1.0,"auto_acres":1.3813713101017095,"reported_acres":1.4,"percent_contained":null,"state":"MN","state_wfigs":"US-MN","county":"Yellow Medicine","discovery_time_utc":"2024-05-06T01:18:00Z","perimeter_time_utc":"2024-05-08T16:26:03Z","perimeter_edit_time_utc":"2024-05-08T16:26:03Z","incident_modified_time_utc":"2024-05-08T16:13:24Z","containment_time_utc":"2024-05-06T03:30:00Z","control_time_utc":"2024-05-06T03:31:00Z","fire_out_time_utc":"2024-05-07T21:00:00Z","fire_cause":"Human","fire_cause_general":"Debris and open burning","map_method":"Hand Sketch","source_dataset":"FFP","unique_fire_identifier":"2024-MN3XS-001961","irwin_id":"{7031C0F8-9E83-494F-9907-B9AD67BB1881}","global_id":"013ac4dc-4f21-4f94-b4b0-fe9e09016b76"}},{"type":"Feature","geometry":{"type":"Polygon","coordinates":[[[-96.44045,44.78278],[-96.43954,44.78276],[-96.43776,44.7824],[-96.43747,44.78219],[-96.43556,44.78163],[-96.4356,44.78053],[-96.4317,44.77895],[-96.43058,44.77895],[-96.43045,44.7794],[-96.42857,44.77867],[-96.42749,44.77797],[-96.42728,44.77648],[-96.42942,44.77529],[-96.42904,44.77227],[-96.42728,44.76862],[-96.42715,44.76597],[-96.43028,44.76533],[-96.43612,44.76539],[-96.43603,44.76685],[-96.4353,44.76819],[-96.43526,44.76886],[-96.43599,44.76889],[-96.44033,44.77237],[-96.44045,44.77444],[-96.43882,44.77462],[-96.43827,44.7762],[-96.43887,44.7762],[-96.44037,44.77727],[-96.44045,44.78278]]]},"properties":{"fire_id":"ufid:2024-MN3XS-000769","source_collection":"history-2024","source_objectid":26212,"incident_name":"Mound Springs","mapped_acres":150.0,"mapped_acres_source":"poly_GISAcres","gis_acres":150.0,"auto_acres":342.674680007046,"reported_acres":342.7,"percent_contained":null,"state":"MN","state_wfigs":"US-MN","county":"Yellow Medicine","discovery_time_utc":"2024-03-16T20:24:00Z","perimeter_time_utc":"2024-05-13T18:30:51Z","perimeter_edit_time_utc":"2024-05-13T18:30:52Z","incident_modified_time_utc":"2024-03-25T17:12:55Z","containment_time_utc":"2024-03-16T23:05:00Z","control_time_utc":"2024-03-16T23:06:00Z","fire_out_time_utc":"2024-03-22T13:00:00Z","fire_cause":"Undetermined","fire_cause_general":"Undetermined","map_method":"Hand Sketch","source_dataset":"FFP","unique_fire_identifier":"2024-MN3XS-000769","irwin_id":"{BD533F5B-8EE4-4092-85F7-60378383E4A8}","global_id":"f363c62e-fd71-4f50-9842-482d803f5482"}},{"type":"Feature","geometry":{"type":"Polygon","coordinates":[[[-95.46089,43.92761],[-95.45605,43.92754],[-95.45598,43.92684],[-95.45587,43.92386],[-95.4554,43.9237],[-95.45539,43.92358],[-95.45584,43.92267],[-95.45583,43.92202],[-95.45685,43.9217],[-95.45739,43.92202],[-95.45729,43.92189],[-95.45751,43.92161],[-95.45784,43.9216],[-95.45745,43.92145],[-95.45767,43.92149],[-95.45807,43.92124],[-95.45807,43.92144],[-95.45848,43.9215],[-95.45875,43.92126],[-95.45848,43.92087],[-95.4585,43.9207],[-95.45904,43.92085],[-95.45928,43.92078],[-95.45934,43.9206],[-95.45959,43.92049],[-95.45957,43.91998],[-95.4602,43.91951],[-95.4606,43.91948],[-95.46099,43.91964],[-95.46112,43.91987],[-95.46156,43.91966],[-95.46235,43.91884],[-95.46203,43.91802],[-95.46242,43.91755],[-95.46241,43.91764],[-95.46293,43.91743],[-95.46336,43.91746],[-95.46345,43.91652],[-95.46364,43.91654],[-95.46407,43.91624],[-95.4664,43.91528],[-95.46715,43.91557],[-95.46825,43.91526],[-95.46911,43.91528],[-95.46885,43.91548],[-95.46836,43.91552],[-95.46834,43.9159],[-95.4686,43.91582],[-95.46888,43.91593],[-95.469,43.91609],[-95.46887,43.91633],[-95.46895,43.91642],[-95.46882,43.91647],[-95.46916,43.91649],[-95.46938,43.91668],[-95.46952,43.91742],[-95.46984,43.91767],[-95.46952,43.91812],[-95.47023,43.91808],[-95.47061,43.9184],[-95.47128,43.9185],[-95.47148,43.91891],[-95.46973,43.91985],[-95.46925,43.91994],[-95.46909,43.92021],[-95.46939,43.92043],[-95.46938,43.92055],[-95.46901,43.92068],[-95.46868,43.92055],[-95.4685,43.92062],[-95.46877,43.92085],[-95.46856,43.92093],[-95.4686,43.92106],[-95.46886,43.92123],[-95.4685,43.92158],[-95.46821,43.92164],[-95.46819,43.9218],[-95.46834,43.92182],[-95.46808,43.92202],[-95.46749,43.92236],[-95.46714,43.92238],[-95.46675,43.92306],[-95.46665,43.92287],[-95.46566,43.92269],[-95.46477,43.9232],[-95.46341,43.92476],[-95.46323,43.92574],[-95.46304,43.92512],[-95.46316,43.92453],[-95.46282,43.92408],[-95.46266,43.9241],[-95.46241,43.92488],[-95.46241,43.9257],[-95.46207,43.9261],[-95.4618,43.92685],[-95.46192,43.92705],[-95.46221,43.92713],[-95.46225,43.92738],[-95.46204,43.9275],[-95.46089,43.92761]]]},"properties":{"fire_id":"ufid:2024-MN3XS-001282","source_collection":"history-2024","source_objectid":32975,"incident_name":"Talcot","mapped_acres":1.0,"mapped_acres_source":"poly_GISAcres","gis_acres":1.0,"auto_acres":211.4761012907194,"reported_acres":212.0,"percent_contained":null,"state":"MN","state_wfigs":"US-MN","county":"Murray","discovery_time_utc":"2024-04-13T21:14:00Z","perimeter_time_utc":"2024-10-02T16:53:33Z","perimeter_edit_time_utc":"2024-10-02T16:53:34Z","incident_modified_time_utc":"2024-09-04T16:40:07Z","containment_time_utc":"2024-04-14T04:00:00Z","control_time_utc":"2024-04-14T20:00:00Z","fire_out_time_utc":"2024-04-18T20:30:00Z","fire_cause":"Human","fire_cause_general":"Firearms and explosives use","map_method":"Hand Sketch","source_dataset":"FFP","unique_fire_identifier":"2024-MN3XS-001282","irwin_id":"{99F8FEC8-DBC3-4504-B2A2-3ADF55FAD8D5}","global_id":"b675b1e3-c484-4ce7-9333-f45c6e1cf6d1"}},{"type":"Feature","geometry":{"type":"Polygon","coordinates":[[[-95.52304,44.68151],[-95.5206,44.68099],[-95.5195,44.67098],[-95.51965,44.67011],[-95.51927,44.66964],[-95.51608,44.6694],[-95.51395,44.66814],[-95.51526,44.66542],[-95.51873,44.66543],[-95.5174,44.66209],[-95.51832,44.66197],[-95.51951,44.66267],[-95.52085,44.66461],[-95.52289,44.66624],[-95.5235,44.67],[-95.52352,44.67388],[-95.52328,44.67843],[-95.52423,44.67957],[-95.52419,44.68085],[-95.52304,44.68151]]]},"properties":{"fire_id":"ufid:2024-MN4XS-003253","source_collection":"history-2024","source_objectid":36130,"incident_name":"Dairy","mapped_acres":178.0,"mapped_acres_source":"poly_GISAcres","gis_acres":178.0,"auto_acres":179.91491553496095,"reported_acres":178.0,"percent_contained":null,"state":"MN","state_wfigs":"US-MN","county":"Yellow Medicine","discovery_time_utc":"2024-10-17T21:05:00Z","perimeter_time_utc":"2024-12-31T15:14:48Z","perimeter_edit_time_utc":"2024-12-31T15:14:49Z","incident_modified_time_utc":"2024-10-28T15:20:00Z","containment_time_utc":"2024-10-18T00:30:00Z","control_time_utc":"2024-10-18T16:45:00Z","fire_out_time_utc":"2024-10-21T17:00:00Z","fire_cause":"Human","fire_cause_general":"Equipment and vehicle use","map_method":"Auto-generated for InFORM","source_dataset":"FFP","unique_fire_identifier":"2024-MN4XS-003253","irwin_id":"{896E79D5-FE8D-4294-8B6E-54D43D10E7AC}","global_id":"db453e3d-a953-4dcd-98db-371c64e4eb4c"}}]}
