{"type":"FeatureCollection","features":[{"type":"Feature","geometry":{"type":"Polygon","coordinates":[[[-83.89779,35.20504],[-83.89814,35.20482],[-83.89971,35.20484],[-83.90035,35.20504],[-83.90119,35.20479],[-83.90148,35.20549],[-83.90241,35.20494],[-83.903,35.20496],[-83.90332,35.20513],[-83.90364,35.20562],[-83.90363,35.20626],[-83.90315,35.20699],[-83.90274,35.20725],[-83.90275,35.20746],[-83.90317,35.20764],[-83.90308,35.20857],[-83.90351,35.20948],[-83.90327,35.2107],[-83.90311,35.21093],[-83.90217,35.21106],[-83.90191,35.21123],[-83.90186,35.21282],[-83.90143,35.21334],[-83.90171,35.21419],[-83.90123,35.21475],[-83.90157,35.2156],[-83.90105,35.21587],[-83.90069,35.21702],[-83.90004,35.21767],[-83.90018,35.21798],[-83.90083,35.21857],[-83.90042,35.21917],[-83.90042,35.2196],[-83.90022,35.21987],[-83.89958,35.22028],[-83.8986,35.22065],[-83.89793,35.2204],[-83.8971,35.22038],[-83.89625,35.2206],[-83.89594,35.22036],[-83.89552,35.22037],[-83.89542,35.2205],[-83.89499,35.22034],[-83.89439,35.22051],[-83.8937,35.22049],[-83.89307,35.21955],[-83.89273,35.21826],[-83.89253,35.21798],[-83.89294,35.21802],[-83.89294,35.21765],[-83.89388,35.2173],[-83.89414,35.21703],[-83.89531,35.21643],[-83.89606,35.21639],[-83.89555,35.21577],[-83.89538,35.21534],[-83.89634,35.21399],[-83.89772,35.21287],[-83.89824,35.21217],[-83.89912,35.2103],[-83.89894,35.2094],[-83.89914,35.20826],[-83.89823,35.2052],[-83.89779,35.20504]]]},"properties":{"fire_id":"ufid:2024-NCNCS-240007","source_collection":"history-2024","source_objectid":27093,"incident_name":"Bonny Brae","mapped_acres":201.4,"mapped_acres_source":"poly_GISAcres","gis_acres":201.4,"auto_acres":201.420087970698,"reported_acres":210.0,"percent_contained":100.0,"state":"NC","state_wfigs":"US-NC","county":"Cherokee","discovery_time_utc":"2024-02-06T11:15:00Z","perimeter_time_utc":null,"perimeter_edit_time_utc":"2024-06-10T17:51:33Z","incident_modified_time_utc":"2024-07-10T18:47:51Z","containment_time_utc":"2024-02-10T06:00:00Z","control_time_utc":"2024-02-11T22:00:00Z","fire_out_time_utc":"2024-02-16T21:00:00Z","fire_cause":"Undetermined","fire_cause_general":null,"map_method":"Mixed Methods","source_dataset":"2024 NIFS","unique_fire_identifier":"2024-NCNCS-240007","irwin_id":"{EA7E7BC4-3CBA-4B9E-A4A9-2A37A12FEA6B}","global_id":"6307e782-bed0-4e9d-9638-00a38cc281fa"}},{"type":"Feature","geometry":{"type":"Polygon","coordinates":[[[-82.14994,35.7453],[-82.15053,35.74783],[-82.15048,35.74882],[-82.14877,35.75072],[-82.148,35.7528],[-82.14794,35.75322],[-82.14805,35.75346],[-82.14689,35.7541],[-82.14665,35.75435],[-82.14667,35.7545],[-82.14648,35.75458],[-82.14639,35.7549],[-82.14607,35.75519],[-82.14493,35.7553],[-82.14355,35.75603],[-82.14319,35.75607],[-82.14277,35.7559],[-82.14256,35.75616],[-82.14174,35.75661],[-82.14158,35.75711],[-82.14084,35.75816],[-82.13972,35.7581],[-82.1384,35.75784],[-82.13732,35.75732],[-82.13727,35.75685],[-82.13762,35.75624],[-82.13749,35.75591],[-82.13782,35.7553],[-82.13798,35.75435],[-82.13751,35.75244],[-82.1367,35.75198],[-82.13664,35.75169],[-82.13676,35.75134],[-82.13636,35.75109],[-82.13585,35.75024],[-82.1355,35.74998],[-82.13569,35.74956],[-82.13608,35.74931],[-82.13584,35.74873],[-82.13619,35.74862],[-82.13623,35.74846],[-82.13541,35.74783],[-82.13542,35.74733],[-82.13514,35.7468],[-82.13485,35.74654],[-82.13508,35.74626],[-82.13477,35.74518],[-82.13517,35.7447],[-82.13548,35.74465],[-82.13531,35.74422],[-82.13581,35.74372],[-82.1362,35.74301],[-82.1361,35.74244],[-82.13678,35.74127],[-82.13679,35.74084],[-82.13695,35.7406],[-82.13743,35.7403],[-82.13764,35.73878],[-82.13785,35.73868],[-82.13855,35.739],[-82.1387,35.73894],[-82.1385,35.73813],[-82.13859,35.73786],[-82.14203,35.73796],[-82.14253,35.73866],[-82.14363,35.73905],[-82.14447,35.73952],[-82.14513,35.74007],[-82.14619,35.74153],[-82.1467,35.74255],[-82.14714,35.74312],[-82.14793,35.74381],[-82.1492,35.74455],[-82.14994,35.7453]]]},"properties":{"fire_id":"ufid:2024-NCNCS-240033","source_collection":"history-2024","source_objectid":36492,"incident_name":"Buck Creek","mapped_acres":517.2144,"mapped_acres_source":"poly_GISAcres","gis_acres":517.2144,"auto_acres":517.2125834447024,"reported_acres":518.0,"percent_contained":null,"state":"NC","state_wfigs":"US-NC","county":"McDowell","discovery_time_utc":"2024-12-05T14:45:00Z","perimeter_time_utc":"2025-02-10T15:59:54Z","perimeter_edit_time_utc":"2025-02-10T15:59:54Z","incident_modified_time_utc":"2025-02-10T15:58:49Z","containment_time_utc":"2024-12-09T21:39:00Z","control_time_utc":"2024-12-17T16:00:00Z","fire_out_time_utc":"2024-12-31T22:00:00Z","fire_cause":"Human","fire_cause_general":"Power generation / transmission / distribution","map_method":"Other","source_dataset":"FFP","unique_fire_identifier":"2024-NCNCS-240033","irwin_id":"{344BA69F-BE50-46C6-8839-3E951D085E4E}","global_id":"c51ea591-a172-47c3-a784-f5700ce39239"}},{"type":"Feature","geometry":{"type":"Polygon","coordinates":[[[-84.25464,35.17867],[-84.25489,35.17951],[-84.25454,35.17993],[-84.25353,35.17988],[-84.25304,35.17962],[-84.25248,35.18028],[-84.25197,35.18039],[-84.25028,35.1813],[-84.24975,35.18191],[-84.24935,35.18209],[-84.24809,35.18309],[-84.24732,35.18302],[-84.24712,35.18272],[-84.24612,35.18211],[-84.24591,35.18211],[-84.2457,35.18183],[-84.24515,35.18148],[-84.24441,35.18146],[-84.24399,35.1812],[-84.24365,35.18071],[-84.24465,35.18041],[-84.24505,35.18015],[-84.24548,35.17953],[-84.24615,35.1793],[-84.24638,35.17959],[-84.24694,35.17945],[-84.2473,35.17957],[-84.24971,35.17938],[-84.25114,35.17901],[-84.25344,35.17818],[-84.25388,35.17823],[-84.25464,35.17867]]]},"properties":{"fire_id":"ufid:2024-NCNCF-240019","source_collection":"history-2024","source_objectid":36508,"incident_name":"Morrow Rd","mapped_acres":58.9,"mapped_acres_source":"poly_GISAcres","gis_acres":58.9,"auto_acres":58.9055069992027,"reported_acres":59.0,"percent_contained":null,"state":"NC","state_wfigs":"US-NC","county":"Cherokee","discovery_time_utc":"2024-01-02T19:01:38Z","perimeter_time_utc":"2025-01-14T21:00:16Z","perimeter_edit_time_utc":"2025-01-14T21:00:16Z","incident_modified_time_utc":"2024-01-12T13:47:38Z","containment_time_utc":"2024-01-03T02:00:00Z","control_time_utc":"2024-01-07T02:00:00Z","fire_out_time_utc":"2024-01-09T02:00:00Z","fire_cause":"Human","fire_cause_general":"Fireworks","map_method":"Mixed Methods","source_dataset":"FFP","unique_fire_identifier":"2024-NCNCF-240019","irwin_id":"{A9D306EB-33F5-43F2-BBE3-D9F82A14E117}","global_id":"bf4b46ab-30e1-4c86-ba75-a4781d0f8dd0"}},{"type":"Feature","geometry":{"type":"Polygon","coordinates":[[[-83.35193,35.33764],[-83.35234,35.33772],[-83.35233,35.33794],[-83.35218,35.33831],[-83.3519,35.33835],[-83.35193,35.33764]]]},"properties":{"fire_id":"ufid:2024-NCNCF-240133","source_collection":"history-2024","source_objectid":36526,"incident_name":"Big Laurel","mapped_acres":0.6,"mapped_acres_source":"poly_GISAcres","gis_acres":0.6,"auto_acres":0.6217622745048356,"reported_acres":0.62,"percent_contained":null,"state":"NC","state_wfigs":"US-NC","county":"Swain","discovery_time_utc":"2024-03-29T20:18:56Z","perimeter_time_utc":"2025-01-15T12:43:09Z","perimeter_edit_time_utc":"2025-01-15T12:43:09Z","incident_modified_time_utc":"2024-05-15T19:48:11Z","containment_time_utc":"2024-04-03T15:53:00Z","control_time_utc":"2024-04-03T15:53:00Z","fire_out_time_utc":"2024-05-15T19:47:58Z","fire_cause":"Human","fire_cause_general":"Recreation and ceremony","map_method":"GPS-Walked","source_dataset":"FFP","unique_fire_identifier":"2024-NCNCF-240133","irwin_id":"{02C3ECC7-F691-4DC5-A01A-04F722D0413C}","global_id":"0bf735f3-e9e6-4969-b978-ba1d43473085"}},{"type":"Feature","geometry":{"type":"Polygon","coordinates":[[[-83.33005,35.32257],[-83.32933,35.32185],[-83.3298,35.32118],[-83.32954,35.32102],[-83.32954,35.32084],[-83.32966,35.32058],[-83.33008,35.32053],[-83.32995,35.32028],[-83.33003,35.32016],[-83.33089,35.32031],[-83.33156,35.32084],[-83.33167,35.32099],[-83.33161,35.32114],[-83.33183,35.32119],[-83.33183,35.32131],[-83.33203,35.3211],[-83.33229,35.32142],[-83.33222,35.32171],[-83.33253,35.32183],[-83.33265,35.32216],[-83.33306,35.32216],[-83.33293,35.32239],[-83.33305,35.3225],[-83.33301,35.32267],[-83.33228,35.32291],[-83.33221,35.32307],[-83.33232,35.32344],[-83.33374,35.32359],[-83.33421,35.32376],[-83.33456,35.32407],[-83.33467,35.32471],[-83.33459,35.32494],[-83.33481,35.32532],[-83.33464,35.32548],[-83.33445,35.32542],[-83.33444,35.32582],[-83.3346,35.32606],[-83.33327,35.32625],[-83.33224,35.32691],[-83.33049,35.32703],[-83.33088,35.32639],[-83.32985,35.32592],[-83.33053,35.32571],[-83.33085,35.32436],[-83.33046,35.32438],[-83.32941,35.32404],[-83.3294,35.32379],[-83.32961,35.32347],[-83.3301,35.32347],[-83.32968,35.3232],[-83.32865,35.32336],[-83.32844,35.32369],[-83.32845,35.32408],[-83.32831,35.32381],[-83.3284,35.32325],[-83.32868,35.32289],[-83.32905,35.32287],[-83.32949,35.32263],[-83.32984,35.32272],[-83.33005,35.32257]]]},"properties":{"fire_id":"ufid:2024-NCNCF-240140","source_collection":"history-2024","source_objectid":36527,"incident_name":"SUGAR FORK","mapped_acres":54.0023,"mapped_acres_source":"poly_GISAcres","gis_acres":54.0023,"auto_acres":54.00232084196557,"reported_acres":54.0,"percent_contained":null,"state":"NC","state_wfigs":"US-NC","county":"Jackson","discovery_time_utc":"2024-03-31T00:49:00Z","perimeter_time_utc":"2025-01-15T12:41:07Z","perimeter_edit_time_utc":"2025-01-15T12:41:07Z","incident_modified_time_utc":"2024-05-15T19:37:56Z","containment_time_utc":"2024-05-15T19:33:29Z","control_time_utc":null,"fire_out_time_utc":"2024-05-15T19:37:36Z","fire_cause":"Human","fire_cause_general":"Equipment and vehicle use","map_method":"Auto-generated","source_dataset":"FFP","unique_fire_identifier":"2024-NCNCF-240140","irwin_id":"{C4D4DFD5-419A-4CD2-8686-2C9628D960BD}","global_id":"c72c1729-d919-4c1a-8f45-2558046d0fe0"}},{"type":"Feature","geometry":{"type":"Polygon","coordinates":[[[-83.84531,35.32976],[-83.84504,35.33006],[-83.84339,35.32911],[-83.84324,35.32861],[-83.84417,35.32772],[-83.84468,35.32824],[-83.84526,35.32792],[-83.84625,35.32761],[-83.84705,35.32774],[-83.84712,35.32806],[-83.8468,35.32838],[-83.8468,35.32917],[-83.84531,35.32976]]]},"properties":{"fire_id":"ufid:2024-NCNCF-240146","source_collection":"history-2024","source_objectid":36995,"incident_name":"LEONARD DAVIS","mapped_acres":14.62,"mapped_acres_source":"poly_GISAcres","gis_acres":14.62,"auto_acres":14.622012983407856,"reported_acres":14.62,"percent_contained":null,"state":"NC","state_wfigs":"US-NC","county":"Graham","discovery_time_utc":"2024-04-01T16:44:16Z","perimeter_time_utc":"2025-02-12T14:38:50Z","perimeter_edit_time_utc":"2025-02-12T14:38:51Z","incident_modified_time_utc":"2024-06-26T13:04:22Z","containment_time_utc":"2024-04-01T22:45:00Z","control_time_utc":"2024-04-07T12:00:00Z","fire_out_time_utc":"2024-04-08T12:00:00Z","fire_cause":"Human","fire_cause_general":"Undetermined","map_method":"Hand Sketch","source_dataset":"FFP","unique_fire_identifier":"2024-NCNCF-240146","irwin_id":"{76423185-4CB0-4798-A263-84BC39982427}","global_id":"e2445d50-3f5b-4772-9288-ffe0413144ed"}}]}
