{"type":"FeatureCollection","features":[{"type":"Feature","geometry":{"type":"Polygon","coordinates":[[[-98.82836,48.00289],[-98.82918,48.0018],[-98.829,48.00261],[-98.82843,48.00335],[-98.82877,48.00413],[-98.82875,48.00443],[-98.8285,48.00468],[-98.82814,48.0035],[-98.82829,48.00334],[-98.82836,48.00289]]]},"properties":{"fire_id":"ufid:2024-NDFTA-000027","source_collection":"history-2024","source_objectid":25058,"incident_name":"FISH AND GAME","mapped_acres":1.0,"mapped_acres_source":"poly_GISAcres","gis_acres":1.0,"auto_acres":1.8485858838508118,"reported_acres":1.9,"percent_contained":null,"state":"ND","state_wfigs":"US-ND","county":"Benson","discovery_time_utc":"2024-03-13T23:00:00Z","perimeter_time_utc":"2024-03-26T13:40:01Z","perimeter_edit_time_utc":"2024-03-26T13:40:02Z","incident_modified_time_utc":"2024-03-19T13:47:02Z","containment_time_utc":null,"control_time_utc":null,"fire_out_time_utc":"2024-03-14T13:30:00Z","fire_cause":"Human","fire_cause_general":"Undetermined","map_method":"Hand Sketch","source_dataset":"FFP","unique_fire_identifier":"2024-NDFTA-000027","irwin_id":"{46001F53-1901-4798-A12F-6F92C894EC2F}","global_id":"c040773e-ed62-4600-b347-dc51d854c196"}},{"type":"Feature","geometry":{"type":"Polygon","coordinates":[[[-98.59247,47.84645],[-98.60845,47.84728],[-98.60847,47.85156],[-98.60862,47.8524],[-98.60853,47.85406],[-98.6086,47.8547],[-98.60873,47.85483],[-98.60863,47.86021],[-98.60956,47.86018],[-98.61051,47.85998],[-98.61213,47.85995],[-98.61281,47.85959],[-98.61449,47.85946],[-98.61556,47.85943],[-98.61696,47.8597],[-98.61662,47.85987],[-98.616,47.85987],[-98.61564,47.86005],[-98.61567,47.86023],[-98.6159,47.86041],[-98.61582,47.86068],[-98.61594,47.86101],[-98.6158,47.86119],[-98.61649,47.86117],[-98.61671,47.86136],[-98.61608,47.86196],[-98.61652,47.8623],[-98.6161,47.86256],[-98.61626,47.86293],[-98.61529,47.86317],[-98.61552,47.86356],[-98.61208,47.86363],[-98.61102,47.86292],[-98.61075,47.86287],[-98.61079,47.86274],[-98.61052,47.86291],[-98.61027,47.8629],[-98.61023,47.86228],[-98.61005,47.86215],[-98.61025,47.86181],[-98.60991,47.86167],[-98.60864,47.86184],[-98.60857,47.86238],[-98.60799,47.86238],[-98.60552,47.86334],[-98.60485,47.86337],[-98.60418,47.86308],[-98.60308,47.86328],[-98.60244,47.86286],[-98.60204,47.86287],[-98.60115,47.86313],[-98.60132,47.86351],[-98.60113,47.86369],[-98.60069,47.86376],[-98.60007,47.86361],[-98.59963,47.86385],[-98.59965,47.86428],[-98.60002,47.86458],[-98.59975,47.86511],[-98.59983,47.86542],[-98.60158,47.86544],[-98.6037,47.86587],[-98.6038,47.86746],[-98.60431,47.86817],[-98.60457,47.86882],[-98.60499,47.8692],[-98.60862,47.86922],[-98.60818,47.86972],[-98.6082,47.8703],[-98.60803,47.87053],[-98.60805,47.87079],[-98.60672,47.87065],[-98.60606,47.87076],[-98.6058,47.87044],[-98.60551,47.87037],[-98.60496,47.87078],[-98.60422,47.87077],[-98.60391,47.87061],[-98.60359,47.87022],[-98.60327,47.87011],[-98.6029,47.87059],[-98.60322,47.87133],[-98.60281,47.87197],[-98.60036,47.87224],[-98.60011,47.87239],[-98.59776,47.87286],[-98.5977,47.87278],[-98.59696,47.87292],[-98.59559,47.87287],[-98.59354,47.87324],[-98.59318,47.87302],[-98.59236,47.87302],[-98.59193,47.87286],[-98.59203,47.87263],[-98.59185,47.8725],[-98.59205,47.87229],[-98.59142,47.87217],[-98.59075,47.87172],[-98.59028,47.8709],[-98.58977,47.8695],[-98.58879,47.86943],[-98.58887,47.86915],[-98.58877,47.86905],[-98.58765,47.86905],[-98.58682,47.86869],[-98.58661,47.86708],[-98.58685,47.86589],[-98.58655,47.86573],[-98.58511,47.86565],[-98.58502,47.865],[-98.5848,47.86482],[-98.57695,47.86473],[-98.57598,47.86458],[-98.56826,47.86446],[-98.56799,47.86434],[-98.56788,47.86401],[-98.56768,47.8639],[-98.56532,47.86344],[-98.56533,47.85672],[-98.5924,47.85473],[-98.59247,47.84645]],[[-98.61609,47.86209],[-98.61611,47.86207],[-98.6161,47.86202],[-98.61609,47.86209]]]},"properties":{"fire_id":"ufid:2024-NDFTA-000056","source_collection":"history-2024","source_objectid":25344,"incident_name":"Twisted Arrow","mapped_acres":1365.3,"mapped_acres_source":"poly_GISAcres","gis_acres":1365.3,"auto_acres":1365.2631007770758,"reported_acres":1365.3,"percent_contained":100.0,"state":"ND","state_wfigs":"US-ND","county":"Benson","discovery_time_utc":"2024-04-07T04:03:00Z","perimeter_time_utc":"2024-04-07T09:00:00Z","perimeter_edit_time_utc":"2024-04-09T20:15:17Z","incident_modified_time_utc":"2025-06-10T20:02:14Z","containment_time_utc":null,"control_time_utc":null,"fire_out_time_utc":"2024-04-12T13:30:00Z","fire_cause":"Undetermined","fire_cause_general":null,"map_method":"Mixed Methods","source_dataset":"2024 NIFS","unique_fire_identifier":"2024-NDFTA-000056","irwin_id":"{69488B1A-CC42-42C3-A76E-003152681B2C}","global_id":"f4a97406-7317-4a57-9a85-7773e0442891"}},{"type":"Feature","geometry":{"type":"Polygon","coordinates":[[[-99.85469,48.81984],[-99.85728,48.81988],[-99.85742,48.8201],[-99.85727,48.82019],[-99.85481,48.82016],[-99.85469,48.81984]]]},"properties":{"fire_id":"ufid:2024-NDTMA-240026","source_collection":"history-2024","source_objectid":25434,"incident_name":"CASINO","mapped_acres":2.0,"mapped_acres_source":"poly_GISAcres","gis_acres":2.0,"auto_acres":1.65463878266422,"reported_acres":1.6,"percent_contained":null,"state":"ND","state_wfigs":"US-ND","county":"Rolette","discovery_time_utc":"2024-04-13T16:16:25Z","perimeter_time_utc":"2024-04-13T21:16:25Z","perimeter_edit_time_utc":"2024-04-15T15:09:13Z","incident_modified_time_utc":"2024-10-23T21:52:35Z","containment_time_utc":"2024-04-13T16:40:00Z","control_time_utc":"2024-04-13T16:46:00Z","fire_out_time_utc":"2024-04-18T16:00:00Z","fire_cause":"Human","fire_cause_general":"Debris and open burning","map_method":"Hand Sketch","source_dataset":"2024 NIFS","unique_fire_identifier":"2024-NDTMA-240026","irwin_id":"{31CF03E7-8859-4967-B5A7-639B3DF0B91B}","global_id":"4b201a8e-fa86-4415-b17e-ff18e113ffdf"}},{"type":"Feature","geometry":{"type":"Polygon","coordinates":[[[-98.99711,47.96568],[-98.998,47.97092],[-98.9963,47.97094],[-98.99629,47.965],[-98.99711,47.96568]]]},"properties":{"fire_id":"ufid:2024-NDFTA-000074","source_collection":"history-2024","source_objectid":25900,"incident_name":"HIGHWAY","mapped_acres":1.0,"mapped_acres_source":"poly_GISAcres","gis_acres":1.0,"auto_acres":14.168738481360622,"reported_acres":14.2,"percent_contained":null,"state":"ND","state_wfigs":"US-ND","county":"Benson","discovery_time_utc":"2024-04-22T03:30:00Z","perimeter_time_utc":"2024-04-30T13:03:20Z","perimeter_edit_time_utc":"2024-04-30T13:03:21Z","incident_modified_time_utc":"2024-04-23T18:01:35Z","containment_time_utc":null,"control_time_utc":null,"fire_out_time_utc":"2024-04-22T14:30:00Z","fire_cause":"Undetermined","fire_cause_general":"Undetermined","map_method":"Hand Sketch","source_dataset":"FFP","unique_fire_identifier":"2024-NDFTA-000074","irwin_id":"{58FD3583-9437-40AE-B540-2E5C8BB6BD2C}","global_id":"28467e46-b612-4676-9222-db2170e31175"}},{"type":"Feature","geometry":{"type":"Polygon","coordinates":[[[-99.06663,48.35436],[-99.06731,48.35516],[-99.06628,48.35499],[-99.06483,48.35499],[-99.06431,48.35539],[-99.06225,48.35499],[-99.05959,48.35476],[-99.0577,48.35493],[-99.05633,48.35539],[-99.05616,48.35613],[-99.05684,48.35727],[-99.05659,48.35841],[-99.05521,48.35841],[-99.05272,48.35772],[-99.05186,48.35693],[-99.05272,48.3559],[-99.05092,48.35476],[-99.04929,48.35425],[-99.04877,48.33998],[-99.05178,48.33936],[-99.05186,48.34187],[-99.05058,48.34324],[-99.04989,48.34352],[-99.04989,48.34409],[-99.05015,48.34506],[-99.05144,48.34592],[-99.05075,48.34672],[-99.05083,48.34751],[-99.05101,48.34757],[-99.05238,48.34609],[-99.05247,48.34575],[-99.05298,48.34586],[-99.05307,48.34677],[-99.05272,48.34763],[-99.05272,48.34905],[-99.05375,48.35054],[-99.05375,48.35236],[-99.05547,48.35271],[-99.05556,48.35282],[-99.0571,48.35219],[-99.05744,48.35082],[-99.05779,48.34991],[-99.05813,48.3494],[-99.05744,48.34769],[-99.0577,48.34654],[-99.05804,48.34637],[-99.05839,48.34637],[-99.05822,48.34495],[-99.05804,48.34472],[-99.05598,48.34369],[-99.05521,48.34249],[-99.05624,48.34164],[-99.05916,48.34181],[-99.06174,48.34289],[-99.06182,48.34312],[-99.06328,48.34415],[-99.06337,48.34575],[-99.06371,48.34723],[-99.06414,48.34831],[-99.06414,48.34877],[-99.0638,48.3494],[-99.0638,48.35117],[-99.06448,48.35265],[-99.06663,48.35436]]]},"properties":{"fire_id":"ufid:2024-NDDVR-000129","source_collection":"history-2024","source_objectid":26728,"incident_name":"Russell","mapped_acres":320.3,"mapped_acres_source":"poly_GISAcres","gis_acres":320.3,"auto_acres":320.29566344203596,"reported_acres":320.2,"percent_contained":null,"state":"ND","state_wfigs":"US-ND","county":"Ramsey","discovery_time_utc":"2024-05-14T19:00:00Z","perimeter_time_utc":"2024-05-23T19:27:07Z","perimeter_edit_time_utc":"2024-05-23T19:27:08Z","incident_modified_time_utc":"2024-05-22T16:00:20Z","containment_time_utc":"2024-05-14T19:01:00Z","control_time_utc":"2024-05-14T19:02:00Z","fire_out_time_utc":"2024-05-14T19:07:00Z","fire_cause":"Human","fire_cause_general":"Undetermined","map_method":"Hand Sketch","source_dataset":"FFP","unique_fire_identifier":"2024-NDDVR-000129","irwin_id":"{7A7D25DF-B8A1-490D-B42E-87ABAA41297C}","global_id":"d5d514c6-6822-43dd-bd63-8c94226cd8e3"}},{"type":"Feature","geometry":{"type":"Polygon","coordinates":[[[-99.68925,48.84341],[-99.68812,48.84296],[-99.68757,48.84316],[-99.68746,48.84298],[-99.68676,48.84278],[-99.68612,48.84327],[-99.6856,48.8433],[-99.68479,48.84302],[-99.68428,48.84262],[-99.68352,48.84235],[-99.68361,48.84211],[-99.68351,48.84194],[-99.68315,48.84206],[-99.68301,48.84176],[-99.68265,48.84174],[-99.68205,48.84148],[-99.68193,48.84123],[-99.68184,48.83991],[-99.68213,48.83927],[-99.68196,48.83909],[-99.68193,48.83856],[-99.68164,48.83785],[-99.68174,48.83725],[-99.68155,48.83642],[-99.6822,48.83641],[-99.68201,48.83671],[-99.6821,48.83675],[-99.68247,48.8366],[-99.68237,48.83636],[-99.68249,48.83603],[-99.68336,48.83477],[-99.68377,48.83442],[-99.68416,48.83463],[-99.68415,48.8345],[-99.68381,48.83439],[-99.68424,48.83422],[-99.6844,48.83401],[-99.6851,48.8344],[-99.68527,48.83474],[-99.68413,48.83539],[-99.68389,48.83576],[-99.68406,48.8359],[-99.68484,48.83544],[-99.68526,48.83533],[-99.68556,48.83496],[-99.68653,48.83518],[-99.68653,48.83455],[-99.68594,48.83438],[-99.68584,48.83417],[-99.68907,48.83422],[-99.68961,48.834],[-99.68961,48.83371],[-99.68928,48.83359],[-99.68934,48.83322],[-99.68881,48.83312],[-99.68893,48.83288],[-99.68877,48.83288],[-99.68878,48.83312],[-99.68861,48.83321],[-99.68825,48.83316],[-99.68771,48.83336],[-99.68744,48.83316],[-99.68722,48.83259],[-99.68723,48.83187],[-99.68782,48.83152],[-99.68801,48.83128],[-99.68789,48.8311],[-99.68796,48.83098],[-99.68835,48.83096],[-99.6883,48.83146],[-99.6885,48.83159],[-99.68929,48.83127],[-99.68841,48.83086],[-99.6884,48.83068],[-99.68899,48.83036],[-99.6892,48.83011],[-99.68967,48.83002],[-99.68938,48.82978],[-99.68973,48.82924],[-99.68855,48.82899],[-99.6882,48.82926],[-99.68798,48.82902],[-99.68827,48.8278],[-99.68845,48.82789],[-99.68849,48.82829],[-99.689,48.82847],[-99.68935,48.82841],[-99.68938,48.82882],[-99.68963,48.82885],[-99.6898,48.82854],[-99.69005,48.82842],[-99.68969,48.82807],[-99.68994,48.82686],[-99.69068,48.82641],[-99.69095,48.82643],[-99.69122,48.82665],[-99.69137,48.82657],[-99.69139,48.82638],[-99.69166,48.82638],[-99.69212,48.82672],[-99.69283,48.82637],[-99.69267,48.82685],[-99.69284,48.82692],[-99.6932,48.8268],[-99.69359,48.82691],[-99.69325,48.82715],[-99.69357,48.82738],[-99.69381,48.82709],[-99.6937,48.82644],[-99.69418,48.82594],[-99.6943,48.82594],[-99.69451,48.82633],[-99.69482,48.82626],[-99.69499,48.826],[-99.69544,48.82606],[-99.69564,48.82625],[-99.6958,48.82672],[-99.69554,48.8269],[-99.69491,48.82702],[-99.69463,48.82726],[-99.69467,48.82754],[-99.69625,48.82756],[-99.69685,48.82769],[-99.69703,48.82802],[-99.69704,48.82838],[-99.69657,48.82857],[-99.69475,48.82856],[-99.69448,48.82842],[-99.6944,48.82919],[-99.69449,48.82928],[-99.69476,48.82914],[-99.69653,48.82911],[-99.69746,48.82916],[-99.69753,48.82932],[-99.69605,48.82976],[-99.69558,48.83009],[-99.69504,48.83],[-99.6947,48.83016],[-99.69457,48.83011],[-99.69441,48.82939],[-99.69422,48.8294],[-99.69297,48.83],[-99.69281,48.83054],[-99.69231,48.83072],[-99.69255,48.83101],[-99.69255,48.83119],[-99.69204,48.8314],[-99.69182,48.83191],[-99.69084,48.83215],[-99.69091,48.83241],[-99.69137,48.83276],[-99.69147,48.83357],[-99.69137,48.83385],[-99.69104,48.83393],[-99.69148,48.834],[-99.69201,48.83428],[-99.69211,48.8345],[-99.69159,48.83482],[-99.6916,48.83506],[-99.69135,48.83531],[-99.69075,48.8355],[-99.69053,48.83576],[-99.69017,48.83568],[-99.68996,48.83596],[-99.6904,48.83604],[-99.69081,48.83589],[-99.69073,48.83613],[-99.69084,48.83677],[-99.69139,48.8372],[-99.69119,48.83808],[-99.69142,48.83886],[-99.69139,48.83894],[-99.69112,48.83882],[-99.69082,48.83886],[-99.69127,48.83912],[-99.69137,48.83933],[-99.6913,48.84028],[-99.69141,48.84084],[-99.69161,48.84028],[-99.69213,48.84034],[-99.69226,48.84051],[-99.69162,48.84113],[-99.69158,48.84135],[-99.69133,48.84142],[-99.69115,48.8413],[-99.69083,48.84183],[-99.69124,48.84242],[-99.6911,48.84278],[-99.68974,48.84335],[-99.68925,48.84341]]]},"properties":{"fire_id":"ufid:2024-NDTMA-240044","source_collection":"history-2024","source_objectid":27021,"incident_name":"PHOTO SHOOT","mapped_acres":354.0,"mapped_acres_source":"poly_GISAcres","gis_acres":354.0,"auto_acres":228.480976973136,"reported_acres":354.0,"percent_contained":null,"state":"ND","state_wfigs":"US-ND","county":"Rolette","discovery_time_utc":"2024-04-23T20:51:23Z","perimeter_time_utc":"2024-04-24T01:51:23Z","perimeter_edit_time_utc":"2024-06-07T17:12:34Z","incident_modified_time_utc":"2024-11-13T21:44:12Z","containment_time_utc":"2024-04-24T01:20:00Z","control_time_utc":"2024-04-24T04:45:00Z","fire_out_time_utc":"2024-05-06T16:00:00Z","fire_cause":"Human","fire_cause_general":"Arson","map_method":"Remote Sensing Derived","source_dataset":"2024 NIFS","unique_fire_identifier":"2024-NDTMA-240044","irwin_id":"{76EF1AF7-CB6E-4562-BF86-F186032F0CF5}","global_id":"c35f6e13-d0cf-49cb-b13a-0887188ade04"}},{"type":"Feature","geometry":{"type":"Polygon","coordinates":[[[-98.96008,48.62392],[-98.97031,48.62395],[-98.97023,48.6298],[-98.96978,48.62949],[-98.96968,48.62919],[-98.96967,48.62897],[-98.9701,48.62848],[-98.97006,48.62814],[-98.96912,48.62755],[-98.96775,48.62752],[-98.96678,48.62814],[-98.96645,48.62877],[-98.96648,48.62945],[-98.96666,48.62992],[-98.96727,48.63022],[-98.96921,48.63046],[-98.96933,48.63069],[-98.9601,48.63079],[-98.96008,48.62392]]]},"properties":{"fire_id":"ufid:2024-NDDVR-000164","source_collection":"history-2024","source_objectid":27314,"incident_name":"Pung","mapped_acres":121.0,"mapped_acres_source":"poly_GISAcres","gis_acres":121.0,"auto_acres":121.63906598339722,"reported_acres":121.0,"percent_contained":null,"state":"ND","state_wfigs":"US-ND","county":"Cavalier","discovery_time_utc":"2024-06-12T19:00:00Z","perimeter_time_utc":"2024-06-17T20:18:13Z","perimeter_edit_time_utc":"2024-06-17T20:18:14Z","incident_modified_time_utc":"2024-06-17T19:40:38Z","containment_time_utc":"2024-06-12T20:05:00Z","control_time_utc":"2024-06-12T21:06:00Z","fire_out_time_utc":"2024-06-13T18:00:00Z","fire_cause":"Human","fire_cause_general":"Undetermined","map_method":"Hand Sketch","source_dataset":"FFP","unique_fire_identifier":"2024-NDDVR-000164","irwin_id":"{F86204B7-0F20-4437-90B0-7060921CAB2A}","global_id":"726651a2-f425-4ea2-974e-e358049a294b"}},{"type":"Feature","geometry":{"type":"Polygon","coordinates":[[[-98.83397,47.90571],[-98.83373,47.90563],[-98.83395,47.90565],[-98.83397,47.90571]]]},"properties":{"fire_id":"ufid:2024-NDFTA-000093","source_collection":"history-2024","source_objectid":30985,"incident_name":"Tourist","mapped_acres":0.0,"mapped_acres_source":"poly_GISAcres","gis_acres":0.0,"auto_acres":0.026431727328002735,"reported_acres":null,"percent_contained":null,"state":"ND","state_wfigs":"US-ND","county":"Benson","discovery_time_utc":"2024-06-27T18:00:00Z","perimeter_time_utc":"2024-06-27T18:16:23Z","perimeter_edit_time_utc":"2024-08-14T17:02:29Z","incident_modified_time_utc":"2024-06-30T01:01:14Z","containment_time_utc":null,"control_time_utc":null,"fire_out_time_utc":null,"fire_cause":null,"fire_cause_general":null,"map_method":"Mixed Methods","source_dataset":"2024 NIFS","unique_fire_identifier":"2024-NDFTA-000093","irwin_id":"{B528EC0D-1201-487C-A924-7AF3A3DEBF2B}","global_id":"01497577-72e3-4c7e-8e06-91c6a30ac4b3"}},{"type":"Feature","geometry":{"type":"Polygon","coordinates":[[[-99.2959,48.89205],[-99.29613,48.89999],[-99.2957,48.89993],[-99.29497,48.89957],[-99.29476,48.89913],[-99.29484,48.898],[-99.29514,48.89763],[-99.29512,48.89635],[-99.29478,48.89521],[-99.29489,48.89419],[-99.2951,48.89354],[-99.29478,48.89297],[-99.29384,48.89206],[-99.2959,48.89205]]]},"properties":{"fire_id":"ufid:2024-NDDVR-000165","source_collection":"history-2024","source_objectid":34769,"incident_name":"SBA","mapped_acres":17.77,"mapped_acres_source":"poly_GISAcres","gis_acres":17.77,"auto_acres":17.768910581879723,"reported_acres":17.77,"percent_contained":null,"state":"ND","state_wfigs":"US-ND","county":"Towner","discovery_time_utc":"2024-11-08T21:00:34Z","perimeter_time_utc":"2024-11-20T16:25:53Z","perimeter_edit_time_utc":"2024-11-20T16:25:55Z","incident_modified_time_utc":"2024-11-20T16:13:36Z","containment_time_utc":null,"control_time_utc":null,"fire_out_time_utc":"2024-11-09T16:00:00Z","fire_cause":"Human","fire_cause_general":"Undetermined","map_method":"Hand Sketch","source_dataset":"FFP","unique_fire_identifier":"2024-NDDVR-000165","irwin_id":"{D3D86088-A9C5-444E-81C4-104E64DB751A}","global_id":"459129c1-6bdd-412a-baa8-789b129f96bf"}},{"type":"Feature","geometry":{"type":"Polygon","coordinates":[[[-99.01762,47.97137],[-99.0175,47.97119],[-99.01762,47.97121],[-99.01762,47.97137]]]},"properties":{"fire_id":"ufid:2024-NDFTA-000092","source_collection":"history-2024","source_objectid":36485,"incident_name":"CARPET","mapped_acres":0.05,"mapped_acres_source":"poly_GISAcres","gis_acres":0.05,"auto_acres":0.05155019614953137,"reported_acres":0.05,"percent_contained":null,"state":"ND","state_wfigs":"US-ND","county":"Benson","discovery_time_utc":"2024-05-27T07:00:00Z","perimeter_time_utc":"2025-01-14T17:37:39Z","perimeter_edit_time_utc":"2025-01-14T17:37:39Z","incident_modified_time_utc":"2024-06-05T03:11:29Z","containment_time_utc":null,"control_time_utc":null,"fire_out_time_utc":"2024-05-28T13:00:00Z","fire_cause":"Human","fire_cause_general":"Undetermined","map_method":"Hand Sketch","source_dataset":"FFP","unique_fire_identifier":"2024-NDFTA-000092","irwin_id":"{3696521F-DAC0-4C3F-B24D-2E7C9DFF0694}","global_id":"5c88b690-a39c-4097-aca7-b8653fd0c5ed"}},{"type":"Feature","geometry":{"type":"Polygon","coordinates":[[[-98.98535,47.9685],[-98.98535,47.96821],[-98.98578,47.96798],[-98.98613,47.96806],[-98.98628,47.96836],[-98.98618,47.96853],[-98.98582,47.96864],[-98.98535,47.9685]]]},"properties":{"fire_id":"ufid:2024-NDFTA-000075","source_collection":"history-2024","source_objectid":36486,"incident_name":"BIKER","mapped_acres":0.98,"mapped_acres_source":"poly_GISAcres","gis_acres":0.98,"auto_acres":0.9756177436620925,"reported_acres":1.0,"percent_contained":null,"state":"ND","state_wfigs":"US-ND","county":"Benson","discovery_time_utc":"2024-04-22T07:00:00Z","perimeter_time_utc":"2025-01-14T17:34:48Z","perimeter_edit_time_utc":"2025-01-14T17:34:49Z","incident_modified_time_utc":"2024-04-23T18:02:21Z","containment_time_utc":null,"control_time_utc":null,"fire_out_time_utc":"2024-04-23T13:00:00Z","fire_cause":"Human","fire_cause_general":"Undetermined","map_method":"Hand Sketch","source_dataset":"FFP","unique_fire_identifier":"2024-NDFTA-000075","irwin_id":"{823FB0B1-E3ED-40A4-8D3D-5351262D28BB}","global_id":"3753b54c-4a6d-4a0e-bf04-a6ce69a37859"}},{"type":"Feature","geometry":{"type":"Polygon","coordinates":[[[-99.0713,47.11501],[-99.06833,47.1145],[-99.06828,47.1139],[-99.06785,47.11373],[-99.06782,47.11328],[-99.06725,47.11296],[-99.06735,47.11269],[-99.06707,47.11243],[-99.06657,47.11239],[-99.0665,47.11258],[-99.06583,47.11255],[-99.06561,47.11184],[-99.06678,47.11113],[-99.06709,47.11056],[-99.0668,47.11018],[-99.0663,47.11004],[-99.06715,47.11005],[-99.06732,47.11025],[-99.06719,47.11089],[-99.0678,47.1109],[-99.06801,47.11106],[-99.06827,47.11102],[-99.06864,47.1102],[-99.06924,47.11028],[-99.06982,47.11055],[-99.07025,47.11108],[-99.07053,47.11169],[-99.0708,47.11287],[-99.0708,47.11329],[-99.07063,47.11354],[-99.07166,47.11372],[-99.0713,47.11501]]]},"properties":{"fire_id":"ufid:2024-NDNDS-473860000C","source_collection":"history-2024","source_objectid":36493,"incident_name":"paul jayo","mapped_acres":32.31,"mapped_acres_source":"poly_GISAcres","gis_acres":32.31,"auto_acres":32.307445348021595,"reported_acres":32.31,"percent_contained":null,"state":"ND","state_wfigs":"US-ND","county":"Stutsman","discovery_time_utc":"2024-04-14T19:19:00Z","perimeter_time_utc":"2025-01-14T18:01:52Z","perimeter_edit_time_utc":"2025-01-14T18:01:53Z","incident_modified_time_utc":"2024-04-16T02:02:07Z","containment_time_utc":"2024-04-16T01:02:05Z","control_time_utc":null,"fire_out_time_utc":null,"fire_cause":"Human","fire_cause_general":"Debris and open burning","map_method":"Hand Sketch","source_dataset":"FFP","unique_fire_identifier":"2024-NDNDS-473860000C","irwin_id":"{1929FB65-0F34-4649-A976-032D9479DBBE}","global_id":"bc40c014-d0cc-423e-a585-76d37e8af21b"}},{"type":"Feature","geometry":{"type":"Polygon","coordinates":[[[-99.01779,47.97375],[-99.01721,47.97385],[-99.0169,47.97368],[-99.01684,47.97348],[-99.01699,47.97324],[-99.0176,47.97326],[-99.01775,47.97335],[-99.01779,47.97375]]]},"properties":{"fire_id":"ufid:2024-NDFTA-000079","source_collection":"history-2024","source_objectid":36498,"incident_name":"WINDY BOY","mapped_acres":1.04,"mapped_acres_source":"poly_GISAcres","gis_acres":1.04,"auto_acres":1.0381186092629529,"reported_acres":1.0,"percent_contained":null,"state":"ND","state_wfigs":"US-ND","county":"Benson","discovery_time_utc":"2024-04-24T03:15:00Z","perimeter_time_utc":"2025-01-14T18:17:39Z","perimeter_edit_time_utc":"2025-01-14T18:17:39Z","incident_modified_time_utc":"2024-04-29T01:27:00Z","containment_time_utc":null,"control_time_utc":null,"fire_out_time_utc":"2024-04-24T13:00:00Z","fire_cause":"Human","fire_cause_general":"Arson","map_method":"Hand Sketch","source_dataset":"FFP","unique_fire_identifier":"2024-NDFTA-000079","irwin_id":"{689BE254-456E-46F4-9C1D-833C9DF34BBF}","global_id":"8c35a189-78bd-42c9-913a-f3d5d994c6de"}},{"type":"Feature","geometry":{"type":"Polygon","coordinates":[[[-99.31274,47.10877],[-99.31206,47.10852],[-99.31196,47.10836],[-99.3121,47.10809],[-99.31271,47.10786],[-99.31274,47.10877]]]},"properties":{"fire_id":"ufid:2024-NDNDS-232170000C","source_collection":"history-2024","source_objectid":41690,"incident_name":"Peterson slough","mapped_acres":0.34,"mapped_acres_source":"poly_GISAcres","gis_acres":0.34,"auto_acres":1.025846002655209,"reported_acres":0.95,"percent_contained":null,"state":"ND","state_wfigs":"US-ND","county":"Stutsman","discovery_time_utc":"2024-10-27T18:32:00Z","perimeter_time_utc":"2025-07-08T17:17:27Z","perimeter_edit_time_utc":null,"incident_modified_time_utc":"2024-11-30T06:08:08Z","containment_time_utc":"2024-11-30T04:08:06Z","control_time_utc":null,"fire_out_time_utc":null,"fire_cause":"Human","fire_cause_general":"Debris and open burning","map_method":"Hand Sketch","source_dataset":"FFP","unique_fire_identifier":"2024-NDNDS-232170000C","irwin_id":"{BC0CB5AF-92C8-4CAC-8C56-A2DAF084D5A0}","global_id":"96f419dd-94e6-4d7d-892e-6785dcb9bafc"}},{"type":"Feature","geometry":{"type":"Polygon","coordinates":[[[-99.45593,46.40108],[-99.45624,46.42465],[-99.45584,46.42654],[-99.45574,46.43531],[-99.45556,46.43749],[-99.45586,46.44217],[-99.45202,46.442],[-99.44924,46.44031],[-99.44563,46.43665],[-99.44261,46.43448],[-99.44142,46.43217],[-99.43932,46.42971],[-99.43825,46.42627],[-99.43581,46.42277],[-99.43446,46.41851],[-99.43447,46.41449],[-99.43541,46.41266],[-99.43536,46.40892],[-99.4351,46.40682],[-99.43529,46.40484],[-99.43536,46.40084],[-99.43587,46.39987],[-99.43696,46.39972],[-99.43968,46.39867],[-99.4419,46.39819],[-99.44313,46.39746],[-99.44376,46.3969],[-99.4448,46.39656],[-99.44541,46.39582],[-99.44543,46.39474],[-99.44483,46.3936],[-99.44918,46.39111],[-99.45207,46.3889],[-99.45501,46.38859],[-99.45599,46.39143],[-99.45593,46.40108]]]},"properties":{"fire_id":"ufid:2024-NDNDS-263830000L","source_collection":"history-2024","source_objectid":41693,"incident_name":"ashley grass fire","mapped_acres":609.63,"mapped_acres_source":"poly_GISAcres","gis_acres":609.63,"auto_acres":1802.000851766966,"reported_acres":1800.0,"percent_contained":null,"state":"ND","state_wfigs":"US-ND","county":"Logan","discovery_time_utc":"2024-10-05T20:22:00Z","perimeter_time_utc":"2025-07-08T18:24:04Z","perimeter_edit_time_utc":null,"incident_modified_time_utc":"2024-11-14T06:07:20Z","containment_time_utc":"2024-11-14T04:07:18Z","control_time_utc":null,"fire_out_time_utc":null,"fire_cause":"Human","fire_cause_general":"Undetermined","map_method":"Hand Sketch","source_dataset":"FFP","unique_fire_identifier":"2024-NDNDS-263830000L","irwin_id":"{D5672994-B55A-43F6-8D1A-3C3944CA1072}","global_id":"c59e405f-4930-4008-bd8d-a8e007c9004f"}}]}
