{"type":"FeatureCollection","features":[{"type":"Feature","geometry":{"type":"MultiPolygon","coordinates":[[[[-96.00707,41.50034],[-96.00708,41.50032],[-96.00707,41.50035],[-96.00707,41.50034]]],[[[-96.00706,41.50035],[-96.00834,41.50125],[-96.00598,41.5041],[-96.00626,41.50417],[-96.00676,41.50401],[-96.00725,41.50448],[-96.00699,41.50603],[-96.00591,41.50794],[-96.00577,41.50798],[-96.00567,41.50845],[-96.00436,41.50989],[-96.00438,41.51024],[-96.00472,41.51092],[-96.00541,41.51124],[-96.00539,41.51406],[-96.0032,41.5144],[-96.00278,41.51375],[-95.9972,41.51305],[-95.99502,41.51244],[-95.99503,41.51213],[-95.99547,41.51136],[-95.99572,41.51019],[-95.99624,41.50932],[-95.99677,41.50917],[-95.99701,41.50924],[-95.99718,41.50909],[-95.99765,41.50825],[-95.99784,41.50755],[-95.99804,41.50739],[-95.99894,41.50572],[-95.99978,41.50531],[-96.00069,41.50422],[-96.00199,41.50303],[-96.00526,41.50128],[-96.00568,41.5011],[-96.00596,41.50113],[-96.00706,41.50035]]],[[[-96.00671,41.50655],[-96.00671,41.50653],[-96.00672,41.50654],[-96.00671,41.50655]]],[[[-96.00581,41.50798],[-96.00579,41.50801],[-96.00579,41.50799],[-96.00581,41.50798]]]]},"properties":{"fire_id":"ufid:2024-IADSR-000002","source_collection":"history-2024","source_objectid":27671,"incident_name":"Center Island Fire","mapped_acres":216.1,"mapped_acres_source":"poly_GISAcres","gis_acres":216.1,"auto_acres":216.12853032294385,"reported_acres":216.0,"percent_contained":null,"state":"NE","state_wfigs":"US-NE","county":"Washington","discovery_time_utc":"2024-04-16T20:00:01Z","perimeter_time_utc":"2024-06-27T15:17:38Z","perimeter_edit_time_utc":"2024-06-27T15:17:38Z","incident_modified_time_utc":"2024-04-19T15:24:07Z","containment_time_utc":null,"control_time_utc":null,"fire_out_time_utc":"2024-05-10T17:00:00Z","fire_cause":"Natural","fire_cause_general":"Natural","map_method":"Auto-generated","source_dataset":"FFP","unique_fire_identifier":"2024-IADSR-000002","irwin_id":"{2DF3CEB4-2F08-4CC6-B90C-FAEB442A664D}","global_id":"b37d1a12-5a15-4423-ad5c-bf64ab083de3"}},{"type":"Feature","geometry":{"type":"Polygon","coordinates":[[[-97.8497,40.56815],[-97.84946,40.56738],[-97.84898,40.56668],[-97.84919,40.56647],[-97.84888,40.56581],[-97.84978,40.56532],[-97.85039,40.5647],[-97.85066,40.56667],[-97.85112,40.56817],[-97.8497,40.56815]]]},"properties":{"fire_id":"ufid:2024-NERBR-240307","source_collection":"history-2024","source_objectid":33206,"incident_name":"Lange","mapped_acres":0.1,"mapped_acres_source":"poly_GISAcres","gis_acres":0.1,"auto_acres":9.864910583500937,"reported_acres":9.8,"percent_contained":null,"state":"NE","state_wfigs":"US-NE","county":"Clay","discovery_time_utc":"2024-04-19T15:40:00Z","perimeter_time_utc":"2024-10-08T17:55:01Z","perimeter_edit_time_utc":"2024-10-08T17:55:01Z","incident_modified_time_utc":"2024-09-17T15:49:49Z","containment_time_utc":"2024-04-19T16:00:00Z","control_time_utc":null,"fire_out_time_utc":"2024-04-29T14:00:00Z","fire_cause":"Human","fire_cause_general":"Equipment and vehicle use","map_method":"Hand Sketch","source_dataset":"FFP","unique_fire_identifier":"2024-NERBR-240307","irwin_id":"{48531CB9-BD6B-420D-A27C-923E696580AD}","global_id":"2ecf8db4-3e15-41ff-8d48-84241af642fe"}},{"type":"Feature","geometry":{"type":"Polygon","coordinates":[[[-96.3563,42.12314],[-96.35625,42.1252],[-96.3565,42.12642],[-96.35677,42.12684],[-96.35684,42.12729],[-96.35788,42.12807],[-96.35822,42.12897],[-96.3593,42.12953],[-96.35946,42.12999],[-96.35966,42.13016],[-96.35889,42.13065],[-96.359,42.13124],[-96.35946,42.13122],[-96.35875,42.13229],[-96.35859,42.13298],[-96.35906,42.1332],[-96.35918,42.13341],[-96.3592,42.13366],[-96.35904,42.1338],[-96.35919,42.1344],[-96.35904,42.13457],[-96.35888,42.13453],[-96.35853,42.13408],[-96.35671,42.13355],[-96.35684,42.13333],[-96.35703,42.13328],[-96.35707,42.13304],[-96.35639,42.13273],[-96.35631,42.13162],[-96.35643,42.13059],[-96.35688,42.13043],[-96.35712,42.13005],[-96.35687,42.12978],[-96.35632,42.12968],[-96.35638,42.12667],[-96.35619,42.12527],[-96.35502,42.12516],[-96.35472,42.12501],[-96.35484,42.12421],[-96.35521,42.124],[-96.35552,42.1235],[-96.35582,42.12346],[-96.35598,42.12325],[-96.35591,42.12263],[-96.3563,42.12314]]]},"properties":{"fire_id":"ufid:2024-NEWIA-000005","source_collection":"history-2024","source_objectid":34857,"incident_name":"NORTH MAIN","mapped_acres":39.6,"mapped_acres_source":"poly_GISAcres","gis_acres":39.6,"auto_acres":39.600407745122304,"reported_acres":null,"percent_contained":null,"state":"NE","state_wfigs":"US-NE","county":"Thurston","discovery_time_utc":"2024-10-17T20:15:00Z","perimeter_time_utc":"2024-10-21T21:30:00Z","perimeter_edit_time_utc":"2024-11-21T18:45:52Z","incident_modified_time_utc":"2024-11-21T18:47:43Z","containment_time_utc":null,"control_time_utc":null,"fire_out_time_utc":null,"fire_cause":null,"fire_cause_general":null,"map_method":"Hand Sketch","source_dataset":"2024 NIFS","unique_fire_identifier":"2024-NEWIA-000005","irwin_id":"{5B404A1A-22A5-47A3-A311-C081B35EBA04}","global_id":"ca36adcf-3691-4e20-bb5b-d46038106c87"}},{"type":"Feature","geometry":{"type":"Polygon","coordinates":[[[-96.63651,42.10516],[-96.63832,42.1078],[-96.63903,42.10951],[-96.63987,42.11211],[-96.64019,42.11407],[-96.63948,42.11545],[-96.63984,42.11756],[-96.63927,42.12179],[-96.63838,42.12355],[-96.63893,42.1256],[-96.63864,42.12641],[-96.63776,42.12686],[-96.63694,42.1265],[-96.63607,42.1266],[-96.63509,42.12813],[-96.6349,42.12864],[-96.63378,42.12765],[-96.63412,42.1262],[-96.63487,42.1241],[-96.63505,42.12128],[-96.63417,42.11972],[-96.63462,42.11875],[-96.63381,42.11608],[-96.63359,42.11404],[-96.63504,42.1115],[-96.63528,42.10614],[-96.63651,42.10516]]]},"properties":{"fire_id":"ufid:2024-NEWIA-000006","source_collection":"history-2024","source_objectid":34859,"incident_name":"94","mapped_acres":223.04,"mapped_acres_source":"poly_GISAcres","gis_acres":223.04,"auto_acres":223.03706313957787,"reported_acres":null,"percent_contained":null,"state":"NE","state_wfigs":"US-NE","county":"Thurston","discovery_time_utc":"2024-10-17T06:40:00Z","perimeter_time_utc":"2024-10-21T21:30:00Z","perimeter_edit_time_utc":"2024-11-21T19:00:47Z","incident_modified_time_utc":"2024-11-21T19:00:49Z","containment_time_utc":null,"control_time_utc":null,"fire_out_time_utc":null,"fire_cause":null,"fire_cause_general":null,"map_method":"Hand Sketch","source_dataset":"2024 NIFS","unique_fire_identifier":"2024-NEWIA-000006","irwin_id":"{C72C6EB6-2E1B-487C-B9D8-52CB43549336}","global_id":"668ed2bd-d207-4060-b2f7-30ad1e72dcf7"}},{"type":"Feature","geometry":{"type":"Polygon","coordinates":[[[-96.34403,42.04615],[-96.34662,42.0461],[-96.34704,42.04628],[-96.34707,42.04781],[-96.34726,42.04814],[-96.3488,42.04939],[-96.34883,42.04966],[-96.34783,42.04946],[-96.34729,42.04898],[-96.34677,42.04883],[-96.34662,42.0485],[-96.34625,42.04823],[-96.34578,42.04817],[-96.34578,42.04783],[-96.34561,42.04769],[-96.34529,42.0482],[-96.3451,42.04805],[-96.3449,42.04723],[-96.34372,42.04642],[-96.34371,42.04625],[-96.34403,42.04615]]]},"properties":{"fire_id":"ufid:2024-NEWIA-000007","source_collection":"history-2024","source_objectid":35330,"incident_name":"RIDGELINE","mapped_acres":15.09,"mapped_acres_source":"poly_GISAcres","gis_acres":15.09,"auto_acres":15.088722427807914,"reported_acres":null,"percent_contained":null,"state":"NE","state_wfigs":"US-NE","county":"Thurston","discovery_time_utc":"2024-11-12T20:24:00Z","perimeter_time_utc":"2024-11-13T00:30:00Z","perimeter_edit_time_utc":"2024-12-05T17:07:54Z","incident_modified_time_utc":"2024-12-05T17:08:37Z","containment_time_utc":null,"control_time_utc":null,"fire_out_time_utc":null,"fire_cause":null,"fire_cause_general":null,"map_method":"Hand Sketch","source_dataset":"2024 NIFS","unique_fire_identifier":"2024-NEWIA-000007","irwin_id":"{D5AD87F2-8DEE-47D2-B65D-6C895E3D5B5F}","global_id":"5a078989-d2d1-46d6-ad73-20263eb59b4b"}},{"type":"Feature","geometry":{"type":"Polygon","coordinates":[[[-96.32699,42.08809],[-96.32688,42.08839],[-96.32643,42.08842],[-96.3264,42.08787],[-96.32628,42.08774],[-96.32635,42.08748],[-96.32615,42.08727],[-96.32668,42.08709],[-96.32672,42.08764],[-96.32699,42.08809]]]},"properties":{"fire_id":"ufid:2024-NEWIA-000004","source_collection":"history-2024","source_objectid":35344,"incident_name":"BINGO","mapped_acres":1.0,"mapped_acres_source":"poly_GISAcres","gis_acres":1.0,"auto_acres":1.3290095353483562,"reported_acres":null,"percent_contained":null,"state":"NE","state_wfigs":"US-NE","county":"Thurston","discovery_time_utc":"2024-06-11T19:42:00Z","perimeter_time_utc":"2024-06-12T00:42:00Z","perimeter_edit_time_utc":"2024-12-05T18:08:14Z","incident_modified_time_utc":"2024-12-05T18:09:08Z","containment_time_utc":null,"control_time_utc":null,"fire_out_time_utc":null,"fire_cause":null,"fire_cause_general":null,"map_method":"Hand Sketch","source_dataset":"2024 NIFS","unique_fire_identifier":"2024-NEWIA-000004","irwin_id":"{18EE9EE4-47B5-4D72-8C93-B67EC577190D}","global_id":"1acdb6f6-6d7c-4491-99b4-b63423800593"}},{"type":"Feature","geometry":{"type":"Polygon","coordinates":[[[-96.49088,42.15546],[-96.49092,42.15531],[-96.49114,42.15528],[-96.49103,42.15546],[-96.49088,42.15546]]]},"properties":{"fire_id":"ufid:2024-NEWIA-000003","source_collection":"history-2024","source_objectid":35345,"incident_name":"BIA 03-24","mapped_acres":1.0,"mapped_acres_source":"poly_GISAcres","gis_acres":1.0,"auto_acres":0.10190449962815211,"reported_acres":null,"percent_contained":null,"state":"NE","state_wfigs":"US-NE","county":"Thurston","discovery_time_utc":"2024-03-20T21:30:00Z","perimeter_time_utc":"2024-03-21T02:30:00Z","perimeter_edit_time_utc":"2024-12-05T18:19:58Z","incident_modified_time_utc":"2024-12-05T18:21:48Z","containment_time_utc":null,"control_time_utc":null,"fire_out_time_utc":null,"fire_cause":null,"fire_cause_general":null,"map_method":"Hand Sketch","source_dataset":"2024 NIFS","unique_fire_identifier":"2024-NEWIA-000003","irwin_id":"{FADF8220-E534-43F4-8039-83C7F4D62C6D}","global_id":"318148b8-0c25-4956-a402-18e05cc2303d"}},{"type":"Feature","geometry":{"type":"Polygon","coordinates":[[[-96.38655,42.12475],[-96.38734,42.12503],[-96.38735,42.1252],[-96.38763,42.1255],[-96.3888,42.12579],[-96.3889,42.126],[-96.38804,42.12617],[-96.38754,42.12612],[-96.38716,42.1259],[-96.38655,42.12475]]]},"properties":{"fire_id":"ufid:2024-NEWIA-000001","source_collection":"history-2024","source_objectid":35347,"incident_name":"LONE TREE","mapped_acres":1.0,"mapped_acres_source":"poly_GISAcres","gis_acres":1.0,"auto_acres":2.7615545141023525,"reported_acres":null,"percent_contained":null,"state":"NE","state_wfigs":"US-NE","county":"Thurston","discovery_time_utc":"2024-02-20T18:45:00Z","perimeter_time_utc":"2024-02-21T00:45:00Z","perimeter_edit_time_utc":"2024-12-05T18:15:23Z","incident_modified_time_utc":"2024-02-21T15:18:23Z","containment_time_utc":null,"control_time_utc":null,"fire_out_time_utc":null,"fire_cause":null,"fire_cause_general":null,"map_method":"Hand Sketch","source_dataset":"2024 NIFS","unique_fire_identifier":"2024-NEWIA-000001","irwin_id":"{06D54112-BB4F-4933-99D8-4672EC978286}","global_id":"7867028c-0ffd-406a-87ae-748423e8b76f"}},{"type":"Feature","geometry":{"type":"Polygon","coordinates":[[[-96.49559,42.26308],[-96.49537,42.26281],[-96.49557,42.26226],[-96.49628,42.26177],[-96.49657,42.26173],[-96.49686,42.2619],[-96.49688,42.263],[-96.49638,42.26304],[-96.49614,42.26289],[-96.49584,42.2629],[-96.49586,42.26304],[-96.49559,42.26308]]]},"properties":{"fire_id":"ufid:2024-NEWIA-000002","source_collection":"history-2024","source_objectid":35363,"incident_name":"HEART","mapped_acres":1.0,"mapped_acres_source":"poly_GISAcres","gis_acres":1.0,"auto_acres":3.453309002822065,"reported_acres":null,"percent_contained":null,"state":"NE","state_wfigs":"US-NE","county":"Thurston","discovery_time_utc":"2024-03-04T22:02:00Z","perimeter_time_utc":"2024-03-05T04:02:00Z","perimeter_edit_time_utc":"2024-12-05T18:29:13Z","incident_modified_time_utc":"2024-03-06T00:58:47Z","containment_time_utc":null,"control_time_utc":null,"fire_out_time_utc":null,"fire_cause":null,"fire_cause_general":null,"map_method":"Hand Sketch","source_dataset":"2024 NIFS","unique_fire_identifier":"2024-NEWIA-000002","irwin_id":"{C0872E27-243D-4C77-B0AD-C4D271FD1D2D}","global_id":"09d02749-fce0-4481-aa61-5fdadfd61fab"}},{"type":"Feature","geometry":{"type":"Polygon","coordinates":[[[-97.8019,42.72757],[-97.80012,42.72759],[-97.80005,42.72732],[-97.80174,42.72731],[-97.80187,42.72734],[-97.8019,42.72757]]]},"properties":{"fire_id":"ufid:2024-NEWIA-000008","source_collection":"history-2024","source_objectid":36148,"incident_name":"DITCH","mapped_acres":0.95,"mapped_acres_source":"poly_GISAcres","gis_acres":0.95,"auto_acres":0.9449971435524458,"reported_acres":null,"percent_contained":null,"state":"NE","state_wfigs":"US-NE","county":"Knox","discovery_time_utc":"2024-12-29T20:12:00Z","perimeter_time_utc":"2024-12-29T22:30:00Z","perimeter_edit_time_utc":"2024-12-31T16:40:54Z","incident_modified_time_utc":"2024-12-31T16:40:55Z","containment_time_utc":null,"control_time_utc":null,"fire_out_time_utc":null,"fire_cause":null,"fire_cause_general":null,"map_method":"Hand Sketch","source_dataset":"2024 NIFS","unique_fire_identifier":"2024-NEWIA-000008","irwin_id":"{00F97965-F272-48AC-9972-C810919B3377}","global_id":"d85234c7-35cc-4b3a-88ba-24788d149be7"}}]}
