{"type":"FeatureCollection","features":[{"type":"Feature","geometry":{"type":"Polygon","coordinates":[[[-71.68227,42.77623],[-71.68237,42.77682],[-71.68223,42.77704],[-71.68206,42.77704],[-71.68209,42.77735],[-71.68172,42.77757],[-71.68167,42.77779],[-71.68089,42.77814],[-71.68038,42.77785],[-71.6804,42.77692],[-71.68063,42.77675],[-71.68079,42.7763],[-71.68148,42.77637],[-71.68176,42.77611],[-71.68227,42.77623]]]},"properties":{"fire_id":"ufid:2024-NHNHS-210421A","source_collection":"history-2024","source_objectid":25717,"incident_name":"210421A","mapped_acres":6.2,"mapped_acres_source":"poly_GISAcres","gis_acres":6.2,"auto_acres":6.202934235853966,"reported_acres":6.2,"percent_contained":null,"state":"NH","state_wfigs":"US-NH","county":"Hillsborough","discovery_time_utc":"2024-04-21T20:45:00Z","perimeter_time_utc":"2024-04-26T12:59:44Z","perimeter_edit_time_utc":"2024-04-26T12:59:44Z","incident_modified_time_utc":"2024-04-24T15:02:54Z","containment_time_utc":null,"control_time_utc":null,"fire_out_time_utc":null,"fire_cause":"Undetermined","fire_cause_general":"Undetermined","map_method":"Mixed Methods","source_dataset":"FFP","unique_fire_identifier":"2024-NHNHS-210421A","irwin_id":"{8AE22BE8-272B-4948-A9D2-6DBD40735D49}","global_id":"397b8fca-81b4-4a2c-824a-06d2744b59d5"}},{"type":"Feature","geometry":{"type":"Polygon","coordinates":[[[-72.43194,42.91794],[-72.43216,42.91809],[-72.43212,42.91841],[-72.43179,42.91848],[-72.43176,42.91822],[-72.43194,42.91794]]]},"properties":{"fire_id":"ufid:2024-NHNHS-230422A","source_collection":"history-2024","source_objectid":25718,"incident_name":"Hillside Runner","mapped_acres":0.3,"mapped_acres_source":"poly_GISAcres","gis_acres":0.3,"auto_acres":0.33425706259525345,"reported_acres":0.33,"percent_contained":null,"state":"NH","state_wfigs":"US-NH","county":"Cheshire","discovery_time_utc":"2024-04-22T21:42:00Z","perimeter_time_utc":"2024-04-26T12:58:35Z","perimeter_edit_time_utc":"2024-04-26T12:58:35Z","incident_modified_time_utc":"2024-04-23T13:45:10Z","containment_time_utc":null,"control_time_utc":null,"fire_out_time_utc":null,"fire_cause":"Human","fire_cause_general":"Debris and open burning","map_method":"Mixed Methods","source_dataset":"FFP","unique_fire_identifier":"2024-NHNHS-230422A","irwin_id":"{6D7C3698-AEA1-44AD-8E59-A77736D87AC2}","global_id":"6072e05d-1dfd-42ef-a8ed-60e8796c1dd9"}},{"type":"Feature","geometry":{"type":"Polygon","coordinates":[[[-71.41967,43.35941],[-71.4198,43.35948],[-71.41966,43.35972],[-71.41919,43.35955],[-71.41967,43.35941]]]},"properties":{"fire_id":"ufid:2024-NHNHS-200426-A","source_collection":"history-2024","source_objectid":25765,"incident_name":"200426A London","mapped_acres":0.3,"mapped_acres_source":"poly_GISAcres","gis_acres":0.3,"auto_acres":0.2803851312339,"reported_acres":0.2,"percent_contained":null,"state":"NH","state_wfigs":"US-NH","county":"Merrimack","discovery_time_utc":"2024-04-26T20:10:00Z","perimeter_time_utc":"2024-04-26T20:13:00Z","perimeter_edit_time_utc":"2024-04-28T15:07:27Z","incident_modified_time_utc":"2024-04-28T15:07:29Z","containment_time_utc":null,"control_time_utc":null,"fire_out_time_utc":null,"fire_cause":"Human","fire_cause_general":"Other causes","map_method":"Mixed Methods","source_dataset":"2024 NIFS","unique_fire_identifier":"2024-NHNHS-200426-A","irwin_id":"{9401B41C-1B51-4140-A01C-679749788139}","global_id":"1ffdf301-aed1-4a52-8ff9-9b7d0e8bfde2"}},{"type":"Feature","geometry":{"type":"MultiPolygon","coordinates":[[[[-71.04538,43.70554],[-71.04538,43.70557],[-71.04536,43.70557],[-71.04538,43.70554]]],[[[-71.04544,43.70559],[-71.04546,43.70562],[-71.04544,43.7056],[-71.04544,43.70559]]],[[[-71.04342,43.70623],[-71.04341,43.7063],[-71.04322,43.70627],[-71.04342,43.70623]]],[[[-71.0432,43.70626],[-71.04322,43.70627],[-71.04321,43.70627],[-71.04319,43.70627],[-71.0432,43.70626]]],[[[-71.04317,43.70628],[-71.04311,43.70631],[-71.04312,43.70629],[-71.04317,43.70628]]],[[[-71.043442,43.706302],[-71.04361,43.70643],[-71.0438,43.70616],[-71.04364,43.70606],[-71.04379,43.70608],[-71.0439,43.70579],[-71.04476,43.7055],[-71.04539,43.70558],[-71.04542,43.70572],[-71.04553,43.70561],[-71.04585,43.70574],[-71.04624,43.70571],[-71.04681,43.70603],[-71.04682,43.70616],[-71.04682,43.70602],[-71.04704,43.70604],[-71.04719,43.70628],[-71.04706,43.70671],[-71.04676,43.70676],[-71.0467,43.70702],[-71.04651,43.70711],[-71.04661,43.70725],[-71.04654,43.70737],[-71.04632,43.70747],[-71.04608,43.70786],[-71.04569,43.70792],[-71.04553,43.70782],[-71.04564,43.70804],[-71.04468,43.70836],[-71.04426,43.70816],[-71.04398,43.70827],[-71.04398,43.70804],[-71.04383,43.70803],[-71.04392,43.70835],[-71.0434,43.7082],[-71.04291,43.70819],[-71.04282,43.70829],[-71.04266,43.70817],[-71.043,43.70783],[-71.04284,43.70747],[-71.04316,43.70719],[-71.04269,43.70707],[-71.04264,43.70676],[-71.04283,43.70669],[-71.0428,43.70654],[-71.04301,43.70658],[-71.04299,43.70646],[-71.04321,43.70627],[-71.0434,43.70631],[-71.043442,43.706302]],[[-71.04334,43.70645],[-71.043432,43.706315],[-71.0434,43.70631],[-71.04334,43.70645]]],[[[-71.04311,43.70631],[-71.04311,43.70633],[-71.04309,43.70632],[-71.04311,43.70631]]],[[[-71.04296,43.70828],[-71.04292,43.70827],[-71.04299,43.70824],[-71.04296,43.70828]]]]},"properties":{"fire_id":"ufid:2024-NHNHS-130427-A","source_collection":"history-2024","source_objectid":33624,"incident_name":"130427A","mapped_acres":19.6,"mapped_acres_source":"poly_GISAcres","gis_acres":19.6,"auto_acres":19.60393449162117,"reported_acres":20.0,"percent_contained":null,"state":"NH","state_wfigs":"US-NH","county":"Carroll","discovery_time_utc":"2024-04-27T14:31:57Z","perimeter_time_utc":"2024-10-21T13:00:01Z","perimeter_edit_time_utc":"2024-10-21T13:00:01Z","incident_modified_time_utc":"2024-04-28T14:51:56Z","containment_time_utc":null,"control_time_utc":null,"fire_out_time_utc":"2024-04-30T21:00:00Z","fire_cause":"Human","fire_cause_general":"Undetermined","map_method":"GPS-Walked","source_dataset":"FFP","unique_fire_identifier":"2024-NHNHS-130427-A","irwin_id":"{C79587F7-7825-40F4-A51F-4967E0014E44}","global_id":"3894d15b-8fd4-41d5-bc14-098cc5aa41ca"}},{"type":"Feature","geometry":{"type":"MultiPolygon","coordinates":[[[[-71.55892,43.26594],[-71.55893,43.26594],[-71.55892,43.26595],[-71.55892,43.26594]]],[[[-71.55802,43.266],[-71.55817,43.26615],[-71.55799,43.26605],[-71.55802,43.266]]],[[[-71.55897,43.26644],[-71.55947,43.26655],[-71.55951,43.26643],[-71.55981,43.26657],[-71.55998,43.26686],[-71.56013,43.26677],[-71.56088,43.26768],[-71.56088,43.26788],[-71.56068,43.26794],[-71.56012,43.26734],[-71.55974,43.26748],[-71.55987,43.26773],[-71.55963,43.2674],[-71.5599,43.26726],[-71.55986,43.26718],[-71.55939,43.2672],[-71.55817,43.26615],[-71.55877,43.26609],[-71.55892,43.26595],[-71.55928,43.26627],[-71.55897,43.26644]]],[[[-71.55986,43.26775],[-71.55987,43.26773],[-71.55989,43.26776],[-71.55986,43.26775]]],[[[-71.55989,43.26776],[-71.55996,43.26781],[-71.55997,43.26783],[-71.55989,43.26776]]],[[[-71.55998,43.26787],[-71.55997,43.26783],[-71.55999,43.26786],[-71.55998,43.26787]]]]},"properties":{"fire_id":"ufid:2024-NHNHS-210424A","source_collection":"history-2024","source_objectid":33987,"incident_name":"210423A","mapped_acres":3.2,"mapped_acres_source":"poly_GISAcres","gis_acres":3.2,"auto_acres":3.213629638790751,"reported_acres":3.2,"percent_contained":null,"state":"NH","state_wfigs":"US-NH","county":"Merrimack","discovery_time_utc":"2024-04-24T11:06:39Z","perimeter_time_utc":"2024-10-29T17:23:32Z","perimeter_edit_time_utc":"2024-10-29T17:23:33Z","incident_modified_time_utc":"2024-05-08T17:34:30Z","containment_time_utc":null,"control_time_utc":null,"fire_out_time_utc":null,"fire_cause":"Undetermined","fire_cause_general":"Undetermined","map_method":"Mixed Methods","source_dataset":"FFP","unique_fire_identifier":"2024-NHNHS-210424A","irwin_id":"{77581D95-C75B-4526-968F-C79647695CB2}","global_id":"56b06dd5-ed2a-4ac7-ac04-6a161c29e46e"}},{"type":"Feature","geometry":{"type":"MultiPolygon","coordinates":[[[[-71.90403,42.73834],[-71.90356,42.73877],[-71.9033,42.73876],[-71.90322,42.73891],[-71.90303,42.73888],[-71.9026,42.7391],[-71.90249,42.73906],[-71.90243,42.7387],[-71.90222,42.73869],[-71.90237,42.7384],[-71.90262,42.73827],[-71.90334,42.73833],[-71.90336,42.73819],[-71.90366,42.73812],[-71.90403,42.73834]]],[[[-71.90331,42.7382],[-71.90335,42.73821],[-71.90335,42.73822],[-71.90331,42.7382]]]]},"properties":{"fire_id":"ufid:2024-NHNHS-231020A","source_collection":"history-2024","source_objectid":33988,"incident_name":"231020A","mapped_acres":2.2,"mapped_acres_source":"poly_GISAcres","gis_acres":2.2,"auto_acres":2.1504649059515066,"reported_acres":2.2,"percent_contained":null,"state":"NH","state_wfigs":"US-NH","county":"Hillsborough","discovery_time_utc":"2024-10-20T18:46:00Z","perimeter_time_utc":"2024-10-29T17:14:43Z","perimeter_edit_time_utc":"2024-10-29T17:14:43Z","incident_modified_time_utc":"2024-10-23T21:07:14Z","containment_time_utc":"2024-10-20T23:55:00Z","control_time_utc":null,"fire_out_time_utc":"2024-10-21T17:00:00Z","fire_cause":"Human","fire_cause_general":"Debris and open burning","map_method":"GPS-Walked","source_dataset":"FFP","unique_fire_identifier":"2024-NHNHS-231020A","irwin_id":"{AFBCF47B-7EC8-45F7-AD39-28F63F4F87C4}","global_id":"330fb110-3e69-4bee-be33-6b0a9abd2a13"}},{"type":"Feature","geometry":{"type":"Polygon","coordinates":[[[-71.53152,42.76378],[-71.53135,42.76331],[-71.53171,42.76357],[-71.53173,42.76369],[-71.53152,42.76378]]]},"properties":{"fire_id":"ufid:2024-NHNHS-231107A","source_collection":"history-2024","source_objectid":34402,"incident_name":"231107A Hollis","mapped_acres":0.2,"mapped_acres_source":"poly_GISAcres","gis_acres":0.2,"auto_acres":0.20446219203053187,"reported_acres":0.2,"percent_contained":null,"state":"NH","state_wfigs":"US-NH","county":"Hillsborough","discovery_time_utc":"2024-11-07T23:19:00Z","perimeter_time_utc":null,"perimeter_edit_time_utc":"2024-11-08T19:39:05Z","incident_modified_time_utc":"2024-11-08T19:40:19Z","containment_time_utc":null,"control_time_utc":null,"fire_out_time_utc":null,"fire_cause":"Human","fire_cause_general":"Debris and open burning","map_method":"GPS-Walked","source_dataset":"2024 NIFS","unique_fire_identifier":"2024-NHNHS-231107A","irwin_id":"{E0742FA5-7BB4-4601-827C-01540F5EB93E}","global_id":"c5308511-d83a-4aba-8d7c-ad6e786e8e8e"}},{"type":"Feature","geometry":{"type":"Polygon","coordinates":[[[-71.76267,42.78728],[-71.76253,42.78713],[-71.76292,42.78674],[-71.76323,42.78668],[-71.76321,42.78716],[-71.76267,42.78728]]]},"properties":{"fire_id":"ufid:2024-NHNHS-231028A","source_collection":"history-2024","source_objectid":34403,"incident_name":"231028A - Mason","mapped_acres":0.5,"mapped_acres_source":"poly_GISAcres","gis_acres":0.5,"auto_acres":0.5376938308232135,"reported_acres":1.2,"percent_contained":null,"state":"NH","state_wfigs":"US-NH","county":"Hillsborough","discovery_time_utc":"2024-10-28T10:25:20Z","perimeter_time_utc":null,"perimeter_edit_time_utc":"2024-11-08T19:36:06Z","incident_modified_time_utc":"2024-11-08T19:33:39Z","containment_time_utc":null,"control_time_utc":null,"fire_out_time_utc":null,"fire_cause":null,"fire_cause_general":null,"map_method":"GPS-Walked","source_dataset":"2024 NIFS","unique_fire_identifier":"2024-NHNHS-231028A","irwin_id":"{8C1FA8E4-40E7-4A60-AFBB-0810A2A72888}","global_id":"d6889b61-4e12-4b4e-9e4b-f00f827edadb"}},{"type":"Feature","geometry":{"type":"MultiPolygon","coordinates":[[[[-71.76788,42.78011],[-71.76785,42.7801],[-71.7679,42.7801],[-71.76788,42.78011]]],[[[-71.76862,42.78033],[-71.76898,42.7802],[-71.76912,42.78027],[-71.76934,42.78071],[-71.7692,42.78094],[-71.76929,42.78109],[-71.7691,42.78113],[-71.76921,42.78125],[-71.76898,42.78153],[-71.76868,42.78159],[-71.76825,42.78134],[-71.76637,42.78109],[-71.76697,42.78062],[-71.76706,42.78081],[-71.76772,42.78078],[-71.76751,42.78023],[-71.76809,42.78005],[-71.76839,42.78026],[-71.76858,42.78018],[-71.76862,42.78033]]],[[[-71.76905,42.78147],[-71.76904,42.78149],[-71.76904,42.78147],[-71.76905,42.78147]]],[[[-71.76904,42.78149],[-71.76903,42.78152],[-71.769,42.78152],[-71.76904,42.78149]]],[[[-71.769,42.78152],[-71.76899,42.78153],[-71.76899,42.78152],[-71.769,42.78152]]],[[[-71.76899,42.78153],[-71.76898,42.78155],[-71.76893,42.78154],[-71.76899,42.78153]]]]},"properties":{"fire_id":"ufid:2024-NHNHS-231112A","source_collection":"history-2024","source_objectid":34477,"incident_name":"231112A Mason","mapped_acres":5.7,"mapped_acres_source":"poly_GISAcres","gis_acres":5.7,"auto_acres":5.7211901636599585,"reported_acres":5.7,"percent_contained":null,"state":"NH","state_wfigs":"US-NH","county":"Hillsborough","discovery_time_utc":"2024-11-12T10:32:00Z","perimeter_time_utc":"2024-11-12T15:27:30Z","perimeter_edit_time_utc":"2024-11-12T21:30:24Z","incident_modified_time_utc":"2024-11-12T21:27:04Z","containment_time_utc":null,"control_time_utc":null,"fire_out_time_utc":null,"fire_cause":"Human","fire_cause_general":"Recreation and ceremony","map_method":"GPS-Walked","source_dataset":"2024 NIFS","unique_fire_identifier":"2024-NHNHS-231112A","irwin_id":"{8FE97DCF-FD7F-4C66-93C6-0AA898433D6C}","global_id":"2240fb45-6e99-4789-af38-ac27d93ef979"}},{"type":"Feature","geometry":{"type":"Polygon","coordinates":[[[-71.4889,43.20042],[-71.48836,43.20022],[-71.48868,43.20027],[-71.48882,43.20008],[-71.48893,43.2002],[-71.48879,43.20028],[-71.48912,43.20035],[-71.4889,43.20042]]]},"properties":{"fire_id":"ufid:2024-NHNHS-211108A","source_collection":"history-2024","source_objectid":34479,"incident_name":"211108A","mapped_acres":0.2,"mapped_acres_source":"poly_GISAcres","gis_acres":0.2,"auto_acres":0.2472977722064447,"reported_acres":0.2,"percent_contained":null,"state":"NH","state_wfigs":"US-NH","county":"Merrimack","discovery_time_utc":"2024-11-08T20:14:00Z","perimeter_time_utc":null,"perimeter_edit_time_utc":"2024-11-12T21:43:50Z","incident_modified_time_utc":"2024-11-12T21:45:28Z","containment_time_utc":"2024-11-08T20:28:00Z","control_time_utc":"2024-11-08T20:30:00Z","fire_out_time_utc":"2024-11-08T21:18:22Z","fire_cause":"Human","fire_cause_general":"Undetermined (remarks required)","map_method":"GPS-Walked","source_dataset":"2024 NIFS","unique_fire_identifier":"2024-NHNHS-211108A","irwin_id":"{EF1E69B1-CCEF-4F02-993B-BF5B083966A9}","global_id":"76fb64ed-739e-4681-9bf3-c2809b51007a"}},{"type":"Feature","geometry":{"type":"MultiPolygon","coordinates":[[[[-71.66661,43.50043],[-71.66658,43.50044],[-71.66661,43.50042],[-71.66661,43.50043]]],[[[-71.6675,43.50029],[-71.66739,43.50078],[-71.66708,43.50096],[-71.66668,43.50083],[-71.6666,43.50051],[-71.66692,43.50013],[-71.66683,43.49997],[-71.6675,43.50029]]]]},"properties":{"fire_id":"ufid:2024-NHNHS-121120A","source_collection":"history-2024","source_objectid":38015,"incident_name":"121120A","mapped_acres":1.2,"mapped_acres_source":"poly_GISAcres","gis_acres":1.2,"auto_acres":1.2897164969344643,"reported_acres":1.2,"percent_contained":null,"state":"NH","state_wfigs":"US-NH","county":"Belknap","discovery_time_utc":"2024-11-20T19:52:51Z","perimeter_time_utc":"2025-03-26T15:40:26Z","perimeter_edit_time_utc":null,"incident_modified_time_utc":"2024-11-21T19:56:25Z","containment_time_utc":null,"control_time_utc":null,"fire_out_time_utc":"2024-11-22T20:20:00Z","fire_cause":"Undetermined","fire_cause_general":"Undetermined","map_method":"Mixed Methods","source_dataset":"FFP","unique_fire_identifier":"2024-NHNHS-121120A","irwin_id":"{EAEC30BB-C569-4083-BE77-37231117D9BB}","global_id":"3482ba65-7f23-40e3-ba99-bd80c94eb1ff"}},{"type":"Feature","geometry":{"type":"Polygon","coordinates":[[[-71.00191,42.99555],[-71.00233,42.99606],[-71.00197,42.99655],[-71.00251,42.99649],[-71.00266,42.99659],[-71.00147,42.99735],[-71.00072,42.99736],[-71.00065,42.99709],[-71.00052,42.99713],[-71.00022,42.99691],[-71.00042,42.99572],[-71.00077,42.99546],[-71.00146,42.9954],[-71.00191,42.99555]],[[-71.00078,42.99702],[-71.000634,42.997082],[-71.00065,42.99709],[-71.00078,42.99702]]]},"properties":{"fire_id":"ufid:2024-NHNHS-24111824A","source_collection":"history-2024","source_objectid":38019,"incident_name":"241118A Exeter","mapped_acres":7.4,"mapped_acres_source":"poly_GISAcres","gis_acres":7.4,"auto_acres":7.352307821447752,"reported_acres":21.0,"percent_contained":null,"state":"NH","state_wfigs":"US-NH","county":"Rockingham","discovery_time_utc":"2024-11-18T16:04:06Z","perimeter_time_utc":"2025-03-26T15:54:22Z","perimeter_edit_time_utc":null,"incident_modified_time_utc":"2024-11-21T20:49:02Z","containment_time_utc":null,"control_time_utc":null,"fire_out_time_utc":null,"fire_cause":"Human","fire_cause_general":"Equipment and vehicle use","map_method":"Mixed Methods","source_dataset":"FFP","unique_fire_identifier":"2024-NHNHS-24111824A","irwin_id":"{4558EEDC-02B4-4085-94A6-75BC32DA8D59}","global_id":"1cec67c2-2620-4eae-9f1b-f86b65ff0f3d"}}]}
