{"type":"FeatureCollection","features":[{"type":"Feature","geometry":{"type":"Polygon","coordinates":[[[-82.58859,38.79751],[-82.5896,38.79814],[-82.59035,38.79814],[-82.59017,38.79838],[-82.58919,38.79862],[-82.58883,38.79839],[-82.58886,38.79777],[-82.58855,38.79763],[-82.58814,38.79773],[-82.58786,38.7982],[-82.58731,38.79835],[-82.58707,38.79807],[-82.58859,38.79751]]]},"properties":{"fire_id":"ufid:2024-OHWAF-000061","source_collection":"history-2024","source_objectid":25328,"incident_name":"Dry Ridge","mapped_acres":2.5,"mapped_acres_source":"poly_GISAcres","gis_acres":2.5,"auto_acres":2.6819341048406264,"reported_acres":2.5,"percent_contained":null,"state":"OH","state_wfigs":"US-OH","county":"Lawrence","discovery_time_utc":"2024-02-26T20:17:19Z","perimeter_time_utc":"2024-04-09T15:28:26Z","perimeter_edit_time_utc":"2024-04-09T15:28:27Z","incident_modified_time_utc":"2024-03-07T18:40:47Z","containment_time_utc":"2024-02-26T23:25:00Z","control_time_utc":"2024-02-27T15:50:00Z","fire_out_time_utc":"2024-03-28T18:00:00Z","fire_cause":"Human","fire_cause_general":"Equipment and vehicle use","map_method":"Hand Sketch","source_dataset":"FFP","unique_fire_identifier":"2024-OHWAF-000061","irwin_id":"{7FA86F2E-68F7-43BF-A83F-F74D21E0347D}","global_id":"c093c202-73ed-4107-83ae-92e4a9761600"}},{"type":"Feature","geometry":{"type":"Polygon","coordinates":[[[-82.57272,38.70235],[-82.57223,38.70214],[-82.57235,38.70168],[-82.5744,38.70196],[-82.57421,38.70255],[-82.57272,38.70235]]]},"properties":{"fire_id":"ufid:2024-OHWAF-000146","source_collection":"history-2024","source_objectid":25329,"incident_name":"Buckeye Rd","mapped_acres":2.0,"mapped_acres_source":"poly_GISAcres","gis_acres":2.0,"auto_acres":2.7900588306487615,"reported_acres":2.5,"percent_contained":null,"state":"OH","state_wfigs":"US-OH","county":"Lawrence","discovery_time_utc":"2024-03-23T19:58:00Z","perimeter_time_utc":"2024-04-09T15:22:04Z","perimeter_edit_time_utc":"2024-04-09T15:22:04Z","incident_modified_time_utc":"2024-03-29T14:05:59Z","containment_time_utc":"2024-03-24T14:47:00Z","control_time_utc":"2024-03-28T04:00:00Z","fire_out_time_utc":"2024-03-28T18:00:00Z","fire_cause":"Human","fire_cause_general":"Debris and open burning","map_method":"Hand Sketch","source_dataset":"FFP","unique_fire_identifier":"2024-OHWAF-000146","irwin_id":"{7B927090-602A-4AD2-9622-6B6B84D12428}","global_id":"6ce624b2-8a3e-4d2c-86e5-893394273731"}},{"type":"Feature","geometry":{"type":"Polygon","coordinates":[[[-82.75425,38.59787],[-82.75509,38.59803],[-82.75499,38.59812],[-82.75528,38.59842],[-82.75583,38.59852],[-82.75584,38.59861],[-82.75516,38.59888],[-82.75471,38.59873],[-82.75435,38.59846],[-82.75425,38.59787]]]},"properties":{"fire_id":"ufid:2024-OHWAF-000130","source_collection":"history-2024","source_objectid":25330,"incident_name":"Coal Bank","mapped_acres":4.0,"mapped_acres_source":"poly_GISAcres","gis_acres":4.0,"auto_acres":2.0490200476630775,"reported_acres":2.1,"percent_contained":null,"state":"OH","state_wfigs":"US-OH","county":"Scioto","discovery_time_utc":"2024-03-21T15:45:07Z","perimeter_time_utc":"2024-04-09T15:23:28Z","perimeter_edit_time_utc":"2024-04-09T15:23:29Z","incident_modified_time_utc":"2024-03-28T18:46:49Z","containment_time_utc":"2024-03-21T15:48:00Z","control_time_utc":"2024-03-21T15:49:00Z","fire_out_time_utc":"2024-03-28T18:00:00Z","fire_cause":"Human","fire_cause_general":"Other causes","map_method":"Hand Sketch","source_dataset":"FFP","unique_fire_identifier":"2024-OHWAF-000130","irwin_id":"{45A08983-7C9D-4CEB-9F8B-51CBAB1FE95C}","global_id":"26cf1647-63d3-4779-8901-6240f5591c63"}},{"type":"Feature","geometry":{"type":"Polygon","coordinates":[[[-82.74897,38.73663],[-82.74941,38.73611],[-82.74977,38.73591],[-82.75008,38.73592],[-82.75063,38.73647],[-82.75005,38.73639],[-82.74983,38.73651],[-82.74984,38.73664],[-82.75013,38.7368],[-82.74928,38.73774],[-82.74896,38.73693],[-82.74907,38.7368],[-82.74897,38.73663]]]},"properties":{"fire_id":"ufid:2024-OHWAF-000063","source_collection":"history-2024","source_objectid":25331,"incident_name":"Turkey Foot","mapped_acres":1.0,"mapped_acres_source":"poly_GISAcres","gis_acres":1.0,"auto_acres":3.3039971210150183,"reported_acres":3.0,"percent_contained":null,"state":"OH","state_wfigs":"US-OH","county":"Scioto","discovery_time_utc":"2024-02-26T23:00:00Z","perimeter_time_utc":"2024-04-09T15:27:07Z","perimeter_edit_time_utc":"2024-04-09T15:27:08Z","incident_modified_time_utc":"2024-03-28T18:21:28Z","containment_time_utc":"2024-02-27T18:00:00Z","control_time_utc":"2024-03-28T04:00:00Z","fire_out_time_utc":"2024-03-28T18:00:00Z","fire_cause":"Human","fire_cause_general":"Debris and open burning","map_method":"Hand Sketch","source_dataset":"FFP","unique_fire_identifier":"2024-OHWAF-000063","irwin_id":"{98154564-8922-4699-B396-3E19ABCFB5E9}","global_id":"4958c632-1c92-430d-9636-b7cc317dc874"}},{"type":"Feature","geometry":{"type":"Polygon","coordinates":[[[-82.73579,38.71563],[-82.73525,38.71469],[-82.73602,38.71424],[-82.73679,38.71444],[-82.73691,38.71501],[-82.73579,38.71563]]]},"properties":{"fire_id":"ufid:2024-OHWAF-000124","source_collection":"history-2024","source_objectid":25332,"incident_name":"McAllister","mapped_acres":20.0,"mapped_acres_source":"poly_GISAcres","gis_acres":20.0,"auto_acres":3.2809664967124466,"reported_acres":2.0,"percent_contained":null,"state":"OH","state_wfigs":"US-OH","county":"Scioto","discovery_time_utc":"2024-03-20T19:01:04Z","perimeter_time_utc":"2024-04-09T15:24:54Z","perimeter_edit_time_utc":"2024-04-09T15:24:55Z","incident_modified_time_utc":"2024-03-28T18:24:51Z","containment_time_utc":"2024-03-20T22:30:00Z","control_time_utc":"2024-03-28T18:00:00Z","fire_out_time_utc":"2024-03-28T18:00:00Z","fire_cause":"Human","fire_cause_general":"Power generation / transmission / distribution","map_method":"Hand Sketch","source_dataset":"FFP","unique_fire_identifier":"2024-OHWAF-000124","irwin_id":"{79891602-CAC9-4962-B819-D4ACEE21E90C}","global_id":"c13fa1ec-4903-4baf-8bba-90bfc1e0c0bb"}},{"type":"Feature","geometry":{"type":"Polygon","coordinates":[[[-82.49991,38.74594],[-82.50005,38.7455],[-82.50017,38.74553],[-82.50031,38.74597],[-82.50005,38.74638],[-82.49991,38.74594]]]},"properties":{"fire_id":"ufid:2024-OHWAF-000243","source_collection":"history-2024","source_objectid":25706,"incident_name":"Waterloo","mapped_acres":1.0,"mapped_acres_source":"poly_GISAcres","gis_acres":1.0,"auto_acres":0.4776641494474845,"reported_acres":0.5,"percent_contained":null,"state":"OH","state_wfigs":"US-OH","county":"Lawrence","discovery_time_utc":"2024-04-20T15:49:00Z","perimeter_time_utc":"2024-04-25T15:42:11Z","perimeter_edit_time_utc":"2024-04-25T15:42:11Z","incident_modified_time_utc":"2024-07-03T21:03:38Z","containment_time_utc":"2024-04-22T15:40:00Z","control_time_utc":"2024-04-22T15:50:00Z","fire_out_time_utc":"2024-04-22T16:00:00Z","fire_cause":"Human","fire_cause_general":null,"map_method":"Hand Sketch","source_dataset":"Decertified","unique_fire_identifier":"2024-OHWAF-000243","irwin_id":"{A7375374-EFEB-4C71-AD71-79AEA32A5434}","global_id":"04b25ed9-6597-4a65-91e5-f5b64c9902b7"}},{"type":"Feature","geometry":{"type":"Polygon","coordinates":[[[-82.61012,38.80224],[-82.60989,38.80206],[-82.61014,38.80199],[-82.61012,38.80224]]]},"properties":{"fire_id":"ufid:2024-OHWAF-000812","source_collection":"history-2024","source_objectid":53938,"incident_name":"93","mapped_acres":0.07,"mapped_acres_source":"poly_GISAcres","gis_acres":0.07,"auto_acres":null,"reported_acres":0.22,"percent_contained":null,"state":"OH","state_wfigs":"US-OH","county":"Lawrence","discovery_time_utc":"2024-10-31T15:58:46Z","perimeter_time_utc":"2024-10-31T19:03:00Z","perimeter_edit_time_utc":"2026-05-19T19:05:44Z","incident_modified_time_utc":"2026-05-19T19:05:50Z","containment_time_utc":"2024-10-31T19:03:00Z","control_time_utc":"2024-11-02T17:03:00Z","fire_out_time_utc":"2024-11-03T20:30:00Z","fire_cause":"Human","fire_cause_general":null,"map_method":"Hand Sketch","source_dataset":"Inspector","unique_fire_identifier":"2024-OHWAF-000812","irwin_id":"{7EA25A95-1A86-4A0A-AF87-A45BC52ECB58}","global_id":"5e553f20-28f8-4219-9600-e70f3099de79"}}]}
