{"type":"FeatureCollection","features":[{"type":"Feature","geometry":{"type":"Polygon","coordinates":[[[-81.36704,35.14649],[-81.3673,35.1469],[-81.36705,35.14716],[-81.36662,35.14674],[-81.36667,35.14655],[-81.36704,35.14649]]]},"properties":{"fire_id":"ufid:2024-SCKMP-240159","source_collection":"history-2024","source_objectid":35737,"incident_name":"DPF","mapped_acres":0.7,"mapped_acres_source":"poly_GISAcres","gis_acres":0.7,"auto_acres":0.6620304983193972,"reported_acres":0.66,"percent_contained":null,"state":"SC","state_wfigs":"US-SC","county":"York","discovery_time_utc":"2024-03-12T18:55:58Z","perimeter_time_utc":"2024-12-12T14:59:10Z","perimeter_edit_time_utc":"2024-12-12T14:59:10Z","incident_modified_time_utc":"2024-12-05T02:42:31Z","containment_time_utc":"2024-03-12T19:58:00Z","control_time_utc":null,"fire_out_time_utc":"2024-03-15T16:06:00Z","fire_cause":"Human","fire_cause_general":"Equipment and vehicle use","map_method":"Hand Sketch","source_dataset":"FFP","unique_fire_identifier":"2024-SCKMP-240159","irwin_id":"{0F7AE107-622E-4369-9FEA-15F19EB70DB0}","global_id":"f01bcfbc-4fcc-4fdd-bf59-c88fbe0c6920"}},{"type":"Feature","geometry":{"type":"Polygon","coordinates":[[[-81.40422,35.14152],[-81.40479,35.14174],[-81.40495,35.14198],[-81.40512,35.14194],[-81.40553,35.14214],[-81.4052,35.14257],[-81.40526,35.14302],[-81.40456,35.14354],[-81.40375,35.14382],[-81.40339,35.14379],[-81.40303,35.144],[-81.40305,35.14416],[-81.40262,35.14425],[-81.4023,35.14415],[-81.40224,35.14399],[-81.40253,35.14376],[-81.40272,35.14337],[-81.40279,35.14343],[-81.40282,35.14311],[-81.40344,35.14261],[-81.40373,35.14202],[-81.40422,35.14152]]]},"properties":{"fire_id":"ufid:2024-SCKMP-240228","source_collection":"history-2024","source_objectid":35744,"incident_name":"Fool","mapped_acres":10.2,"mapped_acres_source":"poly_GISAcres","gis_acres":10.2,"auto_acres":10.175346746272071,"reported_acres":11.0,"percent_contained":null,"state":"SC","state_wfigs":"US-SC","county":"Cherokee","discovery_time_utc":"2024-04-01T22:46:00Z","perimeter_time_utc":"2024-12-12T14:58:56Z","perimeter_edit_time_utc":"2024-12-12T14:58:56Z","incident_modified_time_utc":"2024-12-05T02:25:16Z","containment_time_utc":null,"control_time_utc":null,"fire_out_time_utc":"2024-04-15T13:12:00Z","fire_cause":"Human","fire_cause_general":"Power generation / transmission / distribution","map_method":"Mixed Methods","source_dataset":"FFP","unique_fire_identifier":"2024-SCKMP-240228","irwin_id":"{699EC4E6-87F8-48C6-9E32-815040A97B84}","global_id":"f4d5ca10-ed20-46b5-aff6-ac63100aaa41"}},{"type":"Feature","geometry":{"type":"Polygon","coordinates":[[[-81.40908,35.13554],[-81.4093,35.13569],[-81.40929,35.13596],[-81.40968,35.13645],[-81.40957,35.13699],[-81.40972,35.13737],[-81.40962,35.13768],[-81.41041,35.13797],[-81.4106,35.13825],[-81.41085,35.13897],[-81.41081,35.13957],[-81.41102,35.13983],[-81.41049,35.14057],[-81.40906,35.14103],[-81.40815,35.14116],[-81.40729,35.14168],[-81.40702,35.14118],[-81.40664,35.13982],[-81.40621,35.13965],[-81.40593,35.13986],[-81.40545,35.13948],[-81.40522,35.13963],[-81.40508,35.13945],[-81.40491,35.13948],[-81.40493,35.13916],[-81.40471,35.13883],[-81.4049,35.13871],[-81.40524,35.13791],[-81.40533,35.13719],[-81.40564,35.13687],[-81.40596,35.13669],[-81.40667,35.13663],[-81.40688,35.13638],[-81.4073,35.13634],[-81.40754,35.13599],[-81.40833,35.136],[-81.40848,35.13577],[-81.40908,35.13554]]]},"properties":{"fire_id":"ufid:2024-SCKMP-240226","source_collection":"history-2024","source_objectid":35750,"incident_name":"Line1","mapped_acres":57.9,"mapped_acres_source":"poly_GISAcres","gis_acres":57.9,"auto_acres":57.024481235765975,"reported_acres":58.0,"percent_contained":null,"state":"SC","state_wfigs":"US-SC","county":"Cherokee","discovery_time_utc":"2024-03-31T20:00:00Z","perimeter_time_utc":"2024-12-12T14:58:42Z","perimeter_edit_time_utc":"2024-12-12T14:58:42Z","incident_modified_time_utc":"2024-12-05T02:29:55Z","containment_time_utc":null,"control_time_utc":null,"fire_out_time_utc":"2024-04-15T13:12:00Z","fire_cause":"Undetermined","fire_cause_general":"Undetermined","map_method":"Hand Sketch","source_dataset":"FFP","unique_fire_identifier":"2024-SCKMP-240226","irwin_id":"{9B0585AA-CE49-4699-9A5E-92B653867DC7}","global_id":"f7d7ded1-5a73-4eda-b09d-ccd783fdde42"}}]}
