{"type":"FeatureCollection","features":[{"type":"Feature","geometry":{"type":"Polygon","coordinates":[[[-101.24212,45.00493],[-101.24227,45.00494],[-101.2422,45.00501],[-101.24212,45.00493]]]},"properties":{"fire_id":"ufid:2024-SDCRA-000015","source_collection":"history-2024","source_objectid":25516,"incident_name":"SYCAMORE","mapped_acres":1.0,"mapped_acres_source":"poly_GISAcres","gis_acres":1.0,"auto_acres":0.0250532080454022,"reported_acres":null,"percent_contained":null,"state":"SD","state_wfigs":"US-SD","county":"Dewey","discovery_time_utc":"2024-04-06T19:09:00Z","perimeter_time_utc":"2024-04-07T00:09:00Z","perimeter_edit_time_utc":"2024-04-17T17:09:39Z","incident_modified_time_utc":"2024-04-17T17:12:30Z","containment_time_utc":null,"control_time_utc":null,"fire_out_time_utc":null,"fire_cause":null,"fire_cause_general":null,"map_method":"Hand Sketch","source_dataset":"2024 NIFS","unique_fire_identifier":"2024-SDCRA-000015","irwin_id":"{082199F1-AFEE-4839-9D76-8A4894C4A5B9}","global_id":"6507493a-cc97-4988-a248-c169a0cdc8c9"}},{"type":"Feature","geometry":{"type":"Polygon","coordinates":[[[-100.72276,45.45013],[-100.72339,45.45012],[-100.72307,45.45051],[-100.72276,45.45013]]]},"properties":{"fire_id":"ufid:2024-SDGPA-000019","source_collection":"history-2024","source_objectid":25631,"incident_name":"TRAIL STACK","mapped_acres":1.0,"mapped_acres_source":"poly_GISAcres","gis_acres":1.0,"auto_acres":0.287506017403832,"reported_acres":null,"percent_contained":null,"state":"SD","state_wfigs":"US-SD","county":"Dewey","discovery_time_utc":"2024-04-16T04:59:00Z","perimeter_time_utc":"2024-04-16T09:59:00Z","perimeter_edit_time_utc":"2024-04-22T20:08:52Z","incident_modified_time_utc":"2024-04-22T20:07:33Z","containment_time_utc":null,"control_time_utc":null,"fire_out_time_utc":null,"fire_cause":null,"fire_cause_general":null,"map_method":"Hand Sketch","source_dataset":"2024 NIFS","unique_fire_identifier":"2024-SDGPA-000019","irwin_id":"{78D45F5D-00ED-48B8-A1A7-1F07595794C1}","global_id":"9119781d-6c8f-4c13-bee5-10b2802cb4d0"}},{"type":"Feature","geometry":{"type":"Polygon","coordinates":[[[-101.15765,45.00854],[-101.15795,45.00852],[-101.15763,45.00878],[-101.15765,45.00854]]]},"properties":{"fire_id":"ufid:2024-SDCRA-000022","source_collection":"history-2024","source_objectid":27537,"incident_name":"4 MILE","mapped_acres":1.0,"mapped_acres_source":"poly_GISAcres","gis_acres":1.0,"auto_acres":0.102332817489489,"reported_acres":null,"percent_contained":null,"state":"SD","state_wfigs":"US-SD","county":"Dewey","discovery_time_utc":"2024-06-17T06:58:00Z","perimeter_time_utc":"2024-06-17T11:58:00Z","perimeter_edit_time_utc":"2024-06-25T14:52:32Z","incident_modified_time_utc":"2024-06-25T14:56:20Z","containment_time_utc":null,"control_time_utc":null,"fire_out_time_utc":null,"fire_cause":null,"fire_cause_general":null,"map_method":"Hand Sketch","source_dataset":"2024 NIFS","unique_fire_identifier":"2024-SDCRA-000022","irwin_id":"{56231FFD-1C3A-413B-94D9-2139FACBBFAE}","global_id":"6a0c5015-2ee2-4c0c-b2a4-10a4e0b7aeb0"}},{"type":"Feature","geometry":{"type":"Polygon","coordinates":[[[-101.58903,45.05476],[-101.58909,45.05491],[-101.58881,45.05488],[-101.58884,45.05477],[-101.58903,45.05476]]]},"properties":{"fire_id":"ufid:2024-SDCRA-000025","source_collection":"history-2024","source_objectid":27618,"incident_name":"BOOTS","mapped_acres":0.0,"mapped_acres_source":"poly_GISAcres","gis_acres":0.0,"auto_acres":0.0972579224552464,"reported_acres":null,"percent_contained":null,"state":"SD","state_wfigs":"US-SD","county":"Ziebach","discovery_time_utc":"2024-06-25T04:05:00Z","perimeter_time_utc":"2024-06-25T09:05:00Z","perimeter_edit_time_utc":"2024-06-26T19:46:36Z","incident_modified_time_utc":"2024-06-26T19:46:39Z","containment_time_utc":null,"control_time_utc":null,"fire_out_time_utc":null,"fire_cause":null,"fire_cause_general":null,"map_method":"Hand Sketch","source_dataset":"2024 NIFS","unique_fire_identifier":"2024-SDCRA-000025","irwin_id":"{113207BE-B28B-4320-9C32-C1AE4B718A88}","global_id":"e95bf3c3-a09f-413a-9759-d3a151437b63"}},{"type":"Feature","geometry":{"type":"Polygon","coordinates":[[[-101.41762,45.29376],[-101.41852,45.29386],[-101.41918,45.29415],[-101.42032,45.29499],[-101.42021,45.29499],[-101.42029,45.2951],[-101.41973,45.2951],[-101.41877,45.29471],[-101.41757,45.29397],[-101.41762,45.29376]]]},"properties":{"fire_id":"ufid:2024-SDCRA-000029","source_collection":"history-2024","source_objectid":29282,"incident_name":"HOT ROCK","mapped_acres":1.0,"mapped_acres_source":"poly_GISAcres","gis_acres":1.0,"auto_acres":3.2095376613354913,"reported_acres":null,"percent_contained":null,"state":"SD","state_wfigs":"US-SD","county":"Dewey","discovery_time_utc":"2024-07-02T17:45:00Z","perimeter_time_utc":"2024-07-02T22:45:00Z","perimeter_edit_time_utc":"2024-07-11T17:13:16Z","incident_modified_time_utc":"2024-07-11T16:56:29Z","containment_time_utc":null,"control_time_utc":null,"fire_out_time_utc":null,"fire_cause":null,"fire_cause_general":null,"map_method":"Hand Sketch","source_dataset":"2024 NIFS","unique_fire_identifier":"2024-SDCRA-000029","irwin_id":"{BB9787E5-6519-4F22-8C1E-8871EDC9E851}","global_id":"9e788165-005a-419c-8f2c-53dd153fe34a"}},{"type":"Feature","geometry":{"type":"Polygon","coordinates":[[[-101.3844,45.05316],[-101.38507,45.05316],[-101.38474,45.05356],[-101.3844,45.05316]]]},"properties":{"fire_id":"ufid:2024-SDCRA-000033","source_collection":"history-2024","source_objectid":29283,"incident_name":"S. STRIKE","mapped_acres":1.0,"mapped_acres_source":"poly_GISAcres","gis_acres":1.0,"auto_acres":0.29794701097074766,"reported_acres":null,"percent_contained":null,"state":"SD","state_wfigs":"US-SD","county":"Dewey","discovery_time_utc":"2024-07-06T11:33:00Z","perimeter_time_utc":"2024-07-06T16:33:00Z","perimeter_edit_time_utc":"2024-07-11T17:33:52Z","incident_modified_time_utc":"2024-07-11T17:34:26Z","containment_time_utc":null,"control_time_utc":null,"fire_out_time_utc":null,"fire_cause":null,"fire_cause_general":null,"map_method":"Hand Sketch","source_dataset":"2024 NIFS","unique_fire_identifier":"2024-SDCRA-000033","irwin_id":"{0C5E57E4-33AE-49DF-825A-6C28669F90C7}","global_id":"8d372a5b-74f8-4e5f-8399-177e958962b6"}},{"type":"Feature","geometry":{"type":"Polygon","coordinates":[[[-101.78593,45.04685],[-101.7863,45.04685],[-101.78612,45.04708],[-101.78593,45.04685]]]},"properties":{"fire_id":"ufid:2024-SDCRA-000039","source_collection":"history-2024","source_objectid":29808,"incident_name":"WONDER BALE","mapped_acres":1.0,"mapped_acres_source":"poly_GISAcres","gis_acres":1.0,"auto_acres":0.09910924320473706,"reported_acres":null,"percent_contained":null,"state":"SD","state_wfigs":"US-SD","county":"Ziebach","discovery_time_utc":"2024-07-21T23:18:00Z","perimeter_time_utc":"2024-07-22T04:18:00Z","perimeter_edit_time_utc":"2024-07-22T19:46:01Z","incident_modified_time_utc":"2024-07-22T19:45:05Z","containment_time_utc":null,"control_time_utc":null,"fire_out_time_utc":null,"fire_cause":null,"fire_cause_general":null,"map_method":"Hand Sketch","source_dataset":"2024 NIFS","unique_fire_identifier":"2024-SDCRA-000039","irwin_id":"{85D29FBD-A3E1-4045-9B87-A4F5A9D00EA4}","global_id":"13a6de10-3d34-432e-bdd4-cd30fb5ac563"}},{"type":"Feature","geometry":{"type":"Polygon","coordinates":[[[-101.78513,45.01408],[-101.78547,45.01408],[-101.78529,45.0143],[-101.78513,45.01408]]]},"properties":{"fire_id":"ufid:2024-SDCRA-000040","source_collection":"history-2024","source_objectid":30382,"incident_name":"YELLOW ONE","mapped_acres":1.0,"mapped_acres_source":"poly_GISAcres","gis_acres":1.0,"auto_acres":0.09657095672616324,"reported_acres":null,"percent_contained":null,"state":"SD","state_wfigs":"US-SD","county":"Ziebach","discovery_time_utc":"2024-07-29T17:30:00Z","perimeter_time_utc":"2024-07-29T22:30:00Z","perimeter_edit_time_utc":"2024-09-18T14:58:26Z","incident_modified_time_utc":"2024-09-18T14:58:29Z","containment_time_utc":null,"control_time_utc":null,"fire_out_time_utc":null,"fire_cause":null,"fire_cause_general":null,"map_method":"Hand Sketch","source_dataset":"2024 NIFS","unique_fire_identifier":"2024-SDCRA-000040","irwin_id":"{75C458EF-DC86-4CB2-9373-2C1BAC6C2A83}","global_id":"a0f027ad-8b1d-42f0-ae9f-9afdf87016a1"}},{"type":"Feature","geometry":{"type":"Polygon","coordinates":[[[-103.89278,45.03687],[-103.89246,45.03665],[-103.89243,45.0364],[-103.89302,45.03638],[-103.89651,45.03782],[-103.89715,45.03816],[-103.89758,45.0387],[-103.89744,45.03896],[-103.89709,45.03909],[-103.89684,45.03898],[-103.89668,45.0387],[-103.89628,45.03891],[-103.89676,45.03932],[-103.89667,45.0395],[-103.89583,45.03949],[-103.89467,45.03895],[-103.89441,45.0392],[-103.89351,45.03825],[-103.89278,45.03687]]]},"properties":{"fire_id":"ufid:2024-SDSDD-241012","source_collection":"history-2024","source_objectid":31319,"incident_name":"Missle","mapped_acres":16.0,"mapped_acres_source":"poly_GISAcres","gis_acres":16.0,"auto_acres":16.39936688002201,"reported_acres":16.4,"percent_contained":null,"state":"SD","state_wfigs":"US-SD","county":"Butte","discovery_time_utc":"2024-08-22T01:49:33Z","perimeter_time_utc":"2024-08-22T06:49:33Z","perimeter_edit_time_utc":"2024-08-22T12:36:01Z","incident_modified_time_utc":"2024-09-23T20:50:55Z","containment_time_utc":null,"control_time_utc":null,"fire_out_time_utc":"2024-08-25T16:00:00Z","fire_cause":"Natural","fire_cause_general":null,"map_method":"Hand Sketch","source_dataset":"2024 NIFS","unique_fire_identifier":"2024-SDSDD-241012","irwin_id":"{16508343-E6E1-4A23-AEF5-DF4272AB909A}","global_id":"b84ed587-9577-45a3-9dcf-64da45281472"}},{"type":"Feature","geometry":{"type":"Polygon","coordinates":[[[-103.27716,45.39184],[-103.27529,45.39082],[-103.27375,45.38962],[-103.27262,45.38825],[-103.27158,45.38627],[-103.27078,45.38372],[-103.26879,45.37522],[-103.26804,45.37321],[-103.26572,45.36873],[-103.26446,45.36565],[-103.26349,45.36211],[-103.2632,45.35963],[-103.26338,45.3582],[-103.26376,45.35736],[-103.26435,45.35659],[-103.26549,45.35551],[-103.27099,45.35125],[-103.27338,45.34965],[-103.27586,45.34847],[-103.27782,45.34818],[-103.2792,45.34847],[-103.28003,45.34888],[-103.28078,45.34944],[-103.28205,45.35088],[-103.28355,45.3534],[-103.28498,45.35666],[-103.28679,45.36145],[-103.28739,45.36393],[-103.28757,45.3665],[-103.28732,45.36962],[-103.28633,45.37486],[-103.28631,45.37645],[-103.28662,45.37902],[-103.28633,45.38042],[-103.28552,45.38165],[-103.28409,45.38319],[-103.28166,45.38558],[-103.28028,45.38675],[-103.27873,45.38774],[-103.27704,45.38844],[-103.27521,45.3888],[-103.27394,45.38884],[-103.27716,45.39184]]]},"properties":{"fire_id":"ufid:2024-SDHRX-000364","source_collection":"history-2024","source_objectid":31885,"incident_name":"Limpert 1","mapped_acres":1498.2,"mapped_acres_source":"poly_GISAcres","gis_acres":1498.2,"auto_acres":1498.218530867792,"reported_acres":1498.2,"percent_contained":null,"state":"SD","state_wfigs":"US-SD","county":"Harding","discovery_time_utc":"2024-07-29T23:00:00Z","perimeter_time_utc":"2024-09-05T15:50:32Z","perimeter_edit_time_utc":"2024-09-05T15:50:32Z","incident_modified_time_utc":"2024-09-05T15:45:44Z","containment_time_utc":"2024-07-30T16:00:00Z","control_time_utc":"2024-07-30T16:00:00Z","fire_out_time_utc":"2024-07-30T16:00:00Z","fire_cause":"Natural","fire_cause_general":"Natural","map_method":"Mixed Methods","source_dataset":"FFP","unique_fire_identifier":"2024-SDHRX-000364","irwin_id":"{4BCCC6EF-1F75-4EB9-9E98-49B8F82DB0A7}","global_id":"83240d72-6670-4c04-b4ca-6e432695e885"}},{"type":"Feature","geometry":{"type":"Polygon","coordinates":[[[-103.24985,45.37473],[-103.24838,45.37356],[-103.24753,45.37271],[-103.24593,45.37039],[-103.24377,45.36552],[-103.24201,45.362],[-103.23969,45.35804],[-103.23809,45.355],[-103.23754,45.35335],[-103.23757,45.35294],[-103.23785,45.35264],[-103.23875,45.35278],[-103.24461,45.35548],[-103.24581,45.35624],[-103.24752,45.35757],[-103.24834,45.35798],[-103.24886,45.35808],[-103.24905,45.35792],[-103.24929,45.35742],[-103.24951,45.3564],[-103.24962,45.35627],[-103.24985,45.35627],[-103.24995,45.35641],[-103.25039,45.35817],[-103.25087,45.35936],[-103.25301,45.36266],[-103.25378,45.36408],[-103.25413,45.36517],[-103.2543,45.36625],[-103.25392,45.36978],[-103.25362,45.37068],[-103.2533,45.37118],[-103.25235,45.37202],[-103.25145,45.37256],[-103.25013,45.37297],[-103.24885,45.37303],[-103.24985,45.37473]]]},"properties":{"fire_id":"ufid:2024-SDHRX-000365","source_collection":"history-2024","source_objectid":31886,"incident_name":"Limpert 2","mapped_acres":368.9,"mapped_acres_source":"poly_GISAcres","gis_acres":368.9,"auto_acres":368.9371428683439,"reported_acres":368.9,"percent_contained":null,"state":"SD","state_wfigs":"US-SD","county":"Harding","discovery_time_utc":"2024-07-29T23:00:00Z","perimeter_time_utc":"2024-09-05T15:52:44Z","perimeter_edit_time_utc":"2024-09-05T15:52:45Z","incident_modified_time_utc":"2024-09-05T15:45:53Z","containment_time_utc":"2024-07-30T16:00:00Z","control_time_utc":"2024-07-30T16:00:00Z","fire_out_time_utc":"2024-07-30T16:00:00Z","fire_cause":"Natural","fire_cause_general":"Natural","map_method":"Mixed Methods","source_dataset":"FFP","unique_fire_identifier":"2024-SDHRX-000365","irwin_id":"{94C00E9D-65C6-42C9-A4FF-67E8683C421B}","global_id":"8a959a89-6b65-4dfd-81ad-5404423619fe"}},{"type":"Feature","geometry":{"type":"Polygon","coordinates":[[[-101.52912,45.09531],[-101.52975,45.09508],[-101.53035,45.09531],[-101.53073,45.09605],[-101.52973,45.09619],[-101.52869,45.09605],[-101.52912,45.09531]]]},"properties":{"fire_id":"ufid:2024-SDCRA-000047","source_collection":"history-2024","source_objectid":32322,"incident_name":"BREAKFAST","mapped_acres":1.0,"mapped_acres_source":"poly_GISAcres","gis_acres":1.0,"auto_acres":3.2260917856949356,"reported_acres":null,"percent_contained":null,"state":"SD","state_wfigs":"US-SD","county":"Ziebach","discovery_time_utc":"2024-08-10T15:48:00Z","perimeter_time_utc":"2024-08-10T20:48:00Z","perimeter_edit_time_utc":"2024-09-15T00:13:42Z","incident_modified_time_utc":"2024-09-15T00:11:42Z","containment_time_utc":null,"control_time_utc":null,"fire_out_time_utc":null,"fire_cause":null,"fire_cause_general":null,"map_method":"Hand Sketch","source_dataset":"2024 NIFS","unique_fire_identifier":"2024-SDCRA-000047","irwin_id":"{891EDFC2-C6BB-4A1F-A179-048704A7E879}","global_id":"2157cb02-a4da-4302-8266-fc827351bcf5"}},{"type":"Feature","geometry":{"type":"Polygon","coordinates":[[[-103.18296,45.35906],[-103.18287,45.35865],[-103.18343,45.35851],[-103.18333,45.35811],[-103.18355,45.35786],[-103.18391,45.35799],[-103.18426,45.35793],[-103.18451,45.35772],[-103.1849,45.35779],[-103.1857,45.35837],[-103.18545,45.35859],[-103.18506,45.35866],[-103.18407,45.36002],[-103.18353,45.36023],[-103.18348,45.36051],[-103.18322,45.36072],[-103.18313,45.36098],[-103.18274,45.36089],[-103.18202,45.36112],[-103.18178,45.36134],[-103.18099,45.36144],[-103.18086,45.36133],[-103.18106,45.36093],[-103.18047,45.36058],[-103.18015,45.35992],[-103.17977,45.35982],[-103.17974,45.35955],[-103.18034,45.35948],[-103.18053,45.35924],[-103.18023,45.35888],[-103.18058,45.35859],[-103.18096,45.35865],[-103.18085,45.3589],[-103.18107,45.3591],[-103.18127,45.35912],[-103.18141,45.35885],[-103.18178,45.35875],[-103.18216,45.35881],[-103.18226,45.35907],[-103.18259,45.35895],[-103.18296,45.35906]]]},"properties":{"fire_id":"ufid:2024-MTMCD-000359","source_collection":"history-2024","source_objectid":34608,"incident_name":"Summit Pass","mapped_acres":20.0,"mapped_acres_source":"poly_GISAcres","gis_acres":20.0,"auto_acres":22.056070487104904,"reported_acres":22.1,"percent_contained":null,"state":"SD","state_wfigs":"US-SD","county":"Harding","discovery_time_utc":"2024-07-29T22:18:39Z","perimeter_time_utc":"2024-11-18T17:54:28Z","perimeter_edit_time_utc":"2024-11-18T17:54:29Z","incident_modified_time_utc":"2024-07-31T22:22:36Z","containment_time_utc":"2024-07-30T15:45:00Z","control_time_utc":"2024-07-31T21:55:00Z","fire_out_time_utc":"2024-09-19T14:00:00Z","fire_cause":"Natural","fire_cause_general":"Natural","map_method":"Auto-generated","source_dataset":"FFP","unique_fire_identifier":"2024-MTMCD-000359","irwin_id":"{5A44727D-084F-4284-A30B-387DE0D16A08}","global_id":"9ed59325-4a3e-42c5-aa69-cfa84b8501e5"}},{"type":"Feature","geometry":{"type":"Polygon","coordinates":[[[-103.70166,45.69761],[-103.7003,45.69747],[-103.69881,45.69758],[-103.69541,45.69872],[-103.69432,45.69888],[-103.69319,45.69883],[-103.69157,45.69846],[-103.68951,45.69759],[-103.6878,45.69703],[-103.68519,45.69638],[-103.67582,45.6949],[-103.67389,45.69431],[-103.6709,45.69315],[-103.66964,45.69281],[-103.66769,45.6927],[-103.66288,45.69324],[-103.66079,45.69332],[-103.6573,45.69311],[-103.65465,45.69261],[-103.64834,45.69089],[-103.6441,45.68933],[-103.64031,45.68824],[-103.63924,45.68774],[-103.63481,45.68513],[-103.62991,45.68326],[-103.62759,45.68162],[-103.62534,45.68038],[-103.62083,45.67873],[-103.61581,45.67666],[-103.61101,45.67493],[-103.61,45.67435],[-103.60922,45.67365],[-103.60685,45.67004],[-103.60458,45.66738],[-103.60327,45.66642],[-103.59857,45.66412],[-103.59798,45.66355],[-103.59672,45.66164],[-103.59605,45.66109],[-103.59269,45.65998],[-103.59138,45.65924],[-103.58929,45.65635],[-103.58631,45.65338],[-103.58539,45.65219],[-103.58474,45.65093],[-103.58425,45.64964],[-103.58373,45.64757],[-103.58337,45.64685],[-103.58253,45.64606],[-103.58005,45.64485],[-103.57953,45.64441],[-103.57949,45.6442],[-103.57995,45.6441],[-103.58158,45.64446],[-103.5828,45.64456],[-103.58328,45.64448],[-103.58362,45.64419],[-103.58359,45.64393],[-103.58294,45.64305],[-103.58225,45.64174],[-103.58043,45.63908],[-103.57947,45.63719],[-103.57931,45.63642],[-103.57959,45.6364],[-103.57988,45.6366],[-103.58123,45.63802],[-103.58242,45.6402],[-103.58446,45.64143],[-103.58488,45.64186],[-103.58541,45.64283],[-103.58579,45.64323],[-103.58688,45.64358],[-103.5874,45.6433],[-103.58795,45.64259],[-103.58806,45.64159],[-103.5878,45.6394],[-103.58746,45.63831],[-103.5865,45.63696],[-103.58334,45.63363],[-103.58272,45.63275],[-103.58275,45.63233],[-103.58301,45.63227],[-103.58395,45.63265],[-103.58471,45.63322],[-103.58562,45.63486],[-103.5862,45.63552],[-103.58682,45.63585],[-103.58716,45.63581],[-103.58739,45.6356],[-103.58727,45.63494],[-103.58621,45.63288],[-103.58528,45.63135],[-103.58411,45.62981],[-103.58393,45.62925],[-103.5841,45.62902],[-103.58547,45.62854],[-103.58693,45.62834],[-103.588,45.62849],[-103.59175,45.6295],[-103.59255,45.63005],[-103.59292,45.63048],[-103.59312,45.63096],[-103.59344,45.63348],[-103.59392,45.63397],[-103.59417,45.63392],[-103.59439,45.63372],[-103.59451,45.63335],[-103.59449,45.6328],[-103.59415,45.63127],[-103.59351,45.62951],[-103.59352,45.62896],[-103.59368,45.62882],[-103.59393,45.62899],[-103.59468,45.62989],[-103.59518,45.63027],[-103.59608,45.63055],[-103.60012,45.62951],[-103.60119,45.62894],[-103.6017,45.62809],[-103.602,45.62508],[-103.60283,45.622],[-103.60348,45.62084],[-103.60407,45.62043],[-103.60443,45.62039],[-103.60467,45.62051],[-103.60478,45.62081],[-103.60492,45.62221],[-103.60519,45.62275],[-103.60545,45.62291],[-103.60604,45.62274],[-103.60673,45.62276],[-103.60795,45.6231],[-103.60866,45.62315],[-103.61025,45.62268],[-103.6108,45.62271],[-103.61172,45.62344],[-103.61191,45.62385],[-103.61135,45.62519],[-103.61141,45.62578],[-103.61203,45.62614],[-103.61369,45.62626],[-103.61427,45.62668],[-103.61442,45.62714],[-103.61436,45.628],[-103.6136,45.6304],[-103.61352,45.63155],[-103.61288,45.63503],[-103.61296,45.63618],[-103.61335,45.63689],[-103.61451,45.63772],[-103.61585,45.63923],[-103.61667,45.63975],[-103.61798,45.64004],[-103.61853,45.64028],[-103.6189,45.64069],[-103.61902,45.64122],[-103.61881,45.64203],[-103.61769,45.64303],[-103.61704,45.64427],[-103.61585,45.64561],[-103.61569,45.64625],[-103.61586,45.64661],[-103.6177,45.64725],[-103.62062,45.64992],[-103.62333,45.65149],[-103.62468,45.65201],[-103.62618,45.65208],[-103.62788,45.65135],[-103.62984,45.65094],[-103.63081,45.651],[-103.63327,45.65171],[-103.63493,45.6519],[-103.63781,45.65175],[-103.64009,45.65135],[-103.64113,45.65095],[-103.64153,45.65065],[-103.64244,45.64954],[-103.64282,45.64818],[-103.64274,45.64522],[-103.64251,45.64424],[-103.64027,45.64056],[-103.6392,45.63816],[-103.63798,45.63316],[-103.63777,45.63172],[-103.63766,45.629],[-103.63747,45.62818],[-103.63708,45.62747],[-103.63577,45.62608],[-103.63548,45.62545],[-103.63558,45.62511],[-103.6362,45.6245],[-103.63746,45.62372],[-103.63822,45.62303],[-103.63909,45.62128],[-103.63977,45.61888],[-103.64005,45.61706],[-103.6404,45.6159],[-103.64065,45.61548],[-103.64099,45.61521],[-103.64137,45.61511],[-103.64197,45.61521],[-103.64221,45.61546],[-103.64225,45.61584],[-103.64139,45.61863],[-103.64157,45.61964],[-103.64241,45.62105],[-103.64492,45.62428],[-103.64519,45.62507],[-103.64524,45.62757],[-103.64543,45.62835],[-103.64582,45.6291],[-103.6467,45.63015],[-103.6489,45.63195],[-103.64937,45.63262],[-103.64953,45.63297],[-103.64961,45.6337],[-103.64953,45.63551],[-103.64979,45.63659],[-103.65049,45.63714],[-103.65138,45.63753],[-103.65526,45.63808],[-103.65686,45.63857],[-103.65801,45.63949],[-103.65871,45.6406],[-103.65918,45.6424],[-103.65924,45.6433],[-103.65909,45.6456],[-103.65867,45.64884],[-103.65836,45.65387],[-103.65838,45.65833],[-103.65851,45.65921],[-103.6589,45.66004],[-103.65977,45.66116],[-103.66376,45.66473],[-103.66513,45.66629],[-103.66591,45.66802],[-103.66666,45.67138],[-103.66736,45.67276],[-103.66854,45.67398],[-103.6694,45.67437],[-103.67015,45.67428],[-103.67055,45.67375],[-103.6705,45.66592],[-103.67036,45.66413],[-103.66991,45.66237],[-103.66834,45.65909],[-103.6681,45.65828],[-103.66807,45.65747],[-103.6685,45.65633],[-103.66957,45.65507],[-103.67097,45.65427],[-103.67165,45.65414],[-103.67222,45.6542],[-103.6745,45.65932],[-103.67547,45.67484],[-103.67393,45.67574],[-103.6739,45.68092],[-103.67411,45.68179],[-103.67453,45.6826],[-103.67512,45.68332],[-103.67926,45.68724],[-103.6819,45.6893],[-103.68283,45.68989],[-103.68512,45.69095],[-103.68814,45.69263],[-103.68903,45.69291],[-103.69089,45.69296],[-103.69272,45.69262],[-103.69436,45.69196],[-103.69506,45.69134],[-103.69079,45.68948],[-103.69031,45.68892],[-103.69036,45.68863],[-103.69058,45.68843],[-103.69229,45.6884],[-103.69618,45.68797],[-103.69837,45.68798],[-103.70003,45.68821],[-103.70191,45.68901],[-103.70417,45.69056],[-103.70469,45.69117],[-103.70479,45.69147],[-103.7047,45.69207],[-103.70413,45.69291],[-103.70132,45.69613],[-103.69997,45.69716],[-103.70166,45.69761]]]},"properties":{"fire_id":"ufid:2024-SDHRX-000357","source_collection":"history-2024","source_objectid":34609,"incident_name":"Travin","mapped_acres":8017.0,"mapped_acres_source":"poly_GISAcres","gis_acres":8017.0,"auto_acres":8053.946098837397,"reported_acres":8053.9,"percent_contained":null,"state":"SD","state_wfigs":"US-SD","county":"Harding","discovery_time_utc":"2024-07-29T21:43:00Z","perimeter_time_utc":"2024-11-18T17:53:39Z","perimeter_edit_time_utc":"2024-11-18T17:53:39Z","incident_modified_time_utc":"2024-08-05T23:09:00Z","containment_time_utc":"2024-07-30T01:10:00Z","control_time_utc":"2024-07-30T01:10:00Z","fire_out_time_utc":"2024-09-05T14:00:00Z","fire_cause":"Natural","fire_cause_general":"Natural","map_method":"Mixed Methods","source_dataset":"FFP","unique_fire_identifier":"2024-SDHRX-000357","irwin_id":"{C998907A-B214-4340-A898-0E72786367E2}","global_id":"a4648037-3f27-4521-9183-2221230e6156"}},{"type":"Feature","geometry":{"type":"Polygon","coordinates":[[[-103.13417,45.35794],[-103.13462,45.35809],[-103.1355,45.35804],[-103.13558,45.35816],[-103.13556,45.35846],[-103.13446,45.3586],[-103.1344,45.35873],[-103.13454,45.35892],[-103.13508,45.359],[-103.13598,45.35883],[-103.13614,45.35893],[-103.13577,45.359],[-103.13569,45.35929],[-103.13605,45.35933],[-103.13626,45.35952],[-103.13623,45.35967],[-103.13523,45.35958],[-103.13489,45.35973],[-103.13535,45.36003],[-103.13575,45.35999],[-103.13559,45.36009],[-103.13583,45.36026],[-103.13544,45.36065],[-103.13514,45.36069],[-103.13476,45.36042],[-103.13284,45.3597],[-103.13316,45.3595],[-103.13318,45.3592],[-103.1333,45.35914],[-103.13323,45.35899],[-103.13341,45.3588],[-103.13385,45.35849],[-103.13438,45.35854],[-103.13406,45.35806],[-103.13417,45.35794]]]},"properties":{"fire_id":"ufid:2024-MTMCD-000392","source_collection":"history-2024","source_objectid":34613,"incident_name":"Willard","mapped_acres":5.0,"mapped_acres_source":"poly_GISAcres","gis_acres":5.0,"auto_acres":9.800252404606834,"reported_acres":9.8,"percent_contained":null,"state":"SD","state_wfigs":"US-SD","county":"Harding","discovery_time_utc":"2024-08-04T23:12:00Z","perimeter_time_utc":"2024-11-18T17:54:53Z","perimeter_edit_time_utc":"2024-11-18T17:54:53Z","incident_modified_time_utc":"2024-09-05T17:24:46Z","containment_time_utc":"2024-08-07T22:20:00Z","control_time_utc":"2024-08-08T16:25:00Z","fire_out_time_utc":"2024-09-05T14:00:00Z","fire_cause":"Natural","fire_cause_general":"Natural","map_method":"Hand Sketch","source_dataset":"FFP","unique_fire_identifier":"2024-MTMCD-000392","irwin_id":"{101FD20B-C87B-4833-8C9F-C95184E31AAC}","global_id":"e7fdc78f-d49d-40e4-af66-0a5cc2bcc28d"}},{"type":"Feature","geometry":{"type":"Polygon","coordinates":[[[-101.94694,45.58581],[-101.94377,45.58547],[-101.94029,45.58448],[-101.93956,45.58435],[-101.93872,45.58438],[-101.93775,45.58391],[-101.93604,45.58348],[-101.9344,45.58279],[-101.92973,45.58138],[-101.92912,45.58108],[-101.92719,45.58055],[-101.92516,45.57981],[-101.92511,45.57762],[-101.92431,45.5762],[-101.92459,45.57596],[-101.92697,45.57571],[-101.92817,45.57617],[-101.92964,45.57723],[-101.92994,45.57713],[-101.93248,45.57709],[-101.93319,45.57668],[-101.934,45.57697],[-101.93471,45.57681],[-101.9347,45.57662],[-101.93531,45.5765],[-101.93652,45.57701],[-101.9371,45.5774],[-101.93756,45.57753],[-101.9378,45.5774],[-101.93812,45.57744],[-101.93919,45.57807],[-101.93936,45.57834],[-101.93995,45.57834],[-101.94171,45.57911],[-101.94208,45.57969],[-101.943,45.58008],[-101.94391,45.58069],[-101.94439,45.58086],[-101.94487,45.58076],[-101.94533,45.58096],[-101.9457,45.58131],[-101.94778,45.58256],[-101.94855,45.58346],[-101.94926,45.58394],[-101.94937,45.58411],[-101.94932,45.58498],[-101.94906,45.58502],[-101.94869,45.58534],[-101.94809,45.58524],[-101.94789,45.58559],[-101.94694,45.58581]]]},"properties":{"fire_id":"ufid:2024-NDDPF-000596","source_collection":"history-2024","source_objectid":36672,"incident_name":"Athaboy Rd","mapped_acres":261.52,"mapped_acres_source":"poly_GISAcres","gis_acres":261.52,"auto_acres":261.519384396352,"reported_acres":261.52,"percent_contained":null,"state":"SD","state_wfigs":"US-SD","county":"Corson","discovery_time_utc":"2024-10-06T13:25:22Z","perimeter_time_utc":"2025-01-23T18:01:35Z","perimeter_edit_time_utc":"2025-01-23T18:01:35Z","incident_modified_time_utc":"2025-01-23T14:51:44Z","containment_time_utc":"2024-10-06T14:00:00Z","control_time_utc":"2024-10-12T18:00:00Z","fire_out_time_utc":"2024-10-30T14:00:00Z","fire_cause":"Human","fire_cause_general":"Equipment and vehicle use","map_method":"Hand Sketch","source_dataset":"FFP","unique_fire_identifier":"2024-NDDPF-000596","irwin_id":"{0E98CC8E-3F85-4C6E-A6FC-105274EF2A85}","global_id":"bb5af0da-a84b-4882-a92e-30348052fba8"}}]}
