{"type":"FeatureCollection","features":[{"type":"Feature","geometry":{"type":"Polygon","coordinates":[[[-87.7042,35.22845],[-87.70455,35.22815],[-87.70509,35.22808],[-87.70538,35.22819],[-87.70531,35.22842],[-87.70485,35.2286],[-87.70502,35.22866],[-87.70489,35.22877],[-87.70474,35.2286],[-87.70435,35.22875],[-87.7042,35.22845]]]},"properties":{"fire_id":"ufid:2024-MSNAP-000250","source_collection":"history-2024","source_objectid":27750,"incident_name":"Little Shawnetee","mapped_acres":0.75,"mapped_acres_source":"poly_GISAcres","gis_acres":0.75,"auto_acres":1.2555137158164502,"reported_acres":1.3,"percent_contained":null,"state":"TN","state_wfigs":"US-TN","county":"Wayne","discovery_time_utc":"2024-03-20T21:30:00Z","perimeter_time_utc":"2024-06-28T20:25:26Z","perimeter_edit_time_utc":"2024-06-28T20:25:26Z","incident_modified_time_utc":"2024-06-26T13:04:35Z","containment_time_utc":"2024-03-21T05:00:00Z","control_time_utc":"2024-03-22T05:00:00Z","fire_out_time_utc":"2024-05-08T19:19:00Z","fire_cause":"Human","fire_cause_general":"Equipment and vehicle use","map_method":"Hand Sketch","source_dataset":"FFP","unique_fire_identifier":"2024-MSNAP-000250","irwin_id":"{0F29AC98-2ABA-4B60-B6C1-06BA3B037C04}","global_id":"7c79c0ed-128c-42d7-928d-1a714a7b68a7"}},{"type":"Feature","geometry":{"type":"Polygon","coordinates":[[[-85.34054,35.00676],[-85.34082,35.00417],[-85.34102,35.00424],[-85.34173,35.00362],[-85.34213,35.00352],[-85.34228,35.00369],[-85.34207,35.00376],[-85.34196,35.00417],[-85.34207,35.00437],[-85.34198,35.00459],[-85.34214,35.00578],[-85.3418,35.00677],[-85.34197,35.00697],[-85.34054,35.00676]]]},"properties":{"fire_id":"ufid:2024-GACHP-000355","source_collection":"history-2024","source_objectid":36085,"incident_name":"Incline","mapped_acres":9.862047,"mapped_acres_source":"poly_GISAcres","gis_acres":9.862047,"auto_acres":9.86201293617837,"reported_acres":10.77,"percent_contained":null,"state":"TN","state_wfigs":"US-TN","county":"Hamilton","discovery_time_utc":"2024-12-07T13:00:22Z","perimeter_time_utc":"2024-12-27T16:20:10Z","perimeter_edit_time_utc":"2024-12-27T16:20:11Z","incident_modified_time_utc":"2024-12-26T20:11:10Z","containment_time_utc":"2024-12-08T21:00:00Z","control_time_utc":"2024-12-09T21:00:00Z","fire_out_time_utc":"2024-12-16T22:00:00Z","fire_cause":"Natural","fire_cause_general":"Natural","map_method":"GPS-Walked","source_dataset":"FFP","unique_fire_identifier":"2024-GACHP-000355","irwin_id":"{2D502764-3CBD-4733-9829-97965E164966}","global_id":"c68308b8-a7e1-4f38-9b94-8a44287f842b"}},{"type":"Feature","geometry":{"type":"Polygon","coordinates":[[[-85.5502,35.26585],[-85.54736,35.26181],[-85.55305,35.26181],[-85.5502,35.26585]]]},"properties":{"fire_id":"ufid:2024-TNTNS-241014","source_collection":"history-2024","source_objectid":36255,"incident_name":"Marion","mapped_acres":28.6,"mapped_acres_source":"poly_GISAcres","gis_acres":28.6,"auto_acres":9.234981734132177,"reported_acres":28.6,"percent_contained":100.0,"state":"TN","state_wfigs":"US-TN","county":"Marion","discovery_time_utc":"2024-12-27T07:23:00Z","perimeter_time_utc":"2025-01-02T15:21:25Z","perimeter_edit_time_utc":"2024-12-30T16:24:35Z","incident_modified_time_utc":"2025-01-02T15:21:07Z","containment_time_utc":"2024-12-27T16:00:16Z","control_time_utc":"2024-12-30T15:36:34Z","fire_out_time_utc":"2024-12-30T16:23:54Z","fire_cause":"Undetermined","fire_cause_general":"Undetermined (remarks required)","map_method":"Auto-generated for InFORM","source_dataset":"2024 NIFS","unique_fire_identifier":"2024-TNTNS-241014","irwin_id":"{9876778F-1D3A-4283-BFEE-DAFDF83BEBB8}","global_id":"4dcc9d96-6059-4e84-8a48-b3a95ebd3134"}}]}
