{"type":"FeatureCollection","features":[{"type":"Feature","geometry":{"type":"Polygon","coordinates":[[[-102.11571,34.82205],[-102.1159,34.82225],[-102.11574,34.82239],[-102.11571,34.82356],[-102.11529,34.82466],[-102.11457,34.82586],[-102.11299,34.8276],[-102.11199,34.82819],[-102.11111,34.8285],[-102.11026,34.82854],[-102.10957,34.8275],[-102.10778,34.82545],[-102.1075,34.82528],[-102.10667,34.82536],[-102.10647,34.82526],[-102.10645,34.82511],[-102.10659,34.82504],[-102.10752,34.82478],[-102.10804,34.82479],[-102.10814,34.82465],[-102.10662,34.82354],[-102.10654,34.82325],[-102.10744,34.81885],[-102.10973,34.81845],[-102.11146,34.81799],[-102.1146,34.81801],[-102.11564,34.81787],[-102.11581,34.81764],[-102.11608,34.81776],[-102.11606,34.82141],[-102.11587,34.82159],[-102.11571,34.82205]]]},"properties":{"fire_id":"ufid:2024-TXTXS-240074","source_collection":"history-2024","source_objectid":23992,"incident_name":"Arcade","mapped_acres":191.741913762873,"mapped_acres_source":"poly_GISAcres","gis_acres":191.741913762873,"auto_acres":191.741986457613,"reported_acres":192.0,"percent_contained":100.0,"state":"TX","state_wfigs":"US-TX","county":"Randall","discovery_time_utc":"2024-02-02T18:03:52Z","perimeter_time_utc":"2024-02-02T12:03:52Z","perimeter_edit_time_utc":"2024-02-14T16:25:00Z","incident_modified_time_utc":"2024-02-02T21:53:37Z","containment_time_utc":"2024-02-02T19:50:06Z","control_time_utc":null,"fire_out_time_utc":null,"fire_cause":"Human","fire_cause_general":"Equipment and vehicle use","map_method":"Mixed Methods","source_dataset":"2024 NIFS","unique_fire_identifier":"2024-TXTXS-240074","irwin_id":"{76C3B2CB-ECD9-45F0-8CE2-F4184773A18E}","global_id":"c3664f04-9a26-4728-95ed-adbbe7b268fc"}},{"type":"Feature","geometry":{"type":"Polygon","coordinates":[[[-104.84336,31.85998],[-104.84345,31.86013],[-104.84321,31.86036],[-104.84336,31.85998]]]},"properties":{"fire_id":"ufid:2024-TXBBP-000077","source_collection":"history-2024","source_objectid":24038,"incident_name":"MA MM 126","mapped_acres":0.15,"mapped_acres_source":"poly_GISAcres","gis_acres":0.15,"auto_acres":0.1379495036297145,"reported_acres":0.15,"percent_contained":null,"state":"TX","state_wfigs":"US-TX","county":"Culberson","discovery_time_utc":"2024-02-11T00:00:00Z","perimeter_time_utc":"2024-02-21T15:17:59Z","perimeter_edit_time_utc":"2024-02-21T15:18:00Z","incident_modified_time_utc":"2024-02-12T18:06:31Z","containment_time_utc":"2024-02-11T13:00:00Z","control_time_utc":"2024-02-11T13:00:00Z","fire_out_time_utc":"2024-02-11T13:00:00Z","fire_cause":"Human","fire_cause_general":"Other causes","map_method":"Hand Sketch","source_dataset":"FFP","unique_fire_identifier":"2024-TXBBP-000077","irwin_id":"{7C12BDEC-A182-46A9-B057-B09F204C597E}","global_id":"c591100e-b3d7-4ee7-bdd3-70efffc61892"}},{"type":"Feature","geometry":{"type":"Polygon","coordinates":[[[-100.34733,34.48943],[-100.34721,34.48953],[-100.34667,34.48916],[-100.34658,34.49248],[-100.34628,34.4926],[-100.34588,34.49218],[-100.34572,34.49224],[-100.34584,34.49242],[-100.34574,34.49301],[-100.34544,34.49305],[-100.34544,34.49367],[-100.34529,34.49398],[-100.34467,34.49392],[-100.34412,34.49433],[-100.34375,34.49344],[-100.34463,34.4928],[-100.34499,34.49216],[-100.34484,34.49156],[-100.3449,34.49122],[-100.34463,34.49022],[-100.3448,34.48959],[-100.34535,34.48899],[-100.34612,34.48843],[-100.34733,34.48943]]]},"properties":{"fire_id":"ufid:2024-TXTXS-240185","source_collection":"history-2024","source_objectid":24403,"incident_name":"Flying Roach","mapped_acres":21.9810710493394,"mapped_acres_source":"poly_GISAcres","gis_acres":21.9810710493394,"auto_acres":21.9810718501542,"reported_acres":22.0,"percent_contained":100.0,"state":"TX","state_wfigs":"US-TX","county":"Childress","discovery_time_utc":"2024-02-22T00:38:37Z","perimeter_time_utc":null,"perimeter_edit_time_utc":"2024-02-26T01:07:39Z","incident_modified_time_utc":"2024-08-30T00:33:05Z","containment_time_utc":"2024-02-22T17:23:49Z","control_time_utc":"2024-02-28T01:25:26Z","fire_out_time_utc":null,"fire_cause":"Human","fire_cause_general":"Equipment and vehicle use","map_method":"Mixed Methods","source_dataset":"2024 NIFS","unique_fire_identifier":"2024-TXTXS-240185","irwin_id":"{FD278D6E-326D-4AD2-A741-CBAA64FD1697}","global_id":"0413f5cc-cd60-4d9f-b481-955acf4fd254"}},{"type":"Feature","geometry":{"type":"Polygon","coordinates":[[[-100.96801,33.99244],[-100.96808,33.99229],[-100.96729,33.99209],[-100.96644,33.99206],[-100.96613,33.9919],[-100.96742,33.99151],[-100.96743,33.99136],[-100.96579,33.99126],[-100.96508,33.99145],[-100.96498,33.99133],[-100.96639,33.99067],[-100.96935,33.99017],[-100.97266,33.98979],[-100.97334,33.98959],[-100.97687,33.9894],[-100.97866,33.98992],[-100.97303,33.99259],[-100.9712,33.99294],[-100.96935,33.99281],[-100.96801,33.99244]]]},"properties":{"fire_id":"ufid:2024-TXTXS-240312","source_collection":"history-2024","source_objectid":24487,"incident_name":"Gravel Pit","mapped_acres":65.77294977730008,"mapped_acres_source":"poly_GISAcres","gis_acres":65.77294977730008,"auto_acres":65.77329941678782,"reported_acres":67.0,"percent_contained":100.0,"state":"TX","state_wfigs":"US-TX","county":"Motley","discovery_time_utc":"2024-02-26T17:33:13Z","perimeter_time_utc":null,"perimeter_edit_time_utc":"2024-11-13T15:43:26Z","incident_modified_time_utc":"2024-04-01T15:40:58Z","containment_time_utc":"2024-02-26T21:22:21Z","control_time_utc":null,"fire_out_time_utc":null,"fire_cause":"Human","fire_cause_general":"Equipment and vehicle use","map_method":"Mixed Methods","source_dataset":"2024 NIFS","unique_fire_identifier":"2024-TXTXS-240312","irwin_id":"{FA8789A5-3B60-4F1A-B927-682624721A30}","global_id":"003d2f2d-33c0-4c3f-9e7e-176db93fd0fa"}},{"type":"Feature","geometry":{"type":"Polygon","coordinates":[[[-101.31528,32.29453],[-101.31587,32.29351],[-101.32014,32.29269],[-101.32009,32.29297],[-101.31946,32.2932],[-101.31958,32.2935],[-101.31997,32.29371],[-101.32006,32.29427],[-101.31987,32.29504],[-101.31953,32.2952],[-101.31938,32.29547],[-101.31944,32.29573],[-101.32006,32.29617],[-101.32003,32.2964],[-101.31979,32.29663],[-101.31987,32.29728],[-101.31971,32.29768],[-101.31993,32.29862],[-101.3188,32.29941],[-101.31852,32.29914],[-101.31826,32.29858],[-101.31785,32.2987],[-101.31778,32.29853],[-101.31754,32.2985],[-101.31727,32.29878],[-101.31725,32.2995],[-101.31702,32.29974],[-101.31687,32.29934],[-101.3165,32.2992],[-101.31619,32.29939],[-101.3146,32.29943],[-101.31447,32.29901],[-101.31471,32.29846],[-101.31453,32.29743],[-101.31477,32.29636],[-101.3147,32.29605],[-101.31518,32.29514],[-101.31528,32.29453]]]},"properties":{"fire_id":"ufid:2024-TXTXS-240620","source_collection":"history-2024","source_objectid":24740,"incident_name":"Coahoma Tracks","mapped_acres":75.3204218911216,"mapped_acres_source":"poly_GISAcres","gis_acres":75.3204218911216,"auto_acres":75.3204208061929,"reported_acres":76.0,"percent_contained":100.0,"state":"TX","state_wfigs":"US-TX","county":"Howard","discovery_time_utc":"2024-03-11T22:00:01Z","perimeter_time_utc":null,"perimeter_edit_time_utc":"2024-03-12T14:24:35Z","incident_modified_time_utc":"2024-03-12T17:34:17Z","containment_time_utc":"2024-03-12T17:33:59Z","control_time_utc":null,"fire_out_time_utc":null,"fire_cause":"Human","fire_cause_general":"Railroad operations and maintenance","map_method":"Mixed Methods","source_dataset":"2024 NIFS","unique_fire_identifier":"2024-TXTXS-240620","irwin_id":"{A4382917-F720-4E4D-8255-3746C0F531CD}","global_id":"2c820ca8-0829-45ab-9127-5aa5e2e8cf88"}},{"type":"Feature","geometry":{"type":"MultiPolygon","coordinates":[[[[-101.91601,30.88391],[-101.91623,30.88403],[-101.91635,30.88484],[-101.9158,30.88493],[-101.91575,30.88457],[-101.91558,30.88452],[-101.91601,30.88391]]],[[[-101.91558,30.88452],[-101.91549,30.88466],[-101.91557,30.88452],[-101.91558,30.88452]]]]},"properties":{"fire_id":"ufid:2024-TXTXS-241080","source_collection":"history-2024","source_objectid":25290,"incident_name":"YGP","mapped_acres":1.3545059016063,"mapped_acres_source":"poly_GISAcres","gis_acres":1.3545059016063,"auto_acres":1.35450544344756,"reported_acres":1.4,"percent_contained":100.0,"state":"TX","state_wfigs":"US-TX","county":"Pecos","discovery_time_utc":"2024-04-01T22:07:17Z","perimeter_time_utc":null,"perimeter_edit_time_utc":"2024-04-08T00:02:17Z","incident_modified_time_utc":"2024-08-21T22:22:46Z","containment_time_utc":"2024-04-02T01:41:33Z","control_time_utc":"2024-04-06T01:00:00Z","fire_out_time_utc":null,"fire_cause":"Human","fire_cause_general":"Other causes","map_method":"Mixed Methods","source_dataset":"2024 NIFS","unique_fire_identifier":"2024-TXTXS-241080","irwin_id":"{4038BAB3-2913-458B-B002-22DF3A370CA2}","global_id":"3903fb7d-5649-48cf-bd3d-a55dd07fe847"}},{"type":"Feature","geometry":{"type":"MultiPolygon","coordinates":[[[[-101.489631,32.25043],[-101.49073,32.25033],[-101.49043,32.25039],[-101.48993,32.25075],[-101.48965,32.25064],[-101.48974,32.25053],[-101.489631,32.25043]]],[[[-101.489631,32.25043],[-101.48941,32.25045],[-101.48962,32.25042],[-101.489631,32.25043]]]]},"properties":{"fire_id":"ufid:2024-TXTXS-241157","source_collection":"history-2024","source_objectid":25292,"incident_name":"Beals Creek","mapped_acres":0.635012574865916,"mapped_acres_source":"poly_GISAcres","gis_acres":0.635012574865916,"auto_acres":0.635009245123171,"reported_acres":1.0,"percent_contained":100.0,"state":"TX","state_wfigs":"US-TX","county":"Howard","discovery_time_utc":"2024-04-05T16:30:39Z","perimeter_time_utc":null,"perimeter_edit_time_utc":"2024-04-08T00:01:11Z","incident_modified_time_utc":"2024-09-23T21:43:47Z","containment_time_utc":"2024-04-06T15:35:52Z","control_time_utc":"2024-04-08T23:48:20Z","fire_out_time_utc":null,"fire_cause":"Human","fire_cause_general":"Railroad operations and maintenance","map_method":"Mixed Methods","source_dataset":"2024 NIFS","unique_fire_identifier":"2024-TXTXS-241157","irwin_id":"{83C30A4A-5022-4BF6-8938-1B7B3B7FBEC6}","global_id":"6edfeb1e-5ee2-4b32-a961-48f08e0cc7d1"}},{"type":"Feature","geometry":{"type":"Polygon","coordinates":[[[-101.54212,34.37547],[-101.54226,34.37523],[-101.54214,34.3751],[-101.54216,34.37452],[-101.54191,34.37424],[-101.54192,34.3731],[-101.54264,34.3698],[-101.54352,34.36879],[-101.54417,34.36862],[-101.54493,34.36936],[-101.54556,34.3713],[-101.54588,34.37548],[-101.54493,34.37549],[-101.545,34.37488],[-101.54407,34.37445],[-101.54388,34.37452],[-101.54375,34.37486],[-101.54349,34.37503],[-101.54304,34.37495],[-101.54266,34.37553],[-101.54212,34.37547]]]},"properties":{"fire_id":"ufid:2024-TXTXS-241161","source_collection":"history-2024","source_objectid":26666,"incident_name":"Foster Gin","mapped_acres":50.060219196649,"mapped_acres_source":"poly_GISAcres","gis_acres":50.060219196649,"auto_acres":50.0602376074786,"reported_acres":50.0,"percent_contained":100.0,"state":"TX","state_wfigs":"US-TX","county":"Swisher","discovery_time_utc":"2024-04-05T19:28:56Z","perimeter_time_utc":null,"perimeter_edit_time_utc":"2024-05-21T20:23:03Z","incident_modified_time_utc":"2024-06-01T14:46:25Z","containment_time_utc":"2024-04-05T21:13:18Z","control_time_utc":null,"fire_out_time_utc":null,"fire_cause":"Human","fire_cause_general":"Power generation/transmission/distribution","map_method":"Mixed Methods","source_dataset":"2024 NIFS","unique_fire_identifier":"2024-TXTXS-241161","irwin_id":"{0BD342DC-9C89-4A80-A538-BBBC42888DD2}","global_id":"95c34c8a-d857-46e8-abb9-d3015940a70e"}},{"type":"Feature","geometry":{"type":"MultiPolygon","coordinates":[[[[-101.44055,34.55498],[-101.4402,34.55476],[-101.44067,34.55435],[-101.44065,34.55422],[-101.44102,34.55376],[-101.44095,34.55366],[-101.44168,34.55333],[-101.44191,34.55351],[-101.44169,34.55474],[-101.44124,34.55498],[-101.44055,34.55498]]],[[[-101.44052,34.55268],[-101.44159,34.55259],[-101.44098,34.55319],[-101.44095,34.5535],[-101.44079,34.55354],[-101.44048,34.55313],[-101.44052,34.55268]]]]},"properties":{"fire_id":"ufid:2024-TXTXS-241578","source_collection":"history-2024","source_objectid":26668,"incident_name":"McKenzie","mapped_acres":5.68688568858475,"mapped_acres_source":"poly_GISAcres","gis_acres":5.68688568858475,"auto_acres":5.68688780010232,"reported_acres":4.0,"percent_contained":100.0,"state":"TX","state_wfigs":"US-TX","county":"Briscoe","discovery_time_utc":"2024-05-20T22:34:30Z","perimeter_time_utc":"2024-05-21T03:34:30Z","perimeter_edit_time_utc":"2024-05-21T20:23:03Z","incident_modified_time_utc":"2024-08-07T19:48:36Z","containment_time_utc":"2024-05-21T21:46:24Z","control_time_utc":null,"fire_out_time_utc":null,"fire_cause":"Undetermined","fire_cause_general":"Undetermined (remarks required)","map_method":"Mixed Methods","source_dataset":"2024 NIFS","unique_fire_identifier":"2024-TXTXS-241578","irwin_id":"{FD86D2C1-A8C9-4243-B2BF-A60654BB9247}","global_id":"7ecb58f8-9875-419c-8699-84acc3a09c0f"}},{"type":"Feature","geometry":{"type":"Polygon","coordinates":[[[-103.74083,30.32393],[-103.74187,30.32378],[-103.74263,30.32345],[-103.74271,30.32356],[-103.74278,30.32414],[-103.74269,30.32434],[-103.74253,30.32437],[-103.7427,30.32464],[-103.74256,30.32534],[-103.74311,30.32623],[-103.74303,30.32629],[-103.74321,30.32647],[-103.74325,30.32682],[-103.74317,30.32715],[-103.74292,30.32697],[-103.74295,30.32677],[-103.74282,30.32681],[-103.74271,30.32709],[-103.74286,30.32734],[-103.74274,30.32756],[-103.74283,30.32775],[-103.7427,30.32783],[-103.74279,30.32802],[-103.74251,30.32813],[-103.74249,30.32781],[-103.7424,30.32793],[-103.74229,30.32785],[-103.74232,30.32806],[-103.74215,30.32803],[-103.74217,30.32782],[-103.74242,30.32777],[-103.74247,30.32759],[-103.74234,30.32754],[-103.7426,30.32734],[-103.74262,30.32703],[-103.74234,30.32686],[-103.7422,30.32693],[-103.74229,30.32705],[-103.7422,30.32722],[-103.74145,30.32677],[-103.74201,30.3266],[-103.7421,30.32641],[-103.74195,30.32631],[-103.74206,30.32618],[-103.74175,30.32601],[-103.74161,30.32607],[-103.74167,30.3259],[-103.7413,30.32584],[-103.74127,30.32562],[-103.74149,30.32543],[-103.74135,30.32536],[-103.74089,30.32545],[-103.74075,30.3256],[-103.74089,30.32651],[-103.74045,30.32649],[-103.74048,30.32673],[-103.74034,30.32697],[-103.74023,30.32699],[-103.74016,30.32649],[-103.73984,30.32647],[-103.73974,30.32693],[-103.73954,30.32711],[-103.73871,30.32682],[-103.73843,30.32694],[-103.73798,30.32681],[-103.73777,30.32699],[-103.73741,30.32698],[-103.73705,30.32715],[-103.73711,30.32738],[-103.73687,30.32788],[-103.73657,30.32793],[-103.73687,30.32731],[-103.73665,30.32716],[-103.73635,30.32752],[-103.73565,30.32777],[-103.7378,30.3259],[-103.74083,30.32393]]]},"properties":{"fire_id":"ufid:2024-TXTXS-241491","source_collection":"history-2024","source_objectid":26674,"incident_name":"Roadside Park","mapped_acres":33.3916554731292,"mapped_acres_source":"poly_GISAcres","gis_acres":33.3916554731292,"auto_acres":33.3916684030106,"reported_acres":34.0,"percent_contained":100.0,"state":"TX","state_wfigs":"US-TX","county":"Brewster","discovery_time_utc":"2024-04-27T18:49:46Z","perimeter_time_utc":null,"perimeter_edit_time_utc":"2024-05-21T20:38:37Z","incident_modified_time_utc":"2024-09-09T22:54:05Z","containment_time_utc":"2024-04-29T01:38:00Z","control_time_utc":null,"fire_out_time_utc":null,"fire_cause":"Human","fire_cause_general":"Arson","map_method":"Mixed Methods","source_dataset":"2024 NIFS","unique_fire_identifier":"2024-TXTXS-241491","irwin_id":"{78167340-798F-4987-97A7-121820D94E0E}","global_id":"37c4169c-e3a3-44db-8883-c7df8e2bf9d3"}},{"type":"Feature","geometry":{"type":"Polygon","coordinates":[[[-100.35313,31.46423],[-100.35312,31.46402],[-100.35337,31.46359],[-100.35372,31.4638],[-100.35375,31.46408],[-100.35396,31.46429],[-100.35346,31.46434],[-100.35341,31.46423],[-100.35313,31.46423]]]},"properties":{"fire_id":"ufid:2024-TXTXS-241855","source_collection":"history-2024","source_objectid":29897,"incident_name":"Hartman","mapped_acres":0.9417666574921766,"mapped_acres_source":"poly_GISAcres","gis_acres":0.9417666574921766,"auto_acres":0.9417670305919353,"reported_acres":1.0,"percent_contained":100.0,"state":"TX","state_wfigs":"US-TX","county":"Tom Green","discovery_time_utc":"2024-07-03T22:52:03Z","perimeter_time_utc":"2024-07-04T03:52:03Z","perimeter_edit_time_utc":"2024-07-23T20:51:16Z","incident_modified_time_utc":"2024-09-23T21:50:13Z","containment_time_utc":"2024-07-04T17:20:03Z","control_time_utc":"2024-07-09T00:25:17Z","fire_out_time_utc":null,"fire_cause":"Human","fire_cause_general":"Fireworks","map_method":"Mixed Methods","source_dataset":"2024 NIFS","unique_fire_identifier":"2024-TXTXS-241855","irwin_id":"{E973A45B-54DB-432C-9590-615296F146ED}","global_id":"78448df2-cbcc-46ce-9d67-92f62327f770"}},{"type":"Feature","geometry":{"type":"MultiPolygon","coordinates":[[[[-100.14234,32.30759],[-100.142388,32.307549],[-100.14244,32.30781],[-100.14234,32.30759]]],[[[-100.146,32.31154],[-100.14663,32.31218],[-100.14651,32.31244],[-100.14615,32.31255],[-100.14618,32.31284],[-100.14599,32.31292],[-100.14532,32.31273],[-100.1447,32.31207],[-100.14421,32.31237],[-100.14346,32.31247],[-100.14359,32.312],[-100.1435,32.31142],[-100.14301,32.31103],[-100.14258,32.31114],[-100.14192,32.3108],[-100.14137,32.30931],[-100.14203,32.30907],[-100.14217,32.30836],[-100.14237,32.3082],[-100.14235,32.30895],[-100.14257,32.30899],[-100.14296,32.30868],[-100.14308,32.3083],[-100.14348,32.30804],[-100.14326,32.30758],[-100.1431,32.30779],[-100.14254,32.30742],[-100.142388,32.307549],[-100.14232,32.30721],[-100.14206,32.30695],[-100.14226,32.30655],[-100.14178,32.30619],[-100.14193,32.30608],[-100.14223,32.30616],[-100.14251,32.30588],[-100.14244,32.30567],[-100.14317,32.30541],[-100.14326,32.30499],[-100.14385,32.30436],[-100.14433,32.30431],[-100.14443,32.30442],[-100.14472,32.30512],[-100.14456,32.30583],[-100.1448,32.30627],[-100.14503,32.30632],[-100.14531,32.30665],[-100.14544,32.30646],[-100.14557,32.30654],[-100.14526,32.30725],[-100.14587,32.30714],[-100.14633,32.308],[-100.14673,32.30812],[-100.14725,32.31015],[-100.14716,32.31066],[-100.14592,32.3113],[-100.146,32.31154]]],[[[-100.14729,32.31139],[-100.14715,32.31112],[-100.14739,32.31111],[-100.14745,32.31134],[-100.14729,32.31139]]],[[[-100.14636,32.31153],[-100.14626,32.31136],[-100.14642,32.31128],[-100.14646,32.31148],[-100.14636,32.31153]]]]},"properties":{"fire_id":"ufid:2024-TXTXS-242029","source_collection":"history-2024","source_objectid":30719,"incident_name":"Fowler","mapped_acres":72.28841470465208,"mapped_acres_source":"poly_GISAcres","gis_acres":72.28841470465208,"auto_acres":72.28815409696776,"reported_acres":72.0,"percent_contained":100.0,"state":"TX","state_wfigs":"US-TX","county":"Taylor","discovery_time_utc":"2024-07-30T19:31:05Z","perimeter_time_utc":null,"perimeter_edit_time_utc":"2024-08-08T15:42:52Z","incident_modified_time_utc":"2024-08-18T17:12:57Z","containment_time_utc":"2024-08-02T20:40:02Z","control_time_utc":null,"fire_out_time_utc":null,"fire_cause":"Human","fire_cause_general":"Power generation/transmission/distribution","map_method":"Mixed Methods","source_dataset":"2024 NIFS","unique_fire_identifier":"2024-TXTXS-242029","irwin_id":"{BA9E5532-8682-4F93-AA70-59CA0B347A31}","global_id":"a11d0bbe-b5d7-4c70-91a0-13b82dcc9870"}},{"type":"Feature","geometry":{"type":"Polygon","coordinates":[[[-100.54383,34.0649],[-100.54316,34.06451],[-100.54269,34.06466],[-100.54222,34.06422],[-100.54252,34.06416],[-100.54285,34.06373],[-100.54338,34.06357],[-100.54473,34.06279],[-100.54507,34.0629],[-100.54548,34.06337],[-100.54591,34.06336],[-100.54605,34.06312],[-100.54639,34.06314],[-100.54692,34.06369],[-100.54702,34.06414],[-100.54723,34.06423],[-100.54757,34.06408],[-100.54778,34.06428],[-100.54772,34.06535],[-100.54727,34.0652],[-100.54666,34.06551],[-100.54616,34.06545],[-100.54603,34.06561],[-100.54591,34.06554],[-100.54584,34.06505],[-100.54594,34.06481],[-100.54581,34.06433],[-100.54554,34.06442],[-100.54542,34.06508],[-100.54496,34.06522],[-100.54445,34.06506],[-100.54437,34.06452],[-100.54383,34.0649]]]},"properties":{"fire_id":"ufid:2024-TXTXS-242221","source_collection":"history-2024","source_objectid":31223,"incident_name":"Cow Hollar","mapped_acres":20.802704520167875,"mapped_acres_source":"poly_GISAcres","gis_acres":20.802704520167875,"auto_acres":20.802712343571322,"reported_acres":21.0,"percent_contained":100.0,"state":"TX","state_wfigs":"US-TX","county":"Motley","discovery_time_utc":"2024-08-17T22:29:25Z","perimeter_time_utc":null,"perimeter_edit_time_utc":"2024-08-20T20:56:38Z","incident_modified_time_utc":"2024-08-30T00:20:02Z","containment_time_utc":"2024-08-18T20:50:00Z","control_time_utc":"2024-08-21T21:40:59Z","fire_out_time_utc":null,"fire_cause":"Natural","fire_cause_general":"Natural","map_method":"Mixed Methods","source_dataset":"2024 NIFS","unique_fire_identifier":"2024-TXTXS-242221","irwin_id":"{44DDFD1D-C66F-47BA-862A-8A800752D5DB}","global_id":"66221af3-b27a-422c-ace6-24e6d0564775"}},{"type":"Feature","geometry":{"type":"Polygon","coordinates":[[[-100.51597,33.43358],[-100.51531,33.43306],[-100.51464,33.43226],[-100.51482,33.43172],[-100.51437,33.43108],[-100.5146,33.43065],[-100.51435,33.4303],[-100.51403,33.43015],[-100.51434,33.42968],[-100.51368,33.42931],[-100.51347,33.42913],[-100.51346,33.42883],[-100.51262,33.42821],[-100.51264,33.42795],[-100.51295,33.42748],[-100.51265,33.42708],[-100.51214,33.42679],[-100.51131,33.42681],[-100.51039,33.42583],[-100.5097,33.42563],[-100.50902,33.42571],[-100.50862,33.42433],[-100.50778,33.42419],[-100.50642,33.42331],[-100.50598,33.4227],[-100.50384,33.42297],[-100.50161,33.42533],[-100.50052,33.42602],[-100.50005,33.42576],[-100.49933,33.42497],[-100.49864,33.42518],[-100.49725,33.42513],[-100.49723,33.42401],[-100.49767,33.42266],[-100.49844,33.42146],[-100.49826,33.421],[-100.49878,33.42068],[-100.49857,33.42015],[-100.49888,33.41888],[-100.49609,33.41723],[-100.49548,33.41645],[-100.49452,33.41586],[-100.49416,33.41529],[-100.49394,33.41398],[-100.4936,33.41335],[-100.49367,33.41296],[-100.49254,33.4122],[-100.49267,33.41048],[-100.49415,33.40975],[-100.49509,33.4097],[-100.49638,33.4089],[-100.49873,33.40896],[-100.49953,33.40888],[-100.49982,33.40861],[-100.49995,33.40885],[-100.50026,33.40901],[-100.50054,33.40861],[-100.50141,33.40809],[-100.50151,33.4079],[-100.50109,33.40735],[-100.50132,33.40702],[-100.50139,33.40616],[-100.50127,33.40582],[-100.50138,33.40572],[-100.50216,33.4053],[-100.50235,33.4054],[-100.50299,33.40531],[-100.50314,33.40467],[-100.50422,33.4041],[-100.50533,33.40412],[-100.50542,33.40481],[-100.50586,33.40458],[-100.50581,33.40442],[-100.50619,33.40387],[-100.50657,33.40385],[-100.50657,33.40337],[-100.50743,33.40375],[-100.50758,33.4037],[-100.5081,33.40425],[-100.5086,33.40451],[-100.50893,33.40502],[-100.50836,33.40515],[-100.50838,33.4054],[-100.50816,33.40575],[-100.50827,33.40585],[-100.50888,33.40552],[-100.50912,33.40603],[-100.50934,33.40612],[-100.50931,33.40624],[-100.50946,33.40635],[-100.51038,33.40576],[-100.51117,33.40646],[-100.5112,33.40683],[-100.51177,33.40704],[-100.5126,33.40622],[-100.51262,33.40595],[-100.51349,33.40561],[-100.51416,33.40568],[-100.51432,33.40584],[-100.51471,33.40582],[-100.51525,33.40611],[-100.51541,33.40637],[-100.51541,33.40675],[-100.515,33.40721],[-100.51444,33.4072],[-100.51417,33.40664],[-100.51395,33.40652],[-100.5134,33.40755],[-100.51377,33.40782],[-100.51393,33.4088],[-100.5147,33.40948],[-100.51541,33.40987],[-100.51551,33.41043],[-100.51604,33.41029],[-100.51619,33.41009],[-100.51644,33.41023],[-100.51694,33.40997],[-100.51699,33.41041],[-100.51729,33.41067],[-100.51764,33.41074],[-100.51778,33.41108],[-100.51841,33.41172],[-100.51849,33.41218],[-100.51832,33.41245],[-100.51833,33.4127],[-100.51902,33.41235],[-100.51951,33.41249],[-100.51948,33.41263],[-100.52033,33.41295],[-100.52066,33.41331],[-100.5218,33.41395],[-100.52234,33.41438],[-100.52276,33.41492],[-100.52374,33.41564],[-100.5244,33.41666],[-100.52482,33.417],[-100.52488,33.41762],[-100.52462,33.41772],[-100.52393,33.41764],[-100.52372,33.41806],[-100.52503,33.41863],[-100.52594,33.41942],[-100.52666,33.42013],[-100.527,33.4208],[-100.52762,33.42145],[-100.52766,33.42199],[-100.52742,33.42279],[-100.52759,33.42266],[-100.52713,33.42421],[-100.52728,33.4255],[-100.52756,33.42617],[-100.52811,33.42679],[-100.52834,33.42788],[-100.52896,33.42926],[-100.52875,33.42986],[-100.52833,33.4299],[-100.52804,33.43047],[-100.52771,33.43041],[-100.52724,33.43101],[-100.527,33.43112],[-100.5271,33.43133],[-100.52694,33.43166],[-100.52558,33.43185],[-100.52556,33.43208],[-100.52582,33.43214],[-100.52577,33.43221],[-100.52524,33.43216],[-100.52503,33.43229],[-100.52365,33.43238],[-100.52337,33.43229],[-100.52397,33.43231],[-100.52426,33.43207],[-100.52379,33.43204],[-100.52334,33.43173],[-100.52315,33.43151],[-100.52305,33.43092],[-100.52251,33.4308],[-100.52246,33.43061],[-100.52211,33.43044],[-100.52225,33.43006],[-100.52188,33.42967],[-100.52103,33.42952],[-100.52055,33.42966],[-100.52038,33.42945],[-100.51968,33.42929],[-100.51967,33.42952],[-100.51951,33.42953],[-100.51925,33.42942],[-100.5192,33.42918],[-100.51881,33.42903],[-100.5185,33.4292],[-100.51822,33.42962],[-100.51796,33.4293],[-100.51724,33.42945],[-100.5175,33.42969],[-100.51765,33.42956],[-100.51793,33.4296],[-100.51782,33.43013],[-100.51793,33.4304],[-100.51815,33.43052],[-100.51866,33.43049],[-100.51881,33.43072],[-100.51906,33.43053],[-100.51917,33.4307],[-100.51946,33.43071],[-100.51986,33.43036],[-100.5203,33.43074],[-100.52087,33.43083],[-100.52125,33.43109],[-100.52057,33.43117],[-100.51924,33.43093],[-100.5191,33.43141],[-100.51892,33.4315],[-100.51866,33.43131],[-100.51852,33.43173],[-100.51931,33.43216],[-100.521,33.43226],[-100.5215,33.43246],[-100.52143,33.43285],[-100.52111,33.43303],[-100.5211,33.43333],[-100.52132,33.43355],[-100.52111,33.43361],[-100.52115,33.43387],[-100.52231,33.43468],[-100.5227,33.43482],[-100.52254,33.43531],[-100.52311,33.43502],[-100.52324,33.43542],[-100.52239,33.43655],[-100.52226,33.43652],[-100.52232,33.43613],[-100.52223,33.43608],[-100.52108,33.4363],[-100.52086,33.43601],[-100.52076,33.43605],[-100.52073,33.43623],[-100.52119,33.43639],[-100.52145,33.43665],[-100.52188,33.43675],[-100.52191,33.43705],[-100.52179,33.43711],[-100.51925,33.43603],[-100.51782,33.43528],[-100.51757,33.43503],[-100.51769,33.43485],[-100.51713,33.43433],[-100.51741,33.43381],[-100.51719,33.43301],[-100.51691,33.43262],[-100.51633,33.43287],[-100.5163,33.43346],[-100.51597,33.43358]]]},"properties":{"fire_id":"ufid:2024-TXTXS-242210","source_collection":"history-2024","source_objectid":31224,"incident_name":"Dirt Road","mapped_acres":1524.2524409838293,"mapped_acres_source":"poly_GISAcres","gis_acres":1524.2524409838293,"auto_acres":1524.2469223394476,"reported_acres":1525.0,"percent_contained":100.0,"state":"TX","state_wfigs":"US-TX","county":"King","discovery_time_utc":"2024-08-16T19:32:19Z","perimeter_time_utc":null,"perimeter_edit_time_utc":"2024-08-20T21:08:03Z","incident_modified_time_utc":"2024-09-23T21:27:56Z","containment_time_utc":"2024-08-20T20:57:33Z","control_time_utc":"2024-08-23T23:52:15Z","fire_out_time_utc":null,"fire_cause":"Natural","fire_cause_general":"Natural","map_method":"Mixed Methods","source_dataset":"2024 NIFS","unique_fire_identifier":"2024-TXTXS-242210","irwin_id":"{4F32431A-4F6D-4098-827A-E8DBD027BB3E}","global_id":"bdc59538-578b-460b-a5ad-d2d319c6cc6f"}},{"type":"Feature","geometry":{"type":"Polygon","coordinates":[[[-101.45834,34.52306],[-101.45833,34.52338],[-101.45776,34.52338],[-101.45787,34.52315],[-101.45748,34.52308],[-101.45727,34.52327],[-101.45704,34.52259],[-101.45645,34.52198],[-101.45675,34.52157],[-101.45696,34.5216],[-101.45696,34.52141],[-101.45642,34.52141],[-101.45672,34.52121],[-101.45644,34.52119],[-101.45631,34.52097],[-101.4561,34.52108],[-101.45613,34.52079],[-101.45536,34.52078],[-101.4552,34.52068],[-101.45517,34.52051],[-101.4554,34.52052],[-101.4555,34.52011],[-101.45513,34.52013],[-101.45499,34.51997],[-101.45548,34.51971],[-101.45557,34.51951],[-101.45538,34.51941],[-101.4557,34.51915],[-101.45581,34.51885],[-101.45613,34.51879],[-101.45613,34.51855],[-101.45643,34.5183],[-101.45681,34.51826],[-101.45725,34.51857],[-101.4573,34.51876],[-101.45827,34.51971],[-101.45834,34.52058],[-101.45845,34.52083],[-101.45894,34.52113],[-101.459,34.52126],[-101.45888,34.52145],[-101.45945,34.52167],[-101.45939,34.52197],[-101.45922,34.52174],[-101.4589,34.52187],[-101.45917,34.5221],[-101.45908,34.52231],[-101.45923,34.5225],[-101.45918,34.52326],[-101.45904,34.52349],[-101.45865,34.52352],[-101.45894,34.52294],[-101.45878,34.52221],[-101.45853,34.52201],[-101.45822,34.52203],[-101.45796,34.52222],[-101.45798,34.52261],[-101.45834,34.52306]]]},"properties":{"fire_id":"ufid:2024-TXTXS-242223","source_collection":"history-2024","source_objectid":31225,"incident_name":"Rock Creek","mapped_acres":26.955343600168327,"mapped_acres_source":"poly_GISAcres","gis_acres":26.955343600168327,"auto_acres":26.955353520137677,"reported_acres":26.0,"percent_contained":100.0,"state":"TX","state_wfigs":"US-TX","county":"Briscoe","discovery_time_utc":"2024-08-18T01:23:00Z","perimeter_time_utc":null,"perimeter_edit_time_utc":"2024-08-20T20:56:38Z","incident_modified_time_utc":"2024-09-23T21:27:22Z","containment_time_utc":"2024-08-18T22:46:22Z","control_time_utc":"2024-08-21T21:43:39Z","fire_out_time_utc":null,"fire_cause":"Natural","fire_cause_general":"Natural","map_method":"Mixed Methods","source_dataset":"2024 NIFS","unique_fire_identifier":"2024-TXTXS-242223","irwin_id":"{68C62FC4-AF98-464B-8D60-DECBFFB2BAD0}","global_id":"fb71acd5-c2ba-44e9-ac53-a666a5599dbd"}},{"type":"Feature","geometry":{"type":"Polygon","coordinates":[[[-100.52519,33.1084],[-100.52503,33.11031],[-100.52455,33.11043],[-100.52422,33.11017],[-100.52425,33.10993],[-100.52356,33.11015],[-100.52367,33.10903],[-100.52418,33.10871],[-100.52427,33.10835],[-100.52444,33.1084],[-100.52466,33.10826],[-100.52519,33.1084]]]},"properties":{"fire_id":"ufid:2024-TXTXS-242216","source_collection":"history-2024","source_objectid":31229,"incident_name":"Burro 2","mapped_acres":6.743715563426165,"mapped_acres_source":"poly_GISAcres","gis_acres":6.743715563426165,"auto_acres":6.7436911005652345,"reported_acres":7.0,"percent_contained":100.0,"state":"TX","state_wfigs":"US-TX","county":"Kent","discovery_time_utc":"2024-08-16T21:14:10Z","perimeter_time_utc":null,"perimeter_edit_time_utc":"2024-08-20T21:08:03Z","incident_modified_time_utc":"2024-09-03T18:38:02Z","containment_time_utc":"2024-08-16T21:18:00Z","control_time_utc":"2024-08-21T21:40:05Z","fire_out_time_utc":null,"fire_cause":"Undetermined","fire_cause_general":"Undetermined (remarks required)","map_method":"Mixed Methods","source_dataset":"2024 NIFS","unique_fire_identifier":"2024-TXTXS-242216","irwin_id":"{81970A17-A314-4135-90AD-37819F095B9A}","global_id":"b70024c3-7c47-44b8-94bc-0bd5799d10dd"}},{"type":"Feature","geometry":{"type":"MultiPolygon","coordinates":[[[[-100.5941,34.81864],[-100.59422,34.81822],[-100.59408,34.8176],[-100.59457,34.81749],[-100.59457,34.8179],[-100.59484,34.81778],[-100.59517,34.81823],[-100.59568,34.81824],[-100.59612,34.81861],[-100.59579,34.81882],[-100.59445,34.8188],[-100.5941,34.81864]]],[[[-100.59534,34.81892],[-100.59572,34.81891],[-100.59561,34.81926],[-100.59547,34.81925],[-100.59534,34.81892]]]]},"properties":{"fire_id":"ufid:2024-TXTXS-242173","source_collection":"history-2024","source_objectid":31230,"incident_name":"Giles","mapped_acres":3.899918299346378,"mapped_acres_source":"poly_GISAcres","gis_acres":3.899918299346378,"auto_acres":3.8999041125463654,"reported_acres":4.0,"percent_contained":100.0,"state":"TX","state_wfigs":"US-TX","county":"Donley","discovery_time_utc":"2024-08-12T00:00:02Z","perimeter_time_utc":null,"perimeter_edit_time_utc":"2024-08-20T21:08:03Z","incident_modified_time_utc":"2024-08-30T00:32:31Z","containment_time_utc":"2024-08-12T22:55:19Z","control_time_utc":"2024-08-15T22:28:13Z","fire_out_time_utc":null,"fire_cause":"Natural","fire_cause_general":"Natural","map_method":"Mixed Methods","source_dataset":"2024 NIFS","unique_fire_identifier":"2024-TXTXS-242173","irwin_id":"{0B74FDA7-7A03-4982-A627-689339985470}","global_id":"1de65854-5b63-42b0-9b24-4c342b1b9dd1"}},{"type":"Feature","geometry":{"type":"Polygon","coordinates":[[[-100.51304,33.09274],[-100.51222,33.09567],[-100.51261,33.09584],[-100.51241,33.09632],[-100.51256,33.09672],[-100.51217,33.09752],[-100.51189,33.09775],[-100.51102,33.09762],[-100.51067,33.09722],[-100.5103,33.09541],[-100.51034,33.09459],[-100.51049,33.09403],[-100.51128,33.09264],[-100.51304,33.09274]]]},"properties":{"fire_id":"ufid:2024-TXTXS-242207","source_collection":"history-2024","source_objectid":31235,"incident_name":"Burro","mapped_acres":25.30357563378753,"mapped_acres_source":"poly_GISAcres","gis_acres":25.30357563378753,"auto_acres":25.30348412133505,"reported_acres":25.0,"percent_contained":100.0,"state":"TX","state_wfigs":"US-TX","county":"Stonewall","discovery_time_utc":"2024-08-16T17:56:56Z","perimeter_time_utc":null,"perimeter_edit_time_utc":"2024-08-20T21:08:03Z","incident_modified_time_utc":"2024-08-30T00:23:26Z","containment_time_utc":"2024-08-17T02:29:28Z","control_time_utc":"2024-08-21T21:39:47Z","fire_out_time_utc":null,"fire_cause":"Natural","fire_cause_general":"Natural","map_method":"Mixed Methods","source_dataset":"2024 NIFS","unique_fire_identifier":"2024-TXTXS-242207","irwin_id":"{FB78C8CE-B8B4-4D92-915F-DB23CD4DB3EC}","global_id":"69d8d642-99d4-4bb2-b17c-0d3fe8abc5b5"}},{"type":"Feature","geometry":{"type":"MultiPolygon","coordinates":[[[[-100.98556,34.07071],[-100.98636,34.07005],[-100.9865,34.06948],[-100.98702,34.06879],[-100.98746,34.06884],[-100.98773,34.06912],[-100.98807,34.06923],[-100.98805,34.06955],[-100.98771,34.06977],[-100.98751,34.07063],[-100.98693,34.07078],[-100.9871,34.07111],[-100.98684,34.07134],[-100.98681,34.07161],[-100.98535,34.07246],[-100.98503,34.07233],[-100.98498,34.0721],[-100.98517,34.0713],[-100.98556,34.07071]]],[[[-100.98831,34.06871],[-100.98875,34.06854],[-100.98893,34.06876],[-100.98857,34.06904],[-100.98831,34.06871]]],[[[-100.97733,34.07769],[-100.97764,34.07684],[-100.9779,34.07693],[-100.97803,34.07678],[-100.97869,34.07712],[-100.97819,34.07771],[-100.97759,34.07798],[-100.97733,34.07769]]]]},"properties":{"fire_id":"ufid:2024-TXTXS-242203","source_collection":"history-2024","source_objectid":31236,"incident_name":"River Pasture","mapped_acres":15.441386956530708,"mapped_acres_source":"poly_GISAcres","gis_acres":15.441386956530708,"auto_acres":15.441330980525708,"reported_acres":16.0,"percent_contained":100.0,"state":"TX","state_wfigs":"US-TX","county":"Motley","discovery_time_utc":"2024-08-16T02:24:11Z","perimeter_time_utc":null,"perimeter_edit_time_utc":"2024-08-20T21:08:03Z","incident_modified_time_utc":"2024-12-15T14:41:28Z","containment_time_utc":"2024-08-17T16:35:20Z","control_time_utc":"2024-08-19T23:20:58Z","fire_out_time_utc":null,"fire_cause":"Natural","fire_cause_general":"Natural","map_method":"Mixed Methods","source_dataset":"2024 NIFS","unique_fire_identifier":"2024-TXTXS-242203","irwin_id":"{89AAFD5D-405C-4697-9FBA-9577B7C9F4CF}","global_id":"7c49cab7-75d5-4e30-803f-a0b679003d68"}},{"type":"Feature","geometry":{"type":"MultiPolygon","coordinates":[[[[-100.50901,34.14036],[-100.50905,34.14038],[-100.50904,34.14038],[-100.50901,34.14036]]],[[[-100.50956,34.14066],[-100.50944,34.14113],[-100.50968,34.14164],[-100.50915,34.14222],[-100.50866,34.14245],[-100.50822,34.14334],[-100.50765,34.14368],[-100.50734,34.1444],[-100.50736,34.14475],[-100.50761,34.14504],[-100.50787,34.14581],[-100.50749,34.14712],[-100.50748,34.14784],[-100.50795,34.14822],[-100.50854,34.14819],[-100.50868,34.14851],[-100.50944,34.14875],[-100.50958,34.1489],[-100.50955,34.14909],[-100.50993,34.14936],[-100.50995,34.14951],[-100.51055,34.14934],[-100.51192,34.14929],[-100.51215,34.14954],[-100.51286,34.14984],[-100.51318,34.15046],[-100.51313,34.15056],[-100.51338,34.1506],[-100.51326,34.15113],[-100.51286,34.15146],[-100.51328,34.15158],[-100.51318,34.1518],[-100.51362,34.15208],[-100.51361,34.15244],[-100.51379,34.15257],[-100.51379,34.15284],[-100.51305,34.15361],[-100.51303,34.15401],[-100.51288,34.15422],[-100.51293,34.15452],[-100.51424,34.15521],[-100.5147,34.15571],[-100.51516,34.15596],[-100.51532,34.15625],[-100.51177,34.15553],[-100.51199,34.15589],[-100.51289,34.15639],[-100.51296,34.15656],[-100.51325,34.15659],[-100.51365,34.157],[-100.5143,34.15736],[-100.51458,34.15771],[-100.51516,34.15801],[-100.51537,34.15799],[-100.51599,34.15888],[-100.51576,34.15905],[-100.51565,34.15947],[-100.51575,34.15977],[-100.51558,34.1605],[-100.51667,34.16114],[-100.51626,34.16168],[-100.51627,34.1626],[-100.51649,34.16272],[-100.51646,34.16288],[-100.5166,34.16303],[-100.51715,34.16291],[-100.51728,34.16312],[-100.51701,34.16352],[-100.51587,34.16372],[-100.51496,34.16335],[-100.51342,34.1612],[-100.51314,34.16098],[-100.51289,34.16013],[-100.51227,34.15941],[-100.511,34.15872],[-100.51026,34.15848],[-100.50995,34.15888],[-100.50974,34.1589],[-100.5091,34.15858],[-100.50913,34.15825],[-100.508,34.15773],[-100.50634,34.15764],[-100.50538,34.15791],[-100.50457,34.15842],[-100.50353,34.15968],[-100.50315,34.15983],[-100.50239,34.15942],[-100.50209,34.15878],[-100.50169,34.1585],[-100.50184,34.15807],[-100.50163,34.15743],[-100.50238,34.1557],[-100.50141,34.15514],[-100.50054,34.15508],[-100.49959,34.15527],[-100.49754,34.15511],[-100.49709,34.15525],[-100.49654,34.15517],[-100.49588,34.1553],[-100.49537,34.15516],[-100.49507,34.15543],[-100.49473,34.15546],[-100.48995,34.15447],[-100.48895,34.15387],[-100.48812,34.15289],[-100.48454,34.15211],[-100.48421,34.14981],[-100.48385,34.1495],[-100.48356,34.14827],[-100.48325,34.14785],[-100.48294,34.147],[-100.48295,34.14634],[-100.48338,34.14575],[-100.48414,34.14518],[-100.48429,34.14453],[-100.48399,34.14435],[-100.48368,34.14442],[-100.48329,34.14399],[-100.48328,34.1435],[-100.48306,34.1434],[-100.48313,34.14321],[-100.48295,34.14309],[-100.48266,34.14241],[-100.48293,34.14158],[-100.48267,34.14128],[-100.48278,34.14113],[-100.48249,34.14121],[-100.48265,34.14075],[-100.48228,34.14054],[-100.48201,34.13994],[-100.4821,34.1397],[-100.48292,34.13961],[-100.48294,34.13924],[-100.48313,34.13914],[-100.483,34.13881],[-100.48333,34.13848],[-100.48326,34.13829],[-100.48395,34.13773],[-100.48442,34.13759],[-100.4847,34.13699],[-100.48479,34.13593],[-100.48519,34.13506],[-100.48516,34.13481],[-100.48453,34.13469],[-100.48447,34.13353],[-100.48404,34.13292],[-100.48393,34.1316],[-100.48418,34.13116],[-100.48391,34.13078],[-100.48402,34.13067],[-100.4844,34.13069],[-100.48426,34.13009],[-100.48449,34.1299],[-100.48342,34.12983],[-100.48298,34.12993],[-100.48239,34.12979],[-100.47694,34.1296],[-100.4762,34.12923],[-100.47734,34.12832],[-100.48084,34.12757],[-100.48277,34.12659],[-100.48493,34.12723],[-100.48557,34.12717],[-100.48851,34.1285],[-100.491,34.12786],[-100.49211,34.1279],[-100.49415,34.1272],[-100.49511,34.12734],[-100.49576,34.12714],[-100.49706,34.12753],[-100.49758,34.12739],[-100.4976,34.12827],[-100.49786,34.1285],[-100.49788,34.12883],[-100.49908,34.12973],[-100.50049,34.12962],[-100.50177,34.12995],[-100.50217,34.12975],[-100.5029,34.12988],[-100.50379,34.12964],[-100.50369,34.13017],[-100.50212,34.13047],[-100.49668,34.13028],[-100.49644,34.13029],[-100.49644,34.13044],[-100.49743,34.13055],[-100.49786,34.13085],[-100.49815,34.1307],[-100.4985,34.13097],[-100.49906,34.13087],[-100.50055,34.13145],[-100.50106,34.132],[-100.50168,34.13232],[-100.50184,34.13272],[-100.50252,34.13306],[-100.50263,34.13382],[-100.5035,34.13471],[-100.50363,34.13534],[-100.50382,34.1356],[-100.50412,34.13552],[-100.50505,34.13599],[-100.50554,34.13584],[-100.50591,34.13591],[-100.50666,34.13647],[-100.50699,34.13644],[-100.50759,34.13752],[-100.50784,34.13823],[-100.50783,34.13855],[-100.50825,34.13912],[-100.50825,34.13942],[-100.50873,34.1393],[-100.50868,34.13922],[-100.50893,34.1396],[-100.50902,34.13988],[-100.50881,34.14024],[-100.50904,34.14038],[-100.50956,34.14066]]]]},"properties":{"fire_id":"ufid:2024-TXTXS-242044","source_collection":"history-2024","source_objectid":31247,"incident_name":"West AER Motor","mapped_acres":1760.6285550847956,"mapped_acres_source":"poly_GISAcres","gis_acres":1760.6285550847956,"auto_acres":1760.6221733892073,"reported_acres":1760.0,"percent_contained":100.0,"state":"TX","state_wfigs":"US-TX","county":"Cottle","discovery_time_utc":"2024-07-31T22:04:40Z","perimeter_time_utc":null,"perimeter_edit_time_utc":"2024-08-20T21:33:03Z","incident_modified_time_utc":"2024-08-20T17:39:00Z","containment_time_utc":"2024-08-02T23:53:46Z","control_time_utc":null,"fire_out_time_utc":null,"fire_cause":"Human","fire_cause_general":"Debris and open burning","map_method":"Mixed Methods","source_dataset":"2024 NIFS","unique_fire_identifier":"2024-TXTXS-242044","irwin_id":"{1793CE4A-D4AD-4620-B568-061B64C3806E}","global_id":"f840df62-9551-4d6e-8660-fecb9c0641d1"}},{"type":"Feature","geometry":{"type":"Polygon","coordinates":[[[-101.79589,33.55739],[-101.79416,33.55687],[-101.79399,33.55662],[-101.79432,33.55632],[-101.79485,33.55626],[-101.79481,33.5559],[-101.79583,33.55593],[-101.7957,33.55641],[-101.79622,33.55672],[-101.79587,33.55698],[-101.79589,33.55739]]]},"properties":{"fire_id":"ufid:2024-TXTXS-242263","source_collection":"history-2024","source_objectid":31345,"incident_name":"Yellow House RIver","mapped_acres":4.75120650625766,"mapped_acres_source":"poly_GISAcres","gis_acres":4.75120650625766,"auto_acres":4.751208249076059,"reported_acres":5.0,"percent_contained":100.0,"state":"TX","state_wfigs":"US-TX","county":"Lubbock","discovery_time_utc":"2024-08-21T21:15:58Z","perimeter_time_utc":null,"perimeter_edit_time_utc":"2024-08-22T21:21:30Z","incident_modified_time_utc":"2025-01-31T19:55:26Z","containment_time_utc":"2024-08-22T00:44:28Z","control_time_utc":"2024-09-25T22:00:00Z","fire_out_time_utc":null,"fire_cause":"Human","fire_cause_general":"Power generation/transmission/distribution","map_method":"Mixed Methods","source_dataset":"2024 NIFS","unique_fire_identifier":"2024-TXTXS-242263","irwin_id":"{AF70EE08-A816-4DEE-8843-AE7F1D8BAB82}","global_id":"8f3d6612-2f9a-4029-8382-9d29beeadacc"}},{"type":"Feature","geometry":{"type":"Polygon","coordinates":[[[-100.17058,34.65238],[-100.15385,34.65239],[-100.15374,34.65224],[-100.15379,34.6488],[-100.15403,34.64873],[-100.15492,34.648],[-100.15529,34.64807],[-100.1556,34.64792],[-100.15749,34.64823],[-100.15745,34.6478],[-100.15766,34.64743],[-100.15807,34.64745],[-100.15887,34.64711],[-100.15951,34.64721],[-100.16,34.64755],[-100.16022,34.64795],[-100.1608,34.64842],[-100.1622,34.64906],[-100.16244,34.64905],[-100.16294,34.64948],[-100.16378,34.64957],[-100.16436,34.64988],[-100.16508,34.64993],[-100.16531,34.64963],[-100.1659,34.64992],[-100.16651,34.64999],[-100.16763,34.65056],[-100.16794,34.65098],[-100.16865,34.65147],[-100.1689,34.65206],[-100.1697,34.65196],[-100.17058,34.65238]]]},"properties":{"fire_id":"ufid:2024-TXTXS-242430","source_collection":"history-2024","source_objectid":32479,"incident_name":"Cloudy Bush","mapped_acres":133.41931218055277,"mapped_acres_source":"poly_GISAcres","gis_acres":133.41931218055277,"auto_acres":133.4193199456531,"reported_acres":134.0,"percent_contained":100.0,"state":"TX","state_wfigs":"US-TX","county":"Childress","discovery_time_utc":"2024-09-05T21:29:13Z","perimeter_time_utc":null,"perimeter_edit_time_utc":"2024-09-18T21:56:47Z","incident_modified_time_utc":"2024-09-23T21:28:30Z","containment_time_utc":"2024-09-06T15:43:58Z","control_time_utc":"2024-09-09T21:54:38Z","fire_out_time_utc":null,"fire_cause":"Human","fire_cause_general":"Equipment and vehicle use","map_method":"Mixed Methods","source_dataset":"2024 NIFS","unique_fire_identifier":"2024-TXTXS-242430","irwin_id":"{18D1FE8F-A107-4FB1-8A74-2F5A8100B878}","global_id":"b78320b2-597c-455b-b8c7-c743137447b0"}},{"type":"Feature","geometry":{"type":"Polygon","coordinates":[[[-101.99028,34.88593],[-101.99028,34.88891],[-101.98846,34.89283],[-101.98808,34.89307],[-101.98752,34.89296],[-101.9864,34.89224],[-101.98624,34.89234],[-101.98622,34.89287],[-101.98504,34.89517],[-101.98442,34.89517],[-101.9845,34.89368],[-101.98414,34.89306],[-101.98455,34.89227],[-101.9844,34.89191],[-101.98536,34.89134],[-101.98521,34.89081],[-101.98694,34.88918],[-101.98699,34.88887],[-101.98753,34.88852],[-101.98892,34.88671],[-101.98934,34.88638],[-101.98955,34.88645],[-101.99028,34.88593]]]},"properties":{"fire_id":"ufid:2024-TXTXS-242870","source_collection":"history-2024","source_objectid":33452,"incident_name":"Hungate","mapped_acres":59.499732737174156,"mapped_acres_source":"poly_GISAcres","gis_acres":59.499732737174156,"auto_acres":59.49952344779265,"reported_acres":59.52,"percent_contained":100.0,"state":"TX","state_wfigs":"US-TX","county":"Randall","discovery_time_utc":"2024-10-14T21:06:09Z","perimeter_time_utc":null,"perimeter_edit_time_utc":"2024-10-15T22:00:06Z","incident_modified_time_utc":"2024-11-03T22:47:57Z","containment_time_utc":"2024-10-14T23:06:43Z","control_time_utc":null,"fire_out_time_utc":null,"fire_cause":"Human","fire_cause_general":"Equipment and vehicle use","map_method":"Mixed Methods","source_dataset":"2024 NIFS","unique_fire_identifier":"2024-TXTXS-242870","irwin_id":"{773140EE-9795-47E9-AC74-B6917B0FDE31}","global_id":"aac4d0c4-6635-4ee4-9de2-e40e15589c07"}},{"type":"Feature","geometry":{"type":"Polygon","coordinates":[[[-100.81636,34.39998],[-100.81613,34.39978],[-100.81621,34.39965],[-100.81646,34.39968],[-100.81657,34.39984],[-100.8165,34.40011],[-100.81683,34.40077],[-100.81671,34.40116],[-100.81622,34.40133],[-100.81577,34.40091],[-100.81566,34.40031],[-100.81624,34.40016],[-100.81636,34.39998]]]},"properties":{"fire_id":"ufid:2024-TXTXS-243218","source_collection":"history-2024","source_objectid":34285,"incident_name":"Opening Weekend","mapped_acres":2.9169041608641035,"mapped_acres_source":"poly_GISAcres","gis_acres":2.9169041608641035,"auto_acres":2.916893572782341,"reported_acres":10.0,"percent_contained":100.0,"state":"TX","state_wfigs":"US-TX","county":"Hall","discovery_time_utc":"2024-11-01T21:36:49Z","perimeter_time_utc":null,"perimeter_edit_time_utc":"2024-11-05T20:40:02Z","incident_modified_time_utc":"2025-02-02T14:55:31Z","containment_time_utc":"2024-11-02T00:40:59Z","control_time_utc":"2024-11-04T00:59:00Z","fire_out_time_utc":"2024-11-04T01:09:01Z","fire_cause":"Human","fire_cause_general":"Other causes","map_method":"Mixed Methods","source_dataset":"2024 NIFS","unique_fire_identifier":"2024-TXTXS-243218","irwin_id":"{762CD80D-0AEE-4DA8-8074-AD054A0306F9}","global_id":"c0ca8633-0b01-4f70-a0e6-b744b22a1743"}}]}
