{"type":"FeatureCollection","features":[{"type":"Feature","geometry":{"type":"Polygon","coordinates":[[[-109.79498,40.50129],[-109.79447,40.50141],[-109.79457,40.50113],[-109.79416,40.50133],[-109.79418,40.50096],[-109.79456,40.50106],[-109.79468,40.50076],[-109.79492,40.5008],[-109.79505,40.50068],[-109.79535,40.5008],[-109.79498,40.50129]]]},"properties":{"fire_id":"ufid:2024-UTUOA-100097","source_collection":"history-2024","source_objectid":29254,"incident_name":"Juniper","mapped_acres":1.095968,"mapped_acres_source":"poly_GISAcres","gis_acres":1.095968,"auto_acres":1.0959639038752735,"reported_acres":1.0,"percent_contained":null,"state":"UT","state_wfigs":"US-UT","county":"Uintah","discovery_time_utc":"2024-06-26T19:58:47Z","perimeter_time_utc":"2024-07-10T21:30:06Z","perimeter_edit_time_utc":"2024-07-10T21:30:07Z","incident_modified_time_utc":"2024-06-28T22:49:17Z","containment_time_utc":"2024-06-26T22:41:00Z","control_time_utc":"2024-06-27T22:28:00Z","fire_out_time_utc":"2024-06-28T22:45:00Z","fire_cause":"Natural","fire_cause_general":"Natural","map_method":"GPS-Walked","source_dataset":"FFP","unique_fire_identifier":"2024-UTUOA-100097","irwin_id":"{91F648F4-71E9-4516-B434-3CD11506301E}","global_id":"ed172d42-b0b2-4007-bff7-f80236326173"}},{"type":"Feature","geometry":{"type":"Polygon","coordinates":[[[-109.58292,40.17159],[-109.57797,40.17798],[-109.57208,40.17685],[-109.5728,40.17422],[-109.57635,40.16842],[-109.58292,40.17159]]]},"properties":{"fire_id":"ufid:2024-UTOWR-100029","source_collection":"history-2024","source_objectid":31848,"incident_name":"Leota","mapped_acres":137.0624,"mapped_acres_source":"poly_GISAcres","gis_acres":137.0624,"auto_acres":137.06197593739722,"reported_acres":137.0,"percent_contained":null,"state":"UT","state_wfigs":"US-UT","county":"Uintah","discovery_time_utc":"2024-04-10T21:49:00Z","perimeter_time_utc":"2024-09-04T21:11:59Z","perimeter_edit_time_utc":"2024-09-04T21:12:00Z","incident_modified_time_utc":"2024-06-26T13:44:26Z","containment_time_utc":"2024-04-11T23:34:00Z","control_time_utc":"2024-04-12T20:17:00Z","fire_out_time_utc":"2024-05-01T18:30:00Z","fire_cause":"Human","fire_cause_general":"Equipment and vehicle use","map_method":"Mixed Methods","source_dataset":"FFP","unique_fire_identifier":"2024-UTOWR-100029","irwin_id":"{AE805459-3193-4A0E-BA2D-F95F6FF59B1E}","global_id":"9e16dd10-2236-4aae-914e-82669934d49b"}},{"type":"Feature","geometry":{"type":"Polygon","coordinates":[[[-109.7093,40.97348],[-109.71013,40.97348],[-109.71018,40.97365],[-109.71008,40.9737],[-109.71049,40.97389],[-109.7104,40.97426],[-109.7103,40.97412],[-109.7101,40.97418],[-109.71005,40.97392],[-109.70859,40.9739],[-109.70842,40.9738],[-109.70887,40.9733],[-109.7093,40.97348]]]},"properties":{"fire_id":"ufid:2024-UTNES-100203","source_collection":"history-2024","source_objectid":32412,"incident_name":"Captains Cove","mapped_acres":1.986341,"mapped_acres_source":"poly_GISAcres","gis_acres":1.986341,"auto_acres":1.9863334512033843,"reported_acres":2.0,"percent_contained":null,"state":"UT","state_wfigs":"US-UT","county":"Daggett","discovery_time_utc":"2024-08-07T23:35:27Z","perimeter_time_utc":"2024-09-18T14:36:17Z","perimeter_edit_time_utc":"2024-09-18T14:36:18Z","incident_modified_time_utc":"2024-08-09T13:46:11Z","containment_time_utc":"2024-08-08T00:20:00Z","control_time_utc":"2024-08-08T20:00:00Z","fire_out_time_utc":"2024-08-08T20:00:00Z","fire_cause":"Human","fire_cause_general":"Recreation and ceremony","map_method":"GPS-Walked","source_dataset":"FFP","unique_fire_identifier":"2024-UTNES-100203","irwin_id":"{C2CA8FDB-B5FE-4FE7-A51E-561068CA1B23}","global_id":"c0d4ab8f-0d5b-4a49-a8a3-121f6f5ce855"}},{"type":"Feature","geometry":{"type":"Polygon","coordinates":[[[-109.44932,40.30982],[-109.4494,40.31004],[-109.44895,40.31],[-109.44849,40.30973],[-109.44836,40.30948],[-109.44856,40.30943],[-109.44932,40.30982]]]},"properties":{"fire_id":"ufid:2024-UTNES-100089","source_collection":"history-2024","source_objectid":32653,"incident_name":"Alahandra Ferry","mapped_acres":0.6721639,"mapped_acres_source":"poly_GISAcres","gis_acres":0.6721639,"auto_acres":0.6721614128410458,"reported_acres":0.67,"percent_contained":null,"state":"UT","state_wfigs":"US-UT","county":"Uintah","discovery_time_utc":"2024-06-23T22:26:00Z","perimeter_time_utc":"2024-09-23T16:56:28Z","perimeter_edit_time_utc":"2024-09-23T16:56:28Z","incident_modified_time_utc":"2024-06-28T21:52:45Z","containment_time_utc":"2024-06-24T01:07:00Z","control_time_utc":"2024-06-24T17:35:00Z","fire_out_time_utc":"2024-06-28T21:50:00Z","fire_cause":"Human","fire_cause_general":"Recreation and ceremony","map_method":"Mixed Methods","source_dataset":"FFP","unique_fire_identifier":"2024-UTNES-100089","irwin_id":"{52AD5822-D439-45FF-BD01-0D2B20D39784}","global_id":"b36c1fb9-25bd-4313-b1d3-7403a176d4c3"}},{"type":"Feature","geometry":{"type":"Polygon","coordinates":[[[-109.79692,40.3033],[-109.79692,40.30288],[-109.79699,40.30303],[-109.7971,40.30299],[-109.7971,40.30332],[-109.79692,40.3033]]]},"properties":{"fire_id":"ufid:2024-UTNES-100115","source_collection":"history-2024","source_objectid":32655,"incident_name":"Lone Pole","mapped_acres":0.1858529,"mapped_acres_source":"poly_GISAcres","gis_acres":0.1858529,"auto_acres":0.18585217292298958,"reported_acres":0.2,"percent_contained":null,"state":"UT","state_wfigs":"US-UT","county":"Uintah","discovery_time_utc":"2024-07-04T16:12:38Z","perimeter_time_utc":"2024-09-23T16:54:18Z","perimeter_edit_time_utc":"2024-09-23T16:54:18Z","incident_modified_time_utc":"2024-07-04T22:08:43Z","containment_time_utc":"2024-07-04T17:15:00Z","control_time_utc":"2024-07-04T22:10:00Z","fire_out_time_utc":"2024-07-04T22:10:00Z","fire_cause":"Human","fire_cause_general":"Power generation / transmission / distribution","map_method":"GPS-Walked","source_dataset":"FFP","unique_fire_identifier":"2024-UTNES-100115","irwin_id":"{889436FA-223D-42DE-8E26-41869E589CFC}","global_id":"20015abc-a816-4264-a3b4-348325e1fdc3"}},{"type":"Feature","geometry":{"type":"Polygon","coordinates":[[[-109.85,40.4645],[-109.84999,40.46417],[-109.85014,40.46446],[-109.85,40.4645]]]},"properties":{"fire_id":"ufid:2024-UTNES-100144","source_collection":"history-2024","source_objectid":32656,"incident_name":"Tridell North","mapped_acres":0.08951921,"mapped_acres_source":"poly_GISAcres","gis_acres":0.08951921,"auto_acres":0.08951887387016969,"reported_acres":0.25,"percent_contained":null,"state":"UT","state_wfigs":"US-UT","county":"Uintah","discovery_time_utc":"2024-07-17T16:25:09Z","perimeter_time_utc":"2024-09-23T16:40:15Z","perimeter_edit_time_utc":"2024-09-23T16:40:15Z","incident_modified_time_utc":"2024-07-22T13:26:20Z","containment_time_utc":"2024-07-17T16:38:00Z","control_time_utc":"2024-07-18T03:15:00Z","fire_out_time_utc":"2024-07-18T03:15:00Z","fire_cause":"Human","fire_cause_general":"Power generation / transmission / distribution","map_method":"Mixed Methods","source_dataset":"FFP","unique_fire_identifier":"2024-UTNES-100144","irwin_id":"{A881AB60-677A-4EF8-8355-A26098F2DAC9}","global_id":"83092947-2b95-46c0-9cf8-4ef956cd0566"}},{"type":"Feature","geometry":{"type":"Polygon","coordinates":[[[-109.43756,40.38798],[-109.43851,40.38831],[-109.43773,40.38837],[-109.43756,40.38798]]]},"properties":{"fire_id":"ufid:2024-UTNES-100147","source_collection":"history-2024","source_objectid":32657,"incident_name":"West Jensen","mapped_acres":0.441507,"mapped_acres_source":"poly_GISAcres","gis_acres":0.441507,"auto_acres":0.4415053591281794,"reported_acres":0.5,"percent_contained":null,"state":"UT","state_wfigs":"US-UT","county":"Uintah","discovery_time_utc":"2024-07-20T18:10:00Z","perimeter_time_utc":"2024-09-23T16:39:08Z","perimeter_edit_time_utc":"2024-09-23T16:39:08Z","incident_modified_time_utc":"2024-07-23T22:01:44Z","containment_time_utc":"2024-07-20T20:00:00Z","control_time_utc":"2024-07-22T18:45:00Z","fire_out_time_utc":"2024-07-23T22:00:00Z","fire_cause":"Human","fire_cause_general":"Undetermined","map_method":"GPS-Walked","source_dataset":"FFP","unique_fire_identifier":"2024-UTNES-100147","irwin_id":"{D93620D4-A6A1-4884-B9D4-273E82E38EBF}","global_id":"fd9fa453-f48d-49c6-8475-462a235838f0"}},{"type":"Feature","geometry":{"type":"Polygon","coordinates":[[[-109.59183,40.5056],[-109.59165,40.50596],[-109.59149,40.50589],[-109.5915,40.50606],[-109.5909,40.5062],[-109.59085,40.506],[-109.59107,40.50551],[-109.59099,40.5054],[-109.59121,40.5053],[-109.59121,40.50517],[-109.59164,40.50502],[-109.59179,40.50515],[-109.59199,40.50508],[-109.59212,40.50547],[-109.59194,40.50544],[-109.59197,40.50525],[-109.59172,40.50525],[-109.59183,40.5056]]]},"properties":{"fire_id":"ufid:2024-UTNES-100007","source_collection":"history-2024","source_objectid":32665,"incident_name":"Ashley Creek","mapped_acres":1.820425,"mapped_acres_source":"poly_GISAcres","gis_acres":1.820425,"auto_acres":1.8204182260262993,"reported_acres":1.8,"percent_contained":null,"state":"UT","state_wfigs":"US-UT","county":"Uintah","discovery_time_utc":"2024-02-26T22:38:00Z","perimeter_time_utc":"2024-09-23T17:09:38Z","perimeter_edit_time_utc":"2024-09-23T17:09:38Z","incident_modified_time_utc":"2024-04-15T17:17:25Z","containment_time_utc":"2024-02-26T23:15:00Z","control_time_utc":"2024-02-27T01:30:00Z","fire_out_time_utc":"2024-03-06T20:50:00Z","fire_cause":"Human","fire_cause_general":"Debris and open burning","map_method":"Auto-generated","source_dataset":"FFP","unique_fire_identifier":"2024-UTNES-100007","irwin_id":"{6AAC6D10-509D-4113-B52E-F5ADFCB1E700}","global_id":"bfff5a22-ff0f-4e84-a1c9-569693491b2b"}},{"type":"Feature","geometry":{"type":"MultiPolygon","coordinates":[[[[-109.49978,40.35683],[-109.49978,40.35673],[-109.49987,40.35675],[-109.49978,40.35683]]],[[[-109.50003,40.35677],[-109.5001,40.35678],[-109.50009,40.35683],[-109.50003,40.35677]]]]},"properties":{"fire_id":"ufid:2024-UTNES-100022","source_collection":"history-2024","source_objectid":32667,"incident_name":"Devils Gulch","mapped_acres":0.0284658,"mapped_acres_source":"poly_GISAcres","gis_acres":0.0284658,"auto_acres":0.028465695421763748,"reported_acres":0.1,"percent_contained":null,"state":"UT","state_wfigs":"US-UT","county":"Uintah","discovery_time_utc":"2024-03-23T13:13:00Z","perimeter_time_utc":"2024-09-23T17:03:10Z","perimeter_edit_time_utc":"2024-09-23T17:03:11Z","incident_modified_time_utc":"2024-06-26T12:39:57Z","containment_time_utc":"2024-03-23T14:57:00Z","control_time_utc":"2024-03-23T15:57:00Z","fire_out_time_utc":"2024-03-24T23:30:00Z","fire_cause":"Human","fire_cause_general":"Other causes","map_method":"GPS-Walked","source_dataset":"FFP","unique_fire_identifier":"2024-UTNES-100022","irwin_id":"{B758F0AF-8C4F-4A3A-A5FB-01172004C383}","global_id":"233f4bc4-e3b1-48ec-93cf-71e1becd3247"}},{"type":"Feature","geometry":{"type":"Polygon","coordinates":[[[-109.88066,40.3022],[-109.88036,40.30212],[-109.88069,40.30203],[-109.88111,40.3022],[-109.88147,40.30218],[-109.88152,40.3024],[-109.88134,40.30245],[-109.88159,40.3027],[-109.88153,40.30305],[-109.88122,40.30273],[-109.88122,40.30244],[-109.88109,40.30237],[-109.88071,40.30273],[-109.88056,40.30269],[-109.88066,40.3022]]]},"properties":{"fire_id":"ufid:2024-UTNES-100269","source_collection":"history-2024","source_objectid":32895,"incident_name":"North 40","mapped_acres":1.1494383298175912,"mapped_acres_source":"poly_GISAcres","gis_acres":1.1494383298175912,"auto_acres":1.149434042259668,"reported_acres":1.12,"percent_contained":null,"state":"UT","state_wfigs":"US-UT","county":"Uintah","discovery_time_utc":"2024-09-25T22:56:30Z","perimeter_time_utc":"2024-09-26T17:12:16Z","perimeter_edit_time_utc":"2024-09-30T12:29:16Z","incident_modified_time_utc":"2024-11-12T23:43:14Z","containment_time_utc":"2024-09-26T01:15:00Z","control_time_utc":"2024-09-26T17:36:00Z","fire_out_time_utc":"2024-09-27T14:44:00Z","fire_cause":"Human","fire_cause_general":null,"map_method":"GPS-Walked","source_dataset":"2024 NIFS","unique_fire_identifier":"2024-UTNES-100269","irwin_id":"{57196E71-29D9-47EB-8D69-CE3A04A01E45}","global_id":"7cd32ea7-5d10-4f8c-8a19-3ff3baf7179f"}},{"type":"Feature","geometry":{"type":"Polygon","coordinates":[[[-109.46303,40.56442],[-109.46272,40.56425],[-109.46324,40.56409],[-109.46395,40.56437],[-109.46421,40.56464],[-109.46361,40.56456],[-109.46337,40.56436],[-109.46303,40.56442]]]},"properties":{"fire_id":"ufid:2024-UTGRD-100111","source_collection":"history-2024","source_objectid":35094,"incident_name":"Little Valley","mapped_acres":0.8172761,"mapped_acres_source":"poly_GISAcres","gis_acres":0.8172761,"auto_acres":0.817273093486823,"reported_acres":0.8,"percent_contained":null,"state":"UT","state_wfigs":"US-UT","county":"Uintah","discovery_time_utc":"2024-07-01T22:35:27Z","perimeter_time_utc":"2024-12-02T21:11:33Z","perimeter_edit_time_utc":"2024-12-02T21:11:33Z","incident_modified_time_utc":"2024-11-12T22:59:15Z","containment_time_utc":"2024-07-02T05:00:00Z","control_time_utc":"2024-07-02T18:15:00Z","fire_out_time_utc":"2024-07-05T20:00:00Z","fire_cause":"Natural","fire_cause_general":"Natural","map_method":"Mixed Methods","source_dataset":"FFP","unique_fire_identifier":"2024-UTGRD-100111","irwin_id":"{78CE41AC-79AB-45BA-868E-479B0B34F5CE}","global_id":"94d329e7-f221-4a21-b7ee-155703cd9644"}},{"type":"Feature","geometry":{"type":"Polygon","coordinates":[[[-109.32405,40.36392],[-109.32431,40.36401],[-109.32403,40.36396],[-109.32405,40.36392]]]},"properties":{"fire_id":"ufid:2024-UTGRD-100149","source_collection":"history-2024","source_objectid":35101,"incident_name":"Old US 40","mapped_acres":0.02924944,"mapped_acres_source":"poly_GISAcres","gis_acres":0.02924944,"auto_acres":0.02924933313964643,"reported_acres":0.03,"percent_contained":null,"state":"UT","state_wfigs":"US-UT","county":"Uintah","discovery_time_utc":"2024-07-21T05:51:00Z","perimeter_time_utc":"2024-12-02T21:46:43Z","perimeter_edit_time_utc":"2024-12-02T21:46:44Z","incident_modified_time_utc":"2024-07-22T13:27:08Z","containment_time_utc":"2024-07-21T08:00:00Z","control_time_utc":"2024-07-21T15:40:00Z","fire_out_time_utc":"2024-07-21T15:40:00Z","fire_cause":"Human","fire_cause_general":"Fireworks","map_method":"GPS-Walked","source_dataset":"FFP","unique_fire_identifier":"2024-UTGRD-100149","irwin_id":"{DE03999E-9B2B-4167-B412-2BD977BB27D2}","global_id":"bdede9bb-a780-4d6b-9db5-ebe4db862be4"}},{"type":"Feature","geometry":{"type":"MultiPolygon","coordinates":[[[[-109.44535,40.87144],[-109.44494,40.87146],[-109.44482,40.87091],[-109.44351,40.8695],[-109.44239,40.86897],[-109.44179,40.86901],[-109.44095,40.86951],[-109.43994,40.86971],[-109.43932,40.86948],[-109.43894,40.86904],[-109.43829,40.86869],[-109.43766,40.86858],[-109.43699,40.86874],[-109.43656,40.86926],[-109.43586,40.86965],[-109.43502,40.86972],[-109.43422,40.86929],[-109.43361,40.86919],[-109.43247,40.8685],[-109.43233,40.86823],[-109.43213,40.86822],[-109.43202,40.86792],[-109.43119,40.86769],[-109.43065,40.86699],[-109.42933,40.86661],[-109.42878,40.86604],[-109.42839,40.86627],[-109.42738,40.86639],[-109.42689,40.86676],[-109.42631,40.86694],[-109.42424,40.86722],[-109.42337,40.86711],[-109.42221,40.86638],[-109.42058,40.86435],[-109.4202,40.86322],[-109.42083,40.86191],[-109.42104,40.86114],[-109.42085,40.86087],[-109.41995,40.8603],[-109.42031,40.85982],[-109.42075,40.85968],[-109.42085,40.85941],[-109.42099,40.85936],[-109.4212,40.85954],[-109.42147,40.85944],[-109.4214,40.85905],[-109.42155,40.85867],[-109.42203,40.8582],[-109.42261,40.85832],[-109.42321,40.8582],[-109.42269,40.85796],[-109.42254,40.85772],[-109.42255,40.85738],[-109.42283,40.85727],[-109.42269,40.85706],[-109.42272,40.85652],[-109.42294,40.85633],[-109.42381,40.8561],[-109.42367,40.85592],[-109.4232,40.85603],[-109.42329,40.85575],[-109.42365,40.85567],[-109.42358,40.85542],[-109.42382,40.85506],[-109.4239,40.85513],[-109.42433,40.85495],[-109.42429,40.85474],[-109.42444,40.85465],[-109.42451,40.85476],[-109.42483,40.8547],[-109.42517,40.85446],[-109.42513,40.85438],[-109.42544,40.85429],[-109.42534,40.85422],[-109.42545,40.85416],[-109.42585,40.85415],[-109.42588,40.85365],[-109.42627,40.85356],[-109.4263,40.85326],[-109.42655,40.85316],[-109.42619,40.85325],[-109.42631,40.85309],[-109.42619,40.85297],[-109.42638,40.85282],[-109.4267,40.85288],[-109.42706,40.85254],[-109.42694,40.85246],[-109.42727,40.8524],[-109.42722,40.85227],[-109.42703,40.85232],[-109.42699,40.85222],[-109.42747,40.85219],[-109.42713,40.85206],[-109.42713,40.85189],[-109.42728,40.85184],[-109.42707,40.8518],[-109.4275,40.85158],[-109.42741,40.8515],[-109.42752,40.85137],[-109.42777,40.85147],[-109.42783,40.85108],[-109.42763,40.85105],[-109.42788,40.85083],[-109.42801,40.85095],[-109.42831,40.85095],[-109.42852,40.85083],[-109.42847,40.8507],[-109.4292,40.85059],[-109.42923,40.85077],[-109.429,40.85097],[-109.42925,40.85152],[-109.42964,40.85168],[-109.42944,40.85223],[-109.4295,40.85265],[-109.42972,40.85298],[-109.42987,40.85297],[-109.42986,40.85312],[-109.43016,40.85325],[-109.43009,40.85345],[-109.42987,40.85345],[-109.43005,40.85387],[-109.42985,40.85395],[-109.42983,40.85409],[-109.43003,40.85437],[-109.43038,40.85449],[-109.42979,40.85486],[-109.42993,40.85584],[-109.4301,40.85591],[-109.43035,40.85577],[-109.43036,40.85644],[-109.43118,40.85646],[-109.43128,40.85656],[-109.43119,40.85676],[-109.43156,40.8569],[-109.43174,40.85731],[-109.43154,40.85799],[-109.43162,40.85808],[-109.43117,40.85833],[-109.43123,40.85853],[-109.4308,40.85869],[-109.43095,40.85879],[-109.43084,40.85899],[-109.43095,40.8591],[-109.43177,40.85892],[-109.43187,40.85854],[-109.43171,40.85834],[-109.43219,40.85805],[-109.43216,40.85789],[-109.43238,40.85774],[-109.43273,40.85795],[-109.43264,40.85806],[-109.43281,40.85831],[-109.43338,40.85821],[-109.4335,40.85847],[-109.43423,40.85796],[-109.43514,40.85787],[-109.43551,40.85763],[-109.43556,40.85746],[-109.4367,40.85747],[-109.43696,40.85757],[-109.43694,40.85783],[-109.43769,40.85831],[-109.43788,40.85891],[-109.43833,40.85874],[-109.43885,40.85933],[-109.43938,40.8595],[-109.44024,40.85914],[-109.44056,40.85919],[-109.44082,40.85902],[-109.44114,40.85912],[-109.44124,40.85896],[-109.44138,40.85906],[-109.44131,40.85921],[-109.44156,40.85914],[-109.442,40.85949],[-109.44197,40.85962],[-109.44175,40.8597],[-109.44201,40.85976],[-109.44223,40.86005],[-109.44242,40.85994],[-109.44245,40.86012],[-109.44274,40.8601],[-109.44291,40.85998],[-109.44293,40.86013],[-109.44308,40.86014],[-109.44322,40.86003],[-109.44309,40.85996],[-109.44318,40.85985],[-109.44377,40.86036],[-109.44412,40.86009],[-109.44424,40.86034],[-109.44417,40.86043],[-109.44441,40.86053],[-109.44446,40.86044],[-109.44458,40.86062],[-109.44472,40.8606],[-109.44476,40.86035],[-109.44501,40.86039],[-109.44493,40.86061],[-109.44525,40.86071],[-109.44532,40.86095],[-109.44546,40.86087],[-109.44556,40.86103],[-109.44537,40.86121],[-109.4452,40.86109],[-109.44503,40.86125],[-109.445,40.8615],[-109.44484,40.86153],[-109.44499,40.86172],[-109.44484,40.86197],[-109.44487,40.8624],[-109.4452,40.8623],[-109.4455,40.86245],[-109.44543,40.86262],[-109.44554,40.86264],[-109.44564,40.863],[-109.44551,40.86309],[-109.44585,40.86297],[-109.44568,40.86314],[-109.44576,40.86327],[-109.44628,40.86359],[-109.4465,40.8636],[-109.44647,40.86383],[-109.44597,40.86388],[-109.44564,40.86454],[-109.44583,40.8646],[-109.44579,40.86478],[-109.44596,40.8649],[-109.44617,40.86541],[-109.44636,40.86532],[-109.44639,40.86557],[-109.44654,40.86552],[-109.44657,40.86573],[-109.44697,40.86548],[-109.44713,40.8656],[-109.44758,40.86538],[-109.4478,40.86505],[-109.44769,40.86471],[-109.44747,40.8645],[-109.44794,40.86449],[-109.44794,40.86414],[-109.44848,40.86406],[-109.44855,40.86445],[-109.44884,40.86433],[-109.44905,40.86452],[-109.449,40.86482],[-109.44913,40.86489],[-109.44915,40.86534],[-109.44931,40.86542],[-109.44906,40.86562],[-109.44874,40.86566],[-109.44856,40.8662],[-109.44904,40.8666],[-109.4495,40.86661],[-109.44982,40.86701],[-109.44983,40.86722],[-109.44943,40.86739],[-109.44955,40.86756],[-109.44909,40.86758],[-109.44962,40.86816],[-109.44943,40.86845],[-109.44961,40.86878],[-109.44921,40.86904],[-109.44918,40.86923],[-109.44887,40.86947],[-109.44891,40.86964],[-109.44855,40.86998],[-109.44893,40.87024],[-109.44889,40.87061],[-109.44844,40.87111],[-109.44658,40.87127],[-109.44583,40.87103],[-109.44535,40.87144]]],[[[-109.42665,40.85177],[-109.42648,40.85153],[-109.42678,40.85145],[-109.42676,40.85129],[-109.42694,40.85111],[-109.42752,40.85098],[-109.42706,40.85162],[-109.42683,40.85154],[-109.42683,40.85168],[-109.42671,40.85162],[-109.42665,40.85177]]],[[[-109.4265,40.85196],[-109.42653,40.8518],[-109.42692,40.85187],[-109.42672,40.8521],[-109.4265,40.85196]]],[[[-109.42368,40.85421],[-109.42306,40.85421],[-109.42333,40.8541],[-109.42343,40.85391],[-109.42305,40.85383],[-109.42313,40.85376],[-109.423,40.85339],[-109.42317,40.85326],[-109.42321,40.85338],[-109.42305,40.85343],[-109.42325,40.85363],[-109.42356,40.85346],[-109.42398,40.85346],[-109.42404,40.85358],[-109.42443,40.8535],[-109.42484,40.85372],[-109.42368,40.85421]]],[[[-109.41722,40.8517],[-109.41826,40.85167],[-109.4185,40.85177],[-109.41912,40.8524],[-109.41906,40.85261],[-109.42022,40.85373],[-109.42028,40.85409],[-109.42001,40.85477],[-109.42017,40.85578],[-109.41993,40.85596],[-109.41987,40.85634],[-109.41962,40.85648],[-109.41883,40.85636],[-109.41866,40.85586],[-109.41882,40.85554],[-109.41838,40.85514],[-109.41846,40.85402],[-109.41798,40.85355],[-109.41793,40.85256],[-109.41739,40.85235],[-109.41697,40.85201],[-109.41722,40.8517]]],[[[-109.42135,40.85702],[-109.42183,40.85646],[-109.42175,40.85624],[-109.42194,40.85607],[-109.42235,40.85624],[-109.42239,40.85678],[-109.42207,40.85683],[-109.42174,40.85732],[-109.42159,40.85733],[-109.42135,40.85702]]],[[[-109.41995,40.85817],[-109.4202,40.85809],[-109.4203,40.8583],[-109.42061,40.85838],[-109.42037,40.85885],[-109.42008,40.85916],[-109.41992,40.85917],[-109.42,40.85968],[-109.41977,40.86013],[-109.41944,40.85901],[-109.41995,40.85817]]],[[[-109.42091,40.87111],[-109.42052,40.87107],[-109.4202,40.87068],[-109.41996,40.87061],[-109.41978,40.87006],[-109.42053,40.87007],[-109.42105,40.87022],[-109.42126,40.87065],[-109.42153,40.87079],[-109.42145,40.87095],[-109.42091,40.87111]]]]},"properties":{"fire_id":"ufid:2024-UTASF-100141","source_collection":"history-2024","source_objectid":36387,"incident_name":"Speirs","mapped_acres":715.1421,"mapped_acres_source":"poly_GISAcres","gis_acres":715.1421,"auto_acres":715.1461293122395,"reported_acres":715.0,"percent_contained":null,"state":"UT","state_wfigs":"US-UT","county":"Daggett","discovery_time_utc":"2024-07-13T18:33:00Z","perimeter_time_utc":"2025-01-08T17:40:48Z","perimeter_edit_time_utc":"2025-01-08T17:40:49Z","incident_modified_time_utc":"2024-12-04T17:34:57Z","containment_time_utc":"2024-08-21T00:00:00Z","control_time_utc":"2024-09-23T14:00:00Z","fire_out_time_utc":"2024-12-04T17:30:00Z","fire_cause":"Natural","fire_cause_general":"Natural","map_method":"Mixed Methods","source_dataset":"FFP","unique_fire_identifier":"2024-UTASF-100141","irwin_id":"{3AD0FC82-1A7C-469B-93DE-00625EDBF3C4}","global_id":"9bc8c53c-8fb3-4f67-875a-f4e2f227e4ee"}},{"type":"Feature","geometry":{"type":"Polygon","coordinates":[[[-105.49538,43.93255],[-105.49355,43.9322],[-105.492,43.9309],[-105.49138,43.93079],[-105.4926,43.93043],[-105.49373,43.92965],[-105.49397,43.92913],[-105.49382,43.92886],[-105.49343,43.92872],[-105.49286,43.92872],[-105.49218,43.92892],[-105.49155,43.92866],[-105.49143,43.92824],[-105.49147,43.92726],[-105.49104,43.92677],[-105.49062,43.92657],[-105.49054,43.92632],[-105.491,43.92541],[-105.49238,43.92529],[-105.49298,43.92562],[-105.49395,43.92664],[-105.49484,43.92865],[-105.49537,43.92929],[-105.49558,43.92994],[-105.4961,43.93037],[-105.49702,43.93057],[-105.49778,43.9304],[-105.49783,43.92995],[-105.49661,43.92857],[-105.49632,43.92773],[-105.4958,43.92728],[-105.49564,43.92693],[-105.49596,43.92668],[-105.49726,43.92646],[-105.4975,43.9261],[-105.49799,43.92595],[-105.49832,43.9262],[-105.49834,43.92719],[-105.49868,43.92787],[-105.49919,43.92842],[-105.49986,43.9288],[-105.5007,43.92901],[-105.50235,43.92905],[-105.50294,43.92925],[-105.50366,43.9289],[-105.50402,43.9285],[-105.50372,43.9281],[-105.50326,43.92803],[-105.50276,43.92822],[-105.50204,43.92821],[-105.50163,43.92764],[-105.50166,43.92744],[-105.5024,43.92731],[-105.50269,43.92652],[-105.50315,43.92621],[-105.50324,43.92594],[-105.5036,43.92588],[-105.5047,43.92654],[-105.50547,43.9272],[-105.5054,43.9276],[-105.50551,43.928],[-105.50633,43.92896],[-105.5071,43.92934],[-105.50765,43.92942],[-105.50785,43.92922],[-105.5079,43.92836],[-105.50733,43.92706],[-105.50726,43.92623],[-105.50743,43.92588],[-105.50784,43.92555],[-105.50949,43.92518],[-105.51102,43.92516],[-105.51484,43.92566],[-105.51502,43.92576],[-105.5152,43.92616],[-105.51559,43.92624],[-105.51707,43.92558],[-105.51765,43.92552],[-105.51779,43.92561],[-105.51776,43.92599],[-105.51814,43.92661],[-105.5179,43.92686],[-105.5181,43.92717],[-105.5189,43.92788],[-105.51906,43.92818],[-105.52062,43.92921],[-105.52061,43.92952],[-105.52043,43.92974],[-105.52099,43.93067],[-105.5211,43.93149],[-105.52094,43.9323],[-105.51974,43.93342],[-105.51921,43.93354],[-105.51809,43.93346],[-105.51739,43.93374],[-105.51634,43.93375],[-105.5147,43.93438],[-105.51302,43.93386],[-105.51195,43.93382],[-105.50964,43.93344],[-105.50906,43.93372],[-105.50834,43.93364],[-105.50613,43.93316],[-105.50498,43.93259],[-105.49929,43.93186],[-105.49863,43.93228],[-105.49758,43.93231],[-105.49666,43.93265],[-105.49579,43.93239],[-105.49538,43.93255]]]},"properties":{"fire_id":"ufid:2024-UTBRS-200528","source_collection":"history-2024","source_objectid":36483,"incident_name":"3 Mile Creek","mapped_acres":379.37,"mapped_acres_source":"poly_GISAcres","gis_acres":379.37,"auto_acres":379.37072389092674,"reported_acres":379.37,"percent_contained":null,"state":"UT","state_wfigs":"US-UT","county":"Box Elder","discovery_time_utc":"2024-07-31T00:10:00Z","perimeter_time_utc":"2025-01-14T17:21:40Z","perimeter_edit_time_utc":"2025-01-14T17:21:40Z","incident_modified_time_utc":"2024-08-14T00:29:21Z","containment_time_utc":"2024-07-31T01:30:00Z","control_time_utc":"2024-08-14T00:00:00Z","fire_out_time_utc":"2024-08-14T00:00:00Z","fire_cause":"Human","fire_cause_general":"Equipment and vehicle use","map_method":"Hand Sketch","source_dataset":"FFP","unique_fire_identifier":"2024-UTBRS-200528","irwin_id":"{7DE22225-3A3B-40AC-9B33-CE0709EF134E}","global_id":"507878cc-6987-4279-a235-445999828447"}}]}
