{"type":"FeatureCollection","features":[{"type":"Feature","geometry":{"type":"Polygon","coordinates":[[[-91.53329,44.05024],[-91.53297,44.04967],[-91.5332,44.04966],[-91.53342,44.04983],[-91.53328,44.04996],[-91.53349,44.05014],[-91.5335,44.05036],[-91.53329,44.05024]]]},"properties":{"fire_id":"ufid:2024-WITPR-000001","source_collection":"history-2024","source_objectid":26137,"incident_name":"Grass Grass","mapped_acres":0.33,"mapped_acres_source":"poly_GISAcres","gis_acres":0.33,"auto_acres":0.3330210382705159,"reported_acres":0.33,"percent_contained":null,"state":"WI","state_wfigs":"US-WI","county":"Trempealeau","discovery_time_utc":"2024-05-06T20:40:04Z","perimeter_time_utc":"2024-05-09T18:39:25Z","perimeter_edit_time_utc":"2024-05-09T18:39:25Z","incident_modified_time_utc":"2024-05-08T17:01:46Z","containment_time_utc":null,"control_time_utc":null,"fire_out_time_utc":"2024-05-06T22:40:00Z","fire_cause":"Human","fire_cause_general":"Smoking","map_method":"Hand Sketch","source_dataset":"FFP","unique_fire_identifier":"2024-WITPR-000001","irwin_id":"{086764F8-267D-417C-8182-720BE110B6B4}","global_id":"096da1f0-ccbb-4c8e-b69f-1b8fa9387d1d"}},{"type":"Feature","geometry":{"type":"Polygon","coordinates":[[[-90.02073,43.99403],[-90.02112,43.99432],[-90.02135,43.99432],[-90.02124,43.99464],[-90.02107,43.99467],[-90.02052,43.99434],[-90.02046,43.99418],[-90.02073,43.99403]]]},"properties":{"fire_id":"ufid:2024-WIWIS-FIRE122113","source_collection":"history-2024","source_objectid":26305,"incident_name":"Afternoon","mapped_acres":0.67,"mapped_acres_source":"poly_GISAcres","gis_acres":0.67,"auto_acres":0.671851075648527,"reported_acres":0.67,"percent_contained":null,"state":"WI","state_wfigs":"US-WI","county":"Juneau","discovery_time_utc":"2024-04-06T19:00:00Z","perimeter_time_utc":"2024-04-06T10:00:00Z","perimeter_edit_time_utc":"2024-05-16T15:46:29Z","incident_modified_time_utc":"2024-05-31T20:40:50Z","containment_time_utc":null,"control_time_utc":"2024-04-06T20:33:00Z","fire_out_time_utc":"2024-04-06T21:06:00Z","fire_cause":"Human","fire_cause_general":"Debris and open burning","map_method":"Mixed Methods","source_dataset":"2024 NIFS","unique_fire_identifier":"2024-WIWIS-FIRE122113","irwin_id":"{FBFD4679-9200-448C-AC71-9C738679770E}","global_id":"3aea2b3b-1f84-44d9-8aa5-232e47dc4475"}},{"type":"Feature","geometry":{"type":"Polygon","coordinates":[[[-90.06344,43.43954],[-90.06099,43.43959],[-90.06175,43.43923],[-90.06171,43.43791],[-90.06266,43.43808],[-90.06293,43.43847],[-90.06351,43.43853],[-90.06353,43.44064],[-90.06343,43.44058],[-90.06344,43.43954]]]},"properties":{"fire_id":"ufid:2024-WIWIS-FIRE122094","source_collection":"history-2024","source_objectid":26307,"incident_name":"154 Marsh","mapped_acres":6.04,"mapped_acres_source":"poly_GISAcres","gis_acres":6.04,"auto_acres":6.04579232974135,"reported_acres":6.04,"percent_contained":null,"state":"WI","state_wfigs":"US-WI","county":"Sauk","discovery_time_utc":"2024-03-29T05:01:00Z","perimeter_time_utc":"2024-03-29T13:21:00Z","perimeter_edit_time_utc":"2024-05-16T15:46:29Z","incident_modified_time_utc":"2024-06-27T18:25:17Z","containment_time_utc":null,"control_time_utc":"2024-03-29T08:45:00Z","fire_out_time_utc":"2024-03-29T16:49:00Z","fire_cause":"Human","fire_cause_general":"Debris and open burning","map_method":"Mixed Methods","source_dataset":"2024 NIFS","unique_fire_identifier":"2024-WIWIS-FIRE122094","irwin_id":"{57179BA8-56D8-4CCC-883B-50F73B5D8CA7}","global_id":"a69e7635-7f0a-4f63-bba6-e08affff53df"}},{"type":"Feature","geometry":{"type":"Polygon","coordinates":[[[-90.08833,43.96532],[-90.08833,43.96509],[-90.08846,43.96498],[-90.08898,43.96512],[-90.08933,43.9656],[-90.0891,43.96577],[-90.08891,43.96574],[-90.08833,43.96532]]]},"properties":{"fire_id":"ufid:2024-WIWIS-FIRE122389","source_collection":"history-2024","source_objectid":26310,"incident_name":"30th St","mapped_acres":1.07,"mapped_acres_source":"poly_GISAcres","gis_acres":1.07,"auto_acres":1.06603692766598,"reported_acres":1.07,"percent_contained":null,"state":"WI","state_wfigs":"US-WI","county":"Juneau","discovery_time_utc":"2024-04-25T17:45:00Z","perimeter_time_utc":"2024-04-25T22:56:00Z","perimeter_edit_time_utc":"2024-05-16T15:46:29Z","incident_modified_time_utc":"2024-05-31T20:53:03Z","containment_time_utc":null,"control_time_utc":"2024-04-25T18:33:00Z","fire_out_time_utc":"2024-04-26T13:56:00Z","fire_cause":"Human","fire_cause_general":"Debris and open burning","map_method":"Mixed Methods","source_dataset":"2024 NIFS","unique_fire_identifier":"2024-WIWIS-FIRE122389","irwin_id":"{8C325256-27DF-4216-82C6-636883614161}","global_id":"b6bbf3f6-57bf-48e7-9017-2c086a1c1787"}},{"type":"Feature","geometry":{"type":"Polygon","coordinates":[[[-90.04399,43.28538],[-90.04404,43.28567],[-90.04386,43.28558],[-90.04378,43.28567],[-90.04377,43.28539],[-90.04399,43.28538]]]},"properties":{"fire_id":"ufid:2024-WIWIS-FIRE121734","source_collection":"history-2024","source_objectid":26313,"incident_name":"2 AM Fire","mapped_acres":0.12,"mapped_acres_source":"poly_GISAcres","gis_acres":0.12,"auto_acres":0.123016412530992,"reported_acres":0.12,"percent_contained":null,"state":"WI","state_wfigs":"US-WI","county":"Sauk","discovery_time_utc":"2024-02-14T07:35:00Z","perimeter_time_utc":"2024-02-14T13:35:00Z","perimeter_edit_time_utc":"2024-05-16T15:46:29Z","incident_modified_time_utc":"2024-10-03T17:37:08Z","containment_time_utc":null,"control_time_utc":"2024-02-14T08:09:00Z","fire_out_time_utc":"2024-02-14T08:49:00Z","fire_cause":"Human","fire_cause_general":"Other causes","map_method":"Mixed Methods","source_dataset":"2024 NIFS","unique_fire_identifier":"2024-WIWIS-FIRE121734","irwin_id":"{1F3206D7-0B1A-48F3-B5EB-AE3F2877838D}","global_id":"444f49cb-93d3-40bd-a765-383dd6232c89"}},{"type":"Feature","geometry":{"type":"Polygon","coordinates":[[[-90.7525,44.56612],[-90.75288,44.56638],[-90.7526,44.56666],[-90.75149,44.56714],[-90.7513,44.56699],[-90.75136,44.56685],[-90.75116,44.56668],[-90.75099,44.56622],[-90.75112,44.56613],[-90.75109,44.56588],[-90.7513,44.56568],[-90.75125,44.56542],[-90.75139,44.56546],[-90.75161,44.56526],[-90.75185,44.56537],[-90.75196,44.56643],[-90.75233,44.56658],[-90.75239,44.56651],[-90.75224,44.56634],[-90.75241,44.5664],[-90.7525,44.56612]]]},"properties":{"fire_id":"ufid:2024-WIWIS-FIRE122222","source_collection":"history-2024","source_objectid":26319,"incident_name":"Beaver Ln","mapped_acres":3.63,"mapped_acres_source":"poly_GISAcres","gis_acres":3.63,"auto_acres":3.63372012497062,"reported_acres":3.63,"percent_contained":null,"state":"WI","state_wfigs":"US-WI","county":"Clark","discovery_time_utc":"2024-04-14T19:30:00Z","perimeter_time_utc":"2024-04-15T01:00:00Z","perimeter_edit_time_utc":"2024-05-16T15:51:01Z","incident_modified_time_utc":"2024-05-31T20:47:05Z","containment_time_utc":null,"control_time_utc":"2024-04-14T21:07:00Z","fire_out_time_utc":"2024-04-15T15:33:00Z","fire_cause":"Human","fire_cause_general":"Smoking","map_method":"Mixed Methods","source_dataset":"2024 NIFS","unique_fire_identifier":"2024-WIWIS-FIRE122222","irwin_id":"{BC0ED99A-373D-4801-99E2-8E0B5913AB1E}","global_id":"34ee1606-e8d1-4f06-b736-ba6576ed6df5"}},{"type":"Feature","geometry":{"type":"Polygon","coordinates":[[[-90.61383,44.08177],[-90.61382,44.08215],[-90.61361,44.08237],[-90.61317,44.08244],[-90.61284,44.08229],[-90.61286,44.082],[-90.61309,44.08178],[-90.61383,44.08177]]]},"properties":{"fire_id":"ufid:2024-WIWIS-FIRE121914","source_collection":"history-2024","source_objectid":26324,"incident_name":"Apalachicola","mapped_acres":1.29,"mapped_acres_source":"poly_GISAcres","gis_acres":1.29,"auto_acres":1.28874622150446,"reported_acres":1.29,"percent_contained":null,"state":"WI","state_wfigs":"US-WI","county":"Monroe","discovery_time_utc":"2024-03-10T18:30:00Z","perimeter_time_utc":"2024-03-10T23:30:00Z","perimeter_edit_time_utc":"2024-05-16T15:51:01Z","incident_modified_time_utc":"2024-05-31T20:24:13Z","containment_time_utc":null,"control_time_utc":"2024-03-10T19:41:00Z","fire_out_time_utc":"2024-03-11T13:15:00Z","fire_cause":"Human","fire_cause_general":"Debris and open burning","map_method":"Mixed Methods","source_dataset":"2024 NIFS","unique_fire_identifier":"2024-WIWIS-FIRE121914","irwin_id":"{6F95E899-3538-42D0-A409-425E21E6B23E}","global_id":"24e8f991-df32-4e17-834d-7ef37eb97ce1"}},{"type":"Feature","geometry":{"type":"Polygon","coordinates":[[[-90.83526,44.80979],[-90.83503,44.81028],[-90.8338,44.81039],[-90.83289,44.81175],[-90.83254,44.81205],[-90.83176,44.81214],[-90.83115,44.81194],[-90.83227,44.81173],[-90.83252,44.81161],[-90.83262,44.81134],[-90.83299,44.81131],[-90.83289,44.81114],[-90.83313,44.81106],[-90.83298,44.81091],[-90.8331,44.81079],[-90.83288,44.81062],[-90.83327,44.81036],[-90.83323,44.81026],[-90.83338,44.81025],[-90.83339,44.81001],[-90.83359,44.81008],[-90.83379,44.81],[-90.83377,44.80987],[-90.83441,44.80965],[-90.83541,44.80972],[-90.83539,44.80986],[-90.83526,44.80979]]]},"properties":{"fire_id":"ufid:2024-WIWIS-FIRE121733","source_collection":"history-2024","source_objectid":26361,"incident_name":"Butler","mapped_acres":4.52,"mapped_acres_source":"poly_GISAcres","gis_acres":4.52,"auto_acres":4.51820874734741,"reported_acres":4.52,"percent_contained":null,"state":"WI","state_wfigs":"US-WI","county":"Clark","discovery_time_utc":"2024-02-14T19:30:00Z","perimeter_time_utc":"2024-02-15T01:30:00Z","perimeter_edit_time_utc":"2024-05-16T17:02:46Z","incident_modified_time_utc":"2024-05-31T20:07:56Z","containment_time_utc":null,"control_time_utc":"2024-02-14T21:02:00Z","fire_out_time_utc":"2024-02-15T13:30:00Z","fire_cause":"Human","fire_cause_general":"Debris and open burning","map_method":"Mixed Methods","source_dataset":"2024 NIFS","unique_fire_identifier":"2024-WIWIS-FIRE121733","irwin_id":"{F060EE9F-ED6C-45AD-B86B-0CBD155657EA}","global_id":"4fc9c4b6-4e5d-4866-a1dd-029739eb49a9"}},{"type":"Feature","geometry":{"type":"Polygon","coordinates":[[[-91.13397,44.75889],[-91.13465,44.75885],[-91.13419,44.759],[-91.13431,44.75908],[-91.13424,44.75915],[-91.13367,44.75927],[-91.13352,44.7592],[-91.13397,44.75889]]]},"properties":{"fire_id":"ufid:2024-WIWIS-FIRE122278","source_collection":"history-2024","source_objectid":26366,"incident_name":"Buggy","mapped_acres":0.53,"mapped_acres_source":"poly_GISAcres","gis_acres":0.53,"auto_acres":0.534066220923,"reported_acres":0.53,"percent_contained":null,"state":"WI","state_wfigs":"US-WI","county":"Eau Claire","discovery_time_utc":"2024-04-16T20:40:00Z","perimeter_time_utc":"2024-04-16T10:00:00Z","perimeter_edit_time_utc":"2024-05-16T17:01:20Z","incident_modified_time_utc":"2024-05-31T20:48:02Z","containment_time_utc":null,"control_time_utc":"2024-04-16T21:56:00Z","fire_out_time_utc":"2024-04-17T15:30:00Z","fire_cause":"Human","fire_cause_general":"Power generation/transmission/distribution","map_method":"Mixed Methods","source_dataset":"2024 NIFS","unique_fire_identifier":"2024-WIWIS-FIRE122278","irwin_id":"{9FDF112C-93E2-4F53-B834-141756D3A67D}","global_id":"19762aef-9091-42ff-aee7-ee47e731d3b2"}},{"type":"Feature","geometry":{"type":"Polygon","coordinates":[[[-91.12029,43.39494],[-91.12032,43.39541],[-91.12015,43.39555],[-91.11954,43.39563],[-91.1194,43.39555],[-91.11951,43.39527],[-91.11928,43.39514],[-91.11908,43.39524],[-91.11884,43.39516],[-91.11896,43.39489],[-91.11926,43.3947],[-91.12029,43.39494]]]},"properties":{"fire_id":"ufid:2024-WIWIS-FIRE121794","source_collection":"history-2024","source_objectid":26373,"incident_name":"Coulee","mapped_acres":1.93,"mapped_acres_source":"poly_GISAcres","gis_acres":1.93,"auto_acres":1.92803216988295,"reported_acres":1.93,"percent_contained":null,"state":"WI","state_wfigs":"US-WI","county":"Crawford","discovery_time_utc":"2024-02-27T20:05:00Z","perimeter_time_utc":"2024-02-28T02:05:00Z","perimeter_edit_time_utc":"2024-05-16T17:24:42Z","incident_modified_time_utc":"2024-05-31T20:14:31Z","containment_time_utc":null,"control_time_utc":"2024-02-27T20:57:00Z","fire_out_time_utc":"2024-02-27T21:39:00Z","fire_cause":"Human","fire_cause_general":"Debris and open burning","map_method":"Mixed Methods","source_dataset":"2024 NIFS","unique_fire_identifier":"2024-WIWIS-FIRE121794","irwin_id":"{C673A00B-C649-4346-A8DA-A7AF2A44D7CE}","global_id":"ae2729e0-f887-47e9-8d82-88d0267a07b0"}},{"type":"Feature","geometry":{"type":"Polygon","coordinates":[[[-90.90733,44.53498],[-90.90497,44.53438],[-90.90741,44.53488],[-90.90733,44.53498]]]},"properties":{"fire_id":"ufid:2024-WIWIS-FIRE121847","source_collection":"history-2024","source_objectid":26374,"incident_name":"Cranberry","mapped_acres":0.48,"mapped_acres_source":"poly_GISAcres","gis_acres":0.48,"auto_acres":0.479570970156756,"reported_acres":0.48,"percent_contained":null,"state":"WI","state_wfigs":"US-WI","county":"Clark","discovery_time_utc":"2024-03-02T22:38:00Z","perimeter_time_utc":"2024-03-03T04:57:44Z","perimeter_edit_time_utc":"2024-05-16T17:29:08Z","incident_modified_time_utc":"2024-05-31T20:19:02Z","containment_time_utc":null,"control_time_utc":"2024-03-03T01:50:00Z","fire_out_time_utc":"2024-03-03T17:48:00Z","fire_cause":"Human","fire_cause_general":"Railroad operations and maintenance","map_method":"Mixed Methods","source_dataset":"2024 NIFS","unique_fire_identifier":"2024-WIWIS-FIRE121847","irwin_id":"{8312D501-0D8F-4D8F-9294-84810B4A1F82}","global_id":"4a192162-76a8-4683-8e12-cb3903fff2bd"}},{"type":"Feature","geometry":{"type":"Polygon","coordinates":[[[-91.25869,44.76084],[-91.25867,44.76092],[-91.25849,44.7608],[-91.25869,44.76084]]]},"properties":{"fire_id":"ufid:2024-WIWIS-FIRE121828","source_collection":"history-2024","source_objectid":26378,"incident_name":"County D","mapped_acres":0.04,"mapped_acres_source":"poly_GISAcres","gis_acres":0.04,"auto_acres":0.0437000026327571,"reported_acres":0.04,"percent_contained":null,"state":"WI","state_wfigs":"US-WI","county":"Eau Claire","discovery_time_utc":"2024-03-02T15:38:00Z","perimeter_time_utc":"2024-03-02T21:55:26Z","perimeter_edit_time_utc":"2024-05-16T17:25:08Z","incident_modified_time_utc":"2024-05-31T20:19:07Z","containment_time_utc":null,"control_time_utc":"2024-03-02T17:35:00Z","fire_out_time_utc":"2024-03-03T17:49:00Z","fire_cause":"Human","fire_cause_general":"Railroad operations and maintenance","map_method":"Mixed Methods","source_dataset":"2024 NIFS","unique_fire_identifier":"2024-WIWIS-FIRE121828","irwin_id":"{4049D555-58A5-466F-8DD6-784EE9662EED}","global_id":"45f56310-1129-4c97-a89f-43fcf6b5f3e5"}},{"type":"Feature","geometry":{"type":"Polygon","coordinates":[[[-90.70618,44.52857],[-90.70639,44.52883],[-90.70662,44.5288],[-90.7066,44.52911],[-90.70615,44.52894],[-90.70583,44.52917],[-90.70562,44.52903],[-90.70565,44.5287],[-90.70618,44.52857]]]},"properties":{"fire_id":"ufid:2024-WIWIS-FIRE121825","source_collection":"history-2024","source_objectid":26379,"incident_name":"Columbia","mapped_acres":0.77,"mapped_acres_source":"poly_GISAcres","gis_acres":0.77,"auto_acres":0.77408347037895,"reported_acres":0.77,"percent_contained":null,"state":"WI","state_wfigs":"US-WI","county":"Clark","discovery_time_utc":"2024-03-01T22:00:00Z","perimeter_time_utc":"2024-03-02T04:00:00Z","perimeter_edit_time_utc":"2024-05-16T17:16:26Z","incident_modified_time_utc":"2024-05-31T20:18:02Z","containment_time_utc":null,"control_time_utc":"2024-03-01T23:24:00Z","fire_out_time_utc":"2024-03-02T15:32:00Z","fire_cause":"Human","fire_cause_general":"Debris and open burning","map_method":"Mixed Methods","source_dataset":"2024 NIFS","unique_fire_identifier":"2024-WIWIS-FIRE121825","irwin_id":"{76E29839-F06A-411C-AFB3-DA8A158060A8}","global_id":"1a8b441f-f680-48d0-81a5-b996907aa3c9"}},{"type":"Feature","geometry":{"type":"Polygon","coordinates":[[[-90.09374,43.06645],[-90.09471,43.06634],[-90.09485,43.0666],[-90.09472,43.06678],[-90.09375,43.06657],[-90.09374,43.06645]]]},"properties":{"fire_id":"ufid:2024-WIWIS-FIRE121871","source_collection":"history-2024","source_objectid":26380,"incident_name":"Dyreson","mapped_acres":0.86,"mapped_acres_source":"poly_GISAcres","gis_acres":0.86,"auto_acres":0.859652535229879,"reported_acres":0.86,"percent_contained":null,"state":"WI","state_wfigs":"US-WI","county":"Iowa","discovery_time_utc":"2024-03-03T22:15:00Z","perimeter_time_utc":"2024-03-04T04:23:17Z","perimeter_edit_time_utc":"2024-05-16T17:47:11Z","incident_modified_time_utc":"2024-05-31T20:19:21Z","containment_time_utc":null,"control_time_utc":"2024-03-03T23:34:00Z","fire_out_time_utc":"2024-03-04T14:48:00Z","fire_cause":"Human","fire_cause_general":"Power generation/transmission/distribution","map_method":"Mixed Methods","source_dataset":"2024 NIFS","unique_fire_identifier":"2024-WIWIS-FIRE121871","irwin_id":"{3687A20A-6672-428E-84C0-ECE5E54C274C}","global_id":"5c9b4afd-3004-40a1-ad3c-e2ce65578cf3"}},{"type":"Feature","geometry":{"type":"Polygon","coordinates":[[[-92.5386,44.60937],[-92.53849,44.60947],[-92.53873,44.61076],[-92.53868,44.61117],[-92.53912,44.61205],[-92.5393,44.61216],[-92.54021,44.6121],[-92.54052,44.61219],[-92.5406,44.61235],[-92.54012,44.61242],[-92.54018,44.61258],[-92.53998,44.61267],[-92.53968,44.61261],[-92.53929,44.61276],[-92.53902,44.61265],[-92.53905,44.61244],[-92.5389,44.6124],[-92.53898,44.61252],[-92.53877,44.61269],[-92.53864,44.61273],[-92.53855,44.61259],[-92.53816,44.61303],[-92.53788,44.61299],[-92.53776,44.61351],[-92.5377,44.61308],[-92.53782,44.61252],[-92.53658,44.61234],[-92.53611,44.61307],[-92.53602,44.61357],[-92.53586,44.61341],[-92.53599,44.61317],[-92.53573,44.61319],[-92.53573,44.61293],[-92.53603,44.61268],[-92.53584,44.61238],[-92.53601,44.61222],[-92.53602,44.61158],[-92.53659,44.61088],[-92.53648,44.61071],[-92.53656,44.6105],[-92.53695,44.61015],[-92.5378,44.61014],[-92.53807,44.61034],[-92.53827,44.61032],[-92.53844,44.6101],[-92.53825,44.6098],[-92.53825,44.60955],[-92.5386,44.60937]]]},"properties":{"fire_id":"ufid:2024-WIWIS-FIRE121941","source_collection":"history-2024","source_objectid":26381,"incident_name":"Double V","mapped_acres":16.02,"mapped_acres_source":"poly_GISAcres","gis_acres":16.02,"auto_acres":16.0148066112739,"reported_acres":16.02,"percent_contained":null,"state":"WI","state_wfigs":"US-WI","county":"Pierce","discovery_time_utc":"2024-03-12T06:00:00Z","perimeter_time_utc":"2024-03-12T11:00:00Z","perimeter_edit_time_utc":"2024-05-16T17:37:51Z","incident_modified_time_utc":"2024-05-31T20:25:25Z","containment_time_utc":null,"control_time_utc":"2024-03-12T17:09:00Z","fire_out_time_utc":"2024-03-19T21:27:00Z","fire_cause":"Human","fire_cause_general":"Debris and open burning","map_method":"Mixed Methods","source_dataset":"2024 NIFS","unique_fire_identifier":"2024-WIWIS-FIRE121941","irwin_id":"{3BB4748C-F80D-4C3C-808A-9562604A0E34}","global_id":"36a55389-5212-4092-b349-0584affe63b1"}},{"type":"Feature","geometry":{"type":"Polygon","coordinates":[[[-90.90794,44.53499],[-90.9106,44.53556],[-90.91034,44.53566],[-90.90794,44.53499]]]},"properties":{"fire_id":"ufid:2024-WIWIS-FIRE121848","source_collection":"history-2024","source_objectid":26383,"incident_name":"CTY B","mapped_acres":0.73,"mapped_acres_source":"poly_GISAcres","gis_acres":0.73,"auto_acres":0.728888277558646,"reported_acres":0.73,"percent_contained":null,"state":"WI","state_wfigs":"US-WI","county":"Clark","discovery_time_utc":"2024-03-02T22:38:00Z","perimeter_time_utc":"2024-03-03T04:38:00Z","perimeter_edit_time_utc":"2024-05-16T17:30:53Z","incident_modified_time_utc":"2024-05-31T20:19:04Z","containment_time_utc":null,"control_time_utc":"2024-03-03T01:50:00Z","fire_out_time_utc":"2024-03-03T17:48:00Z","fire_cause":"Human","fire_cause_general":"Railroad operations and maintenance","map_method":"Mixed Methods","source_dataset":"2024 NIFS","unique_fire_identifier":"2024-WIWIS-FIRE121848","irwin_id":"{AD63345A-9EB9-4CDA-A6F3-1931FFDA8CAA}","global_id":"392875ba-1beb-41d0-a068-6085b2b05e5b"}},{"type":"Feature","geometry":{"type":"Polygon","coordinates":[[[-90.49476,43.41724],[-90.49559,43.4178],[-90.49512,43.41819],[-90.49442,43.41779],[-90.49423,43.41815],[-90.49334,43.41836],[-90.49302,43.41836],[-90.49295,43.41822],[-90.49314,43.41795],[-90.49284,43.41801],[-90.49244,43.41785],[-90.49315,43.41737],[-90.49459,43.41766],[-90.49476,43.41724]]]},"properties":{"fire_id":"ufid:2024-WIWIS-FIRE122335","source_collection":"history-2024","source_objectid":26387,"incident_name":"Doudna","mapped_acres":4.06,"mapped_acres_source":"poly_GISAcres","gis_acres":4.06,"auto_acres":4.06795103909319,"reported_acres":4.06,"percent_contained":null,"state":"WI","state_wfigs":"US-WI","county":"Richland","discovery_time_utc":"2024-04-21T20:15:00Z","perimeter_time_utc":"2024-04-22T02:04:00Z","perimeter_edit_time_utc":"2024-05-16T17:40:26Z","incident_modified_time_utc":"2024-05-31T20:48:58Z","containment_time_utc":null,"control_time_utc":"2024-04-21T21:46:00Z","fire_out_time_utc":"2024-04-23T14:00:00Z","fire_cause":"Human","fire_cause_general":"Debris and open burning","map_method":"Mixed Methods","source_dataset":"2024 NIFS","unique_fire_identifier":"2024-WIWIS-FIRE122335","irwin_id":"{1434146B-66A2-4A3C-8723-415248A72DAC}","global_id":"0b2875c2-dca4-46e1-9431-73238c2acf18"}},{"type":"Feature","geometry":{"type":"Polygon","coordinates":[[[-90.91767,44.59595],[-90.91766,44.59576],[-90.91792,44.59538],[-90.91862,44.59547],[-90.91949,44.59516],[-90.91954,44.59549],[-90.91929,44.59604],[-90.9197,44.59619],[-90.91809,44.59622],[-90.91806,44.59608],[-90.91767,44.59595]]]},"properties":{"fire_id":"ufid:2024-WIWIS-FIRE122267","source_collection":"history-2024","source_objectid":26394,"incident_name":"White Pine","mapped_acres":3.04,"mapped_acres_source":"poly_GISAcres","gis_acres":3.04,"auto_acres":3.039483576941,"reported_acres":3.04,"percent_contained":null,"state":"WI","state_wfigs":"US-WI","county":"Clark","discovery_time_utc":"2024-04-16T19:32:00Z","perimeter_time_utc":"2024-04-17T00:40:00Z","perimeter_edit_time_utc":"2024-05-16T17:44:29Z","incident_modified_time_utc":"2024-05-31T20:49:17Z","containment_time_utc":null,"control_time_utc":"2024-04-16T20:32:00Z","fire_out_time_utc":"2024-04-17T14:30:00Z","fire_cause":"Human","fire_cause_general":"Other causes","map_method":"Mixed Methods","source_dataset":"2024 NIFS","unique_fire_identifier":"2024-WIWIS-FIRE122267","irwin_id":"{2D0E6F13-1640-4263-B040-85550208ED45}","global_id":"6ff2d65f-4300-4971-a1dd-eb6156fc2915"}},{"type":"Feature","geometry":{"type":"Polygon","coordinates":[[[-90.25972,44.45921],[-90.25971,44.45985],[-90.25876,44.45945],[-90.25961,44.45919],[-90.25972,44.45921]]]},"properties":{"fire_id":"ufid:2024-WIWIS-FIRE122482","source_collection":"history-2024","source_objectid":26396,"incident_name":"Coot","mapped_acres":0.75,"mapped_acres_source":"poly_GISAcres","gis_acres":0.75,"auto_acres":0.750022155316959,"reported_acres":0.75,"percent_contained":null,"state":"WI","state_wfigs":"US-WI","county":"Wood","discovery_time_utc":"2024-05-06T23:00:00Z","perimeter_time_utc":"2024-05-06T16:29:00Z","perimeter_edit_time_utc":"2024-05-16T17:22:25Z","incident_modified_time_utc":"2024-05-31T20:57:45Z","containment_time_utc":null,"control_time_utc":"2024-05-07T00:08:00Z","fire_out_time_utc":"2024-05-07T01:30:00Z","fire_cause":"Human","fire_cause_general":"Debris and open burning","map_method":"Mixed Methods","source_dataset":"2024 NIFS","unique_fire_identifier":"2024-WIWIS-FIRE122482","irwin_id":"{F1999697-3237-4AAB-BAF3-80A81C9ACEC1}","global_id":"9e90354b-728f-4c84-9f77-57f9f059d1d6"}},{"type":"Feature","geometry":{"type":"Polygon","coordinates":[[[-90.20238,43.92896],[-90.20269,43.9292],[-90.20252,43.92944],[-90.20184,43.92953],[-90.2014,43.92941],[-90.20147,43.92915],[-90.20178,43.9289],[-90.20238,43.92896]]]},"properties":{"fire_id":"ufid:2024-WIWIS-FIRE121762","source_collection":"history-2024","source_objectid":26398,"incident_name":"Firewood","mapped_acres":1.28,"mapped_acres_source":"poly_GISAcres","gis_acres":1.28,"auto_acres":1.27726181057766,"reported_acres":1.28,"percent_contained":null,"state":"WI","state_wfigs":"US-WI","county":"Juneau","discovery_time_utc":"2024-02-25T20:15:00Z","perimeter_time_utc":"2024-02-26T02:15:00Z","perimeter_edit_time_utc":"2024-05-16T17:49:27Z","incident_modified_time_utc":"2024-05-31T20:11:18Z","containment_time_utc":null,"control_time_utc":"2024-02-25T21:11:00Z","fire_out_time_utc":"2024-02-25T21:41:00Z","fire_cause":"Human","fire_cause_general":"Debris and open burning","map_method":"Mixed Methods","source_dataset":"2024 NIFS","unique_fire_identifier":"2024-WIWIS-FIRE121762","irwin_id":"{30A319EB-1558-4EC7-88ED-A92223C3544C}","global_id":"cbbca9e0-7a2b-40c3-8934-91e022fe2084"}},{"type":"Feature","geometry":{"type":"Polygon","coordinates":[[[-90.4522,43.40413],[-90.45375,43.4044],[-90.45354,43.40457],[-90.45325,43.40455],[-90.45311,43.40439],[-90.45294,43.40451],[-90.45284,43.40442],[-90.45145,43.40454],[-90.45241,43.40417],[-90.4522,43.40413]]]},"properties":{"fire_id":"ufid:2024-WIWIS-FIRE121738","source_collection":"history-2024","source_objectid":26402,"incident_name":"Foley Ln","mapped_acres":1.08,"mapped_acres_source":"poly_GISAcres","gis_acres":1.08,"auto_acres":1.0793222568883,"reported_acres":1.08,"percent_contained":null,"state":"WI","state_wfigs":"US-WI","county":"Richland","discovery_time_utc":"2024-02-17T18:00:00Z","perimeter_time_utc":"2024-02-18T00:00:00Z","perimeter_edit_time_utc":"2024-05-16T17:50:26Z","incident_modified_time_utc":"2024-05-31T20:11:20Z","containment_time_utc":null,"control_time_utc":"2024-02-17T19:00:00Z","fire_out_time_utc":"2024-02-17T20:30:00Z","fire_cause":"Human","fire_cause_general":"Debris and open burning","map_method":"Mixed Methods","source_dataset":"2024 NIFS","unique_fire_identifier":"2024-WIWIS-FIRE121738","irwin_id":"{182E8553-9301-4E18-BDDD-991E84CD5DE1}","global_id":"e1cb4cab-045f-4045-9fb3-825228632139"}},{"type":"Feature","geometry":{"type":"Polygon","coordinates":[[[-90.11506,44.02025],[-90.11398,44.02034],[-90.11392,44.01992],[-90.11415,44.01982],[-90.11461,44.01997],[-90.11513,44.01995],[-90.11506,44.02025]]]},"properties":{"fire_id":"ufid:2024-WIWIS-FIRE122447","source_collection":"history-2024","source_objectid":26403,"incident_name":"Cornfield","mapped_acres":1.04,"mapped_acres_source":"poly_GISAcres","gis_acres":1.04,"auto_acres":1.03614955650503,"reported_acres":1.04,"percent_contained":null,"state":"WI","state_wfigs":"US-WI","county":"Juneau","discovery_time_utc":"2024-04-30T16:52:00Z","perimeter_time_utc":"2024-04-30T21:55:00Z","perimeter_edit_time_utc":"2024-05-16T17:24:05Z","incident_modified_time_utc":"2024-05-31T20:53:40Z","containment_time_utc":null,"control_time_utc":"2024-04-30T17:32:00Z","fire_out_time_utc":"2024-04-30T20:53:00Z","fire_cause":"Human","fire_cause_general":"Equipment and vehicle use","map_method":"Mixed Methods","source_dataset":"2024 NIFS","unique_fire_identifier":"2024-WIWIS-FIRE122447","irwin_id":"{0A4377DD-1562-407F-9D08-124FA377CA8F}","global_id":"f6edffdc-9f36-4569-9178-389728d9cc62"}},{"type":"Feature","geometry":{"type":"Polygon","coordinates":[[[-91.02099,43.07575],[-91.02157,43.07636],[-91.02115,43.07639],[-91.02086,43.07603],[-91.02021,43.07571],[-91.01996,43.07542],[-91.02002,43.07529],[-91.02099,43.07575]]]},"properties":{"fire_id":"ufid:2024-WIWIS-FIRE121975","source_collection":"history-2024","source_objectid":26428,"incident_name":"Gran Grae","mapped_acres":1.14,"mapped_acres_source":"poly_GISAcres","gis_acres":1.14,"auto_acres":1.13782238326466,"reported_acres":1.14,"percent_contained":null,"state":"WI","state_wfigs":"US-WI","county":"Crawford","discovery_time_utc":"2024-03-13T16:30:00Z","perimeter_time_utc":"2024-03-14T00:10:40Z","perimeter_edit_time_utc":"2024-05-16T17:56:12Z","incident_modified_time_utc":"2024-05-31T20:29:00Z","containment_time_utc":null,"control_time_utc":"2024-03-13T19:10:00Z","fire_out_time_utc":"2024-03-14T14:00:00Z","fire_cause":"Human","fire_cause_general":"Debris and open burning","map_method":"Mixed Methods","source_dataset":"2024 NIFS","unique_fire_identifier":"2024-WIWIS-FIRE121975","irwin_id":"{4B702E16-F7A1-402F-AD29-FBE9E1FDD9FB}","global_id":"016a288b-1069-4976-a93b-7681a2bfd507"}},{"type":"Feature","geometry":{"type":"MultiPolygon","coordinates":[[[[-90.31623,44.04178],[-90.31624,44.04179],[-90.31623,44.04179],[-90.31623,44.04178]]],[[[-90.31626,44.04179],[-90.31627,44.04181],[-90.31624,44.04179],[-90.31626,44.04179]]],[[[-90.31616,44.04181],[-90.31623,44.04179],[-90.31623,44.04182],[-90.31616,44.04181]]],[[[-90.31719,44.04186],[-90.3172,44.04222],[-90.31693,44.04235],[-90.31599,44.0422],[-90.31587,44.04193],[-90.31616,44.04181],[-90.31683,44.04193],[-90.31719,44.04186]]]]},"properties":{"fire_id":"ufid:2024-WIWIS-FIRE122013","source_collection":"history-2024","source_objectid":26434,"incident_name":"Krypton","mapped_acres":1.17,"mapped_acres_source":"poly_GISAcres","gis_acres":1.17,"auto_acres":1.17492100872002,"reported_acres":1.17,"percent_contained":null,"state":"WI","state_wfigs":"US-WI","county":"Monroe","discovery_time_utc":"2024-03-16T22:00:00Z","perimeter_time_utc":"2024-03-17T03:00:00Z","perimeter_edit_time_utc":"2024-05-16T18:09:00Z","incident_modified_time_utc":"2024-05-31T20:29:26Z","containment_time_utc":null,"control_time_utc":"2024-03-16T22:51:00Z","fire_out_time_utc":"2024-03-17T18:06:00Z","fire_cause":"Human","fire_cause_general":"Other causes","map_method":"Mixed Methods","source_dataset":"2024 NIFS","unique_fire_identifier":"2024-WIWIS-FIRE122013","irwin_id":"{D5D3C170-BC4B-4C67-9B48-2FDFC4BA8B27}","global_id":"e503d10e-23cc-4134-95bd-668ec19ba435"}},{"type":"Feature","geometry":{"type":"Polygon","coordinates":[[[-90.33639,44.41544],[-90.33636,44.41703],[-90.3357,44.41676],[-90.33592,44.41648],[-90.33573,44.4162],[-90.33595,44.41605],[-90.33574,44.41589],[-90.33639,44.41544]]]},"properties":{"fire_id":"ufid:2024-WIWIS-FIRE122058","source_collection":"history-2024","source_objectid":26439,"incident_name":"Hay Creek","mapped_acres":1.59,"mapped_acres_source":"poly_GISAcres","gis_acres":1.59,"auto_acres":1.59112998411544,"reported_acres":1.59,"percent_contained":null,"state":"WI","state_wfigs":"US-WI","county":"Jackson","discovery_time_utc":"2024-03-20T22:55:00Z","perimeter_time_utc":"2024-03-21T03:55:00Z","perimeter_edit_time_utc":"2024-05-16T17:57:56Z","incident_modified_time_utc":"2024-05-31T20:34:49Z","containment_time_utc":null,"control_time_utc":"2024-03-21T00:56:00Z","fire_out_time_utc":"2024-03-21T15:25:00Z","fire_cause":"Human","fire_cause_general":"Arson","map_method":"Mixed Methods","source_dataset":"2024 NIFS","unique_fire_identifier":"2024-WIWIS-FIRE122058","irwin_id":"{3B0C6B38-F7C1-4A84-AA44-CC5C05063676}","global_id":"3d60a6c7-72c3-4113-8165-88037acd6957"}},{"type":"Feature","geometry":{"type":"Polygon","coordinates":[[[-90.09417,43.99376],[-90.09429,43.99435],[-90.09393,43.99477],[-90.09369,43.99473],[-90.09374,43.99441],[-90.09359,43.99447],[-90.09359,43.9943],[-90.0932,43.99433],[-90.09352,43.99387],[-90.09383,43.99372],[-90.09417,43.99376]]]},"properties":{"fire_id":"ufid:2024-WIWIS-FIRE122174","source_collection":"history-2024","source_objectid":26454,"incident_name":"Southside","mapped_acres":1.55,"mapped_acres_source":"poly_GISAcres","gis_acres":1.55,"auto_acres":1.54631187023804,"reported_acres":1.55,"percent_contained":null,"state":"WI","state_wfigs":"US-WI","county":"Juneau","discovery_time_utc":"2024-04-13T18:00:00Z","perimeter_time_utc":"2024-04-13T10:00:00Z","perimeter_edit_time_utc":"2024-05-16T18:50:44Z","incident_modified_time_utc":"2024-05-31T20:40:59Z","containment_time_utc":null,"control_time_utc":"2024-04-13T19:12:00Z","fire_out_time_utc":"2024-04-14T13:30:00Z","fire_cause":"Human","fire_cause_general":"Debris and open burning","map_method":"Mixed Methods","source_dataset":"2024 NIFS","unique_fire_identifier":"2024-WIWIS-FIRE122174","irwin_id":"{160FF175-E178-4529-ABA0-6BF2971FA9DF}","global_id":"769dceff-a38d-4fca-8406-02943b8357f5"}},{"type":"Feature","geometry":{"type":"MultiPolygon","coordinates":[[[[-91.46368,44.01182],[-91.46355,44.01214],[-91.46291,44.01236],[-91.46304,44.01185],[-91.46368,44.01182]]],[[[-91.4637,44.01183],[-91.46368,44.01182],[-91.46369,44.01181],[-91.4637,44.01183]]]]},"properties":{"fire_id":"ufid:2024-WIWIS-FIRE122089","source_collection":"history-2024","source_objectid":26458,"incident_name":"Park Entrance","mapped_acres":0.58,"mapped_acres_source":"poly_GISAcres","gis_acres":0.58,"auto_acres":0.577106625932566,"reported_acres":0.58,"percent_contained":null,"state":"WI","state_wfigs":"US-WI","county":"Trempealeau","discovery_time_utc":"2024-03-09T23:45:00Z","perimeter_time_utc":"2024-03-10T05:45:00Z","perimeter_edit_time_utc":"2024-05-16T18:27:27Z","incident_modified_time_utc":"2024-05-31T20:35:21Z","containment_time_utc":null,"control_time_utc":"2024-03-10T00:00:00Z","fire_out_time_utc":"2024-03-10T00:30:00Z","fire_cause":"Human","fire_cause_general":"Debris and open burning","map_method":"Mixed Methods","source_dataset":"2024 NIFS","unique_fire_identifier":"2024-WIWIS-FIRE122089","irwin_id":"{4B7F92ED-EFC5-4F49-88DB-5DB83C7230BD}","global_id":"e87f4b99-b97f-4240-a5b6-a345472fe377"}},{"type":"Feature","geometry":{"type":"Polygon","coordinates":[[[-91.20341,44.59892],[-91.20119,44.59897],[-91.20133,44.59884],[-91.2013,44.59862],[-91.20045,44.59895],[-91.20018,44.59876],[-91.20053,44.59857],[-91.20043,44.59847],[-91.19942,44.59861],[-91.19756,44.59848],[-91.19738,44.598],[-91.19788,44.59783],[-91.1974,44.59741],[-91.19776,44.59715],[-91.19953,44.59732],[-91.19969,44.5973],[-91.19968,44.59715],[-91.20014,44.59713],[-91.20102,44.59718],[-91.20167,44.59737],[-91.20209,44.59753],[-91.2023,44.59777],[-91.20256,44.5975],[-91.20333,44.59794],[-91.20341,44.59892]]]},"properties":{"fire_id":"ufid:2024-WIWIC-FIRE122460","source_collection":"history-2024","source_objectid":26459,"incident_name":"Osseo County Line","mapped_acres":17.57,"mapped_acres_source":"poly_GISAcres","gis_acres":17.57,"auto_acres":17.5990928826242,"reported_acres":25.0,"percent_contained":null,"state":"WI","state_wfigs":"US-WI","county":"Eau Claire","discovery_time_utc":"2024-04-21T05:00:00Z","perimeter_time_utc":"2024-04-21T10:00:00Z","perimeter_edit_time_utc":"2024-05-16T18:27:27Z","incident_modified_time_utc":"2024-05-02T18:28:58Z","containment_time_utc":null,"control_time_utc":null,"fire_out_time_utc":null,"fire_cause":"Undetermined","fire_cause_general":null,"map_method":"Mixed Methods","source_dataset":"2024 NIFS","unique_fire_identifier":"2024-WIWIC-FIRE122460","irwin_id":"{6F190602-3C27-4ABF-BDFD-A357C5EF45B6}","global_id":"6f9afcf0-3fe7-43d8-826a-0264d2ba961a"}},{"type":"Feature","geometry":{"type":"Polygon","coordinates":[[[-90.61662,44.46557],[-90.61654,44.46654],[-90.61523,44.46651],[-90.61468,44.46637],[-90.61424,44.46603],[-90.61425,44.46543],[-90.61387,44.46539],[-90.61651,44.46539],[-90.61662,44.46557]]]},"properties":{"fire_id":"ufid:2024-WIWIS-FIRE122052","source_collection":"history-2024","source_objectid":26463,"incident_name":"Sherwood","mapped_acres":5.59,"mapped_acres_source":"poly_GISAcres","gis_acres":5.59,"auto_acres":5.59622803516362,"reported_acres":5.59,"percent_contained":null,"state":"WI","state_wfigs":"US-WI","county":"Clark","discovery_time_utc":"2024-03-20T20:20:00Z","perimeter_time_utc":"2024-03-21T01:20:00Z","perimeter_edit_time_utc":"2024-05-16T18:44:40Z","incident_modified_time_utc":"2024-05-31T20:34:39Z","containment_time_utc":null,"control_time_utc":"2024-03-20T21:50:00Z","fire_out_time_utc":"2024-03-21T15:58:00Z","fire_cause":"Human","fire_cause_general":"Other causes","map_method":"Mixed Methods","source_dataset":"2024 NIFS","unique_fire_identifier":"2024-WIWIS-FIRE122052","irwin_id":"{7B62BDA4-9E44-4829-9D98-6B3F728208D0}","global_id":"f8cb9db0-37dd-4021-bc5d-cdf638752e5a"}},{"type":"Feature","geometry":{"type":"Polygon","coordinates":[[[-91.0126,44.28412],[-91.01323,44.28377],[-91.01498,44.28355],[-91.01539,44.28364],[-91.01568,44.28393],[-91.0151,44.2844],[-91.01492,44.28471],[-91.01341,44.28469],[-91.01262,44.28453],[-91.0126,44.28412]]]},"properties":{"fire_id":"ufid:2024-WIWIS-FIRE121985","source_collection":"history-2024","source_objectid":26473,"incident_name":"Stockwell","mapped_acres":5.54,"mapped_acres_source":"poly_GISAcres","gis_acres":5.54,"auto_acres":5.54479045635934,"reported_acres":5.54,"percent_contained":null,"state":"WI","state_wfigs":"US-WI","county":"Jackson","discovery_time_utc":"2024-03-14T04:20:00Z","perimeter_time_utc":"2024-03-14T09:20:00Z","perimeter_edit_time_utc":"2024-05-16T18:51:33Z","incident_modified_time_utc":"2024-05-31T20:29:03Z","containment_time_utc":null,"control_time_utc":"2024-03-14T12:42:00Z","fire_out_time_utc":"2024-03-17T14:30:00Z","fire_cause":"Human","fire_cause_general":"Arson","map_method":"Mixed Methods","source_dataset":"2024 NIFS","unique_fire_identifier":"2024-WIWIS-FIRE121985","irwin_id":"{B5202896-E0DE-4083-AD3E-78F3377906A5}","global_id":"fa0cdfc3-1bfa-48ce-b9b1-6ad283febcf7"}},{"type":"Feature","geometry":{"type":"Polygon","coordinates":[[[-91.1263,43.39545],[-91.12669,43.39537],[-91.12686,43.39505],[-91.12709,43.39497],[-91.12721,43.39506],[-91.12717,43.39565],[-91.12631,43.3957],[-91.1263,43.39545]]]},"properties":{"fire_id":"ufid:2024-WIWIS-FIRE122076","source_collection":"history-2024","source_objectid":26474,"incident_name":"Rush Fire","mapped_acres":1.0,"mapped_acres_source":"poly_GISAcres","gis_acres":1.0,"auto_acres":1.00513382546006,"reported_acres":1.0,"percent_contained":null,"state":"WI","state_wfigs":"US-WI","county":"Crawford","discovery_time_utc":"2024-03-21T21:10:00Z","perimeter_time_utc":"2024-03-22T02:17:00Z","perimeter_edit_time_utc":"2024-05-16T18:37:56Z","incident_modified_time_utc":"2024-05-31T20:34:36Z","containment_time_utc":null,"control_time_utc":"2024-03-22T02:00:00Z","fire_out_time_utc":"2024-03-27T16:00:00Z","fire_cause":"Human","fire_cause_general":"Debris and open burning","map_method":"Mixed Methods","source_dataset":"2024 NIFS","unique_fire_identifier":"2024-WIWIS-FIRE122076","irwin_id":"{51F1068F-0B12-45F0-897D-5E369BDE4376}","global_id":"4d1e265f-ff1e-4663-8d21-c5f1e8b87f0b"}},{"type":"Feature","geometry":{"type":"Polygon","coordinates":[[[-91.32923,44.79185],[-91.32726,44.79165],[-91.32706,44.79154],[-91.33051,44.79184],[-91.33049,44.79195],[-91.33018,44.79197],[-91.33065,44.79213],[-91.33085,44.79235],[-91.33087,44.79364],[-91.33072,44.79399],[-91.33055,44.794],[-91.3305,44.79373],[-91.33021,44.79348],[-91.32923,44.7934],[-91.32909,44.79308],[-91.32916,44.79298],[-91.32884,44.79252],[-91.32863,44.79245],[-91.32873,44.79221],[-91.32923,44.79185]]]},"properties":{"fire_id":"ufid:2024-WIWIS-FIRE121827","source_collection":"history-2024","source_objectid":26476,"incident_name":"Oak Knoll","mapped_acres":7.65,"mapped_acres_source":"poly_GISAcres","gis_acres":7.65,"auto_acres":7.65010571332787,"reported_acres":7.65,"percent_contained":null,"state":"WI","state_wfigs":"US-WI","county":"Eau Claire","discovery_time_utc":"2024-03-02T15:38:00Z","perimeter_time_utc":"2024-03-02T21:38:00Z","perimeter_edit_time_utc":"2024-05-16T18:25:16Z","incident_modified_time_utc":"2024-05-31T20:19:05Z","containment_time_utc":null,"control_time_utc":"2024-03-02T17:35:00Z","fire_out_time_utc":"2024-03-03T17:48:00Z","fire_cause":"Human","fire_cause_general":"Railroad operations and maintenance","map_method":"Mixed Methods","source_dataset":"2024 NIFS","unique_fire_identifier":"2024-WIWIS-FIRE121827","irwin_id":"{6E910741-E968-4EB4-A73B-9D9ED0177672}","global_id":"a410a145-63f0-4232-85a1-334420781515"}},{"type":"Feature","geometry":{"type":"Polygon","coordinates":[[[-90.15917,44.38038],[-90.15919,44.38062],[-90.1589,44.38078],[-90.15835,44.38063],[-90.15856,44.38051],[-90.15861,44.38031],[-90.15917,44.38038]]]},"properties":{"fire_id":"ufid:2024-WIWIS-FIRE121765","source_collection":"history-2024","source_objectid":26478,"incident_name":"Pintail","mapped_acres":0.59,"mapped_acres_source":"poly_GISAcres","gis_acres":0.59,"auto_acres":0.585899821192881,"reported_acres":0.59,"percent_contained":null,"state":"WI","state_wfigs":"US-WI","county":"Wood","discovery_time_utc":"2024-02-25T21:45:00Z","perimeter_time_utc":"2024-02-26T03:45:00Z","perimeter_edit_time_utc":"2024-05-16T18:32:00Z","incident_modified_time_utc":"2024-05-31T20:11:16Z","containment_time_utc":null,"control_time_utc":"2024-02-25T22:39:00Z","fire_out_time_utc":"2024-02-25T23:16:00Z","fire_cause":"Human","fire_cause_general":"Debris and open burning","map_method":"Mixed Methods","source_dataset":"2024 NIFS","unique_fire_identifier":"2024-WIWIS-FIRE121765","irwin_id":"{74AFD9A9-D88B-43C7-9440-43A94EE5C6FE}","global_id":"d12f802c-73db-47bd-8fd6-74cc0e372185"}},{"type":"Feature","geometry":{"type":"Polygon","coordinates":[[[-90.81483,43.41878],[-90.81551,43.41815],[-90.81597,43.41808],[-90.81664,43.41833],[-90.81687,43.41861],[-90.8175,43.41859],[-90.81784,43.41895],[-90.81829,43.41909],[-90.81881,43.41971],[-90.81833,43.41999],[-90.81767,43.41971],[-90.81759,43.41983],[-90.81781,43.41997],[-90.81704,43.42014],[-90.81633,43.41997],[-90.81608,43.41984],[-90.81599,43.41959],[-90.81522,43.41937],[-90.81482,43.41894],[-90.81483,43.41878]]]},"properties":{"fire_id":"ufid:2024-WIWIS-FIRE121856","source_collection":"history-2024","source_objectid":26487,"incident_name":"Norwegian","mapped_acres":10.44,"mapped_acres_source":"poly_GISAcres","gis_acres":10.44,"auto_acres":10.4435367494058,"reported_acres":10.44,"percent_contained":null,"state":"WI","state_wfigs":"US-WI","county":"Crawford","discovery_time_utc":"2024-03-03T20:00:00Z","perimeter_time_utc":"2024-03-04T02:00:00Z","perimeter_edit_time_utc":"2024-05-16T18:24:38Z","incident_modified_time_utc":"2024-05-31T20:18:42Z","containment_time_utc":null,"control_time_utc":"2024-03-03T21:29:00Z","fire_out_time_utc":"2024-03-04T15:53:00Z","fire_cause":"Human","fire_cause_general":"Equipment and vehicle use","map_method":"Mixed Methods","source_dataset":"2024 NIFS","unique_fire_identifier":"2024-WIWIS-FIRE121856","irwin_id":"{52FA6BAF-8A1D-4501-BBFC-6DDBCFBCCCD4}","global_id":"a02dc357-1eae-4136-9e04-837fb5790e37"}},{"type":"Feature","geometry":{"type":"Polygon","coordinates":[[[-90.79873,44.6506],[-90.79939,44.64987],[-90.7998,44.64993],[-90.79956,44.65008],[-90.79933,44.65005],[-90.79953,44.65023],[-90.79925,44.65013],[-90.79906,44.65025],[-90.79916,44.65032],[-90.79908,44.6504],[-90.7999,44.65054],[-90.79944,44.65059],[-90.79934,44.65072],[-90.7995,44.65078],[-90.79939,44.65083],[-90.79901,44.65074],[-90.79899,44.65094],[-90.79874,44.65083],[-90.79873,44.6506]]]},"properties":{"fire_id":"ufid:2024-WIWIS-FIRE122417","source_collection":"history-2024","source_objectid":26495,"incident_name":"Peak","mapped_acres":0.97,"mapped_acres_source":"poly_GISAcres","gis_acres":0.97,"auto_acres":0.973551814097903,"reported_acres":0.97,"percent_contained":null,"state":"WI","state_wfigs":"US-WI","county":"Clark","discovery_time_utc":"2024-04-26T15:45:00Z","perimeter_time_utc":"2024-04-26T21:21:00Z","perimeter_edit_time_utc":"2024-05-16T18:30:20Z","incident_modified_time_utc":"2024-05-31T20:54:10Z","containment_time_utc":null,"control_time_utc":"2024-04-26T17:38:00Z","fire_out_time_utc":"2024-04-27T15:49:00Z","fire_cause":"Human","fire_cause_general":"Arson","map_method":"Mixed Methods","source_dataset":"2024 NIFS","unique_fire_identifier":"2024-WIWIS-FIRE122417","irwin_id":"{346B4E0B-7022-45CD-BAA1-94F34CF9B282}","global_id":"9b7af520-c998-423c-bd04-53a33b728c56"}},{"type":"Feature","geometry":{"type":"Polygon","coordinates":[[[-90.18492,43.86542],[-90.18508,43.86559],[-90.18474,43.86576],[-90.18442,43.86607],[-90.18445,43.86623],[-90.18417,43.86641],[-90.18357,43.86663],[-90.18278,43.86634],[-90.18411,43.86605],[-90.18431,43.86575],[-90.18463,43.86569],[-90.1846,43.86546],[-90.18492,43.86542]]]},"properties":{"fire_id":"ufid:2024-WIWIS-FIRE122092","source_collection":"history-2024","source_objectid":26497,"incident_name":"Triangle","mapped_acres":1.74,"mapped_acres_source":"poly_GISAcres","gis_acres":1.74,"auto_acres":1.74348421796683,"reported_acres":1.74,"percent_contained":null,"state":"WI","state_wfigs":"US-WI","county":"Juneau","discovery_time_utc":"2024-03-29T00:15:00Z","perimeter_time_utc":"2024-03-29T05:15:00Z","perimeter_edit_time_utc":"2024-05-16T18:58:18Z","incident_modified_time_utc":"2024-06-27T18:25:14Z","containment_time_utc":null,"control_time_utc":"2024-03-29T01:30:00Z","fire_out_time_utc":"2024-03-29T15:31:00Z","fire_cause":"Human","fire_cause_general":"Debris and open burning","map_method":"Mixed Methods","source_dataset":"2024 NIFS","unique_fire_identifier":"2024-WIWIS-FIRE122092","irwin_id":"{FE50B653-F44E-4C35-9C38-E189CDAD9931}","global_id":"1e504864-a00e-48e5-bc73-c811da8c0e85"}},{"type":"Feature","geometry":{"type":"Polygon","coordinates":[[[-90.33444,44.48914],[-90.33704,44.48907],[-90.33715,44.48956],[-90.33645,44.48985],[-90.33615,44.48968],[-90.33584,44.48971],[-90.33581,44.48997],[-90.33548,44.48989],[-90.3354,44.49015],[-90.33456,44.48987],[-90.33444,44.48914]]]},"properties":{"fire_id":"ufid:2024-WIWIS-FIRE122288","source_collection":"history-2024","source_objectid":26499,"incident_name":"Todd Rd","mapped_acres":4.52,"mapped_acres_source":"poly_GISAcres","gis_acres":4.52,"auto_acres":4.52326246794282,"reported_acres":4.52,"percent_contained":null,"state":"WI","state_wfigs":"US-WI","county":"Clark","discovery_time_utc":"2024-04-16T21:30:00Z","perimeter_time_utc":"2024-04-17T02:43:00Z","perimeter_edit_time_utc":"2024-05-16T18:56:40Z","incident_modified_time_utc":"2024-05-31T20:47:02Z","containment_time_utc":null,"control_time_utc":"2024-04-16T23:04:00Z","fire_out_time_utc":"2024-04-17T14:42:00Z","fire_cause":"Human","fire_cause_general":"Power generation/transmission/distribution","map_method":"Mixed Methods","source_dataset":"2024 NIFS","unique_fire_identifier":"2024-WIWIS-FIRE122288","irwin_id":"{87A29E95-FCFC-4E77-97D0-3A2B72D88370}","global_id":"6b00caf3-3827-45c9-9b73-9b93d1af9abb"}},{"type":"Feature","geometry":{"type":"Polygon","coordinates":[[[-90.90039,44.53327],[-90.90486,44.53433],[-90.90484,44.53449],[-90.9045,44.53447],[-90.90446,44.53459],[-90.90344,44.53443],[-90.90358,44.53416],[-90.90192,44.53373],[-90.90147,44.53382],[-90.90143,44.53363],[-90.901,44.53353],[-90.90133,44.53402],[-90.90033,44.53337],[-90.90039,44.53327]]]},"properties":{"fire_id":"ufid:2024-WIWIS-FIRE121843","source_collection":"history-2024","source_objectid":26501,"incident_name":"Trackside","mapped_acres":2.11,"mapped_acres_source":"poly_GISAcres","gis_acres":2.11,"auto_acres":2.11293134414994,"reported_acres":2.11,"percent_contained":null,"state":"WI","state_wfigs":"US-WI","county":"Clark","discovery_time_utc":"2024-03-02T22:38:00Z","perimeter_time_utc":"2024-03-03T04:38:00Z","perimeter_edit_time_utc":"2024-05-16T18:57:29Z","incident_modified_time_utc":"2024-05-31T20:18:34Z","containment_time_utc":null,"control_time_utc":"2024-03-03T01:50:00Z","fire_out_time_utc":"2024-03-03T17:48:00Z","fire_cause":"Human","fire_cause_general":"Railroad operations and maintenance","map_method":"Mixed Methods","source_dataset":"2024 NIFS","unique_fire_identifier":"2024-WIWIS-FIRE121843","irwin_id":"{6BBFD9EC-6AD4-49BC-A498-6724321169D7}","global_id":"e5e177ed-2b59-444a-baaf-4f8fe6498c41"}},{"type":"Feature","geometry":{"type":"Polygon","coordinates":[[[-90.85986,44.6097],[-90.85981,44.60987],[-90.85928,44.61007],[-90.85844,44.61015],[-90.85863,44.61026],[-90.85862,44.61047],[-90.85832,44.61031],[-90.85825,44.60986],[-90.85986,44.6097]]]},"properties":{"fire_id":"ufid:2024-WIWIS-FIRE122415","source_collection":"history-2024","source_objectid":26503,"incident_name":"Tamarack","mapped_acres":1.33,"mapped_acres_source":"poly_GISAcres","gis_acres":1.33,"auto_acres":1.33244461851513,"reported_acres":1.33,"percent_contained":null,"state":"WI","state_wfigs":"US-WI","county":"Clark","discovery_time_utc":"2024-04-26T16:00:00Z","perimeter_time_utc":"2024-04-26T21:22:00Z","perimeter_edit_time_utc":"2024-05-16T18:54:44Z","incident_modified_time_utc":"2024-05-31T20:54:12Z","containment_time_utc":null,"control_time_utc":"2024-04-26T17:27:00Z","fire_out_time_utc":"2024-04-26T19:00:00Z","fire_cause":"Human","fire_cause_general":"Arson","map_method":"Mixed Methods","source_dataset":"2024 NIFS","unique_fire_identifier":"2024-WIWIS-FIRE122415","irwin_id":"{2EE8B2D3-0DBA-482A-ABC2-60AC16AC898C}","global_id":"4f1bb937-8b53-4d5e-957d-b1ccd9f9f7ef"}},{"type":"Feature","geometry":{"type":"Polygon","coordinates":[[[-91.0943,44.51225],[-91.09456,44.51256],[-91.0943,44.51301],[-91.09349,44.51291],[-91.09358,44.51232],[-91.09381,44.51219],[-91.0943,44.51225]]]},"properties":{"fire_id":"ufid:2024-WIWIS-FIRE122488","source_collection":"history-2024","source_objectid":26505,"incident_name":"Valley","mapped_acres":1.6,"mapped_acres_source":"poly_GISAcres","gis_acres":1.6,"auto_acres":1.60216835535411,"reported_acres":1.6,"percent_contained":null,"state":"WI","state_wfigs":"US-WI","county":"Jackson","discovery_time_utc":"2024-05-07T21:43:00Z","perimeter_time_utc":"2024-05-09T01:17:00Z","perimeter_edit_time_utc":"2024-05-16T19:00:52Z","incident_modified_time_utc":"2024-05-31T20:57:18Z","containment_time_utc":null,"control_time_utc":"2024-05-08T21:15:00Z","fire_out_time_utc":"2024-05-09T15:00:00Z","fire_cause":"Natural","fire_cause_general":"Natural","map_method":"Mixed Methods","source_dataset":"2024 NIFS","unique_fire_identifier":"2024-WIWIS-FIRE122488","irwin_id":"{5F37F1FE-1EDC-4FB0-A109-0945B80BDE80}","global_id":"481e6d5b-f1c0-4a90-ba25-f67db12e8b69"}},{"type":"Feature","geometry":{"type":"Polygon","coordinates":[[[-90.89599,44.53131],[-90.89989,44.53309],[-90.89986,44.53318],[-90.89593,44.5314],[-90.89599,44.53131]]]},"properties":{"fire_id":"ufid:2024-WIWIS-FIRE121846","source_collection":"history-2024","source_objectid":26515,"incident_name":"Theiler","mapped_acres":0.95,"mapped_acres_source":"poly_GISAcres","gis_acres":0.95,"auto_acres":0.94891385090252,"reported_acres":0.95,"percent_contained":null,"state":"WI","state_wfigs":"US-WI","county":"Clark","discovery_time_utc":"2024-03-02T22:38:00Z","perimeter_time_utc":"2024-03-03T04:57:41Z","perimeter_edit_time_utc":"2024-05-16T18:55:10Z","incident_modified_time_utc":"2024-05-31T20:19:01Z","containment_time_utc":null,"control_time_utc":"2024-03-03T01:50:00Z","fire_out_time_utc":"2024-03-03T17:48:00Z","fire_cause":"Human","fire_cause_general":"Railroad operations and maintenance","map_method":"Mixed Methods","source_dataset":"2024 NIFS","unique_fire_identifier":"2024-WIWIS-FIRE121846","irwin_id":"{B237A988-37AB-4DB0-BB03-FF65A7E49DDC}","global_id":"56e5ac13-f2e0-4f21-afeb-912d491e7da4"}},{"type":"Feature","geometry":{"type":"Polygon","coordinates":[[[-91.07077,44.58389],[-91.07098,44.58394],[-91.07088,44.58434],[-91.07057,44.58401],[-91.07077,44.58389]]]},"properties":{"fire_id":"ufid:2024-WIWIS-FIRE121810","source_collection":"history-2024","source_objectid":26527,"incident_name":"Samso","mapped_acres":0.25,"mapped_acres_source":"poly_GISAcres","gis_acres":0.25,"auto_acres":0.250037926631352,"reported_acres":0.25,"percent_contained":null,"state":"WI","state_wfigs":"US-WI","county":"Jackson","discovery_time_utc":"2024-02-29T20:53:00Z","perimeter_time_utc":"2024-03-01T00:00:00Z","perimeter_edit_time_utc":"2024-05-17T14:57:01Z","incident_modified_time_utc":"2024-05-31T20:14:25Z","containment_time_utc":null,"control_time_utc":"2024-02-29T22:13:00Z","fire_out_time_utc":"2024-02-29T22:26:00Z","fire_cause":"Human","fire_cause_general":"Debris and open burning","map_method":"Mixed Methods","source_dataset":"2024 NIFS","unique_fire_identifier":"2024-WIWIS-FIRE121810","irwin_id":"{363D7F32-D4E9-4EF4-947B-02F541C8FD89}","global_id":"a0dc39ed-0c0b-4d78-9bf2-a4ac81786c2c"}},{"type":"Feature","geometry":{"type":"Polygon","coordinates":[[[-90.91386,44.53632],[-90.91475,44.53663],[-90.91462,44.53676],[-90.91375,44.53645],[-90.91386,44.53632]]]},"properties":{"fire_id":"ufid:2024-WIWIS-FIRE121849","source_collection":"history-2024","source_objectid":26530,"incident_name":"Field","mapped_acres":0.34,"mapped_acres_source":"poly_GISAcres","gis_acres":0.34,"auto_acres":0.337050200049619,"reported_acres":0.34,"percent_contained":null,"state":"WI","state_wfigs":"US-WI","county":"Clark","discovery_time_utc":"2024-03-02T22:38:00Z","perimeter_time_utc":"2024-03-03T04:57:47Z","perimeter_edit_time_utc":"2024-05-17T15:04:56Z","incident_modified_time_utc":"2024-05-31T20:18:59Z","containment_time_utc":null,"control_time_utc":"2024-03-03T01:50:00Z","fire_out_time_utc":"2024-03-03T17:48:00Z","fire_cause":"Human","fire_cause_general":"Railroad operations and maintenance","map_method":"Mixed Methods","source_dataset":"2024 NIFS","unique_fire_identifier":"2024-WIWIS-FIRE121849","irwin_id":"{65FC5351-90F0-49D6-B7A0-964D2EDF1B77}","global_id":"72e39630-142a-419b-a3e8-afc3a78ff21b"}},{"type":"Feature","geometry":{"type":"Polygon","coordinates":[[[-90.12281,43.34853],[-90.12299,43.34886],[-90.12269,43.34923],[-90.12265,43.34847],[-90.12281,43.34853]]]},"properties":{"fire_id":"ufid:2024-WIWIS-FIRE121840","source_collection":"history-2024","source_objectid":26532,"incident_name":"McCarville Road","mapped_acres":0.28,"mapped_acres_source":"poly_GISAcres","gis_acres":0.28,"auto_acres":0.282887528220416,"reported_acres":0.28,"percent_contained":null,"state":"WI","state_wfigs":"US-WI","county":"Sauk","discovery_time_utc":"2024-03-02T20:25:00Z","perimeter_time_utc":"2024-03-03T02:25:00Z","perimeter_edit_time_utc":"2024-05-17T15:03:50Z","incident_modified_time_utc":"2024-05-31T20:19:19Z","containment_time_utc":null,"control_time_utc":"2024-03-02T21:30:00Z","fire_out_time_utc":"2024-03-02T22:10:00Z","fire_cause":"Human","fire_cause_general":"Power generation/transmission/distribution","map_method":"Mixed Methods","source_dataset":"2024 NIFS","unique_fire_identifier":"2024-WIWIS-FIRE121840","irwin_id":"{9F0DCA95-0F6B-4F59-9BE7-6F35664E7635}","global_id":"a4fba527-ca38-4cda-929d-160b1cd5f3ef"}},{"type":"Feature","geometry":{"type":"Polygon","coordinates":[[[-91.32079,44.78986],[-91.32018,44.78969],[-91.31996,44.78947],[-91.32079,44.78986]]]},"properties":{"fire_id":"ufid:2024-WIWIS-FIRE121830","source_collection":"history-2024","source_objectid":26538,"incident_name":"Schultz","mapped_acres":0.12,"mapped_acres_source":"poly_GISAcres","gis_acres":0.12,"auto_acres":0.209699137934051,"reported_acres":0.21,"percent_contained":null,"state":"WI","state_wfigs":"US-WI","county":"Eau Claire","discovery_time_utc":"2024-03-02T15:38:00Z","perimeter_time_utc":"2024-03-02T21:38:00Z","perimeter_edit_time_utc":"2024-05-17T15:14:12Z","incident_modified_time_utc":"2024-05-31T20:19:11Z","containment_time_utc":null,"control_time_utc":"2024-03-02T17:35:00Z","fire_out_time_utc":"2024-03-03T17:48:00Z","fire_cause":"Human","fire_cause_general":"Railroad operations and maintenance","map_method":"Mixed Methods","source_dataset":"2024 NIFS","unique_fire_identifier":"2024-WIWIS-FIRE121830","irwin_id":"{1A7C6948-0D62-44AB-B248-97499697E5F4}","global_id":"e6b6b92d-6815-4450-8614-db604001cb85"}},{"type":"Feature","geometry":{"type":"Polygon","coordinates":[[[-91.32203,44.79037],[-91.32302,44.79066],[-91.32221,44.79054],[-91.32203,44.79037]]]},"properties":{"fire_id":"ufid:2024-WIWIS-FIRE121832","source_collection":"history-2024","source_objectid":26543,"incident_name":"Willow","mapped_acres":0.17,"mapped_acres_source":"poly_GISAcres","gis_acres":0.17,"auto_acres":0.171559861400768,"reported_acres":0.17,"percent_contained":null,"state":"WI","state_wfigs":"US-WI","county":"Eau Claire","discovery_time_utc":"2024-03-02T15:38:00Z","perimeter_time_utc":"2024-03-02T21:38:00Z","perimeter_edit_time_utc":"2024-05-17T15:13:31Z","incident_modified_time_utc":"2024-05-31T20:19:08Z","containment_time_utc":null,"control_time_utc":"2024-03-02T17:35:00Z","fire_out_time_utc":"2024-03-03T17:49:00Z","fire_cause":"Human","fire_cause_general":"Railroad operations and maintenance","map_method":"Mixed Methods","source_dataset":"2024 NIFS","unique_fire_identifier":"2024-WIWIS-FIRE121832","irwin_id":"{AC884823-9D0A-4E8F-89D0-A96AA1E9E998}","global_id":"df1c6249-59e4-4c39-8172-dee6e234eba5"}},{"type":"Feature","geometry":{"type":"Polygon","coordinates":[[[-91.24565,44.77149],[-91.24574,44.77177],[-91.24555,44.77199],[-91.24551,44.77168],[-91.24565,44.77149]]]},"properties":{"fire_id":"ufid:2024-WIWIS-FIRE122054","source_collection":"history-2024","source_objectid":26544,"incident_name":"Oak Ridge","mapped_acres":0.17,"mapped_acres_source":"poly_GISAcres","gis_acres":0.17,"auto_acres":0.168897699033991,"reported_acres":0.17,"percent_contained":null,"state":"WI","state_wfigs":"US-WI","county":"Eau Claire","discovery_time_utc":"2024-03-20T20:45:00Z","perimeter_time_utc":"2024-03-21T01:45:00Z","perimeter_edit_time_utc":"2024-05-17T15:16:16Z","incident_modified_time_utc":"2024-05-31T20:35:00Z","containment_time_utc":null,"control_time_utc":"2024-03-20T21:37:00Z","fire_out_time_utc":"2024-03-21T14:19:00Z","fire_cause":"Human","fire_cause_general":"Debris and open burning","map_method":"Mixed Methods","source_dataset":"2024 NIFS","unique_fire_identifier":"2024-WIWIS-FIRE122054","irwin_id":"{4A8B40F7-EFDB-4AE0-8BD3-E7283178EEEE}","global_id":"010b7b13-7916-458b-a5c3-97578fd2f31d"}},{"type":"Feature","geometry":{"type":"Polygon","coordinates":[[[-91.30083,44.78168],[-91.30137,44.78184],[-91.30114,44.78187],[-91.30083,44.78168]]]},"properties":{"fire_id":"ufid:2024-WIWIS-FIRE121829","source_collection":"history-2024","source_objectid":26545,"incident_name":"Pine","mapped_acres":0.12,"mapped_acres_source":"poly_GISAcres","gis_acres":0.12,"auto_acres":0.124098045385034,"reported_acres":0.12,"percent_contained":null,"state":"WI","state_wfigs":"US-WI","county":"Eau Claire","discovery_time_utc":"2024-03-02T15:38:00Z","perimeter_time_utc":"2024-03-02T21:38:00Z","perimeter_edit_time_utc":"2024-05-17T15:15:05Z","incident_modified_time_utc":"2024-05-31T20:19:10Z","containment_time_utc":null,"control_time_utc":"2024-03-02T17:35:00Z","fire_out_time_utc":"2024-03-03T17:49:00Z","fire_cause":"Human","fire_cause_general":"Railroad operations and maintenance","map_method":"Mixed Methods","source_dataset":"2024 NIFS","unique_fire_identifier":"2024-WIWIS-FIRE121829","irwin_id":"{B5CA6C28-FD81-4712-984F-829B6F7FE352}","global_id":"a662336e-9b95-4113-b860-9432f7845d9c"}},{"type":"Feature","geometry":{"type":"Polygon","coordinates":[[[-90.07089,43.95426],[-90.07115,43.95432],[-90.07117,43.95458],[-90.07076,43.95449],[-90.07089,43.95426]]]},"properties":{"fire_id":"ufid:2024-WIWIS-FIRE122140","source_collection":"history-2024","source_objectid":26552,"incident_name":"Lake","mapped_acres":0.19,"mapped_acres_source":"poly_GISAcres","gis_acres":0.19,"auto_acres":0.185765480726174,"reported_acres":0.19,"percent_contained":null,"state":"WI","state_wfigs":"US-WI","county":"Juneau","discovery_time_utc":"2024-04-10T17:45:00Z","perimeter_time_utc":"2024-04-10T10:00:00Z","perimeter_edit_time_utc":"2024-05-17T15:29:00Z","incident_modified_time_utc":"2024-05-31T20:39:31Z","containment_time_utc":null,"control_time_utc":"2024-04-10T18:31:00Z","fire_out_time_utc":"2024-04-10T19:23:00Z","fire_cause":"Human","fire_cause_general":"Other causes","map_method":"Mixed Methods","source_dataset":"2024 NIFS","unique_fire_identifier":"2024-WIWIS-FIRE122140","irwin_id":"{6D142E39-8FFA-4C29-A5D7-F0C1290CCA1B}","global_id":"7d131e3f-c1d1-4819-b26e-5c822a74f42c"}},{"type":"Feature","geometry":{"type":"Polygon","coordinates":[[[-90.12684,44.36031],[-90.12744,44.36057],[-90.1274,44.36075],[-90.12696,44.36064],[-90.12684,44.36031]]]},"properties":{"fire_id":"ufid:2024-WIWIS-FIRE122117","source_collection":"history-2024","source_objectid":26554,"incident_name":"Ring-necked","mapped_acres":0.39,"mapped_acres_source":"poly_GISAcres","gis_acres":0.39,"auto_acres":0.390706243101029,"reported_acres":0.39,"percent_contained":null,"state":"WI","state_wfigs":"US-WI","county":"Wood","discovery_time_utc":"2024-04-06T21:45:00Z","perimeter_time_utc":"2024-04-06T10:00:00Z","perimeter_edit_time_utc":"2024-05-17T15:25:45Z","incident_modified_time_utc":"2024-05-31T20:39:04Z","containment_time_utc":null,"control_time_utc":"2024-04-06T22:39:00Z","fire_out_time_utc":"2024-04-06T23:05:00Z","fire_cause":"Human","fire_cause_general":"Debris and open burning","map_method":"Mixed Methods","source_dataset":"2024 NIFS","unique_fire_identifier":"2024-WIWIS-FIRE122117","irwin_id":"{457D495C-1CA0-45A5-B13A-0E623C6BF06D}","global_id":"0d00ff56-7e7a-460d-9838-bbe6b3144f57"}},{"type":"Feature","geometry":{"type":"Polygon","coordinates":[[[-90.11236,44.36724],[-90.11235,44.36755],[-90.11224,44.36744],[-90.11236,44.36724]]]},"properties":{"fire_id":"ufid:2024-WIWIS-FIRE122183","source_collection":"history-2024","source_objectid":26561,"incident_name":"Merganser","mapped_acres":0.1,"mapped_acres_source":"poly_GISAcres","gis_acres":0.1,"auto_acres":0.100905238942661,"reported_acres":0.1,"percent_contained":null,"state":"WI","state_wfigs":"US-WI","county":"Wood","discovery_time_utc":"2024-04-13T19:30:00Z","perimeter_time_utc":"2024-04-14T00:35:00Z","perimeter_edit_time_utc":"2024-05-17T15:31:40Z","incident_modified_time_utc":"2024-05-31T20:40:26Z","containment_time_utc":null,"control_time_utc":"2024-04-13T20:28:00Z","fire_out_time_utc":"2024-04-14T17:41:00Z","fire_cause":"Human","fire_cause_general":"Equipment and vehicle use","map_method":"Mixed Methods","source_dataset":"2024 NIFS","unique_fire_identifier":"2024-WIWIS-FIRE122183","irwin_id":"{72A8BEC2-4F82-48F9-B0C0-D7239E00A6A6}","global_id":"f34fdbe0-d8c3-4f2d-8959-c7b6db80790a"}},{"type":"Feature","geometry":{"type":"Polygon","coordinates":[[[-90.16577,43.06145],[-90.16626,43.06139],[-90.16704,43.06151],[-90.16577,43.06145]]]},"properties":{"fire_id":"ufid:2024-WIWIS-FIRE122234","source_collection":"history-2024","source_objectid":26580,"incident_name":"Floyd","mapped_acres":0.1,"mapped_acres_source":"poly_GISAcres","gis_acres":0.1,"auto_acres":0.0970726639568002,"reported_acres":0.1,"percent_contained":null,"state":"WI","state_wfigs":"US-WI","county":"Iowa","discovery_time_utc":"2024-04-15T05:01:00Z","perimeter_time_utc":"2024-04-15T10:33:00Z","perimeter_edit_time_utc":"2024-05-17T15:48:50Z","incident_modified_time_utc":"2024-05-31T20:46:02Z","containment_time_utc":null,"control_time_utc":"2024-04-15T05:45:00Z","fire_out_time_utc":"2024-04-15T06:15:00Z","fire_cause":"Human","fire_cause_general":"Equipment and vehicle use","map_method":"Mixed Methods","source_dataset":"2024 NIFS","unique_fire_identifier":"2024-WIWIS-FIRE122234","irwin_id":"{0D106B2B-B55F-4DFC-BAD8-EDA27D8B44E5}","global_id":"b26a51e0-e56e-41fe-9824-3365b765f7fc"}},{"type":"Feature","geometry":{"type":"MultiPolygon","coordinates":[[[[-90.07039,44.08702],[-90.07041,44.08705],[-90.07038,44.08702],[-90.07039,44.08702]]],[[[-90.07038,44.08695],[-90.07059,44.08684],[-90.07069,44.087],[-90.07038,44.08695]]]]},"properties":{"fire_id":"ufid:2024-WIWIS-FIRE122205","source_collection":"history-2024","source_objectid":26582,"incident_name":"Northside","mapped_acres":0.1,"mapped_acres_source":"poly_GISAcres","gis_acres":0.1,"auto_acres":0.0997979034603419,"reported_acres":0.1,"percent_contained":null,"state":"WI","state_wfigs":"US-WI","county":"Juneau","discovery_time_utc":"2024-04-13T22:45:00Z","perimeter_time_utc":"2024-04-13T10:00:00Z","perimeter_edit_time_utc":"2024-05-17T15:52:03Z","incident_modified_time_utc":"2024-05-31T20:40:57Z","containment_time_utc":null,"control_time_utc":"2024-04-13T22:59:00Z","fire_out_time_utc":"2024-04-13T23:25:00Z","fire_cause":"Human","fire_cause_general":"Equipment and vehicle use","map_method":"Mixed Methods","source_dataset":"2024 NIFS","unique_fire_identifier":"2024-WIWIS-FIRE122205","irwin_id":"{34C94B79-290C-4891-9ADB-5E81B70B9363}","global_id":"1a6cfab8-07e2-4e69-8730-1b3e62af2d3a"}},{"type":"Feature","geometry":{"type":"Polygon","coordinates":[[[-90.05448,43.03431],[-90.05477,43.03437],[-90.05482,43.03451],[-90.05447,43.03469],[-90.05448,43.03431]]]},"properties":{"fire_id":"ufid:2024-WIWIS-FIRE122475","source_collection":"history-2024","source_objectid":26593,"incident_name":"Griffiths","mapped_acres":0.25,"mapped_acres_source":"poly_GISAcres","gis_acres":0.25,"auto_acres":0.247118932626013,"reported_acres":0.25,"percent_contained":null,"state":"WI","state_wfigs":"US-WI","county":"Iowa","discovery_time_utc":"2024-05-06T15:10:00Z","perimeter_time_utc":"2024-05-06T20:15:00Z","perimeter_edit_time_utc":"2024-05-17T17:53:24Z","incident_modified_time_utc":"2024-05-31T20:57:34Z","containment_time_utc":null,"control_time_utc":"2024-05-06T15:41:00Z","fire_out_time_utc":"2024-05-06T16:33:00Z","fire_cause":"Human","fire_cause_general":"Debris and open burning","map_method":"Mixed Methods","source_dataset":"2024 NIFS","unique_fire_identifier":"2024-WIWIS-FIRE122475","irwin_id":"{AA7BC43D-6D14-4C55-B137-1B409CF57870}","global_id":"1920ada1-6930-4b37-8540-4931b772cb61"}}]}
