{"type":"FeatureCollection","features":[{"type":"Feature","geometry":{"type":"Polygon","coordinates":[[[-141.80665,65.48622],[-141.8093,65.48708],[-141.80928,65.48724],[-141.80851,65.48755],[-141.80843,65.48773],[-141.80882,65.4879],[-141.81079,65.48817],[-141.81035,65.48833],[-141.81139,65.48843],[-141.81117,65.4886],[-141.80958,65.48878],[-141.80843,65.48857],[-141.80596,65.48841],[-141.80345,65.48787],[-141.8033,65.48775],[-141.80339,65.48743],[-141.80312,65.48727],[-141.80151,65.48717],[-141.80357,65.48642],[-141.80501,65.48619],[-141.80665,65.48622]]]},"properties":{"fire_id":"ufid:2023-AKUYD-000350","source_collection":"history-2023","source_objectid":19172,"incident_name":"Easy Moose","mapped_acres":16.5,"mapped_acres_source":"poly_GISAcres","gis_acres":16.5,"auto_acres":16.5487342132398,"reported_acres":16.5,"percent_contained":null,"state":"AK","state_wfigs":"US-AK","county":"Yukon-Koyukuk","discovery_time_utc":"2023-08-07T18:06:00Z","perimeter_time_utc":"2023-08-14T21:17:00Z","perimeter_edit_time_utc":"2023-08-19T17:42:54Z","incident_modified_time_utc":"2023-08-19T20:25:51Z","containment_time_utc":"2023-08-19T01:30:00Z","control_time_utc":"2023-08-19T01:30:00Z","fire_out_time_utc":"2023-08-19T01:30:00Z","fire_cause":"Natural","fire_cause_general":null,"map_method":"Image Interpretation","source_dataset":"2023 NIFS","unique_fire_identifier":"2023-AKUYD-000350","irwin_id":"{182430FD-C3DD-4F2B-9A87-DB1BAC489C43}","global_id":"3d7e6467-2d4b-4f8a-8e4e-3992a72d1c28"}},{"type":"Feature","geometry":{"type":"Polygon","coordinates":[[[-144.63286,65.36758],[-144.63276,65.36776],[-144.63245,65.36782],[-144.63225,65.36782],[-144.63212,65.36763],[-144.63229,65.36746],[-144.6327,65.36736],[-144.63335,65.3674],[-144.63286,65.36758]]]},"properties":{"fire_id":"ufid:2023-AKUYD-000322","source_collection":"history-2023","source_objectid":21035,"incident_name":"Portage","mapped_acres":0.4,"mapped_acres_source":"poly_GISAcres","gis_acres":0.4,"auto_acres":0.416671581989549,"reported_acres":0.4,"percent_contained":null,"state":"AK","state_wfigs":"US-AK","county":"Yukon-Koyukuk","discovery_time_utc":"2023-08-02T04:07:00Z","perimeter_time_utc":"2023-09-15T19:59:50Z","perimeter_edit_time_utc":"2023-09-15T19:59:51Z","incident_modified_time_utc":"2023-08-28T17:28:38Z","containment_time_utc":"2023-08-06T05:00:00Z","control_time_utc":"2023-08-06T05:00:00Z","fire_out_time_utc":"2023-08-23T18:00:00Z","fire_cause":"Natural","fire_cause_general":null,"map_method":"Image Interpretation","source_dataset":"Decertified","unique_fire_identifier":"2023-AKUYD-000322","irwin_id":"{2E85C730-2042-4DDB-AD3C-CDB570518970}","global_id":"4e1bfa97-92f0-4c91-94b5-d038b99fbcce"}},{"type":"Feature","geometry":{"type":"Polygon","coordinates":[[[-141.30432,67.83858],[-141.30477,67.83813],[-141.3062,67.83794],[-141.30755,67.83834],[-141.30832,67.83833],[-141.30952,67.83892],[-141.31008,67.83904],[-141.31048,67.83948],[-141.31109,67.83941],[-141.31165,67.83952],[-141.31217,67.83965],[-141.31251,67.83994],[-141.31294,67.83998],[-141.31309,67.83965],[-141.31205,67.83938],[-141.31176,67.83915],[-141.31124,67.83914],[-141.31126,67.8388],[-141.31177,67.83875],[-141.31399,67.83908],[-141.31449,67.83945],[-141.31549,67.83963],[-141.31527,67.83978],[-141.31556,67.83995],[-141.31703,67.83984],[-141.31804,67.84014],[-141.32002,67.83938],[-141.32119,67.83934],[-141.32194,67.83883],[-141.32301,67.83888],[-141.32428,67.83869],[-141.32483,67.83886],[-141.32626,67.83877],[-141.32659,67.839],[-141.32803,67.8389],[-141.32935,67.83851],[-141.33036,67.83844],[-141.33062,67.83884],[-141.3314,67.83905],[-141.33069,67.83922],[-141.3306,67.8394],[-141.33108,67.83962],[-141.33241,67.83949],[-141.33461,67.83978],[-141.3343,67.84004],[-141.33436,67.84015],[-141.33756,67.84014],[-141.33797,67.84022],[-141.3381,67.84043],[-141.33764,67.84056],[-141.33604,67.84059],[-141.33545,67.84091],[-141.33532,67.84118],[-141.33422,67.84122],[-141.33321,67.84165],[-141.33227,67.84156],[-141.33196,67.84176],[-141.33164,67.84168],[-141.33158,67.8414],[-141.3312,67.84131],[-141.33096,67.84151],[-141.33176,67.8418],[-141.33173,67.84198],[-141.33057,67.84198],[-141.33027,67.8421],[-141.33017,67.84232],[-141.33036,67.84262],[-141.32999,67.84286],[-141.3294,67.84289],[-141.32892,67.84309],[-141.32743,67.84279],[-141.32574,67.84272],[-141.324,67.84287],[-141.31969,67.84344],[-141.31915,67.84379],[-141.31753,67.84412],[-141.31782,67.84425],[-141.31765,67.84438],[-141.31645,67.84455],[-141.3153,67.84429],[-141.31489,67.84433],[-141.31483,67.84451],[-141.31394,67.84463],[-141.31352,67.84436],[-141.31289,67.8444],[-141.31272,67.84419],[-141.31194,67.84433],[-141.31123,67.84419],[-141.31059,67.84359],[-141.30978,67.84361],[-141.30969,67.8438],[-141.3087,67.84385],[-141.30826,67.84372],[-141.30772,67.84378],[-141.30719,67.84359],[-141.30657,67.84376],[-141.30601,67.84453],[-141.30546,67.84472],[-141.30443,67.84452],[-141.30373,67.84474],[-141.30319,67.84447],[-141.3023,67.84444],[-141.30229,67.84424],[-141.3013,67.84378],[-141.3022,67.84354],[-141.30051,67.84315],[-141.3007,67.84299],[-141.30052,67.84269],[-141.30079,67.84249],[-141.30214,67.84205],[-141.30211,67.84189],[-141.30309,67.84139],[-141.3026,67.84124],[-141.30211,67.84143],[-141.30166,67.84127],[-141.30157,67.8411],[-141.30255,67.84084],[-141.30243,67.84071],[-141.30152,67.84064],[-141.30137,67.84049],[-141.30194,67.84031],[-141.30128,67.84007],[-141.30182,67.83978],[-141.30087,67.83944],[-141.30119,67.83922],[-141.30173,67.83927],[-141.30271,67.83987],[-141.30305,67.83987],[-141.303,67.83973],[-141.30394,67.83904],[-141.30329,67.83891],[-141.30318,67.83882],[-141.30324,67.83866],[-141.30365,67.83851],[-141.30432,67.83858]]]},"properties":{"fire_id":"ufid:2023-AKUYD-000276","source_collection":"history-2023","source_objectid":21340,"incident_name":"Potato Creek","mapped_acres":169.7597,"mapped_acres_source":"poly_GISAcres","gis_acres":169.7597,"auto_acres":169.75901297889303,"reported_acres":169.76,"percent_contained":null,"state":"AK","state_wfigs":"US-AK","county":"Yukon-Koyukuk","discovery_time_utc":"2023-07-27T21:52:00Z","perimeter_time_utc":"2023-09-28T21:23:36Z","perimeter_edit_time_utc":"2023-09-28T21:23:37Z","incident_modified_time_utc":"2023-09-06T19:22:11Z","containment_time_utc":"2023-09-06T18:15:00Z","control_time_utc":"2023-09-06T18:15:00Z","fire_out_time_utc":"2023-09-06T18:15:00Z","fire_cause":"Natural","fire_cause_general":"Natural","map_method":"Image Interpretation","source_dataset":"FFP","unique_fire_identifier":"2023-AKUYD-000276","irwin_id":"{1E5AFB4E-EC2C-40DE-8F3B-7E07E80FDB78}","global_id":"8a05eeda-35af-43a6-bb5e-3be7a1fe31e2"}},{"type":"Feature","geometry":{"type":"MultiPolygon","coordinates":[[[[-142.42734,66.76755],[-142.42803,66.76736],[-142.42783,66.76667],[-142.42754,66.76641],[-142.42679,66.76624],[-142.42653,66.76604],[-142.42713,66.76572],[-142.42729,66.7654],[-142.42715,66.76511],[-142.42695,66.76492],[-142.42606,66.76488],[-142.42593,66.76396],[-142.42612,66.76358],[-142.42596,66.76339],[-142.42498,66.76337],[-142.42475,66.763],[-142.42411,66.76276],[-142.42434,66.76204],[-142.42392,66.76138],[-142.4244,66.76119],[-142.42514,66.7614],[-142.42572,66.76176],[-142.42747,66.76139],[-142.42821,66.76108],[-142.4284,66.76076],[-142.42691,66.75998],[-142.42691,66.75981],[-142.42648,66.75957],[-142.42694,66.75943],[-142.42795,66.7594],[-142.42878,66.75961],[-142.4291,66.75943],[-142.42974,66.75998],[-142.43043,66.75998],[-142.43021,66.75964],[-142.43094,66.75963],[-142.43177,66.75985],[-142.43243,66.75958],[-142.43281,66.75865],[-142.43331,66.75845],[-142.4344,66.75878],[-142.43489,66.7591],[-142.43569,66.75885],[-142.43565,66.75854],[-142.4364,66.75839],[-142.43962,66.75918],[-142.44034,66.75877],[-142.44152,66.7586],[-142.44379,66.75874],[-142.44491,66.75858],[-142.4469,66.75874],[-142.44872,66.75856],[-142.44947,66.75881],[-142.45002,66.75945],[-142.45113,66.75995],[-142.45154,66.76045],[-142.4523,66.7606],[-142.45324,66.76044],[-142.45288,66.76],[-142.45265,66.75918],[-142.45475,66.75898],[-142.45488,66.7587],[-142.45481,66.75833],[-142.45572,66.75816],[-142.45622,66.75828],[-142.45615,66.7585],[-142.4577,66.75858],[-142.45848,66.75837],[-142.46038,66.7583],[-142.46201,66.75851],[-142.46762,66.75874],[-142.4724,66.75859],[-142.47326,66.75874],[-142.47489,66.75832],[-142.4758,66.75837],[-142.47687,66.75873],[-142.47846,66.75893],[-142.47909,66.7592],[-142.47955,66.7598],[-142.48283,66.7611],[-142.4838,66.76131],[-142.48393,66.76204],[-142.48387,66.76249],[-142.48405,66.76286],[-142.48384,66.76332],[-142.48416,66.76413],[-142.48397,66.76505],[-142.48488,66.76427],[-142.4844,66.76393],[-142.48443,66.76354],[-142.4847,66.76314],[-142.48528,66.76301],[-142.48626,66.76325],[-142.48767,66.7641],[-142.48935,66.76444],[-142.4905,66.76454],[-142.49188,66.7642],[-142.49219,66.76382],[-142.49167,66.76354],[-142.48941,66.7629],[-142.48854,66.76315],[-142.4884,66.76336],[-142.48672,66.76298],[-142.4857,66.76259],[-142.48575,66.76226],[-142.48552,66.76202],[-142.48587,66.76165],[-142.48574,66.76122],[-142.48478,66.76039],[-142.48542,66.76018],[-142.48654,66.76053],[-142.48738,66.76111],[-142.48777,66.7616],[-142.4893,66.76199],[-142.49047,66.76188],[-142.49185,66.76156],[-142.49314,66.7611],[-142.49313,66.76069],[-142.49388,66.76029],[-142.49475,66.76003],[-142.4952,66.75966],[-142.49578,66.75942],[-142.49579,66.75906],[-142.49322,66.75824],[-142.49227,66.7577],[-142.49236,66.75687],[-142.49388,66.75607],[-142.49635,66.75608],[-142.4969,66.75591],[-142.4986,66.75603],[-142.49887,66.75574],[-142.50069,66.75579],[-142.50329,66.75635],[-142.5047,66.75651],[-142.5084,66.75746],[-142.50956,66.7572],[-142.51028,66.7572],[-142.51047,66.75751],[-142.51101,66.7578],[-142.5109,66.75847],[-142.51196,66.75866],[-142.51279,66.75901],[-142.52154,66.76134],[-142.52338,66.7614],[-142.52387,66.76158],[-142.52253,66.76258],[-142.52273,66.76299],[-142.52326,66.76341],[-142.52356,66.76401],[-142.52423,66.76453],[-142.52331,66.7649],[-142.52284,66.76533],[-142.52237,66.76552],[-142.52252,66.76574],[-142.52217,66.76653],[-142.52254,66.76689],[-142.52437,66.76672],[-142.52539,66.7672],[-142.52529,66.76744],[-142.52471,66.76755],[-142.52444,66.76785],[-142.5245,66.76814],[-142.52371,66.76822],[-142.52204,66.76867],[-142.52099,66.76869],[-142.52035,66.76884],[-142.52019,66.76911],[-142.52045,66.76949],[-142.51767,66.77079],[-142.51662,66.77183],[-142.51513,66.77295],[-142.51488,66.77341],[-142.51496,66.77366],[-142.51651,66.77405],[-142.5164,66.77452],[-142.51401,66.77517],[-142.51426,66.77544],[-142.51445,66.77657],[-142.51553,66.77681],[-142.5166,66.77677],[-142.51697,66.77709],[-142.51652,66.77738],[-142.51341,66.778],[-142.50905,66.77843],[-142.50833,66.77862],[-142.5087,66.77892],[-142.50834,66.77933],[-142.50758,66.7794],[-142.50661,66.7793],[-142.50602,66.77898],[-142.50586,66.77863],[-142.50611,66.77815],[-142.50592,66.77776],[-142.50498,66.77782],[-142.50425,66.77759],[-142.50242,66.77794],[-142.50045,66.77849],[-142.49685,66.77825],[-142.49359,66.77945],[-142.49085,66.7799],[-142.49062,66.77973],[-142.49058,66.77953],[-142.48927,66.77887],[-142.48771,66.77847],[-142.4867,66.77806],[-142.48615,66.77796],[-142.48571,66.77813],[-142.48355,66.77784],[-142.48298,66.77798],[-142.48303,66.77839],[-142.48247,66.77865],[-142.48279,66.77889],[-142.48232,66.77899],[-142.48116,66.77864],[-142.48034,66.77866],[-142.47984,66.77882],[-142.48147,66.77964],[-142.48271,66.77984],[-142.48399,66.78036],[-142.48435,66.78101],[-142.48524,66.78107],[-142.48639,66.78073],[-142.48843,66.78056],[-142.48986,66.78063],[-142.48923,66.78159],[-142.48849,66.78164],[-142.48721,66.78232],[-142.48634,66.78313],[-142.48593,66.78376],[-142.48591,66.78421],[-142.48554,66.78475],[-142.48458,66.78507],[-142.48385,66.78485],[-142.48254,66.78409],[-142.48117,66.78365],[-142.48057,66.78388],[-142.47965,66.78389],[-142.47834,66.78352],[-142.47782,66.78367],[-142.47772,66.78443],[-142.47683,66.78447],[-142.47527,66.78426],[-142.47531,66.78387],[-142.47447,66.78358],[-142.46383,66.78396],[-142.46255,66.78425],[-142.46174,66.78458],[-142.46155,66.78493],[-142.46155,66.78541],[-142.4613,66.78584],[-142.46062,66.78609],[-142.46042,66.78558],[-142.46002,66.78557],[-142.45984,66.78586],[-142.46009,66.78611],[-142.46025,66.78658],[-142.45963,66.78668],[-142.45886,66.78648],[-142.45738,66.7868],[-142.45608,66.78715],[-142.45559,66.78742],[-142.45527,66.78779],[-142.45453,66.78789],[-142.45439,66.78814],[-142.45463,66.78835],[-142.45577,66.78842],[-142.45672,66.78908],[-142.45695,66.78931],[-142.45632,66.78998],[-142.457,66.7908],[-142.45692,66.79107],[-142.45715,66.79122],[-142.45807,66.7914],[-142.45802,66.7918],[-142.45955,66.79268],[-142.45967,66.79299],[-142.45953,66.79358],[-142.45896,66.79412],[-142.45644,66.79444],[-142.45614,66.79465],[-142.4559,66.79454],[-142.45593,66.79405],[-142.45538,66.79376],[-142.45516,66.79321],[-142.45519,66.79262],[-142.4548,66.79195],[-142.45402,66.79153],[-142.45291,66.79213],[-142.45254,66.79216],[-142.45175,66.79195],[-142.4515,66.79216],[-142.45105,66.79222],[-142.44983,66.79177],[-142.44948,66.79148],[-142.4488,66.79142],[-142.44864,66.79159],[-142.44916,66.79199],[-142.44807,66.79257],[-142.4466,66.79274],[-142.4463,66.79289],[-142.44556,66.79287],[-142.4451,66.79266],[-142.44438,66.79273],[-142.44334,66.79259],[-142.44221,66.79233],[-142.44163,66.79194],[-142.44108,66.79204],[-142.44091,66.79234],[-142.43969,66.79235],[-142.43778,66.79213],[-142.43694,66.79225],[-142.43601,66.79219],[-142.43533,66.79208],[-142.43535,66.79199],[-142.43496,66.7918],[-142.43402,66.79192],[-142.43339,66.79141],[-142.43328,66.79113],[-142.43103,66.79096],[-142.43044,66.79109],[-142.43046,66.79133],[-142.43,66.79153],[-142.4291,66.79235],[-142.42856,66.79243],[-142.42822,66.79169],[-142.42777,66.79143],[-142.42757,66.7911],[-142.42652,66.79068],[-142.42669,66.79031],[-142.42639,66.79013],[-142.42572,66.79009],[-142.42514,66.79066],[-142.42461,66.79064],[-142.42398,66.79029],[-142.42387,66.78998],[-142.42341,66.78987],[-142.4225,66.78987],[-142.42202,66.79024],[-142.42226,66.79055],[-142.4222,66.79079],[-142.42129,66.7908],[-142.42114,66.79107],[-142.42074,66.79125],[-142.41969,66.79074],[-142.41955,66.79021],[-142.41971,66.79003],[-142.41953,66.78964],[-142.41932,66.78952],[-142.41877,66.78954],[-142.41868,66.78989],[-142.41652,66.78915],[-142.41541,66.78825],[-142.41498,66.78746],[-142.41439,66.78706],[-142.41472,66.78662],[-142.41459,66.78626],[-142.4127,66.78588],[-142.41283,66.7854],[-142.41139,66.78454],[-142.41082,66.78384],[-142.40985,66.78381],[-142.41028,66.78331],[-142.40971,66.78321],[-142.40992,66.78305],[-142.40933,66.78252],[-142.40941,66.78214],[-142.40915,66.782],[-142.4092,66.78172],[-142.40888,66.78148],[-142.4076,66.78135],[-142.40816,66.78104],[-142.40818,66.78077],[-142.4078,66.78072],[-142.40743,66.78042],[-142.40903,66.78022],[-142.40976,66.77955],[-142.40977,66.77899],[-142.41023,66.77787],[-142.41124,66.77785],[-142.41244,66.77682],[-142.41202,66.77645],[-142.41021,66.77612],[-142.40637,66.77479],[-142.4057,66.77409],[-142.40467,66.77347],[-142.4052,66.77226],[-142.40534,66.77221],[-142.40533,66.77194],[-142.40585,66.77155],[-142.40596,66.77045],[-142.4063,66.76969],[-142.40787,66.76881],[-142.40851,66.76863],[-142.4091,66.76867],[-142.40943,66.76891],[-142.40884,66.76933],[-142.40837,66.7699],[-142.40862,66.77018],[-142.40811,66.77048],[-142.40837,66.77135],[-142.40779,66.77165],[-142.40748,66.77245],[-142.40824,66.77282],[-142.40909,66.77294],[-142.40973,66.77216],[-142.41198,66.77226],[-142.41293,66.77218],[-142.41357,66.77196],[-142.41381,66.77143],[-142.41442,66.77127],[-142.41447,66.77088],[-142.41513,66.77043],[-142.41673,66.77075],[-142.41824,66.77141],[-142.4203,66.77061],[-142.42067,66.76997],[-142.42058,66.76933],[-142.42134,66.76883],[-142.42286,66.76869],[-142.42391,66.76877],[-142.4244,66.76691],[-142.42734,66.76755]]],[[[-142.46456,66.75724],[-142.46407,66.75746],[-142.46423,66.75756],[-142.46398,66.75788],[-142.46317,66.75764],[-142.46321,66.75746],[-142.4637,66.75723],[-142.46326,66.75694],[-142.46339,66.7566],[-142.46313,66.75593],[-142.46396,66.75599],[-142.46381,66.7562],[-142.46412,66.75632],[-142.46422,66.75673],[-142.4645,66.75703],[-142.46456,66.75724]]],[[[-142.4233,66.76037],[-142.42386,66.76024],[-142.42564,66.7605],[-142.42526,66.76075],[-142.42448,66.76083],[-142.4236,66.76064],[-142.4233,66.76037]]],[[[-142.51054,66.78006],[-142.51001,66.77964],[-142.51035,66.7794],[-142.51211,66.77984],[-142.51298,66.77979],[-142.51326,66.78002],[-142.51403,66.7799],[-142.5151,66.78005],[-142.51517,66.78032],[-142.5148,66.78052],[-142.51149,66.7805],[-142.51131,66.78024],[-142.51054,66.78006]]]]},"properties":{"fire_id":"ufid:2023-AKUYD-000309","source_collection":"history-2023","source_objectid":21359,"incident_name":"Kevinjik","mapped_acres":3318.772,"mapped_acres_source":"poly_GISAcres","gis_acres":3318.772,"auto_acres":3318.758450831183,"reported_acres":3318.8,"percent_contained":null,"state":"AK","state_wfigs":"US-AK","county":"Yukon-Koyukuk","discovery_time_utc":"2023-07-30T17:00:00Z","perimeter_time_utc":"2023-09-29T18:02:19Z","perimeter_edit_time_utc":"2023-09-29T18:02:19Z","incident_modified_time_utc":"2023-09-13T21:18:03Z","containment_time_utc":"2023-09-13T19:45:00Z","control_time_utc":"2023-09-13T19:45:00Z","fire_out_time_utc":"2023-09-13T19:45:00Z","fire_cause":"Natural","fire_cause_general":"Natural","map_method":"Image Interpretation","source_dataset":"FFP","unique_fire_identifier":"2023-AKUYD-000309","irwin_id":"{CE1690D7-6773-4E37-825A-332158F36B30}","global_id":"c5dcdf6b-6584-4bc1-a42e-e89bd6b37233"}},{"type":"Feature","geometry":{"type":"Polygon","coordinates":[[[-141.23597,67.40582],[-141.23482,67.40623],[-141.2352,67.4064],[-141.23565,67.40641],[-141.23584,67.40663],[-141.23534,67.40689],[-141.23317,67.40678],[-141.23321,67.40718],[-141.23292,67.40729],[-141.23056,67.40744],[-141.22972,67.40735],[-141.23009,67.40711],[-141.22784,67.40706],[-141.22743,67.4068],[-141.22506,67.40704],[-141.22299,67.40663],[-141.22066,67.40636],[-141.21789,67.40582],[-141.21721,67.40545],[-141.21725,67.40518],[-141.21668,67.40503],[-141.21627,67.40423],[-141.2163,67.40364],[-141.21579,67.40313],[-141.2159,67.40311],[-141.21542,67.40297],[-141.21542,67.40286],[-141.21781,67.4029],[-141.21846,67.40267],[-141.2194,67.40255],[-141.22175,67.40245],[-141.22225,67.40267],[-141.22239,67.4029],[-141.22199,67.40306],[-141.22203,67.40314],[-141.22532,67.40323],[-141.22623,67.40273],[-141.22672,67.40267],[-141.22577,67.40244],[-141.22659,67.40188],[-141.22647,67.40132],[-141.22746,67.40116],[-141.22831,67.40068],[-141.23287,67.40017],[-141.23673,67.40059],[-141.23729,67.40087],[-141.23751,67.40116],[-141.23822,67.4013],[-141.23813,67.40148],[-141.23922,67.40174],[-141.23896,67.40226],[-141.23929,67.40247],[-141.24092,67.40192],[-141.2412,67.40166],[-141.24389,67.40178],[-141.24411,67.40157],[-141.24474,67.40142],[-141.24537,67.40165],[-141.24523,67.40187],[-141.24529,67.40219],[-141.24475,67.40302],[-141.2441,67.40343],[-141.2431,67.40375],[-141.24152,67.40394],[-141.24057,67.40421],[-141.24021,67.40445],[-141.23969,67.40453],[-141.2397,67.40468],[-141.24016,67.40499],[-141.24122,67.4051],[-141.24115,67.40496],[-141.24235,67.40453],[-141.24298,67.4048],[-141.24325,67.40511],[-141.24381,67.40529],[-141.24513,67.40543],[-141.24624,67.40537],[-141.24716,67.40511],[-141.24791,67.40522],[-141.24798,67.40538],[-141.2476,67.40546],[-141.24729,67.40571],[-141.24649,67.40586],[-141.24419,67.40593],[-141.2433,67.40621],[-141.24156,67.40621],[-141.24059,67.40643],[-141.24016,67.40633],[-141.24003,67.40579],[-141.23983,67.40576],[-141.23795,67.40594],[-141.23597,67.40582]]]},"properties":{"fire_id":"ufid:2023-AKUYD-000304","source_collection":"history-2023","source_objectid":21364,"incident_name":"Sunagun","mapped_acres":157.3182,"mapped_acres_source":"poly_GISAcres","gis_acres":157.3182,"auto_acres":157.31527647640405,"reported_acres":157.3,"percent_contained":null,"state":"AK","state_wfigs":"US-AK","county":"Yukon-Koyukuk","discovery_time_utc":"2023-07-29T22:39:00Z","perimeter_time_utc":"2023-10-03T21:18:15Z","perimeter_edit_time_utc":"2023-10-03T21:18:15Z","incident_modified_time_utc":"2023-09-07T23:46:55Z","containment_time_utc":"2023-09-06T18:15:00Z","control_time_utc":"2023-09-06T18:15:00Z","fire_out_time_utc":"2023-09-06T18:15:00Z","fire_cause":"Natural","fire_cause_general":"Natural","map_method":"Image Interpretation","source_dataset":"FFP","unique_fire_identifier":"2023-AKUYD-000304","irwin_id":"{6F6FBAB8-94B1-4622-A58B-8649D412C01F}","global_id":"823ab28c-dcb8-4bfb-a556-f78be6c5c78c"}},{"type":"Feature","geometry":{"type":"Polygon","coordinates":[[[-142.54872,66.36473],[-142.54868,66.36332],[-142.54748,66.36085],[-142.54865,66.36037],[-142.55048,66.36063],[-142.5576,66.36234],[-142.56361,66.36327],[-142.57523,66.36375],[-142.57831,66.36373],[-142.58124,66.36351],[-142.5845,66.36289],[-142.58644,66.36191],[-142.58745,66.36108],[-142.58764,66.36056],[-142.58843,66.36013],[-142.5896,66.36014],[-142.5937,66.36077],[-142.59523,66.36113],[-142.59595,66.36144],[-142.5959,66.36178],[-142.59718,66.36294],[-142.59826,66.36332],[-142.60018,66.36358],[-142.60279,66.36303],[-142.60356,66.3631],[-142.60484,66.36288],[-142.60569,66.36297],[-142.60619,66.36333],[-142.60774,66.36367],[-142.60912,66.36422],[-142.6102,66.36492],[-142.61143,66.3655],[-142.61197,66.36561],[-142.61251,66.36611],[-142.6122,66.36648],[-142.61224,66.3666],[-142.61144,66.36808],[-142.61159,66.36868],[-142.61201,66.36892],[-142.61448,66.36958],[-142.61556,66.36965],[-142.61518,66.36996],[-142.61394,66.37033],[-142.61417,66.37127],[-142.61393,66.37161],[-142.6134,66.37182],[-142.61398,66.37208],[-142.61499,66.37218],[-142.61629,66.37181],[-142.61737,66.37202],[-142.61815,66.37185],[-142.61854,66.37122],[-142.61973,66.37184],[-142.61983,66.37222],[-142.62023,66.37284],[-142.62223,66.37245],[-142.62271,66.37254],[-142.62229,66.3729],[-142.62222,66.37315],[-142.62287,66.37334],[-142.6239,66.37331],[-142.62609,66.37359],[-142.62668,66.37391],[-142.6264,66.37459],[-142.62645,66.37491],[-142.62423,66.37482],[-142.62339,66.37494],[-142.62399,66.37547],[-142.62344,66.37557],[-142.62161,66.37517],[-142.6204,66.37509],[-142.61858,66.37556],[-142.61779,66.37607],[-142.61787,66.37648],[-142.62019,66.37678],[-142.62118,66.37721],[-142.62235,66.37743],[-142.62328,66.3774],[-142.62521,66.37699],[-142.62546,66.3767],[-142.62734,66.37677],[-142.62802,66.37658],[-142.63218,66.37672],[-142.63436,66.37719],[-142.63624,66.37709],[-142.63639,66.37727],[-142.6356,66.37755],[-142.63574,66.37768],[-142.63674,66.37778],[-142.637,66.37793],[-142.6372,66.37827],[-142.63707,66.37857],[-142.63613,66.37899],[-142.63587,66.38055],[-142.6353,66.38101],[-142.63524,66.38144],[-142.63537,66.3818],[-142.63582,66.38207],[-142.63438,66.38293],[-142.63429,66.38335],[-142.63298,66.38413],[-142.6321,66.38423],[-142.63162,66.3841],[-142.63075,66.38355],[-142.62822,66.38345],[-142.62733,66.38361],[-142.62486,66.38342],[-142.62392,66.38348],[-142.62342,66.3839],[-142.62283,66.38416],[-142.62474,66.386],[-142.62561,66.38619],[-142.62749,66.38565],[-142.6278,66.38547],[-142.62768,66.38532],[-142.62787,66.38507],[-142.62971,66.38492],[-142.62974,66.3853],[-142.62938,66.38562],[-142.62866,66.38598],[-142.62591,66.38684],[-142.62549,66.38722],[-142.62578,66.3878],[-142.62538,66.38791],[-142.62503,66.38763],[-142.62378,66.38714],[-142.62304,66.38752],[-142.62185,66.38764],[-142.6204,66.38688],[-142.62025,66.38662],[-142.61839,66.38653],[-142.61588,66.38593],[-142.61495,66.3861],[-142.6155,66.38653],[-142.61493,66.38652],[-142.61471,66.38666],[-142.61501,66.38686],[-142.61582,66.38673],[-142.61609,66.38686],[-142.61592,66.38718],[-142.6155,66.38734],[-142.61348,66.38722],[-142.61308,66.38654],[-142.61172,66.38622],[-142.61107,66.38544],[-142.61118,66.38519],[-142.61277,66.38474],[-142.61232,66.38431],[-142.61303,66.38384],[-142.61288,66.38369],[-142.61331,66.38358],[-142.61402,66.38194],[-142.61395,66.38087],[-142.61474,66.38002],[-142.6146,66.37903],[-142.61361,66.37775],[-142.61137,66.37694],[-142.6093,66.37647],[-142.60762,66.37646],[-142.6078,66.37599],[-142.60777,66.37562],[-142.60655,66.37565],[-142.60223,66.37748],[-142.60212,66.37804],[-142.60156,66.37846],[-142.60176,66.37918],[-142.6013,66.37997],[-142.60102,66.38],[-142.60036,66.38068],[-142.59901,66.38137],[-142.5974,66.38247],[-142.59712,66.3835],[-142.59649,66.3846],[-142.59588,66.38526],[-142.59597,66.38572],[-142.59425,66.38779],[-142.5915,66.3888],[-142.59098,66.3892],[-142.58947,66.38944],[-142.5889,66.38967],[-142.59016,66.39005],[-142.5898,66.39045],[-142.58789,66.39076],[-142.58549,66.38985],[-142.58438,66.38911],[-142.58331,66.38871],[-142.58318,66.38828],[-142.5839,66.38785],[-142.5837,66.38722],[-142.58319,66.38663],[-142.58327,66.38621],[-142.58466,66.38529],[-142.58554,66.38544],[-142.58634,66.38521],[-142.58643,66.38485],[-142.58618,66.38448],[-142.58753,66.38394],[-142.58859,66.38185],[-142.58789,66.38102],[-142.58643,66.38026],[-142.58211,66.37976],[-142.58014,66.38002],[-142.57864,66.38067],[-142.57599,66.38379],[-142.57192,66.38226],[-142.57022,66.38197],[-142.5675,66.38207],[-142.56626,66.38194],[-142.56524,66.38199],[-142.56254,66.38157],[-142.5602,66.38102],[-142.55919,66.38026],[-142.5579,66.37972],[-142.55581,66.37948],[-142.55513,66.37959],[-142.55617,66.38057],[-142.55824,66.38143],[-142.55794,66.38176],[-142.55539,66.382],[-142.55499,66.38242],[-142.55432,66.38273],[-142.55281,66.38269],[-142.55195,66.38284],[-142.5522,66.38309],[-142.55292,66.38333],[-142.55255,66.3836],[-142.55196,66.38327],[-142.55136,66.38326],[-142.55106,66.38344],[-142.55007,66.38338],[-142.5495,66.38314],[-142.54813,66.38288],[-142.54803,66.38265],[-142.54886,66.38207],[-142.54883,66.3814],[-142.54823,66.38072],[-142.54817,66.38027],[-142.54713,66.37967],[-142.54628,66.37935],[-142.54632,66.37896],[-142.5451,66.37878],[-142.54565,66.37781],[-142.54528,66.37741],[-142.54434,66.37709],[-142.54458,66.37678],[-142.54504,66.37661],[-142.54471,66.37601],[-142.54671,66.3749],[-142.54562,66.37426],[-142.54562,66.37397],[-142.54616,66.37353],[-142.54347,66.37321],[-142.54058,66.37329],[-142.5398,66.37303],[-142.54075,66.3729],[-142.54112,66.37271],[-142.54056,66.3723],[-142.54179,66.37072],[-142.5443,66.37013],[-142.54547,66.36936],[-142.54474,66.3688],[-142.54414,66.36873],[-142.54443,66.36797],[-142.54551,66.36805],[-142.54629,66.368],[-142.54658,66.36785],[-142.54664,66.36713],[-142.54644,66.36633],[-142.54496,66.36637],[-142.54407,66.36617],[-142.5458,66.36606],[-142.54742,66.36538],[-142.54837,66.36523],[-142.54872,66.36473]]]},"properties":{"fire_id":"ufid:2023-AKUYD-000332","source_collection":"history-2023","source_objectid":21365,"incident_name":"Draanjik","mapped_acres":1890.112,"mapped_acres_source":"poly_GISAcres","gis_acres":1890.112,"auto_acres":1890.1039206328676,"reported_acres":1890.1,"percent_contained":null,"state":"AK","state_wfigs":"US-AK","county":"Yukon-Koyukuk","discovery_time_utc":"2023-08-03T22:32:00Z","perimeter_time_utc":"2023-10-19T20:47:19Z","perimeter_edit_time_utc":"2023-10-19T20:47:19Z","incident_modified_time_utc":"2023-09-28T23:40:15Z","containment_time_utc":"2023-09-18T18:15:00Z","control_time_utc":"2023-09-18T18:15:00Z","fire_out_time_utc":"2023-09-18T18:15:00Z","fire_cause":"Natural","fire_cause_general":"Natural","map_method":"Image Interpretation","source_dataset":"FFP","unique_fire_identifier":"2023-AKUYD-000332","irwin_id":"{D6DD5B02-A84B-4CC1-BB96-5D2F235CD1CE}","global_id":"70e3f6d2-c4d7-415a-b40d-de84e59a4bdf"}},{"type":"Feature","geometry":{"type":"Polygon","coordinates":[[[-142.66746,65.41771],[-142.66818,65.41764],[-142.66937,65.41723],[-142.67004,65.41723],[-142.67069,65.41749],[-142.67063,65.41772],[-142.6701,65.41806],[-142.67017,65.41826],[-142.66998,65.41855],[-142.66862,65.41896],[-142.66873,65.41917],[-142.67059,65.41935],[-142.66748,65.42007],[-142.66734,65.42038],[-142.66919,65.42095],[-142.6709,65.4217],[-142.67149,65.42228],[-142.67413,65.42295],[-142.6734,65.42309],[-142.67062,65.42302],[-142.66556,65.42318],[-142.66388,65.42345],[-142.66338,65.42391],[-142.66316,65.42433],[-142.66247,65.42424],[-142.66152,65.42403],[-142.6615,65.4235],[-142.66239,65.42336],[-142.66259,65.42311],[-142.66254,65.42277],[-142.66216,65.4224],[-142.65887,65.42104],[-142.65884,65.42071],[-142.65797,65.42014],[-142.65652,65.42002],[-142.6555,65.41973],[-142.65522,65.41953],[-142.6587,65.41886],[-142.66032,65.41877],[-142.66144,65.41849],[-142.66182,65.41859],[-142.66337,65.41798],[-142.66383,65.41796],[-142.66417,65.4178],[-142.6643,65.41764],[-142.66442,65.41684],[-142.66476,65.41673],[-142.66525,65.41669],[-142.66598,65.417],[-142.66622,65.4173],[-142.66678,65.41758],[-142.66746,65.41771]]]},"properties":{"fire_id":"ufid:2023-AKUYD-000192","source_collection":"history-2023","source_objectid":21379,"incident_name":"Biederman","mapped_acres":76.20849,"mapped_acres_source":"poly_GISAcres","gis_acres":76.20849,"auto_acres":76.20823423640472,"reported_acres":76.2,"percent_contained":null,"state":"AK","state_wfigs":"US-AK","county":"Yukon-Koyukuk","discovery_time_utc":"2023-07-24T23:03:00Z","perimeter_time_utc":"2023-09-30T00:53:41Z","perimeter_edit_time_utc":"2023-09-30T00:53:42Z","incident_modified_time_utc":"2023-09-05T21:47:52Z","containment_time_utc":"2023-09-05T20:30:00Z","control_time_utc":"2023-09-05T20:30:00Z","fire_out_time_utc":"2023-09-05T20:30:00Z","fire_cause":"Natural","fire_cause_general":"Natural","map_method":"Mixed Methods","source_dataset":"FFP","unique_fire_identifier":"2023-AKUYD-000192","irwin_id":"{8E73923D-DFA2-4E6D-95A5-8AB80BA4B888}","global_id":"0008a130-edba-43d6-b935-f455086c54ec"}},{"type":"Feature","geometry":{"type":"Polygon","coordinates":[[[-144.90413,66.87106],[-144.90328,66.87157],[-144.90445,66.87192],[-144.90481,66.87227],[-144.90491,66.87263],[-144.90434,66.87329],[-144.90452,66.87362],[-144.90438,66.87403],[-144.90391,66.87405],[-144.90292,66.87367],[-144.90264,66.87341],[-144.90272,66.87279],[-144.90152,66.87199],[-144.90131,66.87196],[-144.90124,66.87143],[-144.90086,66.87126],[-144.90024,66.87114],[-144.89847,66.8718],[-144.8975,66.87184],[-144.89698,66.87153],[-144.89556,66.87143],[-144.89542,66.87133],[-144.89676,66.87082],[-144.89734,66.87047],[-144.89755,66.87005],[-144.89934,66.86922],[-144.90023,66.86897],[-144.90105,66.86894],[-144.90165,66.86906],[-144.90243,66.86945],[-144.90417,66.86949],[-144.90491,66.87008],[-144.9058,66.87014],[-144.90623,66.87002],[-144.9067,66.87013],[-144.90413,66.87106]]]},"properties":{"fire_id":"ufid:2023-AKUYD-000344","source_collection":"history-2023","source_objectid":21435,"incident_name":"Gailey","mapped_acres":27.01427,"mapped_acres_source":"poly_GISAcres","gis_acres":27.01427,"auto_acres":27.014153911879653,"reported_acres":27.0,"percent_contained":null,"state":"AK","state_wfigs":"US-AK","county":"Yukon-Koyukuk","discovery_time_utc":"2023-08-06T04:06:00Z","perimeter_time_utc":"2023-10-02T17:32:33Z","perimeter_edit_time_utc":"2023-10-02T17:32:34Z","incident_modified_time_utc":"2023-09-29T16:44:48Z","containment_time_utc":"2023-09-06T18:15:00Z","control_time_utc":"2023-09-06T18:15:00Z","fire_out_time_utc":"2023-09-06T18:15:00Z","fire_cause":"Natural","fire_cause_general":"Natural","map_method":"Image Interpretation","source_dataset":"FFP","unique_fire_identifier":"2023-AKUYD-000344","irwin_id":"{A04D0835-21EE-4283-AE3A-35D47DE16D87}","global_id":"9a5244f5-5f0a-4ba9-9b92-d3293face252"}},{"type":"Feature","geometry":{"type":"Polygon","coordinates":[[[-142.30294,66.6054],[-142.30436,66.6061],[-142.30571,66.60611],[-142.30603,66.60628],[-142.30604,66.60672],[-142.30582,66.60691],[-142.30297,66.60771],[-142.3014,66.60771],[-142.3014,66.60745],[-142.30166,66.60706],[-142.30175,66.60636],[-142.30157,66.60613],[-142.3002,66.60543],[-142.30001,66.60523],[-142.30002,66.60499],[-142.30024,66.60445],[-142.30054,66.60425],[-142.30247,66.60472],[-142.30261,66.60484],[-142.30249,66.605],[-142.30301,66.6052],[-142.30294,66.6054]]]},"properties":{"fire_id":"ufid:2023-AKUYD-000355","source_collection":"history-2023","source_objectid":21438,"incident_name":"Frozen Calf","mapped_acres":12.18763,"mapped_acres_source":"poly_GISAcres","gis_acres":12.18763,"auto_acres":12.187583117844607,"reported_acres":12.2,"percent_contained":null,"state":"AK","state_wfigs":"US-AK","county":"Yukon-Koyukuk","discovery_time_utc":"2023-08-11T19:05:00Z","perimeter_time_utc":"2023-10-03T20:52:45Z","perimeter_edit_time_utc":"2023-10-03T20:52:45Z","incident_modified_time_utc":"2023-09-29T20:36:32Z","containment_time_utc":"2023-09-05T20:30:00Z","control_time_utc":"2023-09-05T20:30:00Z","fire_out_time_utc":"2023-09-05T20:30:00Z","fire_cause":"Natural","fire_cause_general":"Natural","map_method":"Image Interpretation","source_dataset":"FFP","unique_fire_identifier":"2023-AKUYD-000355","irwin_id":"{F8577042-661A-402D-BD51-10DE0029C1CE}","global_id":"65ad6bf6-394e-4b76-a086-cc5a25eb8515"}},{"type":"Feature","geometry":{"type":"Polygon","coordinates":[[[-144.99234,65.18839],[-144.99321,65.18808],[-144.99404,65.18729],[-144.99587,65.18722],[-145.00058,65.18852],[-145.00136,65.18828],[-145.00234,65.18842],[-145.00407,65.18917],[-145.00476,65.18908],[-145.005,65.18945],[-145.00577,65.18985],[-145.00695,65.18989],[-145.00711,65.18939],[-145.00605,65.18933],[-145.00593,65.18897],[-145.00661,65.18891],[-145.00716,65.18869],[-145.00672,65.18857],[-145.00642,65.1882],[-145.00692,65.18815],[-145.00893,65.18842],[-145.00968,65.18831],[-145.00882,65.18801],[-145.00875,65.18768],[-145.00948,65.18762],[-145.00943,65.18741],[-145.00907,65.18724],[-145.00925,65.18705],[-145.00933,65.18658],[-145.00919,65.18642],[-145.01023,65.1866],[-145.01074,65.18688],[-145.01168,65.18694],[-145.01148,65.18738],[-145.01176,65.18747],[-145.01165,65.18771],[-145.01226,65.18819],[-145.01395,65.1886],[-145.01373,65.18894],[-145.01321,65.18906],[-145.01356,65.18946],[-145.01272,65.19019],[-145.01268,65.19052],[-145.01253,65.19061],[-145.01137,65.19047],[-145.01091,65.19062],[-145.01086,65.19114],[-145.0107,65.19126],[-145.01017,65.19123],[-145.00779,65.19155],[-145.00582,65.19133],[-145.00391,65.19077],[-145.00231,65.19097],[-145.00152,65.19069],[-144.99811,65.19053],[-144.99709,65.1907],[-144.99598,65.19042],[-144.99503,65.19039],[-144.99414,65.19054],[-144.9932,65.19095],[-144.9926,65.19084],[-144.99254,65.19078],[-144.99285,65.19058],[-144.99276,65.19045],[-144.99206,65.19021],[-144.99141,65.1902],[-144.99134,65.19004],[-144.99268,65.19],[-144.99255,65.18988],[-144.99157,65.18953],[-144.99096,65.18946],[-144.99039,65.18903],[-144.99045,65.1889],[-144.9913,65.18889],[-144.99299,65.18924],[-144.99307,65.1891],[-144.99234,65.18839]]]},"properties":{"fire_id":"ufid:2023-AKUYD-000303","source_collection":"history-2023","source_objectid":21563,"incident_name":"Wolf","mapped_acres":75.99128,"mapped_acres_source":"poly_GISAcres","gis_acres":75.99128,"auto_acres":75.99096837740467,"reported_acres":76.0,"percent_contained":null,"state":"AK","state_wfigs":"US-AK","county":"Yukon-Koyukuk","discovery_time_utc":"2023-07-29T20:56:00Z","perimeter_time_utc":"2023-10-06T16:40:40Z","perimeter_edit_time_utc":"2023-10-06T16:40:40Z","incident_modified_time_utc":"2023-09-05T21:52:26Z","containment_time_utc":"2023-09-05T20:30:00Z","control_time_utc":"2023-09-05T20:30:00Z","fire_out_time_utc":"2023-09-05T20:30:00Z","fire_cause":"Natural","fire_cause_general":"Natural","map_method":"Image Interpretation","source_dataset":"FFP","unique_fire_identifier":"2023-AKUYD-000303","irwin_id":"{71C64A30-66D2-4DD2-A772-1B8FA4003BFD}","global_id":"8c73d3bb-de92-49f1-9348-f6c5f40057d6"}},{"type":"Feature","geometry":{"type":"MultiPolygon","coordinates":[[[[-142.31644,65.49796],[-142.3153,65.49788],[-142.31503,65.49796],[-142.3153,65.49835],[-142.31508,65.49848],[-142.31517,65.49862],[-142.31557,65.49865],[-142.31594,65.49887],[-142.3157,65.49909],[-142.31548,65.49967],[-142.31446,65.49999],[-142.31421,65.50035],[-142.31368,65.50044],[-142.31308,65.50092],[-142.31282,65.5009],[-142.31267,65.50056],[-142.31228,65.50035],[-142.31235,65.50011],[-142.31189,65.49986],[-142.31204,65.49972],[-142.31022,65.4993],[-142.30955,65.49928],[-142.30896,65.49957],[-142.30761,65.49905],[-142.3075,65.49917],[-142.30807,65.49956],[-142.30768,65.49953],[-142.3078,65.49967],[-142.30839,65.49978],[-142.30852,65.49994],[-142.3082,65.49993],[-142.30822,65.50029],[-142.30805,65.50052],[-142.30852,65.50093],[-142.30837,65.50124],[-142.30827,65.50138],[-142.30762,65.50152],[-142.30709,65.50144],[-142.30598,65.50091],[-142.30502,65.50081],[-142.30479,65.5009],[-142.30452,65.50146],[-142.30406,65.50183],[-142.30234,65.50194],[-142.30187,65.50184],[-142.30159,65.50148],[-142.30104,65.5011],[-142.30105,65.50067],[-142.30027,65.50071],[-142.2972,65.50187],[-142.29602,65.50186],[-142.29499,65.50204],[-142.29256,65.50194],[-142.29201,65.50242],[-142.29129,65.5021],[-142.28944,65.5021],[-142.28858,65.50288],[-142.28817,65.50269],[-142.28701,65.50254],[-142.28521,65.50203],[-142.28313,65.50084],[-142.28281,65.50016],[-142.28384,65.49981],[-142.28591,65.49958],[-142.28817,65.4996],[-142.28953,65.49997],[-142.29132,65.49984],[-142.29227,65.50001],[-142.29322,65.50043],[-142.2974,65.50036],[-142.29829,65.50024],[-142.29864,65.50003],[-142.29931,65.49989],[-142.29919,65.49978],[-142.2979,65.49965],[-142.29842,65.4995],[-142.29842,65.49933],[-142.29954,65.49901],[-142.30064,65.49896],[-142.30065,65.49888],[-142.29893,65.49869],[-142.2992,65.49853],[-142.30096,65.49816],[-142.3022,65.49822],[-142.30236,65.49802],[-142.30356,65.49759],[-142.30429,65.49778],[-142.30458,65.49758],[-142.30409,65.49715],[-142.30506,65.49681],[-142.30458,65.49659],[-142.30306,65.49658],[-142.30265,65.4964],[-142.30271,65.49619],[-142.30155,65.49593],[-142.30209,65.49562],[-142.30143,65.4955],[-142.3021,65.49492],[-142.30197,65.49444],[-142.30273,65.49406],[-142.3027,65.49382],[-142.30213,65.49361],[-142.30204,65.49335],[-142.30379,65.49324],[-142.30367,65.4932],[-142.3038,65.49305],[-142.30439,65.49284],[-142.30544,65.49331],[-142.30561,65.49368],[-142.30663,65.49384],[-142.30591,65.49336],[-142.30607,65.49318],[-142.30697,65.49344],[-142.30752,65.49341],[-142.30735,65.49297],[-142.30714,65.49279],[-142.30741,65.49274],[-142.30947,65.49261],[-142.30969,65.49278],[-142.3094,65.49296],[-142.30974,65.49305],[-142.31085,65.4928],[-142.31122,65.49251],[-142.31291,65.49281],[-142.31442,65.49244],[-142.31497,65.49257],[-142.31535,65.49205],[-142.31496,65.49204],[-142.31508,65.49165],[-142.31653,65.49146],[-142.31676,65.49128],[-142.31687,65.49095],[-142.3179,65.49058],[-142.31881,65.49079],[-142.31932,65.49065],[-142.31947,65.49043],[-142.32,65.49042],[-142.32032,65.49028],[-142.31985,65.49014],[-142.32008,65.48997],[-142.32112,65.49006],[-142.32281,65.49129],[-142.32275,65.49151],[-142.32219,65.4918],[-142.32168,65.49232],[-142.32265,65.49314],[-142.32276,65.49378],[-142.32392,65.49408],[-142.32449,65.49471],[-142.32256,65.49501],[-142.32276,65.49521],[-142.32283,65.49569],[-142.32332,65.49573],[-142.3235,65.49586],[-142.32266,65.49621],[-142.32139,65.49597],[-142.32066,65.49528],[-142.31923,65.4949],[-142.31891,65.49458],[-142.31815,65.49455],[-142.31803,65.49478],[-142.31871,65.49548],[-142.3174,65.49533],[-142.31686,65.49555],[-142.31812,65.49616],[-142.31875,65.49603],[-142.31957,65.49608],[-142.32181,65.49701],[-142.32182,65.49734],[-142.3207,65.49829],[-142.3196,65.49855],[-142.31772,65.49803],[-142.3174,65.49781],[-142.31742,65.49741],[-142.31713,65.49731],[-142.31636,65.49741],[-142.31644,65.49796]]],[[[-142.32424,65.49757],[-142.32417,65.49773],[-142.32332,65.49793],[-142.32194,65.49863],[-142.32148,65.49872],[-142.32115,65.49834],[-142.32126,65.49819],[-142.32163,65.49812],[-142.32161,65.49772],[-142.32271,65.4975],[-142.32342,65.4971],[-142.32415,65.49725],[-142.32411,65.49741],[-142.32424,65.49757]]]]},"properties":{"fire_id":"ufid:2023-AKUYD-000259","source_collection":"history-2023","source_objectid":21580,"incident_name":"Judge","mapped_acres":241.629,"mapped_acres_source":"poly_GISAcres","gis_acres":241.629,"auto_acres":241.62449812998324,"reported_acres":241.6,"percent_contained":null,"state":"AK","state_wfigs":"US-AK","county":"Yukon-Koyukuk","discovery_time_utc":"2023-07-26T23:13:00Z","perimeter_time_utc":"2023-10-06T16:40:12Z","perimeter_edit_time_utc":"2023-10-06T16:40:12Z","incident_modified_time_utc":"2023-09-07T23:45:09Z","containment_time_utc":"2023-09-05T20:30:00Z","control_time_utc":"2023-09-05T20:30:00Z","fire_out_time_utc":"2023-09-05T20:30:00Z","fire_cause":"Natural","fire_cause_general":"Natural","map_method":"Image Interpretation","source_dataset":"FFP","unique_fire_identifier":"2023-AKUYD-000259","irwin_id":"{29CD53C0-BEDE-497A-812D-A7BA8369F124}","global_id":"f2aa10c8-51b8-4bd7-b672-687bc446e8d5"}},{"type":"Feature","geometry":{"type":"Polygon","coordinates":[[[-141.93468,66.52007],[-141.93444,66.52064],[-141.93449,66.52134],[-141.93414,66.52173],[-141.93395,66.52221],[-141.93321,66.52242],[-141.9305,66.52238],[-141.92838,66.52257],[-141.92768,66.52321],[-141.92609,66.52345],[-141.92521,66.52403],[-141.92241,66.52477],[-141.92148,66.52477],[-141.92096,66.52514],[-141.92113,66.52539],[-141.91924,66.52655],[-141.91988,66.52711],[-141.92084,66.5273],[-141.92289,66.52732],[-141.9235,66.52746],[-141.92365,66.52775],[-141.92354,66.528],[-141.92304,66.52832],[-141.91934,66.52785],[-141.9187,66.5279],[-141.91758,66.52719],[-141.91678,66.52715],[-141.91544,66.52747],[-141.91455,66.52744],[-141.91388,66.52719],[-141.91312,66.52714],[-141.91269,66.52727],[-141.91269,66.5274],[-141.91179,66.52787],[-141.90916,66.5288],[-141.9085,66.5287],[-141.90896,66.52804],[-141.91023,66.52718],[-141.90999,66.52694],[-141.90776,66.52661],[-141.90612,66.52709],[-141.90568,66.52683],[-141.90659,66.52605],[-141.90654,66.52559],[-141.90534,66.52529],[-141.90434,66.52526],[-141.9024,66.5255],[-141.90032,66.52528],[-141.89909,66.52536],[-141.89824,66.52524],[-141.89776,66.52503],[-141.89766,66.52473],[-141.89685,66.5246],[-141.89653,66.52435],[-141.89679,66.52404],[-141.89501,66.5238],[-141.89474,66.5235],[-141.89432,66.5234],[-141.89421,66.52307],[-141.89493,66.5229],[-141.89556,66.52248],[-141.89347,66.52134],[-141.89336,66.52062],[-141.89339,66.52024],[-141.89426,66.52018],[-141.89758,66.52175],[-141.89934,66.52198],[-141.90066,66.52182],[-141.90526,66.52085],[-141.90795,66.5196],[-141.90854,66.51959],[-141.90897,66.51998],[-141.9095,66.51982],[-141.90954,66.51893],[-141.91014,66.51869],[-141.91176,66.51838],[-141.91274,66.51846],[-141.91303,66.51873],[-141.91263,66.51897],[-141.91124,66.51888],[-141.91057,66.51914],[-141.91062,66.51942],[-141.91318,66.51973],[-141.91467,66.52015],[-141.91399,66.5205],[-141.91413,66.52069],[-141.91635,66.52111],[-141.9187,66.52132],[-141.91911,66.52156],[-141.91971,66.52165],[-141.9207,66.52151],[-141.92289,66.52173],[-141.92358,66.5215],[-141.92425,66.52105],[-141.92513,66.52078],[-141.92654,66.52057],[-141.92733,66.52005],[-141.92831,66.51961],[-141.92959,66.51921],[-141.93172,66.51983],[-141.93468,66.52007]]]},"properties":{"fire_id":"ufid:2023-AKUYD-000352","source_collection":"history-2023","source_objectid":21581,"incident_name":"Tetthajik","mapped_acres":232.7582,"mapped_acres_source":"poly_GISAcres","gis_acres":232.7582,"auto_acres":232.7572620976227,"reported_acres":232.8,"percent_contained":null,"state":"AK","state_wfigs":"US-AK","county":"Yukon-Koyukuk","discovery_time_utc":"2023-08-08T15:31:00Z","perimeter_time_utc":"2023-10-06T16:39:31Z","perimeter_edit_time_utc":"2023-10-06T16:39:32Z","incident_modified_time_utc":"2023-09-13T21:19:48Z","containment_time_utc":"2023-09-13T19:45:00Z","control_time_utc":"2023-09-13T19:45:00Z","fire_out_time_utc":"2023-09-13T19:45:00Z","fire_cause":"Natural","fire_cause_general":"Natural","map_method":"Image Interpretation","source_dataset":"FFP","unique_fire_identifier":"2023-AKUYD-000352","irwin_id":"{21A29EF1-77EC-447A-81F9-EF1CCF11D7A1}","global_id":"359b6dc2-59ed-479d-acd0-be654d1aa31c"}},{"type":"Feature","geometry":{"type":"Polygon","coordinates":[[[-141.18528,65.29814],[-141.18514,65.29795],[-141.18607,65.29735],[-141.18614,65.29677],[-141.18686,65.2965],[-141.18976,65.29678],[-141.19319,65.29876],[-141.19317,65.29986],[-141.19302,65.30026],[-141.19255,65.30036],[-141.19219,65.30059],[-141.19192,65.30091],[-141.1919,65.30116],[-141.19177,65.30118],[-141.19252,65.30166],[-141.19297,65.30219],[-141.19328,65.30236],[-141.19308,65.30262],[-141.1923,65.30287],[-141.19151,65.30285],[-141.19037,65.30247],[-141.18848,65.30216],[-141.18776,65.30223],[-141.18663,65.30276],[-141.18673,65.30311],[-141.18876,65.30354],[-141.18936,65.30408],[-141.18911,65.30437],[-141.18733,65.30465],[-141.18754,65.30468],[-141.18773,65.30495],[-141.18767,65.30519],[-141.18634,65.30577],[-141.18554,65.30688],[-141.18414,65.30698],[-141.18332,65.30674],[-141.18232,65.30677],[-141.1823,65.30698],[-141.18259,65.30713],[-141.18255,65.30776],[-141.18243,65.30802],[-141.18151,65.30824],[-141.18129,65.30869],[-141.18158,65.30939],[-141.18136,65.31014],[-141.18037,65.31035],[-141.17984,65.30995],[-141.17951,65.30943],[-141.17845,65.30912],[-141.17593,65.30944],[-141.1753,65.30987],[-141.17492,65.31038],[-141.17583,65.31063],[-141.17692,65.3105],[-141.17829,65.31058],[-141.18028,65.31127],[-141.18184,65.31154],[-141.18228,65.3118],[-141.18114,65.31179],[-141.18108,65.31202],[-141.18014,65.31219],[-141.17756,65.31329],[-141.17704,65.31362],[-141.17703,65.31413],[-141.17673,65.31428],[-141.17542,65.31437],[-141.17548,65.31461],[-141.17441,65.31487],[-141.17445,65.31505],[-141.17824,65.31539],[-141.17748,65.31608],[-141.17668,65.3165],[-141.1741,65.31705],[-141.17079,65.31811],[-141.16666,65.31903],[-141.16101,65.31765],[-141.16021,65.31765],[-141.15933,65.31743],[-141.15896,65.31708],[-141.15644,65.31651],[-141.15563,65.31671],[-141.15401,65.31767],[-141.15391,65.31787],[-141.15423,65.31812],[-141.15606,65.31868],[-141.15664,65.31897],[-141.15663,65.31916],[-141.15516,65.31894],[-141.15431,65.31917],[-141.154,65.31976],[-141.15336,65.32021],[-141.15427,65.32036],[-141.15429,65.32063],[-141.1538,65.32066],[-141.15325,65.32052],[-141.15219,65.32186],[-141.15323,65.32197],[-141.15555,65.32178],[-141.15599,65.32207],[-141.1556,65.32284],[-141.15526,65.32321],[-141.15405,65.3237],[-141.15426,65.32375],[-141.15488,65.32352],[-141.15564,65.3236],[-141.15376,65.32485],[-141.15346,65.32546],[-141.15162,65.32596],[-141.15197,65.32619],[-141.15262,65.32628],[-141.15306,65.3265],[-141.15449,65.32657],[-141.15534,65.32733],[-141.15746,65.32798],[-141.15772,65.32822],[-141.15785,65.32875],[-141.15737,65.33001],[-141.15813,65.33053],[-141.15864,65.3307],[-141.1586,65.33138],[-141.15963,65.33251],[-141.15911,65.3326],[-141.15728,65.33348],[-141.15498,65.33405],[-141.15442,65.33381],[-141.15457,65.33344],[-141.15412,65.33296],[-141.15199,65.33281],[-141.15101,65.33252],[-141.15032,65.33203],[-141.14965,65.33191],[-141.14858,65.33195],[-141.14815,65.3315],[-141.14741,65.33123],[-141.14665,65.33065],[-141.14609,65.33053],[-141.14634,65.33018],[-141.14776,65.32988],[-141.14845,65.33007],[-141.14994,65.33087],[-141.1507,65.33068],[-141.15117,65.33034],[-141.15161,65.32969],[-141.15108,65.32917],[-141.1497,65.32913],[-141.14919,65.32879],[-141.14913,65.32816],[-141.14793,65.32766],[-141.14778,65.32737],[-141.14694,65.32696],[-141.14531,65.32689],[-141.1445,65.32648],[-141.14474,65.32597],[-141.1445,65.32551],[-141.14306,65.32539],[-141.14113,65.32573],[-141.14021,65.32561],[-141.13903,65.32605],[-141.13669,65.32657],[-141.13598,65.32651],[-141.13594,65.32604],[-141.13503,65.32602],[-141.13432,65.32625],[-141.1334,65.32607],[-141.13341,65.32581],[-141.13315,65.32552],[-141.13273,65.32549],[-141.13195,65.32575],[-141.13126,65.32576],[-141.13122,65.32517],[-141.13191,65.32432],[-141.13244,65.32396],[-141.13239,65.32378],[-141.13153,65.32346],[-141.13107,65.32274],[-141.13115,65.32202],[-141.13171,65.32179],[-141.13462,65.32122],[-141.1349,65.32098],[-141.13418,65.32074],[-141.13372,65.32087],[-141.13214,65.32076],[-141.13156,65.32101],[-141.13113,65.32085],[-141.13136,65.3204],[-141.13076,65.32022],[-141.13239,65.31938],[-141.13266,65.31898],[-141.13133,65.31858],[-141.13097,65.31824],[-141.13152,65.31757],[-141.13082,65.31661],[-141.13047,65.31637],[-141.12822,65.3161],[-141.12758,65.31588],[-141.12613,65.31599],[-141.12537,65.3159],[-141.1256,65.31559],[-141.12771,65.31506],[-141.12798,65.31479],[-141.12766,65.31418],[-141.12727,65.31434],[-141.12702,65.3141],[-141.12629,65.31394],[-141.126,65.31418],[-141.12541,65.31398],[-141.12421,65.31318],[-141.1227,65.31279],[-141.12104,65.3128],[-141.11947,65.31312],[-141.1179,65.31293],[-141.11656,65.31245],[-141.11635,65.3116],[-141.11668,65.31077],[-141.11761,65.31017],[-141.12037,65.30986],[-141.12256,65.30983],[-141.1242,65.30965],[-141.12933,65.30993],[-141.13019,65.3097],[-141.13167,65.30905],[-141.13523,65.30842],[-141.1355,65.30803],[-141.13879,65.30799],[-141.14001,65.3074],[-141.14123,65.30719],[-141.14174,65.30645],[-141.14119,65.30597],[-141.14122,65.30584],[-141.14205,65.30591],[-141.14268,65.30615],[-141.14425,65.30615],[-141.14473,65.30543],[-141.14832,65.3053],[-141.14903,65.30486],[-141.1502,65.3045],[-141.15204,65.30431],[-141.15322,65.30436],[-141.15582,65.30509],[-141.15727,65.30521],[-141.162,65.30677],[-141.16368,65.30681],[-141.1642,65.30635],[-141.16399,65.30601],[-141.15983,65.30468],[-141.15966,65.30444],[-141.15884,65.30392],[-141.15869,65.30368],[-141.1593,65.30341],[-141.16271,65.3039],[-141.16307,65.30423],[-141.166,65.3052],[-141.16564,65.30586],[-141.16564,65.30625],[-141.166,65.30715],[-141.1686,65.30868],[-141.16951,65.30905],[-141.17077,65.30941],[-141.17197,65.30939],[-141.17263,65.30912],[-141.17314,65.30829],[-141.17371,65.30812],[-141.17574,65.30806],[-141.17636,65.30784],[-141.17762,65.30773],[-141.17782,65.30732],[-141.17741,65.30693],[-141.1764,65.30674],[-141.17598,65.30647],[-141.17566,65.30519],[-141.17588,65.30473],[-141.17685,65.30423],[-141.17684,65.30397],[-141.17765,65.30355],[-141.17763,65.30322],[-141.17745,65.30294],[-141.179,65.30262],[-141.17957,65.30231],[-141.17838,65.30228],[-141.1772,65.30248],[-141.1768,65.30204],[-141.17831,65.30151],[-141.18129,65.30084],[-141.18449,65.30047],[-141.18473,65.30015],[-141.18487,65.29888],[-141.18528,65.29814]]]},"properties":{"fire_id":"ufid:2023-AKUYD-000337","source_collection":"history-2023","source_objectid":21647,"incident_name":"Waterfall","mapped_acres":1199.3,"mapped_acres_source":"poly_GISAcres","gis_acres":1199.3,"auto_acres":1199.275513887874,"reported_acres":1199.3,"percent_contained":null,"state":"AK","state_wfigs":"US-AK","county":"Southeast Fairbanks","discovery_time_utc":"2023-08-04T16:05:00Z","perimeter_time_utc":"2023-12-07T18:09:09Z","perimeter_edit_time_utc":"2023-12-07T18:09:09Z","incident_modified_time_utc":"2023-11-13T20:26:11Z","containment_time_utc":"2023-09-18T18:15:00Z","control_time_utc":"2023-09-18T18:15:00Z","fire_out_time_utc":"2023-09-18T18:15:00Z","fire_cause":"Natural","fire_cause_general":"Natural","map_method":"Image Interpretation","source_dataset":"FFP","unique_fire_identifier":"2023-AKUYD-000337","irwin_id":"{EBC2963A-3C78-484C-8BB4-199E56B5F707}","global_id":"94283db1-fea2-4669-a2a2-1e6dc6197f67"}},{"type":"Feature","geometry":{"type":"Polygon","coordinates":[[[-142.15978,65.56906],[-142.16292,65.57129],[-142.16302,65.5717],[-142.16251,65.57192],[-142.16202,65.57183],[-142.16183,65.57169],[-142.16192,65.57157],[-142.16109,65.57113],[-142.16047,65.57102],[-142.16039,65.57087],[-142.1598,65.57087],[-142.15972,65.57072],[-142.15998,65.57037],[-142.15973,65.5701],[-142.15998,65.56992],[-142.15995,65.56979],[-142.15952,65.56957],[-142.15949,65.56916],[-142.15978,65.56906]]]},"properties":{"fire_id":"ufid:2023-AKUYD-000360","source_collection":"history-2023","source_objectid":21648,"incident_name":"Pingo","mapped_acres":4.85252,"mapped_acres_source":"poly_GISAcres","gis_acres":4.85252,"auto_acres":4.852498117910326,"reported_acres":4.9,"percent_contained":null,"state":"AK","state_wfigs":"US-AK","county":"Yukon-Koyukuk","discovery_time_utc":"2023-08-14T21:33:00Z","perimeter_time_utc":"2023-10-11T15:09:20Z","perimeter_edit_time_utc":"2023-10-11T15:09:21Z","incident_modified_time_utc":"2023-09-29T20:55:12Z","containment_time_utc":"2023-09-06T18:15:00Z","control_time_utc":"2023-09-06T18:15:00Z","fire_out_time_utc":"2023-09-06T18:15:00Z","fire_cause":"Natural","fire_cause_general":"Natural","map_method":"Image Interpretation","source_dataset":"FFP","unique_fire_identifier":"2023-AKUYD-000360","irwin_id":"{F5B5EDD3-351B-418A-A393-F7751A8D65C1}","global_id":"c00001a3-6887-4c4c-9a82-8f8fe77595a8"}}]}
