{"type":"FeatureCollection","features":[{"type":"Feature","geometry":{"type":"Polygon","coordinates":[[[-143.34833,63.57027],[-143.34837,63.57042],[-143.34901,63.57078],[-143.3489,63.57083],[-143.34912,63.57117],[-143.34903,63.57143],[-143.34932,63.57162],[-143.34915,63.57163],[-143.34978,63.57207],[-143.34978,63.57223],[-143.35057,63.57265],[-143.35032,63.57284],[-143.35051,63.57288],[-143.35048,63.57304],[-143.35161,63.57356],[-143.3515,63.57376],[-143.35111,63.57376],[-143.35103,63.57387],[-143.35117,63.57411],[-143.35045,63.57415],[-143.3503,63.57429],[-143.34984,63.57416],[-143.3495,63.57435],[-143.3497,63.57461],[-143.34961,63.57469],[-143.34862,63.57453],[-143.34817,63.5744],[-143.34812,63.5742],[-143.34782,63.57415],[-143.34755,63.5739],[-143.34703,63.57392],[-143.3465,63.57339],[-143.34584,63.57327],[-143.3454,63.57302],[-143.34543,63.57281],[-143.34524,63.57259],[-143.34535,63.57246],[-143.34505,63.57231],[-143.34489,63.57205],[-143.34501,63.57192],[-143.34477,63.57159],[-143.34516,63.57153],[-143.34434,63.57117],[-143.34443,63.57109],[-143.34421,63.57099],[-143.34438,63.57092],[-143.34412,63.57085],[-143.34419,63.57065],[-143.34393,63.57053],[-143.34407,63.57022],[-143.34391,63.57],[-143.34498,63.56977],[-143.34588,63.56997],[-143.34697,63.56983],[-143.34833,63.57027]]]},"properties":{"fire_id":"ufid:2023-AKTAS-313113","source_collection":"history-2023","source_objectid":19465,"incident_name":"Lake Mansfield","mapped_acres":27.59955,"mapped_acres_source":"poly_GISAcres","gis_acres":27.59955,"auto_acres":27.59944004908426,"reported_acres":27.6,"percent_contained":null,"state":"AK","state_wfigs":"US-AK","county":"Southeast Fairbanks","discovery_time_utc":"2023-06-11T23:46:37Z","perimeter_time_utc":"2023-09-25T18:10:08Z","perimeter_edit_time_utc":"2023-09-25T18:10:09Z","incident_modified_time_utc":"2023-08-23T18:45:07Z","containment_time_utc":"2023-06-12T17:05:56Z","control_time_utc":"2023-06-13T02:00:59Z","fire_out_time_utc":"2023-06-21T20:32:00Z","fire_cause":"Natural","fire_cause_general":"Natural","map_method":"Mixed Methods","source_dataset":"FFP","unique_fire_identifier":"2023-AKTAS-313113","irwin_id":"{A0719337-3802-46D7-A32D-06281DD19DB9}","global_id":"04b85b50-44ca-426d-be4d-eee178183550"}},{"type":"Feature","geometry":{"type":"Polygon","coordinates":[[[-141.19824,64.17181],[-141.19788,64.17149],[-141.19886,64.1714],[-141.19875,64.17134],[-141.19885,64.17123],[-141.19922,64.17135],[-141.19974,64.17117],[-141.19961,64.17131],[-141.20014,64.1713],[-141.20017,64.17141],[-141.19953,64.17149],[-141.19942,64.17164],[-141.20011,64.17173],[-141.2,64.1719],[-141.20065,64.17211],[-141.20063,64.17226],[-141.20108,64.17224],[-141.20129,64.17243],[-141.20108,64.17253],[-141.20145,64.17269],[-141.20107,64.17274],[-141.20025,64.17243],[-141.19968,64.1727],[-141.19963,64.17261],[-141.19921,64.17262],[-141.19924,64.17273],[-141.19897,64.17262],[-141.19885,64.17281],[-141.19877,64.1727],[-141.19858,64.17273],[-141.19865,64.17264],[-141.19854,64.1725],[-141.19796,64.1726],[-141.19801,64.17243],[-141.19779,64.17237],[-141.19768,64.17215],[-141.19787,64.17197],[-141.19816,64.17197],[-141.19824,64.17181]]]},"properties":{"fire_id":"ufid:2023-AKUYD-000346","source_collection":"history-2023","source_objectid":20983,"incident_name":"Jejezhuu","mapped_acres":4.19578,"mapped_acres_source":"poly_GISAcres","gis_acres":4.19578,"auto_acres":4.195762899849407,"reported_acres":4.2,"percent_contained":null,"state":"AK","state_wfigs":"US-AK","county":"Southeast Fairbanks","discovery_time_utc":"2023-08-06T22:05:00Z","perimeter_time_utc":"2023-10-19T19:49:58Z","perimeter_edit_time_utc":"2023-10-19T19:49:59Z","incident_modified_time_utc":"2023-08-17T02:56:44Z","containment_time_utc":"2023-08-11T04:00:00Z","control_time_utc":"2023-08-11T04:00:00Z","fire_out_time_utc":"2023-08-11T04:00:00Z","fire_cause":"Natural","fire_cause_general":"Natural","map_method":"GPS-Walked","source_dataset":"FFP","unique_fire_identifier":"2023-AKUYD-000346","irwin_id":"{ED1B49C2-D6A6-4933-8154-355EF3F430D4}","global_id":"c1ac3c13-0177-48f1-9cb3-9198cfb72b48"}},{"type":"Feature","geometry":{"type":"Polygon","coordinates":[[[-144.9332,64.2957],[-144.93242,64.29537],[-144.9315,64.29477],[-144.93103,64.29357],[-144.92951,64.29277],[-144.92836,64.29109],[-144.92916,64.28983],[-144.92962,64.28802],[-144.93033,64.2867],[-144.93151,64.28567],[-144.93446,64.28359],[-144.93941,64.28145],[-144.94249,64.27928],[-144.94412,64.27849],[-144.94674,64.27804],[-144.95081,64.27794],[-144.95317,64.27735],[-144.95312,64.27654],[-144.9486,64.27465],[-144.9476,64.27411],[-144.94651,64.27289],[-144.94628,64.27229],[-144.94633,64.27191],[-144.94661,64.2716],[-144.94931,64.27092],[-144.95055,64.27101],[-144.95291,64.27178],[-144.95479,64.27213],[-144.96186,64.27273],[-144.96387,64.27275],[-144.96896,64.27237],[-144.96955,64.27244],[-144.96998,64.27277],[-144.96979,64.27309],[-144.96872,64.27396],[-144.96813,64.27502],[-144.96817,64.27567],[-144.96834,64.27613],[-144.96967,64.27745],[-144.97059,64.27802],[-144.9734,64.27926],[-144.97546,64.27973],[-144.97924,64.27982],[-144.98084,64.28008],[-144.98137,64.28048],[-144.98157,64.28118],[-144.98124,64.28513],[-144.98082,64.2859],[-144.97989,64.28637],[-144.97875,64.28654],[-144.97752,64.28615],[-144.97552,64.28619],[-144.97484,64.28606],[-144.97381,64.28523],[-144.97266,64.28487],[-144.97025,64.28488],[-144.96907,64.28521],[-144.96809,64.28568],[-144.96693,64.28728],[-144.96514,64.28844],[-144.95847,64.29117],[-144.95671,64.29177],[-144.95524,64.29183],[-144.95101,64.2912],[-144.94923,64.29115],[-144.94673,64.29146],[-144.94295,64.29236],[-144.93762,64.29432],[-144.9332,64.2957]]]},"properties":{"fire_id":"ufid:2023-AKDAS-312208","source_collection":"history-2023","source_objectid":21227,"incident_name":"Central Creek","mapped_acres":889.0917,"mapped_acres_source":"poly_GISAcres","gis_acres":889.0917,"auto_acres":889.0880272492611,"reported_acres":889.1,"percent_contained":null,"state":"AK","state_wfigs":"US-AK","county":"Southeast Fairbanks","discovery_time_utc":"2023-07-25T03:10:26Z","perimeter_time_utc":"2024-01-22T15:08:18Z","perimeter_edit_time_utc":"2024-01-22T15:08:18Z","incident_modified_time_utc":"2023-07-30T03:20:59Z","containment_time_utc":"2023-10-25T20:05:27Z","control_time_utc":null,"fire_out_time_utc":"2023-12-08T21:24:38Z","fire_cause":"Natural","fire_cause_general":"Natural","map_method":"GPS-Flight","source_dataset":"FFP","unique_fire_identifier":"2023-AKDAS-312208","irwin_id":"{D2F1BC92-3319-4AF2-9CD2-A515EE24808A}","global_id":"ea3c73a3-9252-4e4e-b8d4-a241a7929505"}},{"type":"Feature","geometry":{"type":"MultiPolygon","coordinates":[[[[-141.41417,64.50951],[-141.41318,64.50957],[-141.41318,64.50984],[-141.41295,64.50986],[-141.41297,64.51003],[-141.41274,64.51012],[-141.41166,64.51003],[-141.41142,64.51027],[-141.41092,64.51004],[-141.41058,64.51008],[-141.41035,64.51036],[-141.40992,64.51007],[-141.40917,64.50986],[-141.40872,64.5092],[-141.40836,64.50914],[-141.4081,64.5088],[-141.40769,64.50867],[-141.40755,64.50847],[-141.40835,64.50799],[-141.40789,64.5077],[-141.40797,64.5075],[-141.40742,64.50723],[-141.40759,64.50707],[-141.40803,64.50703],[-141.40809,64.50686],[-141.40698,64.50636],[-141.40695,64.50612],[-141.40711,64.50588],[-141.40797,64.50557],[-141.4081,64.50541],[-141.408,64.50516],[-141.40733,64.50485],[-141.40624,64.50465],[-141.40605,64.50447],[-141.40611,64.50426],[-141.40801,64.50409],[-141.40894,64.50375],[-141.41053,64.50388],[-141.41171,64.50374],[-141.41262,64.50407],[-141.41269,64.50425],[-141.41228,64.50444],[-141.41141,64.50457],[-141.4113,64.50476],[-141.41139,64.50489],[-141.41055,64.50513],[-141.41051,64.5054],[-141.41091,64.50576],[-141.41197,64.50567],[-141.41176,64.50576],[-141.41167,64.50602],[-141.41251,64.50661],[-141.41222,64.50755],[-141.41244,64.50785],[-141.41268,64.50776],[-141.41296,64.50787],[-141.41261,64.50803],[-141.41267,64.50816],[-141.41362,64.50836],[-141.41366,64.50846],[-141.413,64.50877],[-141.41383,64.50889],[-141.41366,64.50914],[-141.41417,64.50951]]],[[[-141.41286,64.51124],[-141.41362,64.51127],[-141.41402,64.51152],[-141.41405,64.51171],[-141.41353,64.51211],[-141.41273,64.51196],[-141.41235,64.51153],[-141.41286,64.51124]]]]},"properties":{"fire_id":"ufid:2023-AKUYD-000275","source_collection":"history-2023","source_objectid":21375,"incident_name":"Dime","mapped_acres":39.78275,"mapped_acres_source":"poly_GISAcres","gis_acres":39.78275,"auto_acres":39.78493288015852,"reported_acres":39.8,"percent_contained":null,"state":"AK","state_wfigs":"US-AK","county":"Southeast Fairbanks","discovery_time_utc":"2023-07-27T20:43:00Z","perimeter_time_utc":"2023-10-18T20:43:30Z","perimeter_edit_time_utc":"2023-10-18T20:43:30Z","incident_modified_time_utc":"2023-09-20T21:03:30Z","containment_time_utc":"2023-09-05T20:30:00Z","control_time_utc":"2023-09-05T20:30:00Z","fire_out_time_utc":"2023-09-05T20:30:00Z","fire_cause":"Natural","fire_cause_general":"Natural","map_method":"Image Interpretation","source_dataset":"FFP","unique_fire_identifier":"2023-AKUYD-000275","irwin_id":"{73B88DA0-4875-49C3-BE6E-8A9AB13B44A9}","global_id":"998347f1-f679-4c9e-b7b5-621ebf686beb"}},{"type":"Feature","geometry":{"type":"Polygon","coordinates":[[[-144.9417,64.50346],[-144.94073,64.50579],[-144.94015,64.50667],[-144.93923,64.50735],[-144.93796,64.5077],[-144.93643,64.50764],[-144.93498,64.50706],[-144.93357,64.50605],[-144.93026,64.50427],[-144.92765,64.50374],[-144.92617,64.50371],[-144.92329,64.50332],[-144.92083,64.50205],[-144.91924,64.50139],[-144.91844,64.50108],[-144.91639,64.5006],[-144.91477,64.50037],[-144.91355,64.5004],[-144.91157,64.50112],[-144.9105,64.50129],[-144.90675,64.50152],[-144.9055,64.50139],[-144.90489,64.50114],[-144.90458,64.50085],[-144.90479,64.5006],[-144.90692,64.49979],[-144.90742,64.49936],[-144.90743,64.49881],[-144.90442,64.49698],[-144.90127,64.49601],[-144.90051,64.49552],[-144.90021,64.4951],[-144.90013,64.49466],[-144.90037,64.49427],[-144.90095,64.49389],[-144.90334,64.49346],[-144.90472,64.49351],[-144.9081,64.49419],[-144.91075,64.49495],[-144.91351,64.49592],[-144.9159,64.49624],[-144.91881,64.49644],[-144.92372,64.49712],[-144.92598,64.4971],[-144.92657,64.49689],[-144.9268,64.49664],[-144.9266,64.49642],[-144.92361,64.49546],[-144.9223,64.49465],[-144.92148,64.49381],[-144.92102,64.49296],[-144.91984,64.49229],[-144.91962,64.49184],[-144.92018,64.49141],[-144.9218,64.49089],[-144.92215,64.49043],[-144.92239,64.48968],[-144.92362,64.48942],[-144.92496,64.48935],[-144.9263,64.4894],[-144.92716,64.48958],[-144.92837,64.49014],[-144.92921,64.49094],[-144.93012,64.49132],[-144.93114,64.49133],[-144.93417,64.49081],[-144.93638,64.49109],[-144.93826,64.49162],[-144.93922,64.49207],[-144.94033,64.49299],[-144.94117,64.49398],[-144.94136,64.49442],[-144.94188,64.49628],[-144.94167,64.49754],[-144.94106,64.49897],[-144.94096,64.49965],[-144.94156,64.50212],[-144.94131,64.50291],[-144.9417,64.50346]]]},"properties":{"fire_id":"ufid:2023-AKDAS-312251","source_collection":"history-2023","source_objectid":21594,"incident_name":"Indian Creek","mapped_acres":506.2,"mapped_acres_source":"poly_GISAcres","gis_acres":506.2,"auto_acres":506.15624536467334,"reported_acres":506.2,"percent_contained":null,"state":"AK","state_wfigs":"US-AK","county":"Southeast Fairbanks","discovery_time_utc":"2023-07-26T17:05:09Z","perimeter_time_utc":"2023-10-06T17:42:25Z","perimeter_edit_time_utc":"2023-10-06T17:42:25Z","incident_modified_time_utc":"2023-09-14T16:21:22Z","containment_time_utc":null,"control_time_utc":null,"fire_out_time_utc":"2023-09-08T22:06:11Z","fire_cause":"Natural","fire_cause_general":"Natural","map_method":"GPS-Flight","source_dataset":"FFP","unique_fire_identifier":"2023-AKDAS-312251","irwin_id":"{1950C631-F357-410F-9889-FCF7CD0C87ED}","global_id":"288633f4-307c-4c7b-a28c-07487f62855d"}},{"type":"Feature","geometry":{"type":"Polygon","coordinates":[[[-144.67114,63.7844],[-144.66944,63.78436],[-144.66945,63.78459],[-144.66976,63.78481],[-144.66954,63.78507],[-144.66893,63.78488],[-144.66844,63.7849],[-144.66785,63.78503],[-144.66756,63.78532],[-144.66656,63.78556],[-144.66565,63.78547],[-144.66529,63.78532],[-144.66522,63.78544],[-144.66534,63.78563],[-144.66483,63.78574],[-144.66377,63.78569],[-144.6618,63.78527],[-144.66049,63.78547],[-144.65953,63.78515],[-144.65911,63.78513],[-144.65897,63.785],[-144.65894,63.78443],[-144.65806,63.78434],[-144.65829,63.78412],[-144.65802,63.78395],[-144.65897,63.78343],[-144.66279,63.78282],[-144.66274,63.78272],[-144.66287,63.78268],[-144.66343,63.78274],[-144.66395,63.78256],[-144.66439,63.78269],[-144.6653,63.7824],[-144.66622,63.78236],[-144.66641,63.78223],[-144.66771,63.7824],[-144.66875,63.78217],[-144.66918,63.78239],[-144.67017,63.7825],[-144.67023,63.78262],[-144.67043,63.78247],[-144.67087,63.78251],[-144.6705,63.78279],[-144.67055,63.78307],[-144.66978,63.78319],[-144.66998,63.78341],[-144.66981,63.78359],[-144.6702,63.78367],[-144.67032,63.7839],[-144.67125,63.78402],[-144.67086,63.78411],[-144.67071,63.78428],[-144.67114,63.7844]]]},"properties":{"fire_id":"ufid:2023-AKDAS-312161","source_collection":"history-2023","source_objectid":21598,"incident_name":"Lake George","mapped_acres":41.64166,"mapped_acres_source":"poly_GISAcres","gis_acres":41.64166,"auto_acres":41.64149296683018,"reported_acres":41.6,"percent_contained":null,"state":"AK","state_wfigs":"US-AK","county":"Southeast Fairbanks","discovery_time_utc":"2023-07-02T19:37:10Z","perimeter_time_utc":"2023-10-06T17:45:58Z","perimeter_edit_time_utc":"2023-10-06T17:45:59Z","incident_modified_time_utc":"2023-09-14T19:03:25Z","containment_time_utc":"2023-07-08T16:00:00Z","control_time_utc":null,"fire_out_time_utc":"2023-08-20T04:15:30Z","fire_cause":"Natural","fire_cause_general":"Natural","map_method":"Mixed Methods","source_dataset":"FFP","unique_fire_identifier":"2023-AKDAS-312161","irwin_id":"{00E16508-F764-4149-9A15-B44B86AA8BB3}","global_id":"4a056874-3f63-4e60-a7f5-147b8b27435e"}},{"type":"Feature","geometry":{"type":"Polygon","coordinates":[[[-143.24786,64.54504],[-143.24486,64.54509],[-143.24451,64.54485],[-143.24469,64.54451],[-143.24499,64.54436],[-143.24478,64.54368],[-143.24506,64.54348],[-143.24596,64.5436],[-143.24654,64.54337],[-143.24612,64.54319],[-143.24655,64.54308],[-143.24679,64.54288],[-143.24653,64.54268],[-143.24539,64.54273],[-143.24424,64.54198],[-143.24436,64.54184],[-143.2454,64.54201],[-143.24584,64.54167],[-143.24673,64.54196],[-143.24682,64.54179],[-143.24642,64.54125],[-143.2465,64.54114],[-143.2463,64.54098],[-143.24638,64.54031],[-143.24541,64.54004],[-143.24578,64.53992],[-143.2469,64.54005],[-143.24709,64.54037],[-143.24768,64.54056],[-143.24946,64.54047],[-143.24976,64.54015],[-143.24956,64.53983],[-143.2502,64.53968],[-143.25037,64.5395],[-143.24903,64.53938],[-143.24915,64.53919],[-143.25075,64.539],[-143.25057,64.53884],[-143.25059,64.53856],[-143.25096,64.5382],[-143.2523,64.53828],[-143.25378,64.53767],[-143.2537,64.53732],[-143.25302,64.537],[-143.25286,64.53635],[-143.25318,64.53595],[-143.25425,64.53627],[-143.2543,64.53665],[-143.25569,64.53817],[-143.25563,64.53918],[-143.25574,64.53953],[-143.25557,64.53986],[-143.25515,64.54023],[-143.25411,64.54081],[-143.25373,64.54129],[-143.25368,64.54169],[-143.25249,64.54268],[-143.25035,64.54409],[-143.24934,64.54432],[-143.24876,64.54473],[-143.24786,64.54504]]]},"properties":{"fire_id":"ufid:2023-AKUYD-000282","source_collection":"history-2023","source_objectid":21850,"incident_name":"Ruby Creek","mapped_acres":59.96415,"mapped_acres_source":"poly_GISAcres","gis_acres":59.96415,"auto_acres":59.96391632846156,"reported_acres":59.96,"percent_contained":null,"state":"AK","state_wfigs":"US-AK","county":"Southeast Fairbanks","discovery_time_utc":"2023-07-28T00:50:00Z","perimeter_time_utc":"2023-10-19T18:42:39Z","perimeter_edit_time_utc":"2023-10-19T18:42:40Z","incident_modified_time_utc":"2023-09-28T17:03:43Z","containment_time_utc":"2023-09-05T20:30:00Z","control_time_utc":"2023-09-05T20:30:00Z","fire_out_time_utc":"2023-09-05T20:30:00Z","fire_cause":"Natural","fire_cause_general":"Natural","map_method":"Image Interpretation","source_dataset":"FFP","unique_fire_identifier":"2023-AKUYD-000282","irwin_id":"{DDFBC7B2-828A-4AE5-9B33-643024354BC7}","global_id":"6807e708-a660-4abe-ac99-be7e80c25f17"}},{"type":"Feature","geometry":{"type":"Polygon","coordinates":[[[-141.141,64.12567],[-141.14105,64.12531],[-141.14031,64.12476],[-141.13928,64.12467],[-141.13937,64.12418],[-141.13761,64.12394],[-141.13625,64.12422],[-141.13528,64.1234],[-141.13474,64.12261],[-141.13483,64.12245],[-141.13448,64.12182],[-141.13343,64.12146],[-141.13178,64.12151],[-141.13076,64.12171],[-141.12959,64.12126],[-141.12834,64.12137],[-141.12732,64.1218],[-141.12449,64.12232],[-141.12305,64.12209],[-141.1222,64.1223],[-141.12065,64.12195],[-141.1203,64.12166],[-141.12006,64.121],[-141.11966,64.12054],[-141.11936,64.11975],[-141.11886,64.11908],[-141.12087,64.11886],[-141.12108,64.11868],[-141.11944,64.11806],[-141.11926,64.11757],[-141.11975,64.11677],[-141.12028,64.11626],[-141.12146,64.11613],[-141.12206,64.11581],[-141.12024,64.11509],[-141.12077,64.11464],[-141.11768,64.11437],[-141.11374,64.11441],[-141.11205,64.11419],[-141.11274,64.11361],[-141.11409,64.11291],[-141.11559,64.11238],[-141.11479,64.11196],[-141.11433,64.11114],[-141.11409,64.10924],[-141.11466,64.10857],[-141.11537,64.10824],[-141.11607,64.10747],[-141.11589,64.10643],[-141.11559,64.10604],[-141.11697,64.10587],[-141.11883,64.10513],[-141.11929,64.1054],[-141.12109,64.10579],[-141.12191,64.10535],[-141.12165,64.10508],[-141.1211,64.10519],[-141.12167,64.10463],[-141.12212,64.10446],[-141.124,64.10461],[-141.12544,64.10403],[-141.12653,64.10403],[-141.12782,64.10384],[-141.12819,64.1036],[-141.12938,64.10382],[-141.13079,64.10342],[-141.13161,64.10338],[-141.13221,64.10304],[-141.13187,64.10357],[-141.13297,64.10355],[-141.1336,64.10333],[-141.13416,64.10359],[-141.13515,64.1032],[-141.13571,64.10324],[-141.13606,64.10327],[-141.13573,64.10348],[-141.13645,64.1039],[-141.13808,64.10419],[-141.13878,64.10447],[-141.13868,64.10475],[-141.13823,64.10504],[-141.1381,64.10534],[-141.13758,64.10566],[-141.13607,64.10599],[-141.13524,64.1064],[-141.13518,64.10672],[-141.13635,64.107],[-141.13769,64.10678],[-141.13845,64.10705],[-141.14057,64.10708],[-141.14085,64.10682],[-141.14161,64.10655],[-141.14257,64.10661],[-141.14355,64.10622],[-141.14401,64.10574],[-141.14562,64.10536],[-141.14649,64.10537],[-141.14686,64.10556],[-141.14625,64.10585],[-141.14798,64.10629],[-141.14887,64.10626],[-141.15373,64.10514],[-141.1546,64.10517],[-141.15665,64.10607],[-141.15832,64.10656],[-141.15874,64.10687],[-141.15927,64.10796],[-141.16086,64.10822],[-141.16138,64.10898],[-141.16236,64.10935],[-141.16335,64.10928],[-141.16473,64.10894],[-141.16643,64.10879],[-141.16753,64.10889],[-141.16976,64.10929],[-141.17051,64.10986],[-141.17073,64.11034],[-141.17099,64.11058],[-141.16829,64.11046],[-141.16844,64.11074],[-141.16706,64.1109],[-141.16732,64.11114],[-141.16897,64.11152],[-141.16926,64.11193],[-141.16869,64.11214],[-141.16816,64.11255],[-141.16852,64.11316],[-141.16857,64.1136],[-141.16789,64.11375],[-141.16646,64.11366],[-141.16532,64.11412],[-141.16639,64.11469],[-141.16645,64.11492],[-141.16701,64.11528],[-141.16836,64.11543],[-141.16908,64.1158],[-141.16907,64.11593],[-141.16737,64.11579],[-141.16726,64.11634],[-141.16605,64.11713],[-141.16857,64.11842],[-141.16647,64.11894],[-141.16469,64.11808],[-141.16422,64.11817],[-141.16427,64.11848],[-141.16473,64.11894],[-141.16299,64.11971],[-141.16368,64.12007],[-141.165,64.12013],[-141.16484,64.1203],[-141.16442,64.12039],[-141.16407,64.12071],[-141.16418,64.12087],[-141.16234,64.12075],[-141.16182,64.12184],[-141.16112,64.12179],[-141.16071,64.12122],[-141.16086,64.12076],[-141.16029,64.12042],[-141.15947,64.12065],[-141.15883,64.12024],[-141.15889,64.11973],[-141.15805,64.11947],[-141.15766,64.11892],[-141.15805,64.11786],[-141.15779,64.11714],[-141.15689,64.1176],[-141.15634,64.1174],[-141.15532,64.11742],[-141.15415,64.11769],[-141.15348,64.11746],[-141.15323,64.11713],[-141.15312,64.11654],[-141.15319,64.11609],[-141.15416,64.11535],[-141.15394,64.11513],[-141.15202,64.11554],[-141.1516,64.11593],[-141.15233,64.11626],[-141.15216,64.11665],[-141.15182,64.11663],[-141.15034,64.11612],[-141.14988,64.1156],[-141.14915,64.1151],[-141.14794,64.11474],[-141.15009,64.11466],[-141.15127,64.11483],[-141.15184,64.11434],[-141.15227,64.11367],[-141.15227,64.11296],[-141.15261,64.1125],[-141.15317,64.11214],[-141.15349,64.11107],[-141.15276,64.11097],[-141.1506,64.11109],[-141.14899,64.11093],[-141.14858,64.11147],[-141.14885,64.11177],[-141.14883,64.11211],[-141.14855,64.11256],[-141.14693,64.11253],[-141.14621,64.1127],[-141.14535,64.11267],[-141.14445,64.11294],[-141.1447,64.11334],[-141.14522,64.11362],[-141.14709,64.1139],[-141.14707,64.11424],[-141.14631,64.11468],[-141.14516,64.1151],[-141.14603,64.11655],[-141.14738,64.11699],[-141.14896,64.11683],[-141.14921,64.11702],[-141.14804,64.11797],[-141.14827,64.11854],[-141.14894,64.11893],[-141.15071,64.11911],[-141.15042,64.11938],[-141.14853,64.11943],[-141.1484,64.11978],[-141.15022,64.12018],[-141.14904,64.12049],[-141.14688,64.12072],[-141.1465,64.12109],[-141.14761,64.1232],[-141.14752,64.12377],[-141.1487,64.12387],[-141.14985,64.12375],[-141.15008,64.12401],[-141.15117,64.1242],[-141.15317,64.124],[-141.15439,64.12435],[-141.15556,64.12481],[-141.15586,64.12625],[-141.15685,64.12672],[-141.15683,64.12706],[-141.1555,64.12694],[-141.155,64.12662],[-141.15391,64.12644],[-141.15217,64.12638],[-141.15209,64.12684],[-141.15003,64.12674],[-141.14783,64.12742],[-141.14799,64.12759],[-141.14784,64.12822],[-141.14805,64.12847],[-141.14784,64.12922],[-141.14868,64.12961],[-141.14925,64.12919],[-141.15228,64.12904],[-141.15185,64.12928],[-141.15002,64.12955],[-141.14994,64.12985],[-141.15061,64.13026],[-141.15294,64.13036],[-141.1543,64.13007],[-141.15452,64.13031],[-141.1541,64.13063],[-141.15367,64.13141],[-141.15467,64.13116],[-141.15541,64.13129],[-141.15528,64.13159],[-141.15536,64.13175],[-141.15677,64.13166],[-141.15763,64.13187],[-141.15685,64.13303],[-141.15717,64.13351],[-141.15711,64.13393],[-141.15784,64.13446],[-141.15878,64.13479],[-141.16033,64.13492],[-141.16098,64.13519],[-141.16097,64.13553],[-141.1613,64.1358],[-141.16291,64.13589],[-141.16298,64.13615],[-141.16256,64.13769],[-141.16326,64.13803],[-141.16403,64.13816],[-141.16436,64.13855],[-141.16523,64.13918],[-141.16519,64.13986],[-141.16429,64.14038],[-141.1614,64.13991],[-141.15978,64.14],[-141.158,64.14057],[-141.15471,64.14058],[-141.1546,64.14131],[-141.15495,64.14201],[-141.15329,64.14254],[-141.1538,64.14308],[-141.15459,64.14325],[-141.15434,64.14337],[-141.15557,64.14438],[-141.15583,64.14546],[-141.1574,64.14548],[-141.15749,64.14594],[-141.15838,64.14574],[-141.15843,64.14609],[-141.15746,64.14624],[-141.15671,64.14593],[-141.15573,64.14627],[-141.15562,64.14664],[-141.15489,64.14656],[-141.15422,64.14666],[-141.15289,64.14719],[-141.15185,64.14741],[-141.15112,64.14808],[-141.15063,64.14775],[-141.15075,64.14743],[-141.1499,64.14718],[-141.14968,64.14672],[-141.14861,64.14624],[-141.1479,64.14568],[-141.14803,64.14509],[-141.14742,64.14472],[-141.14789,64.14458],[-141.14785,64.14376],[-141.14824,64.14338],[-141.14958,64.1433],[-141.14997,64.14251],[-141.14805,64.14148],[-141.14798,64.14122],[-141.14818,64.14053],[-141.14765,64.13986],[-141.14623,64.13964],[-141.14319,64.13872],[-141.14332,64.13804],[-141.14273,64.1375],[-141.14248,64.13692],[-141.14111,64.13534],[-141.14135,64.13463],[-141.14082,64.13397],[-141.13956,64.13284],[-141.13821,64.13233],[-141.13787,64.13181],[-141.13783,64.13127],[-141.1387,64.13095],[-141.13932,64.13006],[-141.13967,64.12926],[-141.1398,64.12839],[-141.14062,64.12751],[-141.14153,64.12685],[-141.14359,64.12657],[-141.14362,64.12591],[-141.14344,64.12576],[-141.14175,64.12596],[-141.14057,64.12594],[-141.141,64.12567]]]},"properties":{"fire_id":"ufid:2023-AKUYD-000330","source_collection":"history-2023","source_objectid":21874,"incident_name":"Wood","mapped_acres":1403.309,"mapped_acres_source":"poly_GISAcres","gis_acres":1403.309,"auto_acres":1403.3867321698915,"reported_acres":1403.3,"percent_contained":null,"state":"AK","state_wfigs":"US-AK","county":"Southeast Fairbanks","discovery_time_utc":"2023-08-03T20:46:00Z","perimeter_time_utc":"2023-10-19T19:48:59Z","perimeter_edit_time_utc":"2023-10-19T19:48:59Z","incident_modified_time_utc":"2023-09-25T23:18:53Z","containment_time_utc":"2023-09-18T18:15:00Z","control_time_utc":"2023-09-18T18:15:00Z","fire_out_time_utc":"2023-09-18T18:15:00Z","fire_cause":"Natural","fire_cause_general":"Natural","map_method":"Image Interpretation","source_dataset":"FFP","unique_fire_identifier":"2023-AKUYD-000330","irwin_id":"{6F1817DE-EF77-455C-84AB-297AC9E1855B}","global_id":"f3f6754d-79c0-4e9d-9d39-c84116379b1e"}},{"type":"Feature","geometry":{"type":"Polygon","coordinates":[[[-141.67862,64.11902],[-141.67935,64.11943],[-141.68134,64.11992],[-141.68294,64.12058],[-141.68471,64.12183],[-141.68515,64.12232],[-141.68538,64.12279],[-141.68535,64.12323],[-141.68506,64.12361],[-141.68392,64.12415],[-141.68186,64.12419],[-141.67925,64.12358],[-141.6789,64.12369],[-141.67902,64.12393],[-141.67979,64.12426],[-141.68285,64.12506],[-141.68368,64.12541],[-141.68393,64.12576],[-141.68375,64.12658],[-141.68395,64.12678],[-141.68851,64.12746],[-141.68914,64.12766],[-141.68937,64.12791],[-141.68933,64.12808],[-141.68863,64.12849],[-141.68867,64.12867],[-141.68907,64.12867],[-141.69061,64.12827],[-141.69141,64.12825],[-141.69162,64.12844],[-141.69106,64.12903],[-141.69232,64.12904],[-141.69332,64.12924],[-141.69387,64.12951],[-141.69441,64.13005],[-141.69464,64.13069],[-141.69476,64.13268],[-141.69439,64.13314],[-141.69362,64.13353],[-141.6935,64.13388],[-141.69399,64.13431],[-141.69699,64.13585],[-141.69755,64.13638],[-141.69767,64.13689],[-141.6974,64.13716],[-141.69671,64.13735],[-141.6942,64.13757],[-141.69252,64.13786],[-141.69168,64.13814],[-141.69107,64.13852],[-141.69717,64.13795],[-141.69844,64.13822],[-141.69862,64.13834],[-141.69871,64.13864],[-141.69846,64.13896],[-141.69767,64.1394],[-141.69589,64.14004],[-141.69501,64.14016],[-141.6922,64.14013],[-141.69111,64.14034],[-141.69048,64.14071],[-141.69036,64.14096],[-141.69045,64.14118],[-141.69132,64.1414],[-141.69474,64.14092],[-141.70135,64.14095],[-141.70294,64.14075],[-141.70603,64.13993],[-141.70718,64.13978],[-141.70997,64.13982],[-141.71168,64.14011],[-141.71226,64.14036],[-141.71247,64.14072],[-141.71156,64.14193],[-141.71163,64.14252],[-141.71209,64.14333],[-141.71205,64.14363],[-141.71,64.1448],[-141.70836,64.14503],[-141.70503,64.1447],[-141.70448,64.1445],[-141.7043,64.14426],[-141.70497,64.14373],[-141.70457,64.14354],[-141.70308,64.14361],[-141.70272,64.14374],[-141.70262,64.14392],[-141.70305,64.14427],[-141.70375,64.14459],[-141.70356,64.14494],[-141.70396,64.14515],[-141.70634,64.14553],[-141.71076,64.1455],[-141.71239,64.14594],[-141.71286,64.1464],[-141.71282,64.14722],[-141.71292,64.14753],[-141.71373,64.14825],[-141.71384,64.14859],[-141.71369,64.14909],[-141.71305,64.14951],[-141.71211,64.14979],[-141.7111,64.14993],[-141.71007,64.14989],[-141.70813,64.1494],[-141.70669,64.14861],[-141.7043,64.14827],[-141.70207,64.14756],[-141.69982,64.14732],[-141.69752,64.14737],[-141.69297,64.14691],[-141.69225,64.14677],[-141.69029,64.14592],[-141.68459,64.14525],[-141.68364,64.1455],[-141.68211,64.14655],[-141.67752,64.14813],[-141.67665,64.14882],[-141.67614,64.14882],[-141.67535,64.14834],[-141.67454,64.14733],[-141.67441,64.14682],[-141.67482,64.14636],[-141.67566,64.14584],[-141.67554,64.1455],[-141.67201,64.14381],[-141.6714,64.14319],[-141.67088,64.14176],[-141.67014,64.14113],[-141.66552,64.13932],[-141.66464,64.13877],[-141.66435,64.13825],[-141.66447,64.13766],[-141.66559,64.13612],[-141.66632,64.13487],[-141.66706,64.13299],[-141.6676,64.13086],[-141.66834,64.12869],[-141.66842,64.12798],[-141.6683,64.12636],[-141.6684,64.12552],[-141.66899,64.12521],[-141.66972,64.12523],[-141.67185,64.12602],[-141.67276,64.12614],[-141.67348,64.12592],[-141.67361,64.12567],[-141.67354,64.12548],[-141.6698,64.12263],[-141.66841,64.12209],[-141.66649,64.12183],[-141.66507,64.12209],[-141.66211,64.1223],[-141.66074,64.12279],[-141.65997,64.12283],[-141.6583,64.12229],[-141.65783,64.12192],[-141.65772,64.12142],[-141.65668,64.12103],[-141.65617,64.12103],[-141.65507,64.1213],[-141.65475,64.12115],[-141.65501,64.12084],[-141.65577,64.12037],[-141.65709,64.12025],[-141.65787,64.12003],[-141.65961,64.11928],[-141.65986,64.11908],[-141.65979,64.11886],[-141.6599,64.11877],[-141.66104,64.11849],[-141.66205,64.11854],[-141.66237,64.11871],[-141.66245,64.11893],[-141.66224,64.11908],[-141.6611,64.11932],[-141.66091,64.11981],[-141.66105,64.11995],[-141.66173,64.1199],[-141.66309,64.11952],[-141.66465,64.11948],[-141.66524,64.11955],[-141.66722,64.12015],[-141.66934,64.12032],[-141.67299,64.1203],[-141.67356,64.12019],[-141.67353,64.12],[-141.67236,64.1191],[-141.67248,64.11881],[-141.67308,64.11859],[-141.67435,64.11861],[-141.67703,64.1191],[-141.67862,64.11902]]]},"properties":{"fire_id":"ufid:2023-AKUYD-000348","source_collection":"history-2023","source_objectid":21880,"incident_name":"Napoleon","mapped_acres":1036.5,"mapped_acres_source":"poly_GISAcres","gis_acres":1036.5,"auto_acres":1036.5422800385456,"reported_acres":1036.5,"percent_contained":null,"state":"AK","state_wfigs":"US-AK","county":"Southeast Fairbanks","discovery_time_utc":"2023-08-07T01:00:00Z","perimeter_time_utc":"2023-10-19T19:51:02Z","perimeter_edit_time_utc":"2023-10-19T19:51:03Z","incident_modified_time_utc":"2023-09-25T23:13:44Z","containment_time_utc":"2023-09-18T18:15:00Z","control_time_utc":"2023-09-18T18:15:00Z","fire_out_time_utc":"2023-09-18T18:15:00Z","fire_cause":"Natural","fire_cause_general":"Natural","map_method":"GPS-Flight","source_dataset":"FFP","unique_fire_identifier":"2023-AKUYD-000348","irwin_id":"{8B0C0A6A-AEAD-4E66-8618-053FEC382283}","global_id":"72bcfbad-9a54-409d-8ac7-d4288fc1c5fa"}},{"type":"Feature","geometry":{"type":"Polygon","coordinates":[[[-143.55907,63.76703],[-143.56088,63.7668],[-143.56287,63.76698],[-143.56562,63.76765],[-143.56723,63.76777],[-143.56884,63.76756],[-143.57559,63.76597],[-143.57884,63.76554],[-143.58225,63.76567],[-143.58632,63.76609],[-143.59017,63.76665],[-143.5913,63.76706],[-143.59176,63.76744],[-143.59195,63.76809],[-143.59123,63.77036],[-143.5907,63.77107],[-143.58668,63.7733],[-143.58379,63.77401],[-143.5833,63.77437],[-143.58315,63.77467],[-143.58318,63.77568],[-143.58343,63.7763],[-143.58444,63.7773],[-143.58461,63.77819],[-143.58501,63.77852],[-143.5863,63.7788],[-143.59001,63.77896],[-143.59131,63.77921],[-143.59232,63.77971],[-143.59655,63.78298],[-143.59753,63.78406],[-143.59761,63.78475],[-143.59735,63.78521],[-143.59648,63.78584],[-143.59381,63.78706],[-143.59183,63.78834],[-143.59109,63.78863],[-143.5902,63.78881],[-143.5887,63.7888],[-143.58773,63.78858],[-143.58689,63.78823],[-143.58565,63.78733],[-143.58415,63.78588],[-143.5804,63.78271],[-143.57942,63.78166],[-143.57866,63.78059],[-143.5779,63.77869],[-143.57757,63.7767],[-143.5776,63.77601],[-143.57795,63.77535],[-143.5791,63.77419],[-143.57888,63.77369],[-143.57831,63.77346],[-143.57753,63.77336],[-143.57621,63.77337],[-143.57261,63.77365],[-143.5701,63.77401],[-143.56885,63.774],[-143.56416,63.7729],[-143.56289,63.77232],[-143.56174,63.77139],[-143.55888,63.77105],[-143.5571,63.77019],[-143.55692,63.76982],[-143.55704,63.76952],[-143.55833,63.76779],[-143.55907,63.76703]]]},"properties":{"fire_id":"ufid:2023-AKTAS-313146","source_collection":"history-2023","source_objectid":22010,"incident_name":"Billy creek","mapped_acres":507.9354,"mapped_acres_source":"poly_GISAcres","gis_acres":507.9354,"auto_acres":507.93329646582805,"reported_acres":507.9,"percent_contained":null,"state":"AK","state_wfigs":"US-AK","county":"Southeast Fairbanks","discovery_time_utc":"2023-06-26T03:36:36Z","perimeter_time_utc":"2023-10-25T19:06:20Z","perimeter_edit_time_utc":"2023-10-25T19:06:20Z","incident_modified_time_utc":"2023-10-17T00:04:23Z","containment_time_utc":"2023-10-02T02:00:00Z","control_time_utc":"2023-10-02T02:00:00Z","fire_out_time_utc":"2023-10-02T02:00:36Z","fire_cause":"Natural","fire_cause_general":"Natural","map_method":"GPS-Flight","source_dataset":"FFP","unique_fire_identifier":"2023-AKTAS-313146","irwin_id":"{7DF3FBCA-CA97-45CD-B738-C69D63DA3F0C}","global_id":"d63f01bf-f170-426a-8169-f6a4f59d41fc"}},{"type":"Feature","geometry":{"type":"Polygon","coordinates":[[[-141.61261,62.92171],[-141.61229,62.92173],[-141.61249,62.92161],[-141.61261,62.92171]]]},"properties":{"fire_id":"ufid:2023-AKTAS-313399","source_collection":"history-2023","source_objectid":22485,"incident_name":"Tenmile Creek","mapped_acres":0.047,"mapped_acres_source":"poly_GISAcres","gis_acres":0.047,"auto_acres":0.04707174666958104,"reported_acres":0.1,"percent_contained":null,"state":"AK","state_wfigs":"US-AK","county":"Southeast Fairbanks","discovery_time_utc":"2023-09-29T21:27:54Z","perimeter_time_utc":"2023-11-02T18:10:32Z","perimeter_edit_time_utc":"2023-11-02T18:10:32Z","incident_modified_time_utc":"2023-10-17T01:24:25Z","containment_time_utc":"2023-09-30T22:02:57Z","control_time_utc":"2023-09-30T22:03:02Z","fire_out_time_utc":"2023-10-02T02:00:33Z","fire_cause":"Human","fire_cause_general":"Undetermined","map_method":"Mixed Methods","source_dataset":"FFP","unique_fire_identifier":"2023-AKTAS-313399","irwin_id":"{813441D3-235E-4675-9202-B62166B48997}","global_id":"4da94300-26be-40d1-9934-a8861dee309b"}},{"type":"Feature","geometry":{"type":"Polygon","coordinates":[[[-142.26756,63.33535],[-142.27425,63.33167],[-142.28051,63.33237],[-142.2824,63.33561],[-142.28173,63.33817],[-142.27805,63.33824],[-142.27717,63.33786],[-142.27955,63.33542],[-142.27693,63.33526],[-142.27402,63.33679],[-142.26821,63.33823],[-142.26756,63.33535]]]},"properties":{"fire_id":"ufid:2023-AKTAS-313341","source_collection":"history-2023","source_objectid":22493,"incident_name":"Ladue River","mapped_acres":85.27981,"mapped_acres_source":"poly_GISAcres","gis_acres":85.27981,"auto_acres":85.2782671041547,"reported_acres":85.3,"percent_contained":null,"state":"AK","state_wfigs":"US-AK","county":"Southeast Fairbanks","discovery_time_utc":"2023-08-05T03:17:21Z","perimeter_time_utc":"2023-11-02T19:23:15Z","perimeter_edit_time_utc":"2023-11-02T19:23:16Z","incident_modified_time_utc":"2023-08-16T00:14:43Z","containment_time_utc":"2023-10-02T02:00:00Z","control_time_utc":"2023-10-02T02:00:00Z","fire_out_time_utc":"2023-10-02T02:00:00Z","fire_cause":"Natural","fire_cause_general":"Natural","map_method":"Digitized-Image","source_dataset":"FFP","unique_fire_identifier":"2023-AKTAS-313341","irwin_id":"{36F83104-69FB-4112-B105-347ABEF24BCA}","global_id":"d9d2bbad-aebf-454a-8f24-c98706d86239"}},{"type":"Feature","geometry":{"type":"MultiPolygon","coordinates":[[[[-144.13181,63.76127],[-144.13089,63.7612],[-144.13059,63.76092],[-144.12989,63.76107],[-144.12866,63.76065],[-144.12719,63.76079],[-144.12637,63.76109],[-144.12552,63.76113],[-144.12416,63.76072],[-144.12423,63.76027],[-144.12408,63.75982],[-144.12428,63.75955],[-144.1243,63.75925],[-144.12413,63.75891],[-144.12366,63.75861],[-144.12245,63.7582],[-144.1224,63.75803],[-144.12128,63.75792],[-144.12129,63.75751],[-144.12159,63.75729],[-144.12144,63.757],[-144.12068,63.75688],[-144.12033,63.75636],[-144.12043,63.75566],[-144.11907,63.75482],[-144.11923,63.75478],[-144.11925,63.75452],[-144.1199,63.75405],[-144.11983,63.75381],[-144.11995,63.75365],[-144.12245,63.75333],[-144.12283,63.75278],[-144.1228,63.75255],[-144.12249,63.75251],[-144.12293,63.75218],[-144.12541,63.7521],[-144.1277,63.75158],[-144.12817,63.7516],[-144.1283,63.75144],[-144.12909,63.75156],[-144.1288,63.75175],[-144.12887,63.75181],[-144.1297,63.75175],[-144.13026,63.75228],[-144.13033,63.75373],[-144.13124,63.75399],[-144.13141,63.75444],[-144.13088,63.75515],[-144.12972,63.7556],[-144.12968,63.75577],[-144.12933,63.75596],[-144.12942,63.75611],[-144.13025,63.75634],[-144.1303,63.7565],[-144.13083,63.75684],[-144.13073,63.75709],[-144.13038,63.75713],[-144.12994,63.75755],[-144.13049,63.75748],[-144.13106,63.75762],[-144.13127,63.75777],[-144.13139,63.75808],[-144.13235,63.75856],[-144.13285,63.75912],[-144.13433,63.75926],[-144.1358,63.75977],[-144.13579,63.76023],[-144.13518,63.76044],[-144.13636,63.76081],[-144.13627,63.76166],[-144.13671,63.76192],[-144.1365,63.76222],[-144.13541,63.7625],[-144.13542,63.76276],[-144.1351,63.76282],[-144.13452,63.76255],[-144.13371,63.76243],[-144.1336,63.76214],[-144.13297,63.7619],[-144.13273,63.76163],[-144.13181,63.76127]]],[[[-144.11855,63.75742],[-144.11846,63.7572],[-144.11874,63.75727],[-144.11964,63.75682],[-144.12076,63.7571],[-144.11941,63.75735],[-144.11855,63.75742]]]]},"properties":{"fire_id":"ufid:2023-AKTAS-313261","source_collection":"history-2023","source_objectid":22496,"incident_name":"Sand Lake","mapped_acres":129.6942,"mapped_acres_source":"poly_GISAcres","gis_acres":129.6942,"auto_acres":129.69367498625795,"reported_acres":129.7,"percent_contained":null,"state":"AK","state_wfigs":"US-AK","county":"Southeast Fairbanks","discovery_time_utc":"2023-07-27T00:08:17Z","perimeter_time_utc":"2023-11-02T19:35:52Z","perimeter_edit_time_utc":"2023-11-02T19:35:53Z","incident_modified_time_utc":"2023-10-17T01:02:24Z","containment_time_utc":"2023-08-30T04:09:59Z","control_time_utc":"2023-08-30T04:10:04Z","fire_out_time_utc":"2023-10-02T02:00:14Z","fire_cause":"Natural","fire_cause_general":"Natural","map_method":"GPS-Walked","source_dataset":"FFP","unique_fire_identifier":"2023-AKTAS-313261","irwin_id":"{C7F5F28A-5AEF-45B5-80D8-DAED81E46E6A}","global_id":"688593f9-1a66-4d59-9d65-bc242237ea4b"}},{"type":"Feature","geometry":{"type":"Polygon","coordinates":[[[-144.86191,64.52507],[-144.85572,64.5244],[-144.85278,64.52285],[-144.85157,64.52255],[-144.8511,64.5234],[-144.85147,64.52419],[-144.85089,64.52498],[-144.84928,64.52513],[-144.84851,64.525],[-144.84645,64.524],[-144.84453,64.5236],[-144.8436,64.52284],[-144.84102,64.52165],[-144.84006,64.52106],[-144.83954,64.52055],[-144.8395,64.51991],[-144.84012,64.51907],[-144.84101,64.51867],[-144.84199,64.51852],[-144.84593,64.51864],[-144.84685,64.51835],[-144.84721,64.51781],[-144.84659,64.51717],[-144.84433,64.51704],[-144.84332,64.51672],[-144.84303,64.5164],[-144.84302,64.516],[-144.84387,64.51547],[-144.84504,64.51521],[-144.84646,64.51508],[-144.84899,64.51534],[-144.8505,64.51584],[-144.85111,64.51636],[-144.85123,64.51676],[-144.85121,64.51753],[-144.85178,64.51811],[-144.85518,64.51824],[-144.85592,64.51841],[-144.85678,64.51883],[-144.85839,64.52063],[-144.86094,64.52186],[-144.86303,64.52406],[-144.86314,64.52476],[-144.86296,64.52504],[-144.86191,64.52507]]]},"properties":{"fire_id":"ufid:2023-AKDAS-312252","source_collection":"history-2023","source_objectid":23981,"incident_name":"Glacier Creek","mapped_acres":168.4,"mapped_acres_source":"poly_GISAcres","gis_acres":168.4,"auto_acres":168.40988079781445,"reported_acres":168.4,"percent_contained":null,"state":"AK","state_wfigs":"US-AK","county":"Southeast Fairbanks","discovery_time_utc":"2023-07-26T17:12:04Z","perimeter_time_utc":"2024-02-13T01:17:30Z","perimeter_edit_time_utc":"2024-02-13T01:17:30Z","incident_modified_time_utc":"2023-12-13T16:10:55Z","containment_time_utc":"2023-10-25T20:06:05Z","control_time_utc":"2023-12-13T16:09:55Z","fire_out_time_utc":"2023-12-13T16:10:10Z","fire_cause":"Natural","fire_cause_general":"Natural","map_method":"GPS-Flight","source_dataset":"FFP","unique_fire_identifier":"2023-AKDAS-312252","irwin_id":"{9BBABF4A-3470-4EA0-8350-04BD60CC1153}","global_id":"9523b970-f1a4-45e1-90ef-65f13aa959e4"}}]}
