{"type":"FeatureCollection","features":[{"type":"Feature","geometry":{"type":"Polygon","coordinates":[[[-165.66187,61.52978],[-165.66124,61.52989],[-165.66014,61.52982],[-165.65663,61.52881],[-165.65564,61.52823],[-165.65571,61.52805],[-165.65622,61.52783],[-165.65729,61.52766],[-165.65776,61.52767],[-165.65728,61.52794],[-165.6589,61.52789],[-165.65905,61.52804],[-165.65933,61.52799],[-165.65938,61.52785],[-165.66106,61.5279],[-165.6613,61.52818],[-165.66127,61.52847],[-165.66199,61.52862],[-165.66264,61.52901],[-165.66153,61.52928],[-165.66187,61.52978]]]},"properties":{"fire_id":"ufid:2023-AKSWS-304096","source_collection":"history-2023","source_objectid":18180,"incident_name":"Chevak","mapped_acres":12.97702,"mapped_acres_source":"poly_GISAcres","gis_acres":12.97702,"auto_acres":12.976966526695756,"reported_acres":13.0,"percent_contained":null,"state":"AK","state_wfigs":"US-AK","county":"Kusilvak","discovery_time_utc":"2023-06-06T03:30:22Z","perimeter_time_utc":"2023-07-17T21:47:56Z","perimeter_edit_time_utc":"2023-07-17T21:47:56Z","incident_modified_time_utc":"2023-07-11T00:15:49Z","containment_time_utc":"2023-06-09T17:27:20Z","control_time_utc":"2023-06-09T17:27:26Z","fire_out_time_utc":"2023-07-05T18:17:16Z","fire_cause":"Human","fire_cause_general":"Recreation and ceremony","map_method":"Digitized-Image","source_dataset":"FFP","unique_fire_identifier":"2023-AKSWS-304096","irwin_id":"{7687F96D-7180-4763-AB3D-A03DA8B29D54}","global_id":"6737c8be-3603-42ff-925d-248fdb2793d5"}}]}
