{"type":"FeatureCollection","features":[{"type":"Feature","geometry":{"type":"Polygon","coordinates":[[[-151.7879,67.05653],[-151.79063,67.05547],[-151.79237,67.05449],[-151.79487,67.0544],[-151.79498,67.05431],[-151.79452,67.05419],[-151.79446,67.05405],[-151.79464,67.05394],[-151.7963,67.05399],[-151.79641,67.05366],[-151.79773,67.05316],[-151.79719,67.05266],[-151.79651,67.05068],[-151.79665,67.05025],[-151.79745,67.05036],[-151.79763,67.05023],[-151.79747,67.04994],[-151.79792,67.04958],[-151.79759,67.04926],[-151.79835,67.04906],[-151.798,67.04869],[-151.79722,67.04851],[-151.79743,67.04814],[-151.79922,67.04855],[-151.80033,67.04923],[-151.80271,67.04939],[-151.80309,67.04968],[-151.80532,67.04977],[-151.80623,67.05005],[-151.80688,67.04962],[-151.80896,67.04935],[-151.80938,67.04898],[-151.8105,67.0487],[-151.81163,67.04868],[-151.81366,67.04919],[-151.81396,67.04938],[-151.81419,67.04973],[-151.81463,67.04998],[-151.8144,67.0503],[-151.81521,67.05109],[-151.81543,67.05158],[-151.81567,67.05177],[-151.81189,67.05297],[-151.8109,67.05306],[-151.80921,67.05345],[-151.80733,67.05363],[-151.8061,67.05398],[-151.80569,67.05395],[-151.80545,67.05376],[-151.805,67.05378],[-151.80432,67.05426],[-151.80428,67.05465],[-151.80404,67.05507],[-151.8032,67.05525],[-151.80264,67.05565],[-151.79963,67.0563],[-151.79607,67.05616],[-151.7882,67.05716],[-151.78723,67.05706],[-151.78694,67.05671],[-151.78692,67.0564],[-151.78724,67.05629],[-151.78749,67.0565],[-151.78741,67.05662],[-151.7879,67.05653]]]},"properties":{"fire_id":"ufid:2023-AKTAD-000101","source_collection":"history-2023","source_objectid":17941,"incident_name":"John","mapped_acres":128.3544,"mapped_acres_source":"poly_GISAcres","gis_acres":128.3544,"auto_acres":128.35392309011232,"reported_acres":128.4,"percent_contained":null,"state":"AK","state_wfigs":"US-AK","county":"Yukon-Koyukuk","discovery_time_utc":"2023-06-08T00:30:00Z","perimeter_time_utc":"2023-09-14T00:40:21Z","perimeter_edit_time_utc":"2023-09-14T00:40:22Z","incident_modified_time_utc":"2023-06-26T23:42:10Z","containment_time_utc":"2023-06-10T19:38:00Z","control_time_utc":"2023-06-10T19:39:00Z","fire_out_time_utc":"2023-06-26T23:40:00Z","fire_cause":"Natural","fire_cause_general":"Natural","map_method":"Image Interpretation","source_dataset":"FFP","unique_fire_identifier":"2023-AKTAD-000101","irwin_id":"{14086581-A90C-4976-9EBE-1137CEB4DA60}","global_id":"7eaee509-200f-41c8-9664-fd5c46488221"}},{"type":"Feature","geometry":{"type":"Polygon","coordinates":[[[-150.87203,65.18635],[-150.87187,65.18656],[-150.8705,65.18646],[-150.87013,65.18625],[-150.87008,65.18598],[-150.87029,65.18579],[-150.87089,65.1858],[-150.87203,65.18635]]]},"properties":{"fire_id":"ufid:2023-AKTAD-000272","source_collection":"history-2023","source_objectid":20016,"incident_name":"Little Boulder","mapped_acres":1.267658,"mapped_acres_source":"poly_GISAcres","gis_acres":1.267658,"auto_acres":1.2676527651991587,"reported_acres":1.3,"percent_contained":null,"state":"AK","state_wfigs":"US-AK","county":"Yukon-Koyukuk","discovery_time_utc":"2023-07-27T19:51:00Z","perimeter_time_utc":"2023-08-22T17:28:07Z","perimeter_edit_time_utc":"2023-08-22T17:28:07Z","incident_modified_time_utc":"2023-08-19T20:13:31Z","containment_time_utc":"2023-08-14T02:00:00Z","control_time_utc":"2023-08-14T02:00:00Z","fire_out_time_utc":"2023-08-14T02:00:00Z","fire_cause":"Natural","fire_cause_general":"Natural","map_method":"Image Interpretation","source_dataset":"FFP","unique_fire_identifier":"2023-AKTAD-000272","irwin_id":"{1A6AE9B7-BE6B-4185-81EF-BC1BFFEAC591}","global_id":"38bbddb4-fac3-419c-8f69-ffbf91138a2e"}},{"type":"Feature","geometry":{"type":"Polygon","coordinates":[[[-150.92449,65.17159],[-150.92577,65.17195],[-150.92585,65.17223],[-150.92551,65.17238],[-150.92513,65.17233],[-150.92437,65.17202],[-150.92401,65.17166],[-150.92449,65.17159]]]},"properties":{"fire_id":"ufid:2023-AKTAD-000270","source_collection":"history-2023","source_objectid":20017,"incident_name":"Woodchopper","mapped_acres":1.07476,"mapped_acres_source":"poly_GISAcres","gis_acres":1.07476,"auto_acres":1.0747563157496187,"reported_acres":1.1,"percent_contained":null,"state":"AK","state_wfigs":"US-AK","county":"Yukon-Koyukuk","discovery_time_utc":"2023-07-27T19:39:00Z","perimeter_time_utc":"2023-08-22T17:27:24Z","perimeter_edit_time_utc":"2023-08-22T17:27:24Z","incident_modified_time_utc":"2023-08-19T20:13:17Z","containment_time_utc":"2023-08-14T02:00:00Z","control_time_utc":"2023-08-14T02:00:00Z","fire_out_time_utc":"2023-08-14T02:00:00Z","fire_cause":"Natural","fire_cause_general":"Natural","map_method":"Image Interpretation","source_dataset":"FFP","unique_fire_identifier":"2023-AKTAD-000270","irwin_id":"{3112ACEF-A652-4504-8E07-ADB8EAA44BCB}","global_id":"fe755da0-63c8-4025-befd-2bbaa9af8210"}},{"type":"Feature","geometry":{"type":"Polygon","coordinates":[[[-154.20327,65.18497],[-154.20501,65.18521],[-154.20505,65.18484],[-154.20543,65.18469],[-154.20561,65.18445],[-154.20681,65.18421],[-154.20706,65.184],[-154.20663,65.18392],[-154.20872,65.18382],[-154.20887,65.18374],[-154.20856,65.18361],[-154.20866,65.1835],[-154.20982,65.18331],[-154.21015,65.18331],[-154.21073,65.18358],[-154.20977,65.18386],[-154.20972,65.18403],[-154.21171,65.18385],[-154.21282,65.18407],[-154.21352,65.18446],[-154.21287,65.18502],[-154.21278,65.18525],[-154.21157,65.18559],[-154.21077,65.18612],[-154.21044,65.18619],[-154.20952,65.18695],[-154.20922,65.18703],[-154.20887,65.18685],[-154.20844,65.18705],[-154.20741,65.18686],[-154.20665,65.18687],[-154.20629,65.18712],[-154.20608,65.18754],[-154.20688,65.1876],[-154.20679,65.18789],[-154.20571,65.18808],[-154.20525,65.18782],[-154.20452,65.18779],[-154.20506,65.18718],[-154.20379,65.18733],[-154.20359,65.18762],[-154.20359,65.18815],[-154.20315,65.18894],[-154.2026,65.18943],[-154.20081,65.18975],[-154.19986,65.18948],[-154.1997,65.18928],[-154.19859,65.18871],[-154.19764,65.18899],[-154.19698,65.18865],[-154.19688,65.18843],[-154.19766,65.18772],[-154.19856,65.18723],[-154.19914,65.18714],[-154.19944,65.18689],[-154.19996,65.18688],[-154.20001,65.18654],[-154.20051,65.1862],[-154.20139,65.1862],[-154.20222,65.18596],[-154.20207,65.1858],[-154.20083,65.1855],[-154.20093,65.18521],[-154.20459,65.18348],[-154.20537,65.18359],[-154.20259,65.18498],[-154.20299,65.1851],[-154.20327,65.18497]]]},"properties":{"fire_id":"ufid:2023-AKTAD-000222","source_collection":"history-2023","source_objectid":21285,"incident_name":"Hot Springs","mapped_acres":58.49649,"mapped_acres_source":"poly_GISAcres","gis_acres":58.49649,"auto_acres":58.496222092388514,"reported_acres":58.5,"percent_contained":null,"state":"AK","state_wfigs":"US-AK","county":"Yukon-Koyukuk","discovery_time_utc":"2023-07-25T17:03:00Z","perimeter_time_utc":"2023-09-26T23:54:16Z","perimeter_edit_time_utc":"2023-09-26T23:54:16Z","incident_modified_time_utc":"2023-09-21T18:13:31Z","containment_time_utc":"2023-09-21T18:00:00Z","control_time_utc":"2023-09-21T18:00:00Z","fire_out_time_utc":"2023-09-21T18:00:00Z","fire_cause":"Natural","fire_cause_general":"Natural","map_method":"Image Interpretation","source_dataset":"FFP","unique_fire_identifier":"2023-AKTAD-000222","irwin_id":"{1ABBEA39-61CD-4BFB-A6AF-915509023DAA}","global_id":"40c99529-393c-40fa-9ea1-65ad804ef710"}},{"type":"Feature","geometry":{"type":"Polygon","coordinates":[[[-151.12778,65.14005],[-151.12894,65.13954],[-151.12948,65.13959],[-151.12854,65.14025],[-151.12775,65.14034],[-151.12768,65.14017],[-151.12778,65.14005]]]},"properties":{"fire_id":"ufid:2023-AKTAD-000195","source_collection":"history-2023","source_objectid":21286,"incident_name":"Boulder","mapped_acres":0.9114041,"mapped_acres_source":"poly_GISAcres","gis_acres":0.9114041,"auto_acres":0.9114005293506355,"reported_acres":0.9,"percent_contained":null,"state":"AK","state_wfigs":"US-AK","county":"Yukon-Koyukuk","discovery_time_utc":"2023-07-25T00:16:00Z","perimeter_time_utc":"2023-09-26T23:53:04Z","perimeter_edit_time_utc":"2023-09-26T23:53:04Z","incident_modified_time_utc":"2023-09-25T21:48:57Z","containment_time_utc":"2023-07-26T00:00:00Z","control_time_utc":"2023-07-26T01:45:00Z","fire_out_time_utc":"2023-09-22T19:20:00Z","fire_cause":"Natural","fire_cause_general":"Natural","map_method":"Image Interpretation","source_dataset":"FFP","unique_fire_identifier":"2023-AKTAD-000195","irwin_id":"{6008C33E-A977-43F2-80DF-6B1724909B38}","global_id":"41584453-ac16-4414-86ac-f7e4a59860d1"}},{"type":"Feature","geometry":{"type":"Polygon","coordinates":[[[-152.94036,66.3895],[-152.93954,66.38952],[-152.93818,66.3901],[-152.93777,66.39],[-152.93756,66.39021],[-152.93667,66.39038],[-152.93253,66.39064],[-152.92758,66.39135],[-152.92585,66.39048],[-152.92245,66.38983],[-152.92121,66.38982],[-152.91779,66.39025],[-152.91576,66.39018],[-152.91467,66.39029],[-152.91365,66.39],[-152.91367,66.38984],[-152.91322,66.38969],[-152.91237,66.38961],[-152.90846,66.38972],[-152.9077,66.38932],[-152.90679,66.38912],[-152.90652,66.38892],[-152.90439,66.38846],[-152.90472,66.38824],[-152.90523,66.38815],[-152.9058,66.38837],[-152.90692,66.38819],[-152.90752,66.38827],[-152.90718,66.38797],[-152.90749,66.38773],[-152.9075,66.38753],[-152.90792,66.38737],[-152.9092,66.38749],[-152.91004,66.38735],[-152.91033,66.38749],[-152.91002,66.38783],[-152.91011,66.3879],[-152.91072,66.38829],[-152.9117,66.38851],[-152.91114,66.388],[-152.91115,66.38779],[-152.91144,66.38762],[-152.91346,66.38776],[-152.91396,66.38737],[-152.91666,66.38711],[-152.91761,66.38685],[-152.91793,66.38614],[-152.91752,66.38521],[-152.91551,66.38513],[-152.91492,66.38553],[-152.91482,66.38587],[-152.91425,66.38587],[-152.91426,66.38547],[-152.91444,66.38516],[-152.91528,66.38468],[-152.91578,66.3846],[-152.91679,66.38484],[-152.91763,66.3845],[-152.91886,66.38448],[-152.91935,66.38461],[-152.92001,66.38438],[-152.92183,66.38418],[-152.92359,66.38432],[-152.92491,66.38418],[-152.92902,66.38411],[-152.92987,66.38427],[-152.93019,66.38445],[-152.92925,66.38446],[-152.92928,66.38468],[-152.92882,66.38497],[-152.92832,66.38508],[-152.92847,66.38532],[-152.9321,66.386],[-152.93288,66.38725],[-152.93588,66.3877],[-152.93694,66.3877],[-152.93764,66.38798],[-152.93814,66.38796],[-152.93964,66.38828],[-152.9402,66.38904],[-152.94011,66.38917],[-152.94036,66.3895]]]},"properties":{"fire_id":"ufid:2023-AKTAD-000219","source_collection":"history-2023","source_objectid":21324,"incident_name":"Klaluthyiit Bluff","mapped_acres":164.67,"mapped_acres_source":"poly_GISAcres","gis_acres":164.67,"auto_acres":164.67304352759132,"reported_acres":164.7,"percent_contained":null,"state":"AK","state_wfigs":"US-AK","county":"Yukon-Koyukuk","discovery_time_utc":"2023-07-25T16:12:00Z","perimeter_time_utc":"2023-10-06T20:19:50Z","perimeter_edit_time_utc":"2023-10-06T20:19:50Z","incident_modified_time_utc":"2023-09-26T22:18:58Z","containment_time_utc":"2023-09-22T19:20:00Z","control_time_utc":"2023-09-22T19:20:00Z","fire_out_time_utc":"2023-09-22T19:20:00Z","fire_cause":"Natural","fire_cause_general":"Natural","map_method":"Image Interpretation","source_dataset":"FFP","unique_fire_identifier":"2023-AKTAD-000219","irwin_id":"{E6D3035E-8253-446E-9BDB-486B510CE02F}","global_id":"47d01e70-ec06-47c8-afdc-a1e1a6d76b5b"}},{"type":"Feature","geometry":{"type":"Polygon","coordinates":[[[-150.91733,66.68367],[-150.91711,66.68329],[-150.91724,66.68304],[-150.91697,66.68285],[-150.91703,66.68213],[-150.9164,66.68145],[-150.91961,66.68077],[-150.9199,66.68086],[-150.92115,66.68078],[-150.923,66.68053],[-150.92296,66.68069],[-150.92262,66.68083],[-150.92255,66.68104],[-150.92271,66.682],[-150.92241,66.68249],[-150.92308,66.68295],[-150.92148,66.68377],[-150.92171,66.68389],[-150.92282,66.68373],[-150.92321,66.68354],[-150.92473,66.68363],[-150.92599,66.68346],[-150.92819,66.68423],[-150.92923,66.68464],[-150.92924,66.68483],[-150.92879,66.6853],[-150.92886,66.68552],[-150.92945,66.68571],[-150.92983,66.68561],[-150.92973,66.68521],[-150.92997,66.68504],[-150.93051,66.68514],[-150.93082,66.68543],[-150.93083,66.68592],[-150.93097,66.68591],[-150.93115,66.68738],[-150.9323,66.6878],[-150.93296,66.68742],[-150.93303,66.68722],[-150.93296,66.68708],[-150.93218,66.68671],[-150.93222,66.6865],[-150.93257,66.68625],[-150.93222,66.68558],[-150.9335,66.68599],[-150.93399,66.68576],[-150.9348,66.68605],[-150.93641,66.68687],[-150.93638,66.68712],[-150.93679,66.68744],[-150.93664,66.68778],[-150.93689,66.68812],[-150.93784,66.68842],[-150.93774,66.68874],[-150.93783,66.689],[-150.93764,66.68931],[-150.93778,66.6898],[-150.93735,66.68992],[-150.93614,66.68953],[-150.93569,66.68956],[-150.93554,66.69046],[-150.93513,66.69062],[-150.93489,66.69052],[-150.93471,66.68977],[-150.93338,66.68959],[-150.93312,66.68969],[-150.93276,66.68943],[-150.93159,66.68931],[-150.93148,66.68921],[-150.93165,66.68897],[-150.93089,66.68801],[-150.93023,66.68805],[-150.93041,66.6883],[-150.93035,66.6886],[-150.93089,66.68874],[-150.93113,66.68926],[-150.93117,66.68978],[-150.93073,66.69023],[-150.92981,66.6902],[-150.92979,66.68994],[-150.9289,66.69023],[-150.92778,66.69007],[-150.92764,66.69001],[-150.92767,66.68988],[-150.92795,66.68968],[-150.92784,66.68957],[-150.92751,66.68965],[-150.927,66.68945],[-150.92675,66.68904],[-150.9267,66.68848],[-150.92643,66.68822],[-150.92566,66.68825],[-150.92527,66.68787],[-150.92381,66.68755],[-150.9236,66.68768],[-150.92436,66.6881],[-150.92446,66.6883],[-150.92415,66.68838],[-150.92358,66.68828],[-150.92321,66.6881],[-150.92325,66.68796],[-150.92285,66.68749],[-150.92171,66.68683],[-150.92157,66.68653],[-150.92207,66.68641],[-150.92212,66.68619],[-150.92197,66.68587],[-150.92286,66.68551],[-150.92313,66.68483],[-150.92286,66.68463],[-150.92221,66.68459],[-150.92157,66.68492],[-150.92123,66.68546],[-150.92089,66.68573],[-150.91912,66.6865],[-150.92013,66.68651],[-150.91996,66.68701],[-150.91906,66.68719],[-150.91876,66.68774],[-150.91826,66.68787],[-150.91785,66.68819],[-150.91634,66.68843],[-150.91617,66.68903],[-150.91643,66.68937],[-150.91645,66.68961],[-150.91632,66.68985],[-150.91596,66.68985],[-150.91567,66.6896],[-150.91578,66.68866],[-150.9153,66.6884],[-150.91525,66.68816],[-150.91481,66.68779],[-150.91533,66.68689],[-150.91488,66.68614],[-150.9152,66.68545],[-150.91509,66.6852],[-150.91473,66.68517],[-150.91431,66.6854],[-150.91289,66.68511],[-150.91238,66.68527],[-150.91213,66.68514],[-150.91166,66.68518],[-150.91109,66.68548],[-150.91082,66.68529],[-150.90896,66.68474],[-150.90906,66.68413],[-150.90904,66.68379],[-150.90892,66.6837],[-150.90897,66.68344],[-150.90971,66.68292],[-150.90939,66.68252],[-150.90975,66.68221],[-150.91024,66.68216],[-150.91055,66.68236],[-150.91104,66.68235],[-150.91173,66.68254],[-150.91161,66.68272],[-150.91169,66.68307],[-150.91214,66.68315],[-150.91304,66.68288],[-150.91308,66.6827],[-150.91331,66.68257],[-150.91276,66.68234],[-150.91275,66.68213],[-150.91367,66.68192],[-150.91374,66.68162],[-150.91437,66.6816],[-150.91457,66.68275],[-150.9149,66.68304],[-150.91473,66.68329],[-150.91579,66.68363],[-150.91689,66.68376],[-150.91733,66.68367]]]},"properties":{"fire_id":"ufid:2023-AKTAD-000357","source_collection":"history-2023","source_objectid":21564,"incident_name":"Bonanza","mapped_acres":143.5,"mapped_acres_source":"poly_GISAcres","gis_acres":143.5,"auto_acres":143.49493538200755,"reported_acres":143.5,"percent_contained":null,"state":"AK","state_wfigs":"US-AK","county":"Yukon-Koyukuk","discovery_time_utc":"2023-08-12T23:11:00Z","perimeter_time_utc":"2023-10-06T16:39:06Z","perimeter_edit_time_utc":"2023-10-06T16:39:06Z","incident_modified_time_utc":"2023-09-21T18:07:49Z","containment_time_utc":"2023-09-21T18:00:00Z","control_time_utc":"2023-09-21T18:00:00Z","fire_out_time_utc":"2023-09-21T18:00:00Z","fire_cause":"Natural","fire_cause_general":"Natural","map_method":"Image Interpretation","source_dataset":"FFP","unique_fire_identifier":"2023-AKTAD-000357","irwin_id":"{904D6BF9-C661-47FF-BF7D-EA92E54FC66B}","global_id":"baa62721-2ab1-4b35-9962-34eacd0970e9"}},{"type":"Feature","geometry":{"type":"Polygon","coordinates":[[[-151.37412,65.77839],[-151.37699,65.77842],[-151.37732,65.7785],[-151.37764,65.77877],[-151.37755,65.77896],[-151.37654,65.77936],[-151.37306,65.77992],[-151.37059,65.77991],[-151.36955,65.77965],[-151.36943,65.77947],[-151.36946,65.7793],[-151.3697,65.77914],[-151.37013,65.77905],[-151.37141,65.77903],[-151.37334,65.7787],[-151.37412,65.77839]]]},"properties":{"fire_id":"ufid:2023-AKTAD-000190","source_collection":"history-2023","source_objectid":21566,"incident_name":"Kilolitna","mapped_acres":10.5687,"mapped_acres_source":"poly_GISAcres","gis_acres":10.5687,"auto_acres":10.568662606622059,"reported_acres":10.6,"percent_contained":null,"state":"AK","state_wfigs":"US-AK","county":"Yukon-Koyukuk","discovery_time_utc":"2023-07-24T23:05:00Z","perimeter_time_utc":"2023-10-06T16:51:59Z","perimeter_edit_time_utc":"2023-10-06T16:52:00Z","incident_modified_time_utc":"2023-09-19T20:23:29Z","containment_time_utc":"2023-09-18T21:18:00Z","control_time_utc":"2023-09-18T21:18:00Z","fire_out_time_utc":"2023-09-18T21:18:00Z","fire_cause":"Natural","fire_cause_general":"Natural","map_method":"Image Interpretation","source_dataset":"FFP","unique_fire_identifier":"2023-AKTAD-000190","irwin_id":"{589C875A-7DC5-4645-B49C-5FB0C8586881}","global_id":"992b39aa-779c-4d62-81cb-cc6b9ff711dd"}},{"type":"Feature","geometry":{"type":"Polygon","coordinates":[[[-151.84343,65.89651],[-151.84536,65.89684],[-151.84552,65.89727],[-151.84515,65.89755],[-151.84374,65.89754],[-151.8425,65.89715],[-151.84275,65.89687],[-151.84343,65.89651]]]},"properties":{"fire_id":"ufid:2023-AKTAD-000260","source_collection":"history-2023","source_objectid":21567,"incident_name":"Ishtalitna","mapped_acres":2.9,"mapped_acres_source":"poly_GISAcres","gis_acres":2.9,"auto_acres":2.9417606197448687,"reported_acres":2.9,"percent_contained":null,"state":"AK","state_wfigs":"US-AK","county":"Yukon-Koyukuk","discovery_time_utc":"2023-07-26T23:59:00Z","perimeter_time_utc":"2023-10-06T16:43:17Z","perimeter_edit_time_utc":"2023-10-06T16:43:17Z","incident_modified_time_utc":"2023-09-21T18:10:38Z","containment_time_utc":"2023-09-21T18:00:00Z","control_time_utc":"2023-09-21T18:00:00Z","fire_out_time_utc":"2023-09-21T18:00:00Z","fire_cause":"Natural","fire_cause_general":"Natural","map_method":"Image Interpretation","source_dataset":"FFP","unique_fire_identifier":"2023-AKTAD-000260","irwin_id":"{D2C771C2-028D-4DAE-A536-ADDF2993A896}","global_id":"cec11692-44f6-4ff2-98dd-3deb29219324"}},{"type":"Feature","geometry":{"type":"Polygon","coordinates":[[[-153.02072,66.28881],[-153.03222,66.28865],[-153.03301,66.28844],[-153.03387,66.28843],[-153.03498,66.2882],[-153.03644,66.28852],[-153.03763,66.2885],[-153.03824,66.28865],[-153.03749,66.28911],[-153.03735,66.28957],[-153.03807,66.28979],[-153.03885,66.28973],[-153.03907,66.28955],[-153.03887,66.28937],[-153.04009,66.28939],[-153.04076,66.28913],[-153.0418,66.28849],[-153.04199,66.28778],[-153.04368,66.28747],[-153.04413,66.28761],[-153.04305,66.2878],[-153.04343,66.28866],[-153.04321,66.28924],[-153.04266,66.2896],[-153.04063,66.29044],[-153.0405,66.2906],[-153.03875,66.29034],[-153.0374,66.2904],[-153.03606,66.29006],[-153.03601,66.29023],[-153.03585,66.29027],[-153.03462,66.29018],[-153.03458,66.29038],[-153.034,66.29056],[-153.03396,66.29071],[-153.03398,66.29096],[-153.03492,66.29118],[-153.03473,66.29178],[-153.03312,66.29213],[-153.03092,66.29207],[-153.02876,66.29184],[-153.02854,66.29207],[-153.0269,66.29226],[-153.02688,66.29271],[-153.02647,66.29274],[-153.02566,66.2927],[-153.02506,66.29233],[-153.02364,66.29179],[-153.02377,66.29156],[-153.02407,66.29141],[-153.0251,66.29114],[-153.02735,66.29099],[-153.02997,66.29115],[-153.03071,66.29104],[-153.03086,66.29082],[-153.03047,66.29061],[-153.02794,66.2904],[-153.02603,66.28996],[-153.02293,66.28957],[-153.02046,66.28899],[-153.02072,66.28881]]]},"properties":{"fire_id":"ufid:2023-AKTAD-000236","source_collection":"history-2023","source_objectid":21569,"incident_name":"Mentanontly","mapped_acres":57.13565,"mapped_acres_source":"poly_GISAcres","gis_acres":57.13565,"auto_acres":57.1354027694539,"reported_acres":57.0,"percent_contained":null,"state":"AK","state_wfigs":"US-AK","county":"Yukon-Koyukuk","discovery_time_utc":"2023-07-25T23:16:00Z","perimeter_time_utc":"2023-10-06T16:44:53Z","perimeter_edit_time_utc":"2023-10-06T16:44:53Z","incident_modified_time_utc":"2023-09-21T18:09:30Z","containment_time_utc":"2023-09-21T18:00:00Z","control_time_utc":"2023-09-21T18:00:00Z","fire_out_time_utc":"2023-09-21T18:00:00Z","fire_cause":"Natural","fire_cause_general":"Natural","map_method":"Image Interpretation","source_dataset":"FFP","unique_fire_identifier":"2023-AKTAD-000236","irwin_id":"{A2828A0E-C51F-4AFC-AC74-27681E3AAF8F}","global_id":"8e282158-4197-47ff-9e3f-c5c62069e8de"}},{"type":"Feature","geometry":{"type":"Polygon","coordinates":[[[-151.92164,65.874],[-151.92353,65.87325],[-151.92576,65.8719],[-151.92658,65.87175],[-151.92556,65.8712],[-151.92477,65.87153],[-151.9234,65.87155],[-151.92335,65.87197],[-151.92118,65.87236],[-151.92111,65.87219],[-151.92153,65.872],[-151.92199,65.87156],[-151.92081,65.87162],[-151.92153,65.8709],[-151.92068,65.87087],[-151.92156,65.87039],[-151.9218,65.87011],[-151.92408,65.86939],[-151.92506,65.86932],[-151.92572,65.86845],[-151.92553,65.86824],[-151.92699,65.8675],[-151.92706,65.86712],[-151.92687,65.86684],[-151.92649,65.86673],[-151.92801,65.86587],[-151.92984,65.86595],[-151.93166,65.86662],[-151.93146,65.86586],[-151.9317,65.86563],[-151.93321,65.86544],[-151.9348,65.86568],[-151.93691,65.86653],[-151.9379,65.8664],[-151.93746,65.86715],[-151.93654,65.86747],[-151.93599,65.86795],[-151.93576,65.86879],[-151.93639,65.86999],[-151.9372,65.87005],[-151.9377,65.87033],[-151.9379,65.8713],[-151.93781,65.87153],[-151.93812,65.87188],[-151.93834,65.87241],[-151.93835,65.87336],[-151.93879,65.87382],[-151.9393,65.87377],[-151.93939,65.87428],[-151.93972,65.87451],[-151.93964,65.87493],[-151.93924,65.87517],[-151.93796,65.87544],[-151.93865,65.87563],[-151.93918,65.87594],[-151.93948,65.87627],[-151.93941,65.87684],[-151.93844,65.87674],[-151.93758,65.87624],[-151.93666,65.8754],[-151.93629,65.87531],[-151.93631,65.87555],[-151.93563,65.8756],[-151.93553,65.87581],[-151.93527,65.87582],[-151.93381,65.87531],[-151.93338,65.87541],[-151.93327,65.87569],[-151.93504,65.87662],[-151.935,65.87711],[-151.93532,65.87745],[-151.93464,65.87798],[-151.92972,65.87866],[-151.92892,65.87856],[-151.93134,65.87708],[-151.93111,65.87673],[-151.93105,65.87629],[-151.93078,65.87596],[-151.92954,65.87604],[-151.92912,65.87543],[-151.9293,65.87525],[-151.92898,65.87492],[-151.92922,65.87451],[-151.92872,65.87435],[-151.92727,65.87444],[-151.9273,65.87469],[-151.92597,65.87477],[-151.92535,65.87499],[-151.9256,65.87517],[-151.92632,65.87518],[-151.92656,65.87536],[-151.92625,65.87553],[-151.92515,65.87548],[-151.92598,65.87574],[-151.9234,65.87659],[-151.92403,65.87672],[-151.92395,65.87723],[-151.9242,65.87762],[-151.92366,65.87766],[-151.92233,65.87809],[-151.91917,65.87835],[-151.91803,65.87819],[-151.91697,65.87763],[-151.91578,65.87661],[-151.91591,65.87621],[-151.91649,65.87561],[-151.91781,65.8752],[-151.92011,65.87496],[-151.92003,65.87483],[-151.91911,65.87472],[-151.91925,65.87454],[-151.91917,65.87433],[-151.92024,65.87405],[-151.92164,65.874]]]},"properties":{"fire_id":"ufid:2023-AKTAD-000235","source_collection":"history-2023","source_objectid":21570,"incident_name":"Holonada","mapped_acres":300.0,"mapped_acres_source":"poly_GISAcres","gis_acres":300.0,"auto_acres":209.9941696287024,"reported_acres":210.0,"percent_contained":null,"state":"AK","state_wfigs":"US-AK","county":"Yukon-Koyukuk","discovery_time_utc":"2023-07-25T23:03:00Z","perimeter_time_utc":"2023-10-06T16:45:31Z","perimeter_edit_time_utc":"2023-10-06T16:45:32Z","incident_modified_time_utc":"2023-09-21T18:11:45Z","containment_time_utc":"2023-09-21T18:00:00Z","control_time_utc":"2023-09-21T18:00:00Z","fire_out_time_utc":"2023-09-21T18:00:00Z","fire_cause":"Natural","fire_cause_general":"Natural","map_method":"Image Interpretation","source_dataset":"FFP","unique_fire_identifier":"2023-AKTAD-000235","irwin_id":"{F4831F1D-F9B7-4A9B-85FD-7E4320AEDF33}","global_id":"cdfaa5a0-dd43-4f71-87b4-3e53f23a31a9"}},{"type":"Feature","geometry":{"type":"Polygon","coordinates":[[[-151.30743,65.77991],[-151.30736,65.78029],[-151.30671,65.78048],[-151.30613,65.78047],[-151.3059,65.78031],[-151.30621,65.77991],[-151.30687,65.77974],[-151.30722,65.77975],[-151.30743,65.77991]]]},"properties":{"fire_id":"ufid:2023-AKTAD-000213","source_collection":"history-2023","source_objectid":21572,"incident_name":"Allard","mapped_acres":1.097391,"mapped_acres_source":"poly_GISAcres","gis_acres":1.097391,"auto_acres":1.0973864343502637,"reported_acres":1.1,"percent_contained":null,"state":"AK","state_wfigs":"US-AK","county":"Yukon-Koyukuk","discovery_time_utc":"2023-07-25T03:58:00Z","perimeter_time_utc":"2023-10-06T16:48:41Z","perimeter_edit_time_utc":"2023-10-06T16:48:42Z","incident_modified_time_utc":"2023-09-19T20:42:52Z","containment_time_utc":"2023-09-18T21:18:00Z","control_time_utc":"2023-09-18T21:18:00Z","fire_out_time_utc":"2023-09-18T21:18:00Z","fire_cause":"Natural","fire_cause_general":"Natural","map_method":"Image Interpretation","source_dataset":"FFP","unique_fire_identifier":"2023-AKTAD-000213","irwin_id":"{76A2AA8C-AB93-43AE-9F11-7D819EA68C87}","global_id":"2078703b-784c-4a81-badf-a8ea66afbb11"}},{"type":"Feature","geometry":{"type":"Polygon","coordinates":[[[-151.34083,65.80799],[-151.34125,65.80788],[-151.34175,65.80807],[-151.34149,65.80823],[-151.34111,65.80824],[-151.34079,65.80812],[-151.34083,65.80799]]]},"properties":{"fire_id":"ufid:2023-AKTAD-000209","source_collection":"history-2023","source_objectid":21573,"incident_name":"Spooky","mapped_acres":0.3324362,"mapped_acres_source":"poly_GISAcres","gis_acres":0.3324362,"auto_acres":0.33243480147042265,"reported_acres":0.3,"percent_contained":null,"state":"AK","state_wfigs":"US-AK","county":"Yukon-Koyukuk","discovery_time_utc":"2023-07-25T03:12:00Z","perimeter_time_utc":"2023-10-06T16:49:29Z","perimeter_edit_time_utc":"2023-10-06T16:49:29Z","incident_modified_time_utc":"2023-09-26T16:46:28Z","containment_time_utc":"2023-09-18T21:18:00Z","control_time_utc":"2023-09-18T21:18:00Z","fire_out_time_utc":"2023-09-18T21:18:00Z","fire_cause":"Natural","fire_cause_general":"Natural","map_method":"Image Interpretation","source_dataset":"FFP","unique_fire_identifier":"2023-AKTAD-000209","irwin_id":"{DC7CA2FC-A025-4EC7-8784-9A51BA92AF97}","global_id":"422cb894-3875-414d-ab88-bcf4095420b5"}},{"type":"Feature","geometry":{"type":"Polygon","coordinates":[[[-152.46011,65.64817],[-152.46104,65.6479],[-152.4613,65.64791],[-152.46129,65.64813],[-152.46195,65.64804],[-152.46207,65.64791],[-152.46167,65.64771],[-152.46242,65.64757],[-152.4617,65.64713],[-152.46137,65.64664],[-152.46067,65.64633],[-152.46136,65.64592],[-152.45985,65.64594],[-152.45873,65.64617],[-152.45698,65.64567],[-152.45624,65.64503],[-152.45676,65.64498],[-152.45708,65.6448],[-152.45766,65.64479],[-152.46024,65.64542],[-152.46106,65.64541],[-152.46142,65.64529],[-152.46085,65.64494],[-152.46122,65.64471],[-152.46256,65.64459],[-152.46292,65.64469],[-152.46334,65.64461],[-152.46373,65.64424],[-152.46219,65.6438],[-152.46487,65.64397],[-152.46488,65.6438],[-152.46455,65.64367],[-152.46581,65.64321],[-152.46605,65.64248],[-152.46653,65.64272],[-152.46658,65.64308],[-152.46709,65.64317],[-152.46758,65.6436],[-152.46897,65.64387],[-152.46919,65.64405],[-152.46927,65.64431],[-152.46892,65.64439],[-152.46823,65.64494],[-152.46922,65.64489],[-152.47047,65.64437],[-152.47136,65.64443],[-152.47266,65.64486],[-152.47489,65.64533],[-152.47579,65.6458],[-152.4766,65.64581],[-152.47796,65.64614],[-152.47848,65.64638],[-152.47868,65.64661],[-152.47867,65.64675],[-152.47766,65.64691],[-152.47686,65.64727],[-152.47723,65.64753],[-152.47635,65.64773],[-152.47648,65.64799],[-152.4763,65.64828],[-152.47638,65.64862],[-152.47598,65.64872],[-152.47565,65.64823],[-152.47569,65.64741],[-152.47506,65.64724],[-152.47499,65.6474],[-152.47478,65.64745],[-152.47386,65.64745],[-152.47362,65.6472],[-152.47321,65.64707],[-152.47335,65.64681],[-152.47304,65.64662],[-152.47324,65.64645],[-152.47448,65.64622],[-152.4749,65.64599],[-152.47454,65.64591],[-152.4746,65.64568],[-152.47402,65.64534],[-152.47308,65.64517],[-152.47193,65.64566],[-152.47162,65.64592],[-152.47141,65.64644],[-152.4716,65.64665],[-152.47205,65.64683],[-152.4722,65.6474],[-152.47317,65.64787],[-152.47329,65.64837],[-152.47319,65.64847],[-152.47268,65.64829],[-152.47129,65.64811],[-152.471,65.64832],[-152.47065,65.64903],[-152.46936,65.64876],[-152.4692,65.64844],[-152.46885,65.64834],[-152.46748,65.64891],[-152.467,65.64897],[-152.46687,65.64892],[-152.46692,65.6485],[-152.46675,65.64837],[-152.46591,65.6483],[-152.46592,65.64856],[-152.46579,65.6487],[-152.46442,65.6489],[-152.46394,65.64911],[-152.46379,65.64955],[-152.46467,65.65036],[-152.466,65.64976],[-152.4663,65.64948],[-152.46711,65.64972],[-152.4676,65.64963],[-152.46764,65.64941],[-152.46809,65.64944],[-152.46952,65.65004],[-152.47109,65.64988],[-152.47182,65.65001],[-152.47178,65.65027],[-152.47309,65.65029],[-152.47345,65.65054],[-152.47245,65.65102],[-152.47158,65.6512],[-152.4713,65.65152],[-152.47142,65.65185],[-152.47071,65.65246],[-152.46945,65.65312],[-152.469,65.65381],[-152.46955,65.65403],[-152.46974,65.65433],[-152.46928,65.65529],[-152.46833,65.65603],[-152.46769,65.65623],[-152.46676,65.65602],[-152.46542,65.65601],[-152.46498,65.65628],[-152.46486,65.65678],[-152.46252,65.6567],[-152.4623,65.65687],[-152.46116,65.65688],[-152.46056,65.6568],[-152.46042,65.65657],[-152.46062,65.65616],[-152.46005,65.65566],[-152.46014,65.65522],[-152.46095,65.6547],[-152.46113,65.65421],[-152.4615,65.65409],[-152.46161,65.65368],[-152.46234,65.65298],[-152.4627,65.65224],[-152.46244,65.65202],[-152.46228,65.65134],[-152.46293,65.65116],[-152.46316,65.6504],[-152.46131,65.65002],[-152.4615,65.64976],[-152.46076,65.6493],[-152.46,65.64923],[-152.45986,65.64939],[-152.45927,65.64946],[-152.45866,65.64927],[-152.4582,65.64872],[-152.45938,65.64806],[-152.46011,65.64817]]]},"properties":{"fire_id":"ufid:2023-AKTAD-000232","source_collection":"history-2023","source_objectid":21575,"incident_name":"Dagislakhna","mapped_acres":159.9905,"mapped_acres_source":"poly_GISAcres","gis_acres":159.9905,"auto_acres":159.98985071501463,"reported_acres":159.99,"percent_contained":null,"state":"AK","state_wfigs":"US-AK","county":"Yukon-Koyukuk","discovery_time_utc":"2023-07-25T22:52:00Z","perimeter_time_utc":"2023-10-06T16:46:27Z","perimeter_edit_time_utc":"2023-10-06T16:46:28Z","incident_modified_time_utc":"2023-09-21T18:12:30Z","containment_time_utc":"2023-09-21T18:00:00Z","control_time_utc":"2023-09-21T18:00:00Z","fire_out_time_utc":"2023-09-21T18:00:00Z","fire_cause":"Natural","fire_cause_general":"Natural","map_method":"Image Interpretation","source_dataset":"FFP","unique_fire_identifier":"2023-AKTAD-000232","irwin_id":"{31371B58-29D0-4185-A784-54323B02A29F}","global_id":"5016cdb8-1815-49dd-9f5a-5b9cc02a0828"}},{"type":"Feature","geometry":{"type":"Polygon","coordinates":[[[-151.91558,65.45685],[-151.91424,65.45689],[-151.91297,65.45669],[-151.91227,65.45649],[-151.91206,65.45621],[-151.91469,65.45572],[-151.91631,65.45565],[-151.91766,65.45596],[-151.91803,65.45633],[-151.91778,65.45654],[-151.91558,65.45685]]]},"properties":{"fire_id":"ufid:2023-AKTAD-000198","source_collection":"history-2023","source_objectid":21577,"incident_name":"Ptarmigan","mapped_acres":6.529976,"mapped_acres_source":"poly_GISAcres","gis_acres":6.529976,"auto_acres":6.529948879611314,"reported_acres":6.5,"percent_contained":null,"state":"AK","state_wfigs":"US-AK","county":"Yukon-Koyukuk","discovery_time_utc":"2023-07-25T00:48:00Z","perimeter_time_utc":"2023-10-06T16:50:21Z","perimeter_edit_time_utc":"2023-10-06T16:50:22Z","incident_modified_time_utc":"2023-09-22T19:33:49Z","containment_time_utc":"2023-09-22T19:20:00Z","control_time_utc":"2023-09-22T19:20:00Z","fire_out_time_utc":"2023-09-22T19:20:00Z","fire_cause":"Natural","fire_cause_general":"Natural","map_method":"Image Interpretation","source_dataset":"FFP","unique_fire_identifier":"2023-AKTAD-000198","irwin_id":"{453194DD-EE82-4404-83B2-524060C2E476}","global_id":"58f28557-37ff-4636-be15-7dbdf596b922"}},{"type":"Feature","geometry":{"type":"Polygon","coordinates":[[[-151.39966,65.80006],[-151.39934,65.79962],[-151.39949,65.79937],[-151.40037,65.79911],[-151.40049,65.79874],[-151.39988,65.7984],[-151.39981,65.79824],[-151.40043,65.7976],[-151.40175,65.79666],[-151.40255,65.79629],[-151.40323,65.79633],[-151.40432,65.79598],[-151.40509,65.79601],[-151.40752,65.79639],[-151.40908,65.79692],[-151.40906,65.79711],[-151.40883,65.79732],[-151.41019,65.79776],[-151.41018,65.79795],[-151.40852,65.79841],[-151.4093,65.79864],[-151.41159,65.79878],[-151.41419,65.79872],[-151.41502,65.79889],[-151.41612,65.79943],[-151.41744,65.7998],[-151.41742,65.80006],[-151.41715,65.80025],[-151.41428,65.80087],[-151.41433,65.80105],[-151.41514,65.80118],[-151.41717,65.80094],[-151.41738,65.80096],[-151.41748,65.80117],[-151.4172,65.80144],[-151.41882,65.8014],[-151.41855,65.80159],[-151.41718,65.80174],[-151.41543,65.80217],[-151.41347,65.80222],[-151.41293,65.80255],[-151.4138,65.80275],[-151.4147,65.80277],[-151.41468,65.80298],[-151.41445,65.80313],[-151.41551,65.80315],[-151.41724,65.80281],[-151.41818,65.80284],[-151.41311,65.80381],[-151.41253,65.80403],[-151.41254,65.8044],[-151.40965,65.80481],[-151.40837,65.80447],[-151.40764,65.80404],[-151.40594,65.80405],[-151.4039,65.80496],[-151.40221,65.80523],[-151.40159,65.80504],[-151.40173,65.80491],[-151.40161,65.80445],[-151.40138,65.80417],[-151.40065,65.80372],[-151.4002,65.80273],[-151.40077,65.80255],[-151.39991,65.80216],[-151.3996,65.80181],[-151.3995,65.80151],[-151.40007,65.80112],[-151.39975,65.80082],[-151.39958,65.80044],[-151.39966,65.80006]]]},"properties":{"fire_id":"ufid:2023-AKTAD-000207","source_collection":"history-2023","source_objectid":21583,"incident_name":"Torment","mapped_acres":138.0999,"mapped_acres_source":"poly_GISAcres","gis_acres":138.0999,"auto_acres":138.09766892468986,"reported_acres":138.1,"percent_contained":null,"state":"AK","state_wfigs":"US-AK","county":"Yukon-Koyukuk","discovery_time_utc":"2023-07-25T02:29:00Z","perimeter_time_utc":"2023-10-06T16:49:59Z","perimeter_edit_time_utc":"2023-10-06T16:49:59Z","incident_modified_time_utc":"2023-09-20T20:04:08Z","containment_time_utc":"2023-09-18T21:18:00Z","control_time_utc":"2023-09-18T21:18:00Z","fire_out_time_utc":"2023-09-18T21:18:00Z","fire_cause":"Natural","fire_cause_general":"Natural","map_method":"Image Interpretation","source_dataset":"FFP","unique_fire_identifier":"2023-AKTAD-000207","irwin_id":"{6476C3F4-DA0E-4CF8-9E01-5BC54C656E6D}","global_id":"a74a493a-7af9-468b-afa7-f123decbab90"}},{"type":"Feature","geometry":{"type":"Polygon","coordinates":[[[-151.29724,65.78163],[-151.29749,65.78185],[-151.29706,65.78216],[-151.29643,65.78228],[-151.296,65.78209],[-151.29614,65.7819],[-151.29724,65.78163]]]},"properties":{"fire_id":"ufid:2023-AKTAD-000210","source_collection":"history-2023","source_objectid":21585,"incident_name":"Kanuti","mapped_acres":0.8055902,"mapped_acres_source":"poly_GISAcres","gis_acres":0.8055902,"auto_acres":0.805586811256783,"reported_acres":0.8,"percent_contained":null,"state":"AK","state_wfigs":"US-AK","county":"Yukon-Koyukuk","discovery_time_utc":"2023-07-25T03:45:00Z","perimeter_time_utc":"2023-10-06T16:49:07Z","perimeter_edit_time_utc":"2023-10-06T16:49:08Z","incident_modified_time_utc":"2023-09-25T23:24:52Z","containment_time_utc":"2023-09-18T21:18:00Z","control_time_utc":"2023-09-18T21:18:00Z","fire_out_time_utc":"2023-09-18T21:18:00Z","fire_cause":"Natural","fire_cause_general":"Natural","map_method":"Image Interpretation","source_dataset":"FFP","unique_fire_identifier":"2023-AKTAD-000210","irwin_id":"{B689CFFA-9CA0-476F-9567-1EA2FCFD651D}","global_id":"388e33af-c4d8-493c-9f3c-6d27b82a09c7"}},{"type":"Feature","geometry":{"type":"Polygon","coordinates":[[[-150.3287,65.56714],[-150.32863,65.56745],[-150.3274,65.56777],[-150.327,65.56759],[-150.32722,65.56739],[-150.32684,65.56712],[-150.32755,65.56665],[-150.32834,65.56662],[-150.32946,65.56696],[-150.3287,65.56714]]]},"properties":{"fire_id":"ufid:2023-AKTAD-000256","source_collection":"history-2023","source_objectid":21661,"incident_name":"Susie","mapped_acres":2.23,"mapped_acres_source":"poly_GISAcres","gis_acres":2.23,"auto_acres":2.230722009408806,"reported_acres":2.23,"percent_contained":null,"state":"AK","state_wfigs":"US-AK","county":"Yukon-Koyukuk","discovery_time_utc":"2023-07-26T19:19:00Z","perimeter_time_utc":"2023-10-11T18:08:42Z","perimeter_edit_time_utc":"2023-10-11T18:08:42Z","incident_modified_time_utc":"2023-10-05T18:18:50Z","containment_time_utc":"2023-10-05T17:43:00Z","control_time_utc":"2023-10-05T17:43:00Z","fire_out_time_utc":"2023-10-05T17:43:00Z","fire_cause":"Natural","fire_cause_general":"Natural","map_method":"Image Interpretation","source_dataset":"FFP","unique_fire_identifier":"2023-AKTAD-000256","irwin_id":"{18B53E43-2736-4615-8A55-CB1E918A8F6C}","global_id":"4b338d4a-dad0-4f67-b3cd-ba5e09d495bb"}},{"type":"Feature","geometry":{"type":"Polygon","coordinates":[[[-151.5624,65.37842],[-151.56509,65.37872],[-151.56509,65.37887],[-151.56485,65.37909],[-151.56479,65.37933],[-151.56404,65.37955],[-151.56388,65.37973],[-151.56438,65.37992],[-151.5657,65.38009],[-151.56607,65.38027],[-151.56619,65.38053],[-151.56756,65.38113],[-151.56759,65.38141],[-151.56785,65.38166],[-151.56794,65.38197],[-151.56767,65.38217],[-151.56805,65.38248],[-151.56918,65.38231],[-151.57066,65.38228],[-151.57187,65.38198],[-151.57373,65.3818],[-151.57402,65.38161],[-151.57505,65.38153],[-151.57523,65.38163],[-151.5742,65.38172],[-151.57393,65.3819],[-151.57439,65.38198],[-151.5746,65.38226],[-151.57546,65.38246],[-151.57546,65.3826],[-151.57722,65.38336],[-151.57789,65.38382],[-151.57915,65.38377],[-151.57948,65.38395],[-151.5809,65.3841],[-151.58453,65.38496],[-151.58529,65.38548],[-151.58608,65.38576],[-151.58646,65.38604],[-151.58656,65.38627],[-151.58452,65.38706],[-151.58397,65.38698],[-151.58394,65.38686],[-151.58424,65.38654],[-151.58379,65.38638],[-151.58318,65.38643],[-151.58207,65.38678],[-151.5818,65.38671],[-151.58164,65.38623],[-151.58085,65.38663],[-151.58005,65.38668],[-151.57305,65.38614],[-151.56995,65.38612],[-151.56877,65.38637],[-151.56793,65.38632],[-151.56558,65.38568],[-151.56531,65.38548],[-151.56604,65.38512],[-151.56645,65.38513],[-151.56726,65.38489],[-151.56753,65.38461],[-151.56729,65.38447],[-151.56508,65.38418],[-151.56489,65.38401],[-151.56548,65.38367],[-151.56563,65.38349],[-151.56551,65.38336],[-151.56487,65.38321],[-151.56334,65.38372],[-151.56271,65.38381],[-151.56155,65.3832],[-151.56136,65.38298],[-151.56135,65.38269],[-151.5617,65.38248],[-151.56169,65.38225],[-151.56144,65.38205],[-151.55971,65.38232],[-151.55952,65.38195],[-151.55969,65.38181],[-151.55914,65.38151],[-151.55973,65.38146],[-151.55959,65.38134],[-151.56098,65.38129],[-151.56131,65.38103],[-151.56156,65.38042],[-151.56145,65.38018],[-151.56089,65.37995],[-151.55977,65.37992],[-151.55946,65.37975],[-151.55716,65.37974],[-151.55672,65.37953],[-151.55661,65.37921],[-151.55669,65.37888],[-151.55628,65.37902],[-151.55563,65.37893],[-151.55543,65.37878],[-151.55554,65.37858],[-151.55593,65.37847],[-151.55736,65.37827],[-151.5572,65.37805],[-151.55663,65.37812],[-151.55602,65.37791],[-151.5567,65.37774],[-151.55669,65.37761],[-151.55685,65.37757],[-151.55674,65.37738],[-151.55679,65.37701],[-151.55981,65.37651],[-151.56005,65.37665],[-151.56064,65.37669],[-151.56085,65.37689],[-151.56143,65.37703],[-151.56174,65.3773],[-151.5616,65.37754],[-151.56203,65.37781],[-151.56239,65.37787],[-151.56248,65.37809],[-151.5624,65.37842]]]},"properties":{"fire_id":"ufid:2023-AKTAD-000205","source_collection":"history-2023","source_objectid":21662,"incident_name":"Morelock","mapped_acres":133.6,"mapped_acres_source":"poly_GISAcres","gis_acres":133.6,"auto_acres":133.65814288731448,"reported_acres":133.6,"percent_contained":null,"state":"AK","state_wfigs":"US-AK","county":"Yukon-Koyukuk","discovery_time_utc":"2023-07-25T02:17:00Z","perimeter_time_utc":"2023-10-11T18:09:46Z","perimeter_edit_time_utc":"2023-10-11T18:09:47Z","incident_modified_time_utc":"2023-10-05T21:31:18Z","containment_time_utc":"2023-10-05T17:43:00Z","control_time_utc":"2023-10-05T17:43:00Z","fire_out_time_utc":"2023-10-05T17:43:00Z","fire_cause":"Natural","fire_cause_general":"Natural","map_method":"Image Interpretation","source_dataset":"FFP","unique_fire_identifier":"2023-AKTAD-000205","irwin_id":"{3DA9305E-1C4C-4E86-9578-F67CC80C6D2D}","global_id":"ebd348ad-6cfe-4064-ac55-b5d0490a3b05"}},{"type":"Feature","geometry":{"type":"Polygon","coordinates":[[[-150.65239,65.22593],[-150.65199,65.22647],[-150.65267,65.22684],[-150.65266,65.22698],[-150.65196,65.22708],[-150.65189,65.2274],[-150.64992,65.22682],[-150.64976,65.22651],[-150.6492,65.2264],[-150.64916,65.2263],[-150.64993,65.22595],[-150.64981,65.22565],[-150.65014,65.22472],[-150.64998,65.22403],[-150.65007,65.22347],[-150.65022,65.22331],[-150.65121,65.22307],[-150.65161,65.22279],[-150.65155,65.22261],[-150.6517,65.22252],[-150.6517,65.22206],[-150.65113,65.22156],[-150.65122,65.2214],[-150.65178,65.22124],[-150.65124,65.2209],[-150.65115,65.22066],[-150.65216,65.22048],[-150.65195,65.22023],[-150.65198,65.22007],[-150.65141,65.21969],[-150.65134,65.21936],[-150.65335,65.21893],[-150.65548,65.2183],[-150.65677,65.21846],[-150.65657,65.21889],[-150.65667,65.21921],[-150.65737,65.21979],[-150.65793,65.2208],[-150.65734,65.22077],[-150.65725,65.22118],[-150.65799,65.22161],[-150.65719,65.22183],[-150.65784,65.22253],[-150.65763,65.22276],[-150.65558,65.2234],[-150.65648,65.22363],[-150.65691,65.22403],[-150.65668,65.22456],[-150.65499,65.22552],[-150.65383,65.2258],[-150.65287,65.22565],[-150.65239,65.22593]]]},"properties":{"fire_id":"ufid:2023-AKTAD-000127","source_collection":"history-2023","source_objectid":21871,"incident_name":"Orum","mapped_acres":58.3,"mapped_acres_source":"poly_GISAcres","gis_acres":58.3,"auto_acres":58.26503148129495,"reported_acres":58.3,"percent_contained":null,"state":"AK","state_wfigs":"US-AK","county":"Yukon-Koyukuk","discovery_time_utc":"2023-06-18T00:56:00Z","perimeter_time_utc":"2023-10-19T19:42:37Z","perimeter_edit_time_utc":"2023-10-19T19:42:37Z","incident_modified_time_utc":"2023-10-05T18:51:07Z","containment_time_utc":"2023-10-05T17:43:00Z","control_time_utc":"2023-10-05T17:43:00Z","fire_out_time_utc":"2023-10-05T17:43:00Z","fire_cause":"Natural","fire_cause_general":"Natural","map_method":"Image Interpretation","source_dataset":"FFP","unique_fire_identifier":"2023-AKTAD-000127","irwin_id":"{8B3F3688-62E9-47C8-9D30-548786A306F4}","global_id":"9537bba6-ca0f-4988-9b23-768b98413580"}},{"type":"Feature","geometry":{"type":"Polygon","coordinates":[[[-150.50184,65.18609],[-150.50143,65.18562],[-150.50075,65.18546],[-150.50198,65.18555],[-150.50244,65.18553],[-150.50244,65.18544],[-150.49975,65.18473],[-150.50049,65.18458],[-150.50064,65.18445],[-150.5004,65.18414],[-150.50094,65.18391],[-150.50023,65.18381],[-150.49959,65.18388],[-150.49927,65.18367],[-150.49982,65.18328],[-150.49926,65.18271],[-150.50125,65.1831],[-150.50154,65.1833],[-150.50136,65.18357],[-150.50349,65.18398],[-150.50356,65.18411],[-150.50323,65.1843],[-150.50391,65.18476],[-150.50509,65.18498],[-150.50525,65.18522],[-150.5051,65.18541],[-150.50348,65.18507],[-150.50283,65.18509],[-150.50315,65.1855],[-150.50469,65.18587],[-150.50479,65.18619],[-150.50511,65.18635],[-150.506,65.18719],[-150.5062,65.1875],[-150.506,65.1876],[-150.50592,65.18788],[-150.50605,65.1881],[-150.50593,65.18856],[-150.50612,65.18877],[-150.5061,65.18937],[-150.50546,65.18975],[-150.50515,65.19021],[-150.50434,65.19043],[-150.50426,65.1903],[-150.5047,65.1902],[-150.50494,65.19002],[-150.50499,65.18975],[-150.50539,65.1896],[-150.50529,65.18933],[-150.50564,65.18916],[-150.50548,65.18897],[-150.50575,65.1888],[-150.50544,65.18829],[-150.50416,65.18776],[-150.5042,65.18759],[-150.50457,65.18735],[-150.50502,65.18723],[-150.50477,65.18699],[-150.50296,65.18635],[-150.50236,65.18641],[-150.50225,65.18622],[-150.50282,65.18619],[-150.50283,65.1861],[-150.50184,65.18609]]]},"properties":{"fire_id":"ufid:2023-AKTAD-000140","source_collection":"history-2023","source_objectid":21872,"incident_name":"Thanksgiving Ditch","mapped_acres":16.42332,"mapped_acres_source":"poly_GISAcres","gis_acres":16.42332,"auto_acres":16.423249985583844,"reported_acres":16.4,"percent_contained":null,"state":"AK","state_wfigs":"US-AK","county":"Yukon-Koyukuk","discovery_time_utc":"2023-06-22T16:14:00Z","perimeter_time_utc":"2023-10-19T19:43:58Z","perimeter_edit_time_utc":"2023-10-19T19:43:58Z","incident_modified_time_utc":"2023-10-05T18:25:00Z","containment_time_utc":"2023-10-05T17:43:00Z","control_time_utc":"2023-10-05T17:43:00Z","fire_out_time_utc":"2023-10-05T17:43:00Z","fire_cause":"Natural","fire_cause_general":"Natural","map_method":"Image Interpretation","source_dataset":"FFP","unique_fire_identifier":"2023-AKTAD-000140","irwin_id":"{2697EC0D-983A-49AB-BB25-1FB0F2022A66}","global_id":"4853629f-1b7e-42fe-9018-170c705ad5e8"}},{"type":"Feature","geometry":{"type":"Polygon","coordinates":[[[-151.1976,65.18423],[-151.19571,65.18496],[-151.19597,65.18523],[-151.19627,65.18529],[-151.19681,65.18505],[-151.19738,65.18512],[-151.19794,65.18563],[-151.19867,65.18572],[-151.19944,65.18538],[-151.19988,65.18538],[-151.2011,65.1858],[-151.20084,65.1861],[-151.19975,65.18637],[-151.1999,65.18669],[-151.20135,65.18666],[-151.20197,65.18628],[-151.20423,65.18546],[-151.20423,65.18483],[-151.20473,65.18487],[-151.20497,65.18473],[-151.20495,65.18456],[-151.20531,65.18426],[-151.2052,65.18385],[-151.20584,65.18367],[-151.20597,65.18344],[-151.20582,65.18323],[-151.20501,65.18319],[-151.20436,65.18346],[-151.20399,65.18347],[-151.20369,65.1834],[-151.20374,65.18323],[-151.20524,65.18272],[-151.20557,65.1828],[-151.2078,65.18135],[-151.20857,65.18113],[-151.20892,65.18205],[-151.20856,65.18329],[-151.208,65.1837],[-151.20802,65.1839],[-151.20915,65.1842],[-151.20922,65.1844],[-151.20876,65.18482],[-151.20941,65.18489],[-151.20996,65.18512],[-151.21057,65.18494],[-151.21128,65.18495],[-151.21276,65.18525],[-151.21314,65.18497],[-151.21288,65.18457],[-151.21396,65.18416],[-151.21653,65.18438],[-151.21665,65.18419],[-151.21797,65.18417],[-151.21854,65.18428],[-151.21874,65.18447],[-151.21844,65.1847],[-151.21924,65.18486],[-151.21903,65.18513],[-151.21925,65.18568],[-151.22041,65.18572],[-151.22058,65.1859],[-151.22346,65.18543],[-151.2244,65.18504],[-151.22426,65.18457],[-151.22502,65.18434],[-151.22623,65.18436],[-151.22756,65.18472],[-151.22922,65.18441],[-151.22937,65.18415],[-151.22929,65.18388],[-151.22782,65.18396],[-151.22781,65.18361],[-151.22834,65.18317],[-151.22839,65.18285],[-151.2289,65.18281],[-151.22974,65.18294],[-151.22959,65.18312],[-151.22984,65.18365],[-151.22982,65.18388],[-151.2308,65.18471],[-151.23073,65.1854],[-151.23131,65.18542],[-151.23175,65.18492],[-151.23178,65.1846],[-151.23137,65.18435],[-151.23151,65.18413],[-151.23338,65.18398],[-151.23484,65.18371],[-151.23536,65.18376],[-151.23552,65.18402],[-151.23521,65.18434],[-151.23371,65.18499],[-151.2338,65.18516],[-151.23476,65.18571],[-151.23419,65.18676],[-151.23494,65.18708],[-151.23678,65.18676],[-151.23691,65.18652],[-151.24033,65.18577],[-151.24085,65.18547],[-151.2414,65.18543],[-151.24148,65.18525],[-151.2431,65.18472],[-151.24357,65.1843],[-151.24363,65.18371],[-151.24249,65.18386],[-151.24139,65.18368],[-151.24135,65.18291],[-151.24092,65.18245],[-151.24191,65.18245],[-151.24226,65.1823],[-151.24228,65.18212],[-151.24181,65.18187],[-151.24063,65.18171],[-151.24015,65.18143],[-151.23995,65.18079],[-151.24086,65.18068],[-151.23942,65.17999],[-151.23951,65.17984],[-151.24008,65.17985],[-151.24064,65.17961],[-151.23988,65.17935],[-151.24194,65.17894],[-151.24406,65.1788],[-151.24459,65.17901],[-151.24569,65.1791],[-151.2461,65.17897],[-151.24627,65.17906],[-151.24605,65.17965],[-151.24627,65.18012],[-151.24658,65.18033],[-151.24898,65.17997],[-151.24902,65.18019],[-151.24941,65.18039],[-151.24991,65.18041],[-151.25061,65.18014],[-151.25047,65.17993],[-151.25051,65.17953],[-151.25101,65.17929],[-151.2526,65.17924],[-151.25301,65.17892],[-151.25303,65.17865],[-151.25463,65.17861],[-151.25488,65.17909],[-151.25387,65.18008],[-151.25323,65.18007],[-151.25326,65.18039],[-151.25412,65.18057],[-151.25458,65.18085],[-151.25673,65.18099],[-151.25719,65.18118],[-151.25699,65.18191],[-151.2565,65.18229],[-151.25416,65.18273],[-151.25204,65.18254],[-151.24792,65.18262],[-151.24788,65.18298],[-151.24848,65.18323],[-151.25008,65.18309],[-151.25006,65.18331],[-151.24984,65.1839],[-151.24954,65.18413],[-151.24834,65.18387],[-151.24656,65.18482],[-151.24709,65.18522],[-151.24787,65.18519],[-151.24943,65.18586],[-151.24856,65.18602],[-151.24675,65.18608],[-151.24595,65.18636],[-151.24591,65.1866],[-151.24672,65.18654],[-151.24689,65.18678],[-151.24686,65.1871],[-151.24846,65.18777],[-151.24735,65.18835],[-151.24825,65.18846],[-151.25125,65.18835],[-151.25512,65.18872],[-151.2556,65.18869],[-151.25584,65.18849],[-151.25657,65.18831],[-151.25657,65.18788],[-151.25864,65.18824],[-151.2597,65.18823],[-151.26192,65.18762],[-151.26215,65.18721],[-151.26475,65.18666],[-151.26487,65.18624],[-151.26625,65.18619],[-151.26744,65.18598],[-151.26787,65.18577],[-151.26853,65.18584],[-151.26901,65.1856],[-151.2711,65.18513],[-151.2713,65.18458],[-151.27198,65.18427],[-151.27246,65.1842],[-151.27271,65.18391],[-151.27402,65.18367],[-151.27426,65.18388],[-151.27625,65.18342],[-151.27763,65.18375],[-151.27662,65.18428],[-151.27447,65.18596],[-151.27338,65.18641],[-151.27282,65.18729],[-151.27164,65.18801],[-151.26895,65.18829],[-151.2675,65.1887],[-151.2651,65.1887],[-151.26319,65.18854],[-151.26284,65.18867],[-151.26242,65.18915],[-151.2628,65.18954],[-151.26598,65.189],[-151.26815,65.18898],[-151.27066,65.18929],[-151.27362,65.18939],[-151.27466,65.18976],[-151.27492,65.19073],[-151.27472,65.19111],[-151.27384,65.19125],[-151.27359,65.19153],[-151.27384,65.19157],[-151.2741,65.19221],[-151.27715,65.1923],[-151.27817,65.19245],[-151.27852,65.19268],[-151.27856,65.19284],[-151.27928,65.1926],[-151.2808,65.19288],[-151.28156,65.19328],[-151.28109,65.19364],[-151.28074,65.19454],[-151.27982,65.19476],[-151.27811,65.19381],[-151.27663,65.19374],[-151.27634,65.19405],[-151.27716,65.19463],[-151.2761,65.19488],[-151.27521,65.19487],[-151.27485,65.19446],[-151.27422,65.19464],[-151.27391,65.19498],[-151.2731,65.19497],[-151.27307,65.19441],[-151.2729,65.19419],[-151.27209,65.19411],[-151.27212,65.19484],[-151.27142,65.19489],[-151.27062,65.19451],[-151.27068,65.19393],[-151.27027,65.19347],[-151.26892,65.19273],[-151.26681,65.19253],[-151.26453,65.19288],[-151.26234,65.19294],[-151.26175,65.19314],[-151.26124,65.19261],[-151.26089,65.1925],[-151.26031,65.19279],[-151.25871,65.19276],[-151.25613,65.19216],[-151.25523,65.19164],[-151.25511,65.1913],[-151.25418,65.19054],[-151.25264,65.1902],[-151.25164,65.19014],[-151.25101,65.19035],[-151.2513,65.19069],[-151.25185,65.19087],[-151.25333,65.19093],[-151.25328,65.19115],[-151.25185,65.19113],[-151.2517,65.19146],[-151.25172,65.19178],[-151.25213,65.19205],[-151.25216,65.19234],[-151.2516,65.19254],[-151.25147,65.19291],[-151.25259,65.19381],[-151.25436,65.19414],[-151.25894,65.19547],[-151.26049,65.19568],[-151.26031,65.19588],[-151.25774,65.19596],[-151.25466,65.19543],[-151.25357,65.19542],[-151.25377,65.19574],[-151.25643,65.19635],[-151.25685,65.19657],[-151.25698,65.19711],[-151.2588,65.19766],[-151.25883,65.19798],[-151.25806,65.19797],[-151.25721,65.19775],[-151.25711,65.19797],[-151.25291,65.19713],[-151.25239,65.19715],[-151.25203,65.19733],[-151.25109,65.19705],[-151.25063,65.19711],[-151.25046,65.19739],[-151.24986,65.19742],[-151.24898,65.19719],[-151.24861,65.19724],[-151.24868,65.19742],[-151.24823,65.19749],[-151.24814,65.19774],[-151.24845,65.19831],[-151.24643,65.19878],[-151.24612,65.19899],[-151.24609,65.19923],[-151.24703,65.19943],[-151.24696,65.19965],[-151.25223,65.19954],[-151.25293,65.19924],[-151.2537,65.19918],[-151.2552,65.19925],[-151.25549,65.19939],[-151.2545,65.19992],[-151.25342,65.20022],[-151.25117,65.20026],[-151.25042,65.20047],[-151.25001,65.20083],[-151.24727,65.2008],[-151.24723,65.20093],[-151.24608,65.20129],[-151.24607,65.20145],[-151.24544,65.20183],[-151.24493,65.20197],[-151.24434,65.20241],[-151.24434,65.20261],[-151.24507,65.20275],[-151.24521,65.20291],[-151.24436,65.20291],[-151.24338,65.20328],[-151.24289,65.20317],[-151.24291,65.20305],[-151.24333,65.2024],[-151.24357,65.20232],[-151.24379,65.202],[-151.24298,65.202],[-151.24261,65.20228],[-151.24169,65.20232],[-151.24175,65.20197],[-151.24207,65.20178],[-151.24193,65.20166],[-151.242,65.20154],[-151.24163,65.20135],[-151.2415,65.2011],[-151.24194,65.20063],[-151.24148,65.20033],[-151.23997,65.20001],[-151.23938,65.20005],[-151.23869,65.20054],[-151.23813,65.20029],[-151.23741,65.20022],[-151.2358,65.20047],[-151.23464,65.20028],[-151.233,65.19976],[-151.23282,65.19952],[-151.23475,65.19925],[-151.23583,65.1995],[-151.23644,65.19928],[-151.23637,65.19863],[-151.2358,65.19865],[-151.23542,65.19845],[-151.23583,65.19814],[-151.2371,65.19763],[-151.23713,65.1974],[-151.2359,65.19741],[-151.2343,65.19697],[-151.23392,65.19663],[-151.2338,65.1956],[-151.23425,65.19509],[-151.23434,65.1948],[-151.23349,65.19447],[-151.23229,65.19423],[-151.23159,65.19422],[-151.23111,65.19458],[-151.23214,65.19469],[-151.2337,65.1952],[-151.23302,65.19562],[-151.23306,65.19621],[-151.23278,65.19646],[-151.23159,65.19656],[-151.23098,65.19638],[-151.23125,65.19618],[-151.2321,65.19632],[-151.23224,65.19609],[-151.2303,65.19557],[-151.22897,65.19548],[-151.22825,65.1957],[-151.22865,65.19596],[-151.22939,65.19617],[-151.22895,65.19635],[-151.22775,65.19634],[-151.22745,65.19663],[-151.22733,65.19696],[-151.22758,65.19719],[-151.22843,65.19723],[-151.22934,65.19746],[-151.22968,65.19782],[-151.23,65.19787],[-151.2304,65.1982],[-151.23036,65.19854],[-151.2294,65.19946],[-151.22825,65.19956],[-151.22757,65.1994],[-151.22648,65.19874],[-151.22556,65.19778],[-151.22526,65.19771],[-151.22506,65.19781],[-151.22514,65.19806],[-151.22565,65.19866],[-151.22572,65.199],[-151.22529,65.19909],[-151.22498,65.19868],[-151.22471,65.19865],[-151.22405,65.19883],[-151.22411,65.19896],[-151.22378,65.19921],[-151.22383,65.19928],[-151.22332,65.19959],[-151.22354,65.19975],[-151.22459,65.19979],[-151.22598,65.20014],[-151.22337,65.20024],[-151.22016,65.19951],[-151.22122,65.19918],[-151.22115,65.19901],[-151.21948,65.19896],[-151.21754,65.19917],[-151.21734,65.19906],[-151.21898,65.19847],[-151.21912,65.19828],[-151.21858,65.1982],[-151.21682,65.1988],[-151.21559,65.19874],[-151.21497,65.19897],[-151.21405,65.19897],[-151.21375,65.19917],[-151.21288,65.19914],[-151.21249,65.19935],[-151.21156,65.19929],[-151.2111,65.19913],[-151.21076,65.19931],[-151.21018,65.19919],[-151.20499,65.19918],[-151.20465,65.19902],[-151.20493,65.19884],[-151.20776,65.19858],[-151.20806,65.1983],[-151.20748,65.19818],[-151.20608,65.19835],[-151.20434,65.19829],[-151.20406,65.19812],[-151.20629,65.19761],[-151.20743,65.19766],[-151.21086,65.19686],[-151.21302,65.19693],[-151.21431,65.19723],[-151.21437,65.1968],[-151.21423,65.19642],[-151.21316,65.19578],[-151.21324,65.19477],[-151.21309,65.19446],[-151.21333,65.19429],[-151.21462,65.19428],[-151.21587,65.19472],[-151.21704,65.1954],[-151.21869,65.19577],[-151.22015,65.19577],[-151.22108,65.19619],[-151.22183,65.1962],[-151.2233,65.19651],[-151.22314,65.19631],[-151.22243,65.19609],[-151.22226,65.19578],[-151.2236,65.19562],[-151.22383,65.19545],[-151.2235,65.19526],[-151.22521,65.19479],[-151.22478,65.19466],[-151.22412,65.19414],[-151.22222,65.19379],[-151.22242,65.19348],[-151.22321,65.19323],[-151.2257,65.19342],[-151.22769,65.1932],[-151.22749,65.193],[-151.22666,65.19291],[-151.22633,65.19251],[-151.22634,65.19225],[-151.22682,65.19199],[-151.22796,65.1918],[-151.22845,65.19186],[-151.2291,65.1922],[-151.2298,65.19236],[-151.22993,65.19211],[-151.22987,65.19176],[-151.23,65.19167],[-151.23066,65.19175],[-151.23094,65.19195],[-151.23143,65.19171],[-151.23139,65.19154],[-151.23234,65.19124],[-151.23134,65.19087],[-151.22924,65.19065],[-151.23247,65.19013],[-151.23214,65.19002],[-151.23077,65.19006],[-151.2281,65.19045],[-151.22753,65.19017],[-151.22684,65.19063],[-151.22584,65.19066],[-151.2251,65.19052],[-151.22244,65.1904],[-151.22199,65.19025],[-151.22228,65.18992],[-151.22232,65.18953],[-151.22253,65.18932],[-151.22226,65.1893],[-151.22103,65.19077],[-151.21981,65.191],[-151.21935,65.19068],[-151.21833,65.1906],[-151.21785,65.19117],[-151.21607,65.19114],[-151.2158,65.19096],[-151.21619,65.19029],[-151.21582,65.19014],[-151.21518,65.19011],[-151.21495,65.19066],[-151.21465,65.19094],[-151.21344,65.19102],[-151.21316,65.19131],[-151.21421,65.19144],[-151.21392,65.19178],[-151.2118,65.19188],[-151.21144,65.19136],[-151.21146,65.19117],[-151.21173,65.19102],[-151.21158,65.1908],[-151.21266,65.19037],[-151.21168,65.19016],[-151.21242,65.18966],[-151.21242,65.18951],[-151.21195,65.18933],[-151.21212,65.1888],[-151.21177,65.1887],[-151.21153,65.1888],[-151.21136,65.18912],[-151.21112,65.18926],[-151.2098,65.18929],[-151.21088,65.18947],[-151.21106,65.1899],[-151.21063,65.19008],[-151.20779,65.18983],[-151.20777,65.19005],[-151.20829,65.19033],[-151.20943,65.19038],[-151.21033,65.19073],[-151.21083,65.19167],[-151.21065,65.19193],[-151.2104,65.19203],[-151.20846,65.19245],[-151.207,65.19241],[-151.20711,65.19219],[-151.20757,65.19201],[-151.20716,65.19187],[-151.2062,65.19219],[-151.20569,65.19199],[-151.20548,65.19168],[-151.20549,65.19143],[-151.20572,65.19135],[-151.20492,65.191],[-151.20468,65.19012],[-151.20429,65.19004],[-151.20393,65.1904],[-151.20254,65.19016],[-151.20189,65.19028],[-151.20208,65.19059],[-151.20269,65.19077],[-151.20322,65.19118],[-151.20318,65.19154],[-151.20362,65.19183],[-151.20326,65.1924],[-151.20265,65.19214],[-151.20149,65.19095],[-151.20076,65.19082],[-151.20116,65.19117],[-151.20161,65.19131],[-151.20197,65.192],[-151.20164,65.19207],[-151.20053,65.19173],[-151.20043,65.19156],[-151.20073,65.19145],[-151.20031,65.19117],[-151.19902,65.19104],[-151.19872,65.19103],[-151.19834,65.19134],[-151.19983,65.1916],[-151.20007,65.19181],[-151.2,65.19211],[-151.19924,65.19216],[-151.19765,65.19187],[-151.19706,65.19166],[-151.1971,65.19144],[-151.19633,65.1913],[-151.19587,65.19148],[-151.19622,65.19159],[-151.19634,65.19182],[-151.19297,65.19154],[-151.19249,65.19166],[-151.19233,65.19186],[-151.19254,65.19209],[-151.19444,65.19198],[-151.19726,65.19271],[-151.20023,65.1932],[-151.20078,65.1935],[-151.20067,65.19414],[-151.19874,65.19413],[-151.19809,65.19397],[-151.19634,65.19348],[-151.19632,65.19328],[-151.19552,65.19315],[-151.19441,65.19255],[-151.19399,65.19257],[-151.19393,65.19272],[-151.19446,65.19297],[-151.19421,65.19309],[-151.19293,65.19295],[-151.19194,65.19309],[-151.19056,65.19294],[-151.19031,65.19305],[-151.19004,65.19342],[-151.19065,65.19395],[-151.19127,65.19401],[-151.19106,65.19375],[-151.19212,65.19394],[-151.1929,65.19366],[-151.19318,65.194],[-151.19424,65.194],[-151.19541,65.19449],[-151.19495,65.19482],[-151.19326,65.1954],[-151.19109,65.19539],[-151.19046,65.19524],[-151.19002,65.1954],[-151.19025,65.19558],[-151.19087,65.19573],[-151.19107,65.19617],[-151.1909,65.19645],[-151.18906,65.19711],[-151.18791,65.19716],[-151.18571,65.19698],[-151.18595,65.19675],[-151.18597,65.19606],[-151.18539,65.19594],[-151.18464,65.19612],[-151.18391,65.19583],[-151.18259,65.19579],[-151.18184,65.19603],[-151.18119,65.19602],[-151.18114,65.19585],[-151.182,65.19523],[-151.18079,65.1953],[-151.1809,65.1951],[-151.18142,65.19495],[-151.18109,65.19465],[-151.1807,65.19463],[-151.18038,65.19439],[-151.18011,65.19385],[-151.18045,65.19353],[-151.17992,65.19331],[-151.17979,65.19286],[-151.1801,65.19272],[-151.17989,65.19253],[-151.18162,65.19232],[-151.18118,65.192],[-151.1819,65.19165],[-151.18199,65.1915],[-151.18188,65.19141],[-151.18163,65.1916],[-151.18049,65.19195],[-151.17934,65.19209],[-151.17883,65.19175],[-151.1785,65.19123],[-151.17804,65.19134],[-151.17847,65.19196],[-151.17738,65.19201],[-151.17673,65.19162],[-151.17627,65.19172],[-151.17683,65.19203],[-151.17633,65.19207],[-151.17618,65.19238],[-151.17767,65.19253],[-151.17862,65.19289],[-151.17809,65.19303],[-151.17711,65.19303],[-151.17432,65.19269],[-151.17409,65.19286],[-151.17556,65.19307],[-151.17609,65.19352],[-151.17797,65.19339],[-151.17924,65.19379],[-151.17975,65.1947],[-151.17957,65.19484],[-151.17848,65.19506],[-151.17687,65.19491],[-151.1766,65.19503],[-151.17365,65.19471],[-151.17388,65.19494],[-151.17493,65.19522],[-151.17522,65.19549],[-151.17588,65.19566],[-151.17705,65.19572],[-151.17816,65.19613],[-151.17843,65.1963],[-151.17841,65.19658],[-151.17827,65.19669],[-151.17774,65.19655],[-151.17726,65.19618],[-151.17644,65.196],[-151.17436,65.19583],[-151.17495,65.19608],[-151.17512,65.19634],[-151.1745,65.19613],[-151.17185,65.19582],[-151.17205,65.19653],[-151.17164,65.19681],[-151.1716,65.19745],[-151.17263,65.1979],[-151.17289,65.19832],[-151.17262,65.19848],[-151.1706,65.19877],[-151.16961,65.19922],[-151.16964,65.19938],[-151.16898,65.19976],[-151.16846,65.19971],[-151.16892,65.19947],[-151.16895,65.19918],[-151.16817,65.19951],[-151.16799,65.1991],[-151.16887,65.19848],[-151.16955,65.19829],[-151.16976,65.19808],[-151.16935,65.19773],[-151.16824,65.19813],[-151.16766,65.19856],[-151.16725,65.1986],[-151.16686,65.19843],[-151.16747,65.1982],[-151.16813,65.19775],[-151.16794,65.19759],[-151.16807,65.19746],[-151.16891,65.19737],[-151.1693,65.19712],[-151.16882,65.19701],[-151.16788,65.19723],[-151.16741,65.19715],[-151.16724,65.19695],[-151.16757,65.19659],[-151.16677,65.19648],[-151.16817,65.19622],[-151.16866,65.19604],[-151.16872,65.19591],[-151.16658,65.1955],[-151.16629,65.19522],[-151.1651,65.19513],[-151.16518,65.19493],[-151.16466,65.1949],[-151.16364,65.19546],[-151.16274,65.19537],[-151.1623,65.19546],[-151.16316,65.19593],[-151.16472,65.1964],[-151.16427,65.19663],[-151.16335,65.19682],[-151.16285,65.19678],[-151.1626,65.19661],[-151.16277,65.19648],[-151.16163,65.19578],[-151.16086,65.19562],[-151.15932,65.19564],[-151.1592,65.1954],[-151.15886,65.19536],[-151.15824,65.19554],[-151.15715,65.19537],[-151.15424,65.19548],[-151.1529,65.1958],[-151.15208,65.19569],[-151.15168,65.19549],[-151.15038,65.19541],[-151.1501,65.19507],[-151.15042,65.19488],[-151.1504,65.19471],[-151.14943,65.19454],[-151.14914,65.19435],[-151.14937,65.19404],[-151.14906,65.19343],[-151.14977,65.19338],[-151.15037,65.19383],[-151.15114,65.19398],[-151.15349,65.19411],[-151.15396,65.19438],[-151.15452,65.19431],[-151.15498,65.19406],[-151.15475,65.19374],[-151.15306,65.19369],[-151.15066,65.19331],[-151.14912,65.1929],[-151.1477,65.19229],[-151.14885,65.19223],[-151.14819,65.19194],[-151.14811,65.19176],[-151.14914,65.19166],[-151.14948,65.1914],[-151.14882,65.19132],[-151.14878,65.19102],[-151.14815,65.19074],[-151.14816,65.19062],[-151.14753,65.19049],[-151.14672,65.18982],[-151.14743,65.18938],[-151.14751,65.18863],[-151.14793,65.18814],[-151.14765,65.18778],[-151.14836,65.18726],[-151.15112,65.18726],[-151.15194,65.18748],[-151.15233,65.18793],[-151.15524,65.18879],[-151.1571,65.18891],[-151.16022,65.18838],[-151.15983,65.18762],[-151.16018,65.18649],[-151.16055,65.18579],[-151.16357,65.18502],[-151.1664,65.18474],[-151.16805,65.18525],[-151.17117,65.18501],[-151.17088,65.18523],[-151.17333,65.18575],[-151.17412,65.18608],[-151.17377,65.18655],[-151.1741,65.18703],[-151.17439,65.18668],[-151.1754,65.18638],[-151.17623,65.18624],[-151.17696,65.1864],[-151.17643,65.1866],[-151.17643,65.18684],[-151.17847,65.18793],[-151.17883,65.18759],[-151.18125,65.18745],[-151.18137,65.18732],[-151.18224,65.18738],[-151.18279,65.18714],[-151.18277,65.18595],[-151.18253,65.18567],[-151.18256,65.1854],[-151.18274,65.18504],[-151.18375,65.18483],[-151.18394,65.18457],[-151.18649,65.18441],[-151.18674,65.18464],[-151.18736,65.18484],[-151.18731,65.18494],[-151.18798,65.18559],[-151.18782,65.18579],[-151.18852,65.18608],[-151.18939,65.18584],[-151.1895,65.18562],[-151.18917,65.18517],[-151.19125,65.18523],[-151.19164,65.1856],[-151.19219,65.18537],[-151.19275,65.18488],[-151.19322,65.18484],[-151.19345,65.18461],[-151.19326,65.18425],[-151.1935,65.18404],[-151.19486,65.18369],[-151.19562,65.18325],[-151.19642,65.18318],[-151.19611,65.18289],[-151.19583,65.18281],[-151.19615,65.18264],[-151.19844,65.18278],[-151.19853,65.18294],[-151.19796,65.1833],[-151.19834,65.1835],[-151.20057,65.18367],[-151.1976,65.18423]]]},"properties":{"fire_id":"ufid:2023-AKTAD-000204","source_collection":"history-2023","source_objectid":21875,"incident_name":"Jordan","mapped_acres":1639.53,"mapped_acres_source":"poly_GISAcres","gis_acres":1639.53,"auto_acres":1639.487157064818,"reported_acres":1640.0,"percent_contained":null,"state":"AK","state_wfigs":"US-AK","county":"Yukon-Koyukuk","discovery_time_utc":"2023-07-25T01:35:00Z","perimeter_time_utc":"2023-10-19T19:46:21Z","perimeter_edit_time_utc":"2023-10-19T19:46:21Z","incident_modified_time_utc":"2023-10-05T18:17:38Z","containment_time_utc":"2023-10-05T17:43:00Z","control_time_utc":"2023-10-05T17:43:00Z","fire_out_time_utc":"2023-10-05T17:43:00Z","fire_cause":"Natural","fire_cause_general":"Natural","map_method":"Image Interpretation","source_dataset":"FFP","unique_fire_identifier":"2023-AKTAD-000204","irwin_id":"{AAF51EA9-5F2A-4E1A-B88D-909B73BA00D8}","global_id":"aa00533a-4fea-4ca7-83bd-5e631ef9e80f"}},{"type":"Feature","geometry":{"type":"Polygon","coordinates":[[[-150.46452,65.26902],[-150.46495,65.26881],[-150.46631,65.26864],[-150.46676,65.26794],[-150.46733,65.2678],[-150.4701,65.26788],[-150.47092,65.26803],[-150.47099,65.26826],[-150.47172,65.26873],[-150.47233,65.26841],[-150.47225,65.26792],[-150.47242,65.26772],[-150.47317,65.26787],[-150.47408,65.26856],[-150.47453,65.26872],[-150.47452,65.269],[-150.47515,65.26926],[-150.47695,65.26951],[-150.47695,65.26932],[-150.47753,65.26925],[-150.47878,65.26942],[-150.47988,65.27003],[-150.48011,65.27036],[-150.48039,65.27048],[-150.48134,65.2708],[-150.48204,65.27081],[-150.48363,65.2712],[-150.4847,65.27194],[-150.4857,65.27313],[-150.48584,65.27389],[-150.48576,65.27417],[-150.48621,65.27451],[-150.48606,65.27551],[-150.48563,65.27603],[-150.48362,65.27686],[-150.48306,65.27722],[-150.48307,65.27786],[-150.48232,65.27859],[-150.48123,65.2789],[-150.48026,65.27886],[-150.48007,65.27946],[-150.47948,65.2799],[-150.4772,65.27985],[-150.47539,65.28071],[-150.47271,65.28114],[-150.4724,65.28157],[-150.47205,65.28165],[-150.47064,65.2817],[-150.47015,65.28221],[-150.46954,65.28232],[-150.46809,65.2822],[-150.46495,65.28113],[-150.4646,65.28063],[-150.46475,65.28057],[-150.4648,65.28034],[-150.46416,65.28004],[-150.4622,65.27995],[-150.46145,65.28015],[-150.45901,65.2801],[-150.45861,65.28028],[-150.45803,65.28026],[-150.45636,65.27979],[-150.4561,65.27953],[-150.45612,65.27921],[-150.45666,65.27904],[-150.45959,65.27905],[-150.45984,65.27882],[-150.45975,65.2787],[-150.45912,65.27862],[-150.45809,65.27871],[-150.45784,65.27847],[-150.45718,65.27832],[-150.45651,65.27772],[-150.45574,65.27768],[-150.45555,65.27756],[-150.4556,65.27744],[-150.45525,65.27709],[-150.45499,65.27651],[-150.45452,65.27627],[-150.45478,65.27581],[-150.45463,65.27558],[-150.45421,65.27546],[-150.45426,65.27512],[-150.45448,65.27496],[-150.45534,65.27484],[-150.45617,65.27522],[-150.45632,65.27462],[-150.45673,65.27439],[-150.4567,65.2743],[-150.45849,65.27397],[-150.45803,65.27379],[-150.45775,65.27344],[-150.45769,65.27292],[-150.45666,65.27224],[-150.45666,65.27204],[-150.457,65.27184],[-150.45707,65.2715],[-150.45696,65.27124],[-150.45711,65.27094],[-150.45853,65.27031],[-150.46053,65.27003],[-150.46083,65.26986],[-150.46068,65.2694],[-150.46096,65.26913],[-150.46262,65.26916],[-150.46285,65.26907],[-150.46264,65.26881],[-150.46284,65.26865],[-150.46356,65.26871],[-150.46382,65.26907],[-150.46452,65.26902]]]},"properties":{"fire_id":"ufid:2023-AKTAD-000203","source_collection":"history-2023","source_objectid":21876,"incident_name":"Rock","mapped_acres":402.85,"mapped_acres_source":"poly_GISAcres","gis_acres":402.85,"auto_acres":402.8555211004675,"reported_acres":402.85,"percent_contained":null,"state":"AK","state_wfigs":"US-AK","county":"Yukon-Koyukuk","discovery_time_utc":"2023-07-25T01:18:00Z","perimeter_time_utc":"2023-10-19T19:45:49Z","perimeter_edit_time_utc":"2023-10-19T19:45:49Z","incident_modified_time_utc":"2023-10-05T18:22:20Z","containment_time_utc":"2023-10-05T17:43:00Z","control_time_utc":"2023-10-05T17:43:00Z","fire_out_time_utc":"2023-10-05T17:43:00Z","fire_cause":"Natural","fire_cause_general":"Natural","map_method":"Image Interpretation","source_dataset":"FFP","unique_fire_identifier":"2023-AKTAD-000203","irwin_id":"{ED402936-4179-42FE-B50A-094B5E3A5DBB}","global_id":"7b1edde4-bde5-4a90-9801-c50443cc06d0"}},{"type":"Feature","geometry":{"type":"Polygon","coordinates":[[[-150.20401,65.30759],[-150.20534,65.30786],[-150.20529,65.30804],[-150.20348,65.30847],[-150.20225,65.30832],[-150.20207,65.30801],[-150.2023,65.30761],[-150.20294,65.30724],[-150.20323,65.30722],[-150.20401,65.30759]]]},"properties":{"fire_id":"ufid:2023-AKTAD-000202","source_collection":"history-2023","source_objectid":21878,"incident_name":"Trout","mapped_acres":3.236179,"mapped_acres_source":"poly_GISAcres","gis_acres":3.236179,"auto_acres":3.2361658693702178,"reported_acres":3.2,"percent_contained":null,"state":"AK","state_wfigs":"US-AK","county":"Yukon-Koyukuk","discovery_time_utc":"2023-07-25T01:11:00Z","perimeter_time_utc":"2023-10-19T19:45:21Z","perimeter_edit_time_utc":"2023-10-19T19:45:22Z","incident_modified_time_utc":"2023-10-05T20:40:43Z","containment_time_utc":"2023-10-05T17:43:00Z","control_time_utc":"2023-10-05T17:43:00Z","fire_out_time_utc":"2023-10-05T17:43:00Z","fire_cause":"Natural","fire_cause_general":"Natural","map_method":"Image Interpretation","source_dataset":"FFP","unique_fire_identifier":"2023-AKTAD-000202","irwin_id":"{8E56E57E-B8EC-4120-B5B8-094FBF36AD2B}","global_id":"63bacd9e-6439-4452-87e8-80948814aefe"}}]}
