{"type":"FeatureCollection","features":[{"type":"Feature","geometry":{"type":"Polygon","coordinates":[[[-162.51414,67.54161],[-162.5109,67.54186],[-162.50996,67.54146],[-162.50961,67.54096],[-162.50986,67.54043],[-162.51022,67.54026],[-162.51001,67.54009],[-162.51005,67.53993],[-162.51269,67.53969],[-162.51459,67.53999],[-162.51505,67.54031],[-162.51568,67.54041],[-162.51613,67.54084],[-162.51414,67.54161]]]},"properties":{"fire_id":"ufid:2023-AKGAD-000216","source_collection":"history-2023","source_objectid":19006,"incident_name":"Eli","mapped_acres":12.17643,"mapped_acres_source":"poly_GISAcres","gis_acres":12.17643,"auto_acres":12.176378236365489,"reported_acres":12.2,"percent_contained":null,"state":"AK","state_wfigs":"US-AK","county":"Northwest Arctic","discovery_time_utc":"2023-07-25T04:40:00Z","perimeter_time_utc":"2023-09-27T23:08:36Z","perimeter_edit_time_utc":"2023-09-27T23:08:36Z","incident_modified_time_utc":"2023-08-30T19:33:31Z","containment_time_utc":"2023-08-30T19:00:00Z","control_time_utc":"2023-08-30T19:00:00Z","fire_out_time_utc":"2023-08-30T19:00:00Z","fire_cause":"Natural","fire_cause_general":"Natural","map_method":"Image Interpretation","source_dataset":"FFP","unique_fire_identifier":"2023-AKGAD-000216","irwin_id":"{A1F9696E-A9B3-4CC1-94A1-ABF70E8DCD06}","global_id":"5ba4141f-a971-4795-a5e2-223c6105647b"}},{"type":"Feature","geometry":{"type":"Polygon","coordinates":[[[-160.95347,66.742],[-160.95257,66.74203],[-160.95033,66.74167],[-160.94885,66.74105],[-160.94798,66.74088],[-160.94593,66.74083],[-160.94473,66.7406],[-160.94415,66.74017],[-160.94405,66.73936],[-160.94268,66.73865],[-160.94176,66.73842],[-160.9416,66.73821],[-160.94178,66.7378],[-160.93958,66.73771],[-160.93939,66.73753],[-160.93945,66.73736],[-160.93793,66.73715],[-160.93789,66.737],[-160.93811,66.73676],[-160.93844,66.73665],[-160.93844,66.73639],[-160.93803,66.73617],[-160.93545,66.73585],[-160.93427,66.73547],[-160.93398,66.73519],[-160.93152,66.73503],[-160.93169,66.73475],[-160.93203,66.73462],[-160.93162,66.73447],[-160.92853,66.73456],[-160.92795,66.73438],[-160.92856,66.73397],[-160.92889,66.73358],[-160.92834,66.73339],[-160.92838,66.73289],[-160.93231,66.73234],[-160.93361,66.73184],[-160.9376,66.73277],[-160.93903,66.73291],[-160.9398,66.73314],[-160.93994,66.7334],[-160.94094,66.73408],[-160.94176,66.73446],[-160.94251,66.73473],[-160.94373,66.73492],[-160.94498,66.73572],[-160.9459,66.73676],[-160.9465,66.73702],[-160.94794,66.73735],[-160.95068,66.73742],[-160.95111,66.73757],[-160.95143,66.73811],[-160.95145,66.73844],[-160.95208,66.73935],[-160.95531,66.73956],[-160.95641,66.73992],[-160.95662,66.74017],[-160.95658,66.74044],[-160.95568,66.74124],[-160.95436,66.74179],[-160.95347,66.742]]]},"properties":{"fire_id":"ufid:2023-AKGAD-000103","source_collection":"history-2023","source_objectid":20164,"incident_name":"Selawik Lake","mapped_acres":112.6991,"mapped_acres_source":"poly_GISAcres","gis_acres":112.6991,"auto_acres":112.69910206520112,"reported_acres":112.7,"percent_contained":null,"state":"AK","state_wfigs":"US-AK","county":"Northwest Arctic","discovery_time_utc":"2023-06-08T02:58:00Z","perimeter_time_utc":"2023-11-01T21:14:20Z","perimeter_edit_time_utc":"2023-11-01T21:14:21Z","incident_modified_time_utc":"2023-10-31T23:51:45Z","containment_time_utc":"2023-06-08T15:41:00Z","control_time_utc":"2023-06-09T22:19:00Z","fire_out_time_utc":"2023-07-10T19:17:00Z","fire_cause":"Natural","fire_cause_general":"Natural","map_method":"Image Interpretation","source_dataset":"FFP","unique_fire_identifier":"2023-AKGAD-000103","irwin_id":"{EC4D05F6-8670-4575-8F8E-3192BC632079}","global_id":"95ad0152-e7e2-40c4-b203-158adf1a13ab"}}]}
