{"type":"FeatureCollection","features":[{"type":"Feature","geometry":{"type":"MultiPolygon","coordinates":[[[[-151.52691,60.13593],[-151.52665,60.13599],[-151.52674,60.13595],[-151.52658,60.13594],[-151.52654,60.13581],[-151.52867,60.13495],[-151.52889,60.13497],[-151.52691,60.13593]]],[[[-151.52739,60.13545],[-151.52704,60.13555],[-151.52705,60.13546],[-151.52737,60.1353],[-151.52739,60.13545]]],[[[-151.52611,60.13617],[-151.526,60.13616],[-151.52602,60.13603],[-151.52633,60.13617],[-151.52585,60.13631],[-151.52611,60.13617]]]]},"properties":{"fire_id":"ufid:2023-AKKKS-303042","source_collection":"history-2023","source_objectid":17951,"incident_name":"Mile Post 127","mapped_acres":0.8230451,"mapped_acres_source":"poly_GISAcres","gis_acres":0.8230451,"auto_acres":0.8230417621626619,"reported_acres":0.8,"percent_contained":null,"state":"AK","state_wfigs":"US-AK","county":"Kenai Peninsula","discovery_time_utc":"2023-05-15T22:51:55Z","perimeter_time_utc":"2023-09-22T18:20:31Z","perimeter_edit_time_utc":"2023-09-22T18:20:31Z","incident_modified_time_utc":"2023-06-30T03:11:29Z","containment_time_utc":"2023-05-15T23:37:46Z","control_time_utc":"2023-05-16T00:16:33Z","fire_out_time_utc":"2023-05-19T23:33:38Z","fire_cause":"Human","fire_cause_general":"Equipment and vehicle use","map_method":"Mixed Methods","source_dataset":"FFP","unique_fire_identifier":"2023-AKKKS-303042","irwin_id":"{BA2F52A0-E627-4D7D-90CD-26CF66B5D8AB}","global_id":"c7576517-8e8e-4492-8151-a6b330508134"}},{"type":"Feature","geometry":{"type":"Polygon","coordinates":[[[-151.18977,60.50056],[-151.19011,60.50053],[-151.18987,60.50064],[-151.18977,60.50056]]]},"properties":{"fire_id":"ufid:2023-AKKKS-303071","source_collection":"history-2023","source_objectid":17953,"incident_name":"Iditarod","mapped_acres":0.04071405,"mapped_acres_source":"poly_GISAcres","gis_acres":0.04071405,"auto_acres":0.04071388541475274,"reported_acres":0.04,"percent_contained":null,"state":"AK","state_wfigs":"US-AK","county":"Kenai Peninsula","discovery_time_utc":"2023-05-24T05:09:47Z","perimeter_time_utc":"2023-11-01T21:30:35Z","perimeter_edit_time_utc":"2023-11-01T21:30:36Z","incident_modified_time_utc":"2023-10-31T21:54:17Z","containment_time_utc":"2023-05-24T06:10:02Z","control_time_utc":"2023-05-24T06:10:05Z","fire_out_time_utc":"2023-05-27T21:25:42Z","fire_cause":"Human","fire_cause_general":"Recreation and ceremony","map_method":"Mixed Methods","source_dataset":"FFP","unique_fire_identifier":"2023-AKKKS-303071","irwin_id":"{DE854ADE-18E1-480D-9F77-CA879DF90C9E}","global_id":"2d345bf0-46fc-4af1-9c23-23e6dfcc56fe"}},{"type":"Feature","geometry":{"type":"Polygon","coordinates":[[[-151.17435,60.40432],[-151.17437,60.40446],[-151.17416,60.40455],[-151.17395,60.40443],[-151.17403,60.40431],[-151.17417,60.40442],[-151.17415,60.40428],[-151.17435,60.40432]]]},"properties":{"fire_id":"ufid:2023-AKKKS-303063","source_collection":"history-2023","source_objectid":17954,"incident_name":"Charland","mapped_acres":0.1319782,"mapped_acres_source":"poly_GISAcres","gis_acres":0.1319782,"auto_acres":0.13197770260720607,"reported_acres":0.1,"percent_contained":null,"state":"AK","state_wfigs":"US-AK","county":"Kenai Peninsula","discovery_time_utc":"2023-05-22T03:39:44Z","perimeter_time_utc":"2023-07-07T17:18:04Z","perimeter_edit_time_utc":"2023-07-07T17:18:04Z","incident_modified_time_utc":"2023-05-25T22:02:59Z","containment_time_utc":"2023-05-22T04:34:44Z","control_time_utc":"2023-05-22T05:25:46Z","fire_out_time_utc":"2023-05-25T22:02:37Z","fire_cause":"Human","fire_cause_general":"Debris and open burning","map_method":"Mixed Methods","source_dataset":"FFP","unique_fire_identifier":"2023-AKKKS-303063","irwin_id":"{418EF9F7-B612-4919-9E8E-962D776A4A2D}","global_id":"a19eaed8-07e7-4f73-af37-67ec9944b19f"}},{"type":"Feature","geometry":{"type":"Polygon","coordinates":[[[-151.26882,60.52217],[-151.2691,60.52211],[-151.26914,60.52226],[-151.26882,60.52217]]]},"properties":{"fire_id":"ufid:2023-AKKKS-303008","source_collection":"history-2023","source_objectid":17956,"incident_name":"VIP","mapped_acres":0.0560954,"mapped_acres_source":"poly_GISAcres","gis_acres":0.0560954,"auto_acres":0.056095163488846946,"reported_acres":0.1,"percent_contained":null,"state":"AK","state_wfigs":"US-AK","county":"Kenai Peninsula","discovery_time_utc":"2023-04-30T02:36:55Z","perimeter_time_utc":"2023-09-22T18:21:36Z","perimeter_edit_time_utc":"2023-09-22T18:21:36Z","incident_modified_time_utc":"2023-05-12T21:06:28Z","containment_time_utc":"2023-04-30T04:03:54Z","control_time_utc":"2023-04-30T04:03:57Z","fire_out_time_utc":"2023-05-12T21:06:12Z","fire_cause":"Human","fire_cause_general":"Debris and open burning","map_method":"Mixed Methods","source_dataset":"FFP","unique_fire_identifier":"2023-AKKKS-303008","irwin_id":"{AB0A5871-D2EC-4D37-A551-42C27F069106}","global_id":"62c54eaa-7a88-4e05-bf98-aeeb05e0c895"}},{"type":"Feature","geometry":{"type":"Polygon","coordinates":[[[-150.69262,60.52741],[-150.69238,60.52733],[-150.69273,60.52738],[-150.69262,60.52741]]]},"properties":{"fire_id":"ufid:2023-AKKKS-303065","source_collection":"history-2023","source_objectid":20078,"incident_name":"Mile 80","mapped_acres":0.02855452,"mapped_acres_source":"poly_GISAcres","gis_acres":0.02855452,"auto_acres":0.02855440575360794,"reported_acres":0.03,"percent_contained":null,"state":"AK","state_wfigs":"US-AK","county":"Kenai Peninsula","discovery_time_utc":"2023-05-22T12:52:24Z","perimeter_time_utc":"2023-08-23T21:55:09Z","perimeter_edit_time_utc":"2023-08-23T21:55:09Z","incident_modified_time_utc":"2023-05-30T21:56:36Z","containment_time_utc":"2023-05-22T13:13:04Z","control_time_utc":"2023-05-22T13:13:07Z","fire_out_time_utc":"2023-05-28T19:55:02Z","fire_cause":"Human","fire_cause_general":"Equipment and vehicle use","map_method":"Mixed Methods","source_dataset":"FFP","unique_fire_identifier":"2023-AKKKS-303065","irwin_id":"{3242282C-FBDA-44FE-9593-CB9C2C54E01A}","global_id":"fdc07428-bab2-429e-a970-2e304995c16c"}},{"type":"Feature","geometry":{"type":"Polygon","coordinates":[[[-151.06981,60.5462],[-151.07024,60.54619],[-151.06992,60.54628],[-151.06981,60.5462]]]},"properties":{"fire_id":"ufid:2023-AKKKS-303369","source_collection":"history-2023","source_objectid":20922,"incident_name":"Strawberry","mapped_acres":0.1,"mapped_acres_source":"poly_GISAcres","gis_acres":0.1,"auto_acres":0.08886963641900957,"reported_acres":0.1,"percent_contained":null,"state":"AK","state_wfigs":"US-AK","county":"Kenai Peninsula","discovery_time_utc":"2023-08-20T16:24:58Z","perimeter_time_utc":"2023-09-12T16:02:40Z","perimeter_edit_time_utc":"2023-09-12T16:02:40Z","incident_modified_time_utc":"2023-08-24T23:23:38Z","containment_time_utc":"2023-08-20T17:31:48Z","control_time_utc":"2023-08-20T17:31:50Z","fire_out_time_utc":"2023-08-24T23:23:19Z","fire_cause":"Human","fire_cause_general":"Other causes","map_method":"Hand Sketch","source_dataset":"FFP","unique_fire_identifier":"2023-AKKKS-303369","irwin_id":"{54DD8FC7-2C22-45EC-9F0E-85F534CC5C45}","global_id":"d185dbde-497e-4885-a5ac-97e7fccf3da2"}},{"type":"Feature","geometry":{"type":"Polygon","coordinates":[[[-154.59939,64.02656],[-154.59876,64.02656],[-154.59782,64.02631],[-154.59558,64.02617],[-154.59492,64.02629],[-154.59339,64.02567],[-154.59086,64.02522],[-154.58872,64.02462],[-154.5838,64.02408],[-154.58229,64.02382],[-154.58097,64.02341],[-154.57969,64.02325],[-154.57824,64.02327],[-154.57734,64.02349],[-154.57712,64.02391],[-154.57161,64.02445],[-154.57074,64.02467],[-154.57113,64.02518],[-154.57178,64.02566],[-154.57197,64.02632],[-154.57339,64.02777],[-154.57287,64.02817],[-154.57305,64.02853],[-154.5737,64.02893],[-154.57357,64.02953],[-154.57275,64.02943],[-154.57058,64.02808],[-154.56612,64.02614],[-154.56476,64.02614],[-154.56316,64.02638],[-154.56138,64.02585],[-154.5614,64.02544],[-154.56218,64.02505],[-154.56232,64.02463],[-154.56228,64.02422],[-154.56285,64.02394],[-154.56276,64.02351],[-154.55934,64.02253],[-154.55872,64.0222],[-154.5586,64.02162],[-154.55867,64.02112],[-154.56235,64.02174],[-154.56371,64.02183],[-154.56511,64.02185],[-154.56926,64.02153],[-154.57036,64.02169],[-154.57138,64.02162],[-154.5719,64.02137],[-154.57174,64.02097],[-154.57185,64.02036],[-154.57251,64.02023],[-154.57391,64.02032],[-154.57485,64.01963],[-154.57479,64.01923],[-154.57533,64.01895],[-154.57583,64.01922],[-154.57686,64.01948],[-154.58082,64.01999],[-154.58204,64.01998],[-154.58447,64.01972],[-154.58499,64.01978],[-154.58516,64.02058],[-154.58542,64.02093],[-154.58592,64.02093],[-154.58636,64.02127],[-154.58646,64.02202],[-154.58725,64.02232],[-154.58882,64.02263],[-154.59153,64.02339],[-154.59324,64.02401],[-154.59494,64.02403],[-154.60001,64.02547],[-154.60002,64.02615],[-154.59939,64.02656]]]},"properties":{"fire_id":"ufid:2023-AKTAD-000223","source_collection":"history-2023","source_objectid":21313,"incident_name":"Nowitna","mapped_acres":191.3235,"mapped_acres_source":"poly_GISAcres","gis_acres":191.3235,"auto_acres":191.3226483630425,"reported_acres":191.3,"percent_contained":null,"state":"AK","state_wfigs":"US-AK","county":"Yukon-Koyukuk","discovery_time_utc":"2023-07-25T17:17:00Z","perimeter_time_utc":"2023-09-27T17:48:35Z","perimeter_edit_time_utc":"2023-09-27T17:48:36Z","incident_modified_time_utc":"2023-09-21T18:16:56Z","containment_time_utc":"2023-09-21T18:00:00Z","control_time_utc":"2023-09-21T18:00:00Z","fire_out_time_utc":"2023-09-21T18:00:00Z","fire_cause":"Natural","fire_cause_general":"Natural","map_method":"Image Interpretation","source_dataset":"FFP","unique_fire_identifier":"2023-AKTAD-000223","irwin_id":"{BEA41896-ED55-411D-9539-E751C7ADFBE6}","global_id":"5982e287-d110-4d56-b5e1-3337e9bef43c"}},{"type":"Feature","geometry":{"type":"Polygon","coordinates":[[[-154.05701,63.73627],[-154.05654,63.73596],[-154.05407,63.7351],[-154.05376,63.73433],[-154.05263,63.73336],[-154.0522,63.73278],[-154.05151,63.73069],[-154.05162,63.73028],[-154.05357,63.73],[-154.0572,63.72914],[-154.05794,63.72915],[-154.05866,63.72962],[-154.05956,63.73106],[-154.06011,63.73135],[-154.06025,63.73173],[-154.05965,63.73203],[-154.05651,63.73221],[-154.05715,63.7328],[-154.05847,63.7337],[-154.05899,63.73398],[-154.06,63.73415],[-154.06037,63.73447],[-154.06043,63.73481],[-154.0596,63.73497],[-154.05916,63.73523],[-154.05836,63.73535],[-154.05683,63.73526],[-154.05672,63.73551],[-154.05712,63.73577],[-154.05744,63.73619],[-154.05701,63.73627]]]},"properties":{"fire_id":"ufid:2023-AKTAD-000241","source_collection":"history-2023","source_objectid":21578,"incident_name":"Browns","mapped_acres":51.46522,"mapped_acres_source":"poly_GISAcres","gis_acres":51.46522,"auto_acres":51.4650133868798,"reported_acres":51.5,"percent_contained":0.0,"state":"AK","state_wfigs":"US-AK","county":"Yukon-Koyukuk","discovery_time_utc":"2023-07-26T00:20:00Z","perimeter_time_utc":"2023-10-06T16:43:53Z","perimeter_edit_time_utc":"2023-10-06T16:43:53Z","incident_modified_time_utc":"2023-09-21T18:18:55Z","containment_time_utc":"2023-09-21T18:00:00Z","control_time_utc":"2023-09-21T18:00:00Z","fire_out_time_utc":"2023-09-21T18:00:00Z","fire_cause":"Natural","fire_cause_general":null,"map_method":"Image Interpretation","source_dataset":"Decertified","unique_fire_identifier":"2023-AKTAD-000241","irwin_id":"{0BD4A18F-09A1-481D-A2D0-8AE6B0A54523}","global_id":"fb53cee8-65ea-4c69-b547-a0820bf51a46"}},{"type":"Feature","geometry":{"type":"Polygon","coordinates":[[[-152.49017,64.46595],[-152.49115,64.46657],[-152.4912,64.46719],[-152.49263,64.46758],[-152.49332,64.46823],[-152.49415,64.46853],[-152.49449,64.46882],[-152.49466,64.46918],[-152.49453,64.46951],[-152.49309,64.46989],[-152.49185,64.47132],[-152.4915,64.47177],[-152.49123,64.47277],[-152.49027,64.47376],[-152.49016,64.47431],[-152.49025,64.47475],[-152.49085,64.47512],[-152.49162,64.47508],[-152.49214,64.47488],[-152.49289,64.47504],[-152.49367,64.47541],[-152.49391,64.47573],[-152.49382,64.47602],[-152.49316,64.47616],[-152.49259,64.47655],[-152.49309,64.4768],[-152.49604,64.47672],[-152.49651,64.47693],[-152.49681,64.47743],[-152.49689,64.47789],[-152.49764,64.47827],[-152.49797,64.47881],[-152.49731,64.47899],[-152.49726,64.4793],[-152.49939,64.47957],[-152.49949,64.47984],[-152.4994,64.48017],[-152.49979,64.48027],[-152.50191,64.48005],[-152.50211,64.47971],[-152.50399,64.47938],[-152.50603,64.47939],[-152.50758,64.47972],[-152.50749,64.47997],[-152.50613,64.48014],[-152.50616,64.48042],[-152.50654,64.48066],[-152.50602,64.48089],[-152.505,64.48103],[-152.50462,64.48126],[-152.50348,64.48147],[-152.50115,64.48152],[-152.50074,64.4817],[-152.50072,64.48194],[-152.50127,64.48259],[-152.50107,64.48292],[-152.50069,64.48318],[-152.49879,64.48343],[-152.49668,64.48341],[-152.49626,64.48364],[-152.49479,64.48392],[-152.49456,64.48415],[-152.49462,64.48445],[-152.49315,64.48472],[-152.49209,64.48469],[-152.49127,64.48445],[-152.49172,64.48425],[-152.49237,64.48424],[-152.49253,64.48401],[-152.49229,64.48368],[-152.49138,64.48298],[-152.48987,64.48256],[-152.48862,64.48289],[-152.48782,64.48288],[-152.48715,64.48303],[-152.48618,64.48359],[-152.48548,64.48372],[-152.48453,64.48316],[-152.48388,64.48297],[-152.48355,64.48227],[-152.48386,64.48193],[-152.48619,64.48123],[-152.48628,64.48094],[-152.48545,64.48088],[-152.48387,64.48109],[-152.48224,64.48102],[-152.48072,64.48069],[-152.47764,64.48046],[-152.47749,64.47994],[-152.47808,64.47971],[-152.47813,64.47948],[-152.477,64.47873],[-152.47657,64.47796],[-152.47629,64.47776],[-152.47568,64.4777],[-152.47508,64.47799],[-152.47446,64.47801],[-152.47314,64.4774],[-152.47192,64.47703],[-152.47219,64.47678],[-152.47292,64.47679],[-152.47311,64.47659],[-152.47205,64.47604],[-152.47087,64.47569],[-152.47038,64.47518],[-152.46855,64.47476],[-152.46786,64.47472],[-152.46606,64.47511],[-152.46522,64.4751],[-152.4645,64.47493],[-152.46456,64.47457],[-152.46499,64.47394],[-152.46502,64.47278],[-152.46529,64.47242],[-152.46684,64.47134],[-152.46773,64.47108],[-152.46935,64.47142],[-152.46954,64.47125],[-152.46932,64.47065],[-152.46951,64.47034],[-152.47125,64.46992],[-152.47189,64.46958],[-152.47249,64.46979],[-152.47229,64.47012],[-152.47407,64.47018],[-152.475,64.46993],[-152.47556,64.46962],[-152.47606,64.46903],[-152.47676,64.46894],[-152.47692,64.46929],[-152.47667,64.46998],[-152.47575,64.47022],[-152.47477,64.4708],[-152.47265,64.47095],[-152.47163,64.47167],[-152.47066,64.47213],[-152.47031,64.4725],[-152.47081,64.47274],[-152.47265,64.47307],[-152.47796,64.47518],[-152.47941,64.47527],[-152.47978,64.47512],[-152.47917,64.47434],[-152.47929,64.47406],[-152.4796,64.47374],[-152.48089,64.47336],[-152.48166,64.47271],[-152.48269,64.47251],[-152.48425,64.47253],[-152.48473,64.47234],[-152.48576,64.47223],[-152.48642,64.47209],[-152.48696,64.47164],[-152.48683,64.47122],[-152.48579,64.4709],[-152.48523,64.47055],[-152.485,64.47003],[-152.4837,64.46995],[-152.48187,64.47014],[-152.4813,64.46982],[-152.48065,64.46914],[-152.47926,64.46845],[-152.47872,64.46764],[-152.4783,64.46737],[-152.47824,64.46707],[-152.47977,64.46638],[-152.48354,64.46526],[-152.48405,64.46534],[-152.48425,64.46563],[-152.48445,64.46608],[-152.48441,64.46679],[-152.48465,64.46698],[-152.48514,64.46683],[-152.4853,64.46648],[-152.48618,64.46631],[-152.48767,64.46635],[-152.49017,64.46595]]]},"properties":{"fire_id":"ufid:2023-AKTAD-000199","source_collection":"history-2023","source_objectid":21582,"incident_name":"Cosna","mapped_acres":410.9293,"mapped_acres_source":"poly_GISAcres","gis_acres":410.9293,"auto_acres":410.9292185281782,"reported_acres":410.9,"percent_contained":null,"state":"AK","state_wfigs":"US-AK","county":"Yukon-Koyukuk","discovery_time_utc":"2023-07-25T00:24:00Z","perimeter_time_utc":"2023-10-06T16:51:31Z","perimeter_edit_time_utc":"2023-10-06T16:51:32Z","incident_modified_time_utc":"2023-10-05T17:56:27Z","containment_time_utc":"2023-10-05T17:43:00Z","control_time_utc":"2023-10-05T17:43:00Z","fire_out_time_utc":"2023-10-05T17:43:00Z","fire_cause":"Natural","fire_cause_general":"Natural","map_method":"Image Interpretation","source_dataset":"FFP","unique_fire_identifier":"2023-AKTAD-000199","irwin_id":"{4F528518-1A46-4609-A7F0-43E6E1598606}","global_id":"d0117c98-0861-4f81-bcb9-6d263ff04cdf"}},{"type":"Feature","geometry":{"type":"Polygon","coordinates":[[[-152.43,64.5114],[-152.43308,64.51089],[-152.43359,64.51108],[-152.43495,64.51125],[-152.43527,64.51153],[-152.43616,64.51181],[-152.43627,64.51196],[-152.4361,64.51209],[-152.43534,64.51214],[-152.43421,64.51279],[-152.43355,64.51295],[-152.43299,64.51341],[-152.43357,64.51362],[-152.43414,64.51447],[-152.43416,64.51469],[-152.43471,64.51495],[-152.4344,64.51515],[-152.4346,64.5154],[-152.43506,64.51555],[-152.43525,64.5158],[-152.43474,64.51608],[-152.43429,64.51614],[-152.43423,64.51666],[-152.43383,64.51692],[-152.43324,64.51704],[-152.43029,64.51676],[-152.43051,64.51713],[-152.43047,64.5173],[-152.42959,64.51766],[-152.42993,64.51805],[-152.42989,64.5182],[-152.42917,64.51847],[-152.429,64.51882],[-152.42745,64.51905],[-152.42524,64.51884],[-152.42497,64.51895],[-152.42505,64.51911],[-152.42492,64.51927],[-152.42435,64.51943],[-152.42321,64.51934],[-152.42304,64.51919],[-152.42301,64.51865],[-152.4232,64.51829],[-152.42383,64.51766],[-152.42443,64.51759],[-152.42471,64.51726],[-152.42483,64.51609],[-152.42542,64.51516],[-152.426,64.51484],[-152.42647,64.5149],[-152.42716,64.51526],[-152.42811,64.51503],[-152.4279,64.51465],[-152.42806,64.51442],[-152.42877,64.5138],[-152.42962,64.51341],[-152.43058,64.51273],[-152.43042,64.51228],[-152.42985,64.51186],[-152.43,64.5114]]]},"properties":{"fire_id":"ufid:2023-AKTAD-000238","source_collection":"history-2023","source_objectid":21584,"incident_name":"Chitanana","mapped_acres":66.72446,"mapped_acres_source":"poly_GISAcres","gis_acres":66.72446,"auto_acres":66.72445215301639,"reported_acres":66.7,"percent_contained":null,"state":"AK","state_wfigs":"US-AK","county":"Yukon-Koyukuk","discovery_time_utc":"2023-07-25T23:36:00Z","perimeter_time_utc":"2023-10-06T16:44:22Z","perimeter_edit_time_utc":"2023-10-06T16:44:23Z","incident_modified_time_utc":"2023-10-06T00:33:18Z","containment_time_utc":"2023-10-05T17:43:00Z","control_time_utc":"2023-10-05T17:43:00Z","fire_out_time_utc":"2023-10-05T17:43:00Z","fire_cause":"Natural","fire_cause_general":"Natural","map_method":"Image Interpretation","source_dataset":"FFP","unique_fire_identifier":"2023-AKTAD-000238","irwin_id":"{60FF2FEA-9598-48D8-97A1-9407D2C5E762}","global_id":"18aac61c-5ce3-4651-8cb1-b3d2f6fbcac3"}},{"type":"Feature","geometry":{"type":"Polygon","coordinates":[[[-152.59995,64.33495],[-152.5966,64.33519],[-152.5944,64.33497],[-152.59251,64.33447],[-152.59095,64.33445],[-152.5909,64.33464],[-152.58999,64.3356],[-152.58887,64.33627],[-152.58773,64.33648],[-152.58451,64.33639],[-152.57938,64.33681],[-152.57872,64.33701],[-152.57871,64.33727],[-152.57989,64.33822],[-152.58149,64.33896],[-152.58169,64.3392],[-152.58096,64.33933],[-152.57956,64.33918],[-152.57723,64.33927],[-152.57587,64.33971],[-152.5755,64.33995],[-152.57797,64.34057],[-152.57832,64.34078],[-152.57798,64.34098],[-152.57661,64.34081],[-152.57314,64.33992],[-152.57073,64.33897],[-152.56958,64.33866],[-152.56483,64.33813],[-152.55863,64.33803],[-152.55533,64.33817],[-152.55432,64.33805],[-152.55318,64.33765],[-152.55341,64.3374],[-152.55557,64.33764],[-152.55761,64.3375],[-152.56065,64.33684],[-152.56614,64.33639],[-152.56921,64.33593],[-152.56962,64.33573],[-152.56886,64.33488],[-152.56878,64.33445],[-152.56844,64.33398],[-152.56809,64.33303],[-152.56754,64.33312],[-152.56685,64.33382],[-152.5661,64.33429],[-152.56552,64.33447],[-152.56271,64.33477],[-152.55868,64.33563],[-152.55727,64.33565],[-152.55688,64.33539],[-152.55627,64.33539],[-152.55491,64.33575],[-152.5543,64.33568],[-152.55379,64.33486],[-152.55413,64.33457],[-152.55405,64.33402],[-152.55578,64.33355],[-152.55572,64.33325],[-152.55621,64.33286],[-152.55797,64.33242],[-152.55835,64.33218],[-152.55851,64.3318],[-152.55802,64.33145],[-152.55792,64.33067],[-152.55847,64.33048],[-152.55835,64.33006],[-152.55658,64.32851],[-152.55659,64.32821],[-152.55793,64.32831],[-152.55866,64.32818],[-152.55934,64.32765],[-152.56022,64.32744],[-152.5613,64.32747],[-152.56172,64.32777],[-152.56184,64.32824],[-152.56161,64.32862],[-152.56159,64.32902],[-152.56186,64.32935],[-152.56232,64.32964],[-152.56311,64.3296],[-152.56406,64.32949],[-152.56503,64.32906],[-152.56504,64.32804],[-152.5655,64.32748],[-152.56651,64.32698],[-152.56679,64.32702],[-152.56694,64.32765],[-152.56748,64.32784],[-152.56827,64.32789],[-152.56998,64.32774],[-152.57061,64.32751],[-152.57356,64.32708],[-152.57456,64.32678],[-152.57521,64.32678],[-152.5756,64.32696],[-152.5759,64.32735],[-152.57647,64.32828],[-152.57649,64.32866],[-152.57721,64.32879],[-152.58015,64.328],[-152.58124,64.32718],[-152.58194,64.32688],[-152.58252,64.32679],[-152.58285,64.32685],[-152.58312,64.32717],[-152.58332,64.32749],[-152.58327,64.32783],[-152.58378,64.32848],[-152.58576,64.32868],[-152.58624,64.32852],[-152.58595,64.32781],[-152.58543,64.32725],[-152.58502,64.32694],[-152.58339,64.32617],[-152.5833,64.32581],[-152.58371,64.32556],[-152.58379,64.32534],[-152.58357,64.32478],[-152.58366,64.32442],[-152.58392,64.32415],[-152.58587,64.32353],[-152.58656,64.32344],[-152.58677,64.32366],[-152.58617,64.32419],[-152.58674,64.32427],[-152.58752,64.32398],[-152.58949,64.32354],[-152.58984,64.32375],[-152.58958,64.32408],[-152.58858,64.32443],[-152.58863,64.32492],[-152.58919,64.32523],[-152.5904,64.32562],[-152.59117,64.32561],[-152.59136,64.3253],[-152.5911,64.324],[-152.59144,64.32377],[-152.59304,64.32351],[-152.59426,64.32298],[-152.59488,64.3229],[-152.59542,64.32299],[-152.5961,64.32386],[-152.59668,64.32397],[-152.5977,64.32373],[-152.59843,64.32372],[-152.59882,64.32385],[-152.59889,64.32402],[-152.59876,64.32429],[-152.59735,64.32512],[-152.59696,64.32554],[-152.59676,64.32595],[-152.59688,64.32647],[-152.59668,64.32693],[-152.59666,64.3274],[-152.59544,64.32793],[-152.59546,64.32819],[-152.59735,64.32879],[-152.60088,64.32923],[-152.60219,64.32974],[-152.6026,64.3302],[-152.60276,64.3308],[-152.60248,64.3313],[-152.60045,64.33197],[-152.59928,64.33298],[-152.59915,64.33346],[-152.59927,64.33393],[-152.59995,64.33495]]]},"properties":{"fire_id":"ufid:2023-AKTAD-000225","source_collection":"history-2023","source_objectid":21586,"incident_name":"Titna","mapped_acres":585.3097,"mapped_acres_source":"poly_GISAcres","gis_acres":585.3097,"auto_acres":585.3095937877625,"reported_acres":585.3,"percent_contained":null,"state":"AK","state_wfigs":"US-AK","county":"Yukon-Koyukuk","discovery_time_utc":"2023-07-25T17:25:00Z","perimeter_time_utc":"2023-10-06T16:48:14Z","perimeter_edit_time_utc":"2023-10-06T16:48:15Z","incident_modified_time_utc":"2023-10-05T17:54:47Z","containment_time_utc":"2023-10-05T17:43:00Z","control_time_utc":"2023-10-05T17:43:00Z","fire_out_time_utc":"2023-10-05T17:43:00Z","fire_cause":"Natural","fire_cause_general":"Natural","map_method":"Image Interpretation","source_dataset":"FFP","unique_fire_identifier":"2023-AKTAD-000225","irwin_id":"{4B5C64EF-E5EF-4BD7-876B-60F4FB4D2C41}","global_id":"fe80f513-a47d-4b47-989a-6d00e8190ae9"}},{"type":"Feature","geometry":{"type":"Polygon","coordinates":[[[-150.49923,64.85804],[-150.4968,64.85796],[-150.49714,64.8578],[-150.49597,64.85748],[-150.49491,64.85769],[-150.49391,64.85837],[-150.49344,64.85846],[-150.49273,64.85834],[-150.49265,64.85815],[-150.49335,64.85773],[-150.49564,64.85688],[-150.49581,64.85672],[-150.49612,64.85662],[-150.49699,64.85671],[-150.49721,64.85656],[-150.49657,64.85628],[-150.4959,64.85625],[-150.49535,64.85642],[-150.49434,64.85647],[-150.49268,64.85746],[-150.4921,64.85762],[-150.49079,64.85832],[-150.4886,64.85846],[-150.48727,64.8582],[-150.48661,64.85831],[-150.48592,64.8586],[-150.48546,64.85834],[-150.48554,64.85798],[-150.48477,64.85772],[-150.48546,64.85688],[-150.486,64.85658],[-150.48575,64.85633],[-150.48409,64.8562],[-150.48275,64.85635],[-150.4821,64.85618],[-150.48233,64.85595],[-150.48412,64.85543],[-150.48445,64.85509],[-150.48404,64.85484],[-150.48375,64.85434],[-150.48494,64.85393],[-150.4837,64.85366],[-150.48249,64.85367],[-150.48099,64.85409],[-150.47994,64.85459],[-150.47955,64.85456],[-150.47951,64.85438],[-150.47967,64.85413],[-150.48027,64.85356],[-150.48003,64.85319],[-150.47975,64.85301],[-150.47781,64.85297],[-150.47742,64.85285],[-150.47882,64.85196],[-150.48253,64.85154],[-150.48338,64.85111],[-150.48337,64.85083],[-150.48365,64.85066],[-150.4856,64.85049],[-150.48545,64.85032],[-150.48427,64.85016],[-150.48228,64.85014],[-150.48076,64.85045],[-150.47967,64.85046],[-150.47926,64.85019],[-150.47929,64.84996],[-150.47853,64.84982],[-150.47788,64.8499],[-150.47667,64.84942],[-150.47651,64.84902],[-150.47418,64.84878],[-150.47394,64.8485],[-150.47421,64.84836],[-150.47488,64.84838],[-150.47507,64.84818],[-150.47545,64.84813],[-150.47645,64.84823],[-150.47664,64.8483],[-150.47666,64.84843],[-150.47729,64.8485],[-150.47876,64.84838],[-150.47912,64.8477],[-150.4767,64.84776],[-150.4753,64.84719],[-150.47527,64.84695],[-150.47595,64.84669],[-150.4772,64.84675],[-150.47824,64.84657],[-150.47865,64.84662],[-150.47894,64.84687],[-150.47952,64.84701],[-150.48149,64.84675],[-150.48203,64.84643],[-150.48184,64.84634],[-150.48087,64.84651],[-150.48078,64.84617],[-150.48022,64.84586],[-150.48015,64.8456],[-150.48066,64.84545],[-150.48151,64.84585],[-150.48311,64.84568],[-150.48347,64.84599],[-150.48401,64.84568],[-150.48521,64.84563],[-150.48567,64.84592],[-150.48563,64.84623],[-150.4863,64.84642],[-150.48657,64.84672],[-150.48698,64.84683],[-150.48745,64.84685],[-150.48788,64.84667],[-150.49028,64.84666],[-150.49168,64.84724],[-150.49286,64.84695],[-150.49503,64.84737],[-150.49519,64.8476],[-150.49497,64.84784],[-150.49389,64.84818],[-150.49453,64.84849],[-150.49521,64.84856],[-150.4953,64.84878],[-150.49512,64.84905],[-150.49451,64.84941],[-150.49488,64.84962],[-150.49698,64.84907],[-150.49782,64.84857],[-150.49763,64.84794],[-150.49813,64.84785],[-150.49909,64.84809],[-150.49937,64.84828],[-150.49915,64.84853],[-150.49965,64.84861],[-150.50012,64.84837],[-150.5002,64.84815],[-150.50059,64.84803],[-150.50232,64.84817],[-150.50279,64.84843],[-150.50339,64.8485],[-150.50629,64.84859],[-150.50655,64.8488],[-150.50654,64.84906],[-150.50637,64.84928],[-150.5042,64.85017],[-150.50382,64.8508],[-150.50415,64.85121],[-150.50587,64.8514],[-150.50661,64.85097],[-150.50706,64.85135],[-150.50756,64.8515],[-150.50937,64.8517],[-150.50951,64.85184],[-150.50875,64.85221],[-150.50877,64.85261],[-150.5086,64.85305],[-150.51019,64.85305],[-150.51093,64.85266],[-150.51303,64.85198],[-150.51354,64.85212],[-150.51343,64.85244],[-150.51361,64.85249],[-150.51529,64.85244],[-150.51568,64.85254],[-150.51613,64.85292],[-150.51583,64.85309],[-150.51576,64.85362],[-150.5161,64.85395],[-150.51614,64.8542],[-150.51648,64.85466],[-150.51731,64.85504],[-150.51738,64.85528],[-150.51636,64.85569],[-150.51507,64.85558],[-150.51458,64.85534],[-150.51272,64.85365],[-150.51205,64.85338],[-150.50964,64.85349],[-150.50768,64.8538],[-150.50608,64.85375],[-150.50492,64.85336],[-150.50363,64.85329],[-150.50287,64.85345],[-150.50284,64.85374],[-150.50308,64.85405],[-150.50306,64.85442],[-150.50259,64.85462],[-150.50134,64.85481],[-150.50163,64.85518],[-150.50273,64.85555],[-150.5031,64.85581],[-150.50321,64.85607],[-150.50263,64.85634],[-150.50203,64.85647],[-150.50139,64.85644],[-150.50073,64.85627],[-150.50025,64.8559],[-150.50002,64.85554],[-150.49966,64.8559],[-150.49951,64.85555],[-150.4989,64.85542],[-150.49848,64.85557],[-150.4989,64.85604],[-150.49963,64.85618],[-150.49976,64.85662],[-150.49933,64.8571],[-150.49877,64.85737],[-150.4989,64.85764],[-150.49933,64.85782],[-150.49923,64.85804]]]},"properties":{"fire_id":"ufid:2023-AKTAD-000227","source_collection":"history-2023","source_objectid":21660,"incident_name":"Mooseheart","mapped_acres":340.6487,"mapped_acres_source":"poly_GISAcres","gis_acres":340.6487,"auto_acres":340.64865634673373,"reported_acres":340.6,"percent_contained":null,"state":"AK","state_wfigs":"US-AK","county":"Yukon-Koyukuk","discovery_time_utc":"2023-07-25T20:22:00Z","perimeter_time_utc":"2023-10-11T18:09:17Z","perimeter_edit_time_utc":"2023-10-11T18:09:17Z","incident_modified_time_utc":"2023-10-06T00:13:27Z","containment_time_utc":"2023-10-05T17:43:00Z","control_time_utc":"2023-10-05T17:43:00Z","fire_out_time_utc":"2023-10-05T17:43:00Z","fire_cause":"Natural","fire_cause_general":"Natural","map_method":"Image Interpretation","source_dataset":"FFP","unique_fire_identifier":"2023-AKTAD-000227","irwin_id":"{E77D4ED2-9C28-404A-A1C3-558D855C480B}","global_id":"1c1641ed-f1c1-49ab-9a02-cc621e1c3b45"}},{"type":"Feature","geometry":{"type":"Polygon","coordinates":[[[-151.35395,64.58505],[-151.35352,64.58501],[-151.35342,64.58491],[-151.35347,64.5847],[-151.35429,64.58467],[-151.35643,64.58424],[-151.35756,64.58457],[-151.35769,64.58485],[-151.35756,64.58518],[-151.35659,64.58554],[-151.35617,64.58541],[-151.35554,64.58493],[-151.35511,64.58484],[-151.35395,64.58505]]]},"properties":{"fire_id":"ufid:2023-AKTAD-000237","source_collection":"history-2023","source_objectid":21870,"incident_name":"Zitziana","mapped_acres":3.712075,"mapped_acres_source":"poly_GISAcres","gis_acres":3.712075,"auto_acres":3.712059504170603,"reported_acres":3.7,"percent_contained":null,"state":"AK","state_wfigs":"US-AK","county":"Yukon-Koyukuk","discovery_time_utc":"2023-07-25T23:20:00Z","perimeter_time_utc":"2023-10-19T19:46:45Z","perimeter_edit_time_utc":"2023-10-19T19:46:46Z","incident_modified_time_utc":"2023-10-06T00:29:34Z","containment_time_utc":"2023-10-05T17:43:00Z","control_time_utc":"2023-10-05T17:43:00Z","fire_out_time_utc":"2023-10-05T17:43:00Z","fire_cause":"Natural","fire_cause_general":"Natural","map_method":"Mixed Methods","source_dataset":"FFP","unique_fire_identifier":"2023-AKTAD-000237","irwin_id":"{4D10C9D0-355D-458E-B118-208720322E80}","global_id":"69011ef5-6286-407b-b96b-2c5cd4190fc4"}},{"type":"Feature","geometry":{"type":"Polygon","coordinates":[[[-150.24682,64.06567],[-150.24561,64.06523],[-150.24476,64.06534],[-150.24385,64.06606],[-150.24358,64.06672],[-150.2425,64.06711],[-150.24142,64.06708],[-150.24046,64.0669],[-150.23979,64.06645],[-150.23935,64.06569],[-150.23954,64.06491],[-150.23991,64.06421],[-150.2402,64.06403],[-150.2409,64.064],[-150.24178,64.06268],[-150.24237,64.0623],[-150.24224,64.06196],[-150.24249,64.06152],[-150.24399,64.06079],[-150.24505,64.05972],[-150.24541,64.05955],[-150.24633,64.05966],[-150.24679,64.05909],[-150.24754,64.05893],[-150.24906,64.05904],[-150.2497,64.05932],[-150.25116,64.05958],[-150.25194,64.06029],[-150.25599,64.06073],[-150.25829,64.0612],[-150.25852,64.06158],[-150.25861,64.06224],[-150.25944,64.06279],[-150.26145,64.06328],[-150.26162,64.06404],[-150.26142,64.06439],[-150.26102,64.06449],[-150.25933,64.06448],[-150.25722,64.06495],[-150.25546,64.06514],[-150.25479,64.06477],[-150.25263,64.06437],[-150.25096,64.06459],[-150.2503,64.06486],[-150.25016,64.06564],[-150.24974,64.06595],[-150.24935,64.06606],[-150.24912,64.06635],[-150.24909,64.06688],[-150.25064,64.06694],[-150.25175,64.06662],[-150.25353,64.06752],[-150.25348,64.06811],[-150.25367,64.06828],[-150.25453,64.06851],[-150.25673,64.0687],[-150.25749,64.0689],[-150.25862,64.06987],[-150.25944,64.07019],[-150.25954,64.07041],[-150.25895,64.07062],[-150.25811,64.07071],[-150.25764,64.07096],[-150.2574,64.07115],[-150.25724,64.07178],[-150.25702,64.07201],[-150.25544,64.07193],[-150.2548,64.07166],[-150.25493,64.07146],[-150.2549,64.07115],[-150.25156,64.0707],[-150.25074,64.07076],[-150.25008,64.07115],[-150.25002,64.07162],[-150.25012,64.07194],[-150.25046,64.07215],[-150.25047,64.07258],[-150.25076,64.07305],[-150.25155,64.07323],[-150.2515,64.07351],[-150.25045,64.0735],[-150.24888,64.07315],[-150.24737,64.07193],[-150.24686,64.07128],[-150.24602,64.07104],[-150.24596,64.07065],[-150.2461,64.07007],[-150.24664,64.06953],[-150.2465,64.06927],[-150.24653,64.06897],[-150.24591,64.06858],[-150.24569,64.06817],[-150.24576,64.06767],[-150.24723,64.06695],[-150.24744,64.06657],[-150.24745,64.0663],[-150.24682,64.06567]]]},"properties":{"fire_id":"ufid:2023-AKTAD-000347","source_collection":"history-2023","source_objectid":21873,"incident_name":"Chitsia","mapped_acres":200.6378,"mapped_acres_source":"poly_GISAcres","gis_acres":200.6378,"auto_acres":200.63696863436587,"reported_acres":200.64,"percent_contained":null,"state":"AK","state_wfigs":"US-AK","county":"Denali","discovery_time_utc":"2023-08-06T23:44:00Z","perimeter_time_utc":"2023-10-19T19:50:32Z","perimeter_edit_time_utc":"2023-10-19T19:50:33Z","incident_modified_time_utc":"2023-10-05T17:53:26Z","containment_time_utc":"2023-10-05T17:43:00Z","control_time_utc":"2023-10-05T17:43:00Z","fire_out_time_utc":"2023-10-05T17:43:00Z","fire_cause":"Natural","fire_cause_general":"Natural","map_method":"Image Interpretation","source_dataset":"FFP","unique_fire_identifier":"2023-AKTAD-000347","irwin_id":"{9C765B9C-1AA9-4892-BAF4-29A798FD24D8}","global_id":"96fb3a9b-c160-47af-9d15-c2305c7841a5"}},{"type":"Feature","geometry":{"type":"Polygon","coordinates":[[[-150.06485,64.04203],[-150.0642,64.04111],[-150.06415,64.04035],[-150.0639,64.03982],[-150.06328,64.03968],[-150.06239,64.0403],[-150.06107,64.0405],[-150.06012,64.04094],[-150.05945,64.0419],[-150.05887,64.04237],[-150.05791,64.04262],[-150.05639,64.04264],[-150.05495,64.04221],[-150.05397,64.04124],[-150.05326,64.04106],[-150.05339,64.04071],[-150.05371,64.04058],[-150.05199,64.03965],[-150.05028,64.03943],[-150.04999,64.03917],[-150.05021,64.03873],[-150.04925,64.03844],[-150.04941,64.03801],[-150.05161,64.03783],[-150.054,64.03804],[-150.05448,64.03749],[-150.05454,64.03685],[-150.05372,64.03669],[-150.05253,64.03609],[-150.05245,64.03568],[-150.0532,64.03534],[-150.05472,64.03494],[-150.05448,64.03449],[-150.05185,64.03468],[-150.05058,64.03443],[-150.05021,64.03359],[-150.05074,64.03302],[-150.05073,64.03274],[-150.05024,64.03174],[-150.05026,64.03117],[-150.04967,64.03073],[-150.05039,64.03027],[-150.05089,64.02919],[-150.05011,64.02887],[-150.04892,64.02884],[-150.04464,64.02273],[-150.04437,64.01848],[-150.04448,64.01357],[-150.04473,64.01263],[-150.04559,64.01228],[-150.04668,64.01145],[-150.04667,64.01094],[-150.04543,64.01002],[-150.0459,64.00826],[-150.04787,64.00518],[-150.04846,64.00384],[-150.04907,64.00342],[-150.04917,64.0022],[-150.0493,64.0019],[-150.05207,64.00013],[-150.05286,63.99903],[-150.0528,63.99838],[-150.05381,63.99749],[-150.05415,63.99661],[-150.0538,63.99577],[-150.05372,63.99521],[-150.05436,63.99485],[-150.05529,63.99461],[-150.05657,63.99376],[-150.05699,63.99311],[-150.05883,63.99213],[-150.06064,63.99203],[-150.06499,63.98867],[-150.06918,63.9868],[-150.07162,63.9862],[-150.07177,63.9857],[-150.07164,63.98484],[-150.07257,63.9842],[-150.07358,63.9839],[-150.07427,63.98403],[-150.0747,63.98448],[-150.07659,63.98367],[-150.07818,63.98235],[-150.07939,63.98208],[-150.08038,63.98216],[-150.08063,63.98286],[-150.08119,63.98317],[-150.08118,63.98346],[-150.08245,63.98328],[-150.08295,63.98289],[-150.08336,63.98211],[-150.08455,63.98248],[-150.08516,63.98215],[-150.08584,63.98149],[-150.08633,63.98147],[-150.08672,63.9816],[-150.08669,63.982],[-150.08591,63.98326],[-150.08594,63.98364],[-150.08672,63.98395],[-150.08768,63.98406],[-150.08969,63.98368],[-150.09,63.98338],[-150.08978,63.98298],[-150.08843,63.98238],[-150.08832,63.98197],[-150.08853,63.98163],[-150.0893,63.98115],[-150.09033,63.98156],[-150.09068,63.98217],[-150.09128,63.98275],[-150.09126,63.98349],[-150.09151,63.98414],[-150.09132,63.98473],[-150.0908,63.98523],[-150.09066,63.9857],[-150.09173,63.9853],[-150.09264,63.9847],[-150.09239,63.984],[-150.0923,63.98326],[-150.09282,63.98307],[-150.09381,63.98298],[-150.0956,63.98229],[-150.09851,63.98279],[-150.09915,63.98304],[-150.09976,63.98347],[-150.09937,63.9841],[-150.09933,63.98446],[-150.10039,63.98465],[-150.10094,63.98508],[-150.10074,63.98567],[-150.10086,63.98616],[-150.10167,63.98661],[-150.10212,63.98631],[-150.10231,63.98577],[-150.10282,63.98562],[-150.10398,63.98565],[-150.10397,63.98626],[-150.10476,63.98597],[-150.1053,63.98616],[-150.10573,63.98662],[-150.10568,63.98698],[-150.10606,63.98727],[-150.10728,63.98715],[-150.10779,63.98697],[-150.10767,63.9869],[-150.10911,63.98676],[-150.10966,63.98609],[-150.11146,63.98606],[-150.11336,63.98646],[-150.11373,63.98769],[-150.11362,63.98811],[-150.11195,63.98871],[-150.11217,63.98921],[-150.11281,63.9897],[-150.11295,63.9908],[-150.11384,63.99172],[-150.11437,63.99204],[-150.11549,63.99217],[-150.11676,63.99199],[-150.11742,63.99136],[-150.1189,63.99078],[-150.11913,63.99045],[-150.1172,63.98979],[-150.11658,63.9894],[-150.11663,63.98866],[-150.11689,63.98831],[-150.12173,63.98738],[-150.12289,63.98758],[-150.12403,63.98751],[-150.12481,63.98691],[-150.12554,63.98681],[-150.12591,63.9878],[-150.12595,63.98862],[-150.12625,63.98923],[-150.12683,63.98974],[-150.12689,63.99081],[-150.12644,63.99144],[-150.1268,63.99201],[-150.12766,63.99223],[-150.12673,63.99269],[-150.12551,63.9921],[-150.1247,63.99186],[-150.12442,63.99234],[-150.12519,63.99286],[-150.12546,63.99357],[-150.12513,63.99443],[-150.12534,63.99466],[-150.12499,63.99491],[-150.12535,63.9951],[-150.12865,63.99415],[-150.131,63.99372],[-150.13455,63.99405],[-150.13394,63.99547],[-150.13314,63.99583],[-150.13296,63.99634],[-150.13349,63.99694],[-150.13441,63.99763],[-150.13363,63.99841],[-150.13333,63.99902],[-150.13241,63.99922],[-150.13202,63.99957],[-150.13488,63.99999],[-150.13559,64.0002],[-150.13859,64.00187],[-150.13799,64.00228],[-150.13696,64.0025],[-150.13635,64.00282],[-150.13655,64.00342],[-150.1387,64.00374],[-150.1406,64.00374],[-150.14418,64.00295],[-150.1456,64.002],[-150.14676,64.00275],[-150.14801,64.00324],[-150.14905,64.00383],[-150.14812,64.00414],[-150.14663,64.00582],[-150.14542,64.00757],[-150.14496,64.00995],[-150.1418,64.01159],[-150.14163,64.01201],[-150.14193,64.01233],[-150.14485,64.01224],[-150.14731,64.01198],[-150.1485,64.01287],[-150.14753,64.01493],[-150.14721,64.01515],[-150.14706,64.01552],[-150.14531,64.0166],[-150.14421,64.01812],[-150.1446,64.01869],[-150.14573,64.01937],[-150.14498,64.01969],[-150.14503,64.01986],[-150.14416,64.02078],[-150.14344,64.02208],[-150.14507,64.02247],[-150.14491,64.02292],[-150.1456,64.02319],[-150.14495,64.02439],[-150.14537,64.0247],[-150.14653,64.0248],[-150.14729,64.02516],[-150.14856,64.02609],[-150.14976,64.02645],[-150.15174,64.02659],[-150.15129,64.02675],[-150.15139,64.02726],[-150.15288,64.02849],[-150.15385,64.02874],[-150.15501,64.02878],[-150.1554,64.02892],[-150.15523,64.03043],[-150.15505,64.03098],[-150.15241,64.03207],[-150.151,64.03224],[-150.15037,64.0327],[-150.15031,64.03316],[-150.15281,64.03374],[-150.15447,64.03454],[-150.15576,64.03491],[-150.15575,64.03554],[-150.15637,64.03721],[-150.15662,64.03857],[-150.15733,64.03951],[-150.15662,64.04093],[-150.15715,64.04111],[-150.15736,64.0416],[-150.15732,64.04192],[-150.15678,64.04231],[-150.1561,64.04224],[-150.15351,64.04133],[-150.15099,64.04128],[-150.14894,64.04141],[-150.14781,64.04194],[-150.14762,64.04276],[-150.14801,64.04332],[-150.14928,64.04392],[-150.15026,64.04414],[-150.1541,64.04413],[-150.15383,64.04468],[-150.15248,64.04481],[-150.15138,64.04554],[-150.1533,64.04573],[-150.15414,64.04643],[-150.1546,64.04707],[-150.15482,64.04763],[-150.15649,64.04835],[-150.157,64.04907],[-150.1583,64.04945],[-150.16225,64.04963],[-150.1626,64.04986],[-150.1613,64.05018],[-150.16103,64.05081],[-150.16162,64.05131],[-150.16226,64.05158],[-150.16352,64.0533],[-150.16183,64.05342],[-150.16143,64.0539],[-150.16275,64.05499],[-150.16317,64.05564],[-150.16309,64.0562],[-150.16364,64.05673],[-150.16512,64.05696],[-150.16663,64.05702],[-150.16828,64.05685],[-150.16934,64.05629],[-150.17016,64.05629],[-150.17114,64.05702],[-150.17107,64.05731],[-150.17251,64.05811],[-150.17255,64.05867],[-150.17305,64.0592],[-150.17404,64.05927],[-150.18202,64.06185],[-150.18345,64.06298],[-150.1861,64.0639],[-150.1888,64.06523],[-150.19011,64.06534],[-150.19047,64.06463],[-150.19096,64.06473],[-150.19286,64.06564],[-150.19276,64.06611],[-150.19468,64.06683],[-150.19569,64.06664],[-150.19614,64.06607],[-150.19678,64.06564],[-150.19678,64.06533],[-150.19732,64.06517],[-150.19733,64.06501],[-150.19836,64.06473],[-150.19922,64.06465],[-150.20056,64.06478],[-150.20122,64.06505],[-150.20116,64.06553],[-150.20092,64.06597],[-150.19984,64.06677],[-150.20018,64.06739],[-150.20021,64.06788],[-150.20055,64.06799],[-150.20179,64.07094],[-150.20161,64.07143],[-150.20163,64.0721],[-150.2031,64.07224],[-150.20475,64.0735],[-150.20676,64.07516],[-150.20633,64.07585],[-150.20675,64.07617],[-150.20757,64.07634],[-150.20956,64.0763],[-150.21076,64.07653],[-150.21138,64.07792],[-150.21223,64.07814],[-150.2132,64.07878],[-150.21317,64.07915],[-150.21274,64.07943],[-150.2128,64.07952],[-150.21215,64.08003],[-150.21127,64.08115],[-150.21051,64.08177],[-150.20862,64.08167],[-150.20633,64.08088],[-150.20479,64.08096],[-150.20426,64.0817],[-150.20491,64.08213],[-150.20628,64.08227],[-150.20838,64.08329],[-150.20946,64.08273],[-150.21059,64.0828],[-150.21081,64.08318],[-150.21061,64.08386],[-150.21068,64.08418],[-150.21195,64.08409],[-150.21401,64.08431],[-150.21718,64.08512],[-150.21781,64.0854],[-150.21813,64.08507],[-150.21902,64.08466],[-150.21989,64.08448],[-150.2203,64.08486],[-150.22016,64.08533],[-150.22082,64.08549],[-150.22107,64.08589],[-150.221,64.0862],[-150.22168,64.08616],[-150.22261,64.08555],[-150.22351,64.0861],[-150.22365,64.0865],[-150.22361,64.08681],[-150.22269,64.08701],[-150.22222,64.08745],[-150.22345,64.08767],[-150.22645,64.08788],[-150.2271,64.08842],[-150.22892,64.08929],[-150.23065,64.08958],[-150.23251,64.08971],[-150.23589,64.08928],[-150.23689,64.08971],[-150.2369,64.09009],[-150.23403,64.09039],[-150.23535,64.09068],[-150.23614,64.09071],[-150.24015,64.09227],[-150.241,64.09282],[-150.24213,64.09437],[-150.24207,64.0949],[-150.24336,64.09545],[-150.24586,64.09605],[-150.24931,64.09759],[-150.2508,64.09809],[-150.2534,64.09995],[-150.25477,64.10128],[-150.25668,64.10182],[-150.25864,64.10291],[-150.25972,64.10294],[-150.26067,64.10315],[-150.26173,64.10362],[-150.26192,64.10404],[-150.26137,64.10447],[-150.2598,64.10488],[-150.26024,64.10527],[-150.2599,64.10701],[-150.26095,64.1084],[-150.25994,64.10906],[-150.26024,64.10989],[-150.25946,64.11022],[-150.26017,64.11085],[-150.26166,64.11128],[-150.26289,64.11194],[-150.26345,64.1126],[-150.26276,64.1129],[-150.26284,64.11338],[-150.26303,64.11364],[-150.26405,64.11386],[-150.26433,64.11471],[-150.26588,64.11554],[-150.26598,64.11599],[-150.26483,64.11584],[-150.264,64.11492],[-150.26338,64.11508],[-150.26385,64.11608],[-150.26366,64.11736],[-150.26484,64.11834],[-150.26625,64.11856],[-150.26754,64.11854],[-150.26865,64.11969],[-150.27006,64.12005],[-150.27115,64.12071],[-150.27128,64.1216],[-150.27149,64.12171],[-150.27119,64.1221],[-150.27263,64.12292],[-150.2759,64.12403],[-150.27724,64.12432],[-150.27839,64.12498],[-150.28009,64.1262],[-150.28038,64.1275],[-150.28413,64.13044],[-150.2884,64.13406],[-150.28859,64.13543],[-150.28821,64.13618],[-150.28946,64.13741],[-150.29004,64.13816],[-150.28951,64.13879],[-150.28875,64.13852],[-150.28817,64.13777],[-150.28731,64.13704],[-150.28511,64.13694],[-150.2851,64.13705],[-150.28374,64.13787],[-150.28249,64.13734],[-150.28186,64.13691],[-150.28114,64.13684],[-150.28109,64.1375],[-150.28077,64.13795],[-150.27941,64.13878],[-150.27838,64.13807],[-150.27819,64.13858],[-150.2786,64.13942],[-150.281,64.14174],[-150.28108,64.14266],[-150.28044,64.14305],[-150.28142,64.14365],[-150.2826,64.14514],[-150.28302,64.14531],[-150.28348,64.14577],[-150.28429,64.14684],[-150.28415,64.14726],[-150.28536,64.14827],[-150.28914,64.14963],[-150.29111,64.15071],[-150.29292,64.15088],[-150.29666,64.15292],[-150.29446,64.15282],[-150.2974,64.15456],[-150.29977,64.1551],[-150.3008,64.15481],[-150.30321,64.15516],[-150.30407,64.15673],[-150.30553,64.15728],[-150.30706,64.15699],[-150.30517,64.15633],[-150.30533,64.15595],[-150.30618,64.15589],[-150.30684,64.15601],[-150.30788,64.15656],[-150.30909,64.15628],[-150.31158,64.1562],[-150.31306,64.15593],[-150.315,64.15611],[-150.31737,64.15602],[-150.31963,64.1564],[-150.32116,64.15638],[-150.32119,64.15572],[-150.32051,64.15482],[-150.31841,64.1532],[-150.31915,64.1527],[-150.32064,64.15249],[-150.32508,64.15341],[-150.32627,64.15348],[-150.33243,64.15145],[-150.33403,64.15171],[-150.33569,64.15236],[-150.33695,64.15222],[-150.33778,64.15187],[-150.33963,64.15197],[-150.34172,64.15148],[-150.3421,64.15112],[-150.34282,64.15084],[-150.34486,64.15067],[-150.34656,64.1515],[-150.34835,64.15203],[-150.34804,64.15232],[-150.3461,64.15202],[-150.34514,64.15205],[-150.34443,64.1523],[-150.34489,64.15271],[-150.34576,64.15292],[-150.34709,64.15403],[-150.34655,64.15427],[-150.34565,64.15427],[-150.34415,64.15455],[-150.34218,64.15411],[-150.34154,64.15383],[-150.34084,64.15401],[-150.34069,64.1543],[-150.34143,64.15468],[-150.34267,64.15508],[-150.34309,64.15557],[-150.35014,64.15613],[-150.35155,64.15566],[-150.35273,64.15564],[-150.36124,64.15641],[-150.36166,64.15674],[-150.36256,64.15693],[-150.36287,64.15729],[-150.35723,64.15744],[-150.35328,64.15728],[-150.35106,64.15685],[-150.35152,64.15722],[-150.35253,64.15758],[-150.35687,64.15841],[-150.3582,64.15888],[-150.35859,64.15923],[-150.36013,64.15935],[-150.36027,64.15976],[-150.35966,64.16005],[-150.34531,64.15963],[-150.34388,64.15932],[-150.34129,64.15901],[-150.33543,64.15916],[-150.33071,64.16039],[-150.32943,64.16061],[-150.32908,64.16096],[-150.32933,64.16135],[-150.32913,64.16169],[-150.32816,64.16177],[-150.32474,64.16146],[-150.32368,64.16167],[-150.32331,64.162],[-150.32266,64.16211],[-150.3217,64.16188],[-150.32143,64.16153],[-150.32205,64.16095],[-150.32094,64.16034],[-150.31539,64.1596],[-150.3065,64.15891],[-150.30386,64.15883],[-150.30279,64.15886],[-150.30231,64.15917],[-150.30135,64.15947],[-150.30151,64.15991],[-150.30352,64.16133],[-150.30444,64.16152],[-150.30569,64.16201],[-150.30606,64.16231],[-150.30694,64.16231],[-150.30781,64.16253],[-150.30721,64.16323],[-150.30544,64.16343],[-150.30523,64.16378],[-150.30634,64.16379],[-150.30672,64.1645],[-150.30656,64.1649],[-150.30588,64.1651],[-150.30544,64.16553],[-150.30616,64.16589],[-150.30695,64.16564],[-150.30744,64.16576],[-150.3075,64.16688],[-150.30654,64.16715],[-150.30638,64.16812],[-150.3062,64.16816],[-150.30625,64.16832],[-150.30545,64.16912],[-150.3051,64.17016],[-150.30504,64.171],[-150.30378,64.17097],[-150.30305,64.17167],[-150.30328,64.17221],[-150.30455,64.17218],[-150.30638,64.17333],[-150.30826,64.17313],[-150.30914,64.17325],[-150.30899,64.17374],[-150.30909,64.17424],[-150.31119,64.17432],[-150.31224,64.17499],[-150.3166,64.1769],[-150.3181,64.17739],[-150.31868,64.17808],[-150.31831,64.17901],[-150.3175,64.17941],[-150.31583,64.1786],[-150.31505,64.17842],[-150.31472,64.17804],[-150.31383,64.1778],[-150.31353,64.17793],[-150.31338,64.17822],[-150.31261,64.17848],[-150.31036,64.17856],[-150.3101,64.17889],[-150.31203,64.17963],[-150.31188,64.18016],[-150.31503,64.1807],[-150.31523,64.18104],[-150.31453,64.18139],[-150.31373,64.18146],[-150.31345,64.18172],[-150.31398,64.18219],[-150.31501,64.18271],[-150.31575,64.18289],[-150.3165,64.18359],[-150.31588,64.18482],[-150.31576,64.18579],[-150.31531,64.18598],[-150.315,64.18647],[-150.31522,64.18701],[-150.31653,64.18704],[-150.31829,64.18774],[-150.31919,64.18866],[-150.31814,64.18895],[-150.31701,64.18854],[-150.31666,64.18862],[-150.31726,64.18922],[-150.31725,64.18963],[-150.31492,64.18871],[-150.31292,64.18756],[-150.31282,64.18701],[-150.31413,64.18698],[-150.31397,64.18661],[-150.31316,64.18663],[-150.31186,64.18695],[-150.31027,64.18812],[-150.3101,64.1885],[-150.311,64.18904],[-150.31128,64.18983],[-150.314,64.19065],[-150.31416,64.19102],[-150.31258,64.19118],[-150.31111,64.19113],[-150.31133,64.1917],[-150.31105,64.19223],[-150.31307,64.19263],[-150.31371,64.19356],[-150.31475,64.19399],[-150.31762,64.19464],[-150.31921,64.19435],[-150.32094,64.19451],[-150.32141,64.19484],[-150.32097,64.1953],[-150.32131,64.19601],[-150.32205,64.196],[-150.3226,64.19624],[-150.32321,64.19661],[-150.32326,64.19705],[-150.32265,64.19731],[-150.3212,64.19734],[-150.32071,64.19721],[-150.32005,64.19645],[-150.31745,64.19594],[-150.31667,64.19563],[-150.3151,64.1955],[-150.31454,64.19564],[-150.31396,64.19611],[-150.314,64.19625],[-150.31646,64.19708],[-150.31635,64.1973],[-150.31577,64.19735],[-150.31494,64.19719],[-150.31486,64.19699],[-150.31436,64.19679],[-150.31387,64.1969],[-150.31385,64.19701],[-150.31471,64.19764],[-150.31508,64.19774],[-150.31572,64.19867],[-150.31566,64.19913],[-150.31499,64.19977],[-150.31516,64.20036],[-150.31432,64.20071],[-150.312,64.20038],[-150.31121,64.1999],[-150.30989,64.19972],[-150.30953,64.20003],[-150.30734,64.20047],[-150.30687,64.20033],[-150.30673,64.1999],[-150.30582,64.19959],[-150.30422,64.20075],[-150.30345,64.20059],[-150.30327,64.2003],[-150.30296,64.20021],[-150.30183,64.20034],[-150.30108,64.20092],[-150.29963,64.19999],[-150.29805,64.1998],[-150.297,64.19945],[-150.29613,64.19867],[-150.29535,64.19849],[-150.2944,64.1997],[-150.2966,64.19993],[-150.29774,64.20029],[-150.29881,64.20085],[-150.29902,64.20117],[-150.29964,64.20159],[-150.29785,64.20171],[-150.29857,64.20207],[-150.29869,64.20292],[-150.29843,64.20367],[-150.2995,64.20399],[-150.30111,64.20412],[-150.3018,64.2045],[-150.30195,64.20542],[-150.30239,64.20587],[-150.30244,64.20613],[-150.3023,64.20641],[-150.30184,64.20648],[-150.30143,64.20603],[-150.30104,64.20582],[-150.30033,64.20546],[-150.29971,64.20535],[-150.2977,64.20519],[-150.29646,64.20529],[-150.29301,64.2052],[-150.29159,64.20539],[-150.29312,64.20565],[-150.29463,64.20609],[-150.2963,64.20791],[-150.29662,64.20848],[-150.29646,64.20952],[-150.29824,64.20995],[-150.30017,64.21061],[-150.30088,64.21107],[-150.30617,64.21291],[-150.30773,64.21329],[-150.31006,64.21419],[-150.31024,64.21441],[-150.31212,64.21525],[-150.31215,64.21565],[-150.31573,64.21675],[-150.31633,64.21731],[-150.31798,64.21768],[-150.31886,64.21807],[-150.31864,64.21839],[-150.31736,64.21823],[-150.31406,64.21825],[-150.31154,64.21842],[-150.31062,64.21857],[-150.31057,64.21877],[-150.31208,64.21921],[-150.3132,64.21936],[-150.31484,64.22008],[-150.31831,64.2207],[-150.32018,64.22091],[-150.32472,64.22107],[-150.32476,64.22181],[-150.32434,64.22235],[-150.32621,64.22311],[-150.32881,64.226],[-150.32887,64.22631],[-150.32865,64.22671],[-150.32726,64.22706],[-150.32634,64.22759],[-150.32713,64.22741],[-150.32833,64.22756],[-150.32981,64.22756],[-150.32999,64.22812],[-150.32994,64.22857],[-150.33061,64.22883],[-150.33063,64.2291],[-150.33145,64.22964],[-150.33278,64.23013],[-150.33308,64.23045],[-150.33221,64.23065],[-150.32636,64.22977],[-150.32559,64.22985],[-150.32485,64.23032],[-150.3247,64.23087],[-150.32351,64.23121],[-150.32383,64.23138],[-150.32501,64.23143],[-150.32841,64.23195],[-150.32852,64.23241],[-150.32944,64.23274],[-150.32703,64.23316],[-150.32674,64.23341],[-150.32593,64.23346],[-150.32517,64.23329],[-150.32434,64.23354],[-150.3239,64.23383],[-150.32288,64.23409],[-150.32167,64.23396],[-150.3209,64.23352],[-150.32025,64.23349],[-150.3197,64.23373],[-150.3217,64.23474],[-150.32215,64.23508],[-150.32249,64.23582],[-150.32171,64.23577],[-150.31957,64.23495],[-150.3182,64.23475],[-150.3138,64.23543],[-150.31732,64.23673],[-150.31906,64.23694],[-150.32243,64.23705],[-150.32247,64.23739],[-150.32196,64.23772],[-150.32319,64.23869],[-150.32296,64.23918],[-150.32221,64.23943],[-150.32225,64.23978],[-150.3231,64.24012],[-150.32199,64.24051],[-150.32236,64.24089],[-150.32347,64.24117],[-150.32272,64.2417],[-150.32215,64.24189],[-150.3192,64.24246],[-150.32001,64.24274],[-150.32035,64.24306],[-150.32162,64.24342],[-150.32358,64.24292],[-150.32408,64.243],[-150.32462,64.24338],[-150.32328,64.24397],[-150.32366,64.24428],[-150.32313,64.24447],[-150.32299,64.24496],[-150.32397,64.24522],[-150.32407,64.2457],[-150.32491,64.24576],[-150.32521,64.24609],[-150.32465,64.24652],[-150.32327,64.24638],[-150.3231,64.24669],[-150.32226,64.247],[-150.32144,64.2481],[-150.31936,64.24821],[-150.31971,64.24774],[-150.31895,64.24772],[-150.31863,64.24724],[-150.31888,64.24697],[-150.31835,64.24681],[-150.31829,64.24628],[-150.31722,64.24574],[-150.3162,64.24577],[-150.31551,64.2464],[-150.31494,64.24642],[-150.31462,64.24624],[-150.31379,64.24615],[-150.3135,64.24541],[-150.31249,64.24538],[-150.31085,64.24564],[-150.31018,64.24626],[-150.31005,64.24688],[-150.31132,64.24759],[-150.31133,64.24848],[-150.31179,64.24922],[-150.31245,64.24966],[-150.31353,64.2499],[-150.31402,64.25047],[-150.3133,64.25058],[-150.31275,64.2509],[-150.31275,64.25124],[-150.31363,64.25169],[-150.31454,64.2518],[-150.31457,64.25228],[-150.31521,64.25251],[-150.31566,64.253],[-150.31502,64.25367],[-150.31496,64.25413],[-150.31367,64.25458],[-150.31301,64.2546],[-150.31271,64.25488],[-150.3118,64.25507],[-150.31252,64.25467],[-150.31179,64.25449],[-150.31187,64.2542],[-150.3124,64.25397],[-150.31178,64.25357],[-150.31281,64.25345],[-150.3129,64.25275],[-150.3118,64.25273],[-150.31072,64.25325],[-150.3095,64.2535],[-150.30946,64.25551],[-150.31018,64.25711],[-150.30953,64.25689],[-150.30835,64.2556],[-150.30743,64.25513],[-150.30573,64.25485],[-150.30669,64.25436],[-150.30395,64.25358],[-150.3038,64.2531],[-150.30348,64.25267],[-150.30261,64.25315],[-150.30086,64.25362],[-150.30151,64.25448],[-150.3011,64.25507],[-150.30133,64.2559],[-150.30076,64.25668],[-150.29902,64.25642],[-150.29801,64.25538],[-150.2981,64.25469],[-150.29763,64.25405],[-150.29649,64.25403],[-150.29623,64.25391],[-150.29559,64.25471],[-150.29587,64.25516],[-150.29609,64.25607],[-150.29719,64.25679],[-150.29711,64.2574],[-150.29652,64.25761],[-150.29665,64.25829],[-150.29506,64.25832],[-150.29435,64.25848],[-150.29409,64.25883],[-150.29351,64.25906],[-150.2921,64.25907],[-150.29155,64.25942],[-150.28949,64.25885],[-150.28911,64.25845],[-150.28904,64.25812],[-150.28968,64.25768],[-150.28982,64.25738],[-150.28973,64.25694],[-150.28808,64.25651],[-150.2871,64.25585],[-150.28653,64.25565],[-150.28592,64.25631],[-150.28606,64.2565],[-150.28715,64.25676],[-150.28725,64.25718],[-150.28688,64.2577],[-150.28578,64.25806],[-150.28392,64.2584],[-150.28297,64.25817],[-150.28239,64.25778],[-150.28258,64.25728],[-150.28358,64.25705],[-150.28312,64.25669],[-150.28259,64.25665],[-150.28155,64.25556],[-150.28073,64.2554],[-150.28055,64.25482],[-150.28132,64.25427],[-150.28064,64.25355],[-150.27963,64.25359],[-150.27889,64.25323],[-150.27995,64.25255],[-150.27955,64.25229],[-150.27961,64.25197],[-150.27838,64.25177],[-150.27813,64.25138],[-150.27826,64.25102],[-150.27813,64.25077],[-150.27744,64.25058],[-150.27651,64.2506],[-150.27598,64.25118],[-150.27606,64.25127],[-150.27565,64.25212],[-150.27499,64.25235],[-150.27288,64.25263],[-150.27211,64.25337],[-150.27232,64.25378],[-150.27164,64.25413],[-150.27183,64.25466],[-150.27141,64.25489],[-150.27058,64.25462],[-150.27031,64.25436],[-150.26955,64.25416],[-150.26851,64.25422],[-150.26799,64.25393],[-150.26793,64.2535],[-150.26697,64.25347],[-150.26645,64.25406],[-150.26606,64.25427],[-150.26511,64.25434],[-150.26499,64.25369],[-150.26469,64.25358],[-150.26418,64.25376],[-150.26392,64.25349],[-150.26316,64.25335],[-150.26165,64.25323],[-150.26075,64.25329],[-150.25979,64.25296],[-150.25931,64.25259],[-150.25965,64.25231],[-150.26104,64.2522],[-150.26037,64.25163],[-150.2586,64.25154],[-150.2569,64.25227],[-150.25654,64.25273],[-150.25585,64.2532],[-150.25722,64.25327],[-150.25827,64.25381],[-150.25848,64.25399],[-150.25824,64.25478],[-150.25918,64.25487],[-150.25972,64.25472],[-150.26065,64.25477],[-150.26073,64.25497],[-150.2596,64.25526],[-150.25724,64.25527],[-150.25664,64.25511],[-150.25613,64.25461],[-150.25538,64.25428],[-150.25345,64.25394],[-150.25252,64.25408],[-150.25263,64.25428],[-150.25255,64.25455],[-150.25134,64.2559],[-150.25081,64.25627],[-150.25095,64.25712],[-150.25003,64.25771],[-150.24902,64.25748],[-150.2491,64.25702],[-150.24799,64.25677],[-150.24677,64.25615],[-150.24541,64.25601],[-150.24452,64.25629],[-150.24503,64.25669],[-150.24524,64.25704],[-150.24366,64.25722],[-150.24277,64.25715],[-150.24187,64.25752],[-150.2406,64.25757],[-150.23956,64.25725],[-150.23844,64.25734],[-150.23811,64.25696],[-150.2375,64.25681],[-150.23682,64.25689],[-150.23645,64.25658],[-150.23672,64.25599],[-150.23637,64.2558],[-150.23563,64.25578],[-150.23552,64.25547],[-150.23463,64.25544],[-150.23381,64.25516],[-150.23214,64.25442],[-150.23154,64.25401],[-150.22995,64.25372],[-150.22845,64.25387],[-150.22587,64.2545],[-150.22507,64.25533],[-150.22434,64.2554],[-150.22346,64.25524],[-150.22306,64.25498],[-150.22036,64.25403],[-150.22062,64.25313],[-150.22032,64.2527],[-150.22202,64.25239],[-150.223,64.25181],[-150.22317,64.25106],[-150.22281,64.2508],[-150.22276,64.25061],[-150.22349,64.25061],[-150.2239,64.25045],[-150.22404,64.24973],[-150.22462,64.2494],[-150.22534,64.24916],[-150.22633,64.24908],[-150.22759,64.24941],[-150.23048,64.24988],[-150.23299,64.24993],[-150.23364,64.2498],[-150.23419,64.24951],[-150.23492,64.2494],[-150.23567,64.24951],[-150.23562,64.24988],[-150.23516,64.25027],[-150.23452,64.25058],[-150.23443,64.25126],[-150.23518,64.2516],[-150.23742,64.25161],[-150.23838,64.25073],[-150.23937,64.25015],[-150.23978,64.2496],[-150.24073,64.24943],[-150.24029,64.24919],[-150.23887,64.2492],[-150.23697,64.24866],[-150.23541,64.24865],[-150.2346,64.24884],[-150.2339,64.24855],[-150.23287,64.24873],[-150.23156,64.24855],[-150.23063,64.24794],[-150.23036,64.2472],[-150.22973,64.24714],[-150.22928,64.24692],[-150.22905,64.2464],[-150.2291,64.24577],[-150.22798,64.24548],[-150.22722,64.24559],[-150.2262,64.24542],[-150.22621,64.24507],[-150.22536,64.2446],[-150.2252,64.24412],[-150.22527,64.24362],[-150.22485,64.24325],[-150.22318,64.24326],[-150.22237,64.24311],[-150.22223,64.24281],[-150.22234,64.24226],[-150.2212,64.24191],[-150.22112,64.24168],[-150.22122,64.24096],[-150.22183,64.23998],[-150.22174,64.23922],[-150.22091,64.23932],[-150.22088,64.23957],[-150.2203,64.23999],[-150.21779,64.23992],[-150.21556,64.24021],[-150.21481,64.23993],[-150.2146,64.23928],[-150.21277,64.2388],[-150.2102,64.2397],[-150.209,64.23973],[-150.20878,64.24003],[-150.20864,64.24059],[-150.20751,64.24086],[-150.20548,64.24025],[-150.20627,64.23961],[-150.20515,64.23969],[-150.20496,64.24001],[-150.20413,64.24007],[-150.2034,64.23966],[-150.20504,64.23909],[-150.20623,64.23907],[-150.20709,64.23874],[-150.20627,64.2382],[-150.20556,64.23794],[-150.20434,64.2382],[-150.2031,64.23801],[-150.20239,64.23775],[-150.20226,64.23648],[-150.2012,64.23637],[-150.20023,64.23667],[-150.1994,64.23734],[-150.19866,64.23706],[-150.19813,64.23655],[-150.1984,64.2362],[-150.19806,64.23569],[-150.19659,64.23527],[-150.1964,64.23499],[-150.19618,64.2344],[-150.19697,64.23409],[-150.1968,64.23342],[-150.19499,64.23329],[-150.19516,64.23291],[-150.19597,64.23238],[-150.19521,64.23112],[-150.19403,64.23076],[-150.19348,64.23008],[-150.19355,64.22956],[-150.18774,64.22722],[-150.18467,64.22646],[-150.18366,64.22644],[-150.18272,64.22694],[-150.182,64.2268],[-150.18128,64.22606],[-150.18049,64.22562],[-150.17947,64.22419],[-150.17939,64.22379],[-150.17902,64.22325],[-150.17827,64.22277],[-150.17767,64.22272],[-150.1767,64.22287],[-150.17628,64.22313],[-150.17769,64.22322],[-150.17807,64.22344],[-150.17791,64.2238],[-150.17706,64.22385],[-150.17693,64.22403],[-150.1779,64.22428],[-150.17737,64.22463],[-150.1764,64.22473],[-150.17497,64.22413],[-150.174,64.22341],[-150.17351,64.22278],[-150.17252,64.22222],[-150.17165,64.22211],[-150.1674,64.22068],[-150.16502,64.21963],[-150.16429,64.21913],[-150.1631,64.21866],[-150.16074,64.21831],[-150.16052,64.21791],[-150.15995,64.21749],[-150.16049,64.21692],[-150.16018,64.2164],[-150.15903,64.21619],[-150.15687,64.21637],[-150.15613,64.21619],[-150.15578,64.21574],[-150.15573,64.21513],[-150.15487,64.21459],[-150.15398,64.21367],[-150.15383,64.21315],[-150.15429,64.21277],[-150.15623,64.21235],[-150.1572,64.2125],[-150.15845,64.21294],[-150.15974,64.21393],[-150.16094,64.2133],[-150.16121,64.21294],[-150.16132,64.21213],[-150.16066,64.21151],[-150.15899,64.21102],[-150.15762,64.21097],[-150.15707,64.21028],[-150.15548,64.20959],[-150.15587,64.20913],[-150.15737,64.20964],[-150.1574,64.2087],[-150.15603,64.20731],[-150.15628,64.20688],[-150.15594,64.20637],[-150.15466,64.20568],[-150.15337,64.20538],[-150.15065,64.20519],[-150.14998,64.20471],[-150.14769,64.20435],[-150.1475,64.20351],[-150.14672,64.20299],[-150.14567,64.2027],[-150.14427,64.2019],[-150.14473,64.20131],[-150.14454,64.20068],[-150.14378,64.20028],[-150.14295,64.20017],[-150.14274,64.19985],[-150.14279,64.19912],[-150.14353,64.19889],[-150.14282,64.19827],[-150.13888,64.19687],[-150.138,64.19712],[-150.13758,64.19602],[-150.13519,64.1951],[-150.13515,64.19416],[-150.1356,64.19383],[-150.13659,64.1938],[-150.13807,64.19415],[-150.13922,64.19411],[-150.14154,64.19377],[-150.1402,64.19305],[-150.14003,64.19274],[-150.13905,64.19196],[-150.13671,64.19108],[-150.13679,64.19068],[-150.13624,64.19011],[-150.13474,64.18961],[-150.13441,64.18933],[-150.13479,64.18865],[-150.13454,64.18797],[-150.13354,64.18712],[-150.13318,64.18648],[-150.13198,64.18665],[-150.13046,64.18608],[-150.12978,64.18503],[-150.12675,64.18469],[-150.12477,64.18424],[-150.12428,64.18373],[-150.12449,64.1833],[-150.12283,64.18237],[-150.12224,64.18179],[-150.12216,64.18143],[-150.12076,64.18049],[-150.11713,64.17911],[-150.11719,64.1787],[-150.11803,64.17813],[-150.11796,64.1775],[-150.11731,64.17728],[-150.11725,64.17694],[-150.11888,64.17675],[-150.11986,64.17639],[-150.11987,64.17613],[-150.12083,64.17575],[-150.1208,64.17557],[-150.12123,64.17543],[-150.1216,64.17511],[-150.11822,64.17424],[-150.11556,64.1731],[-150.11512,64.17269],[-150.11489,64.17195],[-150.11496,64.17141],[-150.11408,64.1712],[-150.11391,64.17102],[-150.11402,64.17043],[-150.11214,64.17014],[-150.11095,64.16845],[-150.11013,64.16816],[-150.10943,64.16715],[-150.10936,64.16609],[-150.10867,64.16571],[-150.10749,64.16536],[-150.1072,64.16409],[-150.10551,64.16308],[-150.10415,64.16263],[-150.10217,64.16245],[-150.10137,64.16263],[-150.09977,64.16242],[-150.09941,64.16217],[-150.09922,64.16142],[-150.09799,64.16084],[-150.09626,64.161],[-150.09271,64.15919],[-150.08932,64.1582],[-150.08719,64.15784],[-150.0858,64.15611],[-150.08581,64.15525],[-150.0863,64.1548],[-150.0867,64.15401],[-150.08599,64.15355],[-150.0851,64.15342],[-150.08209,64.14935],[-150.08083,64.14873],[-150.08106,64.14827],[-150.08168,64.14791],[-150.08173,64.14757],[-150.08106,64.14745],[-150.0797,64.14746],[-150.07934,64.14715],[-150.07918,64.14671],[-150.07951,64.14647],[-150.08124,64.14643],[-150.08114,64.14575],[-150.0802,64.14569],[-150.08011,64.1453],[-150.07918,64.14504],[-150.079,64.14476],[-150.07856,64.14475],[-150.07572,64.14315],[-150.07544,64.14268],[-150.07384,64.14177],[-150.07294,64.14043],[-150.07368,64.14056],[-150.07466,64.14101],[-150.0749,64.14082],[-150.07482,64.14037],[-150.0742,64.13961],[-150.07331,64.13929],[-150.07229,64.13777],[-150.07219,64.13743],[-150.0733,64.13645],[-150.0739,64.13571],[-150.07433,64.1356],[-150.07406,64.13501],[-150.0742,64.13458],[-150.07492,64.13429],[-150.07496,64.13399],[-150.07241,64.13412],[-150.07216,64.1339],[-150.07201,64.13334],[-150.07218,64.13302],[-150.07279,64.13252],[-150.07183,64.13206],[-150.07173,64.1318],[-150.07193,64.1315],[-150.07284,64.13131],[-150.07368,64.13094],[-150.07419,64.13021],[-150.07354,64.12961],[-150.07259,64.12954],[-150.07043,64.13006],[-150.06866,64.13002],[-150.06697,64.12968],[-150.06574,64.12875],[-150.06557,64.12832],[-150.06581,64.12707],[-150.06677,64.12424],[-150.06771,64.12277],[-150.06766,64.12227],[-150.06783,64.12201],[-150.07002,64.12183],[-150.0706,64.1215],[-150.07069,64.12108],[-150.06915,64.12062],[-150.06849,64.12004],[-150.06892,64.1192],[-150.06821,64.11819],[-150.06852,64.11781],[-150.06938,64.11758],[-150.06914,64.11733],[-150.07007,64.11708],[-150.07045,64.11672],[-150.07034,64.11648],[-150.07058,64.11595],[-150.07017,64.11567],[-150.07017,64.11535],[-150.07072,64.1152],[-150.07143,64.11522],[-150.07256,64.1149],[-150.07309,64.11488],[-150.07348,64.11502],[-150.07388,64.11544],[-150.07376,64.11595],[-150.07264,64.11718],[-150.07282,64.11754],[-150.07364,64.11793],[-150.07478,64.11802],[-150.07529,64.11751],[-150.07542,64.11706],[-150.07675,64.11578],[-150.07668,64.11427],[-150.07628,64.11389],[-150.07632,64.11361],[-150.07704,64.11301],[-150.07753,64.11284],[-150.07985,64.11244],[-150.07877,64.11196],[-150.07938,64.11147],[-150.07988,64.11078],[-150.0799,64.11041],[-150.07897,64.10966],[-150.07864,64.1091],[-150.07802,64.10891],[-150.07818,64.10804],[-150.07782,64.10671],[-150.07908,64.1062],[-150.07897,64.10565],[-150.07765,64.10571],[-150.07706,64.10629],[-150.07624,64.10652],[-150.07466,64.10651],[-150.07323,64.10581],[-150.07252,64.10483],[-150.07182,64.10439],[-150.07067,64.10405],[-150.07157,64.10207],[-150.07131,64.10165],[-150.07095,64.10138],[-150.07041,64.10132],[-150.06936,64.10073],[-150.06919,64.10033],[-150.06946,64.10008],[-150.07014,64.09992],[-150.07158,64.09918],[-150.07217,64.0987],[-150.07213,64.09769],[-150.0717,64.09727],[-150.07089,64.09694],[-150.06985,64.09681],[-150.06933,64.09657],[-150.06789,64.09529],[-150.06721,64.0952],[-150.06654,64.09553],[-150.06223,64.09604],[-150.0613,64.09602],[-150.06025,64.09574],[-150.06026,64.09507],[-150.06051,64.09446],[-150.06015,64.09427],[-150.06014,64.09385],[-150.06063,64.09364],[-150.06163,64.09365],[-150.062,64.09331],[-150.06484,64.09264],[-150.06623,64.0916],[-150.06802,64.09144],[-150.06924,64.09119],[-150.06963,64.09044],[-150.06946,64.08971],[-150.06981,64.08932],[-150.06943,64.0889],[-150.06975,64.08871],[-150.06987,64.08847],[-150.06891,64.08744],[-150.06803,64.08696],[-150.06818,64.08616],[-150.06785,64.08569],[-150.06793,64.08549],[-150.06808,64.0853],[-150.06852,64.08525],[-150.06952,64.08646],[-150.07111,64.08651],[-150.07181,64.08594],[-150.072,64.0856],[-150.07114,64.08491],[-150.07114,64.08329],[-150.0715,64.08304],[-150.07231,64.08312],[-150.07325,64.08282],[-150.07362,64.08052],[-150.0732,64.08018],[-150.07303,64.07983],[-150.07315,64.07915],[-150.07221,64.07885],[-150.07172,64.07846],[-150.07166,64.07785],[-150.07183,64.07763],[-150.07193,64.07712],[-150.0712,64.07726],[-150.06966,64.07719],[-150.06905,64.0767],[-150.06914,64.07598],[-150.06879,64.07501],[-150.06902,64.07453],[-150.06877,64.07275],[-150.06883,64.0724],[-150.06714,64.07191],[-150.06721,64.0714],[-150.06803,64.07115],[-150.06797,64.07063],[-150.06714,64.06991],[-150.06788,64.06948],[-150.06809,64.06913],[-150.06854,64.06881],[-150.06949,64.0686],[-150.07022,64.06803],[-150.07024,64.06771],[-150.06948,64.06766],[-150.06854,64.06718],[-150.06855,64.06693],[-150.06933,64.06676],[-150.06945,64.06632],[-150.06869,64.06613],[-150.06859,64.06564],[-150.06921,64.06487],[-150.07046,64.06403],[-150.0696,64.06319],[-150.07039,64.062],[-150.07096,64.0618],[-150.07221,64.05843],[-150.07193,64.05808],[-150.07192,64.05755],[-150.07234,64.057],[-150.07301,64.05672],[-150.07366,64.05512],[-150.07306,64.05516],[-150.07266,64.05544],[-150.07242,64.05586],[-150.07126,64.0558],[-150.07046,64.05549],[-150.07055,64.05482],[-150.06958,64.05452],[-150.06942,64.05389],[-150.06902,64.05348],[-150.07014,64.05242],[-150.07105,64.0521],[-150.07141,64.05243],[-150.07155,64.05281],[-150.07222,64.05331],[-150.07239,64.05383],[-150.0723,64.05413],[-150.07287,64.05431],[-150.07379,64.05432],[-150.07332,64.05358],[-150.07338,64.05315],[-150.07274,64.05229],[-150.07321,64.05201],[-150.07392,64.05242],[-150.07464,64.05308],[-150.07598,64.05282],[-150.07606,64.05261],[-150.07573,64.05187],[-150.07572,64.05151],[-150.07711,64.05132],[-150.07724,64.05078],[-150.07662,64.0505],[-150.07639,64.05021],[-150.0769,64.04975],[-150.07683,64.04857],[-150.07488,64.04795],[-150.07058,64.04777],[-150.06937,64.04744],[-150.06929,64.04702],[-150.07081,64.0461],[-150.06686,64.04393],[-150.06551,64.04406],[-150.06501,64.04435],[-150.06428,64.04417],[-150.06452,64.0436],[-150.06411,64.04335],[-150.06435,64.04245],[-150.06485,64.04203]]]},"properties":{"fire_id":"ufid:2023-AKTAD-000277","source_collection":"history-2023","source_objectid":23979,"incident_name":"Clear Creek","mapped_acres":53288.68,"mapped_acres_source":"poly_GISAcres","gis_acres":53288.68,"auto_acres":53288.675960774446,"reported_acres":53288.9,"percent_contained":null,"state":"AK","state_wfigs":"US-AK","county":"Denali","discovery_time_utc":"2023-07-27T22:16:00Z","perimeter_time_utc":"2024-02-13T00:52:20Z","perimeter_edit_time_utc":"2024-02-13T00:52:20Z","incident_modified_time_utc":"2023-10-19T21:16:07Z","containment_time_utc":"2023-10-19T20:00:00Z","control_time_utc":"2023-10-19T20:00:00Z","fire_out_time_utc":"2023-10-19T20:00:00Z","fire_cause":"Natural","fire_cause_general":"Natural","map_method":"Image Interpretation","source_dataset":"FFP","unique_fire_identifier":"2023-AKTAD-000277","irwin_id":"{E2E34865-EF55-44E1-9A6E-2B3FE513F1F6}","global_id":"12fe3944-39d1-483c-ab78-5e8c50e8011c"}}]}
