{"type":"FeatureCollection","features":[{"type":"Feature","geometry":{"type":"Polygon","coordinates":[[[-94.07676,34.46625],[-94.0765,34.46614],[-94.07666,34.46595],[-94.07693,34.4661],[-94.07676,34.46625]]]},"properties":{"fire_id":"ufid:2023-AROUF-000619","source_collection":"history-2023","source_objectid":15843,"incident_name":"Trail 8","mapped_acres":0.1,"mapped_acres_source":"poly_GISAcres","gis_acres":0.1,"auto_acres":0.2141864443788865,"reported_acres":0.21,"percent_contained":null,"state":"AR","state_wfigs":"US-AR","county":"Polk","discovery_time_utc":"2023-03-23T21:37:00Z","perimeter_time_utc":"2023-04-05T15:44:54Z","perimeter_edit_time_utc":"2023-04-05T15:44:55Z","incident_modified_time_utc":"2023-04-05T15:22:31Z","containment_time_utc":"2023-03-24T00:39:00Z","control_time_utc":"2023-04-03T13:00:00Z","fire_out_time_utc":"2023-04-03T13:00:00Z","fire_cause":"Human","fire_cause_general":"Equipment and vehicle use","map_method":"Auto-generated","source_dataset":"FFP","unique_fire_identifier":"2023-AROUF-000619","irwin_id":"{8AE9786D-DDAA-47B2-B3DA-7297977975CA}","global_id":"3642403f-8bd7-4f07-a176-bc5ea1e2d2f9"}},{"type":"Feature","geometry":{"type":"Polygon","coordinates":[[[-94.25123,34.48622],[-94.25223,34.48615],[-94.25246,34.48667],[-94.25244,34.48693],[-94.25166,34.48673],[-94.25158,34.48633],[-94.2512,34.48631],[-94.25123,34.48622]]]},"properties":{"fire_id":"ufid:2023-AROUF-000985","source_collection":"history-2023","source_objectid":16300,"incident_name":"Bridge","mapped_acres":0.1,"mapped_acres_source":"poly_GISAcres","gis_acres":0.1,"auto_acres":1.409625402193494,"reported_acres":1.6,"percent_contained":null,"state":"AR","state_wfigs":"US-AR","county":"Polk","discovery_time_utc":"2023-04-22T21:41:00Z","perimeter_time_utc":"2023-04-25T16:45:35Z","perimeter_edit_time_utc":"2023-04-25T16:45:35Z","incident_modified_time_utc":"2023-04-23T00:16:35Z","containment_time_utc":"2023-04-23T00:15:00Z","control_time_utc":"2023-04-25T15:00:00Z","fire_out_time_utc":"2023-04-25T15:00:00Z","fire_cause":"Human","fire_cause_general":"Undetermined","map_method":"Auto-generated","source_dataset":"FFP","unique_fire_identifier":"2023-AROUF-000985","irwin_id":"{A0E3D850-A074-4FBA-A75C-7A432463C394}","global_id":"8d789fde-faf3-4155-bee4-7a03da28a3bd"}},{"type":"Feature","geometry":{"type":"Polygon","coordinates":[[[-93.5466,34.63368],[-93.54676,34.633],[-93.5472,34.63337],[-93.54721,34.63356],[-93.5466,34.63368]]]},"properties":{"fire_id":"ufid:2023-AROUF-001889","source_collection":"history-2023","source_objectid":20953,"incident_name":"Fishing Village","mapped_acres":0.1,"mapped_acres_source":"poly_GISAcres","gis_acres":0.1,"auto_acres":0.6761036098989374,"reported_acres":0.62,"percent_contained":null,"state":"AR","state_wfigs":"US-AR","county":"Montgomery","discovery_time_utc":"2023-09-06T17:01:03Z","perimeter_time_utc":"2023-09-13T14:58:48Z","perimeter_edit_time_utc":"2023-09-13T14:58:48Z","incident_modified_time_utc":"2023-09-13T14:26:44Z","containment_time_utc":"2023-09-06T18:45:00Z","control_time_utc":"2023-09-13T14:23:00Z","fire_out_time_utc":"2023-09-13T14:23:00Z","fire_cause":"Human","fire_cause_general":"Power generation / transmission / distribution","map_method":"Auto-generated","source_dataset":"FFP","unique_fire_identifier":"2023-AROUF-001889","irwin_id":"{999DD736-42A8-4919-9CCB-B852C0EE1C1B}","global_id":"58684718-2afa-46d6-9501-c0a10fd68f68"}},{"type":"Feature","geometry":{"type":"Polygon","coordinates":[[[-93.81243,34.77226],[-93.81093,34.77213],[-93.81088,34.77198],[-93.81173,34.77129],[-93.81212,34.77113],[-93.81266,34.77132],[-93.81347,34.77124],[-93.81515,34.77039],[-93.81544,34.77138],[-93.81635,34.77244],[-93.81622,34.77257],[-93.81403,34.77292],[-93.81359,34.77283],[-93.81243,34.77226]]]},"properties":{"fire_id":"ufid:2023-AROUF-001861","source_collection":"history-2023","source_objectid":21171,"incident_name":"Pole Cat","mapped_acres":0.25,"mapped_acres_source":"poly_GISAcres","gis_acres":0.25,"auto_acres":17.712357709657788,"reported_acres":17.7,"percent_contained":null,"state":"AR","state_wfigs":"US-AR","county":"Scott","discovery_time_utc":"2023-09-04T23:40:58Z","perimeter_time_utc":"2023-09-21T13:35:46Z","perimeter_edit_time_utc":"2023-09-21T13:35:46Z","incident_modified_time_utc":"2023-09-21T13:32:55Z","containment_time_utc":"2023-09-05T02:11:00Z","control_time_utc":"2023-09-05T17:00:00Z","fire_out_time_utc":"2023-09-20T17:00:00Z","fire_cause":"Natural","fire_cause_general":"Natural","map_method":"Auto-generated","source_dataset":"FFP","unique_fire_identifier":"2023-AROUF-001861","irwin_id":"{BC2E5B21-98F0-4A14-AE85-69DD532E5EC9}","global_id":"112d2d5c-eb37-441d-90ea-4488287bf566"}},{"type":"Feature","geometry":{"type":"MultiPolygon","coordinates":[[[[-93.85383,34.7104],[-93.85384,34.71043],[-93.85382,34.71042],[-93.85383,34.7104]]],[[[-93.8538,34.71039],[-93.85383,34.71046],[-93.85372,34.71042],[-93.8538,34.71039]]],[[[-93.85383,34.71046],[-93.85385,34.71046],[-93.85383,34.71047],[-93.85383,34.71046]]],[[[-93.85382,34.71046],[-93.85383,34.71047],[-93.85382,34.71047],[-93.85382,34.71046]]],[[[-93.85369,34.71045],[-93.85376,34.71045],[-93.85374,34.71048],[-93.85369,34.71045]]],[[[-93.85348,34.71223],[-93.85348,34.71225],[-93.85344,34.71223],[-93.85348,34.71223]]],[[[-93.85889,34.71107],[-93.8597,34.71152],[-93.86083,34.71138],[-93.86152,34.71151],[-93.86365,34.71236],[-93.86449,34.71289],[-93.86449,34.71432],[-93.86465,34.71536],[-93.86477,34.71585],[-93.86523,34.71658],[-93.86528,34.71706],[-93.86511,34.71768],[-93.86399,34.71882],[-93.86383,34.71922],[-93.86332,34.71974],[-93.86326,34.72025],[-93.86341,34.72116],[-93.86404,34.72183],[-93.8661,34.72296],[-93.86689,34.72407],[-93.86544,34.7263],[-93.86503,34.72767],[-93.8645,34.72872],[-93.86397,34.72929],[-93.86336,34.72934],[-93.86231,34.72911],[-93.86234,34.7279],[-93.862,34.72776],[-93.86109,34.72775],[-93.8591,34.7273],[-93.85638,34.72716],[-93.85485,34.72729],[-93.85293,34.72678],[-93.85093,34.72668],[-93.84911,34.72552],[-93.8481,34.72512],[-93.84784,34.72437],[-93.84701,34.72352],[-93.84642,34.72239],[-93.84604,34.72193],[-93.84579,34.72108],[-93.84508,34.72021],[-93.84501,34.7197],[-93.84548,34.71936],[-93.84568,34.7188],[-93.84597,34.71856],[-93.846,34.71796],[-93.8464,34.71751],[-93.8469,34.71732],[-93.84686,34.7172],[-93.84705,34.71708],[-93.84718,34.71713],[-93.84738,34.71694],[-93.84785,34.71684],[-93.84929,34.717],[-93.85006,34.71656],[-93.85036,34.7161],[-93.85123,34.7153],[-93.85194,34.7153],[-93.85256,34.71485],[-93.85266,34.71489],[-93.85272,34.71456],[-93.85314,34.71417],[-93.85316,34.71382],[-93.85332,34.71362],[-93.85324,34.71355],[-93.85337,34.71352],[-93.85357,34.71308],[-93.8535,34.71223],[-93.85366,34.71206],[-93.85357,34.71199],[-93.85365,34.71185],[-93.85347,34.71158],[-93.85349,34.71142],[-93.85366,34.71136],[-93.85343,34.71111],[-93.85359,34.7111],[-93.85356,34.7109],[-93.85387,34.71068],[-93.85377,34.71053],[-93.85398,34.71057],[-93.8538,34.71025],[-93.85407,34.71005],[-93.85399,34.70991],[-93.85413,34.71],[-93.8543,34.70973],[-93.8547,34.70963],[-93.85545,34.70897],[-93.85666,34.71015],[-93.85799,34.7109],[-93.85889,34.71107]]]]},"properties":{"fire_id":"ufid:2023-AROUF-001900","source_collection":"history-2023","source_objectid":21290,"incident_name":"Cedar Cabin","mapped_acres":101.0,"mapped_acres_source":"poly_GISAcres","gis_acres":101.0,"auto_acres":657.2020670050409,"reported_acres":657.0,"percent_contained":null,"state":"AR","state_wfigs":"US-AR","county":"Scott","discovery_time_utc":"2023-09-07T00:17:47Z","perimeter_time_utc":"2023-09-27T15:04:44Z","perimeter_edit_time_utc":"2023-09-27T15:04:44Z","incident_modified_time_utc":"2023-09-26T19:38:33Z","containment_time_utc":"2023-09-07T21:00:00Z","control_time_utc":"2023-09-14T19:00:00Z","fire_out_time_utc":"2023-09-26T19:30:00Z","fire_cause":"Natural","fire_cause_general":"Natural","map_method":"Auto-generated","source_dataset":"FFP","unique_fire_identifier":"2023-AROUF-001900","irwin_id":"{D17EBF03-0109-421B-BA15-BCA9A9D1A55F}","global_id":"63da3ad4-b3b5-439c-8b79-caf766f14878"}},{"type":"Feature","geometry":{"type":"Polygon","coordinates":[[[-93.73069,34.67363],[-93.73276,34.67365],[-93.7334,34.67384],[-93.73413,34.67458],[-93.73397,34.67515],[-93.73304,34.67539],[-93.73312,34.67566],[-93.733,34.67623],[-93.73261,34.67611],[-93.7307,34.67617],[-93.73046,34.67644],[-93.73037,34.67729],[-93.73,34.67766],[-93.72887,34.67755],[-93.72819,34.67722],[-93.72818,34.67679],[-93.7283,34.67656],[-93.72918,34.67645],[-93.72956,34.6761],[-93.72909,34.67394],[-93.72917,34.67366],[-93.72973,34.6731],[-93.73027,34.67349],[-93.73069,34.67363]]]},"properties":{"fire_id":"ufid:2023-AROUF-001953","source_collection":"history-2023","source_objectid":21291,"incident_name":"Macedonia Pond","mapped_acres":6.0,"mapped_acres_source":"poly_GISAcres","gis_acres":6.0,"auto_acres":34.5507939465382,"reported_acres":34.6,"percent_contained":null,"state":"AR","state_wfigs":"US-AR","county":"Montgomery","discovery_time_utc":"2023-09-11T19:22:59Z","perimeter_time_utc":"2023-09-27T15:00:48Z","perimeter_edit_time_utc":"2023-09-27T15:00:49Z","incident_modified_time_utc":"2023-09-26T20:34:40Z","containment_time_utc":"2023-09-11T22:33:00Z","control_time_utc":"2023-09-20T14:25:00Z","fire_out_time_utc":"2023-09-26T20:30:00Z","fire_cause":"Undetermined","fire_cause_general":null,"map_method":"Auto-generated","source_dataset":"Decertified","unique_fire_identifier":"2023-AROUF-001953","irwin_id":"{C9D70888-E93D-4744-A893-7069BF91EEA7}","global_id":"9616b8d7-5655-4168-b1a6-07cef1ee3105"}},{"type":"Feature","geometry":{"type":"Polygon","coordinates":[[[-93.76758,34.4564],[-93.76921,34.45629],[-93.76948,34.45655],[-93.76959,34.45651],[-93.76977,34.45678],[-93.76994,34.45674],[-93.77029,34.45693],[-93.77019,34.45733],[-93.77028,34.45752],[-93.76999,34.45779],[-93.76998,34.45797],[-93.76918,34.4581],[-93.76876,34.45791],[-93.76871,34.45741],[-93.76851,34.4573],[-93.76731,34.45742],[-93.76712,34.45665],[-93.76684,34.45638],[-93.76739,34.45627],[-93.76758,34.45629],[-93.76758,34.4564]]]},"properties":{"fire_id":"ufid:2023-AROUF-000739","source_collection":"history-2023","source_objectid":21315,"incident_name":"Beech Creek","mapped_acres":5.0,"mapped_acres_source":"poly_GISAcres","gis_acres":5.0,"auto_acres":9.750864054990227,"reported_acres":9.75,"percent_contained":null,"state":"AR","state_wfigs":"US-AR","county":"Montgomery","discovery_time_utc":"2023-04-02T21:11:00Z","perimeter_time_utc":"2024-01-31T20:19:17Z","perimeter_edit_time_utc":"2024-01-31T20:19:17Z","incident_modified_time_utc":"2023-05-02T13:08:56Z","containment_time_utc":"2023-04-02T23:20:00Z","control_time_utc":"2023-04-09T17:00:00Z","fire_out_time_utc":"2023-04-09T17:00:00Z","fire_cause":"Human","fire_cause_general":"Debris and open burning","map_method":"Hand Sketch","source_dataset":"FFP","unique_fire_identifier":"2023-AROUF-000739","irwin_id":"{DE865401-6236-4D7F-9097-7DA848858EFB}","global_id":"5f9f024e-b33d-4673-96d3-f407b933a046"}},{"type":"Feature","geometry":{"type":"Polygon","coordinates":[[[-92.38029,33.40003],[-92.37709,33.40416],[-92.37697,33.40399],[-92.37602,33.40366],[-92.37452,33.40376],[-92.37404,33.40407],[-92.37381,33.40444],[-92.37384,33.40489],[-92.373,33.40518],[-92.37172,33.40539],[-92.3708,33.40613],[-92.36887,33.40635],[-92.36811,33.40725],[-92.36767,33.40755],[-92.36771,33.40838],[-92.36725,33.40906],[-92.36744,33.40993],[-92.36712,33.41019],[-92.36685,33.41018],[-92.36666,33.41049],[-92.36757,33.41026],[-92.36775,33.40994],[-92.36818,33.41042],[-92.36806,33.41117],[-92.36814,33.4117],[-92.3685,33.41208],[-92.3682,33.41253],[-92.36916,33.41282],[-92.36972,33.41252],[-92.36983,33.41261],[-92.36961,33.41291],[-92.3697,33.41321],[-92.37003,33.41311],[-92.37014,33.41291],[-92.36996,33.41277],[-92.36999,33.41263],[-92.37017,33.4126],[-92.37042,33.41284],[-92.37011,33.41303],[-92.36996,33.41344],[-92.3687,33.41487],[-92.36863,33.41511],[-92.36806,33.41562],[-92.36792,33.41595],[-92.36766,33.41603],[-92.36727,33.41676],[-92.36704,33.41687],[-92.36663,33.41743],[-92.36634,33.41752],[-92.36618,33.41811],[-92.36528,33.41891],[-92.36517,33.41915],[-92.36496,33.41916],[-92.36244,33.41608],[-92.36241,33.41496],[-92.36195,33.41454],[-92.36179,33.41403],[-92.36132,33.41364],[-92.36109,33.41317],[-92.36123,33.41242],[-92.36168,33.41189],[-92.36185,33.41148],[-92.36245,33.41085],[-92.36338,33.41073],[-92.36365,33.41032],[-92.36336,33.40987],[-92.36352,33.40957],[-92.36334,33.40903],[-92.36358,33.40829],[-92.36333,33.40711],[-92.36356,33.40648],[-92.36334,33.4061],[-92.36365,33.40561],[-92.36411,33.40543],[-92.36412,33.4049],[-92.36487,33.40441],[-92.36701,33.40369],[-92.36783,33.40313],[-92.36827,33.40257],[-92.36935,33.40207],[-92.37102,33.40068],[-92.38029,33.40003]]]},"properties":{"fire_id":"ufid:2023-ARARS-0061D1","source_collection":"history-2023","source_objectid":21902,"incident_name":"Harrell","mapped_acres":123.0,"mapped_acres_source":"poly_GISAcres","gis_acres":123.0,"auto_acres":301.535023691891,"reported_acres":123.0,"percent_contained":100.0,"state":"AR","state_wfigs":"US-AR","county":"Calhoun","discovery_time_utc":"2023-09-11T23:15:00Z","perimeter_time_utc":"2023-09-12T04:15:00Z","perimeter_edit_time_utc":"2023-10-20T17:03:10Z","incident_modified_time_utc":"2023-09-14T14:24:56Z","containment_time_utc":null,"control_time_utc":null,"fire_out_time_utc":null,"fire_cause":"Undetermined","fire_cause_general":null,"map_method":"Image Interpretation","source_dataset":"2023 NIFS","unique_fire_identifier":"2023-ARARS-0061D1","irwin_id":"{2B56F02D-4B97-44BB-A60C-E11CC094D8D4}","global_id":"0c116559-30d1-4442-b869-25a1a4eae8ea"}},{"type":"Feature","geometry":{"type":"MultiPolygon","coordinates":[[[[-93.20312,34.82623],[-93.20285,34.82604],[-93.20272,34.82635],[-93.20258,34.82628],[-93.20233,34.82585],[-93.20233,34.8255],[-93.20203,34.82468],[-93.20209,34.82451],[-93.20265,34.82417],[-93.20308,34.82329],[-93.20341,34.8231],[-93.20679,34.82349],[-93.20695,34.82387],[-93.20724,34.82394],[-93.20674,34.82475],[-93.20713,34.82497],[-93.2085,34.82463],[-93.2098,34.82401],[-93.20979,34.82373],[-93.20933,34.8235],[-93.20928,34.82306],[-93.20888,34.82286],[-93.20891,34.82269],[-93.20918,34.82249],[-93.21078,34.82269],[-93.21085,34.8234],[-93.21066,34.82409],[-93.21085,34.82414],[-93.21123,34.82386],[-93.2114,34.82357],[-93.21125,34.82292],[-93.2115,34.82287],[-93.21185,34.82305],[-93.21228,34.82261],[-93.21196,34.82151],[-93.21212,34.82111],[-93.21203,34.82094],[-93.21163,34.82077],[-93.21176,34.8206],[-93.21212,34.82059],[-93.21221,34.81945],[-93.21204,34.81914],[-93.21131,34.81911],[-93.21113,34.81891],[-93.21051,34.81913],[-93.21021,34.81901],[-93.21131,34.81811],[-93.21202,34.81781],[-93.21254,34.81643],[-93.2132,34.81578],[-93.21371,34.81555],[-93.21404,34.81522],[-93.2146,34.81522],[-93.21496,34.81508],[-93.21549,34.81517],[-93.21579,34.81502],[-93.21544,34.81484],[-93.21558,34.81429],[-93.21529,34.81364],[-93.21529,34.81267],[-93.21464,34.81179],[-93.21466,34.81157],[-93.21513,34.81127],[-93.21519,34.81089],[-93.21584,34.81052],[-93.21735,34.81105],[-93.21746,34.81119],[-93.21735,34.8115],[-93.21763,34.8115],[-93.21798,34.8113],[-93.21885,34.81171],[-93.21931,34.81216],[-93.2193,34.81281],[-93.21903,34.81337],[-93.21772,34.81396],[-93.2171,34.81442],[-93.21696,34.81465],[-93.21696,34.81506],[-93.21665,34.8152],[-93.21655,34.81554],[-93.21674,34.81556],[-93.21699,34.81539],[-93.21703,34.81504],[-93.21747,34.81501],[-93.21773,34.8153],[-93.2179,34.81528],[-93.21813,34.81502],[-93.21809,34.81465],[-93.21822,34.81447],[-93.21872,34.81441],[-93.21895,34.8146],[-93.21894,34.81534],[-93.21927,34.81595],[-93.22017,34.81678],[-93.2202,34.81705],[-93.22004,34.8173],[-93.22042,34.81765],[-93.22054,34.81803],[-93.22035,34.81828],[-93.21995,34.8184],[-93.22014,34.81893],[-93.22026,34.81897],[-93.22031,34.81936],[-93.22055,34.81943],[-93.22013,34.82017],[-93.22046,34.82035],[-93.22048,34.82068],[-93.22015,34.82113],[-93.2198,34.82135],[-93.21971,34.82171],[-93.21914,34.82242],[-93.21899,34.82245],[-93.21774,34.82153],[-93.21685,34.82167],[-93.21631,34.82191],[-93.21596,34.82179],[-93.21562,34.82238],[-93.21395,34.82386],[-93.21398,34.82423],[-93.21329,34.8242],[-93.21262,34.82445],[-93.21304,34.82458],[-93.21305,34.82499],[-93.21222,34.82557],[-93.21102,34.82551],[-93.21052,34.82521],[-93.21006,34.82513],[-93.209,34.82513],[-93.20767,34.82559],[-93.20677,34.82558],[-93.20588,34.82588],[-93.20532,34.82576],[-93.20503,34.82641],[-93.20415,34.82689],[-93.20374,34.82734],[-93.20328,34.82675],[-93.20283,34.82653],[-93.20312,34.82623]]],[[[-93.2038,34.82753],[-93.2041,34.82759],[-93.20461,34.828],[-93.20464,34.82847],[-93.20437,34.82853],[-93.20381,34.82831],[-93.20366,34.82778],[-93.2038,34.82753]]],[[[-93.20683,34.83248],[-93.20686,34.83138],[-93.20653,34.83086],[-93.20697,34.83066],[-93.20736,34.83027],[-93.20734,34.83013],[-93.20558,34.82899],[-93.20497,34.82846],[-93.20482,34.82807],[-93.20526,34.8279],[-93.20598,34.82806],[-93.2067,34.82786],[-93.20714,34.82748],[-93.20728,34.82674],[-93.20753,34.82633],[-93.20787,34.82628],[-93.20847,34.82649],[-93.20981,34.82615],[-93.20984,34.82583],[-93.20963,34.8261],[-93.20939,34.8259],[-93.2094,34.82563],[-93.20963,34.82543],[-93.2098,34.82549],[-93.2099,34.82577],[-93.21008,34.82558],[-93.21083,34.82553],[-93.21249,34.82649],[-93.21286,34.82631],[-93.21381,34.8263],[-93.21481,34.82687],[-93.21494,34.82673],[-93.21469,34.82629],[-93.21551,34.82598],[-93.21615,34.82639],[-93.21668,34.82646],[-93.21698,34.82731],[-93.21678,34.82768],[-93.2171,34.82798],[-93.21643,34.82879],[-93.21501,34.82983],[-93.21375,34.83009],[-93.21125,34.83003],[-93.21098,34.83015],[-93.21071,34.83007],[-93.21,34.83015],[-93.20962,34.83056],[-93.20968,34.83108],[-93.20994,34.83145],[-93.20971,34.83261],[-93.20893,34.83274],[-93.20831,34.83222],[-93.20777,34.83231],[-93.20756,34.83248],[-93.20751,34.8327],[-93.20786,34.8331],[-93.20786,34.83336],[-93.20768,34.83336],[-93.20734,34.83292],[-93.20695,34.83272],[-93.20683,34.83248]]]]},"properties":{"fire_id":"ufid:2023-ARARS-0056D7","source_collection":"history-2023","source_objectid":21904,"incident_name":"Trail 45","mapped_acres":793.0,"mapped_acres_source":"poly_GISAcres","gis_acres":793.0,"auto_acres":358.476246657467,"reported_acres":793.0,"percent_contained":96.0,"state":"AR","state_wfigs":"US-AR","county":"Perry","discovery_time_utc":"2023-09-04T19:00:00Z","perimeter_time_utc":"2023-09-05T00:00:00Z","perimeter_edit_time_utc":"2023-10-20T17:21:52Z","incident_modified_time_utc":"2023-09-13T13:37:24Z","containment_time_utc":null,"control_time_utc":null,"fire_out_time_utc":null,"fire_cause":"Undetermined","fire_cause_general":null,"map_method":"Image Interpretation","source_dataset":"2023 NIFS","unique_fire_identifier":"2023-ARARS-0056D7","irwin_id":"{D1C35534-203E-4771-8556-0C4BB4BA5484}","global_id":"037baec6-4b0b-4646-ac01-95fe988129d9"}},{"type":"Feature","geometry":{"type":"Polygon","coordinates":[[[-93.32388,34.87946],[-93.32258,34.88048],[-93.32103,34.88127],[-93.31746,34.88132],[-93.31464,34.88155],[-93.31317,34.88214],[-93.31276,34.88276],[-93.3118,34.8829],[-93.31032,34.88344],[-93.30836,34.88335],[-93.30743,34.88406],[-93.30541,34.88459],[-93.30424,34.88442],[-93.30356,34.884],[-93.30283,34.88321],[-93.30239,34.88152],[-93.3027,34.8809],[-93.30544,34.87969],[-93.30661,34.87955],[-93.30768,34.8791],[-93.30901,34.87887],[-93.30956,34.87834],[-93.31015,34.87679],[-93.31077,34.87597],[-93.31252,34.87561],[-93.31372,34.87592],[-93.31478,34.87668],[-93.31451,34.87721],[-93.31513,34.87693],[-93.31581,34.87696],[-93.3165,34.87741],[-93.3167,34.87814],[-93.31719,34.87766],[-93.31822,34.87783],[-93.32003,34.87823],[-93.32141,34.87918],[-93.32258,34.87915],[-93.32388,34.87946]]]},"properties":{"fire_id":"ufid:2023-AROUF-002477","source_collection":"history-2023","source_objectid":23642,"incident_name":"Buchanan Ridge","mapped_acres":225.77,"mapped_acres_source":"poly_GISAcres","gis_acres":225.77,"auto_acres":225.76925781289432,"reported_acres":170.0,"percent_contained":null,"state":"AR","state_wfigs":"US-AR","county":"Yell","discovery_time_utc":"2023-12-13T18:21:48Z","perimeter_time_utc":"2024-02-21T15:35:18Z","perimeter_edit_time_utc":"2024-02-21T15:35:19Z","incident_modified_time_utc":"2023-12-27T19:58:33Z","containment_time_utc":"2023-12-14T21:12:00Z","control_time_utc":"2023-12-27T19:40:00Z","fire_out_time_utc":"2024-01-02T16:00:00Z","fire_cause":"Natural","fire_cause_general":"Natural","map_method":"Hand Sketch","source_dataset":"FFP","unique_fire_identifier":"2023-AROUF-002477","irwin_id":"{0A331CDB-3D8D-48E1-971A-1D624E1A8E82}","global_id":"bf27d69d-fdd2-468d-b7e6-47908a6203fb"}},{"type":"Feature","geometry":{"type":"Polygon","coordinates":[[[-94.23581,34.952],[-94.23582,34.95202],[-94.2358,34.95201],[-94.23581,34.952]]]},"properties":{"fire_id":"ufid:2023-AROUF-002174","source_collection":"history-2023","source_objectid":23771,"incident_name":"Center Piont","mapped_acres":0.01,"mapped_acres_source":"poly_GISAcres","gis_acres":0.01,"auto_acres":0.0007751733301280698,"reported_acres":0.1,"percent_contained":null,"state":"AR","state_wfigs":"US-AR","county":"Scott","discovery_time_utc":"2023-10-20T21:59:00Z","perimeter_time_utc":"2024-02-01T19:58:28Z","perimeter_edit_time_utc":"2024-02-01T19:58:29Z","incident_modified_time_utc":"2024-01-12T20:33:17Z","containment_time_utc":"2023-10-21T22:00:00Z","control_time_utc":"2023-10-22T20:45:00Z","fire_out_time_utc":"2023-10-24T08:39:00Z","fire_cause":"Human","fire_cause_general":"Equipment and vehicle use","map_method":"Hand Sketch","source_dataset":"FFP","unique_fire_identifier":"2023-AROUF-002174","irwin_id":"{8914BE7D-18E7-4755-AE9B-3BE36DBFF385}","global_id":"d2033ef3-1e19-4f95-8be8-4329e8e70421"}},{"type":"Feature","geometry":{"type":"Polygon","coordinates":[[[-93.10376,34.8202],[-93.10275,34.81932],[-93.1014,34.81917],[-93.10139,34.81825],[-93.10059,34.81779],[-93.09464,34.81788],[-93.09281,34.81816],[-93.09287,34.81632],[-93.0943,34.8162],[-93.0953,34.81578],[-93.09571,34.81577],[-93.09581,34.81556],[-93.09657,34.81551],[-93.09746,34.81516],[-93.09851,34.81528],[-93.09881,34.81509],[-93.0997,34.81525],[-93.10068,34.81622],[-93.10223,34.81714],[-93.10266,34.81822],[-93.10321,34.81909],[-93.10363,34.81965],[-93.10399,34.8199],[-93.10376,34.8202]]]},"properties":{"fire_id":"ufid:2023-AROUF-001762","source_collection":"history-2023","source_objectid":23909,"incident_name":"Sugar Creek","mapped_acres":55.82,"mapped_acres_source":"poly_GISAcres","gis_acres":55.82,"auto_acres":55.81780139452789,"reported_acres":63.0,"percent_contained":null,"state":"AR","state_wfigs":"US-AR","county":"Perry","discovery_time_utc":"2023-08-25T17:02:00Z","perimeter_time_utc":"2024-02-21T15:42:59Z","perimeter_edit_time_utc":"2024-02-21T15:43:00Z","incident_modified_time_utc":"2023-09-27T16:06:14Z","containment_time_utc":"2023-08-26T01:04:00Z","control_time_utc":"2023-09-08T19:20:00Z","fire_out_time_utc":"2023-09-21T14:00:00Z","fire_cause":"Natural","fire_cause_general":"Natural","map_method":"Hand Sketch","source_dataset":"FFP","unique_fire_identifier":"2023-AROUF-001762","irwin_id":"{F67BCD74-C880-4F28-BB4C-9CCA2B88E140}","global_id":"384d33eb-752c-428f-893d-2347f4199f61"}},{"type":"Feature","geometry":{"type":"MultiPolygon","coordinates":[[[[-93.55319,34.48538],[-93.55328,34.48588],[-93.55283,34.48667],[-93.55183,34.48695],[-93.55013,34.48701],[-93.54988,34.48748],[-93.54964,34.48765],[-93.54943,34.48762],[-93.54933,34.48725],[-93.5485,34.48707],[-93.54813,34.48679],[-93.54607,34.48705],[-93.54567,34.48699],[-93.54522,34.48667],[-93.54504,34.48604],[-93.54515,34.48588],[-93.54633,34.48605],[-93.5468,34.48584],[-93.54704,34.48502],[-93.54698,34.48475],[-93.54781,34.48486],[-93.54871,34.48461],[-93.54965,34.48467],[-93.55115,34.48488],[-93.55319,34.48538]]],[[[-93.55321,34.48541],[-93.55319,34.48538],[-93.55324,34.48536],[-93.55321,34.48541]]],[[[-93.54834,34.48695],[-93.54835,34.48697],[-93.54834,34.487],[-93.54834,34.48695]]]]},"properties":{"fire_id":"ufid:2023-AROUF-001980","source_collection":"history-2023","source_objectid":25001,"incident_name":"Mazarn Creek","mapped_acres":37.65,"mapped_acres_source":"poly_GISAcres","gis_acres":37.65,"auto_acres":37.65417697867137,"reported_acres":38.29,"percent_contained":null,"state":"AR","state_wfigs":"US-AR","county":"Montgomery","discovery_time_utc":"2023-09-16T18:06:05Z","perimeter_time_utc":"2024-03-23T20:45:08Z","perimeter_edit_time_utc":"2024-03-23T20:45:08Z","incident_modified_time_utc":"2023-09-17T00:30:23Z","containment_time_utc":"2023-09-17T00:25:00Z","control_time_utc":null,"fire_out_time_utc":"2023-10-05T17:00:00Z","fire_cause":"Natural","fire_cause_general":"Natural","map_method":"Hand Sketch","source_dataset":"FFP","unique_fire_identifier":"2023-AROUF-001980","irwin_id":"{F8CFC010-E43E-4C79-8BA1-82A96F86A4DA}","global_id":"d644e171-3b17-431a-9ee6-004f91f400c9"}},{"type":"Feature","geometry":{"type":"Polygon","coordinates":[[[-93.74684,34.90994],[-93.74758,34.90932],[-93.74771,34.90888],[-93.74856,34.90919],[-93.74876,34.909],[-93.7493,34.90891],[-93.74994,34.9092],[-93.7504,34.90962],[-93.75074,34.91025],[-93.75056,34.91049],[-93.75076,34.91078],[-93.75105,34.91084],[-93.75113,34.91103],[-93.75164,34.911],[-93.7516,34.9117],[-93.75124,34.91212],[-93.75071,34.91226],[-93.75046,34.91261],[-93.74941,34.91274],[-93.74869,34.91302],[-93.74791,34.91266],[-93.74791,34.91249],[-93.74735,34.91191],[-93.74763,34.91166],[-93.74685,34.91116],[-93.74672,34.91081],[-93.74684,34.90994]]]},"properties":{"fire_id":"ufid:2023-AROUF-001897","source_collection":"history-2023","source_objectid":25062,"incident_name":"Nola 3","mapped_acres":33.74,"mapped_acres_source":"poly_GISAcres","gis_acres":33.74,"auto_acres":33.73902631777776,"reported_acres":30.72,"percent_contained":null,"state":"AR","state_wfigs":"US-AR","county":"Scott","discovery_time_utc":"2023-09-06T22:39:14Z","perimeter_time_utc":"2024-03-26T14:59:54Z","perimeter_edit_time_utc":"2024-03-26T14:59:54Z","incident_modified_time_utc":"2023-09-29T16:07:00Z","containment_time_utc":"2023-09-25T02:20:00Z","control_time_utc":"2023-09-25T02:35:00Z","fire_out_time_utc":"2023-09-29T17:00:00Z","fire_cause":"Natural","fire_cause_general":"Natural","map_method":"Hand Sketch","source_dataset":"FFP","unique_fire_identifier":"2023-AROUF-001897","irwin_id":"{2EF257BE-B2CA-46A7-9EAD-A34C25EEA7C9}","global_id":"2fbf9add-038c-425c-a760-44b3c78c5364"}}]}
