{"type":"FeatureCollection","features":[{"type":"Feature","geometry":{"type":"Polygon","coordinates":[[[-115.33368,36.02307],[-115.33366,36.02302],[-115.3337,36.02301],[-115.33368,36.02307]]]},"properties":{"fire_id":"ufid:2023-NVSND-500177","source_collection":"history-2023","source_objectid":17696,"incident_name":"Kulka","mapped_acres":0.00844984127557871,"mapped_acres_source":"poly_GISAcres","gis_acres":0.00844984127557871,"auto_acres":0.00844980783051664,"reported_acres":0.1,"percent_contained":null,"state":"AZ","state_wfigs":"US-AZ","county":"Mohave","discovery_time_utc":"2023-02-25T23:13:00Z","perimeter_time_utc":null,"perimeter_edit_time_utc":"2023-06-26T18:55:42Z","incident_modified_time_utc":"2023-10-16T21:35:22Z","containment_time_utc":"2023-02-26T01:00:00Z","control_time_utc":"2023-02-26T01:00:00Z","fire_out_time_utc":"2023-02-28T06:00:00Z","fire_cause":"Human","fire_cause_general":null,"map_method":"Mixed Methods","source_dataset":"2023 NIFS","unique_fire_identifier":"2023-NVSND-500177","irwin_id":"{6F983176-C09F-4D21-8BA4-B6AAD0E6ECA7}","global_id":"86ff4840-6989-45c2-82e4-db5ba809d933"}}]}
