{"type":"FeatureCollection","features":[{"type":"Feature","geometry":{"type":"MultiPolygon","coordinates":[[[[-120.8865,39.95777],[-120.8865,39.95778],[-120.88643,39.95777],[-120.8865,39.95777]]],[[[-120.8868,39.95777],[-120.88651,39.95815],[-120.8865,39.95778],[-120.8868,39.95777]]],[[[-120.88702,39.95733],[-120.88736,39.95743],[-120.88736,39.95763],[-120.88681,39.95758],[-120.88667,39.95763],[-120.88667,39.95777],[-120.88666,39.95767],[-120.8865,39.95777],[-120.88649,39.95749],[-120.88643,39.95777],[-120.88623,39.95777],[-120.88644,39.95749],[-120.88702,39.95733]]]]},"properties":{"fire_id":"ufid:2023-CAPNF-000198","source_collection":"history-2023","source_objectid":16499,"incident_name":"OAKS","mapped_acres":0.25,"mapped_acres_source":"poly_GISAcres","gis_acres":0.25,"auto_acres":0.713135610379403,"reported_acres":0.6,"percent_contained":null,"state":"CA","state_wfigs":"US-CA","county":"Plumas","discovery_time_utc":"2023-04-30T22:28:00Z","perimeter_time_utc":"2023-05-01T03:28:32Z","perimeter_edit_time_utc":"2023-05-05T16:21:05Z","incident_modified_time_utc":"2023-05-06T18:36:06Z","containment_time_utc":"2023-05-01T00:00:00Z","control_time_utc":"2023-05-01T01:18:00Z","fire_out_time_utc":"2023-05-05T18:27:00Z","fire_cause":"Human","fire_cause_general":null,"map_method":"Auto-generated","source_dataset":"2023 NIFS","unique_fire_identifier":"2023-CAPNF-000198","irwin_id":"{6986E241-0449-4DB8-97AF-06A8AFB75059}","global_id":"3a2bc709-d033-407b-be7c-e7c0ba1b7512"}},{"type":"Feature","geometry":{"type":"Polygon","coordinates":[[[-120.8396,36.55123],[-120.84012,36.55105],[-120.84044,36.55127],[-120.84044,36.55139],[-120.84003,36.55162],[-120.83945,36.55145],[-120.83943,36.55135],[-120.83959,36.55139],[-120.8396,36.55123]]]},"properties":{"fire_id":"ufid:2023-CABEU-003209","source_collection":"history-2023","source_objectid":17222,"incident_name":"IDRIA","mapped_acres":0.01,"mapped_acres_source":"poly_GISAcres","gis_acres":0.01,"auto_acres":0.857304885401063,"reported_acres":0.01,"percent_contained":null,"state":"CA","state_wfigs":"US-CA","county":"San Benito","discovery_time_utc":"2023-05-29T22:56:11Z","perimeter_time_utc":"2023-05-30T03:56:11Z","perimeter_edit_time_utc":"2023-06-05T15:18:22Z","incident_modified_time_utc":"2023-05-30T17:12:08Z","containment_time_utc":"2023-05-29T23:42:00Z","control_time_utc":"2023-05-30T01:18:00Z","fire_out_time_utc":null,"fire_cause":"Undetermined","fire_cause_general":null,"map_method":"Hand Sketch","source_dataset":"2023 NIFS","unique_fire_identifier":"2023-CABEU-003209","irwin_id":"{515784F3-55A4-41AF-A9FE-08B4F8FDF620}","global_id":"28f27b39-5915-4007-a486-de8fc2a32715"}},{"type":"Feature","geometry":{"type":"Polygon","coordinates":[[[-120.90712,36.75015],[-120.90736,36.7502],[-120.90805,36.75081],[-120.90953,36.75131],[-120.90962,36.75125],[-120.90977,36.7514],[-120.90944,36.75189],[-120.90949,36.75202],[-120.90917,36.75222],[-120.90891,36.75267],[-120.9075,36.75347],[-120.90743,36.75379],[-120.9072,36.75381],[-120.90723,36.7539],[-120.90695,36.75404],[-120.90655,36.75384],[-120.9062,36.75424],[-120.90504,36.75493],[-120.90472,36.75486],[-120.90452,36.75454],[-120.90307,36.75432],[-120.90258,36.75398],[-120.90199,36.75378],[-120.90125,36.75398],[-120.90065,36.75396],[-120.89926,36.75346],[-120.89918,36.7532],[-120.89941,36.75287],[-120.89939,36.75269],[-120.89973,36.75278],[-120.89967,36.75262],[-120.90004,36.75248],[-120.90013,36.7522],[-120.90042,36.75194],[-120.90101,36.75165],[-120.90108,36.75139],[-120.90181,36.75135],[-120.90266,36.75166],[-120.90319,36.75165],[-120.90403,36.75136],[-120.90411,36.75116],[-120.90428,36.75127],[-120.90467,36.75107],[-120.90477,36.75052],[-120.9056,36.75068],[-120.90614,36.75053],[-120.90644,36.75062],[-120.90712,36.75015]]]},"properties":{"fire_id":"ufid:2023-CABEU-003292","source_collection":"history-2023","source_objectid":17223,"incident_name":"PANOCHE","mapped_acres":0.01,"mapped_acres_source":"poly_GISAcres","gis_acres":0.01,"auto_acres":67.2601573464751,"reported_acres":0.01,"percent_contained":null,"state":"CA","state_wfigs":"US-CA","county":"Fresno","discovery_time_utc":"2023-06-03T19:25:31Z","perimeter_time_utc":"2023-06-04T00:25:31Z","perimeter_edit_time_utc":"2023-06-05T15:24:10Z","incident_modified_time_utc":"2023-07-07T00:56:29Z","containment_time_utc":"2023-06-04T02:00:00Z","control_time_utc":"2023-06-04T05:48:00Z","fire_out_time_utc":null,"fire_cause":"Undetermined","fire_cause_general":null,"map_method":"Hand Sketch","source_dataset":"2023 NIFS","unique_fire_identifier":"2023-CABEU-003292","irwin_id":"{65C3D0C8-EDED-42AB-A439-7AAA07BD7122}","global_id":"d1f37e06-4627-4cb3-91ab-9fd31d818da6"}},{"type":"Feature","geometry":{"type":"Polygon","coordinates":[[[-121.36752,39.32114],[-121.36943,39.32217],[-121.36992,39.32264],[-121.37017,39.32328],[-121.36997,39.32405],[-121.37014,39.32461],[-121.3698,39.32516],[-121.36874,39.32563],[-121.3682,39.32546],[-121.36815,39.32571],[-121.36831,39.32587],[-121.36764,39.32673],[-121.36762,39.32712],[-121.36794,39.32771],[-121.3679,39.32791],[-121.3669,39.32822],[-121.36458,39.32866],[-121.36383,39.32855],[-121.36353,39.32874],[-121.36295,39.32849],[-121.36239,39.32866],[-121.36166,39.3283],[-121.36165,39.32802],[-121.36148,39.32781],[-121.36079,39.32785],[-121.36031,39.32773],[-121.35967,39.32727],[-121.35986,39.32701],[-121.36012,39.32691],[-121.36038,39.3263],[-121.36018,39.3262],[-121.3602,39.32599],[-121.36055,39.32559],[-121.36078,39.32553],[-121.36167,39.32585],[-121.36208,39.32575],[-121.36279,39.32589],[-121.36297,39.32452],[-121.36234,39.32478],[-121.36195,39.32444],[-121.3622,39.32423],[-121.36227,39.32372],[-121.36263,39.32364],[-121.36271,39.32345],[-121.36302,39.32343],[-121.36358,39.32249],[-121.36457,39.32198],[-121.36477,39.32166],[-121.36457,39.32107],[-121.36466,39.32094],[-121.36516,39.32089],[-121.36674,39.32135],[-121.36752,39.32114]]]},"properties":{"fire_id":"ufid:2023-CANEU-016726","source_collection":"history-2023","source_objectid":17479,"incident_name":"Scott","mapped_acres":115.496148456574,"mapped_acres_source":"poly_GISAcres","gis_acres":115.496148456574,"auto_acres":115.496164408123,"reported_acres":0.01,"percent_contained":null,"state":"CA","state_wfigs":"US-CA","county":"Yuba","discovery_time_utc":"2023-06-15T22:45:09Z","perimeter_time_utc":null,"perimeter_edit_time_utc":"2023-06-17T01:46:09Z","incident_modified_time_utc":"2024-01-21T04:12:08Z","containment_time_utc":"2023-06-17T02:01:00Z","control_time_utc":"2023-06-26T01:35:00Z","fire_out_time_utc":null,"fire_cause":"Undetermined","fire_cause_general":null,"map_method":"Mixed Methods","source_dataset":"2023 NIFS","unique_fire_identifier":"2023-CANEU-016726","irwin_id":"{AECB3408-D814-47D6-B2E2-BC17CB992D5C}","global_id":"21cca61b-55a9-4117-b932-12e22e5a3d0c"}},{"type":"Feature","geometry":{"type":"MultiPolygon","coordinates":[[[[-120.18803,36.54669],[-120.18653,36.54569],[-120.18812,36.54563],[-120.18819,36.54656],[-120.18803,36.54669]]],[[[-120.18813,36.54758],[-120.18765,36.54761],[-120.18762,36.54742],[-120.18786,36.54709],[-120.1881,36.54709],[-120.18813,36.54758]]],[[[-120.18699,36.55752],[-120.18632,36.55774],[-120.18632,36.55804],[-120.18607,36.55792],[-120.18598,36.55723],[-120.18616,36.55636],[-120.18754,36.55683],[-120.18783,36.55673],[-120.18783,36.55646],[-120.18819,36.55644],[-120.18824,36.55795],[-120.18815,36.5582],[-120.1879,36.55839],[-120.18769,36.55837],[-120.18747,36.55786],[-120.18725,36.55781],[-120.18699,36.55752]]],[[[-120.18281,36.56031],[-120.17997,36.55831],[-120.17842,36.55763],[-120.17828,36.55745],[-120.17824,36.55693],[-120.17752,36.55678],[-120.17009,36.55652],[-120.16955,36.55641],[-120.16954,36.54944],[-120.1696,36.54641],[-120.16975,36.54586],[-120.17043,36.54567],[-120.1719,36.54577],[-120.173,36.54565],[-120.17622,36.54563],[-120.18134,36.54567],[-120.18307,36.5458],[-120.18359,36.54597],[-120.18379,36.54627],[-120.18423,36.54619],[-120.1848,36.54646],[-120.18589,36.5467],[-120.18689,36.54747],[-120.1872,36.54758],[-120.18741,36.54741],[-120.18747,36.54757],[-120.18733,36.54764],[-120.18814,36.54798],[-120.18825,36.55153],[-120.18823,36.55298],[-120.18809,36.55355],[-120.18815,36.555],[-120.18811,36.55543],[-120.18796,36.55557],[-120.18807,36.55586],[-120.18795,36.55615],[-120.18747,36.55642],[-120.187,36.55615],[-120.18729,36.55582],[-120.1874,36.55541],[-120.18711,36.55532],[-120.18682,36.55559],[-120.18661,36.55547],[-120.18639,36.55555],[-120.18619,36.55529],[-120.18657,36.55449],[-120.18653,36.5537],[-120.18628,36.55312],[-120.18524,36.55298],[-120.18497,36.55274],[-120.18437,36.55254],[-120.18426,36.55269],[-120.18441,36.55283],[-120.1843,36.55288],[-120.18401,36.55233],[-120.18359,36.55203],[-120.18338,36.55209],[-120.18265,36.55131],[-120.18192,36.55107],[-120.1817,36.55128],[-120.18148,36.55129],[-120.18105,36.55091],[-120.18062,36.55096],[-120.18024,36.55052],[-120.17971,36.55041],[-120.17966,36.55096],[-120.17984,36.55153],[-120.18127,36.55233],[-120.18245,36.55266],[-120.18278,36.553],[-120.18379,36.55312],[-120.18366,36.5537],[-120.18375,36.55387],[-120.18356,36.55399],[-120.18366,36.5542],[-120.18548,36.5546],[-120.18575,36.55477],[-120.186,36.55536],[-120.18538,36.55592],[-120.18439,36.55603],[-120.18469,36.55619],[-120.18459,36.55649],[-120.18496,36.55657],[-120.18514,36.55716],[-120.18486,36.55795],[-120.18569,36.55822],[-120.18686,36.55954],[-120.18708,36.55965],[-120.18735,36.56015],[-120.18281,36.56031]]]]},"properties":{"fire_id":"ufid:2023-CAFKU-011910","source_collection":"history-2023","source_objectid":17715,"incident_name":"SLOUGH","mapped_acres":0.01,"mapped_acres_source":"poly_GISAcres","gis_acres":0.01,"auto_acres":517.695143079457,"reported_acres":640.0,"percent_contained":100.0,"state":"CA","state_wfigs":"US-CA","county":"Fresno","discovery_time_utc":"2023-06-18T18:31:03Z","perimeter_time_utc":"2023-06-18T23:31:03Z","perimeter_edit_time_utc":"2023-06-27T15:10:07Z","incident_modified_time_utc":"2024-03-07T00:05:36Z","containment_time_utc":"2023-06-18T21:55:00Z","control_time_utc":"2023-06-19T00:35:00Z","fire_out_time_utc":null,"fire_cause":"Undetermined","fire_cause_general":null,"map_method":"Image Interpretation","source_dataset":"2023 NIFS","unique_fire_identifier":"2023-CAFKU-011910","irwin_id":"{BFFC2BD5-5477-4EB6-9FE4-9B890166EA3C}","global_id":"72dca348-34c2-4113-ae9e-772720fe3389"}},{"type":"Feature","geometry":{"type":"Polygon","coordinates":[[[-120.03929,39.78248],[-120.03918,39.78209],[-120.03934,39.78235],[-120.03929,39.78248]]]},"properties":{"fire_id":"ufid:2023-NVCCD-030235","source_collection":"history-2023","source_objectid":17765,"incident_name":"Hallelujah","mapped_acres":0.08632249,"mapped_acres_source":"poly_GISAcres","gis_acres":0.08632249,"auto_acres":0.08632214628205301,"reported_acres":0.1,"percent_contained":null,"state":"CA","state_wfigs":"US-CA","county":"Lassen","discovery_time_utc":"2023-05-28T19:06:26Z","perimeter_time_utc":"2023-06-29T20:12:18Z","perimeter_edit_time_utc":"2023-06-29T20:12:18Z","incident_modified_time_utc":"2023-06-08T20:32:29Z","containment_time_utc":"2023-05-28T21:00:00Z","control_time_utc":"2023-05-28T21:00:00Z","fire_out_time_utc":"2023-06-08T20:32:00Z","fire_cause":"Natural","fire_cause_general":"Natural","map_method":"Mixed Methods","source_dataset":"FFP","unique_fire_identifier":"2023-NVCCD-030235","irwin_id":"{1992844A-B36F-4B7A-B62B-CF6CB20D78BC}","global_id":"143b0029-d578-4000-a6d5-3a7598380e50"}},{"type":"Feature","geometry":{"type":"MultiPolygon","coordinates":[[[[-120.19413,35.72671],[-120.19421,35.72671],[-120.19421,35.72674],[-120.19413,35.72671]]],[[[-120.19413,35.72671],[-120.19446,35.72688],[-120.19443,35.72701],[-120.19403,35.72712],[-120.19146,35.72605],[-120.18999,35.72535],[-120.18952,35.72485],[-120.18961,35.72478],[-120.18916,35.72448],[-120.19413,35.72671]]]]},"properties":{"fire_id":"ufid:2023-CAKRN-028282","source_collection":"history-2023","source_objectid":18600,"incident_name":"TANK","mapped_acres":5.77737805045567,"mapped_acres_source":"poly_GISAcres","gis_acres":5.77737805045567,"auto_acres":5.77735539457188,"reported_acres":null,"percent_contained":null,"state":"CA","state_wfigs":"US-CA","county":"Kern","discovery_time_utc":"2023-06-20T22:28:00Z","perimeter_time_utc":"2023-06-21T03:28:00Z","perimeter_edit_time_utc":"2023-07-26T23:04:06Z","incident_modified_time_utc":"2023-06-29T23:43:49Z","containment_time_utc":null,"control_time_utc":null,"fire_out_time_utc":null,"fire_cause":null,"fire_cause_general":null,"map_method":"GPS-Walked","source_dataset":"2023 NIFS","unique_fire_identifier":"2023-CAKRN-028282","irwin_id":"{661E2ADE-9A60-4743-9FFF-52EFB2E700FB}","global_id":"38da47d5-7c9b-4b52-b161-d89ba387fb5f"}},{"type":"Feature","geometry":{"type":"MultiPolygon","coordinates":[[[[-120.90709,39.95405],[-120.90711,39.95407],[-120.90706,39.95403],[-120.90709,39.95405]]],[[[-120.90713,39.9541],[-120.90729,39.95425],[-120.90696,39.9545],[-120.9068,39.95412],[-120.90698,39.95398],[-120.90706,39.95403],[-120.90704,39.95402],[-120.90707,39.95404],[-120.90711,39.95408],[-120.90713,39.9541]],[[-120.907119,39.954098],[-120.90711,39.95408],[-120.907024,39.954012],[-120.907119,39.954098]],[[-120.907191,39.954164],[-120.907022,39.954011],[-120.907007,39.954003],[-120.907191,39.954164]],[[-120.906998,39.953995],[-120.906995,39.95399],[-120.906991,39.95399],[-120.906998,39.953995]]],[[[-120.90716,39.95411],[-120.90714,39.9541],[-120.90711,39.95407],[-120.90716,39.95411]]],[[[-120.90714,39.9541],[-120.90719,39.95414],[-120.90713,39.9541],[-120.90714,39.9541]]],[[[-120.90721,39.95411],[-120.907214,39.954146],[-120.90716,39.95411],[-120.90721,39.95411]]],[[[-120.90702,39.95398],[-120.90699,39.95397],[-120.90701,39.95395],[-120.90702,39.95398]]],[[[-120.90699,39.95397],[-120.907,39.95398],[-120.90698,39.95398],[-120.90699,39.95397]]],[[[-120.90706,39.95402],[-120.90702,39.954],[-120.907,39.95398],[-120.90706,39.95402]]]]},"properties":{"fire_id":"ufid:2023-CAPNF-000182","source_collection":"history-2023","source_objectid":19276,"incident_name":"Ridge","mapped_acres":0.1,"mapped_acres_source":"poly_GISAcres","gis_acres":0.1,"auto_acres":0.35040132999507834,"reported_acres":0.4,"percent_contained":null,"state":"CA","state_wfigs":"US-CA","county":"Plumas","discovery_time_utc":"2023-04-25T19:59:00Z","perimeter_time_utc":"2023-08-10T16:49:06Z","perimeter_edit_time_utc":"2023-08-10T16:49:06Z","incident_modified_time_utc":"2023-05-02T18:34:28Z","containment_time_utc":"2023-04-25T21:58:00Z","control_time_utc":"2023-04-25T22:32:00Z","fire_out_time_utc":"2023-04-28T20:10:00Z","fire_cause":"Human","fire_cause_general":"Debris and open burning","map_method":"Phone/Tablet","source_dataset":"FFP","unique_fire_identifier":"2023-CAPNF-000182","irwin_id":"{AA83B974-DE84-4494-8664-041A3D02CE93}","global_id":"d92e6688-599c-44b5-9964-fbe8bc2cc87a"}},{"type":"Feature","geometry":{"type":"Polygon","coordinates":[[[-120.01316,35.08365],[-120.01424,35.08379],[-120.01454,35.08415],[-120.0154,35.08453],[-120.0163,35.0852],[-120.0165,35.08579],[-120.01633,35.08609],[-120.01649,35.08616],[-120.01682,35.08595],[-120.01753,35.08603],[-120.01798,35.08632],[-120.01818,35.08677],[-120.0184,35.08681],[-120.01874,35.08654],[-120.01898,35.08659],[-120.01966,35.08594],[-120.0198,35.08591],[-120.01995,35.0861],[-120.01956,35.08756],[-120.01856,35.08856],[-120.01832,35.08947],[-120.01781,35.0898],[-120.01761,35.08977],[-120.01753,35.0903],[-120.01732,35.09045],[-120.01687,35.09045],[-120.01653,35.09033],[-120.0164,35.09001],[-120.01614,35.08992],[-120.0159,35.09004],[-120.01554,35.09051],[-120.01557,35.09161],[-120.0153,35.09172],[-120.01491,35.09138],[-120.01445,35.09132],[-120.01372,35.0916],[-120.0134,35.09215],[-120.01328,35.09211],[-120.01329,35.09166],[-120.0127,35.09179],[-120.01211,35.09165],[-120.0114,35.0913],[-120.01106,35.09129],[-120.01092,35.09108],[-120.01115,35.09071],[-120.01107,35.09048],[-120.0115,35.08952],[-120.01196,35.08934],[-120.01252,35.08979],[-120.01245,35.08945],[-120.01262,35.08911],[-120.01256,35.08883],[-120.01278,35.08853],[-120.01264,35.08825],[-120.01278,35.08787],[-120.01264,35.08778],[-120.01255,35.08735],[-120.01269,35.08616],[-120.01319,35.08472],[-120.01316,35.08365]]]},"properties":{"fire_id":"ufid:2023-CALPF-002238","source_collection":"history-2023","source_objectid":20144,"incident_name":"Rinconada","mapped_acres":96.0,"mapped_acres_source":"poly_GISAcres","gis_acres":96.0,"auto_acres":96.37648897788374,"reported_acres":100.0,"percent_contained":null,"state":"CA","state_wfigs":"US-CA","county":"San Luis Obispo","discovery_time_utc":"2023-08-11T23:11:00Z","perimeter_time_utc":"2023-08-24T21:57:01Z","perimeter_edit_time_utc":"2023-08-24T21:57:01Z","incident_modified_time_utc":"2023-08-17T00:28:05Z","containment_time_utc":"2023-08-13T02:39:00Z","control_time_utc":"2023-08-17T00:30:00Z","fire_out_time_utc":"2023-08-17T00:30:00Z","fire_cause":"Human","fire_cause_general":"Equipment and vehicle use","map_method":"IR Image Interpretation","source_dataset":"FFP","unique_fire_identifier":"2023-CALPF-002238","irwin_id":"{8096C968-5F75-461B-8FF2-1DF60D0128CB}","global_id":"6efa3cd8-46a5-464b-bfde-47a899b75319"}},{"type":"Feature","geometry":{"type":"Polygon","coordinates":[[[-120.06466,35.09749],[-120.06631,35.09818],[-120.06883,35.09993],[-120.06843,35.10087],[-120.0679,35.10158],[-120.06667,35.1019],[-120.06601,35.10181],[-120.06597,35.10193],[-120.06556,35.10207],[-120.06528,35.10187],[-120.06504,35.10187],[-120.06468,35.10207],[-120.0639,35.10143],[-120.06275,35.0998],[-120.06267,35.09924],[-120.06242,35.0991],[-120.06229,35.09865],[-120.0627,35.09836],[-120.0628,35.09804],[-120.06347,35.09762],[-120.06466,35.09749]]]},"properties":{"fire_id":"ufid:2023-CALPF-001190","source_collection":"history-2023","source_objectid":20438,"incident_name":"Gifford","mapped_acres":48.99339,"mapped_acres_source":"poly_GISAcres","gis_acres":48.99339,"auto_acres":48.99339893943586,"reported_acres":52.0,"percent_contained":null,"state":"CA","state_wfigs":"US-CA","county":"San Luis Obispo","discovery_time_utc":"2023-05-19T21:30:00Z","perimeter_time_utc":"2023-08-30T00:04:29Z","perimeter_edit_time_utc":"2023-08-30T00:04:29Z","incident_modified_time_utc":"2023-07-02T21:53:57Z","containment_time_utc":"2023-05-20T03:00:00Z","control_time_utc":"2023-05-24T07:00:00Z","fire_out_time_utc":"2023-05-24T16:20:00Z","fire_cause":"Undetermined","fire_cause_general":"Undetermined","map_method":"IR Image Interpretation","source_dataset":"FFP","unique_fire_identifier":"2023-CALPF-001190","irwin_id":"{C8B3654A-9148-4A10-B869-FA22D0FA1CC6}","global_id":"2596d3c4-8f57-4937-bb96-ef5c8fc07d8c"}},{"type":"Feature","geometry":{"type":"Polygon","coordinates":[[[-121.99663,39.6285],[-121.99662,39.62831],[-121.99621,39.62831],[-121.99616,39.62814],[-121.99669,39.62819],[-121.99672,39.628],[-121.99706,39.62779],[-121.99728,39.6281],[-121.99778,39.62832],[-121.99816,39.62875],[-121.99815,39.62892],[-121.99787,39.62915],[-121.99777,39.62942],[-121.997,39.62897],[-121.99663,39.6285]]]},"properties":{"fire_id":"ufid:2023-CASWR-000552","source_collection":"history-2023","source_objectid":20676,"incident_name":"SWR RIVER","mapped_acres":3.31271382866277,"mapped_acres_source":"poly_GISAcres","gis_acres":3.31271382866277,"auto_acres":3.31271389956344,"reported_acres":3.31,"percent_contained":null,"state":"CA","state_wfigs":"US-CA","county":"Glenn","discovery_time_utc":"2023-07-05T02:24:33Z","perimeter_time_utc":"2023-07-05T07:24:33Z","perimeter_edit_time_utc":"2023-09-04T21:44:36Z","incident_modified_time_utc":"2023-07-06T22:31:50Z","containment_time_utc":"2023-07-05T04:55:00Z","control_time_utc":"2023-07-06T22:30:00Z","fire_out_time_utc":null,"fire_cause":"Undetermined","fire_cause_general":null,"map_method":"GPS-Walked","source_dataset":"2023 NIFS","unique_fire_identifier":"2023-CASWR-000552","irwin_id":"{068F2B03-88E1-42EF-9F89-F3CAADA67C27}","global_id":"dc7e1e44-427d-4f6f-93f3-a2a0be4d3f24"}},{"type":"Feature","geometry":{"type":"MultiPolygon","coordinates":[[[[-122.24121,37.50782],[-122.23949,37.5076],[-122.239186,37.50743],[-122.23933,37.50734],[-122.23989,37.50611],[-122.23942,37.50727],[-122.23953,37.50729],[-122.24016,37.50567],[-122.24244,37.50387],[-122.24236,37.50352],[-122.24112,37.50239],[-122.24221,37.50325],[-122.24309,37.50424],[-122.24313,37.50458],[-122.24295,37.50467],[-122.2432,37.50506],[-122.24307,37.50513],[-122.24313,37.50536],[-122.24285,37.50542],[-122.24272,37.50587],[-122.24237,37.50605],[-122.24305,37.50612],[-122.24336,37.50636],[-122.24345,37.50676],[-122.24391,37.50687],[-122.24393,37.50723],[-122.24379,37.50734],[-122.24432,37.50746],[-122.24383,37.50767],[-122.24121,37.50782]]],[[[-122.239186,37.50743],[-122.23917,37.50744],[-122.23897,37.50731],[-122.239186,37.50743]]]]},"properties":{"fire_id":"ufid:2023-CACZU-006336","source_collection":"history-2023","source_objectid":20677,"incident_name":"WHIPPLE","mapped_acres":26.82573,"mapped_acres_source":"poly_GISAcres","gis_acres":26.82573,"auto_acres":26.825734505580282,"reported_acres":26.83,"percent_contained":null,"state":"CA","state_wfigs":"US-CA","county":"San Mateo","discovery_time_utc":"2023-06-20T21:20:21Z","perimeter_time_utc":"2025-05-23T21:30:29Z","perimeter_edit_time_utc":null,"incident_modified_time_utc":"2023-06-25T18:45:47Z","containment_time_utc":"2023-06-20T21:51:00Z","control_time_utc":"2023-06-20T23:45:00Z","fire_out_time_utc":null,"fire_cause":"Human","fire_cause_general":"Debris and open burning","map_method":"Remote Sensing Derived","source_dataset":"FFP","unique_fire_identifier":"2023-CACZU-006336","irwin_id":"{170AF22B-CBEC-44CD-81FC-91E455F99161}","global_id":"53e7b9d7-4e31-4c51-b287-5cc14e1d2773"}},{"type":"Feature","geometry":{"type":"Polygon","coordinates":[[[-120.48789,38.9566],[-120.48766,38.95684],[-120.48742,38.9568],[-120.48742,38.95663],[-120.48757,38.95661],[-120.48756,38.95645],[-120.48782,38.95612],[-120.48828,38.95612],[-120.48876,38.95656],[-120.48861,38.95671],[-120.48789,38.9566]]]},"properties":{"fire_id":"ufid:2023-CAENF-023260","source_collection":"history-2023","source_objectid":20789,"incident_name":"WENTWORTH","mapped_acres":0.01,"mapped_acres_source":"poly_GISAcres","gis_acres":0.01,"auto_acres":1.3363288269392934,"reported_acres":1.34,"percent_contained":null,"state":"CA","state_wfigs":"US-CA","county":"Placer","discovery_time_utc":"2023-08-24T00:26:21Z","perimeter_time_utc":"2023-09-06T22:33:03Z","perimeter_edit_time_utc":"2023-09-06T22:33:03Z","incident_modified_time_utc":"2023-08-30T22:10:41Z","containment_time_utc":"2023-08-24T05:02:00Z","control_time_utc":"2023-08-26T22:41:00Z","fire_out_time_utc":"2023-08-30T22:05:00Z","fire_cause":"Human","fire_cause_general":"Other causes","map_method":"GPS-Walked","source_dataset":"FFP","unique_fire_identifier":"2023-CAENF-023260","irwin_id":"{F39827F2-2866-4CCA-B9FA-6919209CEAF3}","global_id":"75936ad1-7e90-490a-a8d5-c47b3d59b15d"}},{"type":"Feature","geometry":{"type":"Polygon","coordinates":[[[-120.69601,36.57945],[-120.69506,36.57888],[-120.69514,36.578],[-120.69487,36.57778],[-120.69535,36.57683],[-120.6964,36.57643],[-120.69779,36.57658],[-120.6987,36.57643],[-120.69931,36.57647],[-120.69983,36.57799],[-120.70058,36.57923],[-120.70099,36.5794],[-120.70146,36.5799],[-120.70273,36.58084],[-120.70295,36.58132],[-120.7029,36.58168],[-120.70223,36.58226],[-120.70129,36.5823],[-120.70058,36.5817],[-120.70029,36.5818],[-120.69907,36.58129],[-120.69877,36.58084],[-120.69799,36.58044],[-120.6964,36.58007],[-120.69601,36.57945]]]},"properties":{"fire_id":"ufid:2023-CAFKU-018518","source_collection":"history-2023","source_objectid":21064,"incident_name":"POWER","mapped_acres":0.01,"mapped_acres_source":"poly_GISAcres","gis_acres":0.01,"auto_acres":60.4371045834387,"reported_acres":0.01,"percent_contained":null,"state":"CA","state_wfigs":"US-CA","county":"Fresno","discovery_time_utc":"2023-09-07T19:14:07Z","perimeter_time_utc":"2023-09-08T00:14:07Z","perimeter_edit_time_utc":"2023-09-18T17:45:20Z","incident_modified_time_utc":"2023-09-08T00:52:16Z","containment_time_utc":"2023-09-07T21:12:00Z","control_time_utc":"2023-09-07T23:23:00Z","fire_out_time_utc":null,"fire_cause":"Undetermined","fire_cause_general":null,"map_method":"Hand Sketch","source_dataset":"2023 NIFS","unique_fire_identifier":"2023-CAFKU-018518","irwin_id":"{909E5087-D942-42B8-AF65-A9C2CA95009F}","global_id":"1317e25a-9654-43df-9ff6-9a0fe16a6db8"}},{"type":"Feature","geometry":{"type":"Polygon","coordinates":[[[-120.00676,39.61818],[-120.00675,39.61815],[-120.00681,39.61817],[-120.00676,39.61818]]]},"properties":{"fire_id":"ufid:2023-NVHTF-030592","source_collection":"history-2023","source_objectid":21201,"incident_name":"Mitchell","mapped_acres":0.0043323828583217,"mapped_acres_source":"poly_GISAcres","gis_acres":0.0043323828583217,"auto_acres":0.00433238308358121,"reported_acres":0.1,"percent_contained":null,"state":"CA","state_wfigs":"US-CA","county":"Sierra","discovery_time_utc":"2023-08-18T00:43:21Z","perimeter_time_utc":null,"perimeter_edit_time_utc":"2023-09-22T19:07:46Z","incident_modified_time_utc":"2023-09-01T14:33:28Z","containment_time_utc":"2023-08-18T02:41:00Z","control_time_utc":"2023-08-18T19:13:00Z","fire_out_time_utc":"2023-08-18T19:13:00Z","fire_cause":"Natural","fire_cause_general":null,"map_method":"Mixed Methods","source_dataset":"2023 NIFS","unique_fire_identifier":"2023-NVHTF-030592","irwin_id":"{A5A029AB-7943-4A38-92D0-B44E597149DE}","global_id":"695197e5-ca3e-49b5-9876-04273a7879ae"}},{"type":"Feature","geometry":{"type":"Polygon","coordinates":[[[-120.77525,38.19109],[-120.77488,38.19101],[-120.7749,38.19088],[-120.77524,38.19074],[-120.77537,38.19055],[-120.7758,38.19043],[-120.77611,38.19001],[-120.77576,38.19014],[-120.7748,38.19016],[-120.77458,38.18987],[-120.77454,38.18957],[-120.77392,38.18896],[-120.77392,38.1887],[-120.77364,38.18871],[-120.77357,38.18802],[-120.77387,38.18803],[-120.77396,38.18785],[-120.77468,38.188],[-120.77519,38.18787],[-120.77614,38.18826],[-120.77662,38.18784],[-120.7771,38.18765],[-120.77731,38.18785],[-120.77769,38.18785],[-120.77768,38.1903],[-120.77739,38.19025],[-120.77663,38.19043],[-120.7761,38.19033],[-120.77635,38.1906],[-120.77632,38.19072],[-120.77526,38.19086],[-120.77525,38.19109]]]},"properties":{"fire_id":"ufid:2023-CATCU-012092","source_collection":"history-2023","source_objectid":21205,"incident_name":"KNOLL","mapped_acres":0.01,"mapped_acres_source":"poly_GISAcres","gis_acres":0.01,"auto_acres":20.9184796021424,"reported_acres":33.3,"percent_contained":null,"state":"CA","state_wfigs":"US-CA","county":"Calaveras","discovery_time_utc":"2023-09-10T19:46:02Z","perimeter_time_utc":"2023-09-11T00:46:02Z","perimeter_edit_time_utc":"2023-09-22T21:36:02Z","incident_modified_time_utc":"2023-09-12T23:04:29Z","containment_time_utc":"2023-09-10T21:47:00Z","control_time_utc":"2023-09-12T23:04:00Z","fire_out_time_utc":null,"fire_cause":"Undetermined","fire_cause_general":null,"map_method":"Hand Sketch","source_dataset":"2023 NIFS","unique_fire_identifier":"2023-CATCU-012092","irwin_id":"{AEC3F585-1B63-4360-A7D7-C93292FBF7ED}","global_id":"04cd1896-538c-415c-81d1-56e527cce557"}},{"type":"Feature","geometry":{"type":"MultiPolygon","coordinates":[[[[-120.74037,38.98525],[-120.74038,38.98557],[-120.7394,38.98518],[-120.7395,38.98501],[-120.73978,38.98494],[-120.74037,38.98525]]],[[[-120.74039,38.9855],[-120.74038,38.98553],[-120.74039,38.98546],[-120.74039,38.9855]]]]},"properties":{"fire_id":"ufid:2023-CAENF-014019","source_collection":"history-2023","source_objectid":21680,"incident_name":"KENTUCKY","mapped_acres":0.8,"mapped_acres_source":"poly_GISAcres","gis_acres":0.8,"auto_acres":0.798490013425632,"reported_acres":1.1,"percent_contained":null,"state":"CA","state_wfigs":"US-CA","county":"El Dorado","discovery_time_utc":"2023-05-26T20:49:43Z","perimeter_time_utc":"2023-10-11T23:28:48Z","perimeter_edit_time_utc":"2023-10-11T23:28:49Z","incident_modified_time_utc":"2023-07-22T16:59:38Z","containment_time_utc":"2023-05-27T01:39:00Z","control_time_utc":"2023-06-08T16:22:36Z","fire_out_time_utc":"2023-06-08T16:23:00Z","fire_cause":"Undetermined","fire_cause_general":"Undetermined","map_method":"Hand Sketch","source_dataset":"FFP","unique_fire_identifier":"2023-CAENF-014019","irwin_id":"{F7D2FF34-FBE1-4FFA-94E8-B44240E12BA6}","global_id":"f09edcf0-4a2a-4812-8dc5-9677445f8561"}},{"type":"Feature","geometry":{"type":"Polygon","coordinates":[[[-120.06532,35.65843],[-120.06097,35.65843],[-120.06058,35.65824],[-120.05941,35.65829],[-120.05659,35.65779],[-120.05487,35.65716],[-120.05478,35.65662],[-120.05492,35.65628],[-120.05795,35.65638],[-120.06085,35.65692],[-120.06093,35.65685],[-120.06058,35.65628],[-120.06025,35.65607],[-120.05887,35.6555],[-120.05631,35.65387],[-120.05559,35.65353],[-120.05489,35.6534],[-120.05482,35.65248],[-120.055,35.65244],[-120.05626,35.65299],[-120.05832,35.65407],[-120.05968,35.65497],[-120.06215,35.65606],[-120.06491,35.65799],[-120.06532,35.65843]]]},"properties":{"fire_id":"ufid:2023-CAKRN-041843","source_collection":"history-2023","source_objectid":21811,"incident_name":"BAY","mapped_acres":54.0,"mapped_acres_source":"poly_GISAcres","gis_acres":54.0,"auto_acres":54.0260363414622,"reported_acres":null,"percent_contained":null,"state":"CA","state_wfigs":"US-CA","county":"Kern","discovery_time_utc":"2023-09-09T01:41:00Z","perimeter_time_utc":"2023-09-09T06:41:00Z","perimeter_edit_time_utc":"2023-10-19T14:30:06Z","incident_modified_time_utc":"2023-09-09T16:14:48Z","containment_time_utc":null,"control_time_utc":null,"fire_out_time_utc":null,"fire_cause":null,"fire_cause_general":null,"map_method":"GPS-Walked","source_dataset":"2023 NIFS","unique_fire_identifier":"2023-CAKRN-041843","irwin_id":"{93E77F52-3011-4BEC-8955-A7A85A785C13}","global_id":"958a6d76-591d-44bc-8636-8647e37575a3"}},{"type":"Feature","geometry":{"type":"Polygon","coordinates":[[[-120.79116,39.33997],[-120.79075,39.34024],[-120.78982,39.34015],[-120.78957,39.34031],[-120.78898,39.34003],[-120.78865,39.34001],[-120.78857,39.34036],[-120.78825,39.34047],[-120.78804,39.34005],[-120.78819,39.33979],[-120.78845,39.33978],[-120.78813,39.3396],[-120.78859,39.33852],[-120.78829,39.33799],[-120.78839,39.33754],[-120.789,39.3371],[-120.7891,39.3368],[-120.78958,39.33673],[-120.78974,39.33658],[-120.79002,39.33667],[-120.79046,39.33649],[-120.79074,39.33652],[-120.79153,39.33565],[-120.79223,39.33585],[-120.7924,39.33708],[-120.79291,39.33776],[-120.79307,39.33831],[-120.79353,39.33857],[-120.79352,39.3389],[-120.79368,39.33888],[-120.79366,39.33901],[-120.79442,39.33941],[-120.79445,39.33962],[-120.79459,39.33963],[-120.79462,39.33949],[-120.79484,39.33965],[-120.79509,39.33957],[-120.79564,39.33968],[-120.79566,39.33992],[-120.79579,39.33981],[-120.79618,39.34026],[-120.79564,39.34051],[-120.795,39.34042],[-120.79425,39.34057],[-120.79422,39.34044],[-120.79351,39.34047],[-120.79315,39.34027],[-120.79316,39.34003],[-120.79296,39.33985],[-120.79308,39.3398],[-120.79301,39.33959],[-120.79228,39.33933],[-120.79216,39.33939],[-120.79217,39.33965],[-120.79139,39.33962],[-120.79131,39.33998],[-120.79111,39.33989],[-120.79116,39.33997]]]},"properties":{"fire_id":"ufid:2023-CATNF-001295","source_collection":"history-2023","source_objectid":22336,"incident_name":"HIGHWAY","mapped_acres":0.1,"mapped_acres_source":"poly_GISAcres","gis_acres":0.1,"auto_acres":44.80465508634292,"reported_acres":45.0,"percent_contained":null,"state":"CA","state_wfigs":"US-CA","county":"Nevada","discovery_time_utc":"2023-08-16T21:24:20Z","perimeter_time_utc":"2023-10-29T23:25:56Z","perimeter_edit_time_utc":"2023-10-29T23:25:56Z","incident_modified_time_utc":"2023-09-05T01:05:20Z","containment_time_utc":"2023-08-31T01:10:00Z","control_time_utc":null,"fire_out_time_utc":"2023-10-27T15:22:00Z","fire_cause":"Human","fire_cause_general":"Undetermined","map_method":"Hand Sketch","source_dataset":"FFP","unique_fire_identifier":"2023-CATNF-001295","irwin_id":"{DC87F2B8-F62E-4C63-B487-8CDF251FEDB7}","global_id":"819d322d-a08f-4a0f-b958-b2997d8c36b9"}},{"type":"Feature","geometry":{"type":"Polygon","coordinates":[[[-121.01282,35.98374],[-121.013,35.9837],[-121.01318,35.98317],[-121.01342,35.98298],[-121.0132,35.98272],[-121.01332,35.98266],[-121.01349,35.98298],[-121.0139,35.98314],[-121.0137,35.98504],[-121.01337,35.98512],[-121.01278,35.98466],[-121.01261,35.98402],[-121.01282,35.98374]]]},"properties":{"fire_id":"ufid:2023-CABEU-004739","source_collection":"history-2023","source_objectid":22359,"incident_name":"WILLIAMS","mapped_acres":0.01,"mapped_acres_source":"poly_GISAcres","gis_acres":0.01,"auto_acres":4.57968425070621,"reported_acres":4.63,"percent_contained":null,"state":"CA","state_wfigs":"US-CA","county":"Monterey","discovery_time_utc":"2023-08-13T21:43:48Z","perimeter_time_utc":"2023-08-14T02:43:48Z","perimeter_edit_time_utc":"2023-10-30T18:20:39Z","incident_modified_time_utc":"2023-08-17T03:52:34Z","containment_time_utc":"2023-08-16T05:37:00Z","control_time_utc":"2023-08-16T05:37:00Z","fire_out_time_utc":null,"fire_cause":"Undetermined","fire_cause_general":null,"map_method":"Hand Sketch","source_dataset":"2023 NIFS","unique_fire_identifier":"2023-CABEU-004739","irwin_id":"{85F6F07A-0EAA-4057-97AE-DFDFEBA06CAF}","global_id":"1570c1e5-21aa-4f6c-a8f3-1234504ad928"}},{"type":"Feature","geometry":{"type":"MultiPolygon","coordinates":[[[[-120.08091,35.67232],[-120.0809,35.67238],[-120.08081,35.67236],[-120.08091,35.67232]]],[[[-120.08042,35.67237],[-120.08043,35.67238],[-120.08031,35.67247],[-120.08042,35.67237]]],[[[-120.08055,35.67249],[-120.08059,35.67254],[-120.08047,35.67256],[-120.08055,35.67249]]]]},"properties":{"fire_id":"ufid:2023-CAKRN-051380","source_collection":"history-2023","source_objectid":22895,"incident_name":"ROAD","mapped_acres":0.02,"mapped_acres_source":"poly_GISAcres","gis_acres":0.02,"auto_acres":0.0362132624159779,"reported_acres":null,"percent_contained":null,"state":"CA","state_wfigs":"US-CA","county":"Kern","discovery_time_utc":"2023-11-09T22:52:00Z","perimeter_time_utc":"2023-11-10T04:52:00Z","perimeter_edit_time_utc":"2023-11-22T18:18:43Z","incident_modified_time_utc":"2023-11-21T16:27:29Z","containment_time_utc":null,"control_time_utc":null,"fire_out_time_utc":null,"fire_cause":null,"fire_cause_general":null,"map_method":"GPS-Walked","source_dataset":"2023 NIFS","unique_fire_identifier":"2023-CAKRN-051380","irwin_id":"{B806A18C-7016-454C-BB06-B0BE798C860F}","global_id":"0b77157d-b1f0-48eb-8fff-5fa53f25d3b3"}},{"type":"Feature","geometry":{"type":"Polygon","coordinates":[[[-120.01034,35.08043],[-120.01108,35.08028],[-120.01299,35.08109],[-120.0147,35.08155],[-120.01638,35.08243],[-120.01828,35.08276],[-120.02039,35.08306],[-120.02206,35.08231],[-120.02141,35.0829],[-120.02191,35.08354],[-120.0215,35.08416],[-120.02012,35.08341],[-120.01671,35.08291],[-120.01446,35.08184],[-120.01034,35.08043]]]},"properties":{"fire_id":"ufid:2023-CALPF-002628","source_collection":"history-2023","source_objectid":22900,"incident_name":"Road","mapped_acres":9.0,"mapped_acres_source":"poly_GISAcres","gis_acres":9.0,"auto_acres":12.56107552556299,"reported_acres":12.0,"percent_contained":null,"state":"CA","state_wfigs":"US-CA","county":"San Luis Obispo","discovery_time_utc":"2023-09-15T01:30:00Z","perimeter_time_utc":"2024-03-18T15:25:17Z","perimeter_edit_time_utc":"2024-03-18T15:25:17Z","incident_modified_time_utc":"2023-09-18T23:44:11Z","containment_time_utc":"2023-09-15T05:00:00Z","control_time_utc":"2023-09-18T23:42:00Z","fire_out_time_utc":"2023-09-19T00:00:00Z","fire_cause":"Human","fire_cause_general":"Equipment and vehicle use","map_method":"Hand Sketch","source_dataset":"FFP","unique_fire_identifier":"2023-CALPF-002628","irwin_id":"{C309A76F-CEBF-4D3E-A3C7-EB26BA768000}","global_id":"3d47530f-3b38-4528-82f8-2ec861246d64"}},{"type":"Feature","geometry":{"type":"MultiPolygon","coordinates":[[[[-120.01383,39.51986],[-120.01218,39.5199],[-120.01191,39.51971],[-120.01108,39.51966],[-120.01093,39.51955],[-120.01054,39.51966],[-120.01028,39.51959],[-120.0097,39.51995],[-120.00912,39.52004],[-120.00907,39.52055],[-120.00766,39.5206],[-120.00751,39.52044],[-120.00772,39.52079],[-120.00767,39.52103],[-120.00695,39.52116],[-120.00668,39.52156],[-120.00632,39.52166],[-120.00434,39.52177],[-120.00348,39.5217],[-120.00326,39.52152],[-120.00299,39.5208],[-120.00377,39.51998],[-120.0043,39.52003],[-120.00425,39.52011],[-120.00471,39.52038],[-120.0047,39.51985],[-120.00481,39.51972],[-120.00547,39.5196],[-120.00591,39.51966],[-120.00634,39.51942],[-120.00644,39.51955],[-120.007,39.51944],[-120.00754,39.51957],[-120.00773,39.51891],[-120.00807,39.51892],[-120.00839,39.51861],[-120.00863,39.51864],[-120.0092,39.51822],[-120.00937,39.51784],[-120.00988,39.51759],[-120.00994,39.51727],[-120.01093,39.51694],[-120.01213,39.517],[-120.01226,39.51767],[-120.01256,39.51754],[-120.01325,39.51782],[-120.01341,39.51811],[-120.01372,39.51828],[-120.01375,39.51855],[-120.01398,39.51861],[-120.0139,39.5188],[-120.01406,39.51907],[-120.01402,39.51924],[-120.01435,39.51943],[-120.01415,39.51951],[-120.01393,39.51934],[-120.01383,39.51986]]],[[[-120.00353,39.52425],[-120.00328,39.52432],[-120.00291,39.52421],[-120.00341,39.52384],[-120.00361,39.524],[-120.00353,39.52425]]],[[[-120.01322,39.51995],[-120.01319,39.51998],[-120.01315,39.51998],[-120.01322,39.51995]]],[[[-120.00328,39.52432],[-120.00329,39.52432],[-120.00326,39.52433],[-120.00328,39.52432]]]]},"properties":{"fire_id":"ufid:2023-NVHTF-030791","source_collection":"history-2023","source_objectid":23837,"incident_name":"Hill","mapped_acres":52.93411,"mapped_acres_source":"poly_GISAcres","gis_acres":52.93411,"auto_acres":52.93390805956285,"reported_acres":52.5,"percent_contained":null,"state":"CA","state_wfigs":"US-CA","county":"Sierra","discovery_time_utc":"2023-10-25T06:47:53Z","perimeter_time_utc":"2024-01-24T23:42:05Z","perimeter_edit_time_utc":"2024-01-24T23:42:06Z","incident_modified_time_utc":"2023-11-09T20:49:45Z","containment_time_utc":"2023-10-25T23:15:00Z","control_time_utc":"2023-10-30T21:06:00Z","fire_out_time_utc":"2023-11-09T20:49:00Z","fire_cause":"Human","fire_cause_general":"Undetermined","map_method":"GPS-Walked","source_dataset":"FFP","unique_fire_identifier":"2023-NVHTF-030791","irwin_id":"{092404B3-A183-4F56-8F2E-FEEA277F1A57}","global_id":"89e5b85b-e641-4513-8d0c-6557f0877f4d"}},{"type":"Feature","geometry":{"type":"Polygon","coordinates":[[[-120.03292,39.81312],[-120.03309,39.81303],[-120.03326,39.81324],[-120.03336,39.81319],[-120.03329,39.81279],[-120.03315,39.81273],[-120.03322,39.81243],[-120.03356,39.81263],[-120.03405,39.81465],[-120.03399,39.81478],[-120.03362,39.8148],[-120.03357,39.81466],[-120.03374,39.81462],[-120.0335,39.8143],[-120.03357,39.81387],[-120.03338,39.81336],[-120.03325,39.81337],[-120.03314,39.8136],[-120.0328,39.81358],[-120.03273,39.81369],[-120.03254,39.81362],[-120.03246,39.81371],[-120.03217,39.81352],[-120.03212,39.81324],[-120.03247,39.81329],[-120.03256,39.81303],[-120.03292,39.81312]]]},"properties":{"fire_id":"ufid:2023-NVCCD-030521","source_collection":"history-2023","source_objectid":23918,"incident_name":"Hallelujah 2","mapped_acres":3.198982,"mapped_acres_source":"poly_GISAcres","gis_acres":3.198982,"auto_acres":3.198982367696724,"reported_acres":3.2,"percent_contained":null,"state":"CA","state_wfigs":"US-CA","county":"Lassen","discovery_time_utc":"2023-08-06T21:34:54Z","perimeter_time_utc":"2024-02-02T03:35:55Z","perimeter_edit_time_utc":"2024-02-02T03:35:55Z","incident_modified_time_utc":"2023-08-10T20:30:15Z","containment_time_utc":"2023-08-06T23:38:00Z","control_time_utc":"2023-08-07T03:00:00Z","fire_out_time_utc":"2023-08-10T20:30:00Z","fire_cause":"Human","fire_cause_general":"Undetermined","map_method":"Mixed Methods","source_dataset":"FFP","unique_fire_identifier":"2023-NVCCD-030521","irwin_id":"{730A0CDF-C38B-452E-97F9-426A3F6FF92A}","global_id":"2a7d3c36-8d21-4cf0-abdd-e9362c85ae5a"}},{"type":"Feature","geometry":{"type":"Polygon","coordinates":[[[-120.19926,35.22408],[-120.19669,35.22395],[-120.19647,35.22382],[-120.19643,35.22359],[-120.19687,35.22269],[-120.19739,35.2226],[-120.19742,35.22239],[-120.19705,35.22226],[-120.19657,35.22216],[-120.19586,35.22244],[-120.19522,35.2224],[-120.19485,35.22222],[-120.1945,35.22262],[-120.1935,35.22261],[-120.19307,35.22275],[-120.19246,35.22263],[-120.19216,35.22278],[-120.19149,35.22251],[-120.19138,35.2223],[-120.19041,35.22206],[-120.19016,35.22167],[-120.18996,35.22105],[-120.19048,35.22108],[-120.19072,35.22095],[-120.19003,35.21981],[-120.1901,35.21846],[-120.19029,35.21822],[-120.19073,35.21858],[-120.19094,35.2184],[-120.19118,35.21845],[-120.19144,35.21935],[-120.1922,35.21804],[-120.19308,35.2173],[-120.19327,35.21687],[-120.19308,35.21648],[-120.19329,35.21574],[-120.19284,35.21552],[-120.19277,35.2153],[-120.19219,35.21547],[-120.19194,35.2154],[-120.19122,35.21501],[-120.1909,35.21466],[-120.19104,35.21413],[-120.19147,35.21382],[-120.19133,35.21372],[-120.19119,35.21278],[-120.19137,35.21228],[-120.19122,35.21181],[-120.19122,35.21098],[-120.19132,35.21043],[-120.19153,35.21025],[-120.19181,35.21018],[-120.19206,35.21058],[-120.19235,35.21034],[-120.19249,35.21049],[-120.19249,35.21097],[-120.19279,35.21131],[-120.19326,35.21145],[-120.19359,35.21213],[-120.19438,35.21311],[-120.19545,35.21349],[-120.19579,35.21347],[-120.19579,35.2139],[-120.19612,35.2145],[-120.19703,35.21453],[-120.19721,35.21468],[-120.19737,35.21517],[-120.19688,35.21531],[-120.19677,35.21556],[-120.19716,35.21575],[-120.19776,35.21574],[-120.19831,35.21666],[-120.19969,35.21756],[-120.19988,35.21811],[-120.20069,35.21896],[-120.20083,35.21938],[-120.20197,35.2196],[-120.2024,35.22049],[-120.20287,35.22046],[-120.20304,35.2202],[-120.20337,35.22026],[-120.20383,35.22085],[-120.20403,35.22163],[-120.20439,35.22185],[-120.20509,35.22196],[-120.2054,35.22188],[-120.20654,35.22259],[-120.20731,35.22253],[-120.20755,35.22271],[-120.20799,35.22409],[-120.20707,35.22445],[-120.20563,35.22441],[-120.20422,35.22405],[-120.20367,35.22412],[-120.20332,35.22399],[-120.20324,35.22414],[-120.2026,35.22393],[-120.20198,35.22406],[-120.20104,35.22401],[-120.19977,35.22429],[-120.19926,35.22408]]]},"properties":{"fire_id":"ufid:2023-CALPF-002880","source_collection":"history-2023","source_objectid":24041,"incident_name":"AVENALES","mapped_acres":259.89,"mapped_acres_source":"poly_GISAcres","gis_acres":259.89,"auto_acres":259.89171360901406,"reported_acres":260.0,"percent_contained":null,"state":"CA","state_wfigs":"US-CA","county":"San Luis Obispo","discovery_time_utc":"2023-10-12T17:50:17Z","perimeter_time_utc":"2024-02-26T18:34:08Z","perimeter_edit_time_utc":"2024-02-26T18:34:08Z","incident_modified_time_utc":"2023-10-29T18:20:30Z","containment_time_utc":"2023-10-14T00:00:00Z","control_time_utc":"2023-10-17T22:00:00Z","fire_out_time_utc":"2023-10-29T18:20:00Z","fire_cause":"Undetermined","fire_cause_general":"Undetermined","map_method":"Hand Sketch","source_dataset":"FFP","unique_fire_identifier":"2023-CALPF-002880","irwin_id":"{8E5F9086-7437-49F1-B060-B2427903BE5E}","global_id":"cbdd15d6-acd2-401a-a26b-ad4221408804"}},{"type":"Feature","geometry":{"type":"MultiPolygon","coordinates":[[[[-120.43984,37.88362],[-120.43992,37.88377],[-120.43985,37.88376],[-120.43984,37.88362]]],[[[-120.45153,37.82518],[-120.45183,37.82552],[-120.45202,37.82642],[-120.45186,37.82679],[-120.4521,37.82699],[-120.45217,37.82747],[-120.45191,37.82784],[-120.45208,37.82814],[-120.45189,37.82844],[-120.45213,37.82849],[-120.45216,37.82864],[-120.45196,37.82878],[-120.45206,37.82899],[-120.45198,37.83039],[-120.45171,37.83045],[-120.45163,37.83068],[-120.45126,37.83094],[-120.45044,37.83092],[-120.45023,37.83108],[-120.45026,37.83226],[-120.45042,37.83256],[-120.45065,37.83265],[-120.45067,37.83339],[-120.45113,37.8338],[-120.45119,37.83518],[-120.45061,37.83514],[-120.45044,37.83542],[-120.44927,37.83587],[-120.44895,37.83573],[-120.44586,37.83633],[-120.4456,37.83706],[-120.44594,37.83742],[-120.44646,37.83758],[-120.44686,37.83853],[-120.4466,37.83896],[-120.4467,37.84],[-120.44677,37.84019],[-120.44715,37.84046],[-120.44715,37.84066],[-120.44793,37.84102],[-120.4484,37.84106],[-120.44842,37.84119],[-120.44863,37.84103],[-120.44909,37.84103],[-120.44964,37.84158],[-120.45015,37.84248],[-120.45057,37.84264],[-120.45088,37.84319],[-120.45095,37.84368],[-120.45152,37.84441],[-120.45129,37.8446],[-120.45117,37.84499],[-120.45064,37.84535],[-120.4515,37.84602],[-120.45161,37.84632],[-120.45154,37.84688],[-120.45133,37.84729],[-120.45205,37.84761],[-120.45207,37.84839],[-120.4519,37.8487],[-120.45242,37.84911],[-120.45249,37.84958],[-120.45314,37.84994],[-120.45361,37.84987],[-120.45405,37.85002],[-120.45448,37.8502],[-120.45459,37.85041],[-120.45263,37.8506],[-120.45222,37.85244],[-120.45176,37.85259],[-120.45197,37.85298],[-120.45053,37.85313],[-120.45071,37.85348],[-120.45153,37.85363],[-120.45192,37.85407],[-120.45184,37.8544],[-120.45112,37.85512],[-120.45071,37.85535],[-120.4501,37.85538],[-120.45021,37.8562],[-120.45096,37.85611],[-120.45138,37.85621],[-120.45172,37.85672],[-120.45129,37.8575],[-120.44991,37.85802],[-120.44984,37.85849],[-120.45027,37.85863],[-120.45038,37.85897],[-120.44991,37.8597],[-120.45031,37.8599],[-120.45058,37.86021],[-120.45063,37.86148],[-120.44807,37.8619],[-120.4478,37.86174],[-120.44678,37.86212],[-120.44516,37.86194],[-120.44462,37.86241],[-120.44423,37.86299],[-120.44375,37.86331],[-120.44357,37.86387],[-120.44387,37.86421],[-120.44421,37.86506],[-120.44457,37.86498],[-120.44511,37.86538],[-120.44508,37.86564],[-120.44553,37.86613],[-120.44587,37.86761],[-120.44531,37.86747],[-120.446,37.86882],[-120.44675,37.86912],[-120.44738,37.86916],[-120.44827,37.86976],[-120.44861,37.87009],[-120.44883,37.87099],[-120.44847,37.87108],[-120.44856,37.87181],[-120.4489,37.87207],[-120.4495,37.87215],[-120.44994,37.87236],[-120.45018,37.87282],[-120.44953,37.87376],[-120.44992,37.87403],[-120.44965,37.87456],[-120.44926,37.87473],[-120.44926,37.87584],[-120.44956,37.87605],[-120.44878,37.87686],[-120.44843,37.87696],[-120.44832,37.87751],[-120.4451,37.87756],[-120.44401,37.87735],[-120.44425,37.87776],[-120.44409,37.87782],[-120.44392,37.87819],[-120.4436,37.87836],[-120.44286,37.87809],[-120.44272,37.87861],[-120.44379,37.87978],[-120.4437,37.88],[-120.44312,37.88003],[-120.44292,37.88186],[-120.44392,37.88233],[-120.44416,37.88276],[-120.44404,37.8833],[-120.44468,37.88456],[-120.44443,37.88489],[-120.44319,37.88509],[-120.44225,37.88496],[-120.44156,37.88455],[-120.44183,37.88246],[-120.44245,37.88209],[-120.44234,37.88128],[-120.44148,37.88131],[-120.4414,37.88104],[-120.4408,37.88098],[-120.44059,37.88101],[-120.44058,37.88121],[-120.44022,37.88128],[-120.44016,37.88168],[-120.43978,37.8817],[-120.43955,37.8824],[-120.43918,37.88264],[-120.43892,37.88258],[-120.43863,37.88214],[-120.43826,37.882],[-120.43663,37.88255],[-120.4355,37.88244],[-120.43273,37.8839],[-120.43244,37.88499],[-120.43085,37.88498],[-120.43036,37.88477],[-120.4299,37.88428],[-120.42994,37.88402],[-120.42924,37.88328],[-120.42858,37.8829],[-120.42833,37.88261],[-120.42692,37.88242],[-120.42658,37.88197],[-120.42694,37.88158],[-120.42652,37.88144],[-120.4267,37.881],[-120.4264,37.88076],[-120.4252,37.88015],[-120.42464,37.88035],[-120.4242,37.87993],[-120.42356,37.87988],[-120.42345,37.87974],[-120.4235,37.87948],[-120.42326,37.8791],[-120.42349,37.87883],[-120.42316,37.87863],[-120.42237,37.8772],[-120.42171,37.87736],[-120.42147,37.87717],[-120.42133,37.87653],[-120.42074,37.8766],[-120.4205,37.87694],[-120.42004,37.87709],[-120.41984,37.87695],[-120.41954,37.87708],[-120.41929,37.87678],[-120.41923,37.87645],[-120.41965,37.8759],[-120.41918,37.87562],[-120.41811,37.87534],[-120.41727,37.87467],[-120.41696,37.87423],[-120.41764,37.87324],[-120.41908,37.87281],[-120.41973,37.87291],[-120.4202,37.87206],[-120.42118,37.87171],[-120.42134,37.87108],[-120.4211,37.87069],[-120.42155,37.8703],[-120.42184,37.87021],[-120.42194,37.86988],[-120.42226,37.86959],[-120.4223,37.86933],[-120.42358,37.86856],[-120.42406,37.86797],[-120.4242,37.86751],[-120.42409,37.86719],[-120.42265,37.86697],[-120.42186,37.86741],[-120.4212,37.86677],[-120.42112,37.86618],[-120.42096,37.86593],[-120.42103,37.8652],[-120.42117,37.8649],[-120.42157,37.86462],[-120.42173,37.86414],[-120.42224,37.864],[-120.42247,37.86421],[-120.42353,37.86394],[-120.42376,37.86418],[-120.4248,37.86426],[-120.42548,37.86417],[-120.42548,37.86355],[-120.42562,37.86313],[-120.42616,37.86279],[-120.42535,37.86165],[-120.4251,37.86163],[-120.42516,37.8612],[-120.42494,37.86097],[-120.42493,37.86078],[-120.42224,37.85905],[-120.42137,37.85812],[-120.42057,37.8576],[-120.42097,37.85707],[-120.42163,37.85653],[-120.42134,37.8564],[-120.42011,37.8553],[-120.42004,37.85498],[-120.42014,37.85481],[-120.4205,37.85472],[-120.42191,37.8549],[-120.42284,37.85514],[-120.42322,37.85584],[-120.42345,37.85565],[-120.42358,37.85535],[-120.42304,37.8546],[-120.42298,37.85406],[-120.4233,37.85405],[-120.42291,37.85261],[-120.42259,37.85219],[-120.42172,37.85166],[-120.42058,37.85145],[-120.41972,37.85153],[-120.41966,37.8517],[-120.42022,37.85231],[-120.42007,37.85274],[-120.41977,37.85284],[-120.41874,37.85247],[-120.41829,37.85247],[-120.41835,37.85255],[-120.4178,37.8527],[-120.4172,37.85228],[-120.4158,37.85198],[-120.41574,37.85212],[-120.41544,37.85216],[-120.41522,37.85199],[-120.41473,37.85201],[-120.41406,37.85233],[-120.41397,37.85146],[-120.41378,37.85147],[-120.41376,37.85086],[-120.41311,37.84998],[-120.4123,37.84924],[-120.41199,37.84867],[-120.41096,37.84794],[-120.41151,37.84754],[-120.41342,37.84804],[-120.41375,37.84849],[-120.41377,37.84918],[-120.41482,37.84914],[-120.41521,37.84896],[-120.41534,37.84851],[-120.41582,37.84892],[-120.416,37.84862],[-120.41658,37.84839],[-120.41701,37.84806],[-120.4165,37.84783],[-120.41609,37.8472],[-120.41547,37.84752],[-120.41432,37.84741],[-120.41387,37.84699],[-120.41344,37.8468],[-120.41233,37.84703],[-120.41154,37.8468],[-120.41178,37.84649],[-120.41013,37.84612],[-120.40997,37.84554],[-120.41006,37.84498],[-120.4103,37.8448],[-120.41087,37.8447],[-120.41113,37.84482],[-120.41102,37.84508],[-120.41153,37.84524],[-120.41171,37.84494],[-120.41217,37.84515],[-120.41286,37.84502],[-120.41322,37.84472],[-120.4127,37.8443],[-120.41171,37.84404],[-120.41117,37.84323],[-120.4102,37.84244],[-120.41013,37.84196],[-120.40983,37.84177],[-120.40878,37.84182],[-120.40836,37.84116],[-120.408,37.84097],[-120.40748,37.84099],[-120.40731,37.84073],[-120.40664,37.84032],[-120.40601,37.83963],[-120.40524,37.83832],[-120.40459,37.83662],[-120.40467,37.83625],[-120.40508,37.83565],[-120.40481,37.83556],[-120.40518,37.83541],[-120.4056,37.83562],[-120.40602,37.83552],[-120.40569,37.83499],[-120.40596,37.8343],[-120.40549,37.83406],[-120.40593,37.83381],[-120.4061,37.83333],[-120.40607,37.83294],[-120.40648,37.83242],[-120.40633,37.83208],[-120.40666,37.83178],[-120.40632,37.83185],[-120.40604,37.83235],[-120.4055,37.83269],[-120.4054,37.83374],[-120.40451,37.83458],[-120.40298,37.83499],[-120.40274,37.83491],[-120.40254,37.83457],[-120.4025,37.83399],[-120.40216,37.83408],[-120.40194,37.83398],[-120.4017,37.8332],[-120.40184,37.83297],[-120.40239,37.83287],[-120.40297,37.83232],[-120.40326,37.8322],[-120.40331,37.83193],[-120.40241,37.8312],[-120.40234,37.83091],[-120.40248,37.8307],[-120.40173,37.82959],[-120.40149,37.829],[-120.40104,37.82887],[-120.40085,37.82858],[-120.40051,37.82867],[-120.40032,37.82772],[-120.39835,37.82784],[-120.39788,37.82759],[-120.39808,37.82813],[-120.39756,37.82844],[-120.39752,37.82862],[-120.39752,37.82911],[-120.39776,37.82934],[-120.39778,37.82976],[-120.39756,37.82983],[-120.39738,37.83009],[-120.39673,37.83018],[-120.39609,37.82961],[-120.39612,37.82923],[-120.39583,37.82885],[-120.39599,37.82838],[-120.39733,37.82807],[-120.39778,37.82747],[-120.39718,37.82701],[-120.39689,37.82655],[-120.39743,37.8261],[-120.39808,37.82578],[-120.39791,37.82556],[-120.39806,37.82478],[-120.39739,37.82463],[-120.39725,37.8247],[-120.39724,37.82515],[-120.39709,37.82542],[-120.3964,37.82592],[-120.39597,37.82541],[-120.39554,37.8253],[-120.3953,37.82495],[-120.39454,37.82461],[-120.39491,37.82321],[-120.39553,37.82275],[-120.39535,37.82245],[-120.39497,37.82226],[-120.39497,37.82189],[-120.39555,37.82106],[-120.39572,37.82067],[-120.39574,37.82021],[-120.39626,37.81901],[-120.39622,37.81779],[-120.39646,37.81727],[-120.39654,37.81651],[-120.39683,37.81555],[-120.39717,37.81509],[-120.39659,37.81432],[-120.39651,37.81404],[-120.39689,37.81354],[-120.39745,37.81319],[-120.39829,37.81229],[-120.399,37.81237],[-120.40057,37.81191],[-120.40151,37.81204],[-120.4016,37.81222],[-120.40287,37.81198],[-120.40304,37.81183],[-120.40324,37.81196],[-120.40368,37.81177],[-120.40411,37.81204],[-120.40446,37.81203],[-120.40459,37.8116],[-120.40482,37.81132],[-120.40502,37.8113],[-120.40523,37.81096],[-120.40582,37.81103],[-120.40581,37.81142],[-120.40601,37.81176],[-120.40586,37.81204],[-120.40587,37.81244],[-120.40648,37.81282],[-120.40703,37.81348],[-120.40816,37.81363],[-120.409,37.81432],[-120.40896,37.81455],[-120.4093,37.81499],[-120.40954,37.81596],[-120.40944,37.81642],[-120.40897,37.81697],[-120.40898,37.81771],[-120.40929,37.8185],[-120.40961,37.81888],[-120.40976,37.81881],[-120.40951,37.81805],[-120.40949,37.81742],[-120.40962,37.81692],[-120.40988,37.81638],[-120.41062,37.81561],[-120.41082,37.81518],[-120.4106,37.81458],[-120.41031,37.81424],[-120.40883,37.81319],[-120.40812,37.81253],[-120.40789,37.81202],[-120.4086,37.81165],[-120.40903,37.81122],[-120.4093,37.81111],[-120.41009,37.81119],[-120.41061,37.81084],[-120.41144,37.81089],[-120.41241,37.81117],[-120.41272,37.81226],[-120.41359,37.8132],[-120.41379,37.81387],[-120.41328,37.81581],[-120.41344,37.81701],[-120.41289,37.81805],[-120.4129,37.81881],[-120.41327,37.81934],[-120.41465,37.8201],[-120.41561,37.82126],[-120.41526,37.8232],[-120.41509,37.8235],[-120.41546,37.82396],[-120.41553,37.82428],[-120.41613,37.82379],[-120.41593,37.82349],[-120.41633,37.82288],[-120.41644,37.82149],[-120.41634,37.82104],[-120.41616,37.82058],[-120.41534,37.81958],[-120.4149,37.81939],[-120.41423,37.81933],[-120.41397,37.81896],[-120.41414,37.81784],[-120.41458,37.8173],[-120.41446,37.8168],[-120.41454,37.81602],[-120.41572,37.81508],[-120.41538,37.81465],[-120.41539,37.81423],[-120.41564,37.81379],[-120.41526,37.81353],[-120.41456,37.81239],[-120.41482,37.81195],[-120.41472,37.81166],[-120.41553,37.81055],[-120.41542,37.80997],[-120.41402,37.80939],[-120.41302,37.8082],[-120.41245,37.8082],[-120.41178,37.80848],[-120.4111,37.80836],[-120.41056,37.80801],[-120.41007,37.80758],[-120.40976,37.80701],[-120.40979,37.80621],[-120.41119,37.80537],[-120.41177,37.80538],[-120.41186,37.8052],[-120.413,37.80508],[-120.4143,37.80553],[-120.41551,37.8054],[-120.41615,37.80514],[-120.41631,37.80469],[-120.41674,37.80453],[-120.41721,37.80479],[-120.41796,37.80402],[-120.41939,37.80386],[-120.42004,37.80359],[-120.42066,37.80429],[-120.42124,37.80463],[-120.42189,37.80468],[-120.42204,37.8049],[-120.4246,37.80521],[-120.4261,37.8052],[-120.43033,37.8059],[-120.43154,37.80657],[-120.43285,37.80818],[-120.43342,37.8095],[-120.43353,37.81096],[-120.4341,37.81044],[-120.4342,37.81007],[-120.43596,37.8088],[-120.43678,37.80931],[-120.43786,37.81123],[-120.43761,37.81149],[-120.43831,37.81219],[-120.43857,37.8123],[-120.43891,37.81221],[-120.4395,37.81239],[-120.44018,37.81239],[-120.44036,37.8121],[-120.44142,37.81198],[-120.44671,37.81244],[-120.44805,37.81273],[-120.44943,37.81348],[-120.44996,37.81401],[-120.45113,37.81474],[-120.45188,37.81495],[-120.45186,37.81512],[-120.45162,37.81521],[-120.4518,37.81566],[-120.45156,37.81588],[-120.45163,37.81617],[-120.45216,37.81605],[-120.45263,37.81646],[-120.45328,37.81641],[-120.4535,37.81662],[-120.45453,37.81679],[-120.45474,37.81701],[-120.45454,37.81742],[-120.45392,37.81734],[-120.45291,37.81754],[-120.45231,37.81878],[-120.45268,37.81952],[-120.45284,37.82055],[-120.45318,37.82095],[-120.45315,37.82123],[-120.45269,37.82275],[-120.45279,37.82332],[-120.45268,37.82379],[-120.45216,37.8246],[-120.45152,37.82477],[-120.45153,37.82518]]]]},"properties":{"fire_id":"ufid:2023-CATCU-012016","source_collection":"history-2023","source_objectid":46968,"incident_name":"6-5","mapped_acres":6837.49,"mapped_acres_source":"poly_GISAcres","gis_acres":6837.49,"auto_acres":null,"reported_acres":0.01,"percent_contained":null,"state":"CA","state_wfigs":"US-CA","county":"Tuolumne","discovery_time_utc":"2023-09-09T23:05:16Z","perimeter_time_utc":"2023-09-10T02:51:00Z","perimeter_edit_time_utc":"2025-10-07T21:11:32Z","incident_modified_time_utc":"2023-10-11T00:05:41Z","containment_time_utc":"2023-09-10T02:51:00Z","control_time_utc":"2023-09-10T04:08:00Z","fire_out_time_utc":null,"fire_cause":"Undetermined","fire_cause_general":null,"map_method":"Hand Sketch","source_dataset":"Inspector","unique_fire_identifier":"2023-CATCU-012016","irwin_id":"{FDA5BEA5-04C0-4B9C-B811-06579DBD12F5}","global_id":"6af03bde-cb10-4c39-ad86-3e65ab0f732c"}}]}
