{"type":"FeatureCollection","features":[{"type":"Feature","geometry":{"type":"Polygon","coordinates":[[[-85.01211,29.95914],[-85.01082,29.95885],[-85.0098,29.95802],[-85.00877,29.95741],[-85.008,29.95732],[-85.00743,29.95698],[-85.00728,29.9564],[-85.00558,29.95684],[-85.00517,29.95733],[-85.00488,29.9586],[-85.00463,29.95896],[-85.00451,29.95946],[-85.00421,29.95982],[-85.00338,29.96003],[-85.00297,29.96024],[-85.0027,29.96056],[-85.00122,29.95936],[-85.00146,29.95874],[-85.00212,29.95829],[-85.00263,29.95706],[-85.00344,29.95666],[-85.00389,29.9566],[-85.00451,29.95552],[-85.00497,29.95525],[-85.00517,29.95367],[-85.0058,29.95322],[-85.00652,29.95326],[-85.00713,29.95353],[-85.00725,29.95427],[-85.00754,29.95426],[-85.00736,29.95329],[-85.00768,29.95256],[-85.00867,29.95235],[-85.00913,29.95263],[-85.01048,29.95241],[-85.01104,29.95251],[-85.01209,29.95278],[-85.01248,29.95331],[-85.01236,29.95399],[-85.01276,29.95453],[-85.01127,29.95513],[-85.01207,29.95742],[-85.01211,29.95914]]]},"properties":{"fire_id":"ufid:2023-FLFNF-002394","source_collection":"history-2023","source_objectid":21002,"incident_name":"Brickyard","mapped_acres":115.5187,"mapped_acres_source":"poly_GISAcres","gis_acres":115.5187,"auto_acres":115.51876798492378,"reported_acres":100.0,"percent_contained":null,"state":"FL","state_wfigs":"US-FL","county":"Franklin","discovery_time_utc":"2023-07-22T20:51:50Z","perimeter_time_utc":"2023-09-14T18:15:40Z","perimeter_edit_time_utc":"2023-09-14T18:15:40Z","incident_modified_time_utc":"2023-07-30T16:12:23Z","containment_time_utc":null,"control_time_utc":null,"fire_out_time_utc":"2023-09-14T18:13:51Z","fire_cause":"Undetermined","fire_cause_general":"Undetermined","map_method":"Auto-generated","source_dataset":"FFP","unique_fire_identifier":"2023-FLFNF-002394","irwin_id":"{372986FD-71AA-487A-BCAC-9FF23EB73971}","global_id":"2cc991d4-e594-4b43-80b6-891c00ebcc5c"}},{"type":"Feature","geometry":{"type":"Polygon","coordinates":[[[-85.00099,29.99482],[-85.00049,29.99524],[-85.00023,29.99509],[-84.99988,29.99511],[-84.99971,29.99533],[-85.00023,29.99623],[-85.00077,29.99623],[-85.00106,29.99682],[-85.00044,29.99676],[-84.99971,29.9965],[-84.99636,29.99481],[-84.997,29.99302],[-84.99751,29.9924],[-84.99971,29.99091],[-85.0031,29.99036],[-85.00377,29.99194],[-85.00435,29.9924],[-85.00436,29.99262],[-85.00416,29.99287],[-85.00346,29.99323],[-85.00333,29.99402],[-85.00271,29.99438],[-85.00099,29.99482]]]},"properties":{"fire_id":"ufid:2023-FLFNF-003402","source_collection":"history-2023","source_objectid":23654,"incident_name":"Coffee Branch","mapped_acres":75.01134,"mapped_acres_source":"poly_GISAcres","gis_acres":75.01134,"auto_acres":75.01138413903871,"reported_acres":77.0,"percent_contained":null,"state":"FL","state_wfigs":"US-FL","county":"Franklin","discovery_time_utc":"2023-11-30T23:02:55Z","perimeter_time_utc":"2024-01-08T15:39:29Z","perimeter_edit_time_utc":"2024-01-08T15:39:30Z","incident_modified_time_utc":"2023-12-04T15:32:53Z","containment_time_utc":"2023-12-04T15:20:00Z","control_time_utc":"2023-12-04T15:20:00Z","fire_out_time_utc":"2023-12-04T15:20:00Z","fire_cause":"Human","fire_cause_general":"Arson","map_method":"GPS-Walked","source_dataset":"FFP","unique_fire_identifier":"2023-FLFNF-003402","irwin_id":"{83972C4C-7133-405E-A2F7-66349B5628E4}","global_id":"7213b6c4-2077-4be1-9030-949dcae29020"}}]}
