{"type":"FeatureCollection","features":[{"type":"Feature","geometry":{"type":"MultiPolygon","coordinates":[[[[-85.25871,34.53644],[-85.25871,34.53645],[-85.25869,34.53644],[-85.25871,34.53644]]],[[[-85.25856,34.53478],[-85.25893,34.53496],[-85.2588,34.53533],[-85.25891,34.53539],[-85.2587,34.5355],[-85.25875,34.53569],[-85.25889,34.53567],[-85.25884,34.53588],[-85.25898,34.53599],[-85.2589,34.5362],[-85.25903,34.53628],[-85.25886,34.53647],[-85.25867,34.53639],[-85.25858,34.53654],[-85.25902,34.53698],[-85.25922,34.53689],[-85.25938,34.53707],[-85.25905,34.5374],[-85.25875,34.53728],[-85.25858,34.53749],[-85.25831,34.53753],[-85.25832,34.53774],[-85.25797,34.53815],[-85.25747,34.53789],[-85.25731,34.53712],[-85.25741,34.53675],[-85.25719,34.53665],[-85.25691,34.53595],[-85.25703,34.5359],[-85.25715,34.53544],[-85.25736,34.53529],[-85.25809,34.53514],[-85.25835,34.53521],[-85.25856,34.53478]]]]},"properties":{"fire_id":"ufid:2023-GACHF-230149","source_collection":"history-2023","source_objectid":24843,"incident_name":"Narrows Tower","mapped_acres":11.48,"mapped_acres_source":"poly_GISAcres","gis_acres":11.48,"auto_acres":11.477700953521177,"reported_acres":12.0,"percent_contained":null,"state":"GA","state_wfigs":"US-GA","county":"Chattooga","discovery_time_utc":"2023-11-14T20:52:00Z","perimeter_time_utc":"2024-03-15T20:47:34Z","perimeter_edit_time_utc":"2024-03-15T20:47:35Z","incident_modified_time_utc":"2023-12-04T22:10:59Z","containment_time_utc":"2023-11-18T17:23:00Z","control_time_utc":"2023-11-29T20:05:00Z","fire_out_time_utc":"2023-12-04T20:00:00Z","fire_cause":"Human","fire_cause_general":"Undetermined","map_method":"Hand Sketch","source_dataset":"FFP","unique_fire_identifier":"2023-GACHF-230149","irwin_id":"{5E144EFD-2E1C-41AF-A88B-1D89FDA7CE1A}","global_id":"14c60cde-fe77-440b-9040-f88f27dccf5f"}}]}
