{"type":"FeatureCollection","features":[{"type":"Feature","geometry":{"type":"Polygon","coordinates":[[[144.69256,13.39421],[144.69274,13.39465],[144.69292,13.39465],[144.69275,13.3939],[144.69336,13.39364],[144.69364,13.39336],[144.69356,13.39306],[144.69389,13.39261],[144.69418,13.39277],[144.69457,13.39264],[144.69488,13.39215],[144.69535,13.39196],[144.69579,13.39202],[144.6955,13.39226],[144.69521,13.39306],[144.69493,13.3932],[144.69486,13.39338],[144.69423,13.39328],[144.69477,13.39396],[144.69658,13.39396],[144.69701,13.39383],[144.69765,13.39319],[144.69768,13.39244],[144.69692,13.39249],[144.697,13.39224],[144.69757,13.39183],[144.69749,13.39137],[144.69735,13.39159],[144.69705,13.39169],[144.69695,13.39159],[144.6971,13.39139],[144.69736,13.39139],[144.69772,13.39053],[144.69707,13.3904],[144.69702,13.38998],[144.69681,13.38974],[144.69717,13.38951],[144.69693,13.38914],[144.69706,13.38885],[144.69637,13.38883],[144.69625,13.38911],[144.69632,13.3895],[144.69614,13.38965],[144.69522,13.38988],[144.69516,13.39008],[144.69473,13.39043],[144.69417,13.3905],[144.69398,13.39089],[144.69411,13.39107],[144.69404,13.39126],[144.69358,13.39119],[144.69333,13.391],[144.69311,13.39117],[144.69259,13.39125],[144.69249,13.39139],[144.69256,13.39161],[144.69312,13.39202],[144.69292,13.39247],[144.69319,13.39276],[144.6928,13.39312],[144.69237,13.39325],[144.69245,13.39366],[144.69135,13.39437],[144.69134,13.39479],[144.69101,13.39487],[144.69079,13.39474],[144.69059,13.39486],[144.6907,13.39507],[144.6906,13.39546],[144.69028,13.39571],[144.68993,13.39573],[144.68973,13.39589],[144.68974,13.3963],[144.68998,13.39628],[144.69008,13.39641],[144.68996,13.39649],[144.69006,13.39671],[144.68995,13.39737],[144.69015,13.39749],[144.69015,13.39793],[144.68985,13.39856],[144.68995,13.39875],[144.69026,13.39865],[144.69044,13.39844],[144.69032,13.39838],[144.69034,13.39823],[144.69072,13.39767],[144.69073,13.3974],[144.69123,13.39736],[144.69168,13.39699],[144.69163,13.39684],[144.69148,13.39691],[144.69139,13.39682],[144.69163,13.39648],[144.69156,13.39636],[144.6913,13.39621],[144.69117,13.39596],[144.69094,13.39591],[144.69134,13.39557],[144.69139,13.39526],[144.69213,13.39512],[144.69221,13.39445],[144.69208,13.39427],[144.69244,13.39432],[144.69256,13.39421]]]},"properties":{"fire_id":"ufid:2023-GUGUR-000201","source_collection":"history-2023","source_objectid":15841,"incident_name":"FR22-0019A","mapped_acres":1.0,"mapped_acres_source":"poly_GISAcres","gis_acres":1.0,"auto_acres":59.25340985612312,"reported_acres":59.3,"percent_contained":null,"state":"GU","state_wfigs":"US-GU","county":"Guam","discovery_time_utc":"2023-03-15T00:00:00Z","perimeter_time_utc":"2023-04-05T01:52:39Z","perimeter_edit_time_utc":"2023-04-05T01:52:39Z","incident_modified_time_utc":"2023-04-04T21:20:40Z","containment_time_utc":null,"control_time_utc":null,"fire_out_time_utc":null,"fire_cause":"Human","fire_cause_general":"Debris and open burning","map_method":"Image Interpretation","source_dataset":"FFP","unique_fire_identifier":"2023-GUGUR-000201","irwin_id":"{E7DCC4C5-B99D-434A-AC4B-59EFF6EF2F39}","global_id":"010dc2ee-eb56-4c8c-a497-933b87835503"}}]}
