{"type":"FeatureCollection","features":[{"type":"Feature","geometry":{"type":"MultiPolygon","coordinates":[[[[-114.91556,46.42344],[-114.91543,46.42339],[-114.91564,46.42336],[-114.91556,46.42344]]],[[[-114.91255,46.42427],[-114.91286,46.42403],[-114.91296,46.42422],[-114.91255,46.42427]]],[[[-114.91441,46.42427],[-114.91522,46.42461],[-114.91418,46.42466],[-114.91401,46.42443],[-114.91441,46.42427]]],[[[-114.91375,46.42487],[-114.91395,46.42501],[-114.9138,46.4252],[-114.91335,46.42513],[-114.91337,46.42491],[-114.91375,46.42487]]],[[[-114.90999,46.42568],[-114.9097,46.42527],[-114.90982,46.42502],[-114.91006,46.42509],[-114.91015,46.42562],[-114.90999,46.42568]]],[[[-114.91091,46.42548],[-114.91066,46.42557],[-114.91055,46.42537],[-114.9109,46.42529],[-114.91091,46.42548]]],[[[-114.9094,46.42613],[-114.90915,46.42623],[-114.90901,46.4261],[-114.90907,46.42598],[-114.90937,46.42596],[-114.9094,46.42613]]],[[[-114.91454,46.42631],[-114.91464,46.42655],[-114.91433,46.42674],[-114.91424,46.42627],[-114.91454,46.42631]]],[[[-114.90879,46.4265],[-114.90884,46.42662],[-114.90846,46.42671],[-114.90842,46.42651],[-114.90879,46.4265]]],[[[-114.90988,46.42716],[-114.90961,46.42714],[-114.91031,46.42647],[-114.91067,46.42629],[-114.91099,46.42583],[-114.91132,46.42578],[-114.91158,46.42553],[-114.91203,46.42552],[-114.91232,46.42573],[-114.91299,46.42575],[-114.91335,46.42594],[-114.91336,46.42661],[-114.91314,46.42685],[-114.91333,46.427],[-114.91394,46.4271],[-114.914,46.42751],[-114.91335,46.42826],[-114.91253,46.42804],[-114.91252,46.42785],[-114.91268,46.42772],[-114.91268,46.42729],[-114.91196,46.42682],[-114.91122,46.42697],[-114.91108,46.42721],[-114.91038,46.42717],[-114.91032,46.42732],[-114.91003,46.42743],[-114.90988,46.42716]]],[[[-114.91663,46.42658],[-114.9169,46.42659],[-114.91701,46.42682],[-114.91757,46.42694],[-114.91764,46.42718],[-114.91721,46.42761],[-114.91664,46.42772],[-114.91602,46.42767],[-114.9157,46.42736],[-114.91573,46.42712],[-114.91637,46.42687],[-114.91663,46.42658]]],[[[-114.91202,46.42795],[-114.91208,46.42821],[-114.9118,46.42821],[-114.91177,46.42803],[-114.91202,46.42795]]],[[[-114.91734,46.42882],[-114.91731,46.42866],[-114.91757,46.42856],[-114.9177,46.42878],[-114.91754,46.4289],[-114.91734,46.42882]]],[[[-114.9116,46.42876],[-114.91147,46.42891],[-114.91119,46.42888],[-114.9112,46.42867],[-114.91148,46.42855],[-114.9116,46.42876]]],[[[-114.91574,46.42911],[-114.91521,46.42906],[-114.91513,46.42879],[-114.9157,46.42878],[-114.91587,46.42892],[-114.91574,46.42911]]],[[[-114.90917,46.42934],[-114.90907,46.42917],[-114.9092,46.429],[-114.9095,46.42908],[-114.90944,46.4293],[-114.90917,46.42934]]],[[[-114.91754,46.42931],[-114.91745,46.42917],[-114.91774,46.4293],[-114.91754,46.42931]]],[[[-114.90778,46.42916],[-114.90815,46.42893],[-114.90837,46.42902],[-114.90859,46.42939],[-114.90836,46.42968],[-114.9078,46.42965],[-114.90765,46.42954],[-114.90778,46.42916]]],[[[-114.91241,46.42939],[-114.91261,46.42913],[-114.91339,46.42914],[-114.91342,46.42934],[-114.91227,46.42971],[-114.91179,46.42976],[-114.91155,46.42964],[-114.91166,46.4295],[-114.91241,46.42939]]],[[[-114.91308,46.43037],[-114.91312,46.43058],[-114.9128,46.43057],[-114.91278,46.43034],[-114.91308,46.43037]]],[[[-114.9151,46.43067],[-114.91509,46.43053],[-114.91539,46.43055],[-114.91542,46.43069],[-114.91532,46.4308],[-114.9151,46.43067]]],[[[-114.9109,46.43226],[-114.91068,46.43209],[-114.91075,46.43194],[-114.91111,46.43198],[-114.9111,46.43215],[-114.9109,46.43226]]],[[[-114.91235,46.43281],[-114.91279,46.43287],[-114.91258,46.43368],[-114.9123,46.43361],[-114.91201,46.43326],[-114.91235,46.43281]]],[[[-114.91214,46.43399],[-114.91217,46.4342],[-114.91163,46.43445],[-114.91102,46.43424],[-114.91088,46.43374],[-114.91124,46.43344],[-114.91134,46.43359],[-114.91122,46.43399],[-114.91214,46.43399]]],[[[-114.91512,46.43552],[-114.91481,46.43532],[-114.91492,46.4352],[-114.91512,46.43535],[-114.91512,46.43552]]],[[[-114.91545,46.43564],[-114.91543,46.43573],[-114.91527,46.43565],[-114.91545,46.43564]]],[[[-114.91498,46.43571],[-114.91463,46.43585],[-114.91452,46.43574],[-114.91468,46.43556],[-114.91498,46.43571]]],[[[-114.91501,46.43585],[-114.91493,46.43609],[-114.91458,46.43594],[-114.91477,46.43588],[-114.91501,46.43585]]],[[[-114.91545,46.43598],[-114.91538,46.43609],[-114.9153,46.43601],[-114.91545,46.43598]]],[[[-114.91466,46.43636],[-114.9147,46.43624],[-114.91482,46.43619],[-114.91481,46.43637],[-114.91466,46.43636]]],[[[-114.91508,46.43638],[-114.9152,46.43642],[-114.91505,46.43646],[-114.91508,46.43638]]],[[[-114.91415,46.43678],[-114.91397,46.43667],[-114.9142,46.43668],[-114.91415,46.43678]]],[[[-114.91062,46.43692],[-114.91046,46.43677],[-114.91078,46.43678],[-114.91062,46.43692]]],[[[-114.899,46.42644],[-114.89922,46.42651],[-114.89913,46.42669],[-114.89871,46.4266],[-114.899,46.42644]]],[[[-114.89999,46.42695],[-114.89995,46.42639],[-114.90035,46.42615],[-114.90063,46.42614],[-114.90088,46.42629],[-114.90095,46.42654],[-114.90049,46.42665],[-114.90052,46.42715],[-114.90043,46.42721],[-114.89999,46.42695]]],[[[-114.90753,46.42705],[-114.907,46.42692],[-114.90713,46.42675],[-114.90771,46.42681],[-114.90771,46.42697],[-114.90753,46.42705]]],[[[-114.90625,46.42671],[-114.90651,46.42678],[-114.9065,46.42709],[-114.90624,46.42708],[-114.90625,46.42671]]],[[[-114.90274,46.42688],[-114.90315,46.42687],[-114.90334,46.42702],[-114.90335,46.42721],[-114.90283,46.42706],[-114.90274,46.42688]]],[[[-114.90431,46.4272],[-114.90431,46.42698],[-114.90466,46.42718],[-114.90431,46.4272]]],[[[-114.90535,46.42897],[-114.90527,46.42877],[-114.90561,46.42875],[-114.90553,46.42895],[-114.90535,46.42897]]],[[[-114.9073,46.42876],[-114.90755,46.4288],[-114.9074,46.42908],[-114.90722,46.42909],[-114.9073,46.42876]]],[[[-114.90342,46.42918],[-114.90301,46.42962],[-114.90285,46.42958],[-114.90306,46.42923],[-114.90335,46.42909],[-114.90342,46.42918]]],[[[-114.90402,46.42959],[-114.90398,46.42927],[-114.90437,46.42933],[-114.90428,46.42958],[-114.90402,46.42959]]],[[[-114.90443,46.42992],[-114.90419,46.42975],[-114.90459,46.4298],[-114.90443,46.42992]]],[[[-114.90646,46.42993],[-114.90681,46.43003],[-114.90656,46.43016],[-114.90633,46.43007],[-114.90646,46.42993]]],[[[-114.90725,46.43908],[-114.9071,46.43912],[-114.90704,46.43903],[-114.90725,46.43908]]],[[[-114.90167,46.44481],[-114.90155,46.44468],[-114.90165,46.4446],[-114.90176,46.44469],[-114.90167,46.44481]]],[[[-114.89739,46.44474],[-114.89715,46.44481],[-114.89725,46.44466],[-114.89739,46.44474]]],[[[-114.90226,46.44537],[-114.90231,46.44553],[-114.90211,46.44538],[-114.90226,46.44537]]],[[[-114.90202,46.44552],[-114.90204,46.44563],[-114.90215,46.44559],[-114.90217,46.44581],[-114.90195,46.44588],[-114.90202,46.44552]]],[[[-114.90089,46.44972],[-114.90063,46.44964],[-114.90082,46.44946],[-114.90094,46.44952],[-114.90089,46.44972]]],[[[-114.89996,46.45036],[-114.90019,46.45008],[-114.90035,46.45017],[-114.9001,46.45038],[-114.89996,46.45036]]],[[[-114.90042,46.45022],[-114.90072,46.45017],[-114.90068,46.45032],[-114.90045,46.45034],[-114.90042,46.45022]]],[[[-114.89774,46.45119],[-114.898,46.45112],[-114.89805,46.45097],[-114.89835,46.45106],[-114.89799,46.45136],[-114.89774,46.45119]]],[[[-114.90024,46.45103],[-114.90054,46.45115],[-114.90046,46.45134],[-114.90018,46.45137],[-114.90024,46.45103]]],[[[-114.89901,46.4517],[-114.89924,46.45173],[-114.89894,46.45203],[-114.89869,46.45207],[-114.89868,46.45194],[-114.89901,46.4517]]],[[[-114.90071,46.45306],[-114.90055,46.45322],[-114.90046,46.4531],[-114.90056,46.453],[-114.90071,46.45306]]],[[[-114.90222,46.45522],[-114.90135,46.45532],[-114.90082,46.45498],[-114.9018,46.45465],[-114.90177,46.45503],[-114.90214,46.45506],[-114.90222,46.45522]]],[[[-114.89574,46.42739],[-114.89527,46.42746],[-114.8958,46.42622],[-114.8962,46.42631],[-114.89695,46.42602],[-114.89753,46.42599],[-114.89772,46.42626],[-114.89632,46.4267],[-114.89574,46.42739]]],[[[-114.89672,46.43305],[-114.89662,46.43269],[-114.89681,46.43259],[-114.89732,46.43271],[-114.89741,46.43287],[-114.89672,46.43305]]],[[[-114.88797,46.43599],[-114.88803,46.43605],[-114.88783,46.43602],[-114.88797,46.43599]]],[[[-114.89551,46.43693],[-114.89546,46.43685],[-114.89562,46.43686],[-114.89551,46.43693]]],[[[-114.8895,46.43723],[-114.88972,46.43708],[-114.88981,46.43721],[-114.8895,46.43723]]],[[[-114.8872,46.43709],[-114.88723,46.43725],[-114.88703,46.4371],[-114.8872,46.43709]]],[[[-114.89479,46.4373],[-114.89468,46.4372],[-114.89489,46.43716],[-114.89479,46.4373]]],[[[-114.89712,46.44507],[-114.89727,46.44501],[-114.8973,46.4451],[-114.89712,46.44507]]],[[[-114.89355,46.44523],[-114.89381,46.44532],[-114.89353,46.44558],[-114.89319,46.44542],[-114.89355,46.44523]]],[[[-114.89326,46.44615],[-114.89331,46.44601],[-114.89338,46.44606],[-114.89326,46.44615]]],[[[-114.89483,46.44601],[-114.89521,46.4462],[-114.89458,46.44629],[-114.89448,46.44618],[-114.89483,46.44601]]],[[[-114.89311,46.4432],[-114.89236,46.44313],[-114.89236,46.44342],[-114.89194,46.44337],[-114.89165,46.44306],[-114.89125,46.44325],[-114.89141,46.44348],[-114.8905,46.44352],[-114.89039,46.4438],[-114.89019,46.44387],[-114.89,46.4437],[-114.88976,46.44376],[-114.88958,46.44399],[-114.88933,46.44386],[-114.88914,46.44389],[-114.88918,46.44404],[-114.88829,46.44411],[-114.88848,46.44416],[-114.8885,46.44439],[-114.88842,46.44426],[-114.88825,46.44429],[-114.88823,46.44411],[-114.88788,46.44419],[-114.88801,46.44456],[-114.88856,46.44465],[-114.88896,46.44443],[-114.88902,46.44457],[-114.88931,46.44465],[-114.88991,46.44453],[-114.88986,46.44433],[-114.8907,46.44463],[-114.88973,46.44488],[-114.88978,46.44513],[-114.89011,46.4453],[-114.89061,46.44532],[-114.89097,46.44515],[-114.89119,46.44541],[-114.89151,46.44552],[-114.89208,46.44525],[-114.89195,46.44508],[-114.89214,46.44522],[-114.89223,46.44507],[-114.89251,46.44553],[-114.89244,46.44575],[-114.89274,46.44605],[-114.89317,46.44622],[-114.89317,46.44633],[-114.89275,46.44629],[-114.89272,46.44643],[-114.89248,46.44645],[-114.8924,46.44671],[-114.89198,46.44667],[-114.89173,46.44635],[-114.89154,46.44641],[-114.89154,46.44659],[-114.89119,46.44697],[-114.89147,46.44683],[-114.89177,46.44697],[-114.89215,46.44686],[-114.89246,46.44693],[-114.89266,46.44706],[-114.89273,46.44732],[-114.89252,46.44743],[-114.8917,46.44726],[-114.89162,46.4477],[-114.8912,46.44778],[-114.89108,46.44792],[-114.89193,46.44789],[-114.89219,46.44768],[-114.89279,46.44759],[-114.89287,46.4472],[-114.89267,46.44678],[-114.89271,46.44662],[-114.89284,46.44647],[-114.89323,46.44647],[-114.89367,46.44705],[-114.89354,46.44741],[-114.89368,46.44752],[-114.89361,46.44778],[-114.89379,46.44801],[-114.89376,46.44824],[-114.89325,46.44834],[-114.89339,46.44879],[-114.89313,46.4487],[-114.89251,46.44926],[-114.89288,46.44946],[-114.89325,46.44916],[-114.89391,46.4492],[-114.89401,46.44935],[-114.8936,46.44961],[-114.89351,46.4498],[-114.89381,46.45019],[-114.89433,46.45006],[-114.89513,46.45012],[-114.89539,46.4506],[-114.89586,46.4502],[-114.89587,46.44969],[-114.89638,46.44988],[-114.89668,46.44974],[-114.89689,46.44981],[-114.89703,46.44999],[-114.8969,46.45036],[-114.89666,46.45053],[-114.89644,46.45099],[-114.89674,46.45132],[-114.8967,46.45145],[-114.89624,46.45174],[-114.89562,46.45179],[-114.89574,46.45205],[-114.89612,46.45207],[-114.89628,46.45244],[-114.89679,46.45228],[-114.89705,46.45177],[-114.89732,46.45153],[-114.89766,46.45153],[-114.89788,46.45172],[-114.89799,46.45205],[-114.89835,46.45209],[-114.89844,46.45277],[-114.8982,46.45301],[-114.89701,46.4534],[-114.8973,46.45372],[-114.89749,46.45357],[-114.89803,46.45348],[-114.89786,46.45404],[-114.89827,46.45398],[-114.89848,46.45412],[-114.89887,46.45373],[-114.89895,46.45337],[-114.89921,46.45318],[-114.89958,46.45316],[-114.89973,46.45331],[-114.8996,46.45357],[-114.89985,46.45378],[-114.89965,46.45401],[-114.89964,46.45427],[-114.90045,46.45498],[-114.90045,46.4552],[-114.9001,46.45555],[-114.89894,46.45556],[-114.89792,46.45657],[-114.89744,46.45666],[-114.89701,46.45705],[-114.89678,46.45703],[-114.89662,46.4566],[-114.89648,46.45669],[-114.89657,46.45699],[-114.89623,46.45724],[-114.89593,46.45697],[-114.89585,46.45725],[-114.89558,46.45722],[-114.89505,46.45767],[-114.8956,46.45799],[-114.89633,46.45793],[-114.89677,46.45746],[-114.89701,46.45746],[-114.89706,46.45774],[-114.89684,46.45799],[-114.89692,46.45808],[-114.89759,46.45771],[-114.89799,46.45799],[-114.89837,46.45792],[-114.89864,46.45803],[-114.89859,46.45821],[-114.89938,46.4586],[-114.89925,46.45883],[-114.89869,46.45892],[-114.89887,46.45892],[-114.89891,46.45911],[-114.89958,46.45936],[-114.89974,46.45958],[-114.9006,46.46001],[-114.90058,46.4603],[-114.90087,46.46047],[-114.90076,46.46076],[-114.90031,46.46108],[-114.89994,46.46085],[-114.89971,46.46092],[-114.89956,46.46132],[-114.89909,46.46088],[-114.8988,46.46083],[-114.89876,46.4605],[-114.89907,46.45981],[-114.89898,46.45958],[-114.89792,46.45973],[-114.89732,46.45953],[-114.89676,46.45968],[-114.89675,46.45986],[-114.89721,46.46011],[-114.89733,46.46039],[-114.89707,46.46043],[-114.89667,46.46022],[-114.89645,46.46041],[-114.89723,46.4608],[-114.89739,46.46106],[-114.89728,46.46131],[-114.89754,46.46151],[-114.89757,46.46173],[-114.89742,46.46215],[-114.89677,46.46275],[-114.89668,46.46337],[-114.89682,46.46362],[-114.89644,46.46397],[-114.89579,46.4642],[-114.89537,46.46404],[-114.89508,46.4642],[-114.89497,46.465],[-114.89477,46.46502],[-114.89441,46.46486],[-114.89432,46.46457],[-114.89392,46.46426],[-114.89363,46.46344],[-114.89327,46.46335],[-114.89281,46.46379],[-114.89247,46.46384],[-114.89122,46.46362],[-114.891,46.46371],[-114.89113,46.46408],[-114.89151,46.4644],[-114.89151,46.46466],[-114.89122,46.46506],[-114.89102,46.46522],[-114.88966,46.4656],[-114.88951,46.46605],[-114.88895,46.46658],[-114.88875,46.46662],[-114.88839,46.46611],[-114.88844,46.46549],[-114.88866,46.46506],[-114.88862,46.46471],[-114.88806,46.46422],[-114.88766,46.46357],[-114.88764,46.46333],[-114.88882,46.46324],[-114.88931,46.46299],[-114.89012,46.46293],[-114.89058,46.46243],[-114.89078,46.46186],[-114.89145,46.46168],[-114.89181,46.46135],[-114.89183,46.46114],[-114.89145,46.46074],[-114.89099,46.46098],[-114.89074,46.46054],[-114.89074,46.46032],[-114.89126,46.4604],[-114.89151,46.46059],[-114.89178,46.46045],[-114.89164,46.45932],[-114.89135,46.45924],[-114.8911,46.45956],[-114.89014,46.46012],[-114.8894,46.46022],[-114.88888,46.46044],[-114.88858,46.46042],[-114.88846,46.46016],[-114.88818,46.46004],[-114.88782,46.46008],[-114.88741,46.45992],[-114.88678,46.45919],[-114.88592,46.45904],[-114.88572,46.45864],[-114.88633,46.45834],[-114.88664,46.45839],[-114.88682,46.45816],[-114.8867,46.45798],[-114.88701,46.45779],[-114.8875,46.45771],[-114.88794,46.45796],[-114.88845,46.45793],[-114.88881,46.45814],[-114.8888,46.45805],[-114.8891,46.45803],[-114.88929,46.45815],[-114.88945,46.45803],[-114.88932,46.45785],[-114.88955,46.45768],[-114.88834,46.45718],[-114.88736,46.45702],[-114.88727,46.45693],[-114.88778,46.4564],[-114.88726,46.45586],[-114.88661,46.45597],[-114.88603,46.45626],[-114.88601,46.45678],[-114.88547,46.45661],[-114.88541,46.45613],[-114.88505,46.45608],[-114.88491,46.45642],[-114.88407,46.45657],[-114.88452,46.45711],[-114.88499,46.45727],[-114.8848,46.4575],[-114.88451,46.45757],[-114.88451,46.45786],[-114.88303,46.45751],[-114.88234,46.45763],[-114.88155,46.45748],[-114.88178,46.45818],[-114.88141,46.45823],[-114.88091,46.45802],[-114.88087,46.45892],[-114.88042,46.45923],[-114.88114,46.45971],[-114.88177,46.45962],[-114.88267,46.45981],[-114.88273,46.4605],[-114.8813,46.46071],[-114.88076,46.46064],[-114.88013,46.46112],[-114.87828,46.46132],[-114.87808,46.46092],[-114.87828,46.46021],[-114.87754,46.46036],[-114.87765,46.46014],[-114.87756,46.4599],[-114.87799,46.45914],[-114.87854,46.45896],[-114.87848,46.45849],[-114.87863,46.45831],[-114.87892,46.4582],[-114.87906,46.45837],[-114.87951,46.4581],[-114.87957,46.45788],[-114.87939,46.4578],[-114.87942,46.45766],[-114.8802,46.45748],[-114.8804,46.45731],[-114.88103,46.45732],[-114.88124,46.45714],[-114.88127,46.45693],[-114.88097,46.45671],[-114.88063,46.4568],[-114.88026,46.45711],[-114.87951,46.45717],[-114.87906,46.45692],[-114.87867,46.45724],[-114.87785,46.45743],[-114.87575,46.45721],[-114.87571,46.45701],[-114.87638,46.45666],[-114.8763,46.45645],[-114.87658,46.45597],[-114.87744,46.45559],[-114.8769,46.45551],[-114.87661,46.45569],[-114.8759,46.45564],[-114.87591,46.45543],[-114.87619,46.45519],[-114.87667,46.45503],[-114.87626,46.45496],[-114.87581,46.45469],[-114.87598,46.45453],[-114.8759,46.45446],[-114.87552,46.45452],[-114.87568,46.45411],[-114.87626,46.45438],[-114.87546,46.45323],[-114.87458,46.45316],[-114.87411,46.45351],[-114.87391,46.45406],[-114.8734,46.45408],[-114.87326,46.45437],[-114.87291,46.45436],[-114.8728,46.45423],[-114.8726,46.45437],[-114.87239,46.45423],[-114.87237,46.45402],[-114.87268,46.45401],[-114.87273,46.45391],[-114.87322,46.45396],[-114.87328,46.45384],[-114.8731,46.45363],[-114.87286,46.45367],[-114.87277,46.45335],[-114.87241,46.45321],[-114.87308,46.45307],[-114.87308,46.45293],[-114.87273,46.453],[-114.8725,46.45291],[-114.8724,46.45279],[-114.87255,46.4525],[-114.87203,46.45263],[-114.87189,46.45281],[-114.87174,46.45273],[-114.8721,46.45237],[-114.8727,46.45221],[-114.8727,46.45192],[-114.87314,46.45167],[-114.87339,46.45161],[-114.87366,46.45172],[-114.87377,46.45223],[-114.87425,46.45184],[-114.87464,46.45182],[-114.87456,46.45114],[-114.87431,46.45126],[-114.87387,46.45118],[-114.87378,46.45072],[-114.87438,46.4503],[-114.87412,46.45023],[-114.87406,46.45008],[-114.87416,46.44973],[-114.87499,46.44959],[-114.87473,46.44932],[-114.87444,46.44931],[-114.87462,46.44913],[-114.87438,46.44891],[-114.87467,46.44887],[-114.87447,46.4485],[-114.87467,46.44836],[-114.87482,46.44773],[-114.87461,46.44775],[-114.87427,46.4483],[-114.87339,46.4487],[-114.87357,46.4488],[-114.87343,46.44899],[-114.87349,46.44909],[-114.87394,46.449],[-114.8744,46.44913],[-114.87401,46.44949],[-114.874,46.44965],[-114.87368,46.4498],[-114.87361,46.45003],[-114.87292,46.45014],[-114.87244,46.45],[-114.87241,46.44969],[-114.87216,46.44963],[-114.87126,46.44975],[-114.87148,46.44944],[-114.87134,46.44927],[-114.87108,46.44925],[-114.87083,46.44944],[-114.87053,46.44905],[-114.86952,46.44986],[-114.86875,46.44981],[-114.86832,46.4495],[-114.86836,46.44929],[-114.86819,46.44896],[-114.86796,46.44883],[-114.86744,46.44765],[-114.86798,46.44771],[-114.86811,46.44762],[-114.86793,46.44745],[-114.86805,46.44722],[-114.86754,46.44724],[-114.86745,46.44714],[-114.86753,46.44697],[-114.86738,46.44668],[-114.86789,46.44631],[-114.86822,46.44627],[-114.86852,46.44643],[-114.86879,46.44698],[-114.86903,46.44712],[-114.86989,46.44716],[-114.87028,46.44677],[-114.87188,46.44649],[-114.87205,46.44635],[-114.87192,46.44596],[-114.87224,46.44593],[-114.87226,46.44571],[-114.87247,46.44557],[-114.87295,46.44563],[-114.87318,46.44554],[-114.87332,46.44528],[-114.87379,46.44552],[-114.87359,46.44572],[-114.87358,46.44591],[-114.87374,46.44614],[-114.8737,46.44631],[-114.87393,46.44637],[-114.87408,46.44715],[-114.87516,46.44746],[-114.87517,46.44718],[-114.87482,46.44714],[-114.8748,46.44704],[-114.87556,46.44688],[-114.87556,46.44679],[-114.87525,46.44664],[-114.87527,46.44637],[-114.87479,46.44554],[-114.8748,46.44536],[-114.87513,46.44564],[-114.87552,46.44565],[-114.87592,46.44587],[-114.87592,46.44599],[-114.87568,46.44608],[-114.87596,46.44633],[-114.87632,46.44608],[-114.87647,46.44612],[-114.87647,46.44602],[-114.87616,46.44585],[-114.87598,46.44552],[-114.87558,46.4456],[-114.87521,46.44519],[-114.8756,46.44534],[-114.87562,46.44517],[-114.87575,46.44527],[-114.87566,46.44495],[-114.87599,46.44505],[-114.8762,46.44478],[-114.87644,46.44472],[-114.87688,46.4448],[-114.87705,46.44496],[-114.8769,46.445],[-114.87694,46.44512],[-114.87669,46.44512],[-114.87714,46.44525],[-114.87717,46.44547],[-114.87758,46.44525],[-114.87883,46.44587],[-114.87929,46.44592],[-114.87929,46.44572],[-114.87878,46.44575],[-114.87746,46.44493],[-114.8771,46.4445],[-114.87741,46.44447],[-114.87848,46.44503],[-114.87961,46.44513],[-114.8797,46.44486],[-114.87916,46.44467],[-114.87909,46.44448],[-114.8781,46.44388],[-114.87803,46.44402],[-114.87727,46.44422],[-114.87736,46.44407],[-114.87727,46.4439],[-114.87752,46.44389],[-114.87728,46.44378],[-114.87738,46.44371],[-114.87728,46.4434],[-114.87754,46.44349],[-114.87766,46.44332],[-114.87801,46.44338],[-114.878,46.44328],[-114.87813,46.44329],[-114.87817,46.44341],[-114.87902,46.4438],[-114.8782,46.44309],[-114.87821,46.44298],[-114.87888,46.44313],[-114.87975,46.44365],[-114.87935,46.44314],[-114.87982,46.44294],[-114.88018,46.44302],[-114.88025,46.44295],[-114.88004,46.44275],[-114.88028,46.4428],[-114.88032,46.44256],[-114.88053,46.44257],[-114.88017,46.4423],[-114.87983,46.44178],[-114.88003,46.44165],[-114.88036,46.44167],[-114.8805,46.44226],[-114.88064,46.44221],[-114.88065,46.44235],[-114.88095,46.44238],[-114.88104,46.44256],[-114.88092,46.44279],[-114.88068,46.44262],[-114.88102,46.44299],[-114.88093,46.4431],[-114.8807,46.44295],[-114.88073,46.44311],[-114.88091,46.44322],[-114.88112,46.44316],[-114.88126,46.44339],[-114.88197,46.44376],[-114.88243,46.44375],[-114.88238,46.44348],[-114.88271,46.44344],[-114.88279,46.44325],[-114.88326,46.44311],[-114.8832,46.44296],[-114.88294,46.44291],[-114.88297,46.4428],[-114.88361,46.44285],[-114.88395,46.44264],[-114.88427,46.44264],[-114.88438,46.44218],[-114.88374,46.44182],[-114.88454,46.44183],[-114.88393,46.4416],[-114.88374,46.44103],[-114.8827,46.44025],[-114.88225,46.44007],[-114.88253,46.4397],[-114.88312,46.43946],[-114.883,46.43917],[-114.8832,46.43907],[-114.88323,46.4388],[-114.88393,46.4388],[-114.88401,46.43864],[-114.88408,46.43888],[-114.88431,46.43888],[-114.88437,46.43868],[-114.8845,46.43866],[-114.88484,46.43889],[-114.88533,46.43889],[-114.88537,46.43913],[-114.88594,46.43953],[-114.88589,46.43993],[-114.88614,46.44002],[-114.88615,46.43978],[-114.88595,46.43962],[-114.88601,46.43931],[-114.88568,46.43912],[-114.88569,46.43884],[-114.88544,46.43864],[-114.8856,46.43856],[-114.88624,46.43884],[-114.88592,46.43833],[-114.88618,46.43819],[-114.88651,46.43819],[-114.88658,46.43832],[-114.88646,46.43849],[-114.88656,46.43858],[-114.88688,46.43855],[-114.88684,46.4382],[-114.8871,46.43774],[-114.88704,46.43763],[-114.88765,46.43721],[-114.88861,46.43722],[-114.88895,46.4371],[-114.88944,46.43728],[-114.88955,46.43758],[-114.88964,46.43742],[-114.89019,46.43729],[-114.89005,46.43715],[-114.89034,46.43711],[-114.8902,46.43691],[-114.89027,46.43669],[-114.89066,46.43645],[-114.8926,46.43669],[-114.8928,46.43768],[-114.89298,46.43784],[-114.89289,46.43801],[-114.89252,46.43801],[-114.89252,46.43851],[-114.89147,46.43872],[-114.89141,46.4389],[-114.89187,46.43912],[-114.89189,46.4395],[-114.89238,46.43983],[-114.89267,46.43982],[-114.89257,46.43956],[-114.89334,46.43918],[-114.89302,46.43916],[-114.89272,46.43897],[-114.89269,46.43863],[-114.89295,46.43855],[-114.89283,46.43836],[-114.8934,46.43846],[-114.89365,46.43821],[-114.89446,46.43815],[-114.89443,46.4379],[-114.89459,46.43776],[-114.89436,46.43759],[-114.89531,46.43731],[-114.89506,46.43717],[-114.89531,46.43698],[-114.89587,46.43701],[-114.89641,46.43744],[-114.89637,46.43695],[-114.89693,46.43705],[-114.89682,46.43658],[-114.89646,46.4364],[-114.89647,46.43621],[-114.89688,46.43591],[-114.8976,46.43566],[-114.89764,46.43552],[-114.89699,46.43545],[-114.89732,46.43518],[-114.89694,46.43475],[-114.89733,46.43442],[-114.89701,46.43399],[-114.89698,46.43362],[-114.89666,46.43327],[-114.89728,46.43314],[-114.89756,46.43347],[-114.89768,46.43338],[-114.89763,46.43328],[-114.89793,46.43279],[-114.89762,46.43256],[-114.89762,46.43238],[-114.89806,46.43208],[-114.89779,46.43186],[-114.89829,46.43192],[-114.89859,46.43164],[-114.89817,46.43143],[-114.89815,46.43127],[-114.89834,46.43115],[-114.89893,46.43117],[-114.89947,46.4314],[-114.89952,46.43172],[-114.89987,46.43153],[-114.89976,46.4313],[-114.90021,46.43136],[-114.90046,46.43123],[-114.90058,46.43106],[-114.90048,46.43087],[-114.9006,46.43077],[-114.90181,46.43082],[-114.90199,46.43104],[-114.90231,46.43103],[-114.90245,46.43136],[-114.90292,46.43148],[-114.90276,46.43174],[-114.90281,46.43219],[-114.90235,46.4318],[-114.90199,46.43221],[-114.90131,46.43222],[-114.90112,46.43273],[-114.9018,46.43294],[-114.90234,46.43295],[-114.90266,46.43282],[-114.90268,46.43262],[-114.90296,46.43243],[-114.90383,46.43236],[-114.90407,46.43222],[-114.90404,46.43204],[-114.90347,46.4319],[-114.90348,46.43158],[-114.90412,46.4311],[-114.90522,46.43058],[-114.90629,46.43028],[-114.90668,46.43036],[-114.90682,46.4306],[-114.90705,46.43061],[-114.90744,46.43036],[-114.90771,46.43035],[-114.90805,46.43058],[-114.90921,46.4304],[-114.90945,46.43067],[-114.9102,46.43082],[-114.91038,46.43155],[-114.90986,46.43199],[-114.9088,46.43215],[-114.90944,46.43235],[-114.90978,46.43279],[-114.90912,46.43286],[-114.90846,46.43276],[-114.90804,46.43286],[-114.9083,46.43304],[-114.90883,46.43307],[-114.90911,46.43329],[-114.9091,46.43357],[-114.90855,46.43361],[-114.90858,46.43409],[-114.90912,46.4343],[-114.90988,46.43429],[-114.91042,46.43461],[-114.91221,46.43487],[-114.91239,46.43514],[-114.91314,46.4354],[-114.91393,46.43533],[-114.91373,46.43561],[-114.91411,46.43567],[-114.9142,46.43613],[-114.91365,46.43637],[-114.91347,46.43663],[-114.91325,46.43655],[-114.91328,46.43624],[-114.91217,46.4359],[-114.91178,46.43618],[-114.91167,46.43659],[-114.91146,46.43676],[-114.91114,46.43676],[-114.91042,46.43644],[-114.91036,46.43616],[-114.91022,46.43614],[-114.91,46.43653],[-114.9096,46.43658],[-114.90954,46.43701],[-114.90935,46.4371],[-114.90795,46.43674],[-114.90753,46.43682],[-114.9073,46.43671],[-114.90666,46.43688],[-114.90668,46.43702],[-114.90708,46.43696],[-114.90701,46.43721],[-114.90767,46.43722],[-114.90808,46.4374],[-114.90731,46.43741],[-114.90673,46.43789],[-114.90647,46.43772],[-114.90626,46.43805],[-114.90533,46.43822],[-114.90523,46.43901],[-114.90478,46.43945],[-114.90487,46.43992],[-114.90464,46.44033],[-114.90472,46.44057],[-114.9057,46.44059],[-114.9062,46.44026],[-114.90678,46.44038],[-114.90688,46.44024],[-114.90731,46.44014],[-114.90769,46.44043],[-114.90826,46.44049],[-114.90851,46.44068],[-114.90906,46.44065],[-114.90914,46.44026],[-114.90932,46.44015],[-114.90945,46.43983],[-114.9105,46.43979],[-114.9109,46.43961],[-114.91135,46.43986],[-114.91109,46.43994],[-114.91108,46.4402],[-114.91001,46.44068],[-114.91011,46.44097],[-114.91051,46.44098],[-114.91057,46.4411],[-114.91054,46.4417],[-114.91006,46.44188],[-114.91033,46.44202],[-114.91031,46.44215],[-114.91004,46.44206],[-114.909,46.4422],[-114.90845,46.44277],[-114.90849,46.44289],[-114.90875,46.44294],[-114.90874,46.44312],[-114.90832,46.44309],[-114.9082,46.44324],[-114.90766,46.44332],[-114.90751,46.44312],[-114.90673,46.44347],[-114.90613,46.44319],[-114.90561,46.44325],[-114.90549,46.44374],[-114.90457,46.44391],[-114.90434,46.44412],[-114.90438,46.44449],[-114.90472,46.44455],[-114.90467,46.44468],[-114.90489,46.44498],[-114.90481,46.44506],[-114.90456,46.44505],[-114.90444,46.44491],[-114.90381,46.44536],[-114.90338,46.44541],[-114.90322,46.44555],[-114.90306,46.44549],[-114.90301,46.44568],[-114.90242,46.44575],[-114.90247,46.44539],[-114.90289,46.4453],[-114.90243,46.44469],[-114.90204,46.44473],[-114.90152,46.44444],[-114.90098,46.44454],[-114.90063,46.44425],[-114.90048,46.4443],[-114.90051,46.44457],[-114.90009,46.44456],[-114.8991,46.44531],[-114.89817,46.44507],[-114.89767,46.44521],[-114.8974,46.44511],[-114.8976,46.44464],[-114.89749,46.44455],[-114.89791,46.44438],[-114.89729,46.44406],[-114.89695,46.44415],[-114.89687,46.44409],[-114.89697,46.44392],[-114.89646,46.44398],[-114.89643,46.44377],[-114.89623,46.44383],[-114.8962,46.44397],[-114.89594,46.44383],[-114.89536,46.44393],[-114.89515,46.44424],[-114.89571,46.44451],[-114.89641,46.44449],[-114.89643,46.4446],[-114.89605,46.44486],[-114.89625,46.44507],[-114.89601,46.44513],[-114.89587,46.44501],[-114.89587,46.44515],[-114.89525,46.44525],[-114.89523,46.44556],[-114.89499,46.44568],[-114.89469,46.4455],[-114.89425,46.44572],[-114.8939,46.44553],[-114.89396,46.44517],[-114.89385,46.44493],[-114.89313,46.44511],[-114.8931,46.44528],[-114.89298,46.44529],[-114.89297,46.44501],[-114.89281,46.44494],[-114.89268,46.44448],[-114.89252,46.44447],[-114.89242,46.44425],[-114.89273,46.44419],[-114.89257,46.44403],[-114.89283,46.44392],[-114.89313,46.444],[-114.89317,46.44383],[-114.89335,46.44383],[-114.89353,46.44406],[-114.89381,46.44388],[-114.89343,46.4437],[-114.89339,46.4435],[-114.89358,46.44325],[-114.894,46.44348],[-114.89411,46.4437],[-114.89455,46.44369],[-114.89452,46.44345],[-114.89436,46.44341],[-114.894578,46.44296],[-114.89438,46.44269],[-114.89395,46.44261],[-114.89366,46.44276],[-114.89387,46.44278],[-114.89391,46.44302],[-114.89311,46.4432]]],[[[-114.89674,46.45113],[-114.89708,46.45094],[-114.89708,46.45116],[-114.89694,46.45127],[-114.89677,46.45125],[-114.89674,46.45113]]],[[[-114.89028,46.46072],[-114.89005,46.46088],[-114.88997,46.46085],[-114.89001,46.46063],[-114.89025,46.46059],[-114.89028,46.46072]]],[[[-114.88893,46.46086],[-114.88936,46.46072],[-114.88945,46.46105],[-114.8891,46.46123],[-114.88891,46.46102],[-114.88893,46.46086]]],[[[-114.89075,46.46131],[-114.89072,46.46113],[-114.89099,46.46126],[-114.89075,46.46131]]],[[[-114.88862,46.46151],[-114.88883,46.46169],[-114.88859,46.46205],[-114.88817,46.46208],[-114.888,46.46194],[-114.88803,46.46175],[-114.88862,46.46151]]],[[[-114.88897,46.46208],[-114.88917,46.46206],[-114.88911,46.46214],[-114.88897,46.46208]]],[[[-114.88982,46.46244],[-114.89013,46.4625],[-114.89005,46.46267],[-114.88993,46.46265],[-114.88982,46.46244]]],[[[-114.882,46.43946],[-114.88215,46.43928],[-114.8824,46.43929],[-114.88248,46.43954],[-114.882,46.43946]]],[[[-114.87536,46.44002],[-114.87549,46.4402],[-114.87515,46.44036],[-114.87505,46.44009],[-114.87536,46.44002]]],[[[-114.8795,46.44266],[-114.87958,46.44267],[-114.87979,46.44291],[-114.8795,46.44266]]],[[[-114.88202,46.44294],[-114.88203,46.44302],[-114.88195,46.44294],[-114.88202,46.44294]]],[[[-114.87831,46.44328],[-114.87814,46.44328],[-114.87814,46.44323],[-114.87831,46.44328]]],[[[-114.86902,46.44386],[-114.86872,46.44387],[-114.86867,46.44358],[-114.86848,46.44379],[-114.868,46.44385],[-114.86796,46.44424],[-114.8676,46.44425],[-114.86731,46.44384],[-114.86735,46.44365],[-114.86798,46.44351],[-114.86837,46.44323],[-114.86791,46.44261],[-114.86928,46.44287],[-114.8693,46.44304],[-114.86896,46.44326],[-114.86902,46.44386]]],[[[-114.882,46.44354],[-114.88199,46.44345],[-114.88213,46.44351],[-114.882,46.44354]]],[[[-114.87684,46.44473],[-114.8767,46.44455],[-114.87688,46.4445],[-114.87694,46.44464],[-114.87684,46.44473]]],[[[-114.87186,46.44491],[-114.87203,46.44455],[-114.8724,46.44459],[-114.87233,46.44498],[-114.87186,46.44491]]],[[[-114.8787,46.44484],[-114.87877,46.44484],[-114.87877,46.44493],[-114.8787,46.44484]]],[[[-114.86776,46.44625],[-114.86766,46.44612],[-114.86793,46.44614],[-114.86776,46.44625]]],[[[-114.86996,46.44676],[-114.86956,46.44689],[-114.86935,46.44677],[-114.8696,46.44649],[-114.87019,46.44654],[-114.86996,46.44676]]],[[[-114.87059,46.44993],[-114.87098,46.45],[-114.8707,46.45018],[-114.87056,46.45011],[-114.87059,46.44993]]],[[[-114.87265,46.45132],[-114.87264,46.45125],[-114.87284,46.45125],[-114.87265,46.45132]]],[[[-114.87306,46.45153],[-114.87298,46.4513],[-114.87332,46.45144],[-114.87306,46.45153]]],[[[-114.87262,46.45379],[-114.87253,46.45376],[-114.87265,46.45373],[-114.87262,46.45379]]],[[[-114.87507,46.45668],[-114.87488,46.45639],[-114.87512,46.45632],[-114.87521,46.45661],[-114.87507,46.45668]]],[[[-114.88355,46.45783],[-114.88381,46.45785],[-114.88365,46.45801],[-114.88355,46.45783]]],[[[-114.88446,46.46168],[-114.88451,46.46135],[-114.88396,46.46103],[-114.8838,46.46081],[-114.88409,46.4607],[-114.88363,46.46027],[-114.88405,46.45945],[-114.88445,46.45925],[-114.88478,46.45958],[-114.88525,46.45963],[-114.88601,46.45998],[-114.8861,46.46047],[-114.88654,46.46125],[-114.8869,46.46109],[-114.88703,46.46075],[-114.88773,46.46072],[-114.88825,46.4605],[-114.88819,46.46093],[-114.88839,46.4611],[-114.88835,46.46125],[-114.88789,46.4613],[-114.8873,46.46194],[-114.88811,46.46227],[-114.88808,46.46246],[-114.88708,46.46239],[-114.88682,46.46195],[-114.88656,46.46198],[-114.88662,46.46235],[-114.88585,46.46247],[-114.88556,46.4621],[-114.88461,46.46187],[-114.88446,46.46168]]]]},"properties":{"fire_id":"ufid:2023-IDNCF-000321","source_collection":"history-2023","source_objectid":21330,"incident_name":"Little Bear","mapped_acres":1291.0,"mapped_acres_source":"poly_GISAcres","gis_acres":1291.0,"auto_acres":1290.6115158590305,"reported_acres":1221.0,"percent_contained":null,"state":"ID","state_wfigs":"US-ID","county":"Idaho","discovery_time_utc":"2023-07-03T19:57:00Z","perimeter_time_utc":"2023-09-28T16:11:40Z","perimeter_edit_time_utc":"2023-09-28T16:11:41Z","incident_modified_time_utc":"2023-09-27T13:17:31Z","containment_time_utc":"2023-09-06T20:00:00Z","control_time_utc":"2023-09-15T23:00:00Z","fire_out_time_utc":"2023-09-26T19:00:00Z","fire_cause":"Natural","fire_cause_general":"Natural","map_method":"IR Image Interpretation","source_dataset":"FFP","unique_fire_identifier":"2023-IDNCF-000321","irwin_id":"{EEAB7C5D-1D00-4810-8573-7550BB415410}","global_id":"768ebdc7-ff48-4ad4-87a6-f898ecebd49e"}},{"type":"Feature","geometry":{"type":"MultiPolygon","coordinates":[[[[-114.97606,46.52184],[-114.97429,46.52154],[-114.97402,46.52184],[-114.97356,46.52159],[-114.97308,46.52156],[-114.97249,46.52166],[-114.97221,46.52186],[-114.97154,46.52177],[-114.97012,46.52096],[-114.96981,46.51993],[-114.96943,46.51956],[-114.96951,46.51923],[-114.96988,46.51902],[-114.97034,46.51899],[-114.97038,46.51838],[-114.97059,46.51818],[-114.97241,46.51972],[-114.97336,46.52013],[-114.97387,46.51983],[-114.97339,46.51938],[-114.97336,46.51916],[-114.97368,46.5191],[-114.9739,46.51889],[-114.97379,46.51819],[-114.97395,46.51769],[-114.97483,46.51769],[-114.97469,46.51729],[-114.97437,46.51692],[-114.97352,46.51638],[-114.97352,46.51565],[-114.97286,46.51544],[-114.97282,46.51468],[-114.97336,46.51407],[-114.97349,46.51361],[-114.9738,46.5134],[-114.97449,46.51336],[-114.97514,46.51289],[-114.97553,46.51226],[-114.97667,46.51186],[-114.97717,46.51085],[-114.97751,46.51082],[-114.97735,46.51057],[-114.97634,46.51003],[-114.97652,46.50954],[-114.97706,46.50927],[-114.9781,46.50983],[-114.97835,46.5093],[-114.97821,46.50898],[-114.97792,46.50894],[-114.97768,46.50854],[-114.97846,46.50847],[-114.97882,46.50799],[-114.97844,46.50799],[-114.97826,46.50775],[-114.97798,46.50771],[-114.97764,46.50791],[-114.97727,46.50769],[-114.97731,46.50749],[-114.97701,46.5074],[-114.97648,46.50757],[-114.97636,46.5074],[-114.97656,46.50711],[-114.97607,46.50689],[-114.97564,46.50696],[-114.97521,46.50647],[-114.97423,46.50607],[-114.97413,46.50577],[-114.97508,46.50554],[-114.97516,46.50487],[-114.97531,46.50464],[-114.97631,46.50455],[-114.97636,46.50431],[-114.97595,46.50417],[-114.97566,46.50379],[-114.97551,46.50279],[-114.97492,46.50221],[-114.97462,46.50224],[-114.97429,46.50189],[-114.97391,46.50185],[-114.97368,46.50222],[-114.97417,46.50244],[-114.97435,46.50267],[-114.97405,46.50347],[-114.97356,46.50366],[-114.97315,46.50337],[-114.97243,46.50315],[-114.97134,46.50315],[-114.9706,46.50287],[-114.97004,46.50298],[-114.96997,46.5027],[-114.97015,46.50228],[-114.96998,46.50178],[-114.96964,46.50198],[-114.96966,46.50228],[-114.96949,46.50244],[-114.96916,46.502],[-114.96912,46.50172],[-114.96878,46.50148],[-114.96873,46.50114],[-114.96954,46.50073],[-114.96996,46.50069],[-114.97042,46.5009],[-114.97072,46.50083],[-114.97055,46.5003],[-114.97033,46.5002],[-114.96965,46.50025],[-114.96963,46.50006],[-114.96977,46.49996],[-114.97022,46.49992],[-114.97044,46.49969],[-114.96976,46.49948],[-114.96975,46.4992],[-114.96988,46.49908],[-114.97113,46.49913],[-114.9712,46.49936],[-114.97234,46.49952],[-114.97252,46.49964],[-114.97279,46.49949],[-114.97282,46.4992],[-114.9732,46.49876],[-114.97421,46.49831],[-114.97405,46.498],[-114.97345,46.49753],[-114.97378,46.4974],[-114.97494,46.4978],[-114.97541,46.49856],[-114.97577,46.49871],[-114.97616,46.49871],[-114.97653,46.49834],[-114.97661,46.49752],[-114.97616,46.49731],[-114.97503,46.49727],[-114.97505,46.49651],[-114.97481,46.4962],[-114.97411,46.49612],[-114.97401,46.49531],[-114.97359,46.49503],[-114.97383,46.49431],[-114.97344,46.49421],[-114.97323,46.49388],[-114.97242,46.49366],[-114.97233,46.49338],[-114.97207,46.49324],[-114.97205,46.4927],[-114.97183,46.49243],[-114.97192,46.49201],[-114.97242,46.49201],[-114.97276,46.49174],[-114.97315,46.4918],[-114.97323,46.49208],[-114.97359,46.49214],[-114.97376,46.49178],[-114.97373,46.49138],[-114.97425,46.49141],[-114.97485,46.49173],[-114.97514,46.49162],[-114.97555,46.49187],[-114.97581,46.49187],[-114.97516,46.49131],[-114.97499,46.49067],[-114.97415,46.49008],[-114.97421,46.48987],[-114.9747,46.48976],[-114.97476,46.48917],[-114.97442,46.48894],[-114.97173,46.48866],[-114.97142,46.48766],[-114.97093,46.48724],[-114.97097,46.48695],[-114.97157,46.48657],[-114.97166,46.48605],[-114.97229,46.48572],[-114.97309,46.48574],[-114.97403,46.48617],[-114.97423,46.48681],[-114.97396,46.4875],[-114.97438,46.48779],[-114.97498,46.48786],[-114.97574,46.48688],[-114.97649,46.48673],[-114.9765,46.48657],[-114.9761,46.48619],[-114.97601,46.4857],[-114.97645,46.48541],[-114.97679,46.48452],[-114.97616,46.48374],[-114.97633,46.48361],[-114.97583,46.48309],[-114.97516,46.48271],[-114.97474,46.48267],[-114.97354,46.4834],[-114.97311,46.48345],[-114.97336,46.48302],[-114.97474,46.4824],[-114.97512,46.48162],[-114.97521,46.48106],[-114.97541,46.48089],[-114.97679,46.48073],[-114.97741,46.48042],[-114.9777,46.48082],[-114.97792,46.48162],[-114.97784,46.48252],[-114.9787,46.48236],[-114.97922,46.48244],[-114.97971,46.48278],[-114.97964,46.4836],[-114.97931,46.48443],[-114.97942,46.48561],[-114.98,46.48603],[-114.98051,46.48661],[-114.98053,46.48715],[-114.98026,46.48746],[-114.98146,46.48808],[-114.98142,46.48829],[-114.9808,46.48863],[-114.9804,46.48902],[-114.98058,46.49001],[-114.98082,46.49031],[-114.98157,46.49057],[-114.98215,46.4903],[-114.98245,46.4903],[-114.98246,46.49051],[-114.98272,46.49067],[-114.98231,46.49079],[-114.9807,46.49179],[-114.97943,46.49177],[-114.97876,46.49199],[-114.97853,46.49214],[-114.9785,46.49234],[-114.97916,46.49278],[-114.97938,46.49311],[-114.98017,46.49309],[-114.98028,46.49324],[-114.98059,46.49328],[-114.98073,46.49307],[-114.98183,46.49301],[-114.98239,46.49233],[-114.98274,46.49209],[-114.98323,46.49218],[-114.98381,46.49253],[-114.98459,46.49246],[-114.98472,46.49277],[-114.98459,46.49311],[-114.98381,46.49365],[-114.98311,46.49328],[-114.98253,46.49344],[-114.98322,46.49364],[-114.98338,46.4938],[-114.98334,46.49399],[-114.98308,46.49413],[-114.98266,46.49473],[-114.98266,46.49521],[-114.983,46.49616],[-114.98287,46.49629],[-114.98204,46.49644],[-114.98199,46.49669],[-114.98149,46.4968],[-114.98162,46.49725],[-114.98127,46.49739],[-114.9809,46.49779],[-114.98062,46.49853],[-114.98072,46.49887],[-114.98038,46.49919],[-114.9795,46.49961],[-114.97954,46.50007],[-114.9803,46.50049],[-114.98006,46.50114],[-114.98027,46.50135],[-114.98094,46.50138],[-114.98233,46.50083],[-114.98242,46.50051],[-114.98182,46.49988],[-114.98196,46.49975],[-114.98282,46.50005],[-114.98315,46.49998],[-114.98305,46.49954],[-114.98318,46.49884],[-114.98375,46.49847],[-114.98401,46.49805],[-114.98522,46.49708],[-114.98594,46.49693],[-114.98634,46.49749],[-114.98631,46.49775],[-114.98606,46.49814],[-114.9852,46.49845],[-114.9853,46.49898],[-114.98563,46.49911],[-114.98575,46.49969],[-114.98646,46.49985],[-114.98667,46.49948],[-114.98717,46.49928],[-114.98697,46.49881],[-114.98704,46.49839],[-114.98754,46.49795],[-114.98866,46.49811],[-114.98944,46.49864],[-114.98945,46.49908],[-114.98838,46.49895],[-114.98784,46.49938],[-114.98791,46.49972],[-114.98829,46.49981],[-114.98868,46.49966],[-114.98923,46.49977],[-114.98939,46.50009],[-114.9901,46.50035],[-114.99018,46.50111],[-114.98984,46.50106],[-114.98922,46.50143],[-114.99047,46.50167],[-114.99167,46.50214],[-114.99187,46.50325],[-114.99171,46.50356],[-114.99168,46.50411],[-114.99097,46.50411],[-114.99067,46.50429],[-114.99035,46.50412],[-114.99021,46.50384],[-114.98936,46.50348],[-114.98886,46.50343],[-114.98867,46.50326],[-114.98816,46.50345],[-114.98848,46.5038],[-114.98824,46.50467],[-114.98854,46.5048],[-114.99007,46.50435],[-114.99024,46.50456],[-114.98983,46.50494],[-114.98938,46.5051],[-114.98948,46.50576],[-114.98936,46.50591],[-114.98911,46.50594],[-114.98913,46.50609],[-114.98893,46.50626],[-114.98902,46.50702],[-114.98862,46.50704],[-114.98784,46.5074],[-114.98751,46.5074],[-114.98726,46.50724],[-114.9864,46.50729],[-114.98639,46.50778],[-114.98583,46.50796],[-114.98562,46.5082],[-114.98387,46.50807],[-114.98363,46.50791],[-114.98344,46.50737],[-114.98146,46.50846],[-114.98089,46.50844],[-114.98093,46.50938],[-114.98029,46.51008],[-114.97966,46.50978],[-114.97973,46.50992],[-114.98007,46.51003],[-114.98028,46.51032],[-114.98008,46.51121],[-114.98042,46.51135],[-114.98042,46.51167],[-114.97985,46.51165],[-114.97982,46.51122],[-114.9796,46.51107],[-114.97884,46.51133],[-114.97887,46.51145],[-114.97828,46.5119],[-114.97747,46.5119],[-114.97717,46.5122],[-114.97637,46.51229],[-114.97522,46.51386],[-114.9748,46.51403],[-114.97544,46.51443],[-114.97601,46.5151],[-114.97546,46.51601],[-114.97547,46.51639],[-114.9757,46.51652],[-114.97626,46.51619],[-114.97688,46.51615],[-114.97748,46.51631],[-114.97778,46.51668],[-114.97935,46.51687],[-114.97954,46.51728],[-114.97922,46.51806],[-114.9785,46.51916],[-114.97775,46.51942],[-114.97774,46.51962],[-114.97808,46.51969],[-114.97827,46.51989],[-114.97822,46.52033],[-114.97775,46.52131],[-114.97725,46.52157],[-114.97717,46.52223],[-114.97686,46.52227],[-114.97606,46.52184]]],[[[-114.96972,46.48953],[-114.97008,46.48946],[-114.97022,46.48984],[-114.9697,46.48987],[-114.96972,46.48953]]],[[[-114.98263,46.49663],[-114.98308,46.49647],[-114.98323,46.49676],[-114.98268,46.4968],[-114.98263,46.49663]]],[[[-114.9869,46.49737],[-114.9865,46.49718],[-114.98675,46.49689],[-114.98673,46.49662],[-114.98716,46.4963],[-114.98767,46.49615],[-114.98773,46.49641],[-114.98744,46.49678],[-114.98754,46.49693],[-114.98748,46.49712],[-114.98718,46.49712],[-114.9869,46.49737]]],[[[-114.98286,46.4976],[-114.98316,46.49761],[-114.98308,46.49771],[-114.98286,46.4976]]],[[[-114.98188,46.49765],[-114.98203,46.49773],[-114.98185,46.49776],[-114.98188,46.49765]]],[[[-114.98611,46.49893],[-114.98634,46.49872],[-114.98652,46.49895],[-114.9863,46.49908],[-114.98611,46.49893]]],[[[-114.96765,46.50263],[-114.9679,46.50266],[-114.96795,46.50278],[-114.96786,46.50302],[-114.96752,46.50316],[-114.96733,46.50296],[-114.96765,46.50263]]],[[[-114.96689,46.50267],[-114.96707,46.50279],[-114.96706,46.50316],[-114.96689,46.50323],[-114.96662,46.50311],[-114.96689,46.50267]]],[[[-114.96548,46.50298],[-114.96565,46.50285],[-114.96595,46.50289],[-114.96623,46.50302],[-114.96625,46.50321],[-114.96611,46.50344],[-114.96565,46.50371],[-114.96537,46.50368],[-114.96548,46.50298]]],[[[-114.96479,46.50431],[-114.9647,46.50407],[-114.96516,46.50415],[-114.96479,46.50431]]],[[[-114.96919,46.50445],[-114.96938,46.50442],[-114.96928,46.50454],[-114.96919,46.50445]]],[[[-114.9634,46.50391],[-114.96317,46.50412],[-114.96283,46.50415],[-114.96251,46.50348],[-114.96251,46.50297],[-114.96307,46.50236],[-114.96355,46.50214],[-114.96398,46.5024],[-114.96438,46.50239],[-114.96452,46.50224],[-114.96495,46.50233],[-114.96513,46.5025],[-114.96509,46.50311],[-114.96433,46.50359],[-114.96456,46.50389],[-114.96427,46.50419],[-114.9644,46.50445],[-114.96434,46.50465],[-114.96406,46.50468],[-114.96366,46.50403],[-114.9634,46.50391]]],[[[-114.96986,46.50473],[-114.97011,46.50468],[-114.97012,46.50479],[-114.97001,46.50486],[-114.96986,46.50473]]],[[[-114.97149,46.50484],[-114.97075,46.50482],[-114.96998,46.50435],[-114.96934,46.50432],[-114.96844,46.50396],[-114.9686,46.50339],[-114.96925,46.50312],[-114.97054,46.50345],[-114.97094,46.50372],[-114.97093,46.50412],[-114.97153,46.50423],[-114.97149,46.50484]]],[[[-114.97057,46.505],[-114.9708,46.50498],[-114.9708,46.50507],[-114.97059,46.50513],[-114.97057,46.505]]],[[[-114.96677,46.50703],[-114.96644,46.50718],[-114.96596,46.50712],[-114.96572,46.50677],[-114.96577,46.5061],[-114.96513,46.50599],[-114.96463,46.50607],[-114.96433,46.50595],[-114.96399,46.50614],[-114.96381,46.50648],[-114.96348,46.50653],[-114.96319,46.50675],[-114.96212,46.50686],[-114.96173,46.50715],[-114.96123,46.50713],[-114.9605,46.50644],[-114.96059,46.50633],[-114.96109,46.50632],[-114.96122,46.50615],[-114.96117,46.50598],[-114.96045,46.50564],[-114.96043,46.50535],[-114.9612,46.50522],[-114.96124,46.50505],[-114.96109,46.50484],[-114.96144,46.50461],[-114.96178,46.50477],[-114.96197,46.50502],[-114.96304,46.50537],[-114.96373,46.50503],[-114.96548,46.50487],[-114.96643,46.5046],[-114.96659,46.50393],[-114.96735,46.50347],[-114.96759,46.50352],[-114.96774,46.50376],[-114.96754,46.50401],[-114.9678,46.50404],[-114.9679,46.50426],[-114.96753,46.50443],[-114.96736,46.50485],[-114.96705,46.50497],[-114.96718,46.50522],[-114.96798,46.50531],[-114.96829,46.50573],[-114.96874,46.50579],[-114.96872,46.5062],[-114.96861,46.50653],[-114.96803,46.50689],[-114.96796,46.50727],[-114.96774,46.50742],[-114.96736,46.50751],[-114.96703,46.50742],[-114.96687,46.50733],[-114.96677,46.50703]]],[[[-114.98291,46.50993],[-114.98322,46.50982],[-114.98349,46.50994],[-114.98334,46.51017],[-114.98309,46.51018],[-114.98291,46.50993]]],[[[-114.97169,46.51461],[-114.97184,46.51455],[-114.97201,46.51467],[-114.97189,46.51508],[-114.97169,46.51511],[-114.97158,46.51491],[-114.97169,46.51461]]]]},"properties":{"fire_id":"ufid:2023-IDNCF-000414","source_collection":"history-2023","source_objectid":21331,"incident_name":"West Fork","mapped_acres":721.1177,"mapped_acres_source":"poly_GISAcres","gis_acres":721.1177,"auto_acres":721.2651122140587,"reported_acres":1262.0,"percent_contained":null,"state":"ID","state_wfigs":"US-ID","county":"Idaho","discovery_time_utc":"2023-07-18T01:56:25Z","perimeter_time_utc":"2024-03-15T16:18:11Z","perimeter_edit_time_utc":"2024-03-15T16:18:11Z","incident_modified_time_utc":"2024-03-15T15:11:59Z","containment_time_utc":"2023-09-06T20:00:00Z","control_time_utc":"2023-09-15T23:00:00Z","fire_out_time_utc":"2023-09-26T19:00:00Z","fire_cause":"Natural","fire_cause_general":"Natural","map_method":"IR Image Interpretation","source_dataset":"FFP","unique_fire_identifier":"2023-IDNCF-000414","irwin_id":"{0CAB9E55-3506-4D84-8182-95E5A7477CF8}","global_id":"e4e52880-67c6-4a36-96a1-6d8fa64a9f33"}},{"type":"Feature","geometry":{"type":"Polygon","coordinates":[[[-114.90465,45.72761],[-114.90444,45.72822],[-114.90499,45.72816],[-114.90574,45.72748],[-114.90709,45.72682],[-114.90726,45.72642],[-114.90778,45.72638],[-114.90824,45.72731],[-114.90839,45.72804],[-114.9088,45.72823],[-114.90916,45.7288],[-114.90896,45.72932],[-114.90825,45.73038],[-114.90748,45.7308],[-114.90539,45.73072],[-114.90498,45.73089],[-114.90513,45.73137],[-114.90488,45.73193],[-114.90418,45.73252],[-114.90329,45.73288],[-114.90276,45.7328],[-114.90184,45.73353],[-114.90106,45.73378],[-114.90091,45.73396],[-114.90031,45.73397],[-114.90004,45.73414],[-114.89975,45.73408],[-114.89964,45.73477],[-114.89872,45.73514],[-114.89748,45.73628],[-114.89679,45.7367],[-114.89607,45.7367],[-114.89564,45.73719],[-114.89491,45.73732],[-114.89384,45.73741],[-114.89331,45.73702],[-114.89349,45.73649],[-114.89304,45.73598],[-114.89329,45.73551],[-114.8932,45.73516],[-114.89553,45.7351],[-114.89547,45.73408],[-114.89596,45.734],[-114.89582,45.73371],[-114.89489,45.73304],[-114.89565,45.73261],[-114.89609,45.73264],[-114.8962,45.73244],[-114.89587,45.73233],[-114.89616,45.73221],[-114.89702,45.73219],[-114.89952,45.73105],[-114.90004,45.73097],[-114.90051,45.73161],[-114.90055,45.73198],[-114.90093,45.73204],[-114.90125,45.73185],[-114.90117,45.73119],[-114.90144,45.73105],[-114.90171,45.73135],[-114.90215,45.73141],[-114.9027,45.73126],[-114.90251,45.73067],[-114.90331,45.73037],[-114.90334,45.73013],[-114.90282,45.72999],[-114.90249,45.72927],[-114.902,45.72919],[-114.90198,45.72963],[-114.90153,45.72998],[-114.90075,45.72993],[-114.90035,45.72972],[-114.9002,45.72936],[-114.90014,45.72889],[-114.90067,45.72882],[-114.90077,45.72812],[-114.90104,45.72772],[-114.90149,45.72757],[-114.90143,45.72677],[-114.90184,45.72674],[-114.90182,45.72637],[-114.90156,45.72627],[-114.90159,45.72598],[-114.90222,45.72597],[-114.90335,45.72623],[-114.90373,45.72587],[-114.90446,45.72597],[-114.90421,45.72628],[-114.90455,45.72658],[-114.90544,45.72688],[-114.90465,45.72761]]]},"properties":{"fire_id":"ufid:2023-MTBRF-023257","source_collection":"history-2023","source_objectid":23020,"incident_name":"Throng","mapped_acres":123.098,"mapped_acres_source":"poly_GISAcres","gis_acres":123.098,"auto_acres":133.53055119179865,"reported_acres":134.0,"percent_contained":null,"state":"ID","state_wfigs":"US-ID","county":"Idaho","discovery_time_utc":"2023-08-11T21:41:13Z","perimeter_time_utc":"2023-12-01T20:46:29Z","perimeter_edit_time_utc":"2023-12-01T20:46:29Z","incident_modified_time_utc":"2023-10-25T20:23:23Z","containment_time_utc":"2023-10-20T16:20:00Z","control_time_utc":"2023-10-25T20:20:00Z","fire_out_time_utc":"2023-10-25T20:20:00Z","fire_cause":"Natural","fire_cause_general":"Natural","map_method":"Digitized-Image","source_dataset":"FFP","unique_fire_identifier":"2023-MTBRF-023257","irwin_id":"{17DE3746-D613-442A-8C72-4528CFE36A69}","global_id":"40522c8e-e9a1-4801-84ab-a928858bf860"}},{"type":"Feature","geometry":{"type":"Polygon","coordinates":[[[-114.66966,46.14952],[-114.67619,46.14972],[-114.67792,46.15159],[-114.68113,46.15192],[-114.682,46.15141],[-114.68307,46.14954],[-114.68565,46.14927],[-114.68716,46.14832],[-114.68959,46.14888],[-114.69165,46.15035],[-114.69128,46.15099],[-114.69117,46.15189],[-114.68994,46.15395],[-114.68947,46.15652],[-114.68802,46.15766],[-114.68628,46.15769],[-114.68015,46.15908],[-114.67884,46.15754],[-114.67473,46.15724],[-114.67096,46.15859],[-114.66891,46.15736],[-114.66801,46.1556],[-114.66695,46.15056],[-114.66966,46.14952]]]},"properties":{"fire_id":"ufid:2023-IDNCF-000505","source_collection":"history-2023","source_objectid":23179,"incident_name":"Wahoo Peak","mapped_acres":0.1,"mapped_acres_source":"poly_GISAcres","gis_acres":0.1,"auto_acres":380.80134962480093,"reported_acres":380.0,"percent_contained":null,"state":"ID","state_wfigs":"US-ID","county":"Idaho","discovery_time_utc":"2023-07-29T18:48:00Z","perimeter_time_utc":"2023-12-11T18:28:53Z","perimeter_edit_time_utc":"2023-12-11T18:28:53Z","incident_modified_time_utc":"2023-11-17T22:32:50Z","containment_time_utc":"2023-10-15T22:00:00Z","control_time_utc":"2023-10-15T22:00:00Z","fire_out_time_utc":"2023-10-15T22:00:00Z","fire_cause":"Natural","fire_cause_general":"Natural","map_method":"Hand Sketch","source_dataset":"FFP","unique_fire_identifier":"2023-IDNCF-000505","irwin_id":"{6E2A3792-21AD-4FB7-8289-190B8518F071}","global_id":"ffe38a10-e909-482c-b881-1c81091990c4"}}]}
