{"type":"FeatureCollection","features":[{"type":"Feature","geometry":{"type":"Polygon","coordinates":[[[-86.65784,38.85845],[-86.65847,38.85852],[-86.65933,38.85914],[-86.65941,38.85938],[-86.65932,38.85945],[-86.65932,38.8604],[-86.65974,38.86106],[-86.65952,38.86122],[-86.65982,38.8613],[-86.65955,38.86143],[-86.65914,38.86142],[-86.65909,38.86152],[-86.65957,38.86185],[-86.65958,38.86199],[-86.65861,38.86179],[-86.65829,38.86194],[-86.65674,38.86141],[-86.65763,38.85889],[-86.65784,38.85845]]]},"properties":{"fire_id":"ufid:2023-INHOF-230018","source_collection":"history-2023","source_objectid":15453,"incident_name":"Mill","mapped_acres":15.0,"mapped_acres_source":"poly_GISAcres","gis_acres":15.0,"auto_acres":16.509584878420075,"reported_acres":15.0,"percent_contained":null,"state":"IN","state_wfigs":"US-IN","county":"Lawrence","discovery_time_utc":"2023-03-01T19:37:00Z","perimeter_time_utc":"2023-03-21T11:50:09Z","perimeter_edit_time_utc":"2023-03-21T11:50:09Z","incident_modified_time_utc":"2023-03-11T19:55:25Z","containment_time_utc":"2023-03-02T00:00:00Z","control_time_utc":"2023-03-02T01:00:00Z","fire_out_time_utc":"2023-03-03T20:00:00Z","fire_cause":"Human","fire_cause_general":"Debris and open burning","map_method":"Hand Sketch","source_dataset":"FFP","unique_fire_identifier":"2023-INHOF-230018","irwin_id":"{9A9F60C9-4DE8-4B5D-9D35-95188490FF1A}","global_id":"af9a83bb-2553-42a9-8141-e2e32553e7fd"}},{"type":"Feature","geometry":{"type":"Polygon","coordinates":[[[-86.51265,38.87154],[-86.51409,38.87162],[-86.51412,38.87184],[-86.51451,38.87225],[-86.51353,38.87251],[-86.51336,38.87216],[-86.51283,38.87208],[-86.51276,38.87226],[-86.51209,38.87176],[-86.51265,38.87154]]]},"properties":{"fire_id":"ufid:2023-INHOF-230021","source_collection":"history-2023","source_objectid":15545,"incident_name":"Butcher","mapped_acres":2.0,"mapped_acres_source":"poly_GISAcres","gis_acres":2.0,"auto_acres":3.129698980631819,"reported_acres":2.0,"percent_contained":null,"state":"IN","state_wfigs":"US-IN","county":"Lawrence","discovery_time_utc":"2023-03-06T22:15:00Z","perimeter_time_utc":"2023-03-23T16:15:17Z","perimeter_edit_time_utc":"2023-03-23T16:15:17Z","incident_modified_time_utc":"2023-03-14T16:40:58Z","containment_time_utc":"2023-03-07T01:00:00Z","control_time_utc":"2023-03-08T01:30:00Z","fire_out_time_utc":"2023-03-08T01:30:00Z","fire_cause":"Human","fire_cause_general":"Other causes","map_method":"Hand Sketch","source_dataset":"FFP","unique_fire_identifier":"2023-INHOF-230021","irwin_id":"{3C617AD1-0640-4EF1-90A3-ADFAFB37BC9B}","global_id":"ea0aa263-6453-4544-aaa9-2c7b882f8c9d"}},{"type":"Feature","geometry":{"type":"Polygon","coordinates":[[[-86.50006,38.25425],[-86.50075,38.25411],[-86.50255,38.25442],[-86.50316,38.25466],[-86.50413,38.25539],[-86.50399,38.25601],[-86.50366,38.25619],[-86.50326,38.25611],[-86.50308,38.25628],[-86.50364,38.25647],[-86.50345,38.25676],[-86.50277,38.25703],[-86.50247,38.25675],[-86.50178,38.25667],[-86.50028,38.25584],[-86.49985,38.25501],[-86.49991,38.25445],[-86.50006,38.25425]],[[-86.50345,38.25668],[-86.50345,38.25669],[-86.50346,38.25669],[-86.50345,38.25668]]]},"properties":{"fire_id":"ufid:2023-INHOF-230056","source_collection":"history-2023","source_objectid":16446,"incident_name":"Hatfield","mapped_acres":10.0,"mapped_acres_source":"poly_GISAcres","gis_acres":10.0,"auto_acres":19.34791215105171,"reported_acres":19.47,"percent_contained":null,"state":"IN","state_wfigs":"US-IN","county":"Crawford","discovery_time_utc":"2023-04-13T20:51:00Z","perimeter_time_utc":"2023-05-03T13:21:02Z","perimeter_edit_time_utc":"2023-05-03T13:21:03Z","incident_modified_time_utc":"2023-04-27T13:28:16Z","containment_time_utc":"2023-04-13T23:52:00Z","control_time_utc":"2023-04-20T18:21:00Z","fire_out_time_utc":"2023-04-24T13:00:00Z","fire_cause":"Human","fire_cause_general":"Power generation / transmission / distribution","map_method":"GPS-Walked","source_dataset":"FFP","unique_fire_identifier":"2023-INHOF-230056","irwin_id":"{15821629-5E63-4197-B705-5DF2F0F7E3D9}","global_id":"4bda5f8e-ce35-4e67-b30e-aa7f8d44c704"}},{"type":"Feature","geometry":{"type":"Polygon","coordinates":[[[-86.35537,39.04495],[-86.35587,39.04504],[-86.35612,39.04558],[-86.3557,39.04625],[-86.35549,39.0463],[-86.35557,39.04663],[-86.35535,39.04666],[-86.35528,39.04681],[-86.35521,39.04663],[-86.35511,39.0468],[-86.35472,39.04675],[-86.35459,39.04659],[-86.35468,39.04623],[-86.35452,39.046],[-86.35472,39.04584],[-86.35441,39.04553],[-86.35466,39.0452],[-86.35537,39.04495]]]},"properties":{"fire_id":"ufid:2023-INHOF-230093","source_collection":"history-2023","source_objectid":22971,"incident_name":"Grubb","mapped_acres":4.0,"mapped_acres_source":"poly_GISAcres","gis_acres":4.0,"auto_acres":4.98945583762463,"reported_acres":5.0,"percent_contained":null,"state":"IN","state_wfigs":"US-IN","county":"Monroe","discovery_time_utc":"2023-11-21T13:00:00Z","perimeter_time_utc":"2023-11-21T19:00:00Z","perimeter_edit_time_utc":"2023-11-30T13:57:22Z","incident_modified_time_utc":"2024-01-08T22:56:42Z","containment_time_utc":"2023-11-21T17:30:00Z","control_time_utc":"2023-11-30T18:00:00Z","fire_out_time_utc":"2023-12-06T16:30:00Z","fire_cause":"Undetermined","fire_cause_general":null,"map_method":"Hand Sketch","source_dataset":"2023 NIFS","unique_fire_identifier":"2023-INHOF-230093","irwin_id":"{7F435352-24B1-4ECF-B48D-5C7162D3F1B9}","global_id":"a2fb4ef5-fa50-4d8a-94e4-64a3c4108282"}},{"type":"Feature","geometry":{"type":"Polygon","coordinates":[[[-86.14501,39.04067],[-86.14577,39.0409],[-86.1458,39.0412],[-86.14623,39.04146],[-86.14616,39.0422],[-86.14632,39.04239],[-86.14618,39.04261],[-86.1459,39.0426],[-86.14559,39.04291],[-86.14503,39.04309],[-86.14462,39.04289],[-86.14469,39.0428],[-86.14453,39.04271],[-86.14478,39.04252],[-86.1446,39.04207],[-86.14482,39.04177],[-86.14462,39.04133],[-86.14447,39.04129],[-86.1448,39.04094],[-86.145,39.04094],[-86.14501,39.04067]]]},"properties":{"fire_id":"ufid:2023-INHOF-23230080","source_collection":"history-2023","source_objectid":23664,"incident_name":"Wagner","mapped_acres":7.0,"mapped_acres_source":"poly_GISAcres","gis_acres":7.0,"auto_acres":6.992909056241238,"reported_acres":7.0,"percent_contained":null,"state":"IN","state_wfigs":"US-IN","county":"Jackson","discovery_time_utc":"2023-11-03T18:44:00Z","perimeter_time_utc":"2024-01-08T18:02:27Z","perimeter_edit_time_utc":"2024-01-08T18:02:28Z","incident_modified_time_utc":"2023-11-06T16:36:35Z","containment_time_utc":"2023-11-04T17:00:00Z","control_time_utc":"2023-11-06T16:25:00Z","fire_out_time_utc":"2023-11-06T16:25:00Z","fire_cause":"Human","fire_cause_general":"Debris and open burning","map_method":"Hand Sketch","source_dataset":"FFP","unique_fire_identifier":"2023-INHOF-23230080","irwin_id":"{A2A67658-8B98-4FF4-AAA6-587BC6B12CDA}","global_id":"e96f9762-ad15-4364-bc61-ea6ebfd05381"}}]}
