{"type":"FeatureCollection","features":[{"type":"Feature","geometry":{"type":"MultiPolygon","coordinates":[[[[-89.88355,30.03484],[-89.88357,30.03482],[-89.88361,30.03488],[-89.88355,30.03484]]],[[[-89.88362,30.03483],[-89.88363,30.03489],[-89.88361,30.03487],[-89.88362,30.03483]]],[[[-89.88364,30.03484],[-89.88365,30.0349],[-89.88364,30.03487],[-89.88364,30.03484]]],[[[-89.8836,30.03536],[-89.88361,30.03488],[-89.88363,30.03489],[-89.8836,30.03536]]],[[[-89.8836,30.03536],[-89.88359,30.03556],[-89.88359,30.03547],[-89.8836,30.03536]]],[[[-89.88334,30.04154],[-89.88313,30.04283],[-89.8839,30.04384],[-89.88279,30.04467],[-89.88189,30.04468],[-89.88137,30.0439],[-89.88022,30.04389],[-89.87979,30.04294],[-89.87848,30.04225],[-89.87743,30.04256],[-89.87707,30.04142],[-89.87587,30.04074],[-89.87545,30.04088],[-89.87471,30.04085],[-89.87423,30.04013],[-89.87416,30.03946],[-89.87343,30.03871],[-89.87326,30.03832],[-89.8733,30.03795],[-89.87357,30.03767],[-89.87571,30.03696],[-89.87605,30.03667],[-89.87669,30.03657],[-89.8771,30.0362],[-89.87849,30.03558],[-89.87896,30.03554],[-89.87916,30.03531],[-89.88185,30.03446],[-89.88234,30.03414],[-89.88379,30.03356],[-89.88391,30.03465],[-89.88412,30.03866],[-89.88438,30.041],[-89.88334,30.04154]],[[-89.88354,30.0348],[-89.88357,30.03607],[-89.88365,30.0349],[-89.88391,30.03465],[-89.88354,30.0348]]]]},"properties":{"fire_id":"ufid:2023-LABSR-10142023","source_collection":"history-2023","source_objectid":21887,"incident_name":"ROOST CANAL FIRE","mapped_acres":1.0,"mapped_acres_source":"poly_GISAcres","gis_acres":1.0,"auto_acres":188.380365927667,"reported_acres":null,"percent_contained":null,"state":"LA","state_wfigs":"US-LA","county":"Orleans","discovery_time_utc":"2023-10-14T23:00:00Z","perimeter_time_utc":"2023-10-15T04:00:00Z","perimeter_edit_time_utc":"2023-10-19T20:47:44Z","incident_modified_time_utc":"2023-10-15T17:56:30Z","containment_time_utc":null,"control_time_utc":null,"fire_out_time_utc":null,"fire_cause":null,"fire_cause_general":null,"map_method":"Hand Sketch","source_dataset":"2023 NIFS","unique_fire_identifier":"2023-LABSR-10142023","irwin_id":"{D47282F0-389F-44C3-8F9B-7A2F2891707B}","global_id":"bc03828f-46a9-4d2b-81d8-aa1f34fe0d56"}},{"type":"Feature","geometry":{"type":"Polygon","coordinates":[[[-89.7995,30.24002],[-89.80001,30.23997],[-89.80004,30.24013],[-89.79987,30.24028],[-89.79993,30.24041],[-89.79972,30.24048],[-89.79923,30.24132],[-89.79874,30.24116],[-89.7995,30.24002]]]},"properties":{"fire_id":"ufid:2023-LABBR-12312023","source_collection":"history-2023","source_objectid":23732,"incident_name":"HWY 11","mapped_acres":1.75,"mapped_acres_source":"poly_GISAcres","gis_acres":1.75,"auto_acres":null,"reported_acres":null,"percent_contained":null,"state":"LA","state_wfigs":"US-LA","county":"St. Tammany","discovery_time_utc":"2023-12-31T20:15:00Z","perimeter_time_utc":"2024-01-11T20:33:47Z","perimeter_edit_time_utc":"2024-01-11T20:33:48Z","incident_modified_time_utc":"2024-01-11T20:16:53Z","containment_time_utc":null,"control_time_utc":null,"fire_out_time_utc":null,"fire_cause":null,"fire_cause_general":null,"map_method":"Hand Sketch","source_dataset":"Inspector","unique_fire_identifier":"2023-LABBR-12312023","irwin_id":"{9CF8BB14-3573-40D9-9623-1CC6D3A8AFC3}","global_id":"f8f7e492-c306-4b81-8168-330e0eb4e1d8"}},{"type":"Feature","geometry":{"type":"Polygon","coordinates":[[[-89.81019,30.22772],[-89.81051,30.2279],[-89.81018,30.22826],[-89.81036,30.22834],[-89.81026,30.22846],[-89.81048,30.22886],[-89.81012,30.22923],[-89.80968,30.22914],[-89.80965,30.2293],[-89.80954,30.22927],[-89.80975,30.22964],[-89.80962,30.22977],[-89.80931,30.22954],[-89.80887,30.22969],[-89.80886,30.23008],[-89.80906,30.23065],[-89.80858,30.23063],[-89.80823,30.23095],[-89.80789,30.23103],[-89.80795,30.23067],[-89.80772,30.23066],[-89.8077,30.23078],[-89.80762,30.2307],[-89.80754,30.23087],[-89.80775,30.2309],[-89.8076,30.23093],[-89.80753,30.23135],[-89.80698,30.23204],[-89.8068,30.2321],[-89.8067,30.23172],[-89.80668,30.23215],[-89.80699,30.23214],[-89.80706,30.23232],[-89.80685,30.2324],[-89.80691,30.2326],[-89.8065,30.23363],[-89.80608,30.23375],[-89.80611,30.23441],[-89.80566,30.23424],[-89.8052,30.23451],[-89.80502,30.23414],[-89.80458,30.23408],[-89.80469,30.23377],[-89.80775,30.23],[-89.80882,30.22883],[-89.81019,30.22772]]]},"properties":{"fire_id":"ufid:2023-LABBR-07052023","source_collection":"history-2023","source_objectid":23733,"incident_name":"CARR DRIVE MARSH FIRE","mapped_acres":20.07,"mapped_acres_source":"poly_GISAcres","gis_acres":20.07,"auto_acres":20.071896374687178,"reported_acres":20.1,"percent_contained":null,"state":"LA","state_wfigs":"US-LA","county":"St. Tammany","discovery_time_utc":"2023-07-05T21:00:00Z","perimeter_time_utc":"2024-01-11T20:38:55Z","perimeter_edit_time_utc":"2024-01-11T20:38:56Z","incident_modified_time_utc":"2023-11-11T14:03:45Z","containment_time_utc":"2023-07-06T13:00:00Z","control_time_utc":"2023-07-06T21:00:00Z","fire_out_time_utc":"2023-07-07T13:00:00Z","fire_cause":"Human","fire_cause_general":"Fireworks","map_method":"Hand Sketch","source_dataset":"FFP","unique_fire_identifier":"2023-LABBR-07052023","irwin_id":"{B8CE31A6-4C47-465B-8ABE-2EF31E8B82CD}","global_id":"96cf44fd-7a53-4566-96ca-4e4ed016d52b"}}]}
