{"type":"FeatureCollection","features":[{"type":"Feature","geometry":{"type":"MultiPolygon","coordinates":[[[[-77.47503,39.63292],[-77.47523,39.633],[-77.47513,39.63305],[-77.47503,39.63292]]],[[[-77.47612,39.63373],[-77.47576,39.63355],[-77.47579,39.6334],[-77.47555,39.63333],[-77.47558,39.6332],[-77.47654,39.63365],[-77.47612,39.63373]]]]},"properties":{"fire_id":"ufid:2023-MDCAP-230015","source_collection":"history-2023","source_objectid":16235,"incident_name":"Rte77 Fire","mapped_acres":0.4912603,"mapped_acres_source":"poly_GISAcres","gis_acres":0.4912603,"auto_acres":0.491258347010644,"reported_acres":0.6,"percent_contained":null,"state":"MD","state_wfigs":"US-MD","county":"Frederick","discovery_time_utc":"2023-04-14T22:30:00Z","perimeter_time_utc":"2023-04-21T13:40:44Z","perimeter_edit_time_utc":"2023-04-21T13:40:45Z","incident_modified_time_utc":"2023-04-17T19:49:28Z","containment_time_utc":null,"control_time_utc":null,"fire_out_time_utc":"2023-04-15T16:15:00Z","fire_cause":"Human","fire_cause_general":"Equipment and vehicle use","map_method":"Auto-generated","source_dataset":"FFP","unique_fire_identifier":"2023-MDCAP-230015","irwin_id":"{10AE240A-494A-4A23-9ED8-00A1EC908ED7}","global_id":"7ffd8468-9cc8-4561-9b66-06ad83402a1c"}},{"type":"Feature","geometry":{"type":"Polygon","coordinates":[[[-76.83947,39.42638],[-76.83922,39.42617],[-76.83866,39.42602],[-76.83825,39.42532],[-76.83735,39.42526],[-76.83689,39.42501],[-76.83634,39.42428],[-76.83635,39.42401],[-76.83671,39.42373],[-76.83657,39.42338],[-76.83667,39.42284],[-76.837,39.42269],[-76.83691,39.42248],[-76.83714,39.42228],[-76.83706,39.42207],[-76.83778,39.42132],[-76.83805,39.42129],[-76.8388,39.42162],[-76.83912,39.42214],[-76.83979,39.42227],[-76.84012,39.42265],[-76.84033,39.42263],[-76.84059,39.42226],[-76.84098,39.422],[-76.84109,39.42104],[-76.84095,39.42092],[-76.84071,39.42099],[-76.84058,39.42075],[-76.84068,39.42047],[-76.84057,39.41936],[-76.84078,39.41812],[-76.8406,39.41701],[-76.84004,39.41646],[-76.84062,39.415],[-76.84159,39.41425],[-76.84231,39.41396],[-76.84247,39.41354],[-76.84278,39.41322],[-76.84331,39.413],[-76.84374,39.41244],[-76.84428,39.41228],[-76.84506,39.41149],[-76.84572,39.41104],[-76.84802,39.4108],[-76.84975,39.41093],[-76.84975,39.41126],[-76.84918,39.41202],[-76.84911,39.41231],[-76.84913,39.41244],[-76.84947,39.41263],[-76.8495,39.41304],[-76.84974,39.41327],[-76.8498,39.41361],[-76.84964,39.41417],[-76.84985,39.41472],[-76.84947,39.41521],[-76.84954,39.41546],[-76.84926,39.41562],[-76.8495,39.41573],[-76.8497,39.41636],[-76.85058,39.41612],[-76.85074,39.41622],[-76.85097,39.41701],[-76.85085,39.41735],[-76.85052,39.41762],[-76.85055,39.41867],[-76.85086,39.41895],[-76.85114,39.41902],[-76.85118,39.41923],[-76.85096,39.41939],[-76.85044,39.41942],[-76.85028,39.41961],[-76.85027,39.41992],[-76.85048,39.41992],[-76.85034,39.42058],[-76.84999,39.42065],[-76.84989,39.42047],[-76.85,39.4202],[-76.84982,39.41997],[-76.84947,39.42008],[-76.84929,39.42033],[-76.84927,39.42068],[-76.84961,39.42061],[-76.84985,39.42096],[-76.84933,39.42128],[-76.84851,39.42137],[-76.84795,39.42234],[-76.8479,39.42283],[-76.84826,39.42318],[-76.84856,39.42416],[-76.84851,39.42456],[-76.84877,39.42491],[-76.84876,39.42517],[-76.84816,39.42534],[-76.84802,39.42503],[-76.84792,39.42518],[-76.848,39.42532],[-76.84781,39.42551],[-76.8467,39.42615],[-76.84635,39.42614],[-76.84616,39.426],[-76.84619,39.42581],[-76.84651,39.42539],[-76.84685,39.42518],[-76.84681,39.42501],[-76.84635,39.42479],[-76.84622,39.42505],[-76.84574,39.42525],[-76.84567,39.42518],[-76.84592,39.42505],[-76.84553,39.42483],[-76.84528,39.42508],[-76.8448,39.42518],[-76.84456,39.4249],[-76.84419,39.42478],[-76.84366,39.42435],[-76.84404,39.42377],[-76.84428,39.42364],[-76.84428,39.42345],[-76.844,39.42373],[-76.84331,39.42398],[-76.84319,39.42415],[-76.84328,39.42435],[-76.84317,39.42442],[-76.84299,39.42418],[-76.84261,39.42412],[-76.84137,39.42452],[-76.84081,39.42409],[-76.84074,39.42435],[-76.84095,39.42456],[-76.84082,39.42582],[-76.8406,39.426],[-76.84012,39.42596],[-76.83947,39.42638]]]},"properties":{"fire_id":"ufid:2023-MDMDS-000271","source_collection":"history-2023","source_objectid":16316,"incident_name":"Soldiers Delight","mapped_acres":321.4,"mapped_acres_source":"poly_GISAcres","gis_acres":321.4,"auto_acres":305.192345238685,"reported_acres":321.4,"percent_contained":100.0,"state":"MD","state_wfigs":"US-MD","county":"Baltimore","discovery_time_utc":"2023-04-04T18:45:00Z","perimeter_time_utc":"2023-04-04T23:45:00Z","perimeter_edit_time_utc":"2023-04-26T18:28:06Z","incident_modified_time_utc":"2023-05-16T12:49:05Z","containment_time_utc":null,"control_time_utc":null,"fire_out_time_utc":null,"fire_cause":"Undetermined","fire_cause_general":null,"map_method":"Image Interpretation","source_dataset":"2023 NIFS","unique_fire_identifier":"2023-MDMDS-000271","irwin_id":"{7BAA3ABF-11FD-45EA-9A7B-098D6932CFC5}","global_id":"188e7559-022a-4b52-970a-056c529f743d"}},{"type":"Feature","geometry":{"type":"Polygon","coordinates":[[[-76.006,38.41978],[-76.0079,38.41908],[-76.0088,38.41904],[-76.00916,38.41868],[-76.00969,38.41898],[-76.0094,38.41974],[-76.00981,38.41993],[-76.01036,38.41987],[-76.01077,38.42006],[-76.01132,38.42079],[-76.01206,38.42115],[-76.01236,38.4216],[-76.01258,38.42242],[-76.01172,38.423],[-76.00999,38.42259],[-76.00922,38.42273],[-76.00917,38.42305],[-76.00935,38.42435],[-76.01058,38.42564],[-76.01038,38.42654],[-76.01138,38.42767],[-76.01104,38.42785],[-76.01006,38.42683],[-76.00753,38.4222],[-76.006,38.41978]]]},"properties":{"fire_id":"ufid:2023-MDMDS-005696","source_collection":"history-2023","source_objectid":23281,"incident_name":"BESTPITCH","mapped_acres":1.0,"mapped_acres_source":"poly_GISAcres","gis_acres":1.0,"auto_acres":49.6613181543286,"reported_acres":null,"percent_contained":null,"state":"MD","state_wfigs":"US-MD","county":"Dorchester","discovery_time_utc":"2023-07-08T18:45:00Z","perimeter_time_utc":"2023-07-08T23:45:00Z","perimeter_edit_time_utc":"2023-12-15T16:17:13Z","incident_modified_time_utc":"2023-07-10T11:26:27Z","containment_time_utc":null,"control_time_utc":null,"fire_out_time_utc":null,"fire_cause":null,"fire_cause_general":null,"map_method":"Hand Sketch","source_dataset":"2023 NIFS","unique_fire_identifier":"2023-MDMDS-005696","irwin_id":"{2FD72F2C-580B-4FFB-907D-8D1B18BD3128}","global_id":"77e5378f-b18e-4ba3-9c69-29ff2dd84b5a"}},{"type":"Feature","geometry":{"type":"Polygon","coordinates":[[[-76.26284,38.46266],[-76.263,38.46281],[-76.26329,38.46271],[-76.26377,38.46304],[-76.26358,38.46345],[-76.26344,38.46349],[-76.26343,38.46369],[-76.26302,38.4635],[-76.2627,38.4631],[-76.26284,38.46266]]]},"properties":{"fire_id":"ufid:2023-MDMDS-005727","source_collection":"history-2023","source_objectid":34332,"incident_name":"GUN CLUB","mapped_acres":1.0,"mapped_acres_source":"poly_GISAcres","gis_acres":1.0,"auto_acres":1.5880373691314362,"reported_acres":1.6,"percent_contained":null,"state":"MD","state_wfigs":"US-MD","county":"Dorchester","discovery_time_utc":"2023-11-12T08:12:00Z","perimeter_time_utc":"2024-11-07T13:23:47Z","perimeter_edit_time_utc":"2024-11-07T13:23:48Z","incident_modified_time_utc":"2023-11-14T15:05:22Z","containment_time_utc":null,"control_time_utc":null,"fire_out_time_utc":"2023-11-21T17:00:00Z","fire_cause":"Human","fire_cause_general":"Equipment and vehicle use","map_method":"Hand Sketch","source_dataset":"FFP","unique_fire_identifier":"2023-MDMDS-005727","irwin_id":"{EFCF8C16-5E0C-4F4F-B020-450708B94B72}","global_id":"e54df4fc-b923-4a20-ba93-67f6073d2f76"}}]}
