{"type":"FeatureCollection","features":[{"type":"Feature","geometry":{"type":"MultiPolygon","coordinates":[[[[-70.15803,43.86911],[-70.15799,43.86913],[-70.15798,43.86913],[-70.15803,43.86911]]],[[[-70.15806,43.8691],[-70.15804,43.86911],[-70.15803,43.86911],[-70.15806,43.8691]]],[[[-70.1581,43.86861],[-70.15866,43.86905],[-70.15815,43.86976],[-70.15843,43.86983],[-70.15861,43.86974],[-70.15847,43.86989],[-70.15817,43.86986],[-70.15812,43.86966],[-70.15777,43.8698],[-70.15743,43.86964],[-70.15778,43.86925],[-70.15761,43.86903],[-70.15792,43.86917],[-70.15813,43.86907],[-70.15799,43.86901],[-70.1581,43.86861]]]]},"properties":{"fire_id":"ufid:2023-MEMES-23001184","source_collection":"history-2023","source_objectid":16093,"incident_name":"Merrill Fire","mapped_acres":1.5,"mapped_acres_source":"poly_GISAcres","gis_acres":1.5,"auto_acres":1.5050818941917894,"reported_acres":1.5,"percent_contained":null,"state":"ME","state_wfigs":"US-ME","county":"Cumberland","discovery_time_utc":"2023-04-09T16:10:00Z","perimeter_time_utc":"2023-04-16T15:32:52Z","perimeter_edit_time_utc":"2023-04-16T15:32:52Z","incident_modified_time_utc":"2023-04-09T21:04:41Z","containment_time_utc":"2023-04-09T16:45:00Z","control_time_utc":null,"fire_out_time_utc":"2023-04-15T17:05:52Z","fire_cause":"Human","fire_cause_general":"Other causes","map_method":"Hand Sketch","source_dataset":"FFP","unique_fire_identifier":"2023-MEMES-23001184","irwin_id":"{1BFD9036-3A9B-492B-9C11-C06F6F5387F0}","global_id":"33311c5c-2fef-454d-8432-2933c03cd994"}},{"type":"Feature","geometry":{"type":"MultiPolygon","coordinates":[[[[-70.85355,43.70801],[-70.85352,43.70806],[-70.85352,43.70803],[-70.85355,43.70801]]],[[[-70.85287,43.70768],[-70.85373,43.70824],[-70.85373,43.70836],[-70.85361,43.70837],[-70.85372,43.70852],[-70.85348,43.70918],[-70.85262,43.7087],[-70.85246,43.70846],[-70.85254,43.70833],[-70.85215,43.70812],[-70.85239,43.70798],[-70.85222,43.70784],[-70.85258,43.70791],[-70.85287,43.70768]]]]},"properties":{"fire_id":"ufid:2023-MEMES-23001221","source_collection":"history-2023","source_objectid":16401,"incident_name":"Well House Fire","mapped_acres":3.0,"mapped_acres_source":"poly_GISAcres","gis_acres":3.0,"auto_acres":2.9076293450836626,"reported_acres":3.0,"percent_contained":null,"state":"ME","state_wfigs":"US-ME","county":"York","discovery_time_utc":"2023-04-10T19:20:00Z","perimeter_time_utc":"2023-05-01T16:40:25Z","perimeter_edit_time_utc":"2023-05-01T16:40:25Z","incident_modified_time_utc":"2023-05-01T16:17:06Z","containment_time_utc":"2023-04-10T20:14:00Z","control_time_utc":null,"fire_out_time_utc":"2023-04-10T21:00:00Z","fire_cause":"Human","fire_cause_general":"Power generation / transmission / distribution","map_method":"GPS-Walked","source_dataset":"FFP","unique_fire_identifier":"2023-MEMES-23001221","irwin_id":"{45AD6FFE-A8AD-42B8-9CA8-F4F6697821C8}","global_id":"ac26caee-9bf9-40a5-8532-eb3c5baecae9"}},{"type":"Feature","geometry":{"type":"MultiPolygon","coordinates":[[[[-70.31786,44.08501],[-70.31792,44.08501],[-70.3179,44.08502],[-70.31786,44.08501]]],[[[-70.31782,44.08498],[-70.31786,44.08501],[-70.31778,44.085],[-70.31782,44.08498]]],[[[-70.31806,44.08453],[-70.31891,44.08479],[-70.31903,44.08491],[-70.31899,44.08508],[-70.3188,44.08516],[-70.31792,44.08501],[-70.31784,44.08464],[-70.31806,44.08453]]]]},"properties":{"fire_id":"ufid:2023-MEMES-23001150","source_collection":"history-2023","source_objectid":16576,"incident_name":"Saved Church","mapped_acres":1.0,"mapped_acres_source":"poly_GISAcres","gis_acres":1.0,"auto_acres":1.073793780463679,"reported_acres":1.0,"percent_contained":null,"state":"ME","state_wfigs":"US-ME","county":"Androscoggin","discovery_time_utc":"2023-04-07T18:30:00Z","perimeter_time_utc":"2023-05-09T16:55:32Z","perimeter_edit_time_utc":"2023-05-09T16:55:33Z","incident_modified_time_utc":"2023-05-09T14:16:48Z","containment_time_utc":"2023-04-07T19:00:00Z","control_time_utc":"2023-04-07T19:00:00Z","fire_out_time_utc":"2023-04-07T19:30:00Z","fire_cause":"Human","fire_cause_general":"Equipment and vehicle use","map_method":"GPS-Walked","source_dataset":"FFP","unique_fire_identifier":"2023-MEMES-23001150","irwin_id":"{2040520D-09BB-4113-A7A4-CEFF23C74833}","global_id":"8dbeaa10-0722-49da-a42b-8c9d973b706e"}},{"type":"Feature","geometry":{"type":"MultiPolygon","coordinates":[[[[-70.77852,43.14804],[-70.77838,43.14825],[-70.77858,43.14829],[-70.7786,43.14846],[-70.77872,43.14842],[-70.77837,43.14863],[-70.77831,43.14906],[-70.77702,43.1492],[-70.77662,43.14959],[-70.77616,43.14962],[-70.77608,43.14976],[-70.77573,43.14924],[-70.77587,43.14912],[-70.77569,43.14904],[-70.77568,43.14889],[-70.776,43.1487],[-70.77593,43.14863],[-70.77706,43.14837],[-70.77697,43.14821],[-70.77662,43.1482],[-70.77664,43.14806],[-70.77689,43.14791],[-70.77817,43.14785],[-70.77852,43.14804]]],[[[-70.77575,43.14911],[-70.77577,43.14908],[-70.77577,43.14911],[-70.77575,43.14911]]]]},"properties":{"fire_id":"ufid:2023-MEMES-23001410","source_collection":"history-2023","source_objectid":16593,"incident_name":"Arc fire","mapped_acres":5.0,"mapped_acres_source":"poly_GISAcres","gis_acres":5.0,"auto_acres":6.848374750938334,"reported_acres":6.9,"percent_contained":null,"state":"ME","state_wfigs":"US-ME","county":"York","discovery_time_utc":"2023-04-15T18:15:00Z","perimeter_time_utc":"2023-05-10T17:01:30Z","perimeter_edit_time_utc":"2023-05-10T17:01:30Z","incident_modified_time_utc":"2023-04-15T19:29:26Z","containment_time_utc":"2023-04-15T19:25:00Z","control_time_utc":"2023-04-15T19:27:00Z","fire_out_time_utc":"2023-04-15T19:28:57Z","fire_cause":"Human","fire_cause_general":"Firearms and explosives use","map_method":"Auto-generated","source_dataset":"FFP","unique_fire_identifier":"2023-MEMES-23001410","irwin_id":"{E72C2287-1785-4811-ACB5-02178688723F}","global_id":"35a793cf-38e1-49a2-b6d0-e9792457dea7"}},{"type":"Feature","geometry":{"type":"Polygon","coordinates":[[[-70.83488,43.3552],[-70.83493,43.35511],[-70.83508,43.35515],[-70.83488,43.3552]]]},"properties":{"fire_id":"ufid:2023-MEMES-23001970","source_collection":"history-2023","source_objectid":16597,"incident_name":"Fried Tomato Fire","mapped_acres":0.1,"mapped_acres_source":"poly_GISAcres","gis_acres":0.1,"auto_acres":0.03452296207842601,"reported_acres":0.1,"percent_contained":null,"state":"ME","state_wfigs":"US-ME","county":"York","discovery_time_utc":"2023-04-22T07:15:00Z","perimeter_time_utc":"2023-05-10T19:05:41Z","perimeter_edit_time_utc":"2023-05-10T19:05:41Z","incident_modified_time_utc":"2023-05-09T14:22:43Z","containment_time_utc":"2023-04-22T07:45:00Z","control_time_utc":null,"fire_out_time_utc":"2023-04-22T08:00:00Z","fire_cause":"Human","fire_cause_general":"Equipment and vehicle use","map_method":"Hand Sketch","source_dataset":"FFP","unique_fire_identifier":"2023-MEMES-23001970","irwin_id":"{71B47D50-888B-46D0-9B3A-09979AE0E6EE}","global_id":"347191d5-a5dd-4a4f-b068-9ec2b603cbb1"}},{"type":"Feature","geometry":{"type":"Polygon","coordinates":[[[-70.15244,44.17274],[-70.1528,44.17267],[-70.15191,44.17473],[-70.15172,44.17447],[-70.15179,44.17438],[-70.15152,44.17428],[-70.15153,44.17416],[-70.15175,44.17408],[-70.15153,44.17399],[-70.15151,44.17365],[-70.15187,44.1731],[-70.15209,44.17304],[-70.15214,44.17284],[-70.15253,44.17281],[-70.15244,44.17274]]]},"properties":{"fire_id":"ufid:2023-MEMES-23001068","source_collection":"history-2023","source_objectid":16609,"incident_name":"Sullivan Crossing Fire","mapped_acres":3.0,"mapped_acres_source":"poly_GISAcres","gis_acres":3.0,"auto_acres":2.6052182534413006,"reported_acres":3.0,"percent_contained":null,"state":"ME","state_wfigs":"US-ME","county":"Androscoggin","discovery_time_utc":"2023-04-03T19:00:00Z","perimeter_time_utc":"2023-05-10T18:05:20Z","perimeter_edit_time_utc":"2023-05-10T18:05:21Z","incident_modified_time_utc":"2023-04-04T17:43:41Z","containment_time_utc":"2023-04-03T19:56:00Z","control_time_utc":"2023-04-03T19:56:00Z","fire_out_time_utc":"2023-04-04T17:41:00Z","fire_cause":"Human","fire_cause_general":"Railroad operations and maintenance","map_method":"Hand Sketch","source_dataset":"FFP","unique_fire_identifier":"2023-MEMES-23001068","irwin_id":"{4E0CEEC4-7B1F-43A8-88C3-581112DF96E1}","global_id":"4d27aaef-4e0b-4ee5-822d-3f2a747e74fb"}},{"type":"Feature","geometry":{"type":"MultiPolygon","coordinates":[[[[-70.61549,43.92823],[-70.61542,43.92858],[-70.615397,43.928563],[-70.61499,43.92871],[-70.61463,43.92862],[-70.61453,43.92828],[-70.61508,43.92814],[-70.61549,43.92823]]],[[[-70.61544,43.9286],[-70.61542,43.92858],[-70.61548,43.92859],[-70.61544,43.9286]]]]},"properties":{"fire_id":"ufid:2023-MEMES-23001539","source_collection":"history-2023","source_objectid":16610,"incident_name":"Sebago Cove Fire","mapped_acres":0.4,"mapped_acres_source":"poly_GISAcres","gis_acres":0.4,"auto_acres":0.8773957481950486,"reported_acres":0.9,"percent_contained":null,"state":"ME","state_wfigs":"US-ME","county":"Cumberland","discovery_time_utc":"2023-04-20T23:00:00Z","perimeter_time_utc":"2023-05-10T18:27:26Z","perimeter_edit_time_utc":"2023-05-10T18:27:26Z","incident_modified_time_utc":"2023-04-21T01:01:58Z","containment_time_utc":"2023-04-20T23:40:00Z","control_time_utc":"2023-04-20T23:40:00Z","fire_out_time_utc":"2023-04-21T20:00:00Z","fire_cause":"Human","fire_cause_general":"Debris and open burning","map_method":"Hand Sketch","source_dataset":"FFP","unique_fire_identifier":"2023-MEMES-23001539","irwin_id":"{62F8BFAE-2A87-4A42-8C60-01C7A61FB162}","global_id":"4e34c44d-9f56-44ba-a279-dec0a91e3493"}},{"type":"Feature","geometry":{"type":"MultiPolygon","coordinates":[[[[-70.77556,43.69648],[-70.77541,43.69649],[-70.77538,43.69637],[-70.77558,43.69628],[-70.77567,43.69636],[-70.77556,43.69648]]],[[[-70.77551,43.69654],[-70.77556,43.69648],[-70.77557,43.69648],[-70.77551,43.69654]]]]},"properties":{"fire_id":"ufid:2023-MEMES-23001234","source_collection":"history-2023","source_objectid":16611,"incident_name":"Storage Unit Fire","mapped_acres":0.1,"mapped_acres_source":"poly_GISAcres","gis_acres":0.1,"auto_acres":0.08612681024115235,"reported_acres":0.1,"percent_contained":null,"state":"ME","state_wfigs":"US-ME","county":"York","discovery_time_utc":"2023-04-10T20:50:00Z","perimeter_time_utc":"2023-05-11T15:12:54Z","perimeter_edit_time_utc":"2023-05-11T15:12:55Z","incident_modified_time_utc":"2023-04-11T12:14:47Z","containment_time_utc":"2023-05-10T21:15:00Z","control_time_utc":null,"fire_out_time_utc":"2023-05-10T21:30:00Z","fire_cause":"Human","fire_cause_general":"Misuse of fire by a minor","map_method":"GPS-Walked","source_dataset":"FFP","unique_fire_identifier":"2023-MEMES-23001234","irwin_id":"{AC5FC677-6150-43CF-886C-496923010BEA}","global_id":"08919d1e-e30d-4231-83a2-d6d35983f5d7"}},{"type":"Feature","geometry":{"type":"Polygon","coordinates":[[[-70.09447,44.24265],[-70.09412,44.24275],[-70.09367,44.24231],[-70.09384,44.24222],[-70.09417,44.2423],[-70.09447,44.24265]]]},"properties":{"fire_id":"ufid:2023-MEMES-23001313","source_collection":"history-2023","source_objectid":16614,"incident_name":"Pallet Start Fire","mapped_acres":2.0,"mapped_acres_source":"poly_GISAcres","gis_acres":2.0,"auto_acres":0.5057558775525309,"reported_acres":0.5,"percent_contained":null,"state":"ME","state_wfigs":"US-ME","county":"Androscoggin","discovery_time_utc":"2023-04-12T18:10:00Z","perimeter_time_utc":"2023-05-11T16:05:55Z","perimeter_edit_time_utc":"2023-05-11T16:05:55Z","incident_modified_time_utc":"2023-04-13T15:13:59Z","containment_time_utc":"2023-04-12T19:10:00Z","control_time_utc":"2023-04-12T20:08:00Z","fire_out_time_utc":"2023-04-13T15:10:00Z","fire_cause":"Human","fire_cause_general":"Debris and open burning","map_method":"Auto-generated","source_dataset":"FFP","unique_fire_identifier":"2023-MEMES-23001313","irwin_id":"{157BD490-840F-4036-9CB4-85A25E66409D}","global_id":"e00c4b4a-c79c-4be3-bc18-e2e638d07952"}},{"type":"Feature","geometry":{"type":"Polygon","coordinates":[[[-70.83497,43.35546],[-70.83524,43.35554],[-70.835,43.35575],[-70.83505,43.35589],[-70.83436,43.35607],[-70.83404,43.35593],[-70.83405,43.35566],[-70.83419,43.35556],[-70.8345,43.35557],[-70.83472,43.35574],[-70.83497,43.35546]]]},"properties":{"fire_id":"ufid:2023-MEMES-23001940","source_collection":"history-2023","source_objectid":16626,"incident_name":"Fried Chicken Fire","mapped_acres":0.9,"mapped_acres_source":"poly_GISAcres","gis_acres":0.9,"auto_acres":0.8820518207811768,"reported_acres":0.9,"percent_contained":null,"state":"ME","state_wfigs":"US-ME","county":"York","discovery_time_utc":"2023-05-06T22:02:00Z","perimeter_time_utc":"2023-05-10T18:50:12Z","perimeter_edit_time_utc":"2023-05-10T18:50:12Z","incident_modified_time_utc":"2023-05-09T14:20:56Z","containment_time_utc":"2023-05-06T23:00:00Z","control_time_utc":null,"fire_out_time_utc":"2023-05-07T15:54:00Z","fire_cause":"Human","fire_cause_general":"Debris and open burning","map_method":"GPS-Walked","source_dataset":"FFP","unique_fire_identifier":"2023-MEMES-23001940","irwin_id":"{87CFB032-7AD7-4858-904A-19A4AD55A616}","global_id":"0252c141-2f36-4b1c-b682-7c21c4a9f25e"}},{"type":"Feature","geometry":{"type":"Polygon","coordinates":[[[-70.42498,43.98286],[-70.42567,43.98303],[-70.42585,43.98316],[-70.42576,43.98341],[-70.42607,43.9835],[-70.42622,43.98396],[-70.42578,43.98425],[-70.42597,43.98434],[-70.42581,43.98446],[-70.42585,43.98459],[-70.42551,43.98447],[-70.42523,43.98469],[-70.42508,43.98447],[-70.42528,43.98434],[-70.42493,43.98426],[-70.4249,43.98437],[-70.42469,43.98437],[-70.42466,43.98413],[-70.42451,43.98406],[-70.42459,43.98387],[-70.42436,43.98368],[-70.42473,43.98344],[-70.42446,43.98315],[-70.42498,43.98286]]]},"properties":{"fire_id":"ufid:2023-MEMES-23001390","source_collection":"history-2023","source_objectid":16631,"incident_name":"Gay Brook Fire","mapped_acres":5.0,"mapped_acres_source":"poly_GISAcres","gis_acres":5.0,"auto_acres":4.567606199067159,"reported_acres":4.6,"percent_contained":null,"state":"ME","state_wfigs":"US-ME","county":"Cumberland","discovery_time_utc":"2023-04-14T21:08:00Z","perimeter_time_utc":"2023-05-10T18:31:35Z","perimeter_edit_time_utc":"2023-05-10T18:31:35Z","incident_modified_time_utc":"2023-04-15T00:12:50Z","containment_time_utc":"2023-04-14T23:20:00Z","control_time_utc":null,"fire_out_time_utc":"2023-04-15T12:30:00Z","fire_cause":"Human","fire_cause_general":"Equipment and vehicle use","map_method":"Hand Sketch","source_dataset":"FFP","unique_fire_identifier":"2023-MEMES-23001390","irwin_id":"{8DBAB316-4F26-4A14-A6D9-3A5BC5AD5504}","global_id":"8e342dcf-d27d-454a-87d3-d3869395b50b"}},{"type":"Feature","geometry":{"type":"MultiPolygon","coordinates":[[[[-70.7088,43.39087],[-70.70888,43.39132],[-70.7075,43.39203],[-70.70762,43.39181],[-70.70672,43.39197],[-70.70755,43.39142],[-70.7088,43.39087]]],[[[-70.7075,43.39203],[-70.7074,43.3922],[-70.70733,43.39212],[-70.7075,43.39203]]]]},"properties":{"fire_id":"ufid:2023-MEMES-23001217","source_collection":"history-2023","source_objectid":16740,"incident_name":"Runway Fire","mapped_acres":2.2,"mapped_acres_source":"poly_GISAcres","gis_acres":2.2,"auto_acres":1.99429879196959,"reported_acres":2.2,"percent_contained":null,"state":"ME","state_wfigs":"US-ME","county":"York","discovery_time_utc":"2023-04-10T17:48:00Z","perimeter_time_utc":"2023-04-10T22:48:00Z","perimeter_edit_time_utc":"2023-05-17T15:05:49Z","incident_modified_time_utc":"2023-05-08T18:23:22Z","containment_time_utc":"2023-04-10T18:19:00Z","control_time_utc":"2023-04-10T18:19:00Z","fire_out_time_utc":"2023-04-10T18:42:00Z","fire_cause":"Human","fire_cause_general":"Equipment and vehicle use","map_method":"Hand Sketch","source_dataset":"2023 NIFS","unique_fire_identifier":"2023-MEMES-23001217","irwin_id":"{D62525FA-AE2A-44DF-950D-A05F9F0C831F}","global_id":"a73336c3-8e60-4d80-b931-21ac57d0834d"}},{"type":"Feature","geometry":{"type":"Polygon","coordinates":[[[-70.46322,43.92404],[-70.46278,43.92417],[-70.46239,43.92404],[-70.46244,43.92363],[-70.46271,43.92355],[-70.46301,43.92365],[-70.46325,43.9239],[-70.46322,43.92404]]]},"properties":{"fire_id":"ufid:2023-MEMES-23002099","source_collection":"history-2023","source_objectid":17214,"incident_name":"Spyglass Hill Fire","mapped_acres":1.0,"mapped_acres_source":"poly_GISAcres","gis_acres":1.0,"auto_acres":0.8095200344095337,"reported_acres":1.0,"percent_contained":null,"state":"ME","state_wfigs":"US-ME","county":"Cumberland","discovery_time_utc":"2023-05-13T14:57:00Z","perimeter_time_utc":"2023-06-04T19:33:49Z","perimeter_edit_time_utc":"2023-06-04T19:33:49Z","incident_modified_time_utc":"2023-05-13T18:28:39Z","containment_time_utc":"2023-05-13T17:00:00Z","control_time_utc":"2023-05-13T17:30:00Z","fire_out_time_utc":"2023-05-13T19:00:00Z","fire_cause":"Human","fire_cause_general":"Recreation and ceremony","map_method":"Auto-generated","source_dataset":"FFP","unique_fire_identifier":"2023-MEMES-23002099","irwin_id":"{6AB8E3D4-9BED-4EDE-9333-C1C01B1CFC88}","global_id":"c67d3c8a-364c-4353-b276-04a72a3dd3e7"}},{"type":"Feature","geometry":{"type":"MultiPolygon","coordinates":[[[[-70.83651,43.81502],[-70.83644,43.81503],[-70.83643,43.81496],[-70.83651,43.81502]]],[[[-70.83695,43.81494],[-70.83665,43.81517],[-70.83645,43.81515],[-70.83662,43.815],[-70.83636,43.81492],[-70.83637,43.81471],[-70.83695,43.81494]]]]},"properties":{"fire_id":"ufid:2023-MEMES-23002194","source_collection":"history-2023","source_objectid":17258,"incident_name":"Sandy Stump Fire","mapped_acres":0.3,"mapped_acres_source":"poly_GISAcres","gis_acres":0.3,"auto_acres":0.3104755373959983,"reported_acres":0.3,"percent_contained":null,"state":"ME","state_wfigs":"US-ME","county":"Oxford","discovery_time_utc":"2023-05-17T05:40:00Z","perimeter_time_utc":"2023-12-30T20:50:52Z","perimeter_edit_time_utc":"2023-12-30T20:50:52Z","incident_modified_time_utc":"2023-05-17T14:30:37Z","containment_time_utc":"2023-05-17T09:30:00Z","control_time_utc":"2023-05-17T09:45:00Z","fire_out_time_utc":"2023-05-17T14:00:00Z","fire_cause":"Human","fire_cause_general":"Equipment and vehicle use","map_method":"Hand Sketch","source_dataset":"FFP","unique_fire_identifier":"2023-MEMES-23002194","irwin_id":"{A4E346ED-E06C-4C03-BFBC-8CCF161BB160}","global_id":"2af8a686-267d-443a-8433-375ef816ad51"}},{"type":"Feature","geometry":{"type":"Polygon","coordinates":[[[-70.40674,44.19907],[-70.40672,44.19939],[-70.40637,44.19952],[-70.40616,44.19935],[-70.40623,44.19918],[-70.40658,44.19899],[-70.40674,44.19907]]]},"properties":{"fire_id":"ufid:2023-MEMES-23002184","source_collection":"history-2023","source_objectid":17259,"incident_name":"Academy Fire","mapped_acres":0.5,"mapped_acres_source":"poly_GISAcres","gis_acres":0.5,"auto_acres":0.45368877780107403,"reported_acres":0.5,"percent_contained":null,"state":"ME","state_wfigs":"US-ME","county":"Oxford","discovery_time_utc":"2023-05-16T17:20:00Z","perimeter_time_utc":"2023-06-06T20:57:59Z","perimeter_edit_time_utc":"2023-06-06T20:57:59Z","incident_modified_time_utc":"2023-05-16T20:53:37Z","containment_time_utc":"2023-05-16T17:50:00Z","control_time_utc":null,"fire_out_time_utc":"2023-05-17T20:57:00Z","fire_cause":"Human","fire_cause_general":"Arson","map_method":"GPS-Walked","source_dataset":"FFP","unique_fire_identifier":"2023-MEMES-23002184","irwin_id":"{38A1E41F-C8F9-4EBA-A6E2-DCAB2DDC5E1B}","global_id":"0f371d15-96f6-4143-99b0-f043440b9e52"}},{"type":"Feature","geometry":{"type":"Polygon","coordinates":[[[-70.94579,43.69046],[-70.9456,43.69083],[-70.94558,43.69092],[-70.94575,43.6909],[-70.94566,43.69103],[-70.94524,43.69111],[-70.94496,43.69097],[-70.94474,43.69109],[-70.94462,43.69087],[-70.94436,43.6908],[-70.94448,43.69063],[-70.94418,43.69051],[-70.94394,43.69023],[-70.94448,43.69017],[-70.94462,43.69022],[-70.94457,43.69033],[-70.9448,43.69038],[-70.94567,43.69007],[-70.94579,43.69046]]]},"properties":{"fire_id":"ufid:2023-MEMES-23002563","source_collection":"history-2023","source_objectid":17260,"incident_name":"Wiggan Mountain Fire","mapped_acres":5.0,"mapped_acres_source":"poly_GISAcres","gis_acres":5.0,"auto_acres":2.458916908747344,"reported_acres":2.5,"percent_contained":null,"state":"ME","state_wfigs":"US-ME","county":"York","discovery_time_utc":"2023-06-02T01:36:00Z","perimeter_time_utc":"2023-12-31T19:21:34Z","perimeter_edit_time_utc":"2023-12-31T19:21:34Z","incident_modified_time_utc":"2023-06-02T16:05:53Z","containment_time_utc":"2023-06-02T11:32:00Z","control_time_utc":"2023-06-02T11:32:00Z","fire_out_time_utc":"2023-06-06T21:03:19Z","fire_cause":"Natural","fire_cause_general":"Natural","map_method":"Auto-generated","source_dataset":"FFP","unique_fire_identifier":"2023-MEMES-23002563","irwin_id":"{11903EA4-AB22-4316-96C8-DB7C17825060}","global_id":"ebba6068-f256-43a5-9121-c1765cdf8df4"}},{"type":"Feature","geometry":{"type":"Polygon","coordinates":[[[-70.42668,44.10626],[-70.42693,44.10649],[-70.42656,44.10643],[-70.42668,44.10626]]]},"properties":{"fire_id":"ufid:2023-MEMES-23002209","source_collection":"history-2023","source_objectid":17271,"incident_name":"Breezy Bugs Fire","mapped_acres":0.1,"mapped_acres_source":"poly_GISAcres","gis_acres":0.1,"auto_acres":0.07562066527814063,"reported_acres":0.1,"percent_contained":null,"state":"ME","state_wfigs":"US-ME","county":"Androscoggin","discovery_time_utc":"2023-05-17T16:35:00Z","perimeter_time_utc":"2023-06-07T16:04:29Z","perimeter_edit_time_utc":"2023-06-07T16:04:30Z","incident_modified_time_utc":"2023-05-17T17:44:42Z","containment_time_utc":"2023-05-17T16:50:00Z","control_time_utc":"2023-05-17T17:15:00Z","fire_out_time_utc":"2023-05-17T17:40:00Z","fire_cause":"Human","fire_cause_general":"Debris and open burning","map_method":"Hand Sketch","source_dataset":"FFP","unique_fire_identifier":"2023-MEMES-23002209","irwin_id":"{7CD476B6-98C5-4FB4-8E9D-821615A0DB00}","global_id":"1bb7aff0-ac6c-4a22-9b6b-8e46d287a56b"}},{"type":"Feature","geometry":{"type":"MultiPolygon","coordinates":[[[[-70.70472,44.3896],[-70.70474,44.38963],[-70.70471,44.38961],[-70.70472,44.3896]]],[[[-70.70463,44.38947],[-70.70473,44.3896],[-70.70454,44.38958],[-70.70463,44.38947]]]]},"properties":{"fire_id":"ufid:2023-MEMES-23002450","source_collection":"history-2023","source_objectid":17275,"incident_name":"UFO Fire","mapped_acres":0.1,"mapped_acres_source":"poly_GISAcres","gis_acres":0.1,"auto_acres":0.04074471147548929,"reported_acres":0.1,"percent_contained":null,"state":"ME","state_wfigs":"US-ME","county":"Oxford","discovery_time_utc":"2023-05-27T21:50:00Z","perimeter_time_utc":"2023-06-07T16:54:26Z","perimeter_edit_time_utc":"2023-06-07T16:54:26Z","incident_modified_time_utc":"2023-05-28T17:03:09Z","containment_time_utc":"2023-05-27T22:10:00Z","control_time_utc":null,"fire_out_time_utc":"2023-05-27T22:30:00Z","fire_cause":"Human","fire_cause_general":"Recreation and ceremony","map_method":"GPS-Walked","source_dataset":"Decertified","unique_fire_identifier":"2023-MEMES-23002450","irwin_id":"{DE6CDA77-6D06-40DF-9E64-326BC53B3E7F}","global_id":"6ed2aa53-23d2-49be-bfa4-6e25ddb05c7d"}},{"type":"Feature","geometry":{"type":"Polygon","coordinates":[[[-70.09751,44.20388],[-70.09763,44.20409],[-70.09735,44.20408],[-70.09737,44.20392],[-70.09751,44.20388]]]},"properties":{"fire_id":"ufid:2023-MEMES-23002428","source_collection":"history-2023","source_objectid":17276,"incident_name":"Oscar The Grouch Fire","mapped_acres":0.1,"mapped_acres_source":"poly_GISAcres","gis_acres":0.1,"auto_acres":0.10117272612328199,"reported_acres":0.1,"percent_contained":null,"state":"ME","state_wfigs":"US-ME","county":"Androscoggin","discovery_time_utc":"2023-05-28T16:30:00Z","perimeter_time_utc":"2023-06-07T16:45:58Z","perimeter_edit_time_utc":"2023-06-07T16:45:58Z","incident_modified_time_utc":"2023-05-28T17:09:26Z","containment_time_utc":"2023-05-28T16:55:00Z","control_time_utc":"2023-05-28T17:00:00Z","fire_out_time_utc":"2023-05-28T17:30:00Z","fire_cause":"Human","fire_cause_general":"Debris and open burning","map_method":"GPS-Walked","source_dataset":"FFP","unique_fire_identifier":"2023-MEMES-23002428","irwin_id":"{B7BC9244-44F6-46C8-9E6D-7BE5F734DEE7}","global_id":"dfdf549d-095d-4695-853f-38e3a40872a7"}},{"type":"Feature","geometry":{"type":"Polygon","coordinates":[[[-70.46731,44.12445],[-70.46699,44.12462],[-70.46684,44.12449],[-70.46721,44.12435],[-70.46731,44.12445]]]},"properties":{"fire_id":"ufid:2023-MEMES-23002558","source_collection":"history-2023","source_objectid":17278,"incident_name":"Dragon Fire","mapped_acres":0.1,"mapped_acres_source":"poly_GISAcres","gis_acres":0.1,"auto_acres":0.1813465214416663,"reported_acres":0.2,"percent_contained":null,"state":"ME","state_wfigs":"US-ME","county":"Oxford","discovery_time_utc":"2023-06-01T21:05:00Z","perimeter_time_utc":"2023-06-07T17:09:33Z","perimeter_edit_time_utc":"2023-06-07T17:09:33Z","incident_modified_time_utc":"2023-06-02T19:11:48Z","containment_time_utc":"2023-06-01T21:45:00Z","control_time_utc":null,"fire_out_time_utc":"2023-06-01T22:30:00Z","fire_cause":"Natural","fire_cause_general":"Natural","map_method":"Hand Sketch","source_dataset":"FFP","unique_fire_identifier":"2023-MEMES-23002558","irwin_id":"{E4FA9FEB-5A0F-4CE5-947B-2E9BA4FD9A0D}","global_id":"b2bae23f-555e-43b8-a5b5-2bdb64960243"}},{"type":"Feature","geometry":{"type":"Polygon","coordinates":[[[-70.20252,44.58393],[-70.2025,44.58431],[-70.20232,44.58447],[-70.20205,44.58437],[-70.20214,44.58434],[-70.20202,44.58418],[-70.2023,44.58422],[-70.20252,44.58393]]]},"properties":{"fire_id":"ufid:2023-MEMES-1684519594","source_collection":"history-2023","source_objectid":17994,"incident_name":"1684519594","mapped_acres":0.25,"mapped_acres_source":"poly_GISAcres","gis_acres":0.25,"auto_acres":0.25104032443506913,"reported_acres":0.3,"percent_contained":null,"state":"ME","state_wfigs":"US-ME","county":"Franklin","discovery_time_utc":"2023-05-18T16:35:00Z","perimeter_time_utc":"2023-07-09T18:42:12Z","perimeter_edit_time_utc":"2023-07-09T18:42:12Z","incident_modified_time_utc":"2023-05-18T18:19:40Z","containment_time_utc":"2023-05-18T17:15:00Z","control_time_utc":null,"fire_out_time_utc":"2023-05-18T17:30:00Z","fire_cause":"Human","fire_cause_general":"Debris and open burning","map_method":"Hand Sketch","source_dataset":"FFP","unique_fire_identifier":"2023-MEMES-1684519594","irwin_id":"{0195E4C9-740B-43B4-B4BF-BC6177B5AE30}","global_id":"aa7601ae-842d-4426-ab5f-2c2c96113807"}},{"type":"Feature","geometry":{"type":"Polygon","coordinates":[[[-70.19846,44.0685],[-70.19814,44.06861],[-70.19817,44.06837],[-70.19788,44.0681],[-70.19822,44.0682],[-70.19846,44.0685]],[[-70.19828,44.0684],[-70.19829,44.06842],[-70.1983,44.06841],[-70.19828,44.0684]]]},"properties":{"fire_id":"ufid:2023-MEMES-23002199","source_collection":"history-2023","source_objectid":20607,"incident_name":"PD Pit Fire","mapped_acres":1.0,"mapped_acres_source":"poly_GISAcres","gis_acres":1.0,"auto_acres":0.2407156499409791,"reported_acres":0.3,"percent_contained":null,"state":"ME","state_wfigs":"US-ME","county":"Androscoggin","discovery_time_utc":"2023-05-17T09:58:00Z","perimeter_time_utc":"2023-09-01T17:42:18Z","perimeter_edit_time_utc":"2023-09-01T17:42:18Z","incident_modified_time_utc":"2023-06-26T14:15:13Z","containment_time_utc":"2023-05-17T11:00:00Z","control_time_utc":null,"fire_out_time_utc":"2023-05-17T15:10:00Z","fire_cause":"Human","fire_cause_general":"Debris and open burning","map_method":"Auto-generated","source_dataset":"FFP","unique_fire_identifier":"2023-MEMES-23002199","irwin_id":"{E4CCFA8E-5452-4DE6-B5A1-8BBFCC742542}","global_id":"a76e6727-8c80-43f1-bdf6-361eee025cd5"}},{"type":"Feature","geometry":{"type":"MultiPolygon","coordinates":[[[[-70.38821,44.42864],[-70.38821,44.42859],[-70.38823,44.42861],[-70.38821,44.42864]]],[[[-70.38848,44.42917],[-70.3885,44.42919],[-70.38847,44.42918],[-70.38848,44.42917]]],[[[-70.38796,44.42823],[-70.38793,44.42843],[-70.38815,44.42851],[-70.38815,44.42875],[-70.38834,44.42882],[-70.38848,44.42911],[-70.3881,44.42961],[-70.38852,44.4301],[-70.38825,44.43053],[-70.38829,44.43073],[-70.38808,44.43093],[-70.38772,44.43094],[-70.38762,44.43109],[-70.38723,44.43101],[-70.38645,44.43038],[-70.38585,44.43037],[-70.3854,44.42993],[-70.38519,44.42943],[-70.38548,44.42909],[-70.38517,44.42863],[-70.38524,44.42833],[-70.38568,44.42783],[-70.38616,44.42804],[-70.38679,44.42778],[-70.38708,44.42787],[-70.38717,44.42768],[-70.38775,44.42782],[-70.38796,44.42823]]],[[[-70.38545,44.43],[-70.38547,44.43003],[-70.38543,44.43002],[-70.38545,44.43]]],[[[-70.38835,44.43041],[-70.38836,44.43042],[-70.38835,44.43042],[-70.38835,44.43041]]]]},"properties":{"fire_id":"ufid:2023-MEMES-23005173","source_collection":"history-2023","source_objectid":22899,"incident_name":"The Saddleback Fire","mapped_acres":18.9,"mapped_acres_source":"poly_GISAcres","gis_acres":18.9,"auto_acres":17.50064015515805,"reported_acres":18.9,"percent_contained":null,"state":"ME","state_wfigs":"US-ME","county":"Oxford","discovery_time_utc":"2023-11-20T18:42:00Z","perimeter_time_utc":"2023-11-24T15:57:17Z","perimeter_edit_time_utc":"2023-11-24T15:57:17Z","incident_modified_time_utc":"2023-11-24T15:39:44Z","containment_time_utc":"2023-11-20T21:17:00Z","control_time_utc":"2023-11-20T21:17:00Z","fire_out_time_utc":"2023-11-21T18:30:00Z","fire_cause":"Human","fire_cause_general":"Debris and open burning","map_method":"Hand Sketch","source_dataset":"FFP","unique_fire_identifier":"2023-MEMES-23005173","irwin_id":"{68F9D99B-6419-4EE0-8115-E4D22E93802F}","global_id":"2ea8f6a2-d8cc-4903-b48a-3ac79b41b23f"}}]}
