{"type":"FeatureCollection","features":[{"type":"Feature","geometry":{"type":"Polygon","coordinates":[[[-68.40209,45.18147],[-68.40197,45.18157],[-68.4016,45.1814],[-68.40197,45.18115],[-68.40209,45.18147]]]},"properties":{"fire_id":"ufid:2023-MEMES-23002020","source_collection":"history-2023","source_objectid":16583,"incident_name":"Twin Mills Fire","mapped_acres":0.3,"mapped_acres_source":"poly_GISAcres","gis_acres":0.3,"auto_acres":0.2988384095820318,"reported_acres":0.3,"percent_contained":null,"state":"ME","state_wfigs":"US-ME","county":"Penobscot","discovery_time_utc":"2023-05-09T17:20:00Z","perimeter_time_utc":"2023-05-10T11:20:12Z","perimeter_edit_time_utc":"2023-05-10T11:20:12Z","incident_modified_time_utc":"2023-05-09T21:09:15Z","containment_time_utc":"2023-05-09T21:07:20Z","control_time_utc":null,"fire_out_time_utc":"2023-05-09T22:27:43Z","fire_cause":"Human","fire_cause_general":"Power generation / transmission / distribution","map_method":"GPS-Walked","source_dataset":"FFP","unique_fire_identifier":"2023-MEMES-23002020","irwin_id":"{404BB92F-503D-47DF-A9BF-B8BA362D6BAB}","global_id":"521a86f6-e842-4ba6-b617-c9f3f330b20b"}},{"type":"Feature","geometry":{"type":"Polygon","coordinates":[[[-67.99741,46.04742],[-67.99913,46.04752],[-67.9989,46.04836],[-67.99756,46.04839],[-67.997,46.04796],[-67.99701,46.04751],[-67.99741,46.04742]]]},"properties":{"fire_id":"ufid:2023-MEMES-23001768","source_collection":"history-2023","source_objectid":16870,"incident_name":"Red Deer Fire","mapped_acres":1.3,"mapped_acres_source":"poly_GISAcres","gis_acres":1.3,"auto_acres":3.886779257575881,"reported_acres":3.9,"percent_contained":null,"state":"ME","state_wfigs":"US-ME","county":"Aroostook","discovery_time_utc":"2023-04-29T14:10:00Z","perimeter_time_utc":"2023-05-22T17:17:41Z","perimeter_edit_time_utc":"2023-05-22T17:17:42Z","incident_modified_time_utc":"2023-04-29T18:13:26Z","containment_time_utc":"2023-04-29T14:50:00Z","control_time_utc":"2023-04-29T15:00:00Z","fire_out_time_utc":null,"fire_cause":"Human","fire_cause_general":"Debris and open burning","map_method":"Hand Sketch","source_dataset":"FFP","unique_fire_identifier":"2023-MEMES-23001768","irwin_id":"{56053110-6E9B-4019-B349-F9AF46360E60}","global_id":"618ffef2-0b78-4a63-bfbb-87f2b99769c1"}},{"type":"Feature","geometry":{"type":"Polygon","coordinates":[[[-68.37742,45.85447],[-68.37771,45.85468],[-68.37748,45.85467],[-68.37708,45.85501],[-68.37692,45.85499],[-68.37699,45.85488],[-68.37681,45.85472],[-68.37698,45.85444],[-68.37757,45.85408],[-68.37785,45.85416],[-68.37742,45.85447]]]},"properties":{"fire_id":"ufid:2023-MEMES-23001965","source_collection":"history-2023","source_objectid":16884,"incident_name":"Transfer Station Fire","mapped_acres":2.0,"mapped_acres_source":"poly_GISAcres","gis_acres":2.0,"auto_acres":0.8937248221741495,"reported_acres":0.9,"percent_contained":null,"state":"ME","state_wfigs":"US-ME","county":"Aroostook","discovery_time_utc":"2023-05-07T21:46:00Z","perimeter_time_utc":"2023-05-24T16:53:33Z","perimeter_edit_time_utc":"2023-05-24T16:53:33Z","incident_modified_time_utc":"2023-05-24T16:47:56Z","containment_time_utc":"2023-05-07T22:45:00Z","control_time_utc":null,"fire_out_time_utc":"2023-05-07T23:30:00Z","fire_cause":"Human","fire_cause_general":"Debris and open burning","map_method":"Auto-generated","source_dataset":"FFP","unique_fire_identifier":"2023-MEMES-23001965","irwin_id":"{8DA0BC3C-9A30-4B95-871B-6B9FE3FF3598}","global_id":"c440577f-e098-416b-bde1-86a032603491"}},{"type":"Feature","geometry":{"type":"Polygon","coordinates":[[[-67.81846,46.67433],[-67.81869,46.67433],[-67.81868,46.67468],[-67.81852,46.67466],[-67.81846,46.67433]]]},"properties":{"fire_id":"ufid:2023-MEMES-230002166","source_collection":"history-2023","source_objectid":17079,"incident_name":"Miller 3 Fire","mapped_acres":0.2,"mapped_acres_source":"poly_GISAcres","gis_acres":0.2,"auto_acres":0.16722184951121705,"reported_acres":0.2,"percent_contained":null,"state":"ME","state_wfigs":"US-ME","county":"Aroostook","discovery_time_utc":"2023-05-15T21:12:00Z","perimeter_time_utc":"2023-12-27T19:37:23Z","perimeter_edit_time_utc":"2023-12-27T19:37:23Z","incident_modified_time_utc":"2023-05-15T22:51:46Z","containment_time_utc":"2023-05-15T21:17:00Z","control_time_utc":"2023-05-15T21:22:00Z","fire_out_time_utc":"2023-05-15T21:33:00Z","fire_cause":"Human","fire_cause_general":"Debris and open burning","map_method":"Hand Sketch","source_dataset":"FFP","unique_fire_identifier":"2023-MEMES-230002166","irwin_id":"{7B55B04C-FC6E-469C-9130-3E2B096E8D04}","global_id":"a50f0b4e-1375-4862-9e8f-1f564807c7ad"}},{"type":"Feature","geometry":{"type":"Polygon","coordinates":[[[-69.95839,45.15752],[-69.9587,45.15712],[-69.96089,45.15774],[-69.96087,45.15813],[-69.96054,45.15815],[-69.95987,45.15857],[-69.95991,45.15881],[-69.95961,45.15906],[-69.95971,45.15932],[-69.95958,45.1596],[-69.95962,45.15984],[-69.9593,45.16008],[-69.95914,45.15999],[-69.9591,45.15971],[-69.95894,45.15973],[-69.95889,45.1596],[-69.95862,45.15954],[-69.95812,45.15973],[-69.95801,45.15963],[-69.95835,45.15947],[-69.9577,45.15945],[-69.957,45.15906],[-69.95708,45.15843],[-69.95742,45.15808],[-69.95794,45.15785],[-69.95791,45.15769],[-69.95808,45.15751],[-69.95839,45.15752]]]},"properties":{"fire_id":"ufid:2023-MEMES-23002463","source_collection":"history-2023","source_objectid":17351,"incident_name":"Beech Hill Fire","mapped_acres":13.3,"mapped_acres_source":"poly_GISAcres","gis_acres":13.3,"auto_acres":13.319729251609715,"reported_acres":13.3,"percent_contained":null,"state":"ME","state_wfigs":"US-ME","county":"Somerset","discovery_time_utc":"2023-05-28T16:15:00Z","perimeter_time_utc":"2024-01-13T13:34:30Z","perimeter_edit_time_utc":"2024-01-13T13:34:31Z","incident_modified_time_utc":"2023-05-29T02:13:35Z","containment_time_utc":"2023-05-29T00:45:00Z","control_time_utc":"2023-05-29T00:50:00Z","fire_out_time_utc":"2023-06-03T22:00:00Z","fire_cause":"Human","fire_cause_general":"Power generation / transmission / distribution","map_method":"Hand Sketch","source_dataset":"FFP","unique_fire_identifier":"2023-MEMES-23002463","irwin_id":"{BF85586C-19AE-4C9E-BE7C-BC5AB97D173D}","global_id":"a9d1c7c6-bdf9-4267-b660-c5f545575600"}},{"type":"Feature","geometry":{"type":"Polygon","coordinates":[[[-68.55344,45.50871],[-68.55349,45.50878],[-68.55344,45.50884],[-68.55344,45.50871]]]},"properties":{"fire_id":"ufid:2023-MEMES-23002681","source_collection":"history-2023","source_objectid":17410,"incident_name":"Camaro Fire","mapped_acres":0.1,"mapped_acres_source":"poly_GISAcres","gis_acres":0.1,"auto_acres":0.014534672448650183,"reported_acres":0.1,"percent_contained":null,"state":"ME","state_wfigs":"US-ME","county":"Penobscot","discovery_time_utc":"2023-06-12T16:58:00Z","perimeter_time_utc":"2023-06-14T09:15:35Z","perimeter_edit_time_utc":"2023-06-14T09:15:36Z","incident_modified_time_utc":"2023-06-12T18:27:11Z","containment_time_utc":"2023-06-12T17:20:00Z","control_time_utc":"2023-06-12T17:21:00Z","fire_out_time_utc":"2023-06-12T17:33:00Z","fire_cause":"Human","fire_cause_general":"Equipment and vehicle use","map_method":"Auto-generated","source_dataset":"FFP","unique_fire_identifier":"2023-MEMES-23002681","irwin_id":"{673FF1D8-5EE3-45D7-A850-5CAE3C00A55A}","global_id":"ec71d78b-3c19-460d-b29b-ce0c4d939bef"}},{"type":"Feature","geometry":{"type":"MultiPolygon","coordinates":[[[[-69.40717,45.37769],[-69.40734,45.37773],[-69.40711,45.37777],[-69.40717,45.37769]]],[[[-69.40735,45.37772],[-69.40737,45.37775],[-69.40734,45.37773],[-69.40735,45.37772]]],[[[-69.40711,45.37777],[-69.4071,45.3778],[-69.40707,45.37778],[-69.40711,45.37777]]],[[[-69.40726,45.37793],[-69.40713,45.37781],[-69.40719,45.37776],[-69.40726,45.37793]]],[[[-69.40692,45.37785],[-69.40706,45.37778],[-69.40726,45.37795],[-69.40694,45.37803],[-69.40705,45.37794],[-69.40692,45.37785]]],[[[-69.40729,45.37793],[-69.40727,45.37794],[-69.40727,45.37793],[-69.40729,45.37793]]],[[[-69.40726,45.37793],[-69.40727,45.37793],[-69.40726,45.37794],[-69.40726,45.37793]]],[[[-69.40797,45.37795],[-69.40799,45.37798],[-69.40785,45.37797],[-69.40797,45.37795]]],[[[-69.4074,45.37799],[-69.40729,45.37798],[-69.40727,45.37794],[-69.4074,45.37799]]],[[[-69.40779,45.37809],[-69.4074,45.37799],[-69.40784,45.37797],[-69.40779,45.37809]]]]},"properties":{"fire_id":"ufid:2023-MEMES-23002580","source_collection":"history-2023","source_objectid":17411,"incident_name":"Borestone Mtn Fire","mapped_acres":0.5,"mapped_acres_source":"poly_GISAcres","gis_acres":0.5,"auto_acres":0.180460441423866,"reported_acres":0.4,"percent_contained":null,"state":"ME","state_wfigs":"US-ME","county":"Piscataquis","discovery_time_utc":"2023-06-02T20:00:00Z","perimeter_time_utc":"2023-06-14T09:33:41Z","perimeter_edit_time_utc":"2023-06-14T09:33:42Z","incident_modified_time_utc":"2023-06-15T15:29:50Z","containment_time_utc":null,"control_time_utc":null,"fire_out_time_utc":null,"fire_cause":"Natural","fire_cause_general":"Natural","map_method":"Auto-generated","source_dataset":"Decertified","unique_fire_identifier":"2023-MEMES-23002580","irwin_id":"{B6B7F33E-6AC2-47EA-B5A3-07777E9BAA6E}","global_id":"c37b7f15-f1b0-486f-9115-4753d0db2f07"}},{"type":"Feature","geometry":{"type":"Polygon","coordinates":[[[-68.03831,46.59975],[-68.03854,46.60009],[-68.03835,46.60036],[-68.03758,46.60027],[-68.03728,46.60003],[-68.03741,46.59979],[-68.03831,46.59975]]]},"properties":{"fire_id":"ufid:2023-MEMES-23002545","source_collection":"history-2023","source_objectid":18661,"incident_name":"Rat Fire","mapped_acres":1.35,"mapped_acres_source":"poly_GISAcres","gis_acres":1.35,"auto_acres":1.3532035789255112,"reported_acres":1.4,"percent_contained":null,"state":"ME","state_wfigs":"US-ME","county":"Aroostook","discovery_time_utc":"2023-06-01T08:30:00Z","perimeter_time_utc":"2023-12-29T19:08:41Z","perimeter_edit_time_utc":"2023-12-29T19:08:41Z","incident_modified_time_utc":"2023-06-01T13:02:28Z","containment_time_utc":"2023-06-01T12:56:00Z","control_time_utc":null,"fire_out_time_utc":"2023-06-01T14:30:00Z","fire_cause":"Undetermined","fire_cause_general":"Undetermined","map_method":"Hand Sketch","source_dataset":"FFP","unique_fire_identifier":"2023-MEMES-23002545","irwin_id":"{0D2E41CF-92B8-4885-9A50-ADB676224620}","global_id":"5295275f-08cb-4c32-acfd-5f3384ca49f6"}},{"type":"Feature","geometry":{"type":"Polygon","coordinates":[[[-67.80603,46.04118],[-67.80628,46.04107],[-67.80655,46.04129],[-67.8069,46.04133],[-67.80684,46.04165],[-67.80694,46.04181],[-67.80632,46.04186],[-67.80618,46.04169],[-67.80592,46.04167],[-67.80592,46.04141],[-67.8061,46.0413],[-67.80603,46.04118]]]},"properties":{"fire_id":"ufid:2023-MEMES-23001586","source_collection":"history-2023","source_objectid":20157,"incident_name":"DINAS FIRE","mapped_acres":1.19,"mapped_acres_source":"poly_GISAcres","gis_acres":1.19,"auto_acres":1.1870688990051408,"reported_acres":1.2,"percent_contained":null,"state":"ME","state_wfigs":"US-ME","county":"Aroostook","discovery_time_utc":"2023-04-22T20:07:00Z","perimeter_time_utc":"2023-08-25T16:10:44Z","perimeter_edit_time_utc":"2023-08-25T16:10:44Z","incident_modified_time_utc":"2023-04-24T00:22:50Z","containment_time_utc":"2023-04-22T20:44:00Z","control_time_utc":"2023-04-22T20:54:00Z","fire_out_time_utc":"2023-04-22T21:10:00Z","fire_cause":"Human","fire_cause_general":"Debris and open burning","map_method":"Hand Sketch","source_dataset":"FFP","unique_fire_identifier":"2023-MEMES-23001586","irwin_id":"{CC266F65-CDF4-4C50-936A-431960F91137}","global_id":"f96a6906-89e0-430f-ab12-62eb316d857e"}}]}
