{"type":"FeatureCollection","features":[{"type":"Feature","geometry":{"type":"Polygon","coordinates":[[[-86.04886,44.35513],[-86.04858,44.35503],[-86.04901,44.35503],[-86.04886,44.35513]]]},"properties":{"fire_id":"ufid:2023-MIHMF-230037","source_collection":"history-2023","source_objectid":15917,"incident_name":"Creek","mapped_acres":0.1,"mapped_acres_source":"poly_GISAcres","gis_acres":0.1,"auto_acres":0.10075594393768489,"reported_acres":0.1,"percent_contained":null,"state":"MI","state_wfigs":"US-MI","county":"Manistee","discovery_time_utc":"2023-04-03T19:08:00Z","perimeter_time_utc":"2023-04-09T16:17:58Z","perimeter_edit_time_utc":"2023-04-09T16:17:58Z","incident_modified_time_utc":"2023-04-07T20:09:48Z","containment_time_utc":"2023-04-03T19:49:00Z","control_time_utc":"2023-04-04T17:59:00Z","fire_out_time_utc":"2023-04-07T20:09:00Z","fire_cause":"Human","fire_cause_general":"Debris and open burning","map_method":"Auto-generated","source_dataset":"FFP","unique_fire_identifier":"2023-MIHMF-230037","irwin_id":"{4C2F5C95-A36E-4EEC-AED4-75019F76BABD}","global_id":"4c3498f1-0dbd-4a96-948b-d02a0336bb28"}},{"type":"Feature","geometry":{"type":"MultiPolygon","coordinates":[[[[-85.69362,43.75738],[-85.69307,43.75761],[-85.69282,43.75739],[-85.69327,43.75729],[-85.69339,43.75711],[-85.69362,43.75738]]],[[[-85.69307,43.75761],[-85.69307,43.75775],[-85.69304,43.75768],[-85.69307,43.75761]]],[[[-85.69261,43.75763],[-85.69306,43.75775],[-85.69364,43.75814],[-85.69491,43.75835],[-85.69612,43.75879],[-85.69491,43.7591],[-85.69539,43.75954],[-85.69647,43.75997],[-85.69663,43.76022],[-85.69665,43.76073],[-85.69731,43.76159],[-85.69715,43.76274],[-85.69664,43.76315],[-85.6962,43.76321],[-85.69643,43.76379],[-85.69642,43.76409],[-85.69566,43.76393],[-85.69476,43.76328],[-85.69419,43.76251],[-85.69395,43.7619],[-85.69342,43.76152],[-85.69319,43.76104],[-85.6928,43.76073],[-85.6924,43.76016],[-85.69221,43.75979],[-85.69206,43.75856],[-85.69232,43.75801],[-85.69226,43.75771],[-85.69261,43.75763]]]]},"properties":{"fire_id":"ufid:2023-MIHMF-230026","source_collection":"history-2023","source_objectid":15918,"incident_name":"Rip Snort","mapped_acres":5.0,"mapped_acres_source":"poly_GISAcres","gis_acres":5.0,"auto_acres":40.76204910582916,"reported_acres":41.0,"percent_contained":null,"state":"MI","state_wfigs":"US-MI","county":"Newaygo","discovery_time_utc":"2023-03-21T17:48:00Z","perimeter_time_utc":"2023-04-09T16:33:32Z","perimeter_edit_time_utc":"2023-04-09T16:33:32Z","incident_modified_time_utc":"2023-03-24T16:50:41Z","containment_time_utc":"2023-03-21T19:08:00Z","control_time_utc":"2023-03-24T15:28:00Z","fire_out_time_utc":"2023-04-09T16:32:50Z","fire_cause":"Human","fire_cause_general":"Debris and open burning","map_method":"Hand Sketch","source_dataset":"FFP","unique_fire_identifier":"2023-MIHMF-230026","irwin_id":"{F44AD368-9EC3-42BD-BB21-4F61AA9E73CF}","global_id":"4118cd94-c8c7-44fb-abf5-5471f4e57a7a"}},{"type":"Feature","geometry":{"type":"MultiPolygon","coordinates":[[[[-86.24876,44.21116],[-86.24877,44.21115],[-86.24881,44.21115],[-86.24876,44.21116]]],[[[-86.24879,44.211],[-86.24899,44.21113],[-86.24869,44.21112],[-86.24879,44.211]]]]},"properties":{"fire_id":"ufid:2023-MIHMF-230027","source_collection":"history-2023","source_objectid":15919,"incident_name":"Stronach","mapped_acres":0.25,"mapped_acres_source":"poly_GISAcres","gis_acres":0.25,"auto_acres":0.06410121240986748,"reported_acres":0.25,"percent_contained":null,"state":"MI","state_wfigs":"US-MI","county":"Manistee","discovery_time_utc":"2023-03-23T19:03:00Z","perimeter_time_utc":"2023-04-09T16:15:20Z","perimeter_edit_time_utc":"2023-04-09T16:15:20Z","incident_modified_time_utc":"2023-04-07T20:09:03Z","containment_time_utc":"2023-03-23T19:51:00Z","control_time_utc":"2023-03-24T15:18:00Z","fire_out_time_utc":"2023-04-07T20:08:00Z","fire_cause":"Human","fire_cause_general":"Power generation / transmission / distribution","map_method":"Auto-generated","source_dataset":"FFP","unique_fire_identifier":"2023-MIHMF-230027","irwin_id":"{F2B30E1F-DB48-490E-955A-2CA747E8519A}","global_id":"18f0914c-c967-4cfa-b861-401b135891f7"}},{"type":"Feature","geometry":{"type":"MultiPolygon","coordinates":[[[[-85.85558,43.93524],[-85.85555,43.93527],[-85.85553,43.93515],[-85.85558,43.93524]]],[[[-85.85553,43.93525],[-85.85552,43.93522],[-85.85553,43.93521],[-85.85553,43.93525]]],[[[-85.85553,43.93525],[-85.85553,43.9353],[-85.85552,43.9353],[-85.85553,43.93525]]],[[[-85.8557,43.93551],[-85.85555,43.93569],[-85.85558,43.93524],[-85.8557,43.93551]]],[[[-85.85555,43.93569],[-85.85551,43.93572],[-85.85551,43.93554],[-85.85555,43.93569]]],[[[-85.85552,43.9351],[-85.85553,43.93515],[-85.85552,43.93514],[-85.85552,43.9351]]],[[[-85.85551,43.93512],[-85.8555,43.93528],[-85.85547,43.93516],[-85.85551,43.93512]]],[[[-85.8555,43.93528],[-85.8555,43.93533],[-85.85547,43.93537],[-85.8555,43.93528]]],[[[-85.85551,43.93554],[-85.8555,43.93533],[-85.85552,43.9353],[-85.85551,43.93554]]],[[[-85.85457,43.93523],[-85.85486,43.93521],[-85.85533,43.9354],[-85.85534,43.93523],[-85.85548,43.93521],[-85.85544,43.93575],[-85.85477,43.93578],[-85.8544,43.93567],[-85.85457,43.93523]]]]},"properties":{"fire_id":"ufid:2023-MIHMF-230036","source_collection":"history-2023","source_objectid":15922,"incident_name":"Dewey","mapped_acres":1.0,"mapped_acres_source":"poly_GISAcres","gis_acres":1.0,"auto_acres":1.272686440285546,"reported_acres":1.0,"percent_contained":null,"state":"MI","state_wfigs":"US-MI","county":"Lake","discovery_time_utc":"2023-04-03T19:03:00Z","perimeter_time_utc":"2023-04-09T16:37:12Z","perimeter_edit_time_utc":"2023-04-09T16:37:12Z","incident_modified_time_utc":"2023-04-06T18:05:31Z","containment_time_utc":"2023-04-03T19:40:00Z","control_time_utc":"2023-04-06T18:04:00Z","fire_out_time_utc":"2023-04-09T16:36:00Z","fire_cause":"Human","fire_cause_general":"Debris and open burning","map_method":"Hand Sketch","source_dataset":"FFP","unique_fire_identifier":"2023-MIHMF-230036","irwin_id":"{11F06224-93D1-4E06-9C86-1D5896DD5EE3}","global_id":"92344bdf-5d1b-4f5f-aac7-b8550d8fd7e3"}},{"type":"Feature","geometry":{"type":"Polygon","coordinates":[[[-85.78463,43.87048],[-85.78397,43.87022],[-85.78447,43.86993],[-85.78468,43.86999],[-85.78479,43.87015],[-85.78463,43.87048]]]},"properties":{"fire_id":"ufid:2023-MIHMF-230034","source_collection":"history-2023","source_objectid":15923,"incident_name":"Garden","mapped_acres":0.5,"mapped_acres_source":"poly_GISAcres","gis_acres":0.5,"auto_acres":0.6293776899030291,"reported_acres":0.5,"percent_contained":null,"state":"MI","state_wfigs":"US-MI","county":"Lake","discovery_time_utc":"2023-03-30T20:27:00Z","perimeter_time_utc":"2023-04-09T17:49:32Z","perimeter_edit_time_utc":"2023-04-09T17:49:32Z","incident_modified_time_utc":"2023-04-03T16:36:01Z","containment_time_utc":"2023-03-30T21:15:00Z","control_time_utc":"2023-03-31T16:12:00Z","fire_out_time_utc":"2023-04-09T17:36:50Z","fire_cause":"Human","fire_cause_general":"Debris and open burning","map_method":"Hand Sketch","source_dataset":"FFP","unique_fire_identifier":"2023-MIHMF-230034","irwin_id":"{0DD37949-8D47-41A8-B5B6-1D84080C7CC4}","global_id":"ab69673f-4b68-446f-98bf-2adae59d7451"}},{"type":"Feature","geometry":{"type":"MultiPolygon","coordinates":[[[[-85.92236,44.14571],[-85.92282,44.14572],[-85.92286,44.14593],[-85.92272,44.14609],[-85.92183,44.14611],[-85.9225,44.14591],[-85.92236,44.14571]]],[[[-85.922578,44.145661],[-85.92229,44.14559],[-85.92258,44.14566],[-85.922578,44.145661]]]]},"properties":{"fire_id":"ufid:2023-MIHMF-230051","source_collection":"history-2023","source_objectid":16056,"incident_name":"Brooks","mapped_acres":0.5,"mapped_acres_source":"poly_GISAcres","gis_acres":0.5,"auto_acres":0.5059424396538488,"reported_acres":0.5,"percent_contained":null,"state":"MI","state_wfigs":"US-MI","county":"Lake","discovery_time_utc":"2023-04-10T22:07:00Z","perimeter_time_utc":"2023-04-23T14:35:42Z","perimeter_edit_time_utc":"2023-04-23T14:35:43Z","incident_modified_time_utc":"2023-04-10T23:02:20Z","containment_time_utc":"2023-04-10T22:49:00Z","control_time_utc":"2023-04-14T17:26:00Z","fire_out_time_utc":"2023-04-14T22:18:00Z","fire_cause":"Human","fire_cause_general":"Debris and open burning","map_method":"Auto-generated","source_dataset":"FFP","unique_fire_identifier":"2023-MIHMF-230051","irwin_id":"{424EA7FE-2FA1-4FDE-810C-E78612EB997B}","global_id":"98e3f1cb-8de2-47ff-b212-ef0ce6090822"}},{"type":"Feature","geometry":{"type":"Polygon","coordinates":[[[-86.33014,44.17072],[-86.32954,44.17056],[-86.32956,44.1704],[-86.33012,44.17041],[-86.33014,44.17072]]]},"properties":{"fire_id":"ufid:2023-MIHMF-230042","source_collection":"history-2023","source_objectid":16058,"incident_name":"Cottontail","mapped_acres":0.25,"mapped_acres_source":"poly_GISAcres","gis_acres":0.25,"auto_acres":0.32608443442379104,"reported_acres":0.3,"percent_contained":null,"state":"MI","state_wfigs":"US-MI","county":"Mason","discovery_time_utc":"2023-04-09T17:49:00Z","perimeter_time_utc":"2023-04-14T22:44:55Z","perimeter_edit_time_utc":"2023-04-14T22:44:56Z","incident_modified_time_utc":"2023-04-11T16:32:13Z","containment_time_utc":"2023-04-09T18:49:00Z","control_time_utc":"2023-04-14T17:26:00Z","fire_out_time_utc":"2023-04-14T22:18:00Z","fire_cause":"Human","fire_cause_general":"Debris and open burning","map_method":"Auto-generated","source_dataset":"FFP","unique_fire_identifier":"2023-MIHMF-230042","irwin_id":"{1B5E2B85-DCD4-4A92-96B1-97DB4FEDDD94}","global_id":"343168be-41ba-4109-84ef-6ceac8165730"}},{"type":"Feature","geometry":{"type":"Polygon","coordinates":[[[-85.77419,44.28067],[-85.77454,44.28073],[-85.77403,44.28073],[-85.77419,44.28067]]]},"properties":{"fire_id":"ufid:2023-MIHMF-230064","source_collection":"history-2023","source_objectid":16060,"incident_name":"Scotch Pine","mapped_acres":0.1,"mapped_acres_source":"poly_GISAcres","gis_acres":0.1,"auto_acres":0.10051786262787281,"reported_acres":0.1,"percent_contained":null,"state":"MI","state_wfigs":"US-MI","county":"Wexford","discovery_time_utc":"2023-04-12T19:03:00Z","perimeter_time_utc":"2023-04-14T14:58:57Z","perimeter_edit_time_utc":"2023-04-14T14:58:57Z","incident_modified_time_utc":"2023-04-13T18:43:13Z","containment_time_utc":"2023-04-12T19:41:00Z","control_time_utc":"2023-04-13T17:37:00Z","fire_out_time_utc":null,"fire_cause":"Human","fire_cause_general":"Power generation / transmission / distribution","map_method":"Hand Sketch","source_dataset":"FFP","unique_fire_identifier":"2023-MIHMF-230064","irwin_id":"{F286EF65-91A5-45D0-B192-58898D40B247}","global_id":"afd156a5-7092-41b9-adf7-51bd62af0fcc"}},{"type":"Feature","geometry":{"type":"Polygon","coordinates":[[[-85.8333,43.83466],[-85.83327,43.83457],[-85.83339,43.83459],[-85.8333,43.83466]]]},"properties":{"fire_id":"ufid:2023-MIHMF-230040","source_collection":"history-2023","source_objectid":16167,"incident_name":"Ever Blooming","mapped_acres":0.1,"mapped_acres_source":"poly_GISAcres","gis_acres":0.1,"auto_acres":0.01733051178069461,"reported_acres":0.1,"percent_contained":null,"state":"MI","state_wfigs":"US-MI","county":"Lake","discovery_time_utc":"2023-04-08T20:07:00Z","perimeter_time_utc":"2023-04-19T19:48:43Z","perimeter_edit_time_utc":"2023-04-19T19:48:43Z","incident_modified_time_utc":"2023-04-15T17:01:33Z","containment_time_utc":"2023-04-08T20:31:00Z","control_time_utc":"2023-04-11T17:44:00Z","fire_out_time_utc":"2023-04-15T17:00:00Z","fire_cause":"Human","fire_cause_general":"Equipment and vehicle use","map_method":"Auto-generated","source_dataset":"FFP","unique_fire_identifier":"2023-MIHMF-230040","irwin_id":"{C3519E19-C989-45E3-9EB5-37D14D7C9DD6}","global_id":"1ffd524d-4671-4016-86cd-9aeb067022bd"}},{"type":"Feature","geometry":{"type":"Polygon","coordinates":[[[-86.06716,42.52809],[-86.06663,42.52809],[-86.06644,42.52783],[-86.06589,42.52763],[-86.06516,42.52716],[-86.06516,42.52701],[-86.0645,42.52684],[-86.06432,42.52589],[-86.06379,42.52564],[-86.06422,42.52531],[-86.06419,42.52507],[-86.06488,42.52437],[-86.06582,42.52418],[-86.06588,42.52399],[-86.06564,42.52359],[-86.06571,42.52328],[-86.06665,42.52293],[-86.06697,42.52262],[-86.06808,42.52217],[-86.069,42.52205],[-86.06947,42.52212],[-86.07046,42.5219],[-86.07119,42.52208],[-86.07145,42.52195],[-86.07539,42.51707],[-86.07641,42.51691],[-86.07741,42.51703],[-86.07853,42.51658],[-86.07952,42.51644],[-86.08085,42.51661],[-86.08184,42.51625],[-86.08224,42.51598],[-86.08304,42.51619],[-86.08588,42.51508],[-86.0868,42.51496],[-86.08749,42.51503],[-86.08833,42.51552],[-86.08839,42.51605],[-86.08786,42.51612],[-86.08795,42.51671],[-86.08718,42.51764],[-86.08708,42.51797],[-86.08672,42.51823],[-86.08669,42.51863],[-86.08647,42.51889],[-86.08608,42.51919],[-86.08477,42.51956],[-86.08422,42.52028],[-86.08376,42.52049],[-86.08291,42.52123],[-86.08252,42.52134],[-86.08246,42.52176],[-86.08195,42.52201],[-86.08183,42.52227],[-86.08158,42.5224],[-86.08193,42.52297],[-86.08247,42.52313],[-86.08159,42.52355],[-86.08147,42.52402],[-86.08106,42.5244],[-86.07992,42.52446],[-86.07916,42.52465],[-86.07838,42.52531],[-86.0776,42.52577],[-86.07746,42.52631],[-86.07727,42.52639],[-86.07665,42.52607],[-86.07655,42.52583],[-86.07627,42.52577],[-86.07585,42.52587],[-86.07561,42.52617],[-86.07516,42.52632],[-86.07416,42.52607],[-86.07363,42.52621],[-86.07279,42.52569],[-86.07218,42.52547],[-86.07197,42.52558],[-86.0721,42.52573],[-86.07198,42.52584],[-86.07119,42.52584],[-86.07086,42.52596],[-86.0704,42.52577],[-86.07019,42.52537],[-86.06986,42.52518],[-86.06976,42.52571],[-86.06991,42.52593],[-86.06988,42.52624],[-86.069,42.52675],[-86.06827,42.52679],[-86.06798,42.52733],[-86.06746,42.52761],[-86.06716,42.52809]]]},"properties":{"fire_id":"ufid:2023-MIMIS-031002","source_collection":"history-2023","source_objectid":16211,"incident_name":"Bravo","mapped_acres":303.0,"mapped_acres_source":"poly_GISAcres","gis_acres":303.0,"auto_acres":305.457578056705,"reported_acres":303.0,"percent_contained":100.0,"state":"MI","state_wfigs":"US-MI","county":"Allegan","discovery_time_utc":"2023-04-12T17:50:00Z","perimeter_time_utc":"2023-04-12T22:50:00Z","perimeter_edit_time_utc":"2023-04-20T21:33:45Z","incident_modified_time_utc":"2023-05-27T00:14:11Z","containment_time_utc":null,"control_time_utc":null,"fire_out_time_utc":null,"fire_cause":"Human","fire_cause_general":"Debris and open burning","map_method":"Image Interpretation","source_dataset":"2023 NIFS","unique_fire_identifier":"2023-MIMIS-031002","irwin_id":"{DA21AB0C-DF7F-4DCE-B3AE-55045BFF5B00}","global_id":"7b509fbc-1dbd-4c0b-a794-5073a657f91e"}},{"type":"Feature","geometry":{"type":"MultiPolygon","coordinates":[[[[-86.12027,44.39064],[-86.11975,44.39104],[-86.11935,44.39112],[-86.11928,44.39096],[-86.11901,44.39103],[-86.11906,44.39091],[-86.1188,44.39083],[-86.11902,44.39071],[-86.11952,44.39078],[-86.11996,44.39051],[-86.12027,44.39064]]],[[[-86.12008,44.39079],[-86.12006,44.39082],[-86.12007,44.3908],[-86.12008,44.39079]]]]},"properties":{"fire_id":"ufid:2023-MIHMF-230061","source_collection":"history-2023","source_objectid":16246,"incident_name":"Anderson Road","mapped_acres":2.0,"mapped_acres_source":"poly_GISAcres","gis_acres":2.0,"auto_acres":0.9260796122245734,"reported_acres":1.0,"percent_contained":null,"state":"MI","state_wfigs":"US-MI","county":"Manistee","discovery_time_utc":"2023-04-11T21:21:00Z","perimeter_time_utc":"2023-04-23T14:41:59Z","perimeter_edit_time_utc":"2023-04-23T14:42:00Z","incident_modified_time_utc":"2023-04-14T22:19:08Z","containment_time_utc":"2023-04-11T22:42:00Z","control_time_utc":"2023-04-13T13:25:00Z","fire_out_time_utc":"2023-04-14T22:18:00Z","fire_cause":"Human","fire_cause_general":"Debris and open burning","map_method":"Auto-generated","source_dataset":"FFP","unique_fire_identifier":"2023-MIHMF-230061","irwin_id":"{12D684F7-1B37-408E-9BA7-0D1363BF02E7}","global_id":"ea5e37c9-40d3-4e17-b909-299e82edc3e4"}},{"type":"Feature","geometry":{"type":"Polygon","coordinates":[[[-85.92575,44.23877],[-85.92563,44.23907],[-85.92571,44.23983],[-85.92541,44.24009],[-85.92511,44.24005],[-85.92489,44.24029],[-85.92414,44.24034],[-85.92358,44.24065],[-85.92328,44.24049],[-85.92289,44.24049],[-85.92213,44.24079],[-85.92178,44.24072],[-85.92126,44.24087],[-85.92017,44.2406],[-85.91989,44.24072],[-85.91971,44.24061],[-85.91983,44.24029],[-85.92023,44.24007],[-85.92076,44.23944],[-85.92128,44.23933],[-85.92149,44.23909],[-85.92201,44.23902],[-85.92237,44.2387],[-85.92286,44.23852],[-85.92496,44.23828],[-85.92525,44.23836],[-85.92538,44.23855],[-85.92562,44.23856],[-85.92575,44.23877]]]},"properties":{"fire_id":"ufid:2023-MIHMF-230059","source_collection":"history-2023","source_objectid":16247,"incident_name":"Snyder","mapped_acres":2.0,"mapped_acres_source":"poly_GISAcres","gis_acres":2.0,"auto_acres":21.417031168238037,"reported_acres":21.5,"percent_contained":null,"state":"MI","state_wfigs":"US-MI","county":"Manistee","discovery_time_utc":"2023-04-11T19:55:00Z","perimeter_time_utc":"2023-05-02T21:24:20Z","perimeter_edit_time_utc":"2023-05-02T21:24:20Z","incident_modified_time_utc":"2023-04-17T20:47:09Z","containment_time_utc":"2023-04-11T21:27:00Z","control_time_utc":"2023-04-17T20:47:00Z","fire_out_time_utc":"2023-05-02T21:23:52Z","fire_cause":"Human","fire_cause_general":"Debris and open burning","map_method":"Auto-generated","source_dataset":"FFP","unique_fire_identifier":"2023-MIHMF-230059","irwin_id":"{0BFC7293-B9EA-41A0-8825-13EA2A961644}","global_id":"04ac5e96-9386-49fe-b49b-2613a2e43853"}},{"type":"Feature","geometry":{"type":"Polygon","coordinates":[[[-85.71254,43.57247],[-85.7121,43.57252],[-85.7125,43.57238],[-85.71254,43.57247]]]},"properties":{"fire_id":"ufid:2023-MIHMF-230055","source_collection":"history-2023","source_objectid":16249,"incident_name":"Fine Cut","mapped_acres":0.25,"mapped_acres_source":"poly_GISAcres","gis_acres":0.25,"auto_acres":0.11245697323271364,"reported_acres":0.25,"percent_contained":null,"state":"MI","state_wfigs":"US-MI","county":"Newaygo","discovery_time_utc":"2023-04-10T22:49:00Z","perimeter_time_utc":"2023-04-23T20:18:50Z","perimeter_edit_time_utc":"2023-04-23T20:18:50Z","incident_modified_time_utc":"2023-04-16T19:04:32Z","containment_time_utc":"2023-04-11T16:24:00Z","control_time_utc":"2023-04-11T16:24:00Z","fire_out_time_utc":"2023-04-16T19:00:00Z","fire_cause":"Human","fire_cause_general":"Debris and open burning","map_method":"Auto-generated","source_dataset":"FFP","unique_fire_identifier":"2023-MIHMF-230055","irwin_id":"{6850E50B-AFED-4CD8-868F-8C237521473E}","global_id":"620a8a4d-645f-4cd8-8093-ba9e181c30a3"}},{"type":"Feature","geometry":{"type":"Polygon","coordinates":[[[-85.71371,43.53464],[-85.71365,43.53422],[-85.7139,43.5337],[-85.71488,43.53382],[-85.71478,43.53445],[-85.71439,43.53493],[-85.71427,43.53498],[-85.71361,43.53462],[-85.71371,43.53464]]]},"properties":{"fire_id":"ufid:2023-MIHMF-230052","source_collection":"history-2023","source_objectid":16250,"incident_name":"Thornapple","mapped_acres":3.0,"mapped_acres_source":"poly_GISAcres","gis_acres":3.0,"auto_acres":2.5413850316943054,"reported_acres":2.5,"percent_contained":null,"state":"MI","state_wfigs":"US-MI","county":"Newaygo","discovery_time_utc":"2023-04-10T22:28:00Z","perimeter_time_utc":"2023-04-23T20:16:02Z","perimeter_edit_time_utc":"2023-04-23T20:16:02Z","incident_modified_time_utc":"2023-04-16T19:04:22Z","containment_time_utc":"2023-04-12T14:53:00Z","control_time_utc":"2023-04-12T14:53:00Z","fire_out_time_utc":"2023-04-16T19:00:00Z","fire_cause":"Human","fire_cause_general":"Debris and open burning","map_method":"Auto-generated","source_dataset":"FFP","unique_fire_identifier":"2023-MIHMF-230052","irwin_id":"{34D60BC1-FB85-489A-9FEC-F109E9081A50}","global_id":"6f593c1b-58f2-43a7-b1bf-289e64586d28"}},{"type":"Feature","geometry":{"type":"MultiPolygon","coordinates":[[[[-85.80189,43.67778],[-85.80195,43.6778],[-85.8019,43.67779],[-85.80189,43.67778]]],[[[-85.80198,43.67776],[-85.80216,43.67778],[-85.80195,43.6778],[-85.80198,43.67776]]],[[[-85.8026,43.67768],[-85.80239,43.67785],[-85.80216,43.67778],[-85.8026,43.67768]]],[[[-85.80182,43.67765],[-85.80188,43.67769],[-85.80189,43.67778],[-85.80182,43.67765]]],[[[-85.8027,43.67764],[-85.8026,43.67768],[-85.80263,43.67765],[-85.8027,43.67764]]],[[[-85.80212,43.67696],[-85.80247,43.67702],[-85.8026,43.67718],[-85.80271,43.67742],[-85.80263,43.67765],[-85.80218,43.67777],[-85.80182,43.67765],[-85.80182,43.6774],[-85.80212,43.67696]]]]},"properties":{"fire_id":"ufid:2023-MIHMF-230046","source_collection":"history-2023","source_objectid":16251,"incident_name":"Centerline","mapped_acres":2.0,"mapped_acres_source":"poly_GISAcres","gis_acres":2.0,"auto_acres":1.247717915946646,"reported_acres":2.0,"percent_contained":null,"state":"MI","state_wfigs":"US-MI","county":"Newaygo","discovery_time_utc":"2023-04-10T19:33:00Z","perimeter_time_utc":"2023-04-23T20:12:45Z","perimeter_edit_time_utc":"2023-04-23T20:12:45Z","incident_modified_time_utc":"2023-04-13T15:47:11Z","containment_time_utc":"2023-04-10T20:08:00Z","control_time_utc":"2023-04-13T15:47:00Z","fire_out_time_utc":"2023-04-16T19:00:00Z","fire_cause":"Human","fire_cause_general":"Debris and open burning","map_method":"Hand Sketch","source_dataset":"FFP","unique_fire_identifier":"2023-MIHMF-230046","irwin_id":"{BCE27E0B-5D46-4780-8891-CAFFB504129B}","global_id":"86958025-d88b-419c-bb84-22ce8f8638eb"}},{"type":"Feature","geometry":{"type":"Polygon","coordinates":[[[-86.02902,43.60084],[-86.02933,43.60078],[-86.02942,43.60094],[-86.02896,43.601],[-86.02902,43.60084]]]},"properties":{"fire_id":"ufid:2023-MIHMF-230088","source_collection":"history-2023","source_objectid":16253,"incident_name":"VW","mapped_acres":0.1,"mapped_acres_source":"poly_GISAcres","gis_acres":0.1,"auto_acres":0.17838089825769934,"reported_acres":0.1,"percent_contained":null,"state":"MI","state_wfigs":"US-MI","county":"Newaygo","discovery_time_utc":"2023-04-15T21:02:00Z","perimeter_time_utc":"2023-04-23T20:49:23Z","perimeter_edit_time_utc":"2023-04-23T20:49:23Z","incident_modified_time_utc":"2023-04-17T14:33:27Z","containment_time_utc":"2023-04-15T21:47:00Z","control_time_utc":"2023-04-17T14:33:00Z","fire_out_time_utc":"2023-04-23T20:48:00Z","fire_cause":"Human","fire_cause_general":"Debris and open burning","map_method":"Hand Sketch","source_dataset":"FFP","unique_fire_identifier":"2023-MIHMF-230088","irwin_id":"{433E3387-6A6E-4868-898B-685BA378CC4E}","global_id":"1af19247-028d-4e2b-8e21-ffa7e0e2786b"}},{"type":"Feature","geometry":{"type":"Polygon","coordinates":[[[-86.11051,43.95135],[-86.11088,43.95129],[-86.11076,43.95147],[-86.11051,43.95135]]]},"properties":{"fire_id":"ufid:2023-MIHMF-230049","source_collection":"history-2023","source_objectid":16254,"incident_name":"Gibson","mapped_acres":0.25,"mapped_acres_source":"poly_GISAcres","gis_acres":0.25,"auto_acres":0.11668944063106167,"reported_acres":0.25,"percent_contained":null,"state":"MI","state_wfigs":"US-MI","county":"Mason","discovery_time_utc":"2023-04-10T20:46:00Z","perimeter_time_utc":"2023-04-23T20:34:41Z","perimeter_edit_time_utc":"2023-04-23T20:34:41Z","incident_modified_time_utc":"2023-04-15T17:02:57Z","containment_time_utc":"2023-04-10T21:11:00Z","control_time_utc":"2023-04-15T17:00:00Z","fire_out_time_utc":"2023-04-15T17:00:00Z","fire_cause":"Human","fire_cause_general":"Debris and open burning","map_method":"Auto-generated","source_dataset":"FFP","unique_fire_identifier":"2023-MIHMF-230049","irwin_id":"{5C4573F5-EBB5-443D-BCC7-121135A61635}","global_id":"817c1d80-d445-4b05-bcd6-ddae455c0764"}},{"type":"Feature","geometry":{"type":"Polygon","coordinates":[[[-86.29681,44.1137],[-86.29697,44.11342],[-86.29767,44.11369],[-86.29773,44.11387],[-86.29727,44.11404],[-86.29695,44.11397],[-86.29681,44.1137]]]},"properties":{"fire_id":"ufid:2023-MIHMF-230080","source_collection":"history-2023","source_objectid":16403,"incident_name":"Grant","mapped_acres":1.0,"mapped_acres_source":"poly_GISAcres","gis_acres":1.0,"auto_acres":0.7754966356084766,"reported_acres":0.64,"percent_contained":null,"state":"MI","state_wfigs":"US-MI","county":"Mason","discovery_time_utc":"2023-04-14T19:22:00Z","perimeter_time_utc":"2023-05-01T20:29:59Z","perimeter_edit_time_utc":"2023-05-01T20:30:00Z","incident_modified_time_utc":"2023-04-17T18:28:56Z","containment_time_utc":"2023-04-14T21:52:00Z","control_time_utc":"2023-04-16T15:52:00Z","fire_out_time_utc":"2023-04-16T15:52:00Z","fire_cause":"Human","fire_cause_general":"Debris and open burning","map_method":"Auto-generated","source_dataset":"FFP","unique_fire_identifier":"2023-MIHMF-230080","irwin_id":"{6D9D849A-4176-4EDE-BF34-6662CBB45FE1}","global_id":"49f12d30-59fc-43c6-bfca-cd06a33f1283"}},{"type":"Feature","geometry":{"type":"Polygon","coordinates":[[[-86.10268,44.23263],[-86.10319,44.23267],[-86.10267,44.23276],[-86.10268,44.23263]]]},"properties":{"fire_id":"ufid:2023-MIHMF-230090","source_collection":"history-2023","source_objectid":16414,"incident_name":"Power","mapped_acres":0.1,"mapped_acres_source":"poly_GISAcres","gis_acres":0.1,"auto_acres":0.16444071972121999,"reported_acres":0.1,"percent_contained":null,"state":"MI","state_wfigs":"US-MI","county":"Manistee","discovery_time_utc":"2023-04-17T14:46:00Z","perimeter_time_utc":"2023-05-01T20:33:32Z","perimeter_edit_time_utc":"2023-05-01T20:33:33Z","incident_modified_time_utc":"2023-04-19T18:28:33Z","containment_time_utc":"2023-04-17T16:26:00Z","control_time_utc":"2023-04-19T18:28:00Z","fire_out_time_utc":"2023-05-01T20:32:50Z","fire_cause":"Human","fire_cause_general":"Equipment and vehicle use","map_method":"Hand Sketch","source_dataset":"FFP","unique_fire_identifier":"2023-MIHMF-230090","irwin_id":"{F59151B8-6D18-4462-9CC8-8784727384C3}","global_id":"098f350a-20fc-4c68-ac28-96e064aa3c4b"}},{"type":"Feature","geometry":{"type":"Polygon","coordinates":[[[-86.10699,44.16418],[-86.10753,44.16434],[-86.10732,44.16454],[-86.10732,44.16476],[-86.10761,44.16493],[-86.10679,44.16489],[-86.10648,44.16424],[-86.10699,44.16418]]]},"properties":{"fire_id":"ufid:2023-MIHMF-230132","source_collection":"history-2023","source_objectid":16440,"incident_name":"Campbell","mapped_acres":1.0,"mapped_acres_source":"poly_GISAcres","gis_acres":1.0,"auto_acres":1.1446274392791629,"reported_acres":1.24,"percent_contained":null,"state":"MI","state_wfigs":"US-MI","county":"Mason","discovery_time_utc":"2023-04-29T16:31:00Z","perimeter_time_utc":"2023-05-02T21:36:32Z","perimeter_edit_time_utc":"2023-05-02T21:36:32Z","incident_modified_time_utc":"2023-05-02T15:11:16Z","containment_time_utc":"2023-04-29T19:03:00Z","control_time_utc":"2023-05-02T15:10:00Z","fire_out_time_utc":"2023-05-02T15:10:00Z","fire_cause":"Human","fire_cause_general":"Debris and open burning","map_method":"Hand Sketch","source_dataset":"FFP","unique_fire_identifier":"2023-MIHMF-230132","irwin_id":"{4F6FDEFE-854A-4C56-86E5-D0B3A1D14C50}","global_id":"18af659c-05c4-4790-b86d-c0dbe9cafcd8"}},{"type":"Feature","geometry":{"type":"Polygon","coordinates":[[[-85.83527,43.80765],[-85.83559,43.80786],[-85.8357,43.80816],[-85.83558,43.80834],[-85.8352,43.80801],[-85.83527,43.80765]]]},"properties":{"fire_id":"ufid:2023-MIHMF-230089","source_collection":"history-2023","source_objectid":16596,"incident_name":"Junkyard","mapped_acres":1.0,"mapped_acres_source":"poly_GISAcres","gis_acres":1.0,"auto_acres":0.477309172875602,"reported_acres":1.0,"percent_contained":null,"state":"MI","state_wfigs":"US-MI","county":"Newaygo","discovery_time_utc":"2023-04-15T23:38:00Z","perimeter_time_utc":"2023-05-12T16:29:35Z","perimeter_edit_time_utc":"2023-05-12T16:29:35Z","incident_modified_time_utc":"2023-04-18T21:18:34Z","containment_time_utc":"2023-04-16T00:16:00Z","control_time_utc":"2023-04-18T21:18:00Z","fire_out_time_utc":"2023-05-01T16:28:00Z","fire_cause":"Human","fire_cause_general":"Debris and open burning","map_method":"Auto-generated","source_dataset":"FFP","unique_fire_identifier":"2023-MIHMF-230089","irwin_id":"{2CB7C2D2-0EDD-4556-BA13-DAE9AB41ED67}","global_id":"33375ca4-cfe2-41c8-ab4e-bd747b95cab2"}},{"type":"Feature","geometry":{"type":"Polygon","coordinates":[[[-85.70658,43.41212],[-85.70683,43.41231],[-85.70668,43.41246],[-85.70643,43.41236],[-85.70644,43.41219],[-85.70658,43.41212]],[[-85.7066,43.41217],[-85.70652,43.41218],[-85.70653,43.41219],[-85.7066,43.41217]]]},"properties":{"fire_id":"ufid:2023-MIHMF-230086","source_collection":"history-2023","source_objectid":16620,"incident_name":"White Pine","mapped_acres":0.25,"mapped_acres_source":"poly_GISAcres","gis_acres":0.25,"auto_acres":0.2006391240069625,"reported_acres":0.25,"percent_contained":null,"state":"MI","state_wfigs":"US-MI","county":"Newaygo","discovery_time_utc":"2023-04-15T20:05:00Z","perimeter_time_utc":"2023-05-12T16:25:34Z","perimeter_edit_time_utc":"2023-05-12T16:25:35Z","incident_modified_time_utc":"2023-04-17T17:17:32Z","containment_time_utc":"2023-04-15T20:45:00Z","control_time_utc":"2023-04-17T17:13:00Z","fire_out_time_utc":"2023-05-01T16:23:00Z","fire_cause":"Human","fire_cause_general":"Debris and open burning","map_method":"Auto-generated","source_dataset":"FFP","unique_fire_identifier":"2023-MIHMF-230086","irwin_id":"{A4015E51-7D8C-4A1A-9467-F4BE238685E1}","global_id":"b29e7ede-d2f3-47a9-88ce-c6f96f9e15ff"}},{"type":"Feature","geometry":{"type":"Polygon","coordinates":[[[-86.15894,44.27888],[-86.15852,44.27942],[-86.15837,44.27931],[-86.1588,44.2788],[-86.15894,44.27888]]]},"properties":{"fire_id":"ufid:2023-MIHMF-230150","source_collection":"history-2023","source_objectid":16683,"incident_name":"Bialik","mapped_acres":0.25,"mapped_acres_source":"poly_GISAcres","gis_acres":0.25,"auto_acres":0.3159344285202341,"reported_acres":0.29,"percent_contained":null,"state":"MI","state_wfigs":"US-MI","county":"Manistee","discovery_time_utc":"2023-05-10T19:59:00Z","perimeter_time_utc":"2023-05-14T17:45:50Z","perimeter_edit_time_utc":"2023-05-14T17:45:51Z","incident_modified_time_utc":"2023-05-14T17:13:18Z","containment_time_utc":"2023-05-10T21:08:00Z","control_time_utc":"2023-05-14T17:12:00Z","fire_out_time_utc":"2023-05-14T17:12:00Z","fire_cause":"Human","fire_cause_general":"Debris and open burning","map_method":"Auto-generated","source_dataset":"FFP","unique_fire_identifier":"2023-MIHMF-230150","irwin_id":"{F5BE2672-A5F8-4806-9D8B-01C880DB5589}","global_id":"0ee4d5cb-39e2-46b5-8860-d0bca6fd53f8"}},{"type":"Feature","geometry":{"type":"Polygon","coordinates":[[[-85.78824,43.62659],[-85.78851,43.62603],[-85.78817,43.62603],[-85.78782,43.62622],[-85.78776,43.62609],[-85.7877,43.62629],[-85.78704,43.62647],[-85.78684,43.62637],[-85.78684,43.6262],[-85.7865,43.62607],[-85.7865,43.62585],[-85.78637,43.62575],[-85.78644,43.6256],[-85.78612,43.62538],[-85.7861,43.62518],[-85.78576,43.62481],[-85.78579,43.62433],[-85.78612,43.62391],[-85.78655,43.62375],[-85.78714,43.62385],[-85.78728,43.62376],[-85.78721,43.62355],[-85.78708,43.62353],[-85.78742,43.62344],[-85.78773,43.62359],[-85.78805,43.62345],[-85.78901,43.6238],[-85.78888,43.62397],[-85.78892,43.62414],[-85.78841,43.62442],[-85.78851,43.6245],[-85.78892,43.62434],[-85.78879,43.62445],[-85.78909,43.62471],[-85.78899,43.62498],[-85.78913,43.62511],[-85.78885,43.6253],[-85.78905,43.62548],[-85.78824,43.62659]]]},"properties":{"fire_id":"ufid:2023-MIHMF-230149","source_collection":"history-2023","source_objectid":16942,"incident_name":"Nowhere","mapped_acres":1.0,"mapped_acres_source":"poly_GISAcres","gis_acres":1.0,"auto_acres":15.800979610138324,"reported_acres":16.63,"percent_contained":null,"state":"MI","state_wfigs":"US-MI","county":"Newaygo","discovery_time_utc":"2023-05-10T18:48:00Z","perimeter_time_utc":"2023-05-24T21:17:59Z","perimeter_edit_time_utc":"2023-05-24T21:17:59Z","incident_modified_time_utc":"2023-05-16T14:46:52Z","containment_time_utc":"2023-05-10T21:50:00Z","control_time_utc":"2023-05-16T14:45:00Z","fire_out_time_utc":"2023-05-24T21:11:52Z","fire_cause":"Human","fire_cause_general":"Undetermined","map_method":"Auto-generated","source_dataset":"FFP","unique_fire_identifier":"2023-MIHMF-230149","irwin_id":"{28C74091-325E-48C0-8C3A-5C69A7719132}","global_id":"5f555282-7b7a-4521-aeec-d3c0b1f8ac09"}},{"type":"Feature","geometry":{"type":"Polygon","coordinates":[[[-86.01889,43.85605],[-86.0191,43.85624],[-86.01894,43.85649],[-86.01889,43.85605]]]},"properties":{"fire_id":"ufid:2023-MIHMF-230205","source_collection":"history-2023","source_objectid":16993,"incident_name":"Go Around","mapped_acres":0.5,"mapped_acres_source":"poly_GISAcres","gis_acres":0.5,"auto_acres":0.14728204074456702,"reported_acres":0.25,"percent_contained":null,"state":"MI","state_wfigs":"US-MI","county":"Lake","discovery_time_utc":"2023-05-23T20:57:00Z","perimeter_time_utc":"2023-05-27T13:25:51Z","perimeter_edit_time_utc":"2023-05-27T13:25:51Z","incident_modified_time_utc":"2023-05-26T13:21:54Z","containment_time_utc":"2023-05-23T23:24:00Z","control_time_utc":"2023-05-26T13:21:00Z","fire_out_time_utc":"2023-05-26T13:21:00Z","fire_cause":"Human","fire_cause_general":"Power generation / transmission / distribution","map_method":"Mixed Methods","source_dataset":"FFP","unique_fire_identifier":"2023-MIHMF-230205","irwin_id":"{C9247476-2BDA-47F9-BC70-CF2A23BBFE90}","global_id":"24f4610c-4c96-4775-90a2-ba14014338af"}},{"type":"Feature","geometry":{"type":"Polygon","coordinates":[[[-85.76967,44.22197],[-85.7695,44.2217],[-85.76973,44.22162],[-85.76994,44.22164],[-85.76999,44.22177],[-85.76967,44.22197]]]},"properties":{"fire_id":"ufid:2023-MIHMF-230186","source_collection":"history-2023","source_objectid":17030,"incident_name":"M55","mapped_acres":0.2,"mapped_acres_source":"poly_GISAcres","gis_acres":0.2,"auto_acres":0.3076874077254989,"reported_acres":0.25,"percent_contained":null,"state":"MI","state_wfigs":"US-MI","county":"Wexford","discovery_time_utc":"2023-05-18T16:54:00Z","perimeter_time_utc":"2023-05-29T21:14:37Z","perimeter_edit_time_utc":"2023-05-29T21:14:37Z","incident_modified_time_utc":"2023-05-29T21:11:28Z","containment_time_utc":"2023-05-18T18:18:00Z","control_time_utc":"2023-05-23T19:14:00Z","fire_out_time_utc":"2023-05-23T19:15:00Z","fire_cause":"Human","fire_cause_general":"Equipment and vehicle use","map_method":"Auto-generated","source_dataset":"FFP","unique_fire_identifier":"2023-MIHMF-230186","irwin_id":"{6155B43F-025A-43E1-B857-6C1C3A4B68DF}","global_id":"355172a3-d4d1-47b4-925f-5f37218e84f4"}},{"type":"Feature","geometry":{"type":"Polygon","coordinates":[[[-85.7109,43.90197],[-85.71144,43.90201],[-85.71155,43.90214],[-85.71147,43.90228],[-85.71109,43.90224],[-85.7109,43.90197]]]},"properties":{"fire_id":"ufid:2023-MIHMF-230192","source_collection":"history-2023","source_objectid":17140,"incident_name":"HWY10","mapped_acres":0.25,"mapped_acres_source":"poly_GISAcres","gis_acres":0.25,"auto_acres":0.311925220751695,"reported_acres":1.0,"percent_contained":null,"state":"MI","state_wfigs":"US-MI","county":"Lake","discovery_time_utc":"2023-05-20T21:29:00Z","perimeter_time_utc":"2023-06-01T21:46:01Z","perimeter_edit_time_utc":"2023-06-01T21:46:01Z","incident_modified_time_utc":"2023-05-28T14:41:14Z","containment_time_utc":"2023-05-21T00:01:00Z","control_time_utc":"2023-05-23T15:34:00Z","fire_out_time_utc":"2023-05-23T15:34:00Z","fire_cause":"Human","fire_cause_general":"Equipment and vehicle use","map_method":"Mixed Methods","source_dataset":"FFP","unique_fire_identifier":"2023-MIHMF-230192","irwin_id":"{A3D25D87-EC32-4AC8-930D-A6A6A62C9E63}","global_id":"1bcdf8fc-1356-40c7-b91b-154d393e28a7"}},{"type":"Feature","geometry":{"type":"Polygon","coordinates":[[[-85.81205,43.67722],[-85.81218,43.67728],[-85.81223,43.67755],[-85.81171,43.67741],[-85.81133,43.67749],[-85.811,43.67724],[-85.81162,43.67686],[-85.81202,43.67692],[-85.81214,43.67709],[-85.81205,43.67722]]]},"properties":{"fire_id":"ufid:2023-MIHMF-230195","source_collection":"history-2023","source_objectid":17141,"incident_name":"Brohman","mapped_acres":1.0,"mapped_acres_source":"poly_GISAcres","gis_acres":1.0,"auto_acres":1.173780153888781,"reported_acres":1.0,"percent_contained":null,"state":"MI","state_wfigs":"US-MI","county":"Newaygo","discovery_time_utc":"2023-05-21T20:57:00Z","perimeter_time_utc":"2023-06-02T13:59:32Z","perimeter_edit_time_utc":"2023-06-02T13:59:33Z","incident_modified_time_utc":"2023-05-25T15:06:28Z","containment_time_utc":"2023-05-21T21:43:00Z","control_time_utc":"2023-06-02T13:47:00Z","fire_out_time_utc":"2023-06-02T13:56:00Z","fire_cause":"Human","fire_cause_general":"Undetermined","map_method":"Auto-generated","source_dataset":"FFP","unique_fire_identifier":"2023-MIHMF-230195","irwin_id":"{B59C6305-9380-44D4-B90C-60B8BA65A41D}","global_id":"fcf73880-ec4c-40a3-9872-5e5a9aa9de73"}},{"type":"Feature","geometry":{"type":"Polygon","coordinates":[[[-85.86487,44.2035],[-85.86374,44.20289],[-85.86376,44.20228],[-85.86329,44.20209],[-85.86364,44.20191],[-85.86451,44.20203],[-85.86559,44.20241],[-85.86597,44.20272],[-85.86633,44.20328],[-85.86602,44.20338],[-85.86552,44.20325],[-85.86487,44.2035]]]},"properties":{"fire_id":"ufid:2023-MIHMF-230231","source_collection":"history-2023","source_objectid":17286,"incident_name":"Pine River","mapped_acres":3.0,"mapped_acres_source":"poly_GISAcres","gis_acres":3.0,"auto_acres":5.750237824115462,"reported_acres":5.5,"percent_contained":null,"state":"MI","state_wfigs":"US-MI","county":"Manistee","discovery_time_utc":"2023-05-28T18:14:00Z","perimeter_time_utc":"2023-06-07T19:15:31Z","perimeter_edit_time_utc":"2023-06-07T19:15:31Z","incident_modified_time_utc":"2023-06-03T16:29:48Z","containment_time_utc":"2023-05-29T00:52:00Z","control_time_utc":"2023-06-03T16:28:00Z","fire_out_time_utc":"2023-06-03T16:28:00Z","fire_cause":"Human","fire_cause_general":"Other causes","map_method":"Mixed Methods","source_dataset":"FFP","unique_fire_identifier":"2023-MIHMF-230231","irwin_id":"{EC54CBDA-ACB7-45C0-A359-F1D035D82C59}","global_id":"c4cba7ba-5b26-4ba7-8ce4-6e0788ec73c8"}},{"type":"Feature","geometry":{"type":"Polygon","coordinates":[[[-86.12968,44.17156],[-86.12888,44.17168],[-86.12865,44.17155],[-86.1288,44.17108],[-86.12846,44.17079],[-86.12878,44.17073],[-86.129,44.17047],[-86.12986,44.17079],[-86.12974,44.171],[-86.13002,44.17113],[-86.12991,44.17127],[-86.12966,44.17126],[-86.12968,44.17156]]]},"properties":{"fire_id":"ufid:2023-MIHMF-230229","source_collection":"history-2023","source_objectid":17292,"incident_name":"Hopscotch","mapped_acres":3.0,"mapped_acres_source":"poly_GISAcres","gis_acres":3.0,"auto_acres":2.391470095585089,"reported_acres":2.5,"percent_contained":null,"state":"MI","state_wfigs":"US-MI","county":"Manistee","discovery_time_utc":"2023-05-28T17:52:00Z","perimeter_time_utc":"2023-06-07T19:32:55Z","perimeter_edit_time_utc":"2023-06-07T19:32:55Z","incident_modified_time_utc":"2023-06-06T15:04:53Z","containment_time_utc":"2023-05-28T22:26:00Z","control_time_utc":"2023-06-06T15:04:00Z","fire_out_time_utc":"2023-06-06T15:04:00Z","fire_cause":"Human","fire_cause_general":"Debris and open burning","map_method":"Auto-generated","source_dataset":"FFP","unique_fire_identifier":"2023-MIHMF-230229","irwin_id":"{43EA9CBA-B984-4EE4-B2F2-729A95C4A974}","global_id":"f149940b-eb2a-4749-b295-c5c1c4d70b49"}},{"type":"Feature","geometry":{"type":"Polygon","coordinates":[[[-86.30433,44.21573],[-86.30436,44.2158],[-86.30426,44.21577],[-86.30433,44.21573]]]},"properties":{"fire_id":"ufid:2023-MIHMF-230244","source_collection":"history-2023","source_objectid":17293,"incident_name":"Old Shack","mapped_acres":0.75,"mapped_acres_source":"poly_GISAcres","gis_acres":0.75,"auto_acres":0.016754104350832775,"reported_acres":0.75,"percent_contained":null,"state":"MI","state_wfigs":"US-MI","county":"Manistee","discovery_time_utc":"2023-05-29T18:09:00Z","perimeter_time_utc":"2023-06-07T19:44:36Z","perimeter_edit_time_utc":"2023-06-07T19:44:37Z","incident_modified_time_utc":"2023-06-01T17:34:42Z","containment_time_utc":"2023-05-29T20:20:00Z","control_time_utc":"2023-05-31T20:03:00Z","fire_out_time_utc":"2023-06-01T17:34:00Z","fire_cause":"Human","fire_cause_general":"Power generation / transmission / distribution","map_method":"Hand Sketch","source_dataset":"FFP","unique_fire_identifier":"2023-MIHMF-230244","irwin_id":"{9EF8768D-400F-4675-804F-0D71BAA89AAF}","global_id":"25fe2700-7e3f-41af-8d4d-74a75e26ddc9"}},{"type":"Feature","geometry":{"type":"MultiPolygon","coordinates":[[[[-85.96203,44.22461],[-85.9617,44.22467],[-85.96158,44.22462],[-85.96203,44.22461]]],[[[-85.96147,44.22462],[-85.96189,44.22479],[-85.96179,44.22508],[-85.9613,44.22504],[-85.96123,44.22471],[-85.96147,44.22462]]]]},"properties":{"fire_id":"ufid:2023-MIHMF-230233","source_collection":"history-2023","source_objectid":17297,"incident_name":"Kitchen","mapped_acres":0.5,"mapped_acres_source":"poly_GISAcres","gis_acres":0.5,"auto_acres":0.5845263340367154,"reported_acres":0.6,"percent_contained":null,"state":"MI","state_wfigs":"US-MI","county":"Manistee","discovery_time_utc":"2023-05-28T20:11:00Z","perimeter_time_utc":"2023-06-07T19:36:05Z","perimeter_edit_time_utc":"2023-06-07T19:36:06Z","incident_modified_time_utc":"2023-06-02T15:36:02Z","containment_time_utc":"2023-05-28T21:30:00Z","control_time_utc":"2023-06-02T14:35:00Z","fire_out_time_utc":"2023-06-02T14:35:00Z","fire_cause":"Human","fire_cause_general":"Debris and open burning","map_method":"Auto-generated","source_dataset":"FFP","unique_fire_identifier":"2023-MIHMF-230233","irwin_id":"{7829126B-4F38-4CDC-B9FB-5767753A5490}","global_id":"efb70beb-63a6-4c63-bcff-9d4c1ed4b155"}},{"type":"Feature","geometry":{"type":"Polygon","coordinates":[[[-85.82407,44.37258],[-85.82415,44.37263],[-85.82407,44.37264],[-85.82407,44.37258]]]},"properties":{"fire_id":"ufid:2023-MIHMF-230260","source_collection":"history-2023","source_objectid":17370,"incident_name":"Woodpecker","mapped_acres":0.1,"mapped_acres_source":"poly_GISAcres","gis_acres":0.1,"auto_acres":0.010508644597082634,"reported_acres":0.1,"percent_contained":null,"state":"MI","state_wfigs":"US-MI","county":"Manistee","discovery_time_utc":"2023-05-31T21:38:00Z","perimeter_time_utc":"2023-06-10T16:43:28Z","perimeter_edit_time_utc":"2023-06-10T16:43:28Z","incident_modified_time_utc":"2023-06-03T14:49:45Z","containment_time_utc":"2023-06-01T01:10:00Z","control_time_utc":null,"fire_out_time_utc":"2023-06-03T14:49:00Z","fire_cause":"Human","fire_cause_general":"Debris and open burning","map_method":"Hand Sketch","source_dataset":"FFP","unique_fire_identifier":"2023-MIHMF-230260","irwin_id":"{65EA4F7E-E0DE-42AF-AA4B-7D6A22D5C5FF}","global_id":"6aad2214-82a5-440c-8555-bb5a9526e716"}},{"type":"Feature","geometry":{"type":"Polygon","coordinates":[[[-85.95878,44.20772],[-85.95882,44.20761],[-85.95926,44.20753],[-85.95959,44.20765],[-85.95972,44.20787],[-85.95927,44.20799],[-85.95878,44.20772]]]},"properties":{"fire_id":"ufid:2023-MIHMF-230270","source_collection":"history-2023","source_objectid":17371,"incident_name":"Wasp","mapped_acres":0.5,"mapped_acres_source":"poly_GISAcres","gis_acres":0.5,"auto_acres":0.5763413738729368,"reported_acres":0.5,"percent_contained":null,"state":"MI","state_wfigs":"US-MI","county":"Manistee","discovery_time_utc":"2023-06-02T19:07:00Z","perimeter_time_utc":"2023-06-10T16:47:59Z","perimeter_edit_time_utc":"2023-06-10T16:47:59Z","incident_modified_time_utc":"2023-06-08T14:49:07Z","containment_time_utc":"2023-06-02T20:34:00Z","control_time_utc":null,"fire_out_time_utc":"2023-06-08T14:48:00Z","fire_cause":"Human","fire_cause_general":"Debris and open burning","map_method":"Auto-generated","source_dataset":"FFP","unique_fire_identifier":"2023-MIHMF-230270","irwin_id":"{73D8F01A-0C5D-4066-A487-2F3E63F4901D}","global_id":"57dc41c2-4601-4d67-be92-fcf3ffb403c7"}},{"type":"Feature","geometry":{"type":"MultiPolygon","coordinates":[[[[-85.79817,43.40916],[-85.79818,43.40905],[-85.79834,43.40915],[-85.79817,43.40916]]],[[[-85.79811,43.40911],[-85.79812,43.40912],[-85.7981,43.40914],[-85.79811,43.40911]]]]},"properties":{"fire_id":"ufid:2023-MIHMF-230210","source_collection":"history-2023","source_objectid":17428,"incident_name":"Apartment","mapped_acres":0.25,"mapped_acres_source":"poly_GISAcres","gis_acres":0.25,"auto_acres":0.054393365436221704,"reported_acres":0.25,"percent_contained":null,"state":"MI","state_wfigs":"US-MI","county":"Newaygo","discovery_time_utc":"2023-05-25T17:58:00Z","perimeter_time_utc":"2023-06-15T18:27:05Z","perimeter_edit_time_utc":"2023-06-15T18:27:06Z","incident_modified_time_utc":"2023-05-28T14:32:57Z","containment_time_utc":"2023-05-25T19:19:00Z","control_time_utc":"2023-05-27T15:25:00Z","fire_out_time_utc":"2023-06-15T18:24:00Z","fire_cause":"Human","fire_cause_general":"Undetermined","map_method":"Auto-generated","source_dataset":"FFP","unique_fire_identifier":"2023-MIHMF-230210","irwin_id":"{8603680C-9A5A-476F-9945-223C12EF8BB6}","global_id":"ca13b06a-f905-4d76-985c-e737babe0366"}},{"type":"Feature","geometry":{"type":"Polygon","coordinates":[[[-85.79568,43.88617],[-85.79624,43.88617],[-85.79585,43.88644],[-85.79568,43.88617]]]},"properties":{"fire_id":"ufid:2023-MIHMF-230213","source_collection":"history-2023","source_objectid":17429,"incident_name":"Dubois","mapped_acres":0.25,"mapped_acres_source":"poly_GISAcres","gis_acres":0.25,"auto_acres":0.19242200962023265,"reported_acres":0.25,"percent_contained":null,"state":"MI","state_wfigs":"US-MI","county":"Lake","discovery_time_utc":"2023-05-26T15:36:00Z","perimeter_time_utc":"2023-06-15T18:09:45Z","perimeter_edit_time_utc":"2023-06-15T18:09:46Z","incident_modified_time_utc":"2023-05-28T14:34:16Z","containment_time_utc":"2023-05-26T18:32:00Z","control_time_utc":"2023-06-06T17:55:00Z","fire_out_time_utc":"2023-06-15T17:55:00Z","fire_cause":"Human","fire_cause_general":"Equipment and vehicle use","map_method":"Mixed Methods","source_dataset":"FFP","unique_fire_identifier":"2023-MIHMF-230213","irwin_id":"{C5DEE899-F7CF-4E76-87E5-70919831E3E3}","global_id":"7423d58d-38d7-4d00-993e-f371a3e51fd2"}},{"type":"Feature","geometry":{"type":"MultiPolygon","coordinates":[[[[-85.62244,43.7516],[-85.62247,43.75163],[-85.62246,43.75165],[-85.62244,43.7516]]],[[[-85.6229,43.75137],[-85.6234,43.75144],[-85.62346,43.75163],[-85.62302,43.75195],[-85.6225,43.75199],[-85.62247,43.75164],[-85.6229,43.75137]]]]},"properties":{"fire_id":"ufid:2023-MIHMF-230361","source_collection":"history-2023","source_objectid":17632,"incident_name":"Cypress","mapped_acres":0.1,"mapped_acres_source":"poly_GISAcres","gis_acres":0.1,"auto_acres":1.01662105688653,"reported_acres":1.0,"percent_contained":null,"state":"MI","state_wfigs":"US-MI","county":"Newaygo","discovery_time_utc":"2023-06-22T18:11:18Z","perimeter_time_utc":"2023-06-22T23:11:18Z","perimeter_edit_time_utc":"2023-06-23T17:09:18Z","incident_modified_time_utc":"2023-10-02T15:19:41Z","containment_time_utc":"2023-06-22T19:08:00Z","control_time_utc":null,"fire_out_time_utc":"2023-08-01T18:04:00Z","fire_cause":"Human","fire_cause_general":null,"map_method":"Auto-generated","source_dataset":"2023 NIFS","unique_fire_identifier":"2023-MIHMF-230361","irwin_id":"{1E0D3CD1-008A-435A-92FB-7D7479E3468E}","global_id":"b280e714-30ec-46ed-b057-901226cf7df4"}},{"type":"Feature","geometry":{"type":"Polygon","coordinates":[[[-85.87778,43.99653],[-85.87812,43.99685],[-85.87811,43.99711],[-85.87798,43.9972],[-85.87769,43.99718],[-85.87743,43.99686],[-85.87778,43.99653]]]},"properties":{"fire_id":"ufid:2023-MIHMF-230221","source_collection":"history-2023","source_objectid":17669,"incident_name":"Peacock","mapped_acres":0.711001603410298,"mapped_acres_source":"poly_Acres_AutoCalc_fallback","gis_acres":null,"auto_acres":0.711001603410298,"reported_acres":0.75,"percent_contained":null,"state":"MI","state_wfigs":"US-MI","county":"Lake","discovery_time_utc":"2023-05-27T18:21:00Z","perimeter_time_utc":"2023-06-25T14:39:36Z","perimeter_edit_time_utc":"2023-06-25T14:39:36Z","incident_modified_time_utc":"2023-06-01T15:54:50Z","containment_time_utc":"2023-05-27T22:00:00Z","control_time_utc":"2023-06-01T15:54:00Z","fire_out_time_utc":"2023-06-25T14:37:00Z","fire_cause":"Human","fire_cause_general":"Equipment and vehicle use","map_method":"Mixed Methods","source_dataset":"FFP","unique_fire_identifier":"2023-MIHMF-230221","irwin_id":"{C1A3E233-AD06-416B-9739-E17CB49183E0}","global_id":"050785ed-f811-4f5d-9777-356e549d4dba"}},{"type":"Feature","geometry":{"type":"Polygon","coordinates":[[[-85.93061,43.93004],[-85.93072,43.92995],[-85.93079,43.93003],[-85.93061,43.93004]]]},"properties":{"fire_id":"ufid:2023-MIHMF-230263","source_collection":"history-2023","source_objectid":17670,"incident_name":"Nudgent","mapped_acres":0.1,"mapped_acres_source":"poly_GISAcres","gis_acres":0.1,"auto_acres":0.02554774830033447,"reported_acres":0.1,"percent_contained":null,"state":"MI","state_wfigs":"US-MI","county":"Lake","discovery_time_utc":"2023-06-01T19:48:00Z","perimeter_time_utc":"2023-06-25T15:56:08Z","perimeter_edit_time_utc":"2023-06-25T15:56:09Z","incident_modified_time_utc":"2023-06-05T19:15:38Z","containment_time_utc":"2023-06-01T20:28:00Z","control_time_utc":"2023-06-05T19:15:00Z","fire_out_time_utc":"2023-06-25T15:54:50Z","fire_cause":"Human","fire_cause_general":"Power generation / transmission / distribution","map_method":"Hand Sketch","source_dataset":"FFP","unique_fire_identifier":"2023-MIHMF-230263","irwin_id":"{6B26C601-12A2-4B59-BE01-1E418343F160}","global_id":"bf4c0a80-adf6-445c-9e37-2ce28b4d30e3"}},{"type":"Feature","geometry":{"type":"Polygon","coordinates":[[[-85.60597,43.62719],[-85.60554,43.62725],[-85.60562,43.62712],[-85.60582,43.62712],[-85.60597,43.62719]]]},"properties":{"fire_id":"ufid:2023-MIHMF-230262","source_collection":"history-2023","source_objectid":17671,"incident_name":"Cattail","mapped_acres":0.1,"mapped_acres_source":"poly_GISAcres","gis_acres":0.1,"auto_acres":0.10195534903655996,"reported_acres":0.25,"percent_contained":null,"state":"MI","state_wfigs":"US-MI","county":"Newaygo","discovery_time_utc":"2023-06-01T14:55:00Z","perimeter_time_utc":"2023-06-25T15:44:50Z","perimeter_edit_time_utc":"2023-06-25T15:44:51Z","incident_modified_time_utc":"2023-06-05T20:26:06Z","containment_time_utc":"2023-06-01T15:52:00Z","control_time_utc":"2023-06-05T20:25:00Z","fire_out_time_utc":"2023-06-25T15:13:00Z","fire_cause":"Human","fire_cause_general":"Equipment and vehicle use","map_method":"Hand Sketch","source_dataset":"FFP","unique_fire_identifier":"2023-MIHMF-230262","irwin_id":"{24B9D054-8B68-45F1-83C2-960A740F7476}","global_id":"87cb0168-f898-496b-bfda-68f0c1afb83d"}},{"type":"Feature","geometry":{"type":"Polygon","coordinates":[[[-85.85837,43.86283],[-85.858,43.86287],[-85.85775,43.86175],[-85.85833,43.86176],[-85.85869,43.86197],[-85.85914,43.86182],[-85.85939,43.86208],[-85.85932,43.86236],[-85.85837,43.86283]]]},"properties":{"fire_id":"ufid:2023-MIHMF-230284","source_collection":"history-2023","source_objectid":17838,"incident_name":"Train Track","mapped_acres":2.5,"mapped_acres_source":"poly_GISAcres","gis_acres":2.5,"auto_acres":2.846968960639635,"reported_acres":2.5,"percent_contained":null,"state":"MI","state_wfigs":"US-MI","county":"Lake","discovery_time_utc":"2023-06-04T01:57:00Z","perimeter_time_utc":"2023-07-02T15:32:02Z","perimeter_edit_time_utc":"2023-07-02T15:32:02Z","incident_modified_time_utc":"2023-06-11T19:46:02Z","containment_time_utc":"2023-06-04T18:39:00Z","control_time_utc":"2023-06-11T19:45:00Z","fire_out_time_utc":"2023-07-02T15:24:00Z","fire_cause":"Human","fire_cause_general":"Power generation / transmission / distribution","map_method":"Auto-generated","source_dataset":"FFP","unique_fire_identifier":"2023-MIHMF-230284","irwin_id":"{8D352F2F-6059-4027-8B06-F1BBB12691F0}","global_id":"50acd1bc-f94f-451e-9a6d-a625f55d5c97"}},{"type":"Feature","geometry":{"type":"Polygon","coordinates":[[[-85.66186,43.54418],[-85.66165,43.54423],[-85.66149,43.54398],[-85.66151,43.54378],[-85.66178,43.54358],[-85.6619,43.54368],[-85.66186,43.54418]]]},"properties":{"fire_id":"ufid:2023-MIHMF-230287","source_collection":"history-2023","source_objectid":17840,"incident_name":"Locust","mapped_acres":1.0,"mapped_acres_source":"poly_GISAcres","gis_acres":1.0,"auto_acres":0.46487467659868986,"reported_acres":0.46,"percent_contained":null,"state":"MI","state_wfigs":"US-MI","county":"Newaygo","discovery_time_utc":"2023-06-04T14:28:00Z","perimeter_time_utc":"2023-07-02T16:09:34Z","perimeter_edit_time_utc":"2023-07-02T16:09:34Z","incident_modified_time_utc":"2023-06-08T17:03:30Z","containment_time_utc":"2023-06-04T16:02:00Z","control_time_utc":"2023-06-08T17:03:00Z","fire_out_time_utc":"2023-07-02T16:06:00Z","fire_cause":"Human","fire_cause_general":"Power generation / transmission / distribution","map_method":"Auto-generated","source_dataset":"FFP","unique_fire_identifier":"2023-MIHMF-230287","irwin_id":"{B3A637EB-FA6B-4379-8764-9E300514DF8B}","global_id":"e01608db-e92f-48d7-a0c4-9a0a1c50b7a4"}},{"type":"Feature","geometry":{"type":"Polygon","coordinates":[[[-86.21731,43.95031],[-86.21763,43.95043],[-86.21743,43.95054],[-86.21731,43.95031]]]},"properties":{"fire_id":"ufid:2023-MIHMF-230291","source_collection":"history-2023","source_objectid":17841,"incident_name":"Jerky","mapped_acres":0.1,"mapped_acres_source":"poly_GISAcres","gis_acres":0.1,"auto_acres":0.09898354922115248,"reported_acres":0.1,"percent_contained":null,"state":"MI","state_wfigs":"US-MI","county":"Mason","discovery_time_utc":"2023-06-05T21:02:00Z","perimeter_time_utc":"2023-07-02T16:19:19Z","perimeter_edit_time_utc":"2023-07-02T16:19:19Z","incident_modified_time_utc":"2023-06-13T21:35:54Z","containment_time_utc":"2023-06-05T21:39:00Z","control_time_utc":"2023-06-13T21:35:00Z","fire_out_time_utc":"2023-07-02T16:18:25Z","fire_cause":"Human","fire_cause_general":"Debris and open burning","map_method":"Hand Sketch","source_dataset":"FFP","unique_fire_identifier":"2023-MIHMF-230291","irwin_id":"{8DC04AE9-D8D3-4D01-B679-888657B18F44}","global_id":"339ed5b1-b3ed-4518-9b89-7a26dd987cd8"}},{"type":"Feature","geometry":{"type":"Polygon","coordinates":[[[-85.854,43.92772],[-85.8541,43.92764],[-85.85409,43.92774],[-85.854,43.92772]]]},"properties":{"fire_id":"ufid:2023-MIHMF-230303","source_collection":"history-2023","source_objectid":17843,"incident_name":"Ontario","mapped_acres":0.1,"mapped_acres_source":"poly_GISAcres","gis_acres":0.1,"auto_acres":0.01474937619440975,"reported_acres":0.1,"percent_contained":null,"state":"MI","state_wfigs":"US-MI","county":"Lake","discovery_time_utc":"2023-06-08T18:45:00Z","perimeter_time_utc":"2023-07-02T16:30:44Z","perimeter_edit_time_utc":"2023-07-02T16:30:45Z","incident_modified_time_utc":"2023-06-10T13:54:06Z","containment_time_utc":"2023-06-08T19:18:00Z","control_time_utc":"2023-06-10T13:53:00Z","fire_out_time_utc":"2023-07-02T16:29:00Z","fire_cause":"Human","fire_cause_general":"Other causes","map_method":"Hand Sketch","source_dataset":"FFP","unique_fire_identifier":"2023-MIHMF-230303","irwin_id":"{378D820A-1A7B-4424-BC1A-B84D9D9C74A6}","global_id":"4e1bb1c0-18d6-47cb-8083-563d6a51d42e"}},{"type":"Feature","geometry":{"type":"Polygon","coordinates":[[[-85.6795,43.65977],[-85.68035,43.65977],[-85.67993,43.6603],[-85.67927,43.66048],[-85.67935,43.66054],[-85.67923,43.6607],[-85.67891,43.66062],[-85.6795,43.65977]],[[-85.67925,43.66047],[-85.67917,43.66047],[-85.67906,43.66053],[-85.67925,43.66047]]]},"properties":{"fire_id":"ufid:2023-MIHMF-230308","source_collection":"history-2023","source_objectid":17847,"incident_name":"Six Pack","mapped_acres":0.5,"mapped_acres_source":"poly_GISAcres","gis_acres":0.5,"auto_acres":1.3256637049416724,"reported_acres":0.5,"percent_contained":null,"state":"MI","state_wfigs":"US-MI","county":"Newaygo","discovery_time_utc":"2023-06-09T18:19:00Z","perimeter_time_utc":"2023-07-02T17:21:04Z","perimeter_edit_time_utc":"2023-07-02T17:21:04Z","incident_modified_time_utc":"2023-06-15T17:40:30Z","containment_time_utc":"2023-06-09T19:00:00Z","control_time_utc":"2023-06-15T17:40:00Z","fire_out_time_utc":"2023-07-02T17:16:00Z","fire_cause":"Human","fire_cause_general":"Firearms and explosives use","map_method":"Auto-generated","source_dataset":"FFP","unique_fire_identifier":"2023-MIHMF-230308","irwin_id":"{C6F58A7B-3B5C-46D0-BFA7-A168B6C7A41E}","global_id":"5a1c1e5b-b5d6-42dd-b9ab-3f108be5d99f"}},{"type":"Feature","geometry":{"type":"Polygon","coordinates":[[[-85.71351,43.5397],[-85.71355,43.53899],[-85.7139,43.53874],[-85.71415,43.53924],[-85.71383,43.53974],[-85.71351,43.5397]]]},"properties":{"fire_id":"ufid:2023-MIHMF-230326","source_collection":"history-2023","source_objectid":17848,"incident_name":"Hay","mapped_acres":0.5,"mapped_acres_source":"poly_GISAcres","gis_acres":0.5,"auto_acres":1.0244797619069113,"reported_acres":0.5,"percent_contained":null,"state":"MI","state_wfigs":"US-MI","county":"Newaygo","discovery_time_utc":"2023-06-16T17:57:00Z","perimeter_time_utc":"2023-07-02T17:27:26Z","perimeter_edit_time_utc":"2023-07-02T17:27:26Z","incident_modified_time_utc":"2023-06-16T20:24:16Z","containment_time_utc":"2023-06-16T18:13:00Z","control_time_utc":"2023-06-23T18:12:00Z","fire_out_time_utc":"2023-07-02T17:24:00Z","fire_cause":"Human","fire_cause_general":"Debris and open burning","map_method":"Auto-generated","source_dataset":"FFP","unique_fire_identifier":"2023-MIHMF-230326","irwin_id":"{69591003-189A-42AF-8DED-16AB7A953919}","global_id":"a9a762a3-595e-4850-b6ef-bb138a305d40"}},{"type":"Feature","geometry":{"type":"MultiPolygon","coordinates":[[[[-86.20002,44.2914],[-86.20007,44.29139],[-86.20004,44.29141],[-86.20002,44.2914]]],[[[-86.20505,44.29026],[-86.2058,44.29076],[-86.20555,44.29114],[-86.20568,44.2913],[-86.20656,44.29077],[-86.20754,44.29082],[-86.20819,44.29122],[-86.20823,44.29147],[-86.20811,44.29159],[-86.20832,44.29203],[-86.20843,44.29194],[-86.2093,44.29214],[-86.20926,44.29251],[-86.20902,44.29274],[-86.20876,44.29264],[-86.20761,44.29271],[-86.20744,44.29278],[-86.20746,44.29326],[-86.2064,44.29332],[-86.20608,44.29323],[-86.20587,44.29294],[-86.20551,44.29287],[-86.20564,44.29266],[-86.20557,44.29257],[-86.20495,44.2925],[-86.20483,44.29341],[-86.20543,44.29377],[-86.20494,44.294],[-86.20497,44.29421],[-86.20481,44.29428],[-86.20402,44.29381],[-86.20374,44.29391],[-86.20347,44.29377],[-86.20328,44.29385],[-86.20317,44.29297],[-86.20118,44.293],[-86.2007,44.29269],[-86.20018,44.29259],[-86.20003,44.29227],[-86.19984,44.29218],[-86.19996,44.2915],[-86.2002,44.29126],[-86.20236,44.29124],[-86.20307,44.29032],[-86.20414,44.29015],[-86.20458,44.29036],[-86.20505,44.29026]]]]},"properties":{"fire_id":"ufid:2023-MIHMF-230286","source_collection":"history-2023","source_objectid":18023,"incident_name":"River Road","mapped_acres":20.0,"mapped_acres_source":"poly_GISAcres","gis_acres":20.0,"auto_acres":43.35266960423454,"reported_acres":44.0,"percent_contained":null,"state":"MI","state_wfigs":"US-MI","county":"Manistee","discovery_time_utc":"2023-06-04T14:47:00Z","perimeter_time_utc":"2023-07-17T20:24:03Z","perimeter_edit_time_utc":"2023-07-17T20:24:03Z","incident_modified_time_utc":"2023-07-06T21:03:36Z","containment_time_utc":"2023-06-04T19:05:00Z","control_time_utc":"2023-06-14T22:51:00Z","fire_out_time_utc":"2023-07-06T21:00:00Z","fire_cause":"Natural","fire_cause_general":"Natural","map_method":"Auto-generated","source_dataset":"FFP","unique_fire_identifier":"2023-MIHMF-230286","irwin_id":"{0F5E8373-0B50-4240-889A-6484A801ADAE}","global_id":"b57a7c66-946e-43d7-9245-6aa818557668"}},{"type":"Feature","geometry":{"type":"Polygon","coordinates":[[[-86.03329,44.23203],[-86.03375,44.2321],[-86.03368,44.23221],[-86.03333,44.23222],[-86.03329,44.23203]]]},"properties":{"fire_id":"ufid:2023-MIHMF-230394","source_collection":"history-2023","source_objectid":18173,"incident_name":"Jacobsen","mapped_acres":0.1,"mapped_acres_source":"poly_GISAcres","gis_acres":0.1,"auto_acres":0.19068650864333242,"reported_acres":0.1,"percent_contained":null,"state":"MI","state_wfigs":"US-MI","county":"Manistee","discovery_time_utc":"2023-07-05T19:54:35Z","perimeter_time_utc":"2023-07-17T20:57:48Z","perimeter_edit_time_utc":"2023-07-17T20:57:48Z","incident_modified_time_utc":"2023-07-17T20:39:33Z","containment_time_utc":"2023-07-05T21:45:00Z","control_time_utc":"2023-07-10T14:24:00Z","fire_out_time_utc":"2023-07-17T20:30:00Z","fire_cause":"Human","fire_cause_general":"Equipment and vehicle use","map_method":"Hand Sketch","source_dataset":"FFP","unique_fire_identifier":"2023-MIHMF-230394","irwin_id":"{B70B61F5-1725-4149-8865-C214BE836566}","global_id":"4947f775-b2aa-48b6-a81e-5c629bf357b8"}},{"type":"Feature","geometry":{"type":"Polygon","coordinates":[[[-85.95832,44.14069],[-85.95828,44.14064],[-85.95847,44.14065],[-85.95832,44.14069]]]},"properties":{"fire_id":"ufid:2023-MIHMF-230385","source_collection":"history-2023","source_objectid":18174,"incident_name":"10 1/2","mapped_acres":0.03,"mapped_acres_source":"poly_GISAcres","gis_acres":0.03,"auto_acres":0.027628185212153832,"reported_acres":0.1,"percent_contained":null,"state":"MI","state_wfigs":"US-MI","county":"Lake","discovery_time_utc":"2023-07-01T17:41:38Z","perimeter_time_utc":"2023-07-17T20:50:21Z","perimeter_edit_time_utc":"2023-07-17T20:50:21Z","incident_modified_time_utc":"2023-07-13T20:34:47Z","containment_time_utc":"2023-07-01T18:52:00Z","control_time_utc":"2023-07-05T17:47:00Z","fire_out_time_utc":"2023-07-13T20:34:00Z","fire_cause":"Human","fire_cause_general":"Fireworks","map_method":"Hand Sketch","source_dataset":"FFP","unique_fire_identifier":"2023-MIHMF-230385","irwin_id":"{17E8E49C-9B8D-4C89-9827-11E8328A7DD4}","global_id":"8c3a212f-83bb-4dc1-b4d1-41c77148c9e9"}},{"type":"Feature","geometry":{"type":"Polygon","coordinates":[[[-85.95888,44.14068],[-85.9589,44.14061],[-85.959,44.14064],[-85.95888,44.14068]]]},"properties":{"fire_id":"ufid:2023-MIHMF-230386","source_collection":"history-2023","source_objectid":18743,"incident_name":"Harper","mapped_acres":0.01,"mapped_acres_source":"poly_GISAcres","gis_acres":0.01,"auto_acres":0.01468040264285793,"reported_acres":0.1,"percent_contained":null,"state":"MI","state_wfigs":"US-MI","county":"Lake","discovery_time_utc":"2023-07-01T18:41:00Z","perimeter_time_utc":"2023-07-30T16:57:58Z","perimeter_edit_time_utc":"2023-07-30T16:57:59Z","incident_modified_time_utc":"2023-07-06T15:18:30Z","containment_time_utc":"2023-07-01T18:58:00Z","control_time_utc":"2023-07-06T15:18:00Z","fire_out_time_utc":"2023-07-13T20:36:00Z","fire_cause":"Human","fire_cause_general":"Fireworks","map_method":"Hand Sketch","source_dataset":"FFP","unique_fire_identifier":"2023-MIHMF-230386","irwin_id":"{BD69BC67-6E9E-453C-90D7-C698A856699E}","global_id":"d0077a8d-8945-42c3-84b9-54f8622114e3"}},{"type":"Feature","geometry":{"type":"MultiPolygon","coordinates":[[[[-85.5788,43.48387],[-85.57974,43.48517],[-85.57889,43.48461],[-85.57868,43.48382],[-85.57997,43.48359],[-85.5808,43.48384],[-85.5788,43.48387]]],[[[-85.58087,43.48387],[-85.58077,43.484],[-85.58079,43.48387],[-85.58087,43.48387]]],[[[-85.58077,43.484],[-85.58069,43.48454],[-85.58037,43.48516],[-85.57984,43.48518],[-85.58077,43.484]]]]},"properties":{"fire_id":"ufid:2023-MIHMF-230310","source_collection":"history-2023","source_objectid":19630,"incident_name":"Beech","mapped_acres":3.0,"mapped_acres_source":"poly_GISAcres","gis_acres":3.0,"auto_acres":2.30830606565865,"reported_acres":2.0,"percent_contained":null,"state":"MI","state_wfigs":"US-MI","county":"Newaygo","discovery_time_utc":"2023-06-10T15:47:00Z","perimeter_time_utc":"2023-08-16T18:20:34Z","perimeter_edit_time_utc":"2023-08-16T18:20:34Z","incident_modified_time_utc":"2023-10-02T15:11:24Z","containment_time_utc":"2023-06-10T16:19:00Z","control_time_utc":"2023-06-17T15:46:00Z","fire_out_time_utc":"2023-08-01T18:17:00Z","fire_cause":"Human","fire_cause_general":null,"map_method":"Auto-generated","source_dataset":"Decertified","unique_fire_identifier":"2023-MIHMF-230310","irwin_id":"{D4307E65-3F5F-478F-955D-D4939B27280C}","global_id":"d776ae65-5a2d-4ffd-9bc0-9ea77ba3e853"}},{"type":"Feature","geometry":{"type":"Polygon","coordinates":[[[-85.85415,43.85146],[-85.85424,43.85145],[-85.85416,43.85153],[-85.85415,43.85146]]]},"properties":{"fire_id":"ufid:2023-MIHMF-230406","source_collection":"history-2023","source_objectid":19634,"incident_name":"Oakland","mapped_acres":0.1,"mapped_acres_source":"poly_GISAcres","gis_acres":0.1,"auto_acres":0.011947546167923788,"reported_acres":0.1,"percent_contained":null,"state":"MI","state_wfigs":"US-MI","county":"Lake","discovery_time_utc":"2023-07-09T22:04:43Z","perimeter_time_utc":"2023-08-16T18:52:22Z","perimeter_edit_time_utc":"2023-08-16T18:52:23Z","incident_modified_time_utc":"2023-08-15T15:01:35Z","containment_time_utc":"2023-07-09T22:28:00Z","control_time_utc":"2023-07-12T21:07:00Z","fire_out_time_utc":"2023-08-15T15:00:00Z","fire_cause":"Human","fire_cause_general":"Debris and open burning","map_method":"Hand Sketch","source_dataset":"FFP","unique_fire_identifier":"2023-MIHMF-230406","irwin_id":"{A2900400-09D5-484C-99D9-E00D9DFF19F2}","global_id":"1c1d8961-7087-466d-9448-f4a002df53e8"}},{"type":"Feature","geometry":{"type":"Polygon","coordinates":[[[-86.297,44.20905],[-86.2975,44.21024],[-86.29797,44.21029],[-86.29819,44.21013],[-86.29863,44.21014],[-86.29868,44.21046],[-86.29904,44.21076],[-86.29889,44.21114],[-86.29865,44.21119],[-86.2986,44.21141],[-86.29848,44.2114],[-86.29855,44.21156],[-86.29793,44.21197],[-86.29778,44.21153],[-86.29717,44.2111],[-86.29651,44.21008],[-86.29642,44.20938],[-86.29622,44.20908],[-86.29668,44.20889],[-86.297,44.20905]]]},"properties":{"fire_id":"ufid:2023-MIHMF-230415","source_collection":"history-2023","source_objectid":19699,"incident_name":"Stronach Road","mapped_acres":15.0,"mapped_acres_source":"poly_GISAcres","gis_acres":15.0,"auto_acres":7.6319474083170755,"reported_acres":7.6,"percent_contained":null,"state":"MI","state_wfigs":"US-MI","county":"Manistee","discovery_time_utc":"2023-07-11T16:32:53Z","perimeter_time_utc":"2023-08-17T13:36:15Z","perimeter_edit_time_utc":"2023-08-17T13:36:16Z","incident_modified_time_utc":"2023-08-17T13:27:16Z","containment_time_utc":"2023-07-11T22:14:00Z","control_time_utc":"2023-08-17T13:26:00Z","fire_out_time_utc":"2023-08-17T13:26:00Z","fire_cause":"Human","fire_cause_general":"Equipment and vehicle use","map_method":"Auto-generated","source_dataset":"FFP","unique_fire_identifier":"2023-MIHMF-230415","irwin_id":"{A45DDEFC-063E-4FF8-B4AF-7B2AE9ECB83E}","global_id":"c6005ff6-1855-40a4-8ccb-ed2528934f8d"}},{"type":"Feature","geometry":{"type":"MultiPolygon","coordinates":[[[[-85.95863,44.91861],[-85.95871,44.91879],[-85.95835,44.91892],[-85.9585,44.91909],[-85.95841,44.9194],[-85.95773,44.91968],[-85.95697,44.91947],[-85.95707,44.91915],[-85.95697,44.91903],[-85.9562,44.91892],[-85.95588,44.9187],[-85.95594,44.91827],[-85.95578,44.91803],[-85.95579,44.91771],[-85.95516,44.91702],[-85.95527,44.91661],[-85.95547,44.91661],[-85.95547,44.9168],[-85.95572,44.91682],[-85.95631,44.91659],[-85.95637,44.91643],[-85.95674,44.91663],[-85.95696,44.91658],[-85.95721,44.91694],[-85.95749,44.91703],[-85.95774,44.91751],[-85.95802,44.91757],[-85.95747,44.91778],[-85.95797,44.91794],[-85.95836,44.91834],[-85.9588,44.91854],[-85.95863,44.91861]]],[[[-85.9588,44.91854],[-85.95882,44.91852],[-85.9588,44.91855],[-85.9588,44.91854]]]]},"properties":{"fire_id":"ufid:2023-MISDP-230069","source_collection":"history-2023","source_objectid":19704,"incident_name":"Thorenson Fire","mapped_acres":13.43002753098729,"mapped_acres_source":"poly_Acres_AutoCalc_fallback","gis_acres":null,"auto_acres":13.43002753098729,"reported_acres":13.0,"percent_contained":null,"state":"MI","state_wfigs":"US-MI","county":"Leelanau","discovery_time_utc":"2023-04-12T16:30:00Z","perimeter_time_utc":"2023-12-13T20:59:09Z","perimeter_edit_time_utc":"2023-12-13T20:59:09Z","incident_modified_time_utc":"2023-07-11T11:58:40Z","containment_time_utc":null,"control_time_utc":"2023-06-21T20:00:00Z","fire_out_time_utc":"2023-07-10T20:00:00Z","fire_cause":"Human","fire_cause_general":"Power generation / transmission / distribution","map_method":"Mixed Methods","source_dataset":"FFP","unique_fire_identifier":"2023-MISDP-230069","irwin_id":"{E5A41A8C-1AB8-45E7-9C8E-D9DDD37013F0}","global_id":"e1f2f902-8eda-404f-9623-c812370d7a28"}},{"type":"Feature","geometry":{"type":"MultiPolygon","coordinates":[[[[-85.69067,44.19447],[-85.69128,44.19456],[-85.69071,44.19455],[-85.69067,44.19447]]],[[[-85.69142,44.19454],[-85.69154,44.1946],[-85.69128,44.19456],[-85.69142,44.19454]]],[[[-85.69071,44.19455],[-85.69073,44.19456],[-85.69071,44.19456],[-85.69071,44.19455]]],[[[-85.69065,44.19455],[-85.6908,44.19463],[-85.69035,44.1947],[-85.69065,44.19455]]],[[[-85.69187,44.19456],[-85.69181,44.19466],[-85.69154,44.1946],[-85.69187,44.19456]]]]},"properties":{"fire_id":"ufid:2023-MIHMF-230456","source_collection":"history-2023","source_objectid":19717,"incident_name":"Straight stream","mapped_acres":0.1,"mapped_acres_source":"poly_GISAcres","gis_acres":0.1,"auto_acres":0.2407502874759059,"reported_acres":1.0,"percent_contained":null,"state":"MI","state_wfigs":"US-MI","county":"Wexford","discovery_time_utc":"2023-08-04T19:18:17Z","perimeter_time_utc":"2023-08-17T19:46:28Z","perimeter_edit_time_utc":"2023-08-17T19:46:28Z","incident_modified_time_utc":"2023-08-15T15:01:53Z","containment_time_utc":"2023-08-04T20:59:00Z","control_time_utc":"2023-08-08T19:35:00Z","fire_out_time_utc":"2023-08-15T15:00:00Z","fire_cause":"Human","fire_cause_general":"Power generation / transmission / distribution","map_method":"Auto-generated","source_dataset":"FFP","unique_fire_identifier":"2023-MIHMF-230456","irwin_id":"{E6AEFF1A-058E-4327-85F8-2721CE718042}","global_id":"125ce624-7963-4734-ae56-b66ba68bf466"}},{"type":"Feature","geometry":{"type":"Polygon","coordinates":[[[-86.30224,44.11301],[-86.30252,44.11301],[-86.30287,44.1127],[-86.30328,44.11281],[-86.30418,44.11337],[-86.30445,44.113],[-86.30463,44.11296],[-86.30508,44.11338],[-86.30483,44.114],[-86.30435,44.11445],[-86.30359,44.11478],[-86.30268,44.11495],[-86.30229,44.11484],[-86.30223,44.1147],[-86.30245,44.11436],[-86.30261,44.11345],[-86.30256,44.11313],[-86.30227,44.11311],[-86.30224,44.11301]]]},"properties":{"fire_id":"ufid:2023-MIHMF-230495","source_collection":"history-2023","source_objectid":22905,"incident_name":"La Salle","mapped_acres":8.0,"mapped_acres_source":"poly_GISAcres","gis_acres":8.0,"auto_acres":8.942217080551616,"reported_acres":8.94,"percent_contained":null,"state":"MI","state_wfigs":"US-MI","county":"Mason","discovery_time_utc":"2023-11-15T18:01:56Z","perimeter_time_utc":"2024-09-14T11:10:24Z","perimeter_edit_time_utc":"2024-09-14T11:10:24Z","incident_modified_time_utc":"2023-11-27T16:15:41Z","containment_time_utc":"2023-11-15T21:30:00Z","control_time_utc":"2023-11-27T05:00:00Z","fire_out_time_utc":"2023-11-27T16:15:00Z","fire_cause":"Human","fire_cause_general":"Debris and open burning","map_method":"GPS-Walked","source_dataset":"FFP","unique_fire_identifier":"2023-MIHMF-230495","irwin_id":"{DC099777-566C-429A-8200-FD407DFDC03B}","global_id":"6b83390b-8805-4903-aa27-756921f7fbd7"}},{"type":"Feature","geometry":{"type":"Polygon","coordinates":[[[-85.95212,43.83243],[-85.95278,43.83243],[-85.95271,43.83266],[-85.95245,43.83284],[-85.95224,43.83273],[-85.95212,43.83243]]]},"properties":{"fire_id":"ufid:2023-MIHMF-230497","source_collection":"history-2023","source_objectid":22972,"incident_name":"Minising","mapped_acres":0.3,"mapped_acres_source":"poly_GISAcres","gis_acres":0.3,"auto_acres":0.45068902392760535,"reported_acres":0.3,"percent_contained":null,"state":"MI","state_wfigs":"US-MI","county":"Lake","discovery_time_utc":"2023-11-20T17:47:26Z","perimeter_time_utc":"2024-09-14T11:08:49Z","perimeter_edit_time_utc":"2024-09-14T11:08:49Z","incident_modified_time_utc":"2023-11-27T16:14:48Z","containment_time_utc":"2023-11-20T18:35:00Z","control_time_utc":"2023-11-20T18:35:00Z","fire_out_time_utc":"2023-11-27T16:14:00Z","fire_cause":"Human","fire_cause_general":"Debris and open burning","map_method":"Hand Sketch","source_dataset":"FFP","unique_fire_identifier":"2023-MIHMF-230497","irwin_id":"{120A187B-5752-425C-B7F8-9AEFFFA166DF}","global_id":"39f276a6-56a3-4888-bcc5-460287bc1bad"}},{"type":"Feature","geometry":{"type":"Polygon","coordinates":[[[-85.82993,43.88524],[-85.82993,43.88576],[-85.82947,43.88575],[-85.82948,43.88523],[-85.82993,43.88524]]]},"properties":{"fire_id":"ufid:2023-MIHMF-230476","source_collection":"history-2023","source_objectid":22974,"incident_name":"Dill","mapped_acres":0.09,"mapped_acres_source":"poly_GISAcres","gis_acres":0.09,"auto_acres":0.5279646889314715,"reported_acres":0.5,"percent_contained":null,"state":"MI","state_wfigs":"US-MI","county":"Lake","discovery_time_utc":"2023-09-09T15:00:00Z","perimeter_time_utc":"2023-11-30T15:50:21Z","perimeter_edit_time_utc":"2023-11-30T15:50:22Z","incident_modified_time_utc":"2023-09-13T17:01:56Z","containment_time_utc":"2023-09-11T15:02:00Z","control_time_utc":"2023-09-13T17:01:00Z","fire_out_time_utc":"2023-09-25T14:14:00Z","fire_cause":"Human","fire_cause_general":"Debris and open burning","map_method":"Hand Sketch","source_dataset":"FFP","unique_fire_identifier":"2023-MIHMF-230476","irwin_id":"{CE7EEE3C-2BF9-4C06-8B19-AE271C6BA3EB}","global_id":"a7a83885-acd9-4cd7-b601-d97a4483f33a"}},{"type":"Feature","geometry":{"type":"Polygon","coordinates":[[[-86.15807,44.15744],[-86.15862,44.15756],[-86.1589,44.15781],[-86.1591,44.15846],[-86.1588,44.15897],[-86.1583,44.15932],[-86.15843,44.15974],[-86.15826,44.16005],[-86.1579,44.16009],[-86.15762,44.15996],[-86.15738,44.1593],[-86.15776,44.15805],[-86.15768,44.15763],[-86.15807,44.15744]]]},"properties":{"fire_id":"ufid:2023-MIHMF-230484","source_collection":"history-2023","source_objectid":23711,"incident_name":"After Hours","mapped_acres":5.5,"mapped_acres_source":"poly_GISAcres","gis_acres":5.5,"auto_acres":6.321426930690476,"reported_acres":6.32,"percent_contained":null,"state":"MI","state_wfigs":"US-MI","county":"Mason","discovery_time_utc":"2023-10-03T21:53:50Z","perimeter_time_utc":"2024-09-14T11:10:48Z","perimeter_edit_time_utc":"2024-09-14T11:10:48Z","incident_modified_time_utc":"2023-10-19T18:10:12Z","containment_time_utc":"2023-10-04T15:12:00Z","control_time_utc":"2023-10-10T19:20:00Z","fire_out_time_utc":"2023-10-10T19:21:00Z","fire_cause":"Human","fire_cause_general":"Equipment and vehicle use","map_method":"Hand Sketch","source_dataset":"FFP","unique_fire_identifier":"2023-MIHMF-230484","irwin_id":"{B4FE5BDC-CFBE-4030-A79F-0249AF52B482}","global_id":"bc831fc5-1def-42c8-880f-609b0a8b4a56"}},{"type":"Feature","geometry":{"type":"Polygon","coordinates":[[[-85.85117,43.96637],[-85.85067,43.96633],[-85.85044,43.96613],[-85.8509,43.96603],[-85.85091,43.96618],[-85.85117,43.96637]]]},"properties":{"fire_id":"ufid:2023-MIHMF-230460","source_collection":"history-2023","source_objectid":42251,"incident_name":"Hat Trick","mapped_acres":0.1,"mapped_acres_source":"poly_GISAcres","gis_acres":0.1,"auto_acres":0.2671095445484732,"reported_acres":0.25,"percent_contained":null,"state":"MI","state_wfigs":"US-MI","county":"Lake","discovery_time_utc":"2023-08-10T15:09:00Z","perimeter_time_utc":"2023-08-10T20:09:00Z","perimeter_edit_time_utc":"2023-08-12T17:25:44Z","incident_modified_time_utc":"2023-10-02T15:21:50Z","containment_time_utc":"2023-08-15T19:28:00Z","control_time_utc":"2023-08-15T19:28:00Z","fire_out_time_utc":"2023-09-13T14:56:00Z","fire_cause":"Human","fire_cause_general":null,"map_method":"Auto-generated","source_dataset":"2023 NIFS","unique_fire_identifier":"2023-MIHMF-230460","irwin_id":"{A58E9CFD-F0AA-4124-9703-379BF4DE96E3}","global_id":"9bb35655-0a42-4f82-8134-e4bab19b8496"}}]}
