{"type":"FeatureCollection","features":[{"type":"Feature","geometry":{"type":"Polygon","coordinates":[[[-115.0991,48.14907],[-115.09908,48.14896],[-115.09921,48.14894],[-115.0991,48.14907]]]},"properties":{"fire_id":"ufid:2023-MTNWS-000162","source_collection":"history-2023","source_objectid":18757,"incident_name":"Huge Larch Tree","mapped_acres":0.01962456920678214,"mapped_acres_source":"poly_Acres_AutoCalc_fallback","gis_acres":null,"auto_acres":0.01962456920678214,"reported_acres":0.1,"percent_contained":null,"state":"MT","state_wfigs":"US-MT","county":"Lincoln","discovery_time_utc":"2023-05-22T15:32:56Z","perimeter_time_utc":"2023-07-30T20:22:50Z","perimeter_edit_time_utc":"2023-07-30T20:22:51Z","incident_modified_time_utc":"2023-07-13T17:45:45Z","containment_time_utc":"2023-05-23T22:45:00Z","control_time_utc":"2023-05-23T22:45:00Z","fire_out_time_utc":"2023-07-13T17:30:00Z","fire_cause":"Natural","fire_cause_general":"Natural","map_method":"GPS-Walked","source_dataset":"FFP","unique_fire_identifier":"2023-MTNWS-000162","irwin_id":"{4FC6FDAB-E163-4B5B-B5C8-23A6295685E3}","global_id":"4cec1412-904e-4cff-ad48-c80df0e9a0eb"}},{"type":"Feature","geometry":{"type":"Polygon","coordinates":[[[-115.04895,48.17507],[-115.04915,48.17514],[-115.04874,48.1752],[-115.04895,48.17507]]]},"properties":{"fire_id":"ufid:2023-MTNWS-000397","source_collection":"history-2023","source_objectid":20291,"incident_name":"Fisher","mapped_acres":0.07874141683563507,"mapped_acres_source":"poly_Acres_AutoCalc_fallback","gis_acres":null,"auto_acres":0.07874141683563507,"reported_acres":0.2,"percent_contained":null,"state":"MT","state_wfigs":"US-MT","county":"Lincoln","discovery_time_utc":"2023-07-15T22:32:00Z","perimeter_time_utc":"2023-08-28T20:47:39Z","perimeter_edit_time_utc":"2023-08-28T20:47:39Z","incident_modified_time_utc":"2023-07-26T22:50:33Z","containment_time_utc":"2023-07-16T02:35:00Z","control_time_utc":"2023-07-16T22:15:00Z","fire_out_time_utc":"2023-07-26T22:26:00Z","fire_cause":"Natural","fire_cause_general":"Natural","map_method":"GPS-Walked","source_dataset":"FFP","unique_fire_identifier":"2023-MTNWS-000397","irwin_id":"{7C339B48-AFE3-4738-AD32-EC4A2758D817}","global_id":"b9272e56-930f-4749-993e-71fa287c6a78"}},{"type":"Feature","geometry":{"type":"Polygon","coordinates":[[[-115.02419,48.32006],[-115.02502,48.32017],[-115.02506,48.32085],[-115.02574,48.32072],[-115.02668,48.32092],[-115.02648,48.32212],[-115.02657,48.32233],[-115.0262,48.32268],[-115.02603,48.32271],[-115.02563,48.32242],[-115.02525,48.32258],[-115.02474,48.32235],[-115.02455,48.32249],[-115.02456,48.32268],[-115.02336,48.32259],[-115.02269,48.32208],[-115.02208,48.3221],[-115.02175,48.32193],[-115.02147,48.32224],[-115.02129,48.32226],[-115.02082,48.32192],[-115.02045,48.322],[-115.02014,48.32192],[-115.02041,48.32173],[-115.02051,48.32147],[-115.02141,48.32166],[-115.02193,48.32151],[-115.02214,48.32124],[-115.02181,48.32067],[-115.02235,48.32063],[-115.02258,48.32042],[-115.02341,48.32015],[-115.02419,48.32006]]]},"properties":{"fire_id":"ufid:2023-MTNWS-000128L","source_collection":"history-2023","source_objectid":20748,"incident_name":"Little Wolf","mapped_acres":0.1,"mapped_acres_source":"poly_GISAcres","gis_acres":0.1,"auto_acres":20.35835646493771,"reported_acres":20.0,"percent_contained":null,"state":"MT","state_wfigs":"US-MT","county":"Lincoln","discovery_time_utc":"2023-07-01T23:35:30Z","perimeter_time_utc":"2023-09-05T21:19:01Z","perimeter_edit_time_utc":"2023-09-05T21:19:01Z","incident_modified_time_utc":"2023-08-23T16:08:13Z","containment_time_utc":"2023-07-03T16:08:00Z","control_time_utc":"2023-07-05T23:19:00Z","fire_out_time_utc":"2023-08-07T18:20:00Z","fire_cause":"Natural","fire_cause_general":"Natural","map_method":"Hand Sketch","source_dataset":"FFP","unique_fire_identifier":"2023-MTNWS-000128L","irwin_id":"{BA3FCB6D-3F34-4506-906E-4BA3DC4745C7}","global_id":"abd23952-b0bf-4e8f-8c6f-63cc66e1c34e"}},{"type":"Feature","geometry":{"type":"MultiPolygon","coordinates":[[[[-115.03854,48.32242],[-115.03858,48.32244],[-115.03849,48.32242],[-115.03854,48.32242]]],[[[-115.03858,48.32244],[-115.03864,48.32246],[-115.03861,48.32246],[-115.03858,48.32244]]],[[[-115.03884,48.32277],[-115.03886,48.32292],[-115.03882,48.32282],[-115.03884,48.32277]]],[[[-115.0389,48.32327],[-115.03886,48.32313],[-115.03886,48.32296],[-115.0389,48.32327]]],[[[-115.03891,48.32328],[-115.03892,48.32342],[-115.0389,48.32327],[-115.03891,48.32328]]],[[[-115.03896,48.32338],[-115.03893,48.32342],[-115.03893,48.32341],[-115.03896,48.32338]]],[[[-115.03893,48.32342],[-115.03892,48.32347],[-115.03892,48.32342],[-115.03893,48.32342]]],[[[-115.03892,48.32347],[-115.03892,48.32351],[-115.03891,48.32355],[-115.03892,48.32347]]],[[[-115.03889,48.32369],[-115.03889,48.32359],[-115.03891,48.32355],[-115.03889,48.32369]]],[[[-115.03918,48.32393],[-115.03928,48.32463],[-115.03923,48.32594],[-115.03938,48.32635],[-115.03927,48.3269],[-115.03941,48.32713],[-115.03911,48.32858],[-115.03929,48.33101],[-115.03917,48.33282],[-115.03899,48.33279],[-115.03888,48.33248],[-115.03898,48.33137],[-115.03882,48.32633],[-115.03897,48.32344],[-115.03886,48.32244],[-115.03884,48.32277],[-115.0388,48.3225],[-115.03864,48.32246],[-115.03913,48.3224],[-115.03934,48.32265],[-115.03928,48.32283],[-115.03939,48.32306],[-115.03918,48.32393]]]]},"properties":{"fire_id":"ufid:2023-MTNWS-08002L","source_collection":"history-2023","source_objectid":20750,"incident_name":"Wolf Prairie","mapped_acres":5.0,"mapped_acres_source":"poly_GISAcres","gis_acres":5.0,"auto_acres":7.404574114785697,"reported_acres":14.3,"percent_contained":null,"state":"MT","state_wfigs":"US-MT","county":"Lincoln","discovery_time_utc":"2023-04-30T06:00:00Z","perimeter_time_utc":"2023-09-05T21:16:44Z","perimeter_edit_time_utc":"2023-09-05T21:16:44Z","incident_modified_time_utc":"2023-05-12T22:07:33Z","containment_time_utc":"2023-05-01T22:15:00Z","control_time_utc":"2023-05-01T22:20:00Z","fire_out_time_utc":"2023-05-11T20:00:00Z","fire_cause":"Human","fire_cause_general":"Railroad operations and maintenance","map_method":"Hand Sketch","source_dataset":"FFP","unique_fire_identifier":"2023-MTNWS-08002L","irwin_id":"{3E1EA420-6959-4747-948D-E7FFCC228160}","global_id":"b9bc0c74-0795-4be3-a2f0-9a9a4204dcf8"}},{"type":"Feature","geometry":{"type":"Polygon","coordinates":[[[-115.99725,48.23386],[-115.99901,48.2342],[-115.9994,48.23479],[-115.99915,48.23538],[-115.99737,48.23606],[-115.99616,48.23589],[-115.99537,48.23551],[-115.9957,48.23492],[-115.99652,48.23402],[-115.99725,48.23386]]]},"properties":{"fire_id":"ufid:2023-MTKNF-000129","source_collection":"history-2023","source_objectid":21486,"incident_name":"Savage Mountain","mapped_acres":0.1,"mapped_acres_source":"poly_GISAcres","gis_acres":0.1,"auto_acres":12.460607469668064,"reported_acres":15.0,"percent_contained":null,"state":"MT","state_wfigs":"US-MT","county":"Lincoln","discovery_time_utc":"2023-07-02T16:43:00Z","perimeter_time_utc":"2023-10-03T20:42:45Z","perimeter_edit_time_utc":"2023-10-03T20:42:46Z","incident_modified_time_utc":"2023-09-27T16:33:25Z","containment_time_utc":"2023-07-16T20:14:00Z","control_time_utc":"2023-07-21T18:00:00Z","fire_out_time_utc":"2023-09-23T16:33:00Z","fire_cause":"Natural","fire_cause_general":"Natural","map_method":"Hand Sketch","source_dataset":"FFP","unique_fire_identifier":"2023-MTKNF-000129","irwin_id":"{90BDDEF5-7BC0-49CE-820A-46A9F33FD7B8}","global_id":"533e3d2c-fff1-4484-aeab-51adfd276826"}},{"type":"Feature","geometry":{"type":"MultiPolygon","coordinates":[[[[-115.34397,48.0417],[-115.34322,48.0413],[-115.34248,48.04151],[-115.34243,48.04124],[-115.34196,48.04151],[-115.34084,48.04143],[-115.34065,48.0416],[-115.34032,48.04158],[-115.34021,48.04149],[-115.34037,48.04095],[-115.3392,48.04082],[-115.33901,48.04046],[-115.33935,48.04037],[-115.3394,48.04021],[-115.33831,48.03901],[-115.33759,48.03878],[-115.3376,48.03848],[-115.33712,48.03808],[-115.33698,48.03767],[-115.33661,48.03767],[-115.33651,48.03711],[-115.33678,48.03629],[-115.33616,48.03612],[-115.33607,48.03593],[-115.33611,48.03542],[-115.33657,48.03517],[-115.33656,48.03443],[-115.33676,48.03431],[-115.33777,48.03443],[-115.33909,48.03432],[-115.3407,48.03482],[-115.34088,48.03468],[-115.34256,48.03461],[-115.34297,48.03432],[-115.3436,48.03444],[-115.34373,48.03424],[-115.34357,48.03365],[-115.34342,48.03352],[-115.34346,48.03311],[-115.34306,48.03296],[-115.34318,48.03259],[-115.34287,48.03181],[-115.34284,48.03123],[-115.34293,48.03093],[-115.34316,48.03071],[-115.34386,48.03064],[-115.34422,48.03074],[-115.34472,48.03037],[-115.34492,48.02993],[-115.34492,48.02945],[-115.34483,48.02916],[-115.34453,48.02903],[-115.34451,48.02886],[-115.34459,48.02841],[-115.34479,48.02821],[-115.34498,48.0281],[-115.34549,48.02823],[-115.34623,48.02818],[-115.34693,48.02744],[-115.34766,48.02732],[-115.34838,48.02667],[-115.34924,48.0262],[-115.34981,48.02626],[-115.35077,48.02691],[-115.35153,48.02684],[-115.35176,48.02661],[-115.35216,48.02654],[-115.35336,48.0269],[-115.35385,48.02719],[-115.35538,48.02844],[-115.35545,48.02876],[-115.35498,48.02969],[-115.35494,48.03008],[-115.35507,48.0305],[-115.35538,48.03069],[-115.35538,48.03102],[-115.35474,48.03113],[-115.3537,48.03197],[-115.35311,48.03218],[-115.35282,48.03254],[-115.35284,48.03288],[-115.35269,48.03319],[-115.35244,48.03322],[-115.35195,48.03383],[-115.35073,48.03405],[-115.35035,48.03445],[-115.35004,48.0344],[-115.34981,48.0341],[-115.34926,48.03404],[-115.34861,48.03431],[-115.3486,48.03449],[-115.3494,48.03493],[-115.34948,48.03517],[-115.34945,48.03597],[-115.3493,48.03637],[-115.34871,48.03695],[-115.34888,48.03703],[-115.34891,48.03747],[-115.34857,48.03781],[-115.3476,48.03752],[-115.34754,48.03784],[-115.34783,48.03818],[-115.34783,48.03837],[-115.34734,48.03887],[-115.34679,48.03879],[-115.34787,48.04012],[-115.34787,48.04039],[-115.34767,48.04063],[-115.34745,48.04066],[-115.3464,48.04018],[-115.34617,48.04042],[-115.34621,48.04068],[-115.34643,48.04089],[-115.34643,48.04116],[-115.34629,48.04128],[-115.34511,48.04131],[-115.34457,48.0416],[-115.34435,48.04155],[-115.34397,48.0417]]],[[[-115.34349,48.03413],[-115.34297,48.03414],[-115.34295,48.0338],[-115.34322,48.03366],[-115.34334,48.03373],[-115.34349,48.03392],[-115.34349,48.03413]]],[[[-115.34033,48.04287],[-115.34039,48.04268],[-115.34076,48.04257],[-115.34093,48.04238],[-115.34094,48.04208],[-115.34115,48.04201],[-115.34144,48.04218],[-115.34223,48.04191],[-115.34302,48.04243],[-115.3424,48.04274],[-115.34204,48.04274],[-115.3417,48.04254],[-115.34163,48.04302],[-115.34105,48.04299],[-115.34098,48.04281],[-115.34048,48.04302],[-115.34033,48.04287]]]]},"properties":{"fire_id":"ufid:2023-MTNWS-000274L","source_collection":"history-2023","source_objectid":22874,"incident_name":"Gravel Pit","mapped_acres":304.0134,"mapped_acres_source":"poly_GISAcres","gis_acres":304.0134,"auto_acres":304.0121711406825,"reported_acres":304.0,"percent_contained":null,"state":"MT","state_wfigs":"US-MT","county":"Lincoln","discovery_time_utc":"2023-08-02T00:26:00Z","perimeter_time_utc":"2023-11-21T18:34:05Z","perimeter_edit_time_utc":"2023-11-21T18:34:05Z","incident_modified_time_utc":"2023-11-02T19:45:20Z","containment_time_utc":null,"control_time_utc":null,"fire_out_time_utc":"2023-10-01T22:30:00Z","fire_cause":"Human","fire_cause_general":"Arson","map_method":"IR Image Interpretation","source_dataset":"FFP","unique_fire_identifier":"2023-MTNWS-000274L","irwin_id":"{B17CA868-F08F-474E-9560-EBA73601877F}","global_id":"0bbaa4a2-62cb-4d2b-a8d3-bfecf8c8b5ae"}},{"type":"Feature","geometry":{"type":"Polygon","coordinates":[[[-115.22596,47.6959],[-115.22329,47.69463],[-115.22209,47.69301],[-115.22372,47.6922],[-115.22621,47.69226],[-115.22862,47.69336],[-115.22767,47.69492],[-115.22596,47.6959]]]},"properties":{"fire_id":"ufid:2023-MTLNF-200823","source_collection":"history-2023","source_objectid":23827,"incident_name":"Big Spruce Creek","mapped_acres":31.54,"mapped_acres_source":"poly_GISAcres","gis_acres":31.54,"auto_acres":31.538537687386867,"reported_acres":22.0,"percent_contained":null,"state":"MT","state_wfigs":"US-MT","county":"Sanders","discovery_time_utc":"2023-09-17T22:19:00Z","perimeter_time_utc":"2024-01-23T20:20:18Z","perimeter_edit_time_utc":"2024-01-23T20:20:19Z","incident_modified_time_utc":"2023-10-25T18:48:54Z","containment_time_utc":"2023-09-23T23:32:00Z","control_time_utc":"2023-10-11T16:00:00Z","fire_out_time_utc":"2023-10-25T18:00:00Z","fire_cause":"Human","fire_cause_general":"Recreation and ceremony","map_method":"Hand Sketch","source_dataset":"FFP","unique_fire_identifier":"2023-MTLNF-200823","irwin_id":"{E945BB3B-72EC-4800-BA52-D224D4774F2B}","global_id":"ced6a9d3-b18a-487b-bab3-e2ac3d85aa1a"}},{"type":"Feature","geometry":{"type":"Polygon","coordinates":[[[-115.27072,47.58554],[-115.27167,47.5858],[-115.27195,47.58634],[-115.27189,47.58663],[-115.27151,47.58679],[-115.27168,47.58774],[-115.26863,47.58724],[-115.26818,47.58686],[-115.26796,47.5864],[-115.268,47.58601],[-115.26856,47.58551],[-115.27072,47.58554]]]},"properties":{"fire_id":"ufid:2023-MTLNF-200190","source_collection":"history-2023","source_objectid":25258,"incident_name":"Game Range","mapped_acres":13.66,"mapped_acres_source":"poly_GISAcres","gis_acres":13.66,"auto_acres":13.6584803104844,"reported_acres":14.0,"percent_contained":null,"state":"MT","state_wfigs":"US-MT","county":"Sanders","discovery_time_utc":"2023-04-28T22:13:00Z","perimeter_time_utc":"2024-04-05T14:20:38Z","perimeter_edit_time_utc":"2024-04-05T14:20:38Z","incident_modified_time_utc":"2023-05-02T21:31:34Z","containment_time_utc":"2023-04-29T02:24:00Z","control_time_utc":"2023-04-29T22:15:00Z","fire_out_time_utc":"2023-05-02T21:31:00Z","fire_cause":"Human","fire_cause_general":"Debris and open burning","map_method":"Hand Sketch","source_dataset":"FFP","unique_fire_identifier":"2023-MTLNF-200190","irwin_id":"{A91BE59D-68E0-4CC6-95BC-71B66042E198}","global_id":"2fb922e1-6036-44e3-8367-5eb6c1a41fc4"}}]}
