{"type":"FeatureCollection","features":[{"type":"Feature","geometry":{"type":"Polygon","coordinates":[[[-100.0251,46.65875],[-100.02425,46.65867],[-100.02361,46.65832],[-100.02302,46.65853],[-100.02154,46.65831],[-100.02123,46.65846],[-100.02067,46.65843],[-100.01993,46.6578],[-100.01956,46.6577],[-100.0203,46.6568],[-100.02148,46.65622],[-100.02164,46.65601],[-100.02191,46.65598],[-100.02182,46.65553],[-100.02154,46.65527],[-100.02037,46.65545],[-100.02002,46.6552],[-100.01965,46.6543],[-100.01979,46.65356],[-100.01944,46.65288],[-100.01956,46.65251],[-100.01911,46.65191],[-100.01889,46.65196],[-100.01845,46.65243],[-100.01725,46.6518],[-100.01693,46.65151],[-100.0168,46.65103],[-100.01724,46.65052],[-100.01687,46.65015],[-100.01684,46.64992],[-100.01705,46.64969],[-100.01741,46.64963],[-100.018,46.64996],[-100.01845,46.64875],[-100.01778,46.64712],[-100.01779,46.64635],[-100.01796,46.64598],[-100.0177,46.64549],[-100.01783,46.64512],[-100.01791,46.64344],[-100.01832,46.64222],[-100.01823,46.64203],[-100.01844,46.64185],[-100.01852,46.64135],[-100.01963,46.6412],[-100.02004,46.64166],[-100.01948,46.64203],[-100.02053,46.64226],[-100.02095,46.64197],[-100.02067,46.64203],[-100.02056,46.64179],[-100.0211,46.64183],[-100.02177,46.64129],[-100.02156,46.64111],[-100.02174,46.64086],[-100.02135,46.6407],[-100.02113,46.64043],[-100.02128,46.63977],[-100.02081,46.6395],[-100.02065,46.63901],[-100.02088,46.63821],[-100.02094,46.63706],[-100.0211,46.63693],[-100.02166,46.63696],[-100.02187,46.63599],[-100.02231,46.63547],[-100.02265,46.6354],[-100.02302,46.63556],[-100.02302,46.63581],[-100.02345,46.63584],[-100.02353,46.63624],[-100.02381,46.63642],[-100.02369,46.63692],[-100.02394,46.63692],[-100.02419,46.63652],[-100.02463,46.6369],[-100.02418,46.63747],[-100.02402,46.6379],[-100.0242,46.63846],[-100.02357,46.63863],[-100.0232,46.63932],[-100.02357,46.63954],[-100.024,46.63942],[-100.02425,46.63956],[-100.0248,46.63907],[-100.02507,46.63932],[-100.02487,46.64],[-100.02498,46.64031],[-100.02579,46.64056],[-100.026,46.64031],[-100.02583,46.64],[-100.02586,46.63956],[-100.02552,46.63914],[-100.02568,46.63884],[-100.0261,46.63849],[-100.02628,46.63855],[-100.02627,46.63897],[-100.0266,46.63907],[-100.02632,46.63963],[-100.02696,46.63996],[-100.02741,46.63944],[-100.02803,46.63821],[-100.02772,46.63778],[-100.02782,46.63735],[-100.02763,46.63692],[-100.02777,46.63655],[-100.02757,46.63636],[-100.02791,46.63587],[-100.02807,46.63489],[-100.02832,46.6347],[-100.02869,46.63465],[-100.02982,46.63373],[-100.03041,46.63384],[-100.03057,46.63396],[-100.03063,46.63429],[-100.0315,46.63457],[-100.03112,46.63525],[-100.03071,46.63562],[-100.03081,46.63584],[-100.03121,46.636],[-100.0319,46.6352],[-100.0326,46.63467],[-100.03311,46.63446],[-100.03357,46.63507],[-100.03327,46.63673],[-100.03308,46.63705],[-100.03315,46.63753],[-100.03346,46.63775],[-100.03339,46.63835],[-100.03261,46.63862],[-100.03152,46.63875],[-100.03122,46.6387],[-100.03091,46.63844],[-100.03066,46.63848],[-100.02853,46.64039],[-100.02795,46.64066],[-100.02783,46.64086],[-100.02794,46.64098],[-100.02949,46.64106],[-100.02962,46.64129],[-100.0291,46.64197],[-100.02919,46.64233],[-100.02908,46.64273],[-100.02858,46.64335],[-100.0281,46.64366],[-100.0269,46.64393],[-100.02666,46.64419],[-100.02645,46.64462],[-100.02653,46.64506],[-100.0264,46.64549],[-100.02667,46.6459],[-100.02752,46.64594],[-100.02836,46.64636],[-100.02866,46.64659],[-100.02887,46.64729],[-100.02961,46.64756],[-100.03017,46.64731],[-100.03066,46.64735],[-100.03091,46.64714],[-100.03115,46.64723],[-100.03121,46.64709],[-100.03108,46.64679],[-100.03119,46.64641],[-100.03106,46.64616],[-100.03135,46.64592],[-100.03173,46.64593],[-100.03479,46.64517],[-100.03588,46.64524],[-100.036,46.64598],[-100.03594,46.64682],[-100.03534,46.64708],[-100.03498,46.64746],[-100.03485,46.64789],[-100.03387,46.64787],[-100.03367,46.64801],[-100.03359,46.64857],[-100.03377,46.64888],[-100.03364,46.64992],[-100.0338,46.65023],[-100.03367,46.65046],[-100.0332,46.65068],[-100.03316,46.65122],[-100.03325,46.6514],[-100.03387,46.65162],[-100.03442,46.65128],[-100.03497,46.65132],[-100.03547,46.65172],[-100.03553,46.65196],[-100.03536,46.6525],[-100.03585,46.65215],[-100.036,46.65171],[-100.03649,46.65159],[-100.03606,46.65245],[-100.03615,46.65267],[-100.03638,46.65278],[-100.03635,46.65309],[-100.03563,46.65347],[-100.03543,46.65377],[-100.03467,46.65433],[-100.03448,46.65434],[-100.03462,46.65475],[-100.03439,46.65522],[-100.03346,46.65581],[-100.03308,46.65584],[-100.03241,46.65636],[-100.03144,46.65675],[-100.03083,46.65672],[-100.03035,46.65653],[-100.0302,46.65633],[-100.03027,46.65609],[-100.03011,46.65596],[-100.02919,46.65589],[-100.02875,46.65562],[-100.02813,46.6555],[-100.02819,46.65584],[-100.02907,46.65615],[-100.02894,46.65633],[-100.02949,46.65675],[-100.02957,46.65701],[-100.02947,46.65728],[-100.0299,46.65775],[-100.02977,46.658],[-100.02912,46.65833],[-100.02881,46.65863],[-100.0251,46.65875]]]},"properties":{"fire_id":"ufid:2023-NDNDS-223330000I","source_collection":"history-2023","source_objectid":16530,"incident_name":"5334 20th Ave SE","mapped_acres":1200.0,"mapped_acres_source":"poly_GISAcres","gis_acres":1200.0,"auto_acres":581.570270401786,"reported_acres":1200.0,"percent_contained":null,"state":"ND","state_wfigs":"US-ND","county":"Kidder","discovery_time_utc":"2023-05-03T22:30:00Z","perimeter_time_utc":"2023-05-04T03:30:00Z","perimeter_edit_time_utc":"2023-05-08T17:22:41Z","incident_modified_time_utc":"2023-05-04T19:28:11Z","containment_time_utc":"2023-05-04T04:15:00Z","control_time_utc":null,"fire_out_time_utc":null,"fire_cause":"Undetermined","fire_cause_general":"Undetermined (remarks required)","map_method":"Image Interpretation","source_dataset":"2023 NIFS","unique_fire_identifier":"2023-NDNDS-223330000I","irwin_id":"{CBD669ED-2740-43D9-BE3A-653F1C906D1A}","global_id":"fced633c-7db2-450e-afb3-8441dc4e4400"}},{"type":"Feature","geometry":{"type":"Polygon","coordinates":[[[-100.59509,46.61835],[-100.59487,46.61825],[-100.59422,46.6174],[-100.59345,46.61796],[-100.59161,46.6176],[-100.58973,46.61765],[-100.58937,46.61755],[-100.58807,46.61792],[-100.58756,46.61793],[-100.58586,46.61721],[-100.58539,46.61687],[-100.58533,46.61666],[-100.58461,46.61671],[-100.58395,46.61642],[-100.58326,46.61632],[-100.58205,46.61634],[-100.58021,46.61568],[-100.57964,46.61525],[-100.57965,46.61505],[-100.58227,46.61334],[-100.58251,46.61289],[-100.58346,46.61217],[-100.58354,46.61172],[-100.582,46.61189],[-100.58175,46.61172],[-100.58215,46.61128],[-100.58191,46.61111],[-100.58057,46.61162],[-100.58012,46.61162],[-100.57922,46.61089],[-100.57908,46.61047],[-100.57877,46.61037],[-100.57778,46.61055],[-100.57572,46.6114],[-100.57487,46.61149],[-100.57415,46.61113],[-100.57387,46.61065],[-100.57271,46.61024],[-100.5728,46.61002],[-100.57221,46.60947],[-100.57116,46.60928],[-100.57078,46.60894],[-100.56956,46.6084],[-100.56917,46.60804],[-100.56961,46.60787],[-100.57158,46.60795],[-100.57449,46.60762],[-100.57547,46.60762],[-100.57623,46.60739],[-100.57841,46.60712],[-100.58226,46.60641],[-100.58398,46.60624],[-100.58586,46.60568],[-100.58685,46.60558],[-100.58802,46.60571],[-100.58809,46.60618],[-100.58844,46.60637],[-100.58881,46.60627],[-100.58901,46.60637],[-100.58938,46.60607],[-100.58922,46.6058],[-100.58938,46.60551],[-100.58921,46.60526],[-100.58957,46.60506],[-100.58974,46.60508],[-100.58976,46.6054],[-100.59027,46.60544],[-100.58968,46.60548],[-100.58972,46.60571],[-100.59124,46.60605],[-100.5917,46.60589],[-100.59278,46.60637],[-100.59355,46.60647],[-100.59365,46.60669],[-100.59339,46.60696],[-100.59341,46.60732],[-100.59326,46.60759],[-100.5935,46.60777],[-100.59439,46.6075],[-100.59441,46.60696],[-100.59426,46.60669],[-100.59458,46.60638],[-100.59487,46.60661],[-100.59525,46.60737],[-100.59539,46.60738],[-100.59543,46.6071],[-100.59565,46.60708],[-100.59637,46.60786],[-100.5962,46.60804],[-100.59638,46.60831],[-100.59619,46.6084],[-100.59702,46.60867],[-100.59721,46.60936],[-100.59763,46.60957],[-100.59753,46.6102],[-100.59775,46.6102],[-100.5977,46.61038],[-100.59806,46.61056],[-100.59805,46.61074],[-100.59823,46.61076],[-100.59832,46.61095],[-100.59899,46.61137],[-100.59956,46.61154],[-100.60215,46.61188],[-100.60231,46.61199],[-100.60236,46.61244],[-100.60206,46.61301],[-100.60107,46.61352],[-100.60117,46.61433],[-100.60108,46.61446],[-100.59979,46.61498],[-100.59914,46.61552],[-100.59961,46.61571],[-100.6005,46.61553],[-100.60121,46.61569],[-100.60139,46.61605],[-100.60188,46.61628],[-100.60196,46.61648],[-100.60027,46.61688],[-100.59979,46.6172],[-100.59959,46.61755],[-100.59871,46.61747],[-100.59805,46.61789],[-100.59786,46.61783],[-100.59782,46.61756],[-100.59691,46.61659],[-100.59659,46.61787],[-100.59509,46.61835]]]},"properties":{"fire_id":"ufid:2023-NDNDS-15161000DD","source_collection":"history-2023","source_objectid":16531,"incident_name":"Glencoe River Bottoms Fire","mapped_acres":600.0,"mapped_acres_source":"poly_GISAcres","gis_acres":600.0,"auto_acres":492.27010008415,"reported_acres":600.0,"percent_contained":null,"state":"ND","state_wfigs":"US-ND","county":"Burleigh","discovery_time_utc":"2023-04-29T09:26:00Z","perimeter_time_utc":"2023-04-29T14:26:00Z","perimeter_edit_time_utc":"2023-05-08T17:26:27Z","incident_modified_time_utc":"2023-05-01T19:03:05Z","containment_time_utc":"2023-05-01T18:03:03Z","control_time_utc":null,"fire_out_time_utc":null,"fire_cause":"Human","fire_cause_general":"Recreation and ceremony","map_method":"Image Interpretation","source_dataset":"2023 NIFS","unique_fire_identifier":"2023-NDNDS-15161000DD","irwin_id":"{B48C54EF-F920-43B0-A7FE-FBE1CB117A0C}","global_id":"be9d47d2-0c4c-494c-8aa3-72b3c0b1125f"}},{"type":"Feature","geometry":{"type":"Polygon","coordinates":[[[-103.08182,47.93958],[-103.08191,47.93894],[-103.08236,47.93843],[-103.08264,47.93828],[-103.08327,47.93821],[-103.0834,47.93792],[-103.08372,47.93767],[-103.08437,47.93763],[-103.08483,47.93705],[-103.08531,47.93708],[-103.08645,47.93755],[-103.08674,47.93805],[-103.08676,47.9388],[-103.0862,47.9384],[-103.08531,47.93838],[-103.08525,47.93859],[-103.08555,47.93877],[-103.08565,47.93899],[-103.08533,47.94022],[-103.0849,47.94086],[-103.08483,47.94135],[-103.08526,47.94193],[-103.0855,47.94196],[-103.08575,47.94219],[-103.08656,47.94322],[-103.08689,47.94344],[-103.08741,47.94429],[-103.08787,47.9446],[-103.08812,47.94517],[-103.08908,47.94581],[-103.08838,47.94628],[-103.08831,47.94673],[-103.08772,47.94717],[-103.08768,47.94734],[-103.08804,47.94779],[-103.08769,47.94845],[-103.08725,47.9487],[-103.08674,47.94868],[-103.08668,47.94885],[-103.08652,47.94888],[-103.08655,47.94906],[-103.08615,47.94943],[-103.08621,47.94975],[-103.08597,47.94983],[-103.08593,47.95003],[-103.08556,47.95042],[-103.08457,47.95081],[-103.08387,47.95084],[-103.08346,47.95021],[-103.08378,47.94994],[-103.08333,47.94957],[-103.08447,47.94896],[-103.08515,47.94831],[-103.08474,47.94806],[-103.0846,47.94783],[-103.08466,47.94703],[-103.08389,47.94685],[-103.08368,47.94691],[-103.08303,47.94658],[-103.08276,47.94578],[-103.08166,47.94445],[-103.08101,47.9448],[-103.08075,47.9447],[-103.08062,47.94441],[-103.08062,47.94318],[-103.08154,47.94252],[-103.08176,47.94214],[-103.08088,47.94121],[-103.08021,47.94133],[-103.08005,47.94117],[-103.08008,47.94098],[-103.08044,47.94026],[-103.08159,47.93984],[-103.08182,47.93958]]]},"properties":{"fire_id":"ufid:2023-NDDPF-000024","source_collection":"history-2023","source_objectid":16616,"incident_name":"2023-016","mapped_acres":0.5,"mapped_acres_source":"poly_GISAcres","gis_acres":0.5,"auto_acres":115.61205623598855,"reported_acres":115.6,"percent_contained":null,"state":"ND","state_wfigs":"US-ND","county":"McKenzie","discovery_time_utc":"2023-04-16T23:01:00Z","perimeter_time_utc":"2023-11-01T20:14:48Z","perimeter_edit_time_utc":"2023-11-01T20:14:48Z","incident_modified_time_utc":"2023-04-19T15:34:21Z","containment_time_utc":"2023-04-18T02:00:00Z","control_time_utc":"2023-04-18T14:00:00Z","fire_out_time_utc":"2023-05-10T16:30:00Z","fire_cause":"Human","fire_cause_general":"Firearms and explosives use","map_method":"Hand Sketch","source_dataset":"FFP","unique_fire_identifier":"2023-NDDPF-000024","irwin_id":"{FABCD783-B91F-429C-A48F-F481E87A997E}","global_id":"b5babd93-4753-47f6-bfb7-db5b7130908a"}},{"type":"Feature","geometry":{"type":"Polygon","coordinates":[[[-103.68726,47.00036],[-103.68734,47.00046],[-103.68719,47.00041],[-103.68726,47.00036]]]},"properties":{"fire_id":"ufid:2023-NDDPF-220148","source_collection":"history-2023","source_objectid":17569,"incident_name":"Bison","mapped_acres":0.01,"mapped_acres_source":"poly_GISAcres","gis_acres":0.01,"auto_acres":0.027265395098901753,"reported_acres":0.1,"percent_contained":null,"state":"ND","state_wfigs":"US-ND","county":"Golden Valley","discovery_time_utc":"2023-02-26T17:07:00Z","perimeter_time_utc":"2023-03-06T16:03:35Z","perimeter_edit_time_utc":"2023-03-14T15:13:42Z","incident_modified_time_utc":"2023-03-01T18:00:28Z","containment_time_utc":"2023-02-26T20:30:00Z","control_time_utc":"2023-02-26T21:00:00Z","fire_out_time_utc":"2023-02-28T16:30:00Z","fire_cause":"Human","fire_cause_general":"Equipment and vehicle use","map_method":"Hand Sketch","source_dataset":"FFP","unique_fire_identifier":"2023-NDDPF-220148","irwin_id":"{FD368695-DFC8-42FE-8A74-3A8E5BCCD01F}","global_id":"f95967c9-d782-4329-a41f-d1095ce5cb84"}},{"type":"Feature","geometry":{"type":"Polygon","coordinates":[[[-102.5839,47.97195],[-102.58373,47.97208],[-102.58358,47.97203],[-102.5839,47.97195]]]},"properties":{"fire_id":"ufid:2023-NDFBA-000044","source_collection":"history-2023","source_objectid":17939,"incident_name":"SPARKLERS","mapped_acres":1.0,"mapped_acres_source":"poly_GISAcres","gis_acres":1.0,"auto_acres":0.061741692322584606,"reported_acres":0.1,"percent_contained":null,"state":"ND","state_wfigs":"US-ND","county":"McKenzie","discovery_time_utc":"2023-07-05T05:12:00Z","perimeter_time_utc":"2023-07-06T22:53:00Z","perimeter_edit_time_utc":"2023-07-06T22:53:00Z","incident_modified_time_utc":"2023-07-05T18:29:01Z","containment_time_utc":null,"control_time_utc":null,"fire_out_time_utc":"2023-07-05T21:43:00Z","fire_cause":"Human","fire_cause_general":"Fireworks","map_method":"Hand Sketch","source_dataset":"FFP","unique_fire_identifier":"2023-NDFBA-000044","irwin_id":"{B5919B4B-FD8E-4055-A709-1C467B645B84}","global_id":"7c7f50da-5ef7-499e-b27d-5ba7891f201f"}},{"type":"Feature","geometry":{"type":"Polygon","coordinates":[[[-102.7035,47.72719],[-102.70354,47.72742],[-102.70337,47.7271],[-102.7035,47.72719]]]},"properties":{"fire_id":"ufid:2023-NDFBA-000007","source_collection":"history-2023","source_objectid":18107,"incident_name":"LONE FIGHT","mapped_acres":1.0,"mapped_acres_source":"poly_GISAcres","gis_acres":1.0,"auto_acres":0.06300292933415443,"reported_acres":0.21,"percent_contained":null,"state":"ND","state_wfigs":"US-ND","county":"McKenzie","discovery_time_utc":"2023-04-23T19:00:00Z","perimeter_time_utc":"2023-07-15T03:44:35Z","perimeter_edit_time_utc":"2023-07-15T03:44:35Z","incident_modified_time_utc":"2023-04-25T00:31:25Z","containment_time_utc":null,"control_time_utc":null,"fire_out_time_utc":"2023-04-25T15:00:00Z","fire_cause":"Human","fire_cause_general":"Equipment and vehicle use","map_method":"GPS-Walked","source_dataset":"FFP","unique_fire_identifier":"2023-NDFBA-000007","irwin_id":"{F721C3E8-5628-4737-9E64-F58AE26BBF02}","global_id":"91885719-d052-45c0-a530-df52c136282f"}},{"type":"Feature","geometry":{"type":"Polygon","coordinates":[[[-102.65933,48.00222],[-102.65966,48.00285],[-102.65886,48.00265],[-102.65891,48.00219],[-102.65933,48.00222]]]},"properties":{"fire_id":"ufid:2023-NDFBA-000006","source_collection":"history-2023","source_objectid":18110,"incident_name":"LITTLE ANTELOPE CREEK","mapped_acres":1.0,"mapped_acres_source":"poly_GISAcres","gis_acres":1.0,"auto_acres":0.8360400391940287,"reported_acres":0.83,"percent_contained":null,"state":"ND","state_wfigs":"US-ND","county":"McKenzie","discovery_time_utc":"2023-04-22T17:54:00Z","perimeter_time_utc":"2023-07-15T04:03:17Z","perimeter_edit_time_utc":"2023-07-15T04:03:17Z","incident_modified_time_utc":"2023-04-23T01:56:44Z","containment_time_utc":null,"control_time_utc":null,"fire_out_time_utc":null,"fire_cause":"Human","fire_cause_general":"Power generation / transmission / distribution","map_method":"GPS-Walked","source_dataset":"FFP","unique_fire_identifier":"2023-NDFBA-000006","irwin_id":"{0098C55E-5F62-4CF2-807D-BABAEE7F72AE}","global_id":"75647b8d-3d67-40fc-9b42-fd64291003ff"}},{"type":"Feature","geometry":{"type":"Polygon","coordinates":[[[-102.66228,47.99829],[-102.6623,47.99818],[-102.66237,47.99826],[-102.66228,47.99829]]]},"properties":{"fire_id":"ufid:2023-NDFBA-000013","source_collection":"history-2023","source_objectid":18117,"incident_name":"RIVERSIDE","mapped_acres":1.0,"mapped_acres_source":"poly_GISAcres","gis_acres":1.0,"auto_acres":0.01987992834048265,"reported_acres":0.1,"percent_contained":null,"state":"ND","state_wfigs":"US-ND","county":"McKenzie","discovery_time_utc":"2023-05-11T19:15:00Z","perimeter_time_utc":"2023-07-16T01:57:17Z","perimeter_edit_time_utc":"2023-07-16T01:57:17Z","incident_modified_time_utc":"2023-05-15T01:24:26Z","containment_time_utc":null,"control_time_utc":"2023-05-11T19:20:00Z","fire_out_time_utc":"2023-05-12T13:00:00Z","fire_cause":"Human","fire_cause_general":"Debris and open burning","map_method":"Hand Sketch","source_dataset":"FFP","unique_fire_identifier":"2023-NDFBA-000013","irwin_id":"{6C2AF27C-EAF4-4F2A-96A8-C207758BA573}","global_id":"24473be6-8be2-4fdf-b0b5-2f06c176528c"}},{"type":"Feature","geometry":{"type":"Polygon","coordinates":[[[-102.12905,47.72119],[-102.12895,47.71858],[-102.12847,47.71857],[-102.12834,47.71836],[-102.12893,47.71848],[-102.12915,47.71827],[-102.12952,47.71859],[-102.12985,47.71836],[-102.13001,47.7186],[-102.12996,47.71897],[-102.1301,47.71931],[-102.12982,47.71974],[-102.12995,47.7199],[-102.1299,47.72063],[-102.12969,47.72086],[-102.12969,47.7211],[-102.1295,47.7212],[-102.12905,47.72119]]]},"properties":{"fire_id":"ufid:2023-NDFBA-000008","source_collection":"history-2023","source_objectid":18215,"incident_name":"CORN STOCK","mapped_acres":1.0,"mapped_acres_source":"poly_GISAcres","gis_acres":1.0,"auto_acres":5.097999643342433,"reported_acres":5.1,"percent_contained":null,"state":"ND","state_wfigs":"US-ND","county":"McLean","discovery_time_utc":"2023-04-23T21:05:00Z","perimeter_time_utc":"2023-07-18T20:55:32Z","perimeter_edit_time_utc":"2023-07-18T20:55:32Z","incident_modified_time_utc":"2023-04-25T00:34:58Z","containment_time_utc":null,"control_time_utc":"2023-04-24T01:00:00Z","fire_out_time_utc":"2023-04-26T13:00:00Z","fire_cause":"Human","fire_cause_general":"Debris and open burning","map_method":"Hand Sketch","source_dataset":"FFP","unique_fire_identifier":"2023-NDFBA-000008","irwin_id":"{A0AB38D8-A5C8-4126-B013-74B672222ACE}","global_id":"b41b85e3-b130-4279-aa15-0b537282b96a"}},{"type":"Feature","geometry":{"type":"Polygon","coordinates":[[[-102.65666,47.56814],[-102.65701,47.56826],[-102.65731,47.56859],[-102.6569,47.56879],[-102.65649,47.56868],[-102.65643,47.56823],[-102.65666,47.56814]]]},"properties":{"fire_id":"ufid:2023-NDFBA-000016","source_collection":"history-2023","source_objectid":18329,"incident_name":"RED WILLOW","mapped_acres":1.0,"mapped_acres_source":"poly_GISAcres","gis_acres":1.0,"auto_acres":0.7597741150043469,"reported_acres":0.4,"percent_contained":null,"state":"ND","state_wfigs":"US-ND","county":"Dunn","discovery_time_utc":"2023-05-18T15:30:00Z","perimeter_time_utc":"2023-07-21T16:09:00Z","perimeter_edit_time_utc":"2023-07-21T16:09:00Z","incident_modified_time_utc":"2023-05-19T13:38:56Z","containment_time_utc":null,"control_time_utc":"2023-05-18T19:15:00Z","fire_out_time_utc":"2023-05-22T21:00:00Z","fire_cause":"Natural","fire_cause_general":"Natural","map_method":"Hand Sketch","source_dataset":"FFP","unique_fire_identifier":"2023-NDFBA-000016","irwin_id":"{0E7E2C13-0F39-44E7-8231-F834D751B73D}","global_id":"e309876e-c852-4ccf-85b9-bf3109101153"}},{"type":"Feature","geometry":{"type":"Polygon","coordinates":[[[-102.72718,47.68743],[-102.72745,47.68708],[-102.72763,47.68711],[-102.72747,47.68745],[-102.72718,47.68743]]]},"properties":{"fire_id":"ufid:2023-NDFBA-000021","source_collection":"history-2023","source_objectid":18343,"incident_name":"EAGLE NEST","mapped_acres":1.0,"mapped_acres_source":"poly_GISAcres","gis_acres":1.0,"auto_acres":0.23910617656357264,"reported_acres":0.2,"percent_contained":null,"state":"ND","state_wfigs":"US-ND","county":"McKenzie","discovery_time_utc":"2023-06-04T00:30:00Z","perimeter_time_utc":"2023-07-21T17:33:13Z","perimeter_edit_time_utc":"2023-07-21T17:33:13Z","incident_modified_time_utc":"2023-06-05T16:19:30Z","containment_time_utc":null,"control_time_utc":"2023-06-04T02:30:00Z","fire_out_time_utc":"2023-06-06T21:00:00Z","fire_cause":"Human","fire_cause_general":"Equipment and vehicle use","map_method":"Hand Sketch","source_dataset":"FFP","unique_fire_identifier":"2023-NDFBA-000021","irwin_id":"{9E6938D0-B957-415B-B99E-3E1159124FFD}","global_id":"9fe0f7d5-f77b-42bc-be3f-e378aa0fc845"}},{"type":"Feature","geometry":{"type":"Polygon","coordinates":[[[-102.62253,47.55998],[-102.62215,47.56003],[-102.62195,47.55987],[-102.62184,47.5594],[-102.62193,47.55922],[-102.62209,47.55917],[-102.62211,47.55939],[-102.62238,47.55956],[-102.62226,47.5599],[-102.62253,47.55998]]]},"properties":{"fire_id":"ufid:2023-NDFBA-000012","source_collection":"history-2023","source_objectid":18689,"incident_name":"HORSESHOE","mapped_acres":1.0,"mapped_acres_source":"poly_GISAcres","gis_acres":1.0,"auto_acres":0.5719150985733114,"reported_acres":0.7,"percent_contained":null,"state":"ND","state_wfigs":"US-ND","county":"Dunn","discovery_time_utc":"2023-05-08T16:15:00Z","perimeter_time_utc":"2023-07-28T19:22:58Z","perimeter_edit_time_utc":"2023-07-28T19:22:58Z","incident_modified_time_utc":"2023-05-10T13:14:41Z","containment_time_utc":null,"control_time_utc":"2023-05-08T20:20:00Z","fire_out_time_utc":"2023-05-13T21:00:00Z","fire_cause":"Natural","fire_cause_general":"Natural","map_method":"Hand Sketch","source_dataset":"FFP","unique_fire_identifier":"2023-NDFBA-000012","irwin_id":"{9302D251-D370-4449-B88E-DD5CE6CA361B}","global_id":"6e4d10a7-704a-4ab2-8fef-49080a18072f"}},{"type":"Feature","geometry":{"type":"Polygon","coordinates":[[[-102.58208,47.55983],[-102.58208,47.55993],[-102.58189,47.5598],[-102.58199,47.55959],[-102.58246,47.55972],[-102.58266,47.55994],[-102.58269,47.56023],[-102.58231,47.56017],[-102.58208,47.55983]]]},"properties":{"fire_id":"ufid:2023-NDFBA-000028","source_collection":"history-2023","source_objectid":18690,"incident_name":"HALL","mapped_acres":1.0,"mapped_acres_source":"poly_GISAcres","gis_acres":1.0,"auto_acres":0.6386994322729664,"reported_acres":0.7,"percent_contained":null,"state":"ND","state_wfigs":"US-ND","county":"Dunn","discovery_time_utc":"2023-06-10T22:00:00Z","perimeter_time_utc":"2023-07-28T19:21:04Z","perimeter_edit_time_utc":"2023-07-28T19:21:04Z","incident_modified_time_utc":"2023-06-12T15:29:39Z","containment_time_utc":null,"control_time_utc":"2023-06-10T23:45:00Z","fire_out_time_utc":"2023-06-14T21:00:00Z","fire_cause":"Natural","fire_cause_general":"Natural","map_method":"Hand Sketch","source_dataset":"FFP","unique_fire_identifier":"2023-NDFBA-000028","irwin_id":"{84F1C30D-CABD-431E-85C2-05166D0E50E3}","global_id":"745b5ec2-313a-4280-9ca3-605c00b9e2fd"}},{"type":"Feature","geometry":{"type":"Polygon","coordinates":[[[-104.02047,47.72971],[-104.02082,47.72963],[-104.02076,47.72971],[-104.02047,47.72971]]]},"properties":{"fire_id":"ufid:2023-NDDPF-000137","source_collection":"history-2023","source_objectid":18787,"incident_name":"Cheney","mapped_acres":0.1,"mapped_acres_source":"poly_GISAcres","gis_acres":0.1,"auto_acres":0.058016193183726,"reported_acres":0.1,"percent_contained":null,"state":"ND","state_wfigs":"US-ND","county":"McKenzie","discovery_time_utc":"2023-07-21T17:46:00Z","perimeter_time_utc":"2023-07-31T19:16:13Z","perimeter_edit_time_utc":"2023-07-31T19:16:13Z","incident_modified_time_utc":"2023-07-21T17:59:23Z","containment_time_utc":"2023-07-21T20:11:00Z","control_time_utc":null,"fire_out_time_utc":"2023-07-31T19:11:09Z","fire_cause":"Human","fire_cause_general":"Firearms and explosives use","map_method":"Hand Sketch","source_dataset":"FFP","unique_fire_identifier":"2023-NDDPF-000137","irwin_id":"{52395980-1384-4767-9786-F138EEDFDCBC}","global_id":"f2684b52-9a7d-45d2-9aeb-4340af67e75a"}},{"type":"Feature","geometry":{"type":"Polygon","coordinates":[[[-103.84772,47.57993],[-103.84791,47.57996],[-103.84735,47.58022],[-103.84772,47.57993]]]},"properties":{"fire_id":"ufid:2023-NDDPF-000153","source_collection":"history-2023","source_objectid":18788,"incident_name":"Bennie","mapped_acres":0.1,"mapped_acres_source":"poly_GISAcres","gis_acres":0.1,"auto_acres":0.11450139010282012,"reported_acres":0.11,"percent_contained":null,"state":"ND","state_wfigs":"US-ND","county":"McKenzie","discovery_time_utc":"2023-07-25T17:00:00Z","perimeter_time_utc":"2023-07-31T19:07:05Z","perimeter_edit_time_utc":"2023-07-31T19:07:06Z","incident_modified_time_utc":"2023-07-31T16:45:44Z","containment_time_utc":"2023-07-25T17:30:00Z","control_time_utc":"2023-07-25T17:30:00Z","fire_out_time_utc":"2023-07-31T18:56:28Z","fire_cause":"Human","fire_cause_general":"Power generation / transmission / distribution","map_method":"Hand Sketch","source_dataset":"FFP","unique_fire_identifier":"2023-NDDPF-000153","irwin_id":"{562235B9-FAA9-4EF5-B4FB-9C7E99874DE7}","global_id":"03fcd04a-31de-4179-a0d5-16d8375ab9a5"}},{"type":"Feature","geometry":{"type":"Polygon","coordinates":[[[-102.82643,48.11078],[-102.82595,48.11069],[-102.82589,48.11041],[-102.82552,48.1106],[-102.82483,48.11039],[-102.82462,48.1101],[-102.82498,48.11004],[-102.82487,48.10985],[-102.82502,48.10964],[-102.82466,48.10953],[-102.82471,48.10931],[-102.82447,48.10929],[-102.82422,48.10905],[-102.82477,48.10873],[-102.82454,48.10851],[-102.82479,48.10849],[-102.82499,48.10866],[-102.82523,48.10857],[-102.82595,48.10896],[-102.82576,48.10912],[-102.82553,48.10981],[-102.82583,48.10997],[-102.82685,48.11014],[-102.82701,48.11038],[-102.827,48.11058],[-102.82643,48.11078]]]},"properties":{"fire_id":"ufid:2023-NDDPF-000312","source_collection":"history-2023","source_objectid":21292,"incident_name":"Spring","mapped_acres":5.0,"mapped_acres_source":"poly_GISAcres","gis_acres":5.0,"auto_acres":5.41416810350053,"reported_acres":5.4,"percent_contained":null,"state":"ND","state_wfigs":"US-ND","county":"McKenzie","discovery_time_utc":"2023-09-15T22:39:00Z","perimeter_time_utc":"2024-01-19T16:39:59Z","perimeter_edit_time_utc":"2024-01-19T16:39:59Z","incident_modified_time_utc":"2024-01-03T20:17:57Z","containment_time_utc":"2023-09-16T02:52:00Z","control_time_utc":"2023-09-16T15:19:00Z","fire_out_time_utc":"2023-09-27T15:25:00Z","fire_cause":"Human","fire_cause_general":null,"map_method":"GPS-Walked","source_dataset":"Decertified","unique_fire_identifier":"2023-NDDPF-000312","irwin_id":"{D35196AA-6951-4229-B519-B5D44B80B919}","global_id":"fcb03066-5586-4a2f-bb72-0a5ec533a345"}},{"type":"Feature","geometry":{"type":"Polygon","coordinates":[[[-103.66773,47.67371],[-103.66795,47.67372],[-103.66777,47.67376],[-103.66773,47.67371]]]},"properties":{"fire_id":"ufid:2023-NDDPF-000234","source_collection":"history-2023","source_objectid":21304,"incident_name":"Hornet","mapped_acres":0.02,"mapped_acres_source":"poly_GISAcres","gis_acres":0.02,"auto_acres":0.02284676569585904,"reported_acres":0.1,"percent_contained":null,"state":"ND","state_wfigs":"US-ND","county":"McKenzie","discovery_time_utc":"2023-08-10T00:00:00Z","perimeter_time_utc":"2023-09-27T16:52:55Z","perimeter_edit_time_utc":"2023-09-27T16:52:55Z","incident_modified_time_utc":"2023-08-10T15:35:47Z","containment_time_utc":"2023-08-10T03:30:00Z","control_time_utc":"2023-08-10T03:30:00Z","fire_out_time_utc":"2023-08-10T03:30:00Z","fire_cause":"Human","fire_cause_general":"Equipment and vehicle use","map_method":"Hand Sketch","source_dataset":"FFP","unique_fire_identifier":"2023-NDDPF-000234","irwin_id":"{3C1EAB61-52D7-4986-ACAC-748E77F4AAE7}","global_id":"ced2003c-ee17-41af-bd98-c7deb3e13c3d"}},{"type":"Feature","geometry":{"type":"Polygon","coordinates":[[[-102.52063,47.99137],[-102.5203,47.99115],[-102.52033,47.99073],[-102.52076,47.99106],[-102.52077,47.9913],[-102.52063,47.99137]]]},"properties":{"fire_id":"ufid:2023-NDFBA-000041","source_collection":"history-2023","source_objectid":21749,"incident_name":"INDEPENDENCE","mapped_acres":1.0,"mapped_acres_source":"poly_GISAcres","gis_acres":1.0,"auto_acres":0.4258131820940404,"reported_acres":0.4,"percent_contained":null,"state":"ND","state_wfigs":"US-ND","county":"Mountrail","discovery_time_utc":"2023-07-03T01:27:00Z","perimeter_time_utc":"2023-10-16T19:43:33Z","perimeter_edit_time_utc":"2023-10-16T19:43:34Z","incident_modified_time_utc":"2023-07-03T15:59:56Z","containment_time_utc":null,"control_time_utc":"2023-07-03T01:38:00Z","fire_out_time_utc":"2023-07-04T21:00:00Z","fire_cause":"Human","fire_cause_general":"Fireworks","map_method":"Hand Sketch","source_dataset":"FFP","unique_fire_identifier":"2023-NDFBA-000041","irwin_id":"{2A0CB9F5-E142-4436-8DE4-20DCB8CFA762}","global_id":"a02bb75b-ab9e-4002-ab3e-a9afed9f678a"}},{"type":"Feature","geometry":{"type":"Polygon","coordinates":[[[-102.30117,47.66393],[-102.30115,47.66392],[-102.3012,47.66389],[-102.30117,47.66393]]]},"properties":{"fire_id":"ufid:2023-NDFBA-000045","source_collection":"history-2023","source_objectid":21751,"incident_name":"BOLD","mapped_acres":1.0,"mapped_acres_source":"poly_GISAcres","gis_acres":1.0,"auto_acres":0.00194208028504103,"reported_acres":null,"percent_contained":null,"state":"ND","state_wfigs":"US-ND","county":"Dunn","discovery_time_utc":"2023-07-05T02:38:00Z","perimeter_time_utc":"2023-07-05T07:38:00Z","perimeter_edit_time_utc":"2023-10-16T20:39:45Z","incident_modified_time_utc":"2023-07-05T19:52:34Z","containment_time_utc":null,"control_time_utc":null,"fire_out_time_utc":null,"fire_cause":null,"fire_cause_general":null,"map_method":"Hand Sketch","source_dataset":"2023 NIFS","unique_fire_identifier":"2023-NDFBA-000045","irwin_id":"{AAE70C6F-2F8D-440E-821D-96470DC51670}","global_id":"13b93b5d-2787-46dc-88c0-436686691a62"}},{"type":"Feature","geometry":{"type":"Polygon","coordinates":[[[-102.13259,47.95031],[-102.13266,47.9507],[-102.1324,47.95073],[-102.13227,47.95035],[-102.13259,47.95031]]]},"properties":{"fire_id":"ufid:2023-NDFBA-000047","source_collection":"history-2023","source_objectid":21752,"incident_name":"HAMBLEN","mapped_acres":0.23,"mapped_acres_source":"poly_GISAcres","gis_acres":0.23,"auto_acres":0.230259183075998,"reported_acres":null,"percent_contained":null,"state":"ND","state_wfigs":"US-ND","county":"Mountrail","discovery_time_utc":"2023-07-06T19:18:00Z","perimeter_time_utc":"2023-07-06T19:45:00Z","perimeter_edit_time_utc":"2023-10-16T20:48:10Z","incident_modified_time_utc":"2023-07-06T22:57:19Z","containment_time_utc":null,"control_time_utc":null,"fire_out_time_utc":null,"fire_cause":null,"fire_cause_general":null,"map_method":"Hand Sketch","source_dataset":"2023 NIFS","unique_fire_identifier":"2023-NDFBA-000047","irwin_id":"{0C1CB0C8-BB17-44F0-B19D-321C5434698E}","global_id":"31517d32-c4b5-424f-ad46-9758c98b27d4"}},{"type":"Feature","geometry":{"type":"Polygon","coordinates":[[[-102.44258,47.73991],[-102.44305,47.74017],[-102.44285,47.74027],[-102.44237,47.74011],[-102.44233,47.73998],[-102.44258,47.73991]]]},"properties":{"fire_id":"ufid:2023-NDFBA-000050","source_collection":"history-2023","source_objectid":21754,"incident_name":"SKUNK BAY","mapped_acres":1.0,"mapped_acres_source":"poly_GISAcres","gis_acres":1.0,"auto_acres":0.318175072437465,"reported_acres":null,"percent_contained":null,"state":"ND","state_wfigs":"US-ND","county":"Dunn","discovery_time_utc":"2023-07-09T20:45:00Z","perimeter_time_utc":"2023-07-10T01:45:00Z","perimeter_edit_time_utc":"2023-10-16T21:00:11Z","incident_modified_time_utc":"2023-07-10T02:43:47Z","containment_time_utc":null,"control_time_utc":null,"fire_out_time_utc":null,"fire_cause":null,"fire_cause_general":null,"map_method":"Hand Sketch","source_dataset":"2023 NIFS","unique_fire_identifier":"2023-NDFBA-000050","irwin_id":"{0EA596D4-14A5-40C0-A843-D8636149E457}","global_id":"99ed3a84-06c5-451c-9fb9-f12b29a9b6db"}},{"type":"Feature","geometry":{"type":"Polygon","coordinates":[[[-102.74874,48.07326],[-102.74864,48.07334],[-102.74848,48.07327],[-102.74874,48.07326]]]},"properties":{"fire_id":"ufid:2023-NDDPF-000298","source_collection":"history-2023","source_objectid":21765,"incident_name":"Antelope","mapped_acres":0.1,"mapped_acres_source":"poly_GISAcres","gis_acres":0.1,"auto_acres":0.04060173198907999,"reported_acres":0.1,"percent_contained":null,"state":"ND","state_wfigs":"US-ND","county":"McKenzie","discovery_time_utc":"2023-09-04T19:20:00Z","perimeter_time_utc":"2023-10-17T14:51:49Z","perimeter_edit_time_utc":"2023-10-17T14:51:49Z","incident_modified_time_utc":"2023-09-06T19:28:57Z","containment_time_utc":"2023-09-05T00:00:00Z","control_time_utc":"2023-09-05T00:00:00Z","fire_out_time_utc":"2023-09-06T19:30:00Z","fire_cause":"Human","fire_cause_general":"Other causes","map_method":"Hand Sketch","source_dataset":"FFP","unique_fire_identifier":"2023-NDDPF-000298","irwin_id":"{372D7C85-9562-4340-BBD1-1D9E2A72FA48}","global_id":"3b48252c-5431-4524-a417-f5d9318d1785"}},{"type":"Feature","geometry":{"type":"Polygon","coordinates":[[[-102.7494,48.07325],[-102.74983,48.0733],[-102.75016,48.07381],[-102.74994,48.07408],[-102.75022,48.07413],[-102.7505,48.07463],[-102.7502,48.0746],[-102.75003,48.07472],[-102.74927,48.07407],[-102.74927,48.07382],[-102.74896,48.0734],[-102.7494,48.07325]]]},"properties":{"fire_id":"ufid:2023-NDDPF-000329","source_collection":"history-2023","source_objectid":23186,"incident_name":"Antelope 2","mapped_acres":2.27,"mapped_acres_source":"poly_GISAcres","gis_acres":2.27,"auto_acres":2.270340091559816,"reported_acres":2.3,"percent_contained":null,"state":"ND","state_wfigs":"US-ND","county":"McKenzie","discovery_time_utc":"2023-11-11T21:34:00Z","perimeter_time_utc":"2024-03-13T21:53:07Z","perimeter_edit_time_utc":"2024-03-13T21:53:07Z","incident_modified_time_utc":"2023-11-14T20:16:06Z","containment_time_utc":"2023-11-11T23:00:00Z","control_time_utc":"2023-11-12T00:25:00Z","fire_out_time_utc":"2023-11-14T20:11:00Z","fire_cause":"Human","fire_cause_general":"Power generation / transmission / distribution","map_method":"Hand Sketch","source_dataset":"FFP","unique_fire_identifier":"2023-NDDPF-000329","irwin_id":"{E74D8B0E-4990-4C61-B18B-84F3FA899A06}","global_id":"c31bbdbb-5558-4929-b189-28ae3aacd627"}},{"type":"Feature","geometry":{"type":"Polygon","coordinates":[[[-102.74555,48.08509],[-102.74485,48.08501],[-102.74403,48.08503],[-102.74366,48.08485],[-102.74437,48.08481],[-102.74505,48.08442],[-102.74574,48.08434],[-102.74587,48.08444],[-102.74584,48.08475],[-102.74555,48.08509]]]},"properties":{"fire_id":"ufid:2023-NDFBA-000037","source_collection":"history-2023","source_objectid":23811,"incident_name":"PATRIOT","mapped_acres":2.1,"mapped_acres_source":"poly_GISAcres","gis_acres":2.1,"auto_acres":2.096619381146006,"reported_acres":1.0,"percent_contained":null,"state":"ND","state_wfigs":"US-ND","county":"McKenzie","discovery_time_utc":"2023-07-02T02:40:00Z","perimeter_time_utc":"2024-01-19T15:41:10Z","perimeter_edit_time_utc":"2024-01-19T15:41:10Z","incident_modified_time_utc":"2023-10-25T17:19:54Z","containment_time_utc":null,"control_time_utc":null,"fire_out_time_utc":"2023-10-25T17:00:00Z","fire_cause":"Human","fire_cause_general":"Undetermined","map_method":"Hand Sketch","source_dataset":"FFP","unique_fire_identifier":"2023-NDFBA-000037","irwin_id":"{1E3F569A-1313-4E5D-9297-F455F9C65CDD}","global_id":"052279eb-8f99-495e-a6cf-ca17de6d49f1"}}]}
