{"type":"FeatureCollection","features":[{"type":"Feature","geometry":{"type":"Polygon","coordinates":[[[-99.80128,48.83503],[-99.80132,48.83499],[-99.80133,48.83504],[-99.80128,48.83503]]]},"properties":{"fire_id":"ufid:2023-NDTMA-230075","source_collection":"history-2023","source_objectid":22489,"incident_name":"VEGGIE","mapped_acres":0.1,"mapped_acres_source":"poly_GISAcres","gis_acres":0.1,"auto_acres":0.00288559774974568,"reported_acres":0.1,"percent_contained":null,"state":"ND","state_wfigs":"US-ND","county":"Rolette","discovery_time_utc":"2023-10-16T01:19:26Z","perimeter_time_utc":"2023-10-16T06:19:26Z","perimeter_edit_time_utc":"2023-11-02T19:03:16Z","incident_modified_time_utc":"2023-10-20T16:38:17Z","containment_time_utc":null,"control_time_utc":null,"fire_out_time_utc":null,"fire_cause":null,"fire_cause_general":null,"map_method":"Hand Sketch","source_dataset":"2023 NIFS","unique_fire_identifier":"2023-NDTMA-230075","irwin_id":"{A7909B8F-35C1-48B0-81C1-DBF4883C0961}","global_id":"cbff79a0-f5c2-4cf0-ac8f-d1e3731af3e5"}},{"type":"Feature","geometry":{"type":"Polygon","coordinates":[[[-99.86522,48.80225],[-99.86509,48.80234],[-99.86492,48.80224],[-99.86509,48.80213],[-99.86522,48.80225]]]},"properties":{"fire_id":"ufid:2023-NDTMA-230062","source_collection":"history-2023","source_objectid":23108,"incident_name":"PINE TREE","mapped_acres":0.2,"mapped_acres_source":"poly_GISAcres","gis_acres":0.2,"auto_acres":0.0635688733779587,"reported_acres":0.2,"percent_contained":null,"state":"ND","state_wfigs":"US-ND","county":"Rolette","discovery_time_utc":"2023-07-30T03:58:43Z","perimeter_time_utc":"2023-07-30T08:58:43Z","perimeter_edit_time_utc":"2023-12-06T17:57:43Z","incident_modified_time_utc":"2023-07-31T20:28:13Z","containment_time_utc":null,"control_time_utc":null,"fire_out_time_utc":null,"fire_cause":null,"fire_cause_general":null,"map_method":"Hand Sketch","source_dataset":"2023 NIFS","unique_fire_identifier":"2023-NDTMA-230062","irwin_id":"{B9C4A11D-12D7-421F-BED2-216D51312DBF}","global_id":"59527956-9b61-44fa-a20e-c0cf5b65c1df"}},{"type":"Feature","geometry":{"type":"Polygon","coordinates":[[[-97.32243,46.47819],[-97.3241,46.47865],[-97.32417,46.47888],[-97.32529,46.47936],[-97.32552,46.48005],[-97.32511,46.48066],[-97.32451,46.4805],[-97.32353,46.4806],[-97.32276,46.48008],[-97.32255,46.47978],[-97.3219,46.47941],[-97.32174,46.4792],[-97.32177,46.47875],[-97.32164,46.4785],[-97.32243,46.47819]]]},"properties":{"fire_id":"ufid:2023-NDDPF-000335","source_collection":"history-2023","source_objectid":23304,"incident_name":"J West","mapped_acres":3.0,"mapped_acres_source":"poly_GISAcres","gis_acres":3.0,"auto_acres":12.433138955762312,"reported_acres":12.4,"percent_contained":null,"state":"ND","state_wfigs":"US-ND","county":"Ransom","discovery_time_utc":"2023-12-07T19:54:43Z","perimeter_time_utc":"2023-12-18T14:51:17Z","perimeter_edit_time_utc":"2023-12-18T14:51:17Z","incident_modified_time_utc":"2023-12-11T18:24:17Z","containment_time_utc":"2023-12-07T21:20:00Z","control_time_utc":"2023-12-08T16:00:00Z","fire_out_time_utc":"2023-12-11T18:23:00Z","fire_cause":"Undetermined","fire_cause_general":"Undetermined","map_method":"Hand Sketch","source_dataset":"FFP","unique_fire_identifier":"2023-NDDPF-000335","irwin_id":"{7837ED0E-DA1E-44AA-9ACA-40E9FB03EC7E}","global_id":"ea436711-55a6-436e-bcb1-e6791869bcd6"}},{"type":"Feature","geometry":{"type":"Polygon","coordinates":[[[-99.76257,48.85083],[-99.76354,48.85086],[-99.76401,48.85127],[-99.76384,48.85158],[-99.76319,48.8521],[-99.76234,48.85204],[-99.76143,48.85245],[-99.7612,48.85268],[-99.75985,48.85274],[-99.75937,48.85259],[-99.75927,48.85242],[-99.75922,48.85224],[-99.7594,48.85187],[-99.75918,48.85166],[-99.75952,48.85142],[-99.76079,48.85151],[-99.76257,48.85083]]]},"properties":{"fire_id":"ufid:2023-NDTMA-230046","source_collection":"history-2023","source_objectid":24011,"incident_name":"TREED","mapped_acres":10.86,"mapped_acres_source":"poly_GISAcres","gis_acres":10.86,"auto_acres":10.859533217674352,"reported_acres":9.6,"percent_contained":null,"state":"ND","state_wfigs":"US-ND","county":"Rolette","discovery_time_utc":"2023-05-21T22:01:00Z","perimeter_time_utc":"2024-02-23T01:14:48Z","perimeter_edit_time_utc":"2024-02-23T01:14:48Z","incident_modified_time_utc":"2023-05-22T14:33:25Z","containment_time_utc":"2023-05-22T02:30:00Z","control_time_utc":"2023-05-22T03:00:00Z","fire_out_time_utc":"2023-05-31T15:00:00Z","fire_cause":"Human","fire_cause_general":"Arson","map_method":"Hand Sketch","source_dataset":"FFP","unique_fire_identifier":"2023-NDTMA-230046","irwin_id":"{E437C6F1-A90A-4A28-B664-5B42850BDDAE}","global_id":"72c06399-a716-48d4-b11a-f6dcc51ad251"}},{"type":"Feature","geometry":{"type":"Polygon","coordinates":[[[-99.69174,48.84119],[-99.6916,48.84109],[-99.69171,48.84085],[-99.69167,48.83931],[-99.69187,48.839],[-99.6935,48.83896],[-99.69358,48.83991],[-99.69338,48.84013],[-99.69353,48.84095],[-99.69347,48.84121],[-99.69425,48.84206],[-99.69424,48.8428],[-99.69258,48.84282],[-99.6919,48.84301],[-99.69178,48.84332],[-99.69102,48.84328],[-99.69093,48.84316],[-99.69109,48.84206],[-99.69058,48.84214],[-99.69026,48.84244],[-99.68955,48.84272],[-99.68917,48.84272],[-99.68896,48.84252],[-99.68898,48.84192],[-99.68933,48.8415],[-99.69001,48.84141],[-99.69151,48.84159],[-99.69174,48.84119]]]},"properties":{"fire_id":"ufid:2023-NDTMA-230023","source_collection":"history-2023","source_objectid":24012,"incident_name":"BLAZE","mapped_acres":22.23,"mapped_acres_source":"poly_GISAcres","gis_acres":22.23,"auto_acres":22.23101962838557,"reported_acres":20.4,"percent_contained":null,"state":"ND","state_wfigs":"US-ND","county":"Rolette","discovery_time_utc":"2023-05-05T00:30:00Z","perimeter_time_utc":"2024-02-23T01:42:32Z","perimeter_edit_time_utc":"2024-02-23T01:42:32Z","incident_modified_time_utc":"2023-05-05T14:56:52Z","containment_time_utc":"2023-05-05T04:00:00Z","control_time_utc":"2023-05-05T07:00:00Z","fire_out_time_utc":"2023-05-09T16:30:00Z","fire_cause":"Human","fire_cause_general":"Arson","map_method":"Hand Sketch","source_dataset":"FFP","unique_fire_identifier":"2023-NDTMA-230023","irwin_id":"{0A0364E3-1EEF-417B-8BB3-22F885DFC9AC}","global_id":"11a526d7-eae3-4ddf-b9f4-22ecab7010d5"}},{"type":"Feature","geometry":{"type":"Polygon","coordinates":[[[-99.69278,48.84512],[-99.69219,48.84513],[-99.69147,48.84595],[-99.69065,48.84597],[-99.6891,48.84543],[-99.68888,48.84448],[-99.68948,48.84328],[-99.68982,48.84311],[-99.6904,48.84314],[-99.6908,48.84299],[-99.69278,48.84512]]]},"properties":{"fire_id":"ufid:2023-NDTMA-230019","source_collection":"history-2023","source_objectid":24013,"incident_name":"KENT","mapped_acres":15.19,"mapped_acres_source":"poly_GISAcres","gis_acres":15.19,"auto_acres":15.193125410216494,"reported_acres":13.1,"percent_contained":null,"state":"ND","state_wfigs":"US-ND","county":"Rolette","discovery_time_utc":"2023-05-03T02:18:00Z","perimeter_time_utc":"2024-02-23T01:33:14Z","perimeter_edit_time_utc":"2024-02-23T01:33:14Z","incident_modified_time_utc":"2023-05-04T18:03:45Z","containment_time_utc":"2023-05-03T03:30:00Z","control_time_utc":"2023-05-03T04:00:00Z","fire_out_time_utc":"2023-05-08T16:00:00Z","fire_cause":"Human","fire_cause_general":"Arson","map_method":"Hand Sketch","source_dataset":"FFP","unique_fire_identifier":"2023-NDTMA-230019","irwin_id":"{176BF5B9-606F-4F72-936A-7F972EE3CD60}","global_id":"9e4d233a-d68a-4d9e-b3c2-545fa6316eaa"}},{"type":"Feature","geometry":{"type":"Polygon","coordinates":[[[-99.83224,48.83807],[-99.83042,48.83836],[-99.82915,48.83914],[-99.82855,48.83908],[-99.82848,48.83877],[-99.82728,48.83876],[-99.82694,48.83848],[-99.82668,48.83801],[-99.82632,48.8378],[-99.82535,48.83636],[-99.82432,48.83659],[-99.82293,48.83533],[-99.82254,48.83475],[-99.8323,48.83472],[-99.83224,48.83807]]]},"properties":{"fire_id":"ufid:2023-NDTMA-230048","source_collection":"history-2023","source_objectid":24014,"incident_name":"SHOOT","mapped_acres":57.47,"mapped_acres_source":"poly_GISAcres","gis_acres":57.47,"auto_acres":57.46602930106718,"reported_acres":54.4,"percent_contained":null,"state":"ND","state_wfigs":"US-ND","county":"Rolette","discovery_time_utc":"2023-05-26T06:00:00Z","perimeter_time_utc":"2024-02-23T01:15:16Z","perimeter_edit_time_utc":"2024-02-23T01:15:16Z","incident_modified_time_utc":"2023-05-26T16:01:05Z","containment_time_utc":"2023-05-26T16:00:00Z","control_time_utc":"2023-05-26T18:00:00Z","fire_out_time_utc":"2023-06-05T16:00:00Z","fire_cause":"Human","fire_cause_general":"Arson","map_method":"Hand Sketch","source_dataset":"FFP","unique_fire_identifier":"2023-NDTMA-230048","irwin_id":"{FD6972FF-C014-4215-A59C-DD60030C1FA8}","global_id":"7069819b-4816-4f3e-87dd-4ce81fa08c52"}},{"type":"Feature","geometry":{"type":"Polygon","coordinates":[[[-99.72608,48.85823],[-99.72823,48.85831],[-99.72845,48.85851],[-99.72852,48.85904],[-99.72881,48.85955],[-99.72976,48.86033],[-99.72885,48.86062],[-99.72873,48.8605],[-99.72909,48.86015],[-99.72855,48.85958],[-99.72771,48.8595],[-99.72717,48.85894],[-99.72611,48.8587],[-99.72608,48.85823]]]},"properties":{"fire_id":"ufid:2023-NDTMA-230029","source_collection":"history-2023","source_objectid":24015,"incident_name":"SMACK 2","mapped_acres":5.35,"mapped_acres_source":"poly_GISAcres","gis_acres":5.35,"auto_acres":5.351387707300887,"reported_acres":5.1,"percent_contained":null,"state":"ND","state_wfigs":"US-ND","county":"Rolette","discovery_time_utc":"2023-05-07T20:02:00Z","perimeter_time_utc":"2024-02-23T01:17:58Z","perimeter_edit_time_utc":"2024-02-23T01:17:59Z","incident_modified_time_utc":"2023-05-09T19:29:41Z","containment_time_utc":"2023-05-07T23:10:00Z","control_time_utc":"2023-05-08T01:00:00Z","fire_out_time_utc":"2023-05-17T15:00:00Z","fire_cause":"Human","fire_cause_general":"Debris and open burning","map_method":"Hand Sketch","source_dataset":"FFP","unique_fire_identifier":"2023-NDTMA-230029","irwin_id":"{8B941E62-71FB-4209-9278-D1161EAE9E4F}","global_id":"ffe07e82-792f-4779-a973-f64d116037dc"}},{"type":"Feature","geometry":{"type":"Polygon","coordinates":[[[-99.86899,48.86117],[-99.86754,48.86066],[-99.86708,48.86027],[-99.86545,48.86013],[-99.86451,48.85905],[-99.86312,48.8588],[-99.86168,48.8595],[-99.86125,48.85839],[-99.86129,48.85765],[-99.86148,48.85736],[-99.86215,48.85712],[-99.86595,48.85719],[-99.86595,48.85654],[-99.86863,48.85653],[-99.86867,48.85795],[-99.86919,48.85784],[-99.86934,48.85822],[-99.86962,48.85836],[-99.87017,48.85897],[-99.87026,48.85952],[-99.87,48.86045],[-99.86899,48.86117]]]},"properties":{"fire_id":"ufid:2023-NDTMA-230047","source_collection":"history-2023","source_objectid":24043,"incident_name":"DRIP TORCH","mapped_acres":49.42,"mapped_acres_source":"poly_GISAcres","gis_acres":49.42,"auto_acres":49.417443975316274,"reported_acres":45.1,"percent_contained":null,"state":"ND","state_wfigs":"US-ND","county":"Rolette","discovery_time_utc":"2023-05-25T20:21:00Z","perimeter_time_utc":"2024-02-23T01:36:05Z","perimeter_edit_time_utc":"2024-02-23T01:36:05Z","incident_modified_time_utc":"2023-05-26T15:59:14Z","containment_time_utc":"2023-05-25T22:30:00Z","control_time_utc":"2023-05-25T23:30:00Z","fire_out_time_utc":"2023-06-04T15:00:00Z","fire_cause":"Human","fire_cause_general":"Debris and open burning","map_method":"Hand Sketch","source_dataset":"FFP","unique_fire_identifier":"2023-NDTMA-230047","irwin_id":"{24D27BD8-A174-4AD5-A0E8-52B1E3992E5E}","global_id":"ec115d33-ce33-445f-9486-13047e6b62ca"}},{"type":"Feature","geometry":{"type":"Polygon","coordinates":[[[-99.82128,48.81274],[-99.82108,48.81274],[-99.82095,48.8125],[-99.82093,48.81207],[-99.8204,48.81218],[-99.82063,48.81273],[-99.81988,48.81267],[-99.81927,48.81245],[-99.81857,48.81193],[-99.81827,48.81134],[-99.81838,48.81098],[-99.82124,48.81094],[-99.82128,48.81274]]]},"properties":{"fire_id":"ufid:2023-NDTMA-230006","source_collection":"history-2023","source_objectid":24044,"incident_name":"LAGOON","mapped_acres":8.32,"mapped_acres_source":"poly_GISAcres","gis_acres":8.32,"auto_acres":8.322214586332887,"reported_acres":8.1,"percent_contained":null,"state":"ND","state_wfigs":"US-ND","county":"Rolette","discovery_time_utc":"2023-04-28T20:19:00Z","perimeter_time_utc":"2024-02-23T01:32:58Z","perimeter_edit_time_utc":"2024-02-23T01:32:59Z","incident_modified_time_utc":"2023-05-01T15:03:39Z","containment_time_utc":"2023-04-28T21:00:00Z","control_time_utc":"2023-04-28T21:00:00Z","fire_out_time_utc":"2023-04-28T21:00:00Z","fire_cause":"Human","fire_cause_general":"Power generation / transmission / distribution","map_method":"Hand Sketch","source_dataset":"FFP","unique_fire_identifier":"2023-NDTMA-230006","irwin_id":"{62DE628E-BDA3-43D9-A3D6-C770F0CA29A0}","global_id":"5153bb16-63c3-48e7-9f8e-d4e804ebf31d"}},{"type":"Feature","geometry":{"type":"Polygon","coordinates":[[[-99.82028,48.82301],[-99.82137,48.82435],[-99.81945,48.82419],[-99.81823,48.82426],[-99.8175,48.82399],[-99.8175,48.82381],[-99.81775,48.82351],[-99.81896,48.82295],[-99.82028,48.82301]]]},"properties":{"fire_id":"ufid:2023-NDTMA-230034","source_collection":"history-2023","source_objectid":24045,"incident_name":"OH GEE","mapped_acres":7.3,"mapped_acres_source":"poly_GISAcres","gis_acres":7.3,"auto_acres":7.299444968990015,"reported_acres":7.1,"percent_contained":null,"state":"ND","state_wfigs":"US-ND","county":"Rolette","discovery_time_utc":"2023-05-10T23:00:00Z","perimeter_time_utc":"2024-02-23T01:27:01Z","perimeter_edit_time_utc":"2024-02-23T01:27:01Z","incident_modified_time_utc":"2023-05-11T21:05:34Z","containment_time_utc":"2023-05-11T00:05:00Z","control_time_utc":"2023-05-11T03:00:00Z","fire_out_time_utc":"2023-05-20T14:00:00Z","fire_cause":"Human","fire_cause_general":"Debris and open burning","map_method":"Hand Sketch","source_dataset":"FFP","unique_fire_identifier":"2023-NDTMA-230034","irwin_id":"{66D41320-D90E-4A81-B40B-22CBADCA8DD0}","global_id":"21c64f9d-14b9-4747-8b85-b544a0ced642"}},{"type":"Feature","geometry":{"type":"Polygon","coordinates":[[[-99.86724,48.86995],[-99.86557,48.87],[-99.86432,48.86961],[-99.86428,48.86885],[-99.86364,48.86806],[-99.86355,48.86746],[-99.86325,48.86687],[-99.86265,48.86647],[-99.86265,48.86591],[-99.86295,48.86537],[-99.86355,48.86475],[-99.86458,48.86408],[-99.86621,48.86382],[-99.86737,48.86343],[-99.86797,48.86295],[-99.86909,48.86261],[-99.87007,48.86247],[-99.87093,48.8632],[-99.87123,48.86365],[-99.87102,48.86422],[-99.87136,48.86467],[-99.86994,48.86495],[-99.86952,48.86566],[-99.86964,48.86631],[-99.86788,48.86664],[-99.86827,48.86712],[-99.86926,48.86789],[-99.86947,48.86825],[-99.86844,48.86893],[-99.86664,48.86904],[-99.86574,48.86964],[-99.86724,48.86995]]]},"properties":{"fire_id":"ufid:2023-NDTMA-230049","source_collection":"history-2023","source_objectid":24046,"incident_name":"OPEN","mapped_acres":74.1,"mapped_acres_source":"poly_GISAcres","gis_acres":74.1,"auto_acres":74.09614838754005,"reported_acres":78.0,"percent_contained":null,"state":"ND","state_wfigs":"US-ND","county":"Rolette","discovery_time_utc":"2023-05-27T01:00:00Z","perimeter_time_utc":"2024-02-23T01:26:38Z","perimeter_edit_time_utc":"2024-02-23T01:26:39Z","incident_modified_time_utc":"2023-05-30T18:28:11Z","containment_time_utc":"2023-05-27T05:09:00Z","control_time_utc":"2023-05-27T19:00:00Z","fire_out_time_utc":"2023-06-05T15:00:00Z","fire_cause":"Human","fire_cause_general":"Debris and open burning","map_method":"Hand Sketch","source_dataset":"FFP","unique_fire_identifier":"2023-NDTMA-230049","irwin_id":"{85AD1541-112D-4CC8-9E16-6DBC86AF95BE}","global_id":"e3258df9-80b5-4f11-90f5-3879e22bf2f9"}},{"type":"Feature","geometry":{"type":"Polygon","coordinates":[[[-99.72208,48.87108],[-99.72214,48.87072],[-99.72249,48.87095],[-99.72233,48.87109],[-99.72208,48.87108]]]},"properties":{"fire_id":"ufid:2023-NDTMA-230042","source_collection":"history-2023","source_objectid":24078,"incident_name":"SLASH","mapped_acres":0.2,"mapped_acres_source":"poly_GISAcres","gis_acres":0.2,"auto_acres":0.2035215238199217,"reported_acres":0.2,"percent_contained":null,"state":"ND","state_wfigs":"US-ND","county":"Rolette","discovery_time_utc":"2023-05-17T00:50:00Z","perimeter_time_utc":"2024-02-23T01:21:15Z","perimeter_edit_time_utc":"2024-02-23T01:21:15Z","incident_modified_time_utc":"2023-05-17T14:55:28Z","containment_time_utc":"2023-05-17T01:40:00Z","control_time_utc":"2023-05-17T01:40:00Z","fire_out_time_utc":"2023-05-19T16:00:00Z","fire_cause":"Human","fire_cause_general":"Debris and open burning","map_method":"Hand Sketch","source_dataset":"FFP","unique_fire_identifier":"2023-NDTMA-230042","irwin_id":"{2C8AB948-E466-4872-995D-32E33F651D8E}","global_id":"5baecd7f-32d5-4849-81b5-4f3b6d0df6f2"}},{"type":"Feature","geometry":{"type":"Polygon","coordinates":[[[-99.83235,48.8453],[-99.83209,48.84773],[-99.83308,48.84787],[-99.83321,48.84835],[-99.83372,48.84906],[-99.83406,48.84906],[-99.83496,48.84965],[-99.83333,48.85004],[-99.83252,48.85072],[-99.83192,48.85092],[-99.83123,48.85168],[-99.83127,48.85188],[-99.83196,48.85253],[-99.83042,48.85253],[-99.8296,48.85219],[-99.82913,48.85151],[-99.82887,48.85033],[-99.82844,48.85004],[-99.82784,48.85019],[-99.82672,48.85013],[-99.82604,48.84945],[-99.82544,48.84829],[-99.826,48.84801],[-99.82741,48.84818],[-99.8284,48.84793],[-99.82715,48.84711],[-99.82582,48.84705],[-99.82428,48.8468],[-99.82505,48.84581],[-99.82569,48.84547],[-99.83235,48.8453]]]},"properties":{"fire_id":"ufid:2023-NDTMA-230040","source_collection":"history-2023","source_objectid":24079,"incident_name":"REPEAT","mapped_acres":1.0,"mapped_acres_source":"poly_GISAcres","gis_acres":1.0,"auto_acres":80.20366357722928,"reported_acres":55.5,"percent_contained":null,"state":"ND","state_wfigs":"US-ND","county":"Rolette","discovery_time_utc":"2023-05-16T22:04:00Z","perimeter_time_utc":"2024-02-23T01:26:12Z","perimeter_edit_time_utc":"2024-02-23T01:26:12Z","incident_modified_time_utc":"2023-05-17T14:53:32Z","containment_time_utc":"2023-05-17T04:00:00Z","control_time_utc":"2023-05-17T21:00:00Z","fire_out_time_utc":"2023-05-27T15:00:00Z","fire_cause":"Human","fire_cause_general":"Fireworks","map_method":"Hand Sketch","source_dataset":"FFP","unique_fire_identifier":"2023-NDTMA-230040","irwin_id":"{7B86BD3B-DD68-422C-A62D-E17F344E1AEF}","global_id":"a0dee046-6772-40cc-8d18-428dfe72d7be"}},{"type":"Feature","geometry":{"type":"Polygon","coordinates":[[[-99.94356,48.89984],[-99.94317,48.89957],[-99.943,48.89931],[-99.943,48.89902],[-99.94422,48.89792],[-99.94493,48.89771],[-99.94594,48.89814],[-99.94643,48.89863],[-99.94643,48.89878],[-99.94568,48.89919],[-99.94356,48.89984]]]},"properties":{"fire_id":"ufid:2023-NDTMA-230004","source_collection":"history-2023","source_objectid":24080,"incident_name":"MEATBALL","mapped_acres":8.49,"mapped_acres_source":"poly_GISAcres","gis_acres":8.49,"auto_acres":8.48523986789167,"reported_acres":8.8,"percent_contained":null,"state":"ND","state_wfigs":"US-ND","county":"Rolette","discovery_time_utc":"2023-04-18T23:21:00Z","perimeter_time_utc":"2024-02-23T01:30:36Z","perimeter_edit_time_utc":"2024-02-23T01:30:36Z","incident_modified_time_utc":"2023-04-19T15:21:38Z","containment_time_utc":"2023-04-19T00:15:00Z","control_time_utc":"2023-04-19T00:20:00Z","fire_out_time_utc":"2023-04-19T00:20:00Z","fire_cause":"Human","fire_cause_general":"Debris and open burning","map_method":"Hand Sketch","source_dataset":"FFP","unique_fire_identifier":"2023-NDTMA-230004","irwin_id":"{D04808A5-D138-4D5B-BC12-ED8CEA71411D}","global_id":"fc582fdd-f5f1-4faf-95e1-20637af6cd82"}},{"type":"Feature","geometry":{"type":"Polygon","coordinates":[[[-99.73817,48.85228],[-99.7385,48.85207],[-99.7387,48.85169],[-99.73928,48.85128],[-99.73994,48.85116],[-99.74051,48.85141],[-99.74038,48.85157],[-99.74035,48.85209],[-99.74005,48.85233],[-99.73951,48.85248],[-99.73884,48.85248],[-99.73817,48.85228]]]},"properties":{"fire_id":"ufid:2023-NDTMA-230016","source_collection":"history-2023","source_objectid":24081,"incident_name":"MARTIN","mapped_acres":4.03,"mapped_acres_source":"poly_GISAcres","gis_acres":4.03,"auto_acres":4.032403080160845,"reported_acres":3.1,"percent_contained":null,"state":"ND","state_wfigs":"US-ND","county":"Rolette","discovery_time_utc":"2023-05-02T18:18:00Z","perimeter_time_utc":"2024-02-23T01:32:13Z","perimeter_edit_time_utc":"2024-02-23T01:32:13Z","incident_modified_time_utc":"2023-05-04T17:58:05Z","containment_time_utc":"2023-05-02T20:30:00Z","control_time_utc":"2023-05-03T00:00:00Z","fire_out_time_utc":"2023-05-07T16:00:00Z","fire_cause":"Human","fire_cause_general":"Arson","map_method":"Hand Sketch","source_dataset":"FFP","unique_fire_identifier":"2023-NDTMA-230016","irwin_id":"{3946BC86-F54A-4C72-80B8-0B17BEB0D9D4}","global_id":"8d1f8690-2195-479e-a3eb-e160493c0dce"}},{"type":"Feature","geometry":{"type":"Polygon","coordinates":[[[-99.7394,46.8143],[-99.73787,46.8171],[-99.73669,46.81979],[-99.73526,46.8197],[-99.73478,46.81901],[-99.73495,46.81814],[-99.73523,46.81748],[-99.73649,46.81689],[-99.73735,46.81626],[-99.73955,46.81311],[-99.74048,46.81304],[-99.74021,46.81367],[-99.7394,46.8143]]]},"properties":{"fire_id":"ufid:2023-NDNDS-2233300010","source_collection":"history-2023","source_objectid":41692,"incident_name":"John Abbott combine fire","mapped_acres":63.33,"mapped_acres_source":"poly_GISAcres","gis_acres":63.33,"auto_acres":20.098891754015263,"reported_acres":25.76,"percent_contained":null,"state":"ND","state_wfigs":"US-ND","county":"Kidder","discovery_time_utc":"2023-10-22T19:27:00Z","perimeter_time_utc":"2025-07-08T17:37:31Z","perimeter_edit_time_utc":null,"incident_modified_time_utc":"2023-10-23T15:34:11Z","containment_time_utc":"2023-10-22T20:45:00Z","control_time_utc":null,"fire_out_time_utc":null,"fire_cause":"Human","fire_cause_general":"Equipment and vehicle use","map_method":"Hand Sketch","source_dataset":"FFP","unique_fire_identifier":"2023-NDNDS-2233300010","irwin_id":"{EF716728-7F34-4B39-BE55-A91D66AD3786}","global_id":"51c97f29-91bf-4589-b394-3308fafd44ac"}}]}
