{"type":"FeatureCollection","features":[{"type":"Feature","geometry":{"type":"Polygon","coordinates":[[[-99.75426,41.9083],[-99.75395,41.90798],[-99.75433,41.90771],[-99.75383,41.90711],[-99.75435,41.90675],[-99.75497,41.90656],[-99.75504,41.90638],[-99.75386,41.90317],[-99.75404,41.9027],[-99.75479,41.90176],[-99.75483,41.90109],[-99.75412,41.90041],[-99.75349,41.90038],[-99.75311,41.9002],[-99.75237,41.9002],[-99.75184,41.89978],[-99.75164,41.89921],[-99.75016,41.89887],[-99.74973,41.89899],[-99.74944,41.89982],[-99.74839,41.90009],[-99.74836,41.90069],[-99.74771,41.90277],[-99.7469,41.90384],[-99.74708,41.90476],[-99.74621,41.90664],[-99.74562,41.90692],[-99.74515,41.90689],[-99.74468,41.90663],[-99.74428,41.90692],[-99.74348,41.90693],[-99.74325,41.90685],[-99.74306,41.90651],[-99.74274,41.90638],[-99.74207,41.90678],[-99.74179,41.90671],[-99.74194,41.90598],[-99.74228,41.90564],[-99.74272,41.90475],[-99.7435,41.90384],[-99.74326,41.90337],[-99.74308,41.90327],[-99.74207,41.9037],[-99.74231,41.9027],[-99.74294,41.90191],[-99.7437,41.90129],[-99.74379,41.90089],[-99.74458,41.90012],[-99.7451,41.89898],[-99.74632,41.89735],[-99.74662,41.89681],[-99.74642,41.89655],[-99.74679,41.89608],[-99.74721,41.89581],[-99.74764,41.89501],[-99.74727,41.89414],[-99.7476,41.89367],[-99.74753,41.8932],[-99.74802,41.89295],[-99.7483,41.8926],[-99.74776,41.89235],[-99.74742,41.8926],[-99.74701,41.89401],[-99.74627,41.89514],[-99.74622,41.89655],[-99.74555,41.89671],[-99.74405,41.89829],[-99.74318,41.89886],[-99.74294,41.89922],[-99.74242,41.89943],[-99.74207,41.8998],[-99.74179,41.89982],[-99.74173,41.89969],[-99.74209,41.89917],[-99.74213,41.89868],[-99.74252,41.89795],[-99.74259,41.89742],[-99.74357,41.89675],[-99.74321,41.89636],[-99.74322,41.89621],[-99.74415,41.89535],[-99.74493,41.89501],[-99.7453,41.89454],[-99.74554,41.89394],[-99.74615,41.8932],[-99.74596,41.89273],[-99.74662,41.89236],[-99.7467,41.8922],[-99.74642,41.89194],[-99.74435,41.8921],[-99.74333,41.89252],[-99.74289,41.89295],[-99.74269,41.89294],[-99.74267,41.89273],[-99.74295,41.89248],[-99.74299,41.89227],[-99.74279,41.89215],[-99.74208,41.89212],[-99.7419,41.8916],[-99.74252,41.89133],[-99.74281,41.89089],[-99.74401,41.8906],[-99.74468,41.8902],[-99.74495,41.88986],[-99.74461,41.88964],[-99.74408,41.88964],[-99.74368,41.88945],[-99.74234,41.88942],[-99.74218,41.88932],[-99.74241,41.88911],[-99.74294,41.88908],[-99.74371,41.88856],[-99.74528,41.88785],[-99.74526,41.88772],[-99.74485,41.88748],[-99.74474,41.88705],[-99.74588,41.88618],[-99.74548,41.88591],[-99.74477,41.88578],[-99.7446,41.88598],[-99.74462,41.88658],[-99.7444,41.88666],[-99.74314,41.88648],[-99.7424,41.88619],[-99.7409,41.88601],[-99.74012,41.88566],[-99.74,41.88545],[-99.74029,41.88487],[-99.74124,41.88451],[-99.74125,41.88438],[-99.7408,41.88403],[-99.73966,41.8837],[-99.73906,41.88383],[-99.73816,41.88481],[-99.73784,41.88493],[-99.73692,41.88498],[-99.73624,41.88458],[-99.73615,41.88431],[-99.73666,41.88371],[-99.73717,41.88336],[-99.73756,41.88274],[-99.73839,41.8819],[-99.7385,41.88103],[-99.73923,41.88056],[-99.73945,41.88022],[-99.7404,41.88008],[-99.74041,41.87956],[-99.74072,41.87929],[-99.7412,41.87908],[-99.74183,41.87909],[-99.74181,41.87896],[-99.74139,41.87878],[-99.74121,41.87842],[-99.74065,41.87822],[-99.7411,41.87755],[-99.7416,41.87642],[-99.7406,41.87608],[-99.74121,41.87582],[-99.74167,41.87522],[-99.74238,41.87475],[-99.74226,41.87441],[-99.74288,41.87355],[-99.74384,41.87257],[-99.74533,41.87179],[-99.74642,41.8718],[-99.74699,41.8716],[-99.74706,41.8714],[-99.74688,41.8706],[-99.74712,41.87017],[-99.74793,41.86937],[-99.74983,41.86794],[-99.7505,41.86776],[-99.75173,41.86655],[-99.75369,41.86525],[-99.75465,41.86438],[-99.75479,41.86405],[-99.75527,41.86378],[-99.75561,41.86334],[-99.75683,41.86257],[-99.75719,41.86217],[-99.7579,41.86197],[-99.75858,41.86144],[-99.75946,41.86099],[-99.75986,41.86037],[-99.7604,41.86023],[-99.76046,41.85997],[-99.7608,41.8597],[-99.76085,41.8595],[-99.76042,41.85914],[-99.75998,41.85904],[-99.75997,41.85876],[-99.76037,41.8582],[-99.76135,41.85758],[-99.76121,41.85722],[-99.76153,41.85683],[-99.76311,41.85612],[-99.76488,41.85561],[-99.76579,41.85492],[-99.76675,41.85464],[-99.76717,41.85401],[-99.76828,41.85341],[-99.76889,41.8532],[-99.76998,41.8531],[-99.7709,41.85245],[-99.7733,41.85157],[-99.77356,41.85074],[-99.77486,41.85034],[-99.77494,41.8502],[-99.77467,41.85],[-99.77467,41.8498],[-99.77546,41.84927],[-99.77524,41.84912],[-99.77397,41.84911],[-99.77375,41.84893],[-99.77379,41.8488],[-99.77638,41.84714],[-99.77793,41.84661],[-99.778,41.84646],[-99.77783,41.84619],[-99.77819,41.84591],[-99.7794,41.84547],[-99.77962,41.84519],[-99.7799,41.84519],[-99.78004,41.84586],[-99.77986,41.84646],[-99.78028,41.848],[-99.78032,41.84933],[-99.78018,41.84987],[-99.78042,41.8506],[-99.78033,41.85154],[-99.77999,41.85248],[-99.78002,41.85415],[-99.77949,41.85508],[-99.77927,41.85523],[-99.77718,41.85505],[-99.77671,41.85517],[-99.77651,41.85475],[-99.77625,41.85488],[-99.77617,41.85555],[-99.77663,41.85634],[-99.77653,41.85722],[-99.77671,41.85836],[-99.77647,41.85863],[-99.77648,41.85923],[-99.77598,41.8595],[-99.77596,41.86003],[-99.77549,41.8607],[-99.77566,41.86124],[-99.77601,41.8617],[-99.77583,41.86311],[-99.77564,41.86368],[-99.77517,41.8641],[-99.77487,41.86471],[-99.77544,41.86532],[-99.77582,41.86645],[-99.77571,41.86688],[-99.77507,41.86759],[-99.77504,41.86792],[-99.77528,41.86833],[-99.77548,41.86923],[-99.77606,41.86966],[-99.77568,41.87006],[-99.77551,41.87096],[-99.77433,41.87207],[-99.77428,41.87254],[-99.77366,41.87263],[-99.77338,41.87301],[-99.77301,41.87512],[-99.773,41.87602],[-99.77241,41.87762],[-99.77231,41.87829],[-99.77203,41.87849],[-99.77174,41.87923],[-99.77135,41.87956],[-99.77177,41.8801],[-99.7724,41.8806],[-99.77224,41.88103],[-99.77218,41.88183],[-99.7716,41.88297],[-99.77143,41.88357],[-99.77091,41.88432],[-99.77087,41.88471],[-99.77106,41.88565],[-99.77058,41.88658],[-99.77043,41.88738],[-99.77004,41.88779],[-99.77016,41.88839],[-99.76994,41.88899],[-99.76942,41.88942],[-99.76889,41.88961],[-99.76872,41.88986],[-99.76872,41.89019],[-99.76838,41.89073],[-99.7684,41.891],[-99.76815,41.89126],[-99.76795,41.89237],[-99.76758,41.89263],[-99.76688,41.89281],[-99.76653,41.8932],[-99.76592,41.89437],[-99.76539,41.89481],[-99.76478,41.89661],[-99.76461,41.8967],[-99.76394,41.89662],[-99.76354,41.8968],[-99.76314,41.89672],[-99.7629,41.89695],[-99.76286,41.89775],[-99.76262,41.89808],[-99.7629,41.89862],[-99.76254,41.89969],[-99.76167,41.90056],[-99.76161,41.90083],[-99.76175,41.90143],[-99.76166,41.90176],[-99.76083,41.90277],[-99.76029,41.90517],[-99.75943,41.90631],[-99.75929,41.90658],[-99.75935,41.90678],[-99.75859,41.907],[-99.75699,41.90711],[-99.75665,41.90741],[-99.75598,41.90715],[-99.75518,41.90708],[-99.75482,41.90728],[-99.75472,41.90785],[-99.75444,41.90798],[-99.75444,41.90825],[-99.75426,41.9083]]]},"properties":{"fire_id":"ufid:2023-NENES-230150","source_collection":"history-2023","source_objectid":16234,"incident_name":"Del Porto","mapped_acres":1000.0,"mapped_acres_source":"poly_GISAcres","gis_acres":1000.0,"auto_acres":2834.65397960831,"reported_acres":6500.0,"percent_contained":100.0,"state":"NE","state_wfigs":"US-NE","county":"Blaine","discovery_time_utc":"2023-04-07T20:38:00Z","perimeter_time_utc":"2023-04-08T01:38:00Z","perimeter_edit_time_utc":"2023-04-21T16:15:11Z","incident_modified_time_utc":"2026-06-28T23:23:40Z","containment_time_utc":null,"control_time_utc":null,"fire_out_time_utc":null,"fire_cause":"Undetermined","fire_cause_general":null,"map_method":"Image Interpretation","source_dataset":"2023 NIFS","unique_fire_identifier":"2023-NENES-230150","irwin_id":"{E4D393F1-507F-45B4-93B1-97AD2CDC43F5}","global_id":"0b21a95b-51c8-494d-92ac-6418276beb4a"}},{"type":"Feature","geometry":{"type":"MultiPolygon","coordinates":[[[[-97.0626,40.07323],[-97.06384,40.07277],[-97.06374,40.07256],[-97.06338,40.07242],[-97.06358,40.07228],[-97.06358,40.07207],[-97.06345,40.07204],[-97.06331,40.07226],[-97.06295,40.07187],[-97.06353,40.07162],[-97.06372,40.07072],[-97.06406,40.07058],[-97.06455,40.07077],[-97.06505,40.07116],[-97.06477,40.07244],[-97.06441,40.07277],[-97.06408,40.07284],[-97.06379,40.07339],[-97.06276,40.07393],[-97.06255,40.07387],[-97.06239,40.07346],[-97.0626,40.07323]]],[[[-97.04864,40.1112],[-97.0488,40.11045],[-97.04858,40.1088],[-97.04868,40.10831],[-97.04863,40.1066],[-97.04873,40.10632],[-97.04861,40.10584],[-97.04862,40.10281],[-97.04844,40.10116],[-97.04859,40.10033],[-97.04913,40.10013],[-97.04862,40.09977],[-97.04849,40.09931],[-97.04845,40.09608],[-97.04877,40.09559],[-97.04858,40.09539],[-97.04854,40.09477],[-97.04891,40.09447],[-97.04901,40.09362],[-97.0497,40.09264],[-97.04962,40.09153],[-97.05029,40.09124],[-97.05215,40.08954],[-97.05257,40.08858],[-97.05295,40.0881],[-97.05273,40.08755],[-97.05354,40.08686],[-97.05336,40.08583],[-97.0539,40.0844],[-97.05435,40.08402],[-97.0549,40.08389],[-97.05707,40.08427],[-97.05692,40.08397],[-97.05661,40.08384],[-97.05669,40.08336],[-97.05658,40.08321],[-97.05324,40.08301],[-97.05347,40.08246],[-97.05339,40.08234],[-97.05317,40.08236],[-97.05318,40.08184],[-97.05341,40.08157],[-97.05394,40.08143],[-97.05366,40.08109],[-97.05369,40.08054],[-97.05458,40.07972],[-97.05517,40.07948],[-97.05511,40.07875],[-97.05689,40.0766],[-97.05729,40.07586],[-97.05774,40.0756],[-97.05898,40.07553],[-97.05908,40.07607],[-97.05874,40.07648],[-97.05856,40.07717],[-97.0596,40.0769],[-97.0602,40.07591],[-97.06035,40.07523],[-97.06056,40.07507],[-97.06093,40.07511],[-97.06065,40.07449],[-97.06105,40.0742],[-97.0613,40.0749],[-97.0616,40.07502],[-97.06163,40.07521],[-97.06138,40.07541],[-97.06104,40.07528],[-97.06083,40.07535],[-97.06058,40.07586],[-97.06037,40.07724],[-97.06022,40.07751],[-97.06028,40.07779],[-97.06015,40.07813],[-97.05981,40.07847],[-97.05972,40.07951],[-97.05999,40.07992],[-97.0597,40.0803],[-97.0596,40.08081],[-97.05877,40.08174],[-97.05712,40.08159],[-97.05691,40.08187],[-97.05643,40.08195],[-97.05623,40.08185],[-97.05566,40.08219],[-97.05595,40.0823],[-97.0574,40.08215],[-97.05829,40.0824],[-97.05846,40.0826],[-97.05798,40.08336],[-97.0587,40.08351],[-97.0596,40.08221],[-97.05994,40.08212],[-97.06057,40.08219],[-97.0604,40.08157],[-97.06079,40.08056],[-97.06117,40.08019],[-97.06118,40.07992],[-97.06104,40.07971],[-97.06107,40.07919],[-97.06145,40.07889],[-97.0618,40.07927],[-97.06207,40.07901],[-97.06241,40.07894],[-97.06252,40.07944],[-97.06247,40.08012],[-97.06214,40.08081],[-97.0624,40.08102],[-97.06252,40.08136],[-97.06236,40.08232],[-97.06263,40.08315],[-97.06245,40.08336],[-97.06246,40.08377],[-97.06228,40.08411],[-97.062,40.08418],[-97.06156,40.08459],[-97.0618,40.08472],[-97.06266,40.0845],[-97.06281,40.08411],[-97.06372,40.08362],[-97.06428,40.08287],[-97.0641,40.08246],[-97.06439,40.08212],[-97.0642,40.08206],[-97.06415,40.08186],[-97.0642,40.08167],[-97.06446,40.08157],[-97.06404,40.08157],[-97.06404,40.08134],[-97.06422,40.08122],[-97.06398,40.08109],[-97.06417,40.08095],[-97.06411,40.08067],[-97.06391,40.08028],[-97.06353,40.08006],[-97.06356,40.07971],[-97.06424,40.0793],[-97.06431,40.07909],[-97.06406,40.0789],[-97.06351,40.07891],[-97.06331,40.07861],[-97.06349,40.07834],[-97.06324,40.07808],[-97.06322,40.07779],[-97.06338,40.07768],[-97.06365,40.07773],[-97.06373,40.07751],[-97.06358,40.07735],[-97.06331,40.07746],[-97.06318,40.07731],[-97.06336,40.07676],[-97.06326,40.07618],[-97.06313,40.07556],[-97.06271,40.07469],[-97.06295,40.07454],[-97.06351,40.0745],[-97.06383,40.07497],[-97.06413,40.07504],[-97.06435,40.07531],[-97.06443,40.07586],[-97.06419,40.07634],[-97.06455,40.07651],[-97.06523,40.07617],[-97.06537,40.07621],[-97.06555,40.07717],[-97.06544,40.07758],[-97.06554,40.07775],[-97.0662,40.07779],[-97.06695,40.07803],[-97.06771,40.07771],[-97.068,40.07786],[-97.06823,40.0782],[-97.06811,40.07861],[-97.06738,40.07875],[-97.06723,40.07985],[-97.0673,40.08054],[-97.06675,40.08078],[-97.06678,40.08119],[-97.06725,40.08171],[-97.06726,40.08198],[-97.06708,40.08232],[-97.06738,40.08274],[-97.06724,40.08356],[-97.06735,40.08384],[-97.06728,40.08411],[-97.0668,40.08432],[-97.06664,40.08473],[-97.06679,40.08503],[-97.06746,40.08562],[-97.06761,40.08666],[-97.06736,40.08707],[-97.06697,40.08707],[-97.06699,40.08728],[-97.06741,40.08785],[-97.06785,40.08814],[-97.06798,40.0885],[-97.07085,40.08858],[-97.07044,40.08948],[-97.07043,40.09019],[-97.07091,40.08989],[-97.07094,40.08938],[-97.0713,40.08946],[-97.07152,40.08975],[-97.07149,40.08927],[-97.07161,40.08893],[-97.07135,40.08865],[-97.07156,40.08851],[-97.07183,40.08859],[-97.07198,40.08879],[-97.07164,40.08975],[-97.07172,40.09009],[-97.07266,40.09074],[-97.07305,40.09195],[-97.07359,40.09288],[-97.07475,40.09381],[-97.07498,40.09429],[-97.07431,40.09476],[-97.07411,40.09478],[-97.07332,40.09436],[-97.07314,40.09386],[-97.07218,40.09404],[-97.07174,40.0939],[-97.07134,40.0936],[-97.07134,40.09331],[-97.0716,40.09312],[-97.07172,40.09267],[-97.07206,40.09232],[-97.07222,40.09168],[-97.07209,40.09126],[-97.07186,40.09126],[-97.07195,40.09173],[-97.07128,40.09247],[-97.07077,40.0925],[-97.07066,40.09209],[-97.0699,40.09235],[-97.06929,40.09211],[-97.06913,40.09172],[-97.07013,40.09071],[-97.07031,40.09024],[-97.06991,40.0902],[-97.06951,40.09073],[-97.06888,40.09087],[-97.06871,40.09106],[-97.06897,40.09126],[-97.06888,40.09136],[-97.06833,40.09138],[-97.06778,40.09117],[-97.06764,40.09078],[-97.06802,40.09096],[-97.06805,40.09113],[-97.06812,40.09092],[-97.06785,40.09062],[-97.06736,40.09058],[-97.0672,40.09016],[-97.06786,40.08922],[-97.06824,40.08899],[-97.06827,40.08886],[-97.06798,40.08858],[-97.06789,40.08872],[-97.06801,40.08886],[-97.0676,40.08906],[-97.06761,40.08945],[-97.06733,40.08958],[-97.06693,40.09007],[-97.06654,40.09],[-97.06646,40.09009],[-97.06716,40.09078],[-97.06714,40.09099],[-97.06737,40.09126],[-97.06868,40.09168],[-97.06851,40.09229],[-97.06911,40.09274],[-97.06926,40.09319],[-97.07022,40.09343],[-97.0706,40.09374],[-97.07073,40.09422],[-97.07065,40.09463],[-97.07135,40.09447],[-97.07183,40.09453],[-97.07199,40.09469],[-97.07179,40.09504],[-97.07266,40.09577],[-97.07286,40.09635],[-97.07237,40.09668],[-97.07159,40.0981],[-97.07073,40.09874],[-97.0697,40.09922],[-97.06936,40.09925],[-97.06915,40.09907],[-97.06867,40.09942],[-97.06827,40.09953],[-97.06819,40.09972],[-97.06768,40.09976],[-97.06764,40.10008],[-97.06817,40.10006],[-97.06791,40.10042],[-97.06771,40.10051],[-97.0673,40.10043],[-97.06697,40.10071],[-97.06646,40.10089],[-97.06664,40.1013],[-97.06592,40.10163],[-97.06386,40.10297],[-97.06241,40.10366],[-97.0622,40.10405],[-97.06138,40.10475],[-97.0611,40.10529],[-97.06063,40.10576],[-97.05973,40.10605],[-97.05932,40.10605],[-97.05925,40.10625],[-97.05919,40.10584],[-97.05898,40.10578],[-97.05894,40.10618],[-97.05916,40.1066],[-97.05856,40.10728],[-97.05828,40.10742],[-97.05779,40.10811],[-97.05809,40.10852],[-97.05796,40.10892],[-97.05791,40.10999],[-97.0572,40.11002],[-97.05708,40.10983],[-97.05712,40.1096],[-97.05674,40.10952],[-97.05646,40.10914],[-97.05616,40.10912],[-97.05605,40.10928],[-97.05643,40.10969],[-97.05568,40.10946],[-97.05279,40.11059],[-97.05229,40.11063],[-97.05178,40.11102],[-97.05024,40.11113],[-97.04971,40.11141],[-97.04914,40.11151],[-97.04878,40.11143],[-97.04864,40.1112]]],[[[-97.0627,40.1158],[-97.06106,40.11386],[-97.06097,40.11353],[-97.06058,40.11325],[-97.06018,40.1123],[-97.0594,40.11174],[-97.05927,40.11148],[-97.05958,40.11065],[-97.06131,40.11055],[-97.06192,40.11074],[-97.06185,40.11168],[-97.0623,40.11271],[-97.06217,40.11347],[-97.06262,40.11373],[-97.06452,40.11364],[-97.06483,40.11415],[-97.06546,40.11428],[-97.06556,40.11457],[-97.06543,40.11512],[-97.06506,40.11553],[-97.06406,40.1159],[-97.0631,40.11608],[-97.0627,40.1158]]]]},"properties":{"fire_id":"ufid:2023-NENES-230158","source_collection":"history-2023","source_objectid":16312,"incident_name":"Rock Creek","mapped_acres":2600.0,"mapped_acres_source":"poly_GISAcres","gis_acres":2600.0,"auto_acres":1261.20770494458,"reported_acres":1800.0,"percent_contained":100.0,"state":"NE","state_wfigs":"US-NE","county":"Jefferson","discovery_time_utc":"2023-04-11T16:00:00Z","perimeter_time_utc":"2023-04-11T21:00:00Z","perimeter_edit_time_utc":"2023-04-26T17:06:40Z","incident_modified_time_utc":"2023-04-21T21:31:29Z","containment_time_utc":null,"control_time_utc":null,"fire_out_time_utc":null,"fire_cause":"Undetermined","fire_cause_general":null,"map_method":"Image Interpretation","source_dataset":"2023 NIFS","unique_fire_identifier":"2023-NENES-230158","irwin_id":"{200404FA-BEC6-4491-9877-55FF67A90ED8}","global_id":"07d240d3-73cd-4522-9457-889f69cd8d25"}},{"type":"Feature","geometry":{"type":"MultiPolygon","coordinates":[[[[-99.14304,42.00683],[-99.14116,42.00673],[-99.14044,42.00639],[-99.14027,42.00617],[-99.14071,42.00571],[-99.14136,42.00633],[-99.14215,42.00639],[-99.14231,42.00617],[-99.14171,42.0057],[-99.14099,42.00553],[-99.14062,42.00508],[-99.13981,42.00464],[-99.139,42.00463],[-99.1388,42.0048],[-99.13846,42.00473],[-99.13684,42.00508],[-99.1367,42.005],[-99.13683,42.00473],[-99.13667,42.00446],[-99.1363,42.00428],[-99.13641,42.00338],[-99.13609,42.00258],[-99.13639,42.00203],[-99.13634,42.00132],[-99.13653,42.00078],[-99.13636,41.99934],[-99.13661,41.99898],[-99.13678,41.99829],[-99.13747,41.99814],[-99.14044,41.9985],[-99.14162,41.99879],[-99.14287,41.9993],[-99.14538,41.99975],[-99.14576,41.99995],[-99.14605,42.00114],[-99.14592,42.0015],[-99.14601,42.00473],[-99.1459,42.00579],[-99.14442,42.00656],[-99.14395,42.00699],[-99.14358,42.00706],[-99.14304,42.00683]]],[[[-99.06549,42.0723],[-99.06525,42.07235],[-99.06504,42.07276],[-99.06482,42.07262],[-99.06479,42.07222],[-99.0651,42.07147],[-99.06643,42.07056],[-99.06629,42.07025],[-99.06581,42.06998],[-99.06625,42.06949],[-99.06648,42.06944],[-99.06622,42.06924],[-99.06615,42.0689],[-99.06676,42.06771],[-99.06671,42.06749],[-99.06645,42.06737],[-99.0664,42.067],[-99.06612,42.06685],[-99.06564,42.06683],[-99.06583,42.06609],[-99.06609,42.06584],[-99.06641,42.06591],[-99.06655,42.06613],[-99.06648,42.06656],[-99.06666,42.06663],[-99.06724,42.06566],[-99.06711,42.06545],[-99.06655,42.06541],[-99.06645,42.06521],[-99.0666,42.06495],[-99.06821,42.06443],[-99.06829,42.06414],[-99.06924,42.06315],[-99.06971,42.06282],[-99.07006,42.06287],[-99.07017,42.06252],[-99.07023,42.06009],[-99.07055,42.05964],[-99.07057,42.05937],[-99.07097,42.05945],[-99.07107,42.05901],[-99.07124,42.05883],[-99.0707,42.05877],[-99.07043,42.05909],[-99.07018,42.05865],[-99.07027,42.05614],[-99.07043,42.05601],[-99.0707,42.05617],[-99.07117,42.05616],[-99.07171,42.05578],[-99.07176,42.05533],[-99.07124,42.05513],[-99.07013,42.05566],[-99.0683,42.05841],[-99.06693,42.05866],[-99.06657,42.05951],[-99.06639,42.05905],[-99.06605,42.05865],[-99.06629,42.0582],[-99.06691,42.05774],[-99.06743,42.05668],[-99.0678,42.05531],[-99.06827,42.05452],[-99.06941,42.05296],[-99.06959,42.05254],[-99.07007,42.05209],[-99.0702,42.05057],[-99.07003,42.04895],[-99.07024,42.04767],[-99.07038,42.04728],[-99.07116,42.0467],[-99.07105,42.04625],[-99.07088,42.04619],[-99.07056,42.04634],[-99.07052,42.04677],[-99.07034,42.04679],[-99.07019,42.04535],[-99.07033,42.04481],[-99.07025,42.04401],[-99.0705,42.04389],[-99.07169,42.04392],[-99.07219,42.04289],[-99.07268,42.04264],[-99.07336,42.04185],[-99.0734,42.04161],[-99.07376,42.04141],[-99.07456,42.04155],[-99.07567,42.04115],[-99.07663,42.04067],[-99.07679,42.04039],[-99.07744,42.03993],[-99.07888,42.03943],[-99.07987,42.03966],[-99.08027,42.0396],[-99.08027,42.03933],[-99.07969,42.03932],[-99.07942,42.03917],[-99.07895,42.03932],[-99.07853,42.03925],[-99.0778,42.03939],[-99.07726,42.03928],[-99.07715,42.03915],[-99.07723,42.03897],[-99.07699,42.03865],[-99.07645,42.03851],[-99.076,42.03856],[-99.07595,42.03843],[-99.0769,42.03782],[-99.07726,42.03788],[-99.07738,42.03736],[-99.07822,42.03729],[-99.07852,42.03754],[-99.07888,42.03747],[-99.07949,42.03706],[-99.07966,42.03661],[-99.08113,42.03631],[-99.08131,42.03598],[-99.08157,42.03592],[-99.08145,42.03577],[-99.08147,42.03545],[-99.0822,42.03511],[-99.08211,42.03466],[-99.08175,42.03454],[-99.08124,42.03484],[-99.08131,42.0352],[-99.08118,42.03579],[-99.08041,42.03594],[-99.07978,42.03577],[-99.07942,42.03583],[-99.07942,42.03547],[-99.07915,42.03547],[-99.0787,42.0352],[-99.07876,42.03499],[-99.07912,42.03466],[-99.07927,42.03382],[-99.07897,42.03367],[-99.07771,42.0336],[-99.07752,42.03376],[-99.07701,42.03484],[-99.07648,42.03541],[-99.07591,42.03563],[-99.07546,42.03601],[-99.07521,42.03664],[-99.07475,42.0371],[-99.07403,42.03729],[-99.07396,42.03673],[-99.07367,42.03664],[-99.0734,42.03718],[-99.07304,42.03733],[-99.0729,42.03709],[-99.07318,42.03682],[-99.07309,42.03655],[-99.07259,42.03655],[-99.07214,42.03639],[-99.07151,42.03673],[-99.07185,42.03718],[-99.07155,42.03745],[-99.0717,42.03782],[-99.07079,42.03842],[-99.07047,42.0378],[-99.07057,42.03685],[-99.07013,42.03667],[-99.07004,42.0363],[-99.07009,42.03376],[-99.06997,42.03304],[-99.07006,42.03196],[-99.06992,42.0314],[-99.07002,42.03053],[-99.07028,42.0299],[-99.071,42.02954],[-99.07097,42.02878],[-99.0714,42.02864],[-99.07187,42.02823],[-99.07241,42.02815],[-99.07289,42.02777],[-99.0734,42.02782],[-99.07392,42.02747],[-99.07457,42.02639],[-99.07423,42.02594],[-99.0743,42.02549],[-99.07518,42.02494],[-99.07585,42.0248],[-99.07616,42.02441],[-99.07834,42.02441],[-99.07831,42.0248],[-99.07843,42.02504],[-99.0796,42.02479],[-99.0796,42.02461],[-99.07933,42.02441],[-99.07987,42.02424],[-99.08023,42.0237],[-99.08026,42.02343],[-99.08082,42.02271],[-99.08074,42.02246],[-99.08001,42.02265],[-99.07969,42.02235],[-99.07933,42.02232],[-99.07907,42.02244],[-99.0793,42.02274],[-99.07967,42.0228],[-99.0796,42.02289],[-99.07917,42.02291],[-99.07828,42.0233],[-99.07791,42.02307],[-99.07862,42.02226],[-99.07834,42.02199],[-99.07872,42.02172],[-99.07879,42.02112],[-99.07931,42.02028],[-99.07937,42.01956],[-99.07987,42.01949],[-99.08005,42.01967],[-99.08041,42.0195],[-99.0807,42.01902],[-99.08068,42.01848],[-99.08056,42.01842],[-99.08005,42.01847],[-99.07952,42.01884],[-99.07933,42.01924],[-99.07905,42.01876],[-99.07861,42.01876],[-99.07845,42.0192],[-99.07789,42.0195],[-99.07762,42.01946],[-99.07699,42.01884],[-99.07679,42.01884],[-99.07668,42.01893],[-99.07683,42.01938],[-99.07666,42.01983],[-99.07639,42.02004],[-99.07573,42.02021],[-99.0749,42.02107],[-99.07403,42.02153],[-99.0734,42.02205],[-99.07222,42.02172],[-99.07196,42.02122],[-99.07163,42.021],[-99.07249,42.01848],[-99.07357,42.01614],[-99.07446,42.01371],[-99.07522,42.01237],[-99.07544,42.01172],[-99.07573,42.01138],[-99.07611,42.01005],[-99.07713,42.00779],[-99.07744,42.00735],[-99.07962,42.00637],[-99.07972,42.00617],[-99.07953,42.00581],[-99.07961,42.00547],[-99.08041,42.00476],[-99.08113,42.00372],[-99.08142,42.00294],[-99.08141,42.00248],[-99.08129,42.00195],[-99.08071,42.00155],[-99.08065,42.00123],[-99.08122,42.00094],[-99.08256,42.00124],[-99.08265,42.00114],[-99.08255,42.00087],[-99.08304,42.00033],[-99.08311,41.99988],[-99.08289,41.9997],[-99.08211,41.99975],[-99.08166,41.99953],[-99.08104,41.99957],[-99.08079,41.99943],[-99.08136,41.99871],[-99.08133,41.99844],[-99.08097,41.9979],[-99.08202,41.99765],[-99.08233,41.99777],[-99.08274,41.99835],[-99.08355,41.99776],[-99.08418,41.99783],[-99.08445,41.99798],[-99.0849,41.99793],[-99.08535,41.99812],[-99.08625,41.99817],[-99.08724,41.99767],[-99.08754,41.99769],[-99.08805,41.99798],[-99.08849,41.9977],[-99.08944,41.99777],[-99.09109,41.996],[-99.09135,41.99537],[-99.09244,41.99466],[-99.09371,41.99449],[-99.09492,41.99404],[-99.09507,41.99359],[-99.09494,41.99296],[-99.09512,41.99251],[-99.09628,41.99185],[-99.09793,41.99171],[-99.09892,41.99089],[-99.10018,41.99056],[-99.10026,41.99008],[-99.10053,41.98981],[-99.10103,41.98959],[-99.1022,41.98824],[-99.10269,41.9879],[-99.1035,41.9879],[-99.10422,41.98734],[-99.10437,41.98709],[-99.10479,41.98694],[-99.10501,41.98658],[-99.1049,41.98568],[-99.105,41.9855],[-99.10539,41.98572],[-99.10674,41.98511],[-99.10745,41.98523],[-99.10764,41.98497],[-99.10765,41.98415],[-99.10737,41.98378],[-99.10727,41.98388],[-99.1073,41.98424],[-99.1071,41.98436],[-99.10694,41.98395],[-99.10699,41.98334],[-99.10791,41.98286],[-99.10934,41.98305],[-99.11033,41.98275],[-99.11123,41.98276],[-99.11175,41.983],[-99.1133,41.9833],[-99.11411,41.98379],[-99.11483,41.98369],[-99.11626,41.98385],[-99.11695,41.98478],[-99.1171,41.98561],[-99.11699,41.98685],[-99.11742,41.98722],[-99.11793,41.98739],[-99.11798,41.98685],[-99.11842,41.98667],[-99.12031,41.98663],[-99.12085,41.98675],[-99.12184,41.98728],[-99.12195,41.98748],[-99.12187,41.98808],[-99.12282,41.98883],[-99.12471,41.9893],[-99.12501,41.98912],[-99.12525,41.98916],[-99.12623,41.98991],[-99.12632,41.99036],[-99.12669,41.99024],[-99.12713,41.99036],[-99.12786,41.99025],[-99.1317,41.99069],[-99.13244,41.99071],[-99.13307,41.99056],[-99.13496,41.99077],[-99.13563,41.99103],[-99.13592,41.9917],[-99.13577,41.99302],[-99.13532,41.9929],[-99.1343,41.99209],[-99.13404,41.99205],[-99.13393,41.99215],[-99.13411,41.99269],[-99.13403,41.99305],[-99.1345,41.99342],[-99.13466,41.99371],[-99.13577,41.99332],[-99.1359,41.99341],[-99.13601,41.99458],[-99.13533,41.99522],[-99.13539,41.9955],[-99.13577,41.99549],[-99.13591,41.99566],[-99.13597,41.997],[-99.13611,41.99718],[-99.1359,41.99732],[-99.1359,41.99754],[-99.13577,41.99763],[-99.13503,41.99756],[-99.13482,41.99732],[-99.13298,41.99671],[-99.13282,41.99682],[-99.13326,41.99736],[-99.13316,41.9975],[-99.13289,41.99753],[-99.131,41.99701],[-99.13039,41.99654],[-99.12958,41.99629],[-99.12992,41.99615],[-99.13031,41.99629],[-99.13084,41.99586],[-99.13161,41.99564],[-99.13208,41.99532],[-99.13244,41.99535],[-99.13266,41.99562],[-99.13319,41.99533],[-99.13487,41.99546],[-99.13518,41.99503],[-99.13403,41.99416],[-99.1337,41.99404],[-99.13343,41.9943],[-99.13271,41.99435],[-99.13109,41.99404],[-99.12983,41.99405],[-99.12868,41.99321],[-99.12804,41.99304],[-99.12777,41.99314],[-99.12764,41.99359],[-99.12791,41.99386],[-99.12807,41.99431],[-99.12705,41.99471],[-99.12597,41.99415],[-99.12354,41.99373],[-99.12331,41.99355],[-99.12286,41.99274],[-99.12247,41.99256],[-99.12157,41.99254],[-99.12112,41.9924],[-99.12049,41.99259],[-99.12016,41.99323],[-99.11968,41.99323],[-99.11952,41.99343],[-99.11905,41.99352],[-99.11842,41.99354],[-99.11797,41.99335],[-99.11725,41.99354],[-99.11599,41.99331],[-99.11563,41.99343],[-99.11384,41.99322],[-99.11357,41.99301],[-99.11304,41.99315],[-99.11304,41.99342],[-99.11287,41.99352],[-99.10888,41.99357],[-99.10782,41.99342],[-99.10719,41.9936],[-99.10638,41.99342],[-99.10593,41.99313],[-99.10567,41.99333],[-99.10395,41.99367],[-99.1035,41.99414],[-99.10296,41.99395],[-99.10251,41.99413],[-99.10247,41.99435],[-99.10323,41.99482],[-99.10401,41.99494],[-99.10377,41.99521],[-99.10402,41.99539],[-99.10349,41.99593],[-99.10398,41.9962],[-99.10415,41.99664],[-99.1039,41.99709],[-99.10393,41.99736],[-99.1036,41.99763],[-99.10368,41.99798],[-99.10558,41.99845],[-99.10576,41.99835],[-99.10583,41.99809],[-99.10526,41.9979],[-99.10525,41.99772],[-99.10548,41.99754],[-99.10593,41.99767],[-99.10611,41.9979],[-99.10666,41.99808],[-99.10709,41.99844],[-99.10704,41.99997],[-99.10684,42.00051],[-99.10691,42.00132],[-99.10718,42.00177],[-99.10713,42.00222],[-99.10726,42.0026],[-99.10779,42.00332],[-99.10793,42.00435],[-99.10866,42.00559],[-99.10889,42.00626],[-99.10805,42.00797],[-99.10818,42.00834],[-99.10797,42.0092],[-99.10762,42.00959],[-99.10755,42.01093],[-99.10728,42.01174],[-99.10638,42.01244],[-99.10599,42.013],[-99.10592,42.01336],[-99.10549,42.01381],[-99.10555,42.01417],[-99.10519,42.01469],[-99.10531,42.01525],[-99.10465,42.01651],[-99.10463,42.01705],[-99.10413,42.01803],[-99.10414,42.01857],[-99.1038,42.01911],[-99.10378,42.01974],[-99.10339,42.02028],[-99.10344,42.02064],[-99.10312,42.02199],[-99.10245,42.02291],[-99.10233,42.0236],[-99.10202,42.02352],[-99.10155,42.02286],[-99.10032,42.02203],[-99.09962,42.02073],[-99.09977,42.02041],[-99.10017,42.0201],[-99.09937,42.01956],[-99.09603,42.01922],[-99.09481,42.01891],[-99.09407,42.01893],[-99.0939,42.01911],[-99.09415,42.01928],[-99.09649,42.01966],[-99.09756,42.02012],[-99.09797,42.02118],[-99.0981,42.0219],[-99.09846,42.02209],[-99.09863,42.02244],[-99.09857,42.02281],[-99.09878,42.02334],[-99.09885,42.02432],[-99.09865,42.02603],[-99.09914,42.02716],[-99.09921,42.02821],[-99.09919,42.02855],[-99.09885,42.02918],[-99.09839,42.02963],[-99.09749,42.0316],[-99.09783,42.03214],[-99.09797,42.03313],[-99.09769,42.03361],[-99.09733,42.03379],[-99.09711,42.03484],[-99.09683,42.03538],[-99.09613,42.03583],[-99.09577,42.03625],[-99.09562,42.03709],[-99.09515,42.03771],[-99.0951,42.03825],[-99.09533,42.03852],[-99.0954,42.03951],[-99.0952,42.03996],[-99.09516,42.04076],[-99.09578,42.04122],[-99.09583,42.0414],[-99.09544,42.04212],[-99.09559,42.04284],[-99.09511,42.0432],[-99.0949,42.04365],[-99.09537,42.04499],[-99.09467,42.04598],[-99.09493,42.04625],[-99.09498,42.04652],[-99.0947,42.04697],[-99.09464,42.04787],[-99.09392,42.04922],[-99.09393,42.0494],[-99.09426,42.04966],[-99.09415,42.04994],[-99.09418,42.05111],[-99.09335,42.05254],[-99.09208,42.05371],[-99.09177,42.05416],[-99.09151,42.05578],[-99.09077,42.05695],[-99.0905,42.05859],[-99.08831,42.05876],[-99.08819,42.05883],[-99.08815,42.05937],[-99.08788,42.05991],[-99.08742,42.0604],[-99.08722,42.06046],[-99.08728,42.06027],[-99.08715,42.0601],[-99.08659,42.06038],[-99.08658,42.05985],[-99.0864,42.05979],[-99.08597,42.05999],[-99.08573,42.06047],[-99.08496,42.06099],[-99.08453,42.0618],[-99.08469,42.06225],[-99.08458,42.06284],[-99.08472,42.06299],[-99.08668,42.06107],[-99.08706,42.06087],[-99.08716,42.06099],[-99.08553,42.0639],[-99.08526,42.06418],[-99.08491,42.06432],[-99.08494,42.06516],[-99.08404,42.06615],[-99.08328,42.06671],[-99.08283,42.06676],[-99.08274,42.06666],[-99.08322,42.06548],[-99.08409,42.06408],[-99.084,42.06368],[-99.08355,42.0641],[-99.08328,42.06402],[-99.08296,42.06417],[-99.08131,42.06611],[-99.08104,42.06623],[-99.08065,42.06611],[-99.08151,42.06459],[-99.08283,42.06297],[-99.08292,42.06238],[-99.0826,42.06274],[-99.08154,42.06338],[-99.08117,42.06391],[-99.08086,42.06398],[-99.08012,42.06457],[-99.07845,42.0662],[-99.07832,42.0662],[-99.07837,42.06593],[-99.0789,42.0653],[-99.07906,42.0649],[-99.07987,42.06399],[-99.08072,42.06328],[-99.08138,42.0625],[-99.08385,42.06045],[-99.08373,42.06026],[-99.0831,42.05992],[-99.08229,42.06007],[-99.08215,42.05991],[-99.0822,42.05964],[-99.08202,42.05922],[-99.08166,42.05921],[-99.08122,42.05941],[-99.08088,42.05881],[-99.08014,42.05885],[-99.07985,42.05901],[-99.07922,42.0609],[-99.07889,42.06126],[-99.07898,42.06153],[-99.07886,42.06189],[-99.07924,42.0619],[-99.07942,42.06157],[-99.07969,42.06142],[-99.07993,42.06147],[-99.07996,42.06171],[-99.07856,42.06363],[-99.07821,42.064],[-99.07776,42.06423],[-99.07731,42.06517],[-99.07679,42.06557],[-99.07709,42.06593],[-99.07681,42.06699],[-99.07654,42.06708],[-99.07564,42.06697],[-99.0749,42.06668],[-99.075,42.06637],[-99.07627,42.06593],[-99.07637,42.06584],[-99.07627,42.06577],[-99.07528,42.06583],[-99.07313,42.06566],[-99.07217,42.06584],[-99.07219,42.06615],[-99.07304,42.06633],[-99.07349,42.06626],[-99.07372,42.06647],[-99.07358,42.06662],[-99.07269,42.06674],[-99.07297,42.0671],[-99.07268,42.06728],[-99.07268,42.06742],[-99.07286,42.06746],[-99.07278,42.06764],[-99.07221,42.06827],[-99.07187,42.0682],[-99.07165,42.06836],[-99.07183,42.0689],[-99.07136,42.07037],[-99.0707,42.07055],[-99.07052,42.07035],[-99.07032,42.07052],[-99.07015,42.0716],[-99.06998,42.07186],[-99.07003,42.07258],[-99.06948,42.07255],[-99.06925,42.0723],[-99.06908,42.07272],[-99.06881,42.07289],[-99.06852,42.07261],[-99.06796,42.07254],[-99.068,42.07196],[-99.06776,42.07162],[-99.06794,42.07142],[-99.06794,42.07115],[-99.06762,42.0709],[-99.06679,42.07097],[-99.06691,42.07204],[-99.06666,42.07294],[-99.06639,42.07287],[-99.06622,42.07257],[-99.06549,42.0723]]]]},"properties":{"fire_id":"ufid:2023-NENES-230216","source_collection":"history-2023","source_objectid":16647,"incident_name":"Lowery","mapped_acres":4691.0,"mapped_acres_source":"poly_GISAcres","gis_acres":4691.0,"auto_acres":4653.39953268401,"reported_acres":4691.0,"percent_contained":100.0,"state":"NE","state_wfigs":"US-NE","county":"Garfield","discovery_time_utc":"2023-04-11T19:42:00Z","perimeter_time_utc":"2023-04-12T00:42:00Z","perimeter_edit_time_utc":"2023-05-11T16:20:14Z","incident_modified_time_utc":"2023-06-14T13:56:50Z","containment_time_utc":null,"control_time_utc":null,"fire_out_time_utc":null,"fire_cause":"Undetermined","fire_cause_general":null,"map_method":"Image Interpretation","source_dataset":"2023 NIFS","unique_fire_identifier":"2023-NENES-230216","irwin_id":"{5AA59629-A113-4D1B-80BD-4869DDF9EBD6}","global_id":"75d6e06a-c50b-47b3-92ea-4358434ed9a6"}},{"type":"Feature","geometry":{"type":"MultiPolygon","coordinates":[[[[-95.83692,40.84414],[-95.83705,40.84428],[-95.83692,40.84424],[-95.83692,40.84414]]],[[[-95.83692,40.84414],[-95.83665,40.84394],[-95.83584,40.84155],[-95.83555,40.84115],[-95.83584,40.84074],[-95.83571,40.84],[-95.83511,40.83857],[-95.83495,40.83776],[-95.83461,40.83721],[-95.83461,40.83694],[-95.83422,40.83646],[-95.83434,40.83633],[-95.83481,40.83635],[-95.83495,40.83663],[-95.83542,40.83619],[-95.83522,40.83606],[-95.83517,40.83585],[-95.83474,40.8358],[-95.83468,40.83612],[-95.83416,40.83623],[-95.83409,40.83612],[-95.83427,40.83558],[-95.83384,40.83533],[-95.83379,40.83517],[-95.83345,40.83512],[-95.83311,40.83533],[-95.83265,40.83517],[-95.83249,40.8349],[-95.83256,40.83449],[-95.83277,40.83429],[-95.83315,40.83259],[-95.83339,40.83225],[-95.83348,40.83147],[-95.83393,40.83076],[-95.83396,40.8296],[-95.83421,40.8292],[-95.83421,40.82858],[-95.83459,40.82702],[-95.83458,40.82634],[-95.83476,40.82553],[-95.83495,40.82523],[-95.83529,40.82566],[-95.83566,40.82546],[-95.83565,40.82532],[-95.83526,40.82515],[-95.8352,40.82496],[-95.83576,40.82476],[-95.83603,40.82492],[-95.8362,40.82471],[-95.8359,40.82458],[-95.8355,40.82464],[-95.83529,40.82444],[-95.83508,40.82444],[-95.83525,40.8241],[-95.83513,40.82396],[-95.83556,40.82356],[-95.83529,40.82356],[-95.83549,40.82315],[-95.83535,40.82308],[-95.83546,40.82281],[-95.83558,40.82281],[-95.8356,40.8231],[-95.83576,40.82328],[-95.83637,40.8232],[-95.83671,40.82342],[-95.83652,40.82361],[-95.83617,40.8234],[-95.8361,40.82362],[-95.8359,40.82369],[-95.83658,40.82376],[-95.83665,40.8241],[-95.83709,40.82451],[-95.83704,40.82479],[-95.83739,40.82478],[-95.83762,40.82516],[-95.83791,40.82516],[-95.83809,40.82497],[-95.83766,40.82607],[-95.83743,40.82627],[-95.83746,40.82641],[-95.83698,40.82648],[-95.83643,40.82756],[-95.83637,40.8279],[-95.83685,40.82779],[-95.83695,40.8279],[-95.83678,40.82818],[-95.83692,40.82858],[-95.83671,40.82865],[-95.83637,40.82906],[-95.83633,40.82943],[-95.83593,40.82954],[-95.83599,40.82985],[-95.83624,40.82987],[-95.83607,40.83045],[-95.83631,40.83049],[-95.83617,40.83076],[-95.83597,40.83076],[-95.83614,40.83089],[-95.83561,40.8311],[-95.83593,40.83137],[-95.83584,40.83179],[-95.83563,40.83191],[-95.83535,40.83178],[-95.83535,40.83157],[-95.83522,40.83164],[-95.83528,40.83199],[-95.83583,40.83212],[-95.83529,40.83212],[-95.83508,40.83225],[-95.83545,40.83223],[-95.83569,40.83246],[-95.83547,40.83286],[-95.83569,40.83293],[-95.83529,40.83354],[-95.83539,40.83388],[-95.83522,40.83395],[-95.83522,40.83368],[-95.83501,40.83381],[-95.83512,40.83415],[-95.83535,40.83429],[-95.83518,40.83456],[-95.83527,40.83485],[-95.83549,40.83483],[-95.83535,40.83504],[-95.83569,40.83511],[-95.83553,40.83521],[-95.83556,40.83538],[-95.83584,40.83538],[-95.8359,40.83572],[-95.83564,40.83599],[-95.83625,40.83632],[-95.83644,40.8368],[-95.83624,40.83701],[-95.83644,40.83762],[-95.83635,40.83782],[-95.83648,40.83796],[-95.83631,40.83809],[-95.83651,40.83816],[-95.83645,40.8383],[-95.83675,40.83925],[-95.83694,40.8395],[-95.83712,40.84054],[-95.83741,40.84093],[-95.83772,40.8417],[-95.83768,40.84189],[-95.83802,40.84231],[-95.8382,40.84278],[-95.83821,40.84312],[-95.8379,40.84319],[-95.83799,40.84348],[-95.83839,40.84349],[-95.83855,40.8438],[-95.83904,40.84419],[-95.83918,40.84473],[-95.83987,40.84567],[-95.83984,40.84591],[-95.83969,40.84598],[-95.83984,40.84611],[-95.83982,40.84632],[-95.8406,40.84713],[-95.84077,40.84754],[-95.84067,40.84774],[-95.84104,40.84817],[-95.8417,40.84842],[-95.84151,40.84853],[-95.84154,40.84872],[-95.84202,40.84882],[-95.84246,40.84971],[-95.84296,40.84992],[-95.84287,40.85022],[-95.84312,40.8503],[-95.84337,40.85083],[-95.84344,40.85075],[-95.84365,40.85086],[-95.84364,40.85098],[-95.84337,40.85089],[-95.8433,40.851],[-95.84361,40.85121],[-95.8436,40.85141],[-95.84391,40.85173],[-95.84443,40.85195],[-95.84469,40.85261],[-95.84458,40.85318],[-95.84534,40.85372],[-95.84534,40.85481],[-95.84605,40.85539],[-95.84634,40.8561],[-95.84628,40.85691],[-95.84674,40.85718],[-95.84683,40.85746],[-95.84672,40.85775],[-95.84622,40.85807],[-95.84636,40.85826],[-95.84677,40.85834],[-95.84638,40.85882],[-95.84688,40.85918],[-95.84707,40.8599],[-95.84737,40.86011],[-95.84718,40.86126],[-95.84677,40.86187],[-95.84675,40.86162],[-95.8466,40.86164],[-95.8466,40.8618],[-95.84628,40.86208],[-95.84672,40.86221],[-95.84659,40.86248],[-95.8467,40.86282],[-95.84618,40.86357],[-95.84609,40.86418],[-95.84588,40.86452],[-95.84559,40.86457],[-95.84562,40.86514],[-95.84541,40.86556],[-95.84509,40.86604],[-95.84452,40.86641],[-95.84449,40.86686],[-95.84425,40.86717],[-95.84432,40.86731],[-95.84345,40.86778],[-95.84328,40.86837],[-95.84262,40.86886],[-95.84188,40.86877],[-95.84147,40.86843],[-95.8414,40.8686],[-95.84072,40.86839],[-95.84088,40.86826],[-95.84086,40.86805],[-95.84059,40.86821],[-95.84049,40.86815],[-95.84039,40.86744],[-95.84063,40.86715],[-95.84126,40.86697],[-95.84104,40.86636],[-95.84117,40.86554],[-95.84141,40.86534],[-95.84147,40.86504],[-95.84165,40.86513],[-95.84181,40.86551],[-95.84194,40.86546],[-95.84247,40.86464],[-95.84278,40.86384],[-95.84278,40.86357],[-95.84317,40.86262],[-95.84292,40.86239],[-95.84253,40.86228],[-95.84269,40.86201],[-95.84256,40.86194],[-95.84252,40.86164],[-95.84184,40.86177],[-95.84194,40.86201],[-95.84222,40.86187],[-95.84215,40.86245],[-95.84201,40.86262],[-95.84183,40.86226],[-95.84169,40.86223],[-95.8415,40.86323],[-95.84133,40.86333],[-95.84099,40.86328],[-95.84052,40.86398],[-95.8403,40.86357],[-95.84047,40.86337],[-95.84018,40.86332],[-95.83952,40.86274],[-95.83903,40.86262],[-95.83902,40.86218],[-95.83883,40.86243],[-95.83847,40.86243],[-95.83819,40.86201],[-95.83803,40.8611],[-95.83766,40.86089],[-95.83701,40.86079],[-95.83741,40.86058],[-95.83753,40.86031],[-95.83736,40.86017],[-95.83739,40.85994],[-95.83685,40.86055],[-95.83652,40.86073],[-95.8361,40.86081],[-95.83583,40.86072],[-95.83549,40.8609],[-95.83468,40.86078],[-95.83394,40.86023],[-95.83321,40.85991],[-95.83263,40.8599],[-95.8323,40.85974],[-95.83134,40.85981],[-95.83088,40.85957],[-95.83162,40.85841],[-95.83216,40.85823],[-95.83223,40.85837],[-95.83188,40.85905],[-95.83201,40.85938],[-95.83247,40.85943],[-95.83313,40.85739],[-95.83298,40.85661],[-95.83275,40.85662],[-95.83257,40.8568],[-95.83273,40.85637],[-95.83224,40.85629],[-95.83135,40.85413],[-95.83091,40.85284],[-95.83058,40.85066],[-95.83332,40.85055],[-95.83349,40.8506],[-95.83334,40.85087],[-95.83359,40.85116],[-95.83372,40.8508],[-95.83366,40.8506],[-95.83468,40.8505],[-95.83496,40.85061],[-95.83529,40.85045],[-95.83705,40.8504],[-95.83747,40.85027],[-95.83753,40.84998],[-95.83773,40.84992],[-95.83773,40.84971],[-95.83811,40.84964],[-95.83857,40.84899],[-95.83846,40.84822],[-95.8387,40.84747],[-95.83839,40.84681],[-95.83731,40.84618],[-95.83731,40.8457],[-95.83701,40.84509],[-95.83754,40.84522],[-95.83766,40.8455],[-95.83808,40.84544],[-95.83814,40.84516],[-95.83834,40.84516],[-95.83807,40.84509],[-95.8379,40.84482],[-95.838,40.84468],[-95.83828,40.84482],[-95.83828,40.84468],[-95.83794,40.84407],[-95.83732,40.84394],[-95.83692,40.84414]]]]},"properties":{"fire_id":"ufid:2023-NENES-230155","source_collection":"history-2023","source_objectid":16760,"incident_name":"Waconda Beaver Lake Cmplx","mapped_acres":697.0,"mapped_acres_source":"poly_GISAcres","gis_acres":697.0,"auto_acres":549.360832274176,"reported_acres":697.0,"percent_contained":100.0,"state":"NE","state_wfigs":"US-NE","county":"Cass","discovery_time_utc":"2023-04-11T22:47:39Z","perimeter_time_utc":"2023-04-12T03:47:39Z","perimeter_edit_time_utc":"2023-05-17T16:46:04Z","incident_modified_time_utc":"2023-04-12T23:00:02Z","containment_time_utc":null,"control_time_utc":null,"fire_out_time_utc":null,"fire_cause":"Undetermined","fire_cause_general":null,"map_method":"Image Interpretation","source_dataset":"2023 NIFS","unique_fire_identifier":"2023-NENES-230155","irwin_id":"{4CC82EF1-7EF2-41F8-8B8B-B5E66C286AE6}","global_id":"41c8630c-2951-436d-891b-0321e462b59c"}},{"type":"Feature","geometry":{"type":"Polygon","coordinates":[[[-95.98517,41.41103],[-95.98507,41.41086],[-95.98511,41.41046],[-95.98582,41.40587],[-95.98567,41.40418],[-95.98588,41.40404],[-95.98669,41.40416],[-95.98723,41.40374],[-95.98913,41.40369],[-95.98944,41.4042],[-95.98941,41.40506],[-95.98979,41.40587],[-95.98987,41.40776],[-95.98956,41.40938],[-95.98965,41.40965],[-95.98932,41.40998],[-95.98885,41.41008],[-95.98871,41.41023],[-95.98788,41.41007],[-95.98772,41.40983],[-95.98776,41.40951],[-95.98804,41.40911],[-95.98837,41.40816],[-95.98831,41.40808],[-95.98817,41.40818],[-95.98747,41.40913],[-95.98746,41.40894],[-95.98799,41.40789],[-95.98768,41.40781],[-95.98679,41.40894],[-95.98642,41.40961],[-95.98517,41.41103]]]},"properties":{"fire_id":"ufid:2023-NEBCR-000001","source_collection":"history-2023","source_objectid":16763,"incident_name":"DEER CREEK","mapped_acres":222.5,"mapped_acres_source":"poly_GISAcres","gis_acres":222.5,"auto_acres":53.6914061708864,"reported_acres":222.5,"percent_contained":null,"state":"NE","state_wfigs":"US-NE","county":"Washington","discovery_time_utc":"2023-04-14T21:00:00Z","perimeter_time_utc":"2023-04-15T02:00:00Z","perimeter_edit_time_utc":"2023-05-17T17:02:40Z","incident_modified_time_utc":"2023-04-27T13:50:14Z","containment_time_utc":"2023-04-17T21:00:00Z","control_time_utc":"2023-04-24T21:00:00Z","fire_out_time_utc":"2023-04-24T21:00:00Z","fire_cause":"Human","fire_cause_general":null,"map_method":"Image Interpretation","source_dataset":"2023 NIFS","unique_fire_identifier":"2023-NEBCR-000001","irwin_id":"{E45FEE3C-B517-4920-B917-FFE575561F79}","global_id":"76b7b240-4c58-4bc9-886f-d0dc5a8fe5d8"}},{"type":"Feature","geometry":{"type":"MultiPolygon","coordinates":[[[[-96.3097,42.13596],[-96.30787,42.13499],[-96.3077,42.13476],[-96.30742,42.13477],[-96.3069,42.13417],[-96.30637,42.13394],[-96.30584,42.13396],[-96.30574,42.1344],[-96.30557,42.13456],[-96.30531,42.13435],[-96.30504,42.13368],[-96.30447,42.13346],[-96.30457,42.13303],[-96.30439,42.13263],[-96.30384,42.13227],[-96.30197,42.13196],[-96.29703,42.13169],[-96.29597,42.13198],[-96.29527,42.13159],[-96.29309,42.1311],[-96.29197,42.13089],[-96.29113,42.13093],[-96.28879,42.12969],[-96.28597,42.12872],[-96.28538,42.12881],[-96.2853,42.12876],[-96.28546,42.12847],[-96.2845,42.12813],[-96.2828,42.12713],[-96.28238,42.12663],[-96.28091,42.12556],[-96.28183,42.12544],[-96.28269,42.12596],[-96.28397,42.1263],[-96.28453,42.12633],[-96.28463,42.12649],[-96.28543,42.12677],[-96.28583,42.12666],[-96.28677,42.12718],[-96.28743,42.12728],[-96.28828,42.12707],[-96.28863,42.12682],[-96.28939,42.1268],[-96.28981,42.12691],[-96.29023,42.12747],[-96.29103,42.12754],[-96.29143,42.12773],[-96.29237,42.12763],[-96.29398,42.12798],[-96.29477,42.1277],[-96.29514,42.12772],[-96.29557,42.12829],[-96.29663,42.12822],[-96.29859,42.1284],[-96.3005,42.12897],[-96.3019,42.12896],[-96.3031,42.12963],[-96.30312,42.13005],[-96.30272,42.13023],[-96.30288,42.13038],[-96.30344,42.1303],[-96.3049,42.13058],[-96.30544,42.13136],[-96.30662,42.13171],[-96.30699,42.13214],[-96.30773,42.13233],[-96.3097,42.13356],[-96.31045,42.13463],[-96.31005,42.13485],[-96.31016,42.13503],[-96.31009,42.13516],[-96.31064,42.13529],[-96.3097,42.13596]]],[[[-96.31544,42.13609],[-96.3153,42.13618],[-96.31464,42.13609],[-96.31424,42.13542],[-96.31378,42.13522],[-96.31357,42.13467],[-96.31253,42.13369],[-96.31237,42.13331],[-96.31179,42.1332],[-96.31166,42.13276],[-96.31137,42.13263],[-96.31122,42.13236],[-96.31049,42.13197],[-96.31028,42.13156],[-96.30975,42.13138],[-96.30946,42.13103],[-96.30917,42.131],[-96.30904,42.13076],[-96.30864,42.13062],[-96.30837,42.13036],[-96.3077,42.13023],[-96.30776,42.13009],[-96.3075,42.12983],[-96.30755,42.12956],[-96.30741,42.12945],[-96.30629,42.12923],[-96.30544,42.12873],[-96.30504,42.12867],[-96.30481,42.12845],[-96.30103,42.12712],[-96.30063,42.1271],[-96.29997,42.12681],[-96.29915,42.12678],[-96.29783,42.12634],[-96.2977,42.12636],[-96.2977,42.1265],[-96.2973,42.12643],[-96.29714,42.12623],[-96.29741,42.12596],[-96.29717,42.12585],[-96.29677,42.12596],[-96.2957,42.12446],[-96.29548,42.12436],[-96.2953,42.12409],[-96.29607,42.12286],[-96.29703,42.12276],[-96.29717,42.12263],[-96.29509,42.12177],[-96.29338,42.12068],[-96.29293,42.12006],[-96.29117,42.11634],[-96.2905,42.11569],[-96.28859,42.11441],[-96.28823,42.11396],[-96.28908,42.11342],[-96.28881,42.11281],[-96.28903,42.11262],[-96.28917,42.11209],[-96.28946,42.11196],[-96.28971,42.11142],[-96.28978,42.11044],[-96.29031,42.10982],[-96.29077,42.10822],[-96.29097,42.10662],[-96.29142,42.10596],[-96.2911,42.10576],[-96.29112,42.10565],[-96.29165,42.1055],[-96.29229,42.10551],[-96.2945,42.10578],[-96.29869,42.10657],[-96.29953,42.1068],[-96.29982,42.10702],[-96.2997,42.10729],[-96.30037,42.10829],[-96.30052,42.10982],[-96.30079,42.1106],[-96.3013,42.11356],[-96.30182,42.11437],[-96.30223,42.11589],[-96.30237,42.11603],[-96.30284,42.11609],[-96.30284,42.11649],[-96.30262,42.11661],[-96.3025,42.11689],[-96.30277,42.11689],[-96.3029,42.11703],[-96.3025,42.11713],[-96.30241,42.11743],[-96.30263,42.11758],[-96.30407,42.11773],[-96.30448,42.11823],[-96.3043,42.11869],[-96.30388,42.11889],[-96.30477,42.11983],[-96.30452,42.12036],[-96.30456,42.12063],[-96.30504,42.12141],[-96.3057,42.1221],[-96.30597,42.1222],[-96.30644,42.12196],[-96.30644,42.12143],[-96.30624,42.12116],[-96.30637,42.12067],[-96.3073,42.12156],[-96.30724,42.12223],[-96.30586,42.12303],[-96.30637,42.12324],[-96.30701,42.12273],[-96.30744,42.12263],[-96.30766,42.12276],[-96.30745,42.12304],[-96.30673,42.12339],[-96.30631,42.12396],[-96.30554,42.12436],[-96.30521,42.12476],[-96.30518,42.12503],[-96.30548,42.12543],[-96.30539,42.12574],[-96.30568,42.12585],[-96.30581,42.12609],[-96.30569,42.12635],[-96.30597,42.12796],[-96.30624,42.12823],[-96.30665,42.12824],[-96.30689,42.12689],[-96.30685,42.12649],[-96.30704,42.12618],[-96.30728,42.12636],[-96.30742,42.12676],[-96.30748,42.12836],[-96.30768,42.12865],[-96.3081,42.12872],[-96.3089,42.12911],[-96.3101,42.12935],[-96.31024,42.12957],[-96.31104,42.12949],[-96.31189,42.12969],[-96.31117,42.12836],[-96.30959,42.12594],[-96.3093,42.12521],[-96.30852,42.12408],[-96.30812,42.12328],[-96.30799,42.12249],[-96.30744,42.12223],[-96.30775,42.12201],[-96.30779,42.12178],[-96.30868,42.12147],[-96.3089,42.12119],[-96.30952,42.12111],[-96.30957,42.12076],[-96.31024,42.12071],[-96.31064,42.12083],[-96.31161,42.12289],[-96.31193,42.12423],[-96.31223,42.12463],[-96.31243,42.12543],[-96.31267,42.12569],[-96.31361,42.12619],[-96.3137,42.12636],[-96.31379,42.12703],[-96.31332,42.12769],[-96.3137,42.12976],[-96.31395,42.13023],[-96.31717,42.13108],[-96.31726,42.13249],[-96.31837,42.13289],[-96.31847,42.13303],[-96.31836,42.13329],[-96.31874,42.13383],[-96.31866,42.13412],[-96.31807,42.13426],[-96.31776,42.13417],[-96.31704,42.13356],[-96.3165,42.13328],[-96.3147,42.13316],[-96.31517,42.13407],[-96.31606,42.1348],[-96.3165,42.13543],[-96.317,42.13583],[-96.31704,42.13649],[-96.31677,42.13664],[-96.31544,42.13609]]]]},"properties":{"fire_id":"ufid:2023-NEWIA-000001","source_collection":"history-2023","source_objectid":16764,"incident_name":"DIKE","mapped_acres":605.0,"mapped_acres_source":"poly_GISAcres","gis_acres":605.0,"auto_acres":841.509447935271,"reported_acres":605.0,"percent_contained":100.0,"state":"NE","state_wfigs":"US-NE","county":"Thurston","discovery_time_utc":"2023-04-13T17:26:00Z","perimeter_time_utc":"2023-04-13T22:26:00Z","perimeter_edit_time_utc":"2023-05-17T17:48:37Z","incident_modified_time_utc":"2023-04-21T21:13:53Z","containment_time_utc":null,"control_time_utc":null,"fire_out_time_utc":null,"fire_cause":"Undetermined","fire_cause_general":null,"map_method":"Image Interpretation","source_dataset":"2023 NIFS","unique_fire_identifier":"2023-NEWIA-000001","irwin_id":"{129DC0A2-D303-4B70-A054-53460EDE90F2}","global_id":"5fb17f33-9858-4dd6-a8c7-ffa380192aa7"}}]}
