{"type":"FeatureCollection","features":[{"type":"Feature","geometry":{"type":"Polygon","coordinates":[[[-74.52804,40.71963],[-74.52791,40.71961],[-74.52805,40.71953],[-74.52822,40.71963],[-74.52799,40.72006],[-74.52804,40.71963]]]},"properties":{"fire_id":"ufid:2023-NJGSR-230001","source_collection":"history-2023","source_objectid":15764,"incident_name":"14 PLEASANT PLAINS ROAD","mapped_acres":0.1,"mapped_acres_source":"poly_GISAcres","gis_acres":0.1,"auto_acres":0.140739699280157,"reported_acres":0.1,"percent_contained":null,"state":"NJ","state_wfigs":"US-NJ","county":"Morris","discovery_time_utc":"2023-03-20T19:00:00Z","perimeter_time_utc":"2023-03-21T00:00:00Z","perimeter_edit_time_utc":"2023-03-30T15:28:04Z","incident_modified_time_utc":"2023-03-22T14:44:01Z","containment_time_utc":"2023-03-20T19:15:00Z","control_time_utc":"2023-03-20T19:45:00Z","fire_out_time_utc":"2023-03-20T20:45:00Z","fire_cause":"Human","fire_cause_general":null,"map_method":"Hand Sketch","source_dataset":"2023 NIFS","unique_fire_identifier":"2023-NJGSR-230001","irwin_id":"{39A9FAC7-FF6A-4C7A-ABA7-C478D5CE83B2}","global_id":"748ba75d-117b-4cff-ac09-c84c9b88c47e"}},{"type":"Feature","geometry":{"type":"Polygon","coordinates":[[[-74.40113,40.00721],[-74.38595,40.01271],[-74.37432,40.01748],[-74.36039,40.02241],[-74.36027,40.0222],[-74.36052,40.02182],[-74.36014,40.02149],[-74.35983,40.02094],[-74.35943,40.02107],[-74.35893,40.02172],[-74.35839,40.02187],[-74.35786,40.02177],[-74.35453,40.02221],[-74.35362,40.02215],[-74.35301,40.02186],[-74.35274,40.02136],[-74.35155,40.02192],[-74.35086,40.02186],[-74.35049,40.02154],[-74.34977,40.02179],[-74.34955,40.02204],[-74.34896,40.02215],[-74.34818,40.02205],[-74.34788,40.02186],[-74.34722,40.02182],[-74.34691,40.02138],[-74.34699,40.02104],[-74.34651,40.02069],[-74.34645,40.02049],[-74.34631,40.02076],[-74.3465,40.02145],[-74.34641,40.02179],[-74.34676,40.02221],[-74.34654,40.02216],[-74.34638,40.02241],[-74.34645,40.02261],[-74.34672,40.02269],[-74.34636,40.02317],[-74.34658,40.02344],[-74.34645,40.02394],[-74.34672,40.02379],[-74.34699,40.02417],[-74.34788,40.02402],[-74.34869,40.02434],[-74.34896,40.02415],[-74.34917,40.02418],[-74.34923,40.02434],[-74.34941,40.02417],[-74.34961,40.02419],[-74.34959,40.02468],[-74.35004,40.02496],[-74.34992,40.0253],[-74.35014,40.02565],[-74.35004,40.02607],[-74.35028,40.0262],[-74.35046,40.02691],[-74.35103,40.02737],[-74.35089,40.02781],[-74.35058,40.02805],[-74.34986,40.02787],[-74.34959,40.02764],[-74.34905,40.02771],[-74.34914,40.0275],[-74.34841,40.0273],[-74.34806,40.02692],[-74.3477,40.02688],[-74.34739,40.02661],[-74.34782,40.02629],[-74.34781,40.02612],[-74.34717,40.02606],[-74.34726,40.02647],[-74.34708,40.02649],[-74.34686,40.02615],[-74.34579,40.02539],[-74.34521,40.0248],[-74.34447,40.02441],[-74.34271,40.02431],[-74.34229,40.02415],[-74.34214,40.02393],[-74.34133,40.02369],[-74.3407,40.02369],[-74.33937,40.0231],[-74.33854,40.02288],[-74.33743,40.02285],[-74.33719,40.02269],[-74.33648,40.02315],[-74.33567,40.02324],[-74.33495,40.02303],[-74.33501,40.02344],[-74.33486,40.02351],[-74.33405,40.02276],[-74.33423,40.02248],[-74.3348,40.02285],[-74.33443,40.02247],[-74.33437,40.022],[-74.33414,40.02185],[-74.33288,40.02162],[-74.33251,40.02124],[-74.33168,40.02104],[-74.33136,40.0204],[-74.331,40.02014],[-74.33076,40.02012],[-74.33038,40.01958],[-74.3301,40.01962],[-74.32988,40.02],[-74.33037,40.02012],[-74.33055,40.02049],[-74.32992,40.02076],[-74.32929,40.02086],[-74.32876,40.02055],[-74.32784,40.02082],[-74.3274,40.02065],[-74.32704,40.02086],[-74.32597,40.02035],[-74.32636,40.01997],[-74.32704,40.01961],[-74.3272,40.01973],[-74.32717,40.02],[-74.32731,40.02008],[-74.32812,40.02006],[-74.32839,40.01991],[-74.32911,40.0201],[-74.32911,40.01994],[-74.32823,40.01945],[-74.32833,40.01914],[-74.32868,40.01883],[-74.32857,40.01856],[-74.3292,40.0185],[-74.32956,40.01827],[-74.33037,40.01855],[-74.33068,40.01835],[-74.33042,40.01815],[-74.33046,40.01801],[-74.33073,40.01819],[-74.33099,40.01794],[-74.33082,40.01767],[-74.33043,40.01746],[-74.33055,40.01728],[-74.33091,40.01723],[-74.33111,40.01705],[-74.33104,40.01663],[-74.33085,40.01643],[-74.33102,40.01601],[-74.33071,40.01588],[-74.33093,40.01567],[-74.3307,40.01479],[-74.33074,40.01374],[-74.33061,40.01333],[-74.3307,40.01299],[-74.33024,40.01285],[-74.33073,40.01234],[-74.33089,40.0119],[-74.33055,40.01189],[-74.33025,40.0115],[-74.33034,40.01099],[-74.32956,40.01089],[-74.32909,40.01045],[-74.3285,40.01057],[-74.3281,40.01039],[-74.32803,40.01013],[-74.32773,40.01003],[-74.32803,40.00955],[-74.32835,40.00955],[-74.32877,40.00908],[-74.32965,40.00857],[-74.33003,40.00853],[-74.33086,40.008],[-74.33333,40.00716],[-74.338,40.00609],[-74.34558,40.00512],[-74.3592,40.00313],[-74.36091,40.00308],[-74.36051,40.00349],[-74.36045,40.00384],[-74.36064,40.00445],[-74.36117,40.00467],[-74.36136,40.0049],[-74.36167,40.00494],[-74.36226,40.00474],[-74.36309,40.00482],[-74.36354,40.00452],[-74.36343,40.00441],[-74.36313,40.00448],[-74.36295,40.00433],[-74.36301,40.00414],[-74.36325,40.00411],[-74.36332,40.00396],[-74.36295,40.00351],[-74.3628,40.00294],[-74.36309,40.00262],[-74.36576,40.00215],[-74.36729,40.00209],[-74.36783,40.00189],[-74.36819,40.00194],[-74.37036,40.00151],[-74.37178,40.0014],[-74.37205,40.00122],[-74.37241,40.00129],[-74.37433,40.00111],[-74.37474,40.00077],[-74.37483,40.00115],[-74.37471,40.00122],[-74.37483,40.00143],[-74.37519,40.0016],[-74.37525,40.00191],[-74.37573,40.00201],[-74.37595,40.0018],[-74.37658,40.00163],[-74.3766,40.00143],[-74.37646,40.00128],[-74.37653,40.00107],[-74.37672,40.00104],[-74.37672,40.00136],[-74.3769,40.00134],[-74.37713,40.00101],[-74.37707,40.00074],[-74.37772,40.00041],[-74.3778,40.00024],[-74.37807,40.00032],[-74.37903,39.99998],[-74.37903,39.99984],[-74.37942,39.99978],[-74.38051,39.99917],[-74.38091,39.99909],[-74.38122,39.99888],[-74.38129,39.99866],[-74.38167,39.99874],[-74.38215,39.9984],[-74.3822,39.99812],[-74.38256,39.99823],[-74.38301,39.9981],[-74.38565,39.99685],[-74.38606,39.99678],[-74.38651,39.99695],[-74.38684,39.99638],[-74.38717,39.99615],[-74.38834,39.99572],[-74.38909,39.99521],[-74.39343,39.99336],[-74.39555,39.99225],[-74.39639,39.992],[-74.39723,39.99147],[-74.39978,39.99033],[-74.403,39.98956],[-74.4114,39.9879],[-74.41167,39.98761],[-74.41176,39.98787],[-74.41224,39.98812],[-74.41283,39.98879],[-74.41328,39.98871],[-74.41373,39.98887],[-74.41418,39.98878],[-74.41443,39.9885],[-74.41414,39.98804],[-74.41415,39.9875],[-74.41465,39.98727],[-74.41667,39.98691],[-74.41768,39.98656],[-74.41803,39.98629],[-74.41804,39.98611],[-74.41849,39.98616],[-74.41872,39.98601],[-74.41849,39.98537],[-74.41885,39.98542],[-74.419,39.98518],[-74.41939,39.98498],[-74.42053,39.98475],[-74.42185,39.98459],[-74.42272,39.98463],[-74.42247,39.98484],[-74.4226,39.98512],[-74.42241,39.98608],[-74.42256,39.98635],[-74.42236,39.98677],[-74.42251,39.98704],[-74.42236,39.98746],[-74.42232,39.9887],[-74.42269,39.98966],[-74.42262,39.98993],[-74.42301,39.99048],[-74.42304,39.99117],[-74.42343,39.99193],[-74.4234,39.99211],[-74.42263,39.99262],[-74.42141,39.99272],[-74.4211,39.9931],[-74.42094,39.99296],[-74.42103,39.99281],[-74.42078,39.99262],[-74.42058,39.99172],[-74.42027,39.9911],[-74.41975,39.99122],[-74.41928,39.99109],[-74.41896,39.99146],[-74.41828,39.99138],[-74.41816,39.99168],[-74.41773,39.99186],[-74.41768,39.99211],[-74.41715,39.99207],[-74.41625,39.99222],[-74.41617,39.99249],[-74.4158,39.99254],[-74.41564,39.99269],[-74.41539,39.9932],[-74.4149,39.99344],[-74.41426,39.99338],[-74.41373,39.99315],[-74.41312,39.99351],[-74.41232,39.99448],[-74.41355,39.99487],[-74.4147,39.99551],[-74.41526,39.99605],[-74.41566,39.99617],[-74.41617,39.99661],[-74.41679,39.99804],[-74.41719,39.99799],[-74.41768,39.99769],[-74.4183,39.99701],[-74.41876,39.99709],[-74.42093,39.99991],[-74.42087,40.00015],[-74.42062,40.00033],[-74.42066,40.00054],[-74.41813,40.00132],[-74.41715,40.0017],[-74.41697,40.0019],[-74.41514,40.0025],[-74.41381,40.00273],[-74.41364,40.00303],[-74.41337,40.00301],[-74.41249,40.00337],[-74.4119,40.0034],[-74.411,40.00395],[-74.40394,40.00642],[-74.40381,40.00618],[-74.40513,40.00523],[-74.40556,40.00525],[-74.40655,40.00478],[-74.40665,40.00444],[-74.40637,40.00442],[-74.40511,40.00518],[-74.40471,40.00521],[-74.40389,40.00586],[-74.40307,40.00618],[-74.40289,40.00652],[-74.40254,40.00675],[-74.40125,40.00673],[-74.40119,40.00631],[-74.40062,40.00583],[-74.39882,40.00492],[-74.39873,40.0053],[-74.39891,40.00522],[-74.3996,40.00556],[-74.40004,40.006],[-74.40011,40.00631],[-74.40042,40.00647],[-74.40062,40.00683],[-74.40113,40.00721]],[[-74.34717,40.02606],[-74.34709,40.02585],[-74.34686,40.02576],[-74.34686,40.02595],[-74.34717,40.02606]]]},"properties":{"fire_id":"ufid:2023-NJNJS-000298","source_collection":"history-2023","source_objectid":16212,"incident_name":"JImmys Water Hole","mapped_acres":3859.0,"mapped_acres_source":"poly_GISAcres","gis_acres":3859.0,"auto_acres":3533.34205177364,"reported_acres":3859.0,"percent_contained":100.0,"state":"NJ","state_wfigs":"US-NJ","county":"Ocean","discovery_time_utc":"2023-04-11T20:12:00Z","perimeter_time_utc":"2023-04-12T01:12:00Z","perimeter_edit_time_utc":"2023-04-20T21:46:13Z","incident_modified_time_utc":"2023-04-21T21:46:38Z","containment_time_utc":"2023-04-13T14:00:00Z","control_time_utc":null,"fire_out_time_utc":null,"fire_cause":"Undetermined","fire_cause_general":null,"map_method":"Image Interpretation","source_dataset":"2023 NIFS","unique_fire_identifier":"2023-NJNJS-000298","irwin_id":"{46478233-5561-4686-B7BD-DE8C6BE0A315}","global_id":"78d41f34-7f49-4778-9dc3-f1fca2bc03d0"}},{"type":"Feature","geometry":{"type":"MultiPolygon","coordinates":[[[[-74.43099,41.04123],[-74.43071,41.04117],[-74.4308,41.04142],[-74.43052,41.0414],[-74.43034,41.04157],[-74.43066,41.04174],[-74.43067,41.04187],[-74.43027,41.04212],[-74.42975,41.04322],[-74.42932,41.04373],[-74.42935,41.04392],[-74.42896,41.04416],[-74.42875,41.04408],[-74.42842,41.04419],[-74.42849,41.04449],[-74.42874,41.04427],[-74.42885,41.04432],[-74.42931,41.04543],[-74.42887,41.04557],[-74.42898,41.04565],[-74.4293,41.04557],[-74.42941,41.0457],[-74.42917,41.04637],[-74.4287,41.0464],[-74.42927,41.04697],[-74.42925,41.04726],[-74.42876,41.04737],[-74.42868,41.04714],[-74.42801,41.04708],[-74.4263,41.04648],[-74.42514,41.04687],[-74.42386,41.04778],[-74.42384,41.04798],[-74.42323,41.04835],[-74.42311,41.04867],[-74.42297,41.0487],[-74.42297,41.04883],[-74.42217,41.04965],[-74.42123,41.05034],[-74.42079,41.05096],[-74.42079,41.05151],[-74.41964,41.0522],[-74.41929,41.05293],[-74.41865,41.0535],[-74.41876,41.05379],[-74.41775,41.05643],[-74.4178,41.05659],[-74.41748,41.05759],[-74.41756,41.05821],[-74.41743,41.05856],[-74.41667,41.05979],[-74.4157,41.06031],[-74.41524,41.06095],[-74.41491,41.06104],[-74.41442,41.0633],[-74.41397,41.06379],[-74.41343,41.0647],[-74.41323,41.06477],[-74.41317,41.06438],[-74.41359,41.06208],[-74.41345,41.06138],[-74.41359,41.06014],[-74.41343,41.0573],[-74.41311,41.05611],[-74.4132,41.05522],[-74.41311,41.05438],[-74.41317,41.05371],[-74.41333,41.05362],[-74.41316,41.05354],[-74.41296,41.05254],[-74.41336,41.05092],[-74.41324,41.04932],[-74.41336,41.04921],[-74.41318,41.04868],[-74.41233,41.04835],[-74.41244,41.04789],[-74.41227,41.04755],[-74.41179,41.04767],[-74.41135,41.04722],[-74.41144,41.04702],[-74.41112,41.04707],[-74.41073,41.04693],[-74.41015,41.04643],[-74.41021,41.04626],[-74.41339,41.04315],[-74.41415,41.04278],[-74.41471,41.04228],[-74.41527,41.0414],[-74.41665,41.03842],[-74.41732,41.03756],[-74.41884,41.03632],[-74.42047,41.03533],[-74.42112,41.0347],[-74.42147,41.03469],[-74.42295,41.03559],[-74.42322,41.036],[-74.42361,41.03622],[-74.42373,41.03657],[-74.42403,41.03684],[-74.42423,41.03684],[-74.42407,41.0369],[-74.42408,41.03701],[-74.42479,41.03715],[-74.42555,41.0382],[-74.42543,41.03839],[-74.42579,41.03858],[-74.42568,41.03875],[-74.42587,41.03861],[-74.42638,41.03897],[-74.42651,41.03875],[-74.42693,41.03885],[-74.42679,41.03865],[-74.42765,41.0387],[-74.42804,41.03898],[-74.42843,41.03887],[-74.4289,41.03901],[-74.42905,41.03926],[-74.43056,41.0399],[-74.43094,41.04034],[-74.43142,41.04064],[-74.43124,41.04069],[-74.43127,41.0409],[-74.43099,41.04123]]],[[[-74.39811,41.06986],[-74.39806,41.06933],[-74.39829,41.06819],[-74.39789,41.06804],[-74.39782,41.06784],[-74.3982,41.06709],[-74.39879,41.06523],[-74.39924,41.06482],[-74.39932,41.0645],[-74.39968,41.06428],[-74.40001,41.06372],[-74.40041,41.06337],[-74.40068,41.06333],[-74.40081,41.06297],[-74.40098,41.0629],[-74.40103,41.06302],[-74.40099,41.06327],[-74.40084,41.06334],[-74.40105,41.06361],[-74.40026,41.0643],[-74.40005,41.06415],[-74.39996,41.06436],[-74.40006,41.06491],[-74.40079,41.06446],[-74.40115,41.0638],[-74.40188,41.06355],[-74.40189,41.06333],[-74.40148,41.06321],[-74.40162,41.06278],[-74.40124,41.06269],[-74.40163,41.06216],[-74.40093,41.06036],[-74.40093,41.05981],[-74.40104,41.05978],[-74.40097,41.05964],[-74.40072,41.05976],[-74.40057,41.05961],[-74.4005,41.05921],[-74.40034,41.05911],[-74.40021,41.05749],[-74.39982,41.05739],[-74.39871,41.05817],[-74.39806,41.05844],[-74.39772,41.05837],[-74.39767,41.05795],[-74.39756,41.05792],[-74.39766,41.05784],[-74.39721,41.05759],[-74.39771,41.05727],[-74.39775,41.05751],[-74.39836,41.05696],[-74.39863,41.05711],[-74.39872,41.05766],[-74.39885,41.05757],[-74.39926,41.05687],[-74.39918,41.05668],[-74.39887,41.05657],[-74.39882,41.05639],[-74.39903,41.05619],[-74.39959,41.05624],[-74.39957,41.05598],[-74.39939,41.05585],[-74.39966,41.05549],[-74.39994,41.0555],[-74.39992,41.05534],[-74.40009,41.05526],[-74.40004,41.05488],[-74.40027,41.05409],[-74.40095,41.0535],[-74.40176,41.05246],[-74.40222,41.05231],[-74.40266,41.05184],[-74.40266,41.0516],[-74.40205,41.05195],[-74.40189,41.05189],[-74.4028,41.05112],[-74.40294,41.05135],[-74.40297,41.05098],[-74.40389,41.05012],[-74.40471,41.04901],[-74.40517,41.04863],[-74.40553,41.04859],[-74.4058,41.04891],[-74.40591,41.04933],[-74.40631,41.04979],[-74.40612,41.05029],[-74.40637,41.05106],[-74.40635,41.05161],[-74.40678,41.05185],[-74.40696,41.05232],[-74.40675,41.0528],[-74.40693,41.05346],[-74.40684,41.05419],[-74.40705,41.05444],[-74.40696,41.0548],[-74.40742,41.0554],[-74.40774,41.05558],[-74.40796,41.05604],[-74.40833,41.05641],[-74.40872,41.05725],[-74.40864,41.05733],[-74.40903,41.05738],[-74.40915,41.05754],[-74.40917,41.05768],[-74.40896,41.05776],[-74.40919,41.05799],[-74.40903,41.05833],[-74.40924,41.05828],[-74.40952,41.05849],[-74.40971,41.05891],[-74.40956,41.05913],[-74.40923,41.05917],[-74.40932,41.05928],[-74.40891,41.05979],[-74.40896,41.0599],[-74.4085,41.06032],[-74.4085,41.06046],[-74.40828,41.06043],[-74.40841,41.06062],[-74.40814,41.0607],[-74.40819,41.06089],[-74.40785,41.0611],[-74.40765,41.06105],[-74.40779,41.06122],[-74.40755,41.06131],[-74.4076,41.06145],[-74.40724,41.06183],[-74.4073,41.06213],[-74.40702,41.06243],[-74.40709,41.0627],[-74.4069,41.0631],[-74.40665,41.06334],[-74.40637,41.06333],[-74.40596,41.06369],[-74.40619,41.06373],[-74.40625,41.06358],[-74.40658,41.06343],[-74.40675,41.06353],[-74.40669,41.06397],[-74.40636,41.06418],[-74.40646,41.06437],[-74.40594,41.06461],[-74.40629,41.06472],[-74.40614,41.06486],[-74.40621,41.06499],[-74.40634,41.06483],[-74.40661,41.0648],[-74.40661,41.0651],[-74.40642,41.06529],[-74.40655,41.06549],[-74.40654,41.06605],[-74.40644,41.06621],[-74.40619,41.06626],[-74.40616,41.06669],[-74.40602,41.06675],[-74.40614,41.06685],[-74.40597,41.06734],[-74.40576,41.06748],[-74.40556,41.06853],[-74.40522,41.06926],[-74.40503,41.06945],[-74.40479,41.06947],[-74.40452,41.07022],[-74.40431,41.0703],[-74.40352,41.07019],[-74.40345,41.07036],[-74.40247,41.07038],[-74.4022,41.07053],[-74.40149,41.07042],[-74.40034,41.07069],[-74.39864,41.07025],[-74.39811,41.06986]]]]},"properties":{"fire_id":"ufid:2023-NJNJS-000311","source_collection":"history-2023","source_objectid":16774,"incident_name":"Kanouse","mapped_acres":972.0,"mapped_acres_source":"poly_GISAcres","gis_acres":972.0,"auto_acres":898.625846274198,"reported_acres":972.0,"percent_contained":100.0,"state":"NJ","state_wfigs":"US-NJ","county":"Passaic","discovery_time_utc":"2023-04-12T18:00:00Z","perimeter_time_utc":"2023-04-12T23:00:00Z","perimeter_edit_time_utc":"2023-05-17T19:08:25Z","incident_modified_time_utc":"2023-11-28T17:06:15Z","containment_time_utc":"2023-04-17T00:00:00Z","control_time_utc":null,"fire_out_time_utc":null,"fire_cause":"Human","fire_cause_general":null,"map_method":"Image Interpretation","source_dataset":"2023 NIFS","unique_fire_identifier":"2023-NJNJS-000311","irwin_id":"{1A2B1D02-B317-4F2F-B70D-46C3716E2158}","global_id":"824d6b8e-b83f-448f-8a5a-821a7e8551fb"}}]}
