{"type":"FeatureCollection","features":[{"type":"Feature","geometry":{"type":"Polygon","coordinates":[[[-98.42543,34.90687],[-98.4258,34.90694],[-98.42602,34.90725],[-98.42562,34.90732],[-98.42535,34.90704],[-98.42543,34.90687]]]},"properties":{"fire_id":"ufid:2023-OKANA-000095","source_collection":"history-2023","source_objectid":14711,"incident_name":"C9","mapped_acres":0.55,"mapped_acres_source":"poly_GISAcres","gis_acres":0.55,"auto_acres":0.546419641804047,"reported_acres":0.25,"percent_contained":null,"state":"OK","state_wfigs":"US-OK","county":"Caddo","discovery_time_utc":"2023-01-08T19:50:00Z","perimeter_time_utc":null,"perimeter_edit_time_utc":"2023-01-09T20:44:16Z","incident_modified_time_utc":"2023-01-23T20:35:31Z","containment_time_utc":"2023-01-08T21:00:00Z","control_time_utc":"2023-01-23T18:00:00Z","fire_out_time_utc":"2023-01-23T18:00:00Z","fire_cause":"Human","fire_cause_general":null,"map_method":"Hand Sketch","source_dataset":"2023 NIFS","unique_fire_identifier":"2023-OKANA-000095","irwin_id":"{59DD4412-494A-4C88-95AE-3782555465C3}","global_id":"245d52a6-7899-442c-8d22-5584980ba137"}},{"type":"Feature","geometry":{"type":"Polygon","coordinates":[[[-96.50676,34.91287],[-96.5117,34.9128],[-96.51152,34.91886],[-96.51056,34.91879],[-96.50981,34.91927],[-96.50957,34.91766],[-96.50686,34.91759],[-96.50691,34.91518],[-96.50746,34.91437],[-96.50735,34.91386],[-96.5069,34.91377],[-96.50676,34.91287]]]},"properties":{"fire_id":"ufid:2023-OKWEA-000151","source_collection":"history-2023","source_objectid":15171,"incident_name":"DRY CREEK","mapped_acres":35.0,"mapped_acres_source":"poly_GISAcres","gis_acres":35.0,"auto_acres":61.94568862108749,"reported_acres":35.0,"percent_contained":null,"state":"OK","state_wfigs":"US-OK","county":"Seminole","discovery_time_utc":"2023-01-16T12:00:00Z","perimeter_time_utc":"2023-02-07T18:47:16Z","perimeter_edit_time_utc":"2023-03-14T15:13:42Z","incident_modified_time_utc":"2023-01-23T21:07:19Z","containment_time_utc":"2023-01-16T20:00:00Z","control_time_utc":"2023-01-23T18:00:00Z","fire_out_time_utc":"2023-01-23T18:00:00Z","fire_cause":"Human","fire_cause_general":"Arson","map_method":"Hand Sketch","source_dataset":"FFP","unique_fire_identifier":"2023-OKWEA-000151","irwin_id":"{9E9CDC2D-3A2D-4A64-B722-89C46C3882F9}","global_id":"c3845284-fe60-4867-8592-5da613f049b2"}},{"type":"Feature","geometry":{"type":"Polygon","coordinates":[[[-95.035134,34.955691],[-95.03536,34.95522],[-95.03517,34.9551],[-95.03556,34.95513],[-95.03563,34.95566],[-95.03591,34.95553],[-95.0357,34.9554],[-95.0357,34.95527],[-95.03583,34.95524],[-95.0357,34.95508],[-95.03616,34.95508],[-95.0363,34.95518],[-95.03628,34.95561],[-95.03594,34.95561],[-95.03594,34.95572],[-95.03627,34.95573],[-95.03649,34.95589],[-95.03636,34.95612],[-95.03647,34.95606],[-95.03665,34.9563],[-95.03683,34.95624],[-95.03683,34.95636],[-95.037,34.95635],[-95.03713,34.95646],[-95.03712,34.95669],[-95.03742,34.95656],[-95.03753,34.95668],[-95.03759,34.95653],[-95.0373,34.95613],[-95.03736,34.95599],[-95.03764,34.95601],[-95.03765,34.9558],[-95.03758,34.95588],[-95.03742,34.95566],[-95.03714,34.95562],[-95.03737,34.95545],[-95.03705,34.95554],[-95.03717,34.95521],[-95.03729,34.95541],[-95.03753,34.95528],[-95.03773,34.95537],[-95.03798,34.95528],[-95.03795,34.95536],[-95.03814,34.9554],[-95.03861,34.95516],[-95.0394,34.9551],[-95.03952,34.95486],[-95.03985,34.95506],[-95.04075,34.95528],[-95.04075,34.95513],[-95.04144,34.95509],[-95.04157,34.95544],[-95.04193,34.95538],[-95.04228,34.95553],[-95.04199,34.95562],[-95.04209,34.95563],[-95.04208,34.95589],[-95.04257,34.9558],[-95.04247,34.95596],[-95.04257,34.9561],[-95.0427,34.95599],[-95.04291,34.95629],[-95.0433,34.95629],[-95.04343,34.95647],[-95.0436,34.95645],[-95.04381,34.95678],[-95.04397,34.95656],[-95.04367,34.95635],[-95.04396,34.95619],[-95.04419,34.95636],[-95.04471,34.95606],[-95.04494,34.95619],[-95.04492,34.95657],[-95.04512,34.95651],[-95.04515,34.95686],[-95.04489,34.95719],[-95.04481,34.95758],[-95.04377,34.9581],[-95.04398,34.95842],[-95.04339,34.95841],[-95.0436,34.95842],[-95.04369,34.95874],[-95.04343,34.95882],[-95.04336,34.95867],[-95.043,34.95874],[-95.04257,34.95854],[-95.04256,34.95864],[-95.04294,34.95915],[-95.04276,34.95947],[-95.04284,34.95968],[-95.04331,34.96009],[-95.04327,34.9602],[-95.04341,34.96018],[-95.04337,34.96031],[-95.0435,34.96024],[-95.04368,34.96037],[-95.04367,34.96064],[-95.04381,34.96071],[-95.04402,34.96042],[-95.04432,34.96043],[-95.04424,34.96018],[-95.04438,34.96011],[-95.04441,34.9603],[-95.0446,34.96036],[-95.04463,34.96056],[-95.04446,34.96064],[-95.0444,34.96056],[-95.04456,34.96047],[-95.04446,34.96042],[-95.04427,34.96077],[-95.04403,34.9608],[-95.04424,34.96134],[-95.04469,34.96192],[-95.04492,34.96179],[-95.04509,34.96205],[-95.04528,34.962],[-95.04531,34.9623],[-95.04552,34.96248],[-95.04583,34.96242],[-95.04546,34.96262],[-95.04544,34.96289],[-95.04527,34.96271],[-95.04506,34.96283],[-95.04513,34.96268],[-95.04499,34.96252],[-95.04501,34.9629],[-95.04541,34.96314],[-95.04549,34.96305],[-95.04567,34.96344],[-95.04649,34.96393],[-95.04639,34.96412],[-95.04616,34.9641],[-95.04606,34.96435],[-95.04612,34.96458],[-95.04637,34.96466],[-95.04631,34.96506],[-95.0461,34.96539],[-95.04634,34.96568],[-95.04663,34.9666],[-95.04672,34.96738],[-95.0466,34.96771],[-95.04674,34.96782],[-95.04662,34.96817],[-95.04672,34.96844],[-95.0469,34.96845],[-95.04729,34.96882],[-95.04752,34.9686],[-95.04758,34.96879],[-95.04775,34.96878],[-95.04791,34.96845],[-95.04783,34.96831],[-95.04807,34.96826],[-95.04805,34.96795],[-95.0486,34.96765],[-95.04856,34.96752],[-95.04881,34.96735],[-95.0487,34.96715],[-95.04925,34.96696],[-95.04922,34.9672],[-95.04959,34.9669],[-95.04939,34.9668],[-95.04968,34.96682],[-95.04993,34.96662],[-95.05003,34.96675],[-95.0497,34.96688],[-95.05001,34.9669],[-95.04992,34.96709],[-95.05005,34.96723],[-95.05008,34.96707],[-95.05021,34.96712],[-95.05025,34.96722],[-95.05006,34.9673],[-95.05028,34.96752],[-95.0505,34.96751],[-95.05048,34.9673],[-95.05057,34.96747],[-95.05074,34.96738],[-95.05096,34.96757],[-95.05107,34.9675],[-95.05127,34.96761],[-95.05153,34.96739],[-95.05171,34.96756],[-95.05179,34.96738],[-95.05195,34.96754],[-95.05181,34.96768],[-95.05187,34.96777],[-95.05197,34.9677],[-95.05194,34.96792],[-95.0524,34.96754],[-95.05288,34.96765],[-95.05295,34.9678],[-95.05288,34.96812],[-95.05255,34.96851],[-95.05176,34.96836],[-95.05153,34.96868],[-95.05088,34.96914],[-95.05036,34.96987],[-95.04844,34.9707],[-95.0475,34.9717],[-95.04748,34.97192],[-95.04681,34.97247],[-95.04686,34.97259],[-95.04692,34.9724],[-95.04707,34.97241],[-95.04689,34.97271],[-95.04695,34.97349],[-95.04662,34.97419],[-95.04614,34.97466],[-95.04518,34.97501],[-95.04459,34.97537],[-95.04467,34.97562],[-95.04448,34.97579],[-95.04409,34.97593],[-95.04389,34.97585],[-95.04367,34.97542],[-95.04381,34.97528],[-95.04357,34.97514],[-95.04341,34.97519],[-95.04332,34.9755],[-95.04342,34.97593],[-95.04325,34.97598],[-95.04274,34.97596],[-95.04247,34.97581],[-95.04162,34.97595],[-95.03948,34.97588],[-95.03837,34.97614],[-95.03715,34.97585],[-95.03593,34.97576],[-95.03404,34.97511],[-95.03299,34.9749],[-95.03262,34.97498],[-95.03261,34.97487],[-95.03285,34.97483],[-95.03257,34.9748],[-95.03261,34.97471],[-95.03239,34.97465],[-95.03239,34.97454],[-95.03216,34.97451],[-95.03187,34.97418],[-95.03201,34.97405],[-95.03154,34.97396],[-95.03159,34.97375],[-95.03147,34.97365],[-95.03167,34.97348],[-95.03134,34.97352],[-95.03138,34.97337],[-95.03111,34.97329],[-95.03111,34.97358],[-95.03064,34.97344],[-95.03052,34.97325],[-95.03018,34.97315],[-95.03021,34.97278],[-95.03,34.97273],[-95.02953,34.9723],[-95.02919,34.97172],[-95.02896,34.97155],[-95.0288,34.97165],[-95.02853,34.97149],[-95.02817,34.97151],[-95.02808,34.97121],[-95.02794,34.97114],[-95.02809,34.97103],[-95.02832,34.97125],[-95.02861,34.97122],[-95.02867,34.97082],[-95.02907,34.97064],[-95.02927,34.97068],[-95.02929,34.97085],[-95.02969,34.97092],[-95.0297,34.97101],[-95.02983,34.97094],[-95.03042,34.97152],[-95.03087,34.97178],[-95.0316,34.97193],[-95.03197,34.97229],[-95.0324,34.9724],[-95.03236,34.97222],[-95.03249,34.97217],[-95.03256,34.97236],[-95.03283,34.97227],[-95.03293,34.97253],[-95.03302,34.97236],[-95.03316,34.9725],[-95.03342,34.97229],[-95.03342,34.97242],[-95.03365,34.9723],[-95.03365,34.97245],[-95.03395,34.97265],[-95.03411,34.9725],[-95.03403,34.97235],[-95.03419,34.97245],[-95.03429,34.97237],[-95.03419,34.97222],[-95.03442,34.97216],[-95.03436,34.97197],[-95.03473,34.97187],[-95.03473,34.97155],[-95.03485,34.97167],[-95.03497,34.97161],[-95.03495,34.97177],[-95.0351,34.97169],[-95.03499,34.97142],[-95.03535,34.97123],[-95.03514,34.97102],[-95.03532,34.97103],[-95.03543,34.97088],[-95.03558,34.97026],[-95.03583,34.9705],[-95.03596,34.97035],[-95.03574,34.97033],[-95.03566,34.97013],[-95.03553,34.97023],[-95.03556,34.97003],[-95.0354,34.97017],[-95.03547,34.97031],[-95.03536,34.9703],[-95.03535,34.97064],[-95.03517,34.97064],[-95.0353,34.97036],[-95.03474,34.97037],[-95.03486,34.97032],[-95.03464,34.9701],[-95.03477,34.97007],[-95.03474,34.96998],[-95.03502,34.96989],[-95.03493,34.97018],[-95.03517,34.97026],[-95.03533,34.97017],[-95.03514,34.97007],[-95.03519,34.96979],[-95.03536,34.97001],[-95.03541,34.96989],[-95.03565,34.9699],[-95.03563,34.96965],[-95.03538,34.9696],[-95.03539,34.96975],[-95.0351,34.96953],[-95.03533,34.96924],[-95.03527,34.96904],[-95.03495,34.96913],[-95.03492,34.96932],[-95.03485,34.96921],[-95.03479,34.96932],[-95.03465,34.96924],[-95.03481,34.96918],[-95.03491,34.96894],[-95.03459,34.96911],[-95.03456,34.96938],[-95.03479,34.96948],[-95.03482,34.96933],[-95.03496,34.96939],[-95.03475,34.96953],[-95.03478,34.96987],[-95.03457,34.96986],[-95.03439,34.9698],[-95.03455,34.96975],[-95.03448,34.96953],[-95.03435,34.96963],[-95.03421,34.96954],[-95.03456,34.96891],[-95.03412,34.96882],[-95.03386,34.96915],[-95.03386,34.96895],[-95.03378,34.9691],[-95.03329,34.96892],[-95.03312,34.96838],[-95.0329,34.96861],[-95.03276,34.96857],[-95.03276,34.96878],[-95.03228,34.9691],[-95.03214,34.96913],[-95.03215,34.96901],[-95.03189,34.96921],[-95.03107,34.96926],[-95.03092,34.96944],[-95.03098,34.96956],[-95.03106,34.96948],[-95.03101,34.96965],[-95.03075,34.96961],[-95.03061,34.96983],[-95.0301,34.96972],[-95.03005,34.96957],[-95.02951,34.96967],[-95.02955,34.9699],[-95.02942,34.96985],[-95.02938,34.97008],[-95.02897,34.97028],[-95.02898,34.9705],[-95.02884,34.97045],[-95.02884,34.9706],[-95.02873,34.97056],[-95.02884,34.97039],[-95.02863,34.97014],[-95.02841,34.97039],[-95.02755,34.97031],[-95.02743,34.96982],[-95.02764,34.96977],[-95.02756,34.96959],[-95.02769,34.96946],[-95.02753,34.96931],[-95.02739,34.96942],[-95.02713,34.9692],[-95.02731,34.9691],[-95.02781,34.96933],[-95.02783,34.96946],[-95.02782,34.96927],[-95.02806,34.96946],[-95.02818,34.96924],[-95.0281,34.96899],[-95.02827,34.96893],[-95.02824,34.96883],[-95.02784,34.96881],[-95.02741,34.96848],[-95.0273,34.96858],[-95.02735,34.96871],[-95.02712,34.96877],[-95.02722,34.96868],[-95.02702,34.96853],[-95.02715,34.9682],[-95.02664,34.96756],[-95.02674,34.96736],[-95.02643,34.96737],[-95.02653,34.9672],[-95.02629,34.96716],[-95.02608,34.96689],[-95.02604,34.96667],[-95.02616,34.96662],[-95.02605,34.96643],[-95.02591,34.96641],[-95.02585,34.96654],[-95.02563,34.96647],[-95.02524,34.96577],[-95.02475,34.96539],[-95.02469,34.96507],[-95.02497,34.96478],[-95.02539,34.96477],[-95.02508,34.96469],[-95.02449,34.9649],[-95.02465,34.96465],[-95.0248,34.96467],[-95.02459,34.96454],[-95.0247,34.96454],[-95.02464,34.96427],[-95.02479,34.96408],[-95.02467,34.96402],[-95.02466,34.96379],[-95.0246,34.96386],[-95.02433,34.96355],[-95.02418,34.96384],[-95.02441,34.96378],[-95.02441,34.96411],[-95.02398,34.96408],[-95.02388,34.96419],[-95.02375,34.96402],[-95.02401,34.96366],[-95.02367,34.9636],[-95.0233,34.96318],[-95.02317,34.96321],[-95.02323,34.96345],[-95.02298,34.96362],[-95.02305,34.9631],[-95.02339,34.96283],[-95.02372,34.96287],[-95.02378,34.96317],[-95.02423,34.96358],[-95.02452,34.96349],[-95.02452,34.9633],[-95.02473,34.96329],[-95.0247,34.96302],[-95.0249,34.96289],[-95.0258,34.96313],[-95.02576,34.96303],[-95.02599,34.96296],[-95.02613,34.96273],[-95.02569,34.96273],[-95.02559,34.96262],[-95.02543,34.96284],[-95.02527,34.96276],[-95.02524,34.96257],[-95.025,34.96242],[-95.02525,34.96226],[-95.02525,34.96203],[-95.02499,34.96207],[-95.02511,34.96194],[-95.02437,34.96219],[-95.02421,34.9623],[-95.0243,34.96233],[-95.02416,34.96256],[-95.02409,34.96235],[-95.02429,34.962],[-95.02409,34.96204],[-95.02422,34.96188],[-95.02395,34.96192],[-95.02397,34.96217],[-95.02366,34.96209],[-95.02366,34.96174],[-95.02421,34.96157],[-95.02388,34.96144],[-95.02301,34.9619],[-95.02264,34.96187],[-95.02251,34.96198],[-95.02228,34.96181],[-95.02236,34.96206],[-95.02222,34.96218],[-95.02262,34.9623],[-95.0224,34.96252],[-95.02226,34.96247],[-95.02226,34.96231],[-95.02194,34.96223],[-95.02204,34.96207],[-95.02192,34.96184],[-95.02148,34.96175],[-95.02138,34.96138],[-95.02119,34.96132],[-95.02096,34.96154],[-95.02109,34.96132],[-95.02108,34.96118],[-95.02092,34.96114],[-95.02099,34.96085],[-95.02072,34.96089],[-95.02114,34.96072],[-95.02123,34.96078],[-95.02117,34.96106],[-95.02142,34.9609],[-95.02154,34.96105],[-95.02206,34.96106],[-95.02209,34.96087],[-95.02227,34.96082],[-95.02224,34.96065],[-95.02288,34.96062],[-95.02304,34.96024],[-95.02324,34.96022],[-95.02348,34.95993],[-95.02367,34.96004],[-95.02342,34.9602],[-95.02363,34.96028],[-95.02365,34.96055],[-95.02379,34.96009],[-95.02396,34.95998],[-95.02413,34.95954],[-95.02424,34.95965],[-95.02423,34.95949],[-95.02433,34.95959],[-95.02424,34.95983],[-95.02433,34.95978],[-95.02449,34.96004],[-95.02486,34.95993],[-95.02491,34.96017],[-95.02516,34.96012],[-95.02513,34.96],[-95.02526,34.96012],[-95.02559,34.96012],[-95.0252,34.95987],[-95.02509,34.95996],[-95.02517,34.95961],[-95.02499,34.95961],[-95.02499,34.95939],[-95.02516,34.95945],[-95.02524,34.95923],[-95.02542,34.95922],[-95.02539,34.95903],[-95.02556,34.95898],[-95.02539,34.9586],[-95.02566,34.95855],[-95.02575,34.95819],[-95.02615,34.95794],[-95.02613,34.95745],[-95.02641,34.95734],[-95.02628,34.95726],[-95.02667,34.95717],[-95.02677,34.95732],[-95.02668,34.95693],[-95.02679,34.95696],[-95.02682,34.9568],[-95.02713,34.95711],[-95.02706,34.95723],[-95.02724,34.95716],[-95.02725,34.95734],[-95.02749,34.95714],[-95.02763,34.95718],[-95.02744,34.95732],[-95.0275,34.95756],[-95.02768,34.95766],[-95.0275,34.95778],[-95.0277,34.95776],[-95.02767,34.95796],[-95.02792,34.95778],[-95.02771,34.95764],[-95.02784,34.95757],[-95.02788,34.9572],[-95.02819,34.95756],[-95.02849,34.95763],[-95.02846,34.95773],[-95.02965,34.95754],[-95.02981,34.95725],[-95.03009,34.9573],[-95.02995,34.95744],[-95.03001,34.95757],[-95.03032,34.95752],[-95.03064,34.95714],[-95.03065,34.95728],[-95.03109,34.9574],[-95.03098,34.95761],[-95.03131,34.95756],[-95.03189,34.95809],[-95.03234,34.95822],[-95.03251,34.95811],[-95.03258,34.95826],[-95.03278,34.95802],[-95.03256,34.95803],[-95.03253,34.95774],[-95.03283,34.95795],[-95.03329,34.95774],[-95.03339,34.95783],[-95.03357,34.95776],[-95.03342,34.95768],[-95.03348,34.95755],[-95.03331,34.95758],[-95.03323,34.95742],[-95.03344,34.95686],[-95.03327,34.95695],[-95.03316,34.95666],[-95.033,34.95666],[-95.03317,34.95627],[-95.03274,34.95642],[-95.03281,34.95628],[-95.03322,34.95625],[-95.03312,34.95601],[-95.0332,34.9559],[-95.03342,34.95612],[-95.03346,34.95599],[-95.03321,34.95569],[-95.03329,34.95545],[-95.03343,34.95551],[-95.03383,34.95529],[-95.03392,34.95539],[-95.03421,34.95521],[-95.03451,34.95529],[-95.03477,34.95509],[-95.03501,34.95531],[-95.03489,34.95514],[-95.03504,34.95506],[-95.035,34.9556],[-95.035134,34.955691]],[[-95.035148,34.9557],[-95.03531,34.95581],[-95.03537,34.9557],[-95.035148,34.9557]]]},"properties":{"fire_id":"ufid:2023-OKOKS-230187","source_collection":"history-2023","source_objectid":16956,"incident_name":"Red Oak Peak Fire","mapped_acres":1200.0,"mapped_acres_source":"poly_GISAcres","gis_acres":1200.0,"auto_acres":914.910077290839,"reported_acres":1200.0,"percent_contained":100.0,"state":"OK","state_wfigs":"US-OK","county":"Latimer","discovery_time_utc":"2023-04-08T23:00:00Z","perimeter_time_utc":"2023-04-09T04:00:00Z","perimeter_edit_time_utc":"2023-05-25T17:11:08Z","incident_modified_time_utc":"2023-04-11T14:42:54Z","containment_time_utc":null,"control_time_utc":null,"fire_out_time_utc":null,"fire_cause":"Human","fire_cause_general":null,"map_method":"Image Interpretation","source_dataset":"2023 NIFS","unique_fire_identifier":"2023-OKOKS-230187","irwin_id":"{AC86A54C-CB5B-4263-A993-98B950CA5892}","global_id":"b664c524-7f37-466e-85c3-56d5f457e8b6"}},{"type":"Feature","geometry":{"type":"Polygon","coordinates":[[[-96.60925,34.98228],[-96.60909,34.98197],[-96.60943,34.98158],[-96.60933,34.98143],[-96.60946,34.98106],[-96.60938,34.98084],[-96.60954,34.98047],[-96.60938,34.98031],[-96.60892,34.98029],[-96.6089,34.9801],[-96.60863,34.97995],[-96.60833,34.98006],[-96.60816,34.97996],[-96.60824,34.97959],[-96.60792,34.97934],[-96.60788,34.979],[-96.60752,34.97863],[-96.60775,34.97841],[-96.6076,34.97818],[-96.60769,34.97797],[-96.60755,34.97789],[-96.6079,34.97767],[-96.60765,34.9776],[-96.60789,34.97759],[-96.60789,34.97732],[-96.60767,34.97734],[-96.60752,34.9772],[-96.6073,34.97735],[-96.60708,34.97728],[-96.60608,34.97756],[-96.60595,34.97736],[-96.60621,34.97706],[-96.60605,34.97701],[-96.60604,34.97718],[-96.60604,34.97701],[-96.60573,34.97686],[-96.60571,34.97671],[-96.60617,34.97661],[-96.60633,34.97642],[-96.60637,34.9756],[-96.6067,34.97524],[-96.60672,34.97501],[-96.60699,34.97493],[-96.60699,34.97458],[-96.60685,34.97449],[-96.60775,34.97414],[-96.6077,34.97383],[-96.60804,34.9731],[-96.60783,34.97295],[-96.60818,34.97296],[-96.60848,34.97324],[-96.60876,34.97293],[-96.60988,34.97271],[-96.61008,34.97327],[-96.61018,34.97304],[-96.6105,34.97317],[-96.61021,34.97321],[-96.61008,34.97347],[-96.6101,34.97393],[-96.61023,34.9736],[-96.61039,34.97369],[-96.61008,34.9742],[-96.61024,34.97457],[-96.61018,34.9747],[-96.61,34.97468],[-96.61017,34.97479],[-96.60976,34.97509],[-96.60988,34.97531],[-96.6097,34.97531],[-96.60994,34.9756],[-96.60943,34.97575],[-96.60959,34.97594],[-96.6102,34.97597],[-96.60961,34.97605],[-96.60987,34.97634],[-96.60986,34.97649],[-96.61015,34.97664],[-96.61,34.97678],[-96.61009,34.97716],[-96.61018,34.97707],[-96.61027,34.97715],[-96.61018,34.97734],[-96.61,34.97735],[-96.60997,34.97797],[-96.6104,34.97819],[-96.61029,34.97841],[-96.6104,34.97848],[-96.61091,34.97845],[-96.61187,34.97864],[-96.61217,34.97844],[-96.61261,34.9785],[-96.6129,34.97835],[-96.61305,34.97845],[-96.61338,34.9783],[-96.61346,34.97808],[-96.61357,34.97819],[-96.61337,34.9785],[-96.6132,34.97846],[-96.61292,34.97863],[-96.61308,34.9787],[-96.61295,34.97883],[-96.61297,34.97921],[-96.61256,34.97983],[-96.61219,34.9802],[-96.61135,34.98047],[-96.6114,34.98077],[-96.61128,34.98099],[-96.61096,34.98111],[-96.61094,34.98131],[-96.61044,34.98158],[-96.61073,34.98169],[-96.6101,34.98174],[-96.60925,34.98228]]]},"properties":{"fire_id":"ufid:2023-OKWEA-000072","source_collection":"history-2023","source_objectid":17285,"incident_name":"ROCK CREEK","mapped_acres":80.0,"mapped_acres_source":"poly_GISAcres","gis_acres":80.0,"auto_acres":69.55715122352585,"reported_acres":80.0,"percent_contained":null,"state":"OK","state_wfigs":"US-OK","county":"Seminole","discovery_time_utc":"2023-01-06T22:00:00Z","perimeter_time_utc":"2023-02-08T19:47:53Z","perimeter_edit_time_utc":"2023-06-07T18:31:49Z","incident_modified_time_utc":"2023-01-12T18:01:25Z","containment_time_utc":"2023-01-07T18:00:00Z","control_time_utc":"2023-01-11T18:00:00Z","fire_out_time_utc":"2023-01-11T18:00:00Z","fire_cause":"Human","fire_cause_general":"Arson","map_method":"Image Interpretation","source_dataset":"FFP","unique_fire_identifier":"2023-OKWEA-000072","irwin_id":"{50F268CD-7F79-4931-ADD5-9A229E2C4D97}","global_id":"eaa3cec7-af5c-4316-8cf3-e0728b723293"}},{"type":"Feature","geometry":{"type":"Polygon","coordinates":[[[-95.77522,34.99057],[-95.7754,34.99062],[-95.77529,34.9908],[-95.77522,34.99057]]]},"properties":{"fire_id":"ufid:2023-OKTLA-001543","source_collection":"history-2023","source_objectid":19013,"incident_name":"HORSESHOE LANE","mapped_acres":0.1,"mapped_acres_source":"poly_GISAcres","gis_acres":0.1,"auto_acres":0.0980012632328139,"reported_acres":0.1,"percent_contained":null,"state":"OK","state_wfigs":"US-OK","county":"Pittsburg","discovery_time_utc":"2023-08-03T20:12:00Z","perimeter_time_utc":"2023-08-04T01:12:00Z","perimeter_edit_time_utc":"2023-08-04T18:05:55Z","incident_modified_time_utc":"2023-08-11T20:31:34Z","containment_time_utc":"2023-08-03T21:00:00Z","control_time_utc":"2023-08-11T05:00:00Z","fire_out_time_utc":"2023-08-11T05:00:00Z","fire_cause":"Undetermined","fire_cause_general":null,"map_method":"Auto-generated","source_dataset":"2023 NIFS","unique_fire_identifier":"2023-OKTLA-001543","irwin_id":"{E989FC61-5B5D-4CB7-AB48-BFB87BF27BC9}","global_id":"d93ec1f4-d113-4aca-8639-8beb756ff9ed"}},{"type":"Feature","geometry":{"type":"Polygon","coordinates":[[[-95.58353,34.69175],[-95.58363,34.69235],[-95.5834,34.69266],[-95.58182,34.69328],[-95.58125,34.69372],[-95.57717,34.69371],[-95.57705,34.69212],[-95.57747,34.69185],[-95.57742,34.69161],[-95.57813,34.6911],[-95.57768,34.69023],[-95.57729,34.6898],[-95.57771,34.68926],[-95.57665,34.68912],[-95.57635,34.68885],[-95.57684,34.68762],[-95.57673,34.68722],[-95.57641,34.68676],[-95.57587,34.68638],[-95.57553,34.68594],[-95.57525,34.68503],[-95.57555,34.68483],[-95.57547,34.68463],[-95.57617,34.68345],[-95.57678,34.68292],[-95.57751,34.68277],[-95.57741,34.68249],[-95.57797,34.68164],[-95.57792,34.6812],[-95.57808,34.68074],[-95.57766,34.67959],[-95.57784,34.67945],[-95.57965,34.67968],[-95.57963,34.68081],[-95.58064,34.68194],[-95.58135,34.68228],[-95.58213,34.68367],[-95.58207,34.68479],[-95.58154,34.68578],[-95.58164,34.68617],[-95.58258,34.68763],[-95.58284,34.68868],[-95.58273,34.68915],[-95.58202,34.69028],[-95.58222,34.69098],[-95.58353,34.69175]]]},"properties":{"fire_id":"ufid:2023-OKOKS-230455","source_collection":"history-2023","source_objectid":20774,"incident_name":"Jack Fork Fire","mapped_acres":165.0,"mapped_acres_source":"poly_GISAcres","gis_acres":165.0,"auto_acres":175.009910185599,"reported_acres":164.0,"percent_contained":100.0,"state":"OK","state_wfigs":"US-OK","county":"Pittsburg","discovery_time_utc":"2023-09-05T21:12:00Z","perimeter_time_utc":"2023-09-06T02:12:00Z","perimeter_edit_time_utc":"2023-09-06T14:53:21Z","incident_modified_time_utc":"2024-08-20T16:33:54Z","containment_time_utc":null,"control_time_utc":null,"fire_out_time_utc":null,"fire_cause":"Human","fire_cause_general":null,"map_method":"Auto-generated","source_dataset":"2023 NIFS","unique_fire_identifier":"2023-OKOKS-230455","irwin_id":"{151CF282-95C0-4724-AFB9-655F08A5FFA1}","global_id":"142d77e9-2d6d-4bb4-9257-09a0251a0467"}},{"type":"Feature","geometry":{"type":"Polygon","coordinates":[[[-95.32197,34.64602],[-95.32231,34.64602],[-95.32243,34.64633],[-95.32177,34.64631],[-95.32197,34.64602]]]},"properties":{"fire_id":"ufid:2023-OKTLA-001944","source_collection":"history-2023","source_objectid":20890,"incident_name":"KOOTMAN RANCH","mapped_acres":0.5,"mapped_acres_source":"poly_GISAcres","gis_acres":0.5,"auto_acres":0.48032140000453,"reported_acres":0.5,"percent_contained":null,"state":"OK","state_wfigs":"US-OK","county":"Pushmataha","discovery_time_utc":"2023-09-09T19:30:00Z","perimeter_time_utc":"2023-09-10T00:30:00Z","perimeter_edit_time_utc":"2023-09-11T15:05:28Z","incident_modified_time_utc":"2023-09-22T18:44:41Z","containment_time_utc":"2023-09-09T21:00:00Z","control_time_utc":"2023-09-20T05:00:00Z","fire_out_time_utc":"2023-09-20T05:00:00Z","fire_cause":"Natural","fire_cause_general":null,"map_method":"Auto-generated","source_dataset":"2023 NIFS","unique_fire_identifier":"2023-OKTLA-001944","irwin_id":"{A5969E39-1B0C-47DC-9266-2DC8474E7287}","global_id":"27258988-fc9a-4a66-a936-62a48b54d969"}},{"type":"Feature","geometry":{"type":"Polygon","coordinates":[[[-98.64922,34.75524],[-98.64944,34.75536],[-98.6492,34.75535],[-98.64922,34.75524]]]},"properties":{"fire_id":"ufid:2023-OKWMR-002162","source_collection":"history-2023","source_objectid":22459,"incident_name":"Soldiers Dam Road","mapped_acres":0.1,"mapped_acres_source":"poly_GISAcres","gis_acres":0.1,"auto_acres":0.06877100977378779,"reported_acres":0.1,"percent_contained":null,"state":"OK","state_wfigs":"US-OK","county":"Comanche","discovery_time_utc":"2023-10-18T17:15:00Z","perimeter_time_utc":"2023-11-02T13:58:52Z","perimeter_edit_time_utc":"2023-11-02T13:58:52Z","incident_modified_time_utc":"2023-11-02T13:47:24Z","containment_time_utc":"2023-10-18T22:00:00Z","control_time_utc":"2023-10-18T23:35:00Z","fire_out_time_utc":"2023-10-18T23:35:00Z","fire_cause":"Human","fire_cause_general":"Equipment and vehicle use","map_method":"Hand Sketch","source_dataset":"FFP","unique_fire_identifier":"2023-OKWMR-002162","irwin_id":"{AB4D113A-02D2-4D58-9A63-B7ED22F5022D}","global_id":"43d02afb-75be-4e55-adb5-7a95495544d6"}},{"type":"Feature","geometry":{"type":"Polygon","coordinates":[[[-98.49476,34.7177],[-98.49649,34.71731],[-98.49739,34.7169],[-98.49996,34.71686],[-98.5006,34.71672],[-98.50115,34.71682],[-98.50192,34.71742],[-98.50241,34.71762],[-98.50307,34.71769],[-98.50704,34.71739],[-98.50752,34.71746],[-98.50952,34.71887],[-98.51132,34.71948],[-98.51121,34.72069],[-98.51094,34.72092],[-98.5093,34.72044],[-98.50518,34.7205],[-98.50367,34.7204],[-98.50297,34.7205],[-98.49832,34.72196],[-98.49835,34.7213],[-98.4963,34.71903],[-98.49556,34.71864],[-98.49476,34.7177]]]},"properties":{"fire_id":"ufid:2023-OKWMR-002173","source_collection":"history-2023","source_objectid":22460,"incident_name":"Fort Sill Assist","mapped_acres":0.1,"mapped_acres_source":"poly_GISAcres","gis_acres":0.1,"auto_acres":119.902645576001,"reported_acres":120.0,"percent_contained":null,"state":"OK","state_wfigs":"US-OK","county":"Comanche","discovery_time_utc":"2023-10-20T20:00:00Z","perimeter_time_utc":"2023-11-02T13:58:11Z","perimeter_edit_time_utc":"2023-11-02T13:58:11Z","incident_modified_time_utc":"2023-11-02T13:45:00Z","containment_time_utc":"2023-10-21T17:00:00Z","control_time_utc":"2023-10-25T17:00:00Z","fire_out_time_utc":"2023-10-31T17:00:00Z","fire_cause":"Undetermined","fire_cause_general":null,"map_method":"Hand Sketch","source_dataset":"Decertified","unique_fire_identifier":"2023-OKWMR-002173","irwin_id":"{DBA4A8C7-5072-4BDE-A075-E93FA53F8EC6}","global_id":"105b3910-a295-4c59-9123-636daf2044ea"}},{"type":"Feature","geometry":{"type":"Polygon","coordinates":[[[-98.50193,34.77716],[-98.50266,34.77747],[-98.50294,34.77804],[-98.50191,34.77737],[-98.50193,34.77716]]]},"properties":{"fire_id":"ufid:2023-OKANA-002431","source_collection":"history-2023","source_objectid":24097,"incident_name":"CLASASIC 58","mapped_acres":0.92,"mapped_acres_source":"poly_GISAcres","gis_acres":0.92,"auto_acres":0.9248328282219914,"reported_acres":1.0,"percent_contained":null,"state":"OK","state_wfigs":"US-OK","county":"Comanche","discovery_time_utc":"2023-12-08T00:00:00Z","perimeter_time_utc":"2024-02-23T21:41:11Z","perimeter_edit_time_utc":"2024-02-23T21:41:12Z","incident_modified_time_utc":"2023-12-14T14:31:41Z","containment_time_utc":"2023-12-08T18:00:00Z","control_time_utc":"2023-12-13T18:00:00Z","fire_out_time_utc":"2023-12-13T18:00:00Z","fire_cause":"Human","fire_cause_general":"Equipment and vehicle use","map_method":"Hand Sketch","source_dataset":"FFP","unique_fire_identifier":"2023-OKANA-002431","irwin_id":"{EFC63002-8364-4A71-AED5-0DF6FDD2E0F0}","global_id":"6fac4221-a1d2-42b1-82b0-19d9c8ab1c09"}}]}
