{"type":"FeatureCollection","features":[{"type":"Feature","geometry":{"type":"Polygon","coordinates":[[[-94.86577,36.29505],[-94.866,36.29452],[-94.86643,36.29403],[-94.86703,36.29381],[-94.86763,36.29467],[-94.8675,36.2951],[-94.86806,36.29516],[-94.86863,36.2963],[-94.86871,36.29693],[-94.86842,36.29815],[-94.86787,36.2977],[-94.86742,36.29779],[-94.867,36.29695],[-94.867,36.29626],[-94.866,36.29549],[-94.86577,36.29505]]]},"properties":{"fire_id":"ufid:2023-OKCNA-000104","source_collection":"history-2023","source_objectid":15207,"incident_name":"RACETRACK","mapped_acres":11.4,"mapped_acres_source":"poly_GISAcres","gis_acres":11.4,"auto_acres":15.809012547566123,"reported_acres":11.4,"percent_contained":null,"state":"OK","state_wfigs":"US-OK","county":"Delaware","discovery_time_utc":"2023-01-09T19:00:00Z","perimeter_time_utc":"2023-02-06T19:33:15Z","perimeter_edit_time_utc":"2023-03-14T15:13:42Z","incident_modified_time_utc":"2023-01-23T20:34:01Z","containment_time_utc":"2023-01-09T20:00:00Z","control_time_utc":"2023-01-23T18:00:00Z","fire_out_time_utc":"2023-01-23T18:00:00Z","fire_cause":"Human","fire_cause_general":"Debris and open burning","map_method":"Hand Sketch","source_dataset":"FFP","unique_fire_identifier":"2023-OKCNA-000104","irwin_id":"{BAA126DF-1FCF-4F80-A4EB-9512514BAC3E}","global_id":"e58a1cac-220b-4feb-9957-6a1c227dfa95"}},{"type":"Feature","geometry":{"type":"Polygon","coordinates":[[[-94.55863,35.72551],[-94.55897,35.72551],[-94.5588,35.72574],[-94.55863,35.72551]]]},"properties":{"fire_id":"ufid:2023-OKCNA-000135","source_collection":"history-2023","source_objectid":15256,"incident_name":"CREEK","mapped_acres":0.1,"mapped_acres_source":"poly_GISAcres","gis_acres":0.1,"auto_acres":0.12269612660760629,"reported_acres":0.1,"percent_contained":null,"state":"OK","state_wfigs":"US-OK","county":"Adair","discovery_time_utc":"2023-01-14T18:51:00Z","perimeter_time_utc":"2023-02-03T16:27:23Z","perimeter_edit_time_utc":"2023-03-14T15:13:42Z","incident_modified_time_utc":"2023-01-23T20:57:19Z","containment_time_utc":"2023-01-14T19:48:00Z","control_time_utc":"2023-01-23T18:00:00Z","fire_out_time_utc":"2023-01-23T18:00:00Z","fire_cause":"Human","fire_cause_general":"Undetermined","map_method":"Hand Sketch","source_dataset":"FFP","unique_fire_identifier":"2023-OKCNA-000135","irwin_id":"{7718F6F0-8F60-44F5-8AE9-4AA843406B62}","global_id":"af79f28b-688f-48c9-a478-629ef26ade1c"}},{"type":"Feature","geometry":{"type":"Polygon","coordinates":[[[-94.54792,35.73444],[-94.54996,35.73407],[-94.55081,35.73371],[-94.55176,35.73301],[-94.55288,35.73252],[-94.55332,35.73253],[-94.55375,35.73294],[-94.55398,35.73343],[-94.55395,35.73534],[-94.55343,35.73577],[-94.55245,35.73621],[-94.5522,35.73669],[-94.55219,35.73714],[-94.55174,35.73724],[-94.55169,35.736],[-94.5511,35.73544],[-94.54998,35.73512],[-94.54813,35.73509],[-94.54792,35.73444]]]},"properties":{"fire_id":"ufid:2023-OKCNA-000721","source_collection":"history-2023","source_objectid":16293,"incident_name":"DUECE","mapped_acres":31.4,"mapped_acres_source":"poly_GISAcres","gis_acres":31.4,"auto_acres":31.465464470661555,"reported_acres":31.4,"percent_contained":null,"state":"OK","state_wfigs":"US-OK","county":"Adair","discovery_time_utc":"2023-04-01T21:00:00Z","perimeter_time_utc":"2023-04-25T15:39:55Z","perimeter_edit_time_utc":"2023-04-25T15:39:56Z","incident_modified_time_utc":"2023-04-06T20:33:03Z","containment_time_utc":"2023-04-01T23:16:00Z","control_time_utc":"2023-04-01T23:16:00Z","fire_out_time_utc":"2023-04-05T17:00:00Z","fire_cause":"Human","fire_cause_general":"Undetermined","map_method":"Hand Sketch","source_dataset":"FFP","unique_fire_identifier":"2023-OKCNA-000721","irwin_id":"{1C1CD95C-C1F5-40CC-9D7C-628CF66E4927}","global_id":"cfc499bb-fc9f-4760-ad9e-f5466ff03880"}},{"type":"Feature","geometry":{"type":"Polygon","coordinates":[[[-94.55831,35.73846],[-94.55732,35.73842],[-94.55717,35.7381],[-94.55692,35.738],[-94.55646,35.73807],[-94.55639,35.73764],[-94.55649,35.73738],[-94.55558,35.73686],[-94.55576,35.73629],[-94.55486,35.73629],[-94.55482,35.73642],[-94.55441,35.73647],[-94.55393,35.73617],[-94.55381,35.73562],[-94.55406,35.735],[-94.55417,35.73484],[-94.55471,35.73486],[-94.55483,35.7343],[-94.55525,35.7338],[-94.55591,35.73386],[-94.5562,35.73373],[-94.55662,35.73389],[-94.55669,35.73404],[-94.55651,35.73475],[-94.55663,35.73517],[-94.5569,35.73543],[-94.55759,35.73533],[-94.55813,35.73504],[-94.5586,35.73502],[-94.55869,35.73512],[-94.5588,35.7363],[-94.55865,35.73687],[-94.55886,35.73733],[-94.55864,35.73756],[-94.55864,35.7378],[-94.55831,35.73846]]]},"properties":{"fire_id":"ufid:2023-OKOZPR-000692","source_collection":"history-2023","source_objectid":22467,"incident_name":"Midnight","mapped_acres":0.1,"mapped_acres_source":"poly_GISAcres","gis_acres":0.1,"auto_acres":32.609664866425554,"reported_acres":32.7,"percent_contained":null,"state":"OK","state_wfigs":"US-OK","county":"Adair","discovery_time_utc":"2023-03-30T15:10:00Z","perimeter_time_utc":"2023-11-02T16:26:50Z","perimeter_edit_time_utc":"2023-11-02T16:26:51Z","incident_modified_time_utc":"2023-04-26T16:54:56Z","containment_time_utc":"2023-03-30T16:00:00Z","control_time_utc":"2023-04-04T21:30:00Z","fire_out_time_utc":"2023-04-06T21:30:00Z","fire_cause":"Human","fire_cause_general":"Debris and open burning","map_method":"Hand Sketch","source_dataset":"FFP","unique_fire_identifier":"2023-OKOZPR-000692","irwin_id":"{363668E3-F87E-4EC4-9A8C-4286BF4128ED}","global_id":"328433b6-32e2-40e2-88bc-af0216ec50aa"}},{"type":"Feature","geometry":{"type":"Polygon","coordinates":[[[-94.54816,35.73041],[-94.54774,35.73082],[-94.54612,35.73117],[-94.54584,35.7315],[-94.54546,35.73147],[-94.54529,35.73155],[-94.54529,35.73169],[-94.54495,35.73175],[-94.54456,35.73173],[-94.54411,35.73128],[-94.54379,35.73129],[-94.54328,35.73076],[-94.54301,35.73071],[-94.54286,35.73054],[-94.54233,35.73053],[-94.54213,35.73039],[-94.5437,35.72894],[-94.54392,35.72822],[-94.54453,35.72723],[-94.54457,35.7268],[-94.5455,35.72643],[-94.54574,35.72712],[-94.54658,35.72725],[-94.54694,35.72811],[-94.54761,35.72855],[-94.54735,35.72886],[-94.54785,35.72938],[-94.54777,35.72965],[-94.54816,35.73041]]]},"properties":{"fire_id":"ufid:2023-OKOZPR-000395","source_collection":"history-2023","source_objectid":22468,"incident_name":"ROCKY TOP","mapped_acres":42.7,"mapped_acres_source":"poly_GISAcres","gis_acres":42.7,"auto_acres":42.72226368189421,"reported_acres":42.7,"percent_contained":null,"state":"OK","state_wfigs":"US-OK","county":"Adair","discovery_time_utc":"2023-03-01T14:15:00Z","perimeter_time_utc":"2023-11-02T16:17:56Z","perimeter_edit_time_utc":"2023-11-02T16:17:57Z","incident_modified_time_utc":"2023-03-08T16:49:03Z","containment_time_utc":"2023-03-01T17:35:00Z","control_time_utc":"2023-03-05T18:00:00Z","fire_out_time_utc":"2023-03-07T22:00:00Z","fire_cause":"Human","fire_cause_general":"Debris and open burning","map_method":"Hand Sketch","source_dataset":"FFP","unique_fire_identifier":"2023-OKOZPR-000395","irwin_id":"{EA61C435-0A54-4B71-A90F-9DC8ABD8EC68}","global_id":"e468e3c3-5630-45ae-a187-bc40520e4010"}},{"type":"Feature","geometry":{"type":"Polygon","coordinates":[[[-94.62777,36.83974],[-94.62621,36.84002],[-94.62616,36.83985],[-94.62591,36.8399],[-94.62586,36.83961],[-94.62545,36.83957],[-94.62538,36.83941],[-94.62571,36.83912],[-94.62573,36.83885],[-94.62604,36.83856],[-94.62693,36.83853],[-94.6271,36.8388],[-94.62778,36.83928],[-94.62777,36.83974]]]},"properties":{"fire_id":"ufid:2023-OKMIA-000229","source_collection":"history-2023","source_objectid":22765,"incident_name":"Funk","mapped_acres":6.081074973066365,"mapped_acres_source":"poly_Acres_AutoCalc_fallback","gis_acres":null,"auto_acres":6.081074973066365,"reported_acres":6.0,"percent_contained":null,"state":"OK","state_wfigs":"US-OK","county":"Ottawa","discovery_time_utc":"2023-02-05T19:00:00Z","perimeter_time_utc":"2023-11-14T16:15:25Z","perimeter_edit_time_utc":"2023-11-14T16:15:26Z","incident_modified_time_utc":"2023-02-07T19:11:10Z","containment_time_utc":"2023-02-05T21:30:00Z","control_time_utc":"2023-02-07T18:00:00Z","fire_out_time_utc":"2023-02-07T18:00:00Z","fire_cause":"Human","fire_cause_general":"Debris and open burning","map_method":"Mixed Methods","source_dataset":"FFP","unique_fire_identifier":"2023-OKMIA-000229","irwin_id":"{1CFC0A58-F17D-4C6D-B158-A9A5E9407FAE}","global_id":"440ade00-ee50-4e24-a46a-17e2627a77d9"}},{"type":"Feature","geometry":{"type":"Polygon","coordinates":[[[-94.54592,35.73641],[-94.54597,35.7433],[-94.54435,35.74365],[-94.54385,35.74351],[-94.54149,35.74352],[-94.5415,35.74457],[-94.54077,35.74499],[-94.53838,35.74502],[-94.53748,35.74468],[-94.53721,35.74399],[-94.53743,35.74215],[-94.53799,35.7404],[-94.53815,35.73919],[-94.53902,35.73736],[-94.53899,35.73659],[-94.53909,35.73641],[-94.54592,35.73641]]]},"properties":{"fire_id":"ufid:2023-OKOKS-230605","source_collection":"history-2023","source_objectid":31124,"incident_name":"Rocky Top","mapped_acres":153.72,"mapped_acres_source":"poly_GISAcres","gis_acres":153.72,"auto_acres":153.7157779596994,"reported_acres":153.72,"percent_contained":null,"state":"OK","state_wfigs":"US-OK","county":"Adair","discovery_time_utc":"2023-12-15T13:45:00Z","perimeter_time_utc":"2024-09-26T16:45:20Z","perimeter_edit_time_utc":"2024-09-26T16:45:21Z","incident_modified_time_utc":"2023-12-18T18:36:33Z","containment_time_utc":null,"control_time_utc":null,"fire_out_time_utc":"2023-12-24T01:00:00Z","fire_cause":"Human","fire_cause_general":"Arson","map_method":"Hand Sketch","source_dataset":"FFP","unique_fire_identifier":"2023-OKOKS-230605","irwin_id":"{69CA4DA3-E2DC-4087-B898-1400D6E3422A}","global_id":"841a20a4-d1c3-40ef-a728-baf7c5f3c946"}}]}
