{"type":"FeatureCollection","features":[{"type":"Feature","geometry":{"type":"Polygon","coordinates":[[[-78.02798,40.20264],[-78.02766,40.20253],[-78.02741,40.20261],[-78.02729,40.20243],[-78.02736,40.20227],[-78.02721,40.2022],[-78.02715,40.20191],[-78.02703,40.2019],[-78.02744,40.20169],[-78.02758,40.20148],[-78.02802,40.2015],[-78.02824,40.20162],[-78.02823,40.20175],[-78.02833,40.20161],[-78.0286,40.20166],[-78.02915,40.20198],[-78.02847,40.20222],[-78.0281,40.20219],[-78.02817,40.20257],[-78.02798,40.20264]]]},"properties":{"fire_id":"ufid:2023-PAPAS-000083","source_collection":"history-2023","source_objectid":15008,"incident_name":"Luciana Bottom","mapped_acres":3.04837939960604,"mapped_acres_source":"poly_GISAcres","gis_acres":3.04837939960604,"auto_acres":3.04836729250628,"reported_acres":3.0,"percent_contained":100.0,"state":"PA","state_wfigs":"US-PA","county":"Huntingdon","discovery_time_utc":"2023-02-13T18:47:00Z","perimeter_time_utc":"2023-02-14T00:47:00Z","perimeter_edit_time_utc":"2023-04-16T14:23:26Z","incident_modified_time_utc":"2023-04-27T18:06:58Z","containment_time_utc":null,"control_time_utc":null,"fire_out_time_utc":null,"fire_cause":"Undetermined","fire_cause_general":null,"map_method":"GPS-Walked","source_dataset":"2023 NIFS","unique_fire_identifier":"2023-PAPAS-000083","irwin_id":"{B126E80F-1531-4703-AD80-10852C6141FF}","global_id":"6476267e-0600-418d-8cd3-8a299d59264b"}},{"type":"Feature","geometry":{"type":"Polygon","coordinates":[[[-77.62061,40.28523],[-77.62083,40.28549],[-77.62064,40.28544],[-77.62061,40.28523]]]},"properties":{"fire_id":"ufid:2023-PAPAS-000082","source_collection":"history-2023","source_objectid":15011,"incident_name":"Buck","mapped_acres":0.07981518043179,"mapped_acres_source":"poly_GISAcres","gis_acres":0.07981518043179,"auto_acres":0.0798148619901712,"reported_acres":0.2,"percent_contained":100.0,"state":"PA","state_wfigs":"US-PA","county":"Perry","discovery_time_utc":"2023-02-11T09:34:00Z","perimeter_time_utc":"2023-02-11T15:34:00Z","perimeter_edit_time_utc":"2023-04-16T14:23:26Z","incident_modified_time_utc":"2023-11-28T14:17:56Z","containment_time_utc":"2023-02-11T23:00:00Z","control_time_utc":"2023-02-11T23:00:00Z","fire_out_time_utc":"2023-02-11T23:00:00Z","fire_cause":"Undetermined","fire_cause_general":null,"map_method":"GPS-Walked","source_dataset":"2023 NIFS","unique_fire_identifier":"2023-PAPAS-000082","irwin_id":"{274F378D-71E7-4D13-A65F-F972AB1708D9}","global_id":"026a3ba5-6132-4da5-9a31-75234091e407"}},{"type":"Feature","geometry":{"type":"Polygon","coordinates":[[[-78.22419,40.2576],[-78.22465,40.25775],[-78.22441,40.25811],[-78.22441,40.25787],[-78.22419,40.2576]]]},"properties":{"fire_id":"ufid:2023-PAPAS-000090","source_collection":"history-2023","source_objectid":15012,"incident_name":"Hummingbird Lane","mapped_acres":0.258601317444803,"mapped_acres_source":"poly_GISAcres","gis_acres":0.258601317444803,"auto_acres":0.25860028996952,"reported_acres":0.3,"percent_contained":100.0,"state":"PA","state_wfigs":"US-PA","county":"Huntingdon","discovery_time_utc":"2023-02-13T18:11:00Z","perimeter_time_utc":"2023-02-14T00:11:00Z","perimeter_edit_time_utc":"2023-04-16T14:23:26Z","incident_modified_time_utc":"2023-04-25T18:24:01Z","containment_time_utc":"2023-02-13T20:32:00Z","control_time_utc":"2023-02-13T20:32:00Z","fire_out_time_utc":"2023-02-13T20:32:00Z","fire_cause":"Undetermined","fire_cause_general":null,"map_method":"GPS-Walked","source_dataset":"2023 NIFS","unique_fire_identifier":"2023-PAPAS-000090","irwin_id":"{0D831701-200F-47AA-806D-9BE430470F32}","global_id":"53159f76-ebda-4ccb-a7fc-29079f440ef5"}},{"type":"Feature","geometry":{"type":"Polygon","coordinates":[[[-78.31644,40.09381],[-78.31665,40.09412],[-78.31635,40.09436],[-78.3161,40.09432],[-78.31627,40.09388],[-78.31614,40.09378],[-78.31644,40.09381]]]},"properties":{"fire_id":"ufid:2023-PAPAS-000103","source_collection":"history-2023","source_objectid":15318,"incident_name":"Old Barn","mapped_acres":0.527053036028582,"mapped_acres_source":"poly_GISAcres","gis_acres":0.527053036028582,"auto_acres":0.527050941371934,"reported_acres":0.5,"percent_contained":100.0,"state":"PA","state_wfigs":"US-PA","county":"Bedford","discovery_time_utc":"2023-02-20T19:46:00Z","perimeter_time_utc":"2023-02-23T01:36:17Z","perimeter_edit_time_utc":"2023-04-16T14:23:26Z","incident_modified_time_utc":"2023-04-27T18:06:49Z","containment_time_utc":"2023-02-21T00:00:00Z","control_time_utc":"2023-02-21T00:00:00Z","fire_out_time_utc":"2023-02-21T00:00:00Z","fire_cause":"Undetermined","fire_cause_general":null,"map_method":"GPS-Walked","source_dataset":"2023 NIFS","unique_fire_identifier":"2023-PAPAS-000103","irwin_id":"{009E3422-59A8-4B1A-B2C6-CB8325848277}","global_id":"7738ef22-ecc5-44e6-ae4e-7bfdb2afd182"}},{"type":"Feature","geometry":{"type":"Polygon","coordinates":[[[-78.35138,40.84727],[-78.35153,40.84729],[-78.35115,40.84758],[-78.35101,40.84753],[-78.35138,40.84727]]]},"properties":{"fire_id":"ufid:2023-PAPAS-000178","source_collection":"history-2023","source_objectid":15496,"incident_name":"Princess","mapped_acres":0.151773429184138,"mapped_acres_source":"poly_GISAcres","gis_acres":0.151773429184138,"auto_acres":0.15177282419895,"reported_acres":0.2,"percent_contained":100.0,"state":"PA","state_wfigs":"US-PA","county":"Clearfield","discovery_time_utc":"2023-03-16T19:47:00Z","perimeter_time_utc":"2023-03-17T00:47:00Z","perimeter_edit_time_utc":"2023-04-16T14:23:26Z","incident_modified_time_utc":"2023-03-21T12:30:19Z","containment_time_utc":"2023-03-17T02:00:00Z","control_time_utc":"2023-03-17T02:00:00Z","fire_out_time_utc":"2023-03-17T02:00:00Z","fire_cause":"Undetermined","fire_cause_general":null,"map_method":"GPS-Walked","source_dataset":"2023 NIFS","unique_fire_identifier":"2023-PAPAS-000178","irwin_id":"{F07A8D76-C89F-4005-8EB7-16705DB411DB}","global_id":"3d298dca-9196-42e5-a703-bc448a8d1f0a"}},{"type":"Feature","geometry":{"type":"MultiPolygon","coordinates":[[[[-75.27885,40.86609],[-75.27906,40.86639],[-75.27922,40.86645],[-75.27909,40.86655],[-75.27935,40.86664],[-75.2792,40.86679],[-75.27929,40.86687],[-75.27908,40.86702],[-75.27933,40.86734],[-75.27915,40.86752],[-75.27932,40.86761],[-75.27895,40.86812],[-75.27863,40.86831],[-75.27825,40.86845],[-75.27792,40.86836],[-75.27778,40.86807],[-75.27805,40.86777],[-75.2778,40.86777],[-75.27792,40.86763],[-75.27769,40.86765],[-75.27807,40.86736],[-75.27785,40.8674],[-75.27752,40.86725],[-75.27761,40.86706],[-75.27774,40.86708],[-75.27773,40.86684],[-75.27759,40.86689],[-75.27758,40.8667],[-75.27734,40.86658],[-75.27746,40.8664],[-75.27719,40.86604],[-75.27728,40.866],[-75.27718,40.86578],[-75.27742,40.86566],[-75.27746,40.86546],[-75.27779,40.86557],[-75.27766,40.86516],[-75.27795,40.865],[-75.27783,40.86485],[-75.27794,40.86475],[-75.27791,40.86454],[-75.27821,40.86432],[-75.27827,40.86398],[-75.27857,40.86382],[-75.27862,40.86392],[-75.27883,40.86387],[-75.27857,40.86432],[-75.27897,40.86462],[-75.27895,40.86478],[-75.27925,40.86513],[-75.27904,40.86545],[-75.27919,40.86571],[-75.27889,40.86583],[-75.27913,40.86584],[-75.27885,40.86609]]],[[[-75.27899,40.86618],[-75.27904,40.86619],[-75.279,40.8662],[-75.27899,40.86618]]],[[[-75.27801,40.86439],[-75.27798,40.86444],[-75.27796,40.86445],[-75.27801,40.86439]]]]},"properties":{"fire_id":"ufid:2023-PAPAS-000200","source_collection":"history-2023","source_objectid":15497,"incident_name":"Constitution","mapped_acres":13.7503440821665,"mapped_acres_source":"poly_GISAcres","gis_acres":13.7503440821665,"auto_acres":13.7502894748591,"reported_acres":14.0,"percent_contained":null,"state":"PA","state_wfigs":"US-PA","county":"Northampton","discovery_time_utc":"2023-03-21T18:39:00Z","perimeter_time_utc":null,"perimeter_edit_time_utc":"2023-04-16T14:23:26Z","incident_modified_time_utc":"2023-03-24T21:31:06Z","containment_time_utc":"2023-03-23T14:20:00Z","control_time_utc":"2023-03-23T14:20:00Z","fire_out_time_utc":"2023-03-23T14:20:00Z","fire_cause":"Undetermined","fire_cause_general":null,"map_method":"Mixed Methods","source_dataset":"2023 NIFS","unique_fire_identifier":"2023-PAPAS-000200","irwin_id":"{2A8AB922-8A77-487C-B997-09494BD21271}","global_id":"ff111fe7-16b9-48f5-a4c6-99c18c766423"}},{"type":"Feature","geometry":{"type":"Polygon","coordinates":[[[-75.03598,41.10962],[-75.03646,41.11003],[-75.03638,41.11035],[-75.03625,41.11042],[-75.03578,41.11059],[-75.03535,41.11052],[-75.03458,41.11013],[-75.03484,41.10991],[-75.03486,41.1097],[-75.03551,41.10974],[-75.03598,41.10962]]]},"properties":{"fire_id":"ufid:2023-PADWP-230004","source_collection":"history-2023","source_objectid":15817,"incident_name":"Greenwich","mapped_acres":2.89800588293322,"mapped_acres_source":"poly_GISAcres","gis_acres":2.89800588293322,"auto_acres":2.89799436448748,"reported_acres":3.0,"percent_contained":null,"state":"PA","state_wfigs":"US-PA","county":"Pike","discovery_time_utc":"2023-03-19T05:30:27Z","perimeter_time_utc":"2023-03-19T10:30:27Z","perimeter_edit_time_utc":"2023-04-16T14:23:26Z","incident_modified_time_utc":"2023-03-23T15:53:43Z","containment_time_utc":null,"control_time_utc":null,"fire_out_time_utc":null,"fire_cause":null,"fire_cause_general":null,"map_method":"GPS-Walked","source_dataset":"2023 NIFS","unique_fire_identifier":"2023-PADWP-230004","irwin_id":"{A590F545-71EA-4488-BE1B-1CFED183B025}","global_id":"9869a606-a1a8-46fd-9d65-8c189ae74ec2"}},{"type":"Feature","geometry":{"type":"Polygon","coordinates":[[[-75.16323,41.08817],[-75.16353,41.08848],[-75.1634,41.08855],[-75.16325,41.08846],[-75.16323,41.08817]]]},"properties":{"fire_id":"ufid:2023-PAPAS-000206","source_collection":"history-2023","source_objectid":15819,"incident_name":"Dry Pond","mapped_acres":0.144792404249976,"mapped_acres_source":"poly_GISAcres","gis_acres":0.144792404249976,"auto_acres":0.144791829152203,"reported_acres":0.2,"percent_contained":100.0,"state":"PA","state_wfigs":"US-PA","county":"Monroe","discovery_time_utc":"2023-03-20T19:16:00Z","perimeter_time_utc":"2023-03-21T00:16:00Z","perimeter_edit_time_utc":"2023-04-16T14:23:26Z","incident_modified_time_utc":"2023-03-22T17:28:54Z","containment_time_utc":"2023-03-21T00:00:00Z","control_time_utc":"2023-03-21T00:00:00Z","fire_out_time_utc":"2023-03-21T00:00:00Z","fire_cause":"Undetermined","fire_cause_general":null,"map_method":"GPS-Walked","source_dataset":"2023 NIFS","unique_fire_identifier":"2023-PAPAS-000206","irwin_id":"{5CA8A50E-464A-4364-BBC6-9EC49678A65F}","global_id":"bec10cba-c193-4e69-acef-45957f26a04b"}},{"type":"Feature","geometry":{"type":"Polygon","coordinates":[[[-75.85224,41.13943],[-75.85406,41.14242],[-75.85419,41.14348],[-75.85506,41.14432],[-75.85501,41.14526],[-75.85516,41.14591],[-75.85578,41.14688],[-75.85639,41.14753],[-75.85583,41.14806],[-75.85529,41.14828],[-75.85424,41.14932],[-75.85372,41.15135],[-75.8534,41.15176],[-75.85298,41.15276],[-75.85334,41.15299],[-75.85513,41.15358],[-75.85538,41.15405],[-75.85587,41.15418],[-75.85623,41.15448],[-75.8566,41.1546],[-75.85712,41.15461],[-75.85833,41.15498],[-75.8593,41.155],[-75.85967,41.15489],[-75.86101,41.15503],[-75.86091,41.15648],[-75.85934,41.15758],[-75.8582,41.15909],[-75.85664,41.15978],[-75.85439,41.15994],[-75.85212,41.15936],[-75.8519,41.15948],[-75.85176,41.1599],[-75.85151,41.15995],[-75.84936,41.15931],[-75.84689,41.1596],[-75.84451,41.15946],[-75.84306,41.16034],[-75.84316,41.16075],[-75.84363,41.16119],[-75.8432,41.16184],[-75.84196,41.16206],[-75.8417,41.162],[-75.84075,41.16105],[-75.83899,41.1609],[-75.83781,41.16121],[-75.83608,41.16198],[-75.8321,41.163],[-75.83034,41.1633],[-75.8291,41.16388],[-75.82837,41.16441],[-75.8276,41.16467],[-75.82566,41.16496],[-75.82409,41.16462],[-75.82399,41.16423],[-75.81331,41.16499],[-75.80616,41.16655],[-75.80492,41.16698],[-75.79896,41.16722],[-75.79511,41.16696],[-75.79484,41.16736],[-75.79242,41.16765],[-75.7869,41.16936],[-75.78656,41.16929],[-75.78436,41.16997],[-75.78396,41.17025],[-75.78248,41.17058],[-75.78031,41.17128],[-75.77864,41.17195],[-75.7772,41.1696],[-75.7764,41.16794],[-75.77556,41.16562],[-75.77501,41.16325],[-75.77481,41.16134],[-75.7748,41.15967],[-75.77575,41.15043],[-75.79759,41.14603],[-75.81155,41.14263],[-75.81559,41.14285],[-75.82033,41.14212],[-75.82412,41.14068],[-75.82518,41.13999],[-75.82918,41.13809],[-75.82904,41.13804],[-75.82909,41.13793],[-75.82943,41.13799],[-75.83261,41.13677],[-75.83293,41.13639],[-75.83389,41.13601],[-75.84758,41.13106],[-75.84862,41.1301],[-75.84958,41.13173],[-75.85036,41.13212],[-75.85181,41.13315],[-75.85036,41.13333],[-75.84978,41.13353],[-75.84942,41.13422],[-75.84937,41.1347],[-75.84953,41.13507],[-75.85017,41.13558],[-75.85127,41.13581],[-75.85132,41.1369],[-75.85188,41.13816],[-75.85195,41.13913],[-75.85224,41.13943]]]},"properties":{"fire_id":"ufid:2023-PAPAS-000001","source_collection":"history-2023","source_objectid":16047,"incident_name":"Crystal Lake 6.0","mapped_acres":4319.48786805955,"mapped_acres_source":"poly_GISAcres","gis_acres":4319.48786805955,"auto_acres":4319.46496505975,"reported_acres":null,"percent_contained":null,"state":"PA","state_wfigs":"US-PA","county":"Luzerne","discovery_time_utc":"2023-04-13T00:10:00Z","perimeter_time_utc":"2023-04-13T05:10:00Z","perimeter_edit_time_utc":"2023-04-16T14:23:26Z","incident_modified_time_utc":"2023-04-13T00:12:47Z","containment_time_utc":null,"control_time_utc":null,"fire_out_time_utc":null,"fire_cause":null,"fire_cause_general":null,"map_method":"Mixed Methods","source_dataset":"2023 NIFS","unique_fire_identifier":"2023-PAPAS-000001","irwin_id":"{C82FBF1E-75BF-4263-9F31-FBC101B264FB}","global_id":"751c7545-7113-4a59-bc75-e3b6bf20fe6d"}},{"type":"Feature","geometry":{"type":"Polygon","coordinates":[[[-78.15134,40.77971],[-78.15116,40.7794],[-78.15132,40.7793],[-78.15151,40.77954],[-78.15134,40.77971]]]},"properties":{"fire_id":"ufid:2023-PAPAS-000312","source_collection":"history-2023","source_objectid":16086,"incident_name":"Pavlic","mapped_acres":0.229185350904879,"mapped_acres_source":"poly_GISAcres","gis_acres":0.229185350904879,"auto_acres":0.229184441088173,"reported_acres":0.1,"percent_contained":100.0,"state":"PA","state_wfigs":"US-PA","county":"Centre","discovery_time_utc":"2023-04-12T14:12:00Z","perimeter_time_utc":"2023-04-12T19:12:00Z","perimeter_edit_time_utc":"2023-04-22T16:07:03Z","incident_modified_time_utc":"2023-06-02T19:47:31Z","containment_time_utc":"2023-04-12T15:48:00Z","control_time_utc":"2023-04-12T15:48:00Z","fire_out_time_utc":"2023-04-12T15:48:00Z","fire_cause":"Undetermined","fire_cause_general":null,"map_method":"GPS-Walked","source_dataset":"2023 NIFS","unique_fire_identifier":"2023-PAPAS-000312","irwin_id":"{E95615F1-701B-46A6-8350-7BD5E953ADC8}","global_id":"98b32fb0-c059-4e21-a4f7-5a8f6ca2b3df"}},{"type":"Feature","geometry":{"type":"Polygon","coordinates":[[[-75.59759,40.50395],[-75.59795,40.50429],[-75.59765,40.50432],[-75.59728,40.5039],[-75.5976,40.50373],[-75.59769,40.50381],[-75.59759,40.50395]]]},"properties":{"fire_id":"ufid:2023-PAPAS-000322","source_collection":"history-2023","source_objectid":16087,"incident_name":"Fort Sumpter","mapped_acres":0.387195761042243,"mapped_acres_source":"poly_GISAcres","gis_acres":0.387195761042243,"auto_acres":0.387194223178707,"reported_acres":0.4,"percent_contained":100.0,"state":"PA","state_wfigs":"US-PA","county":"Lehigh","discovery_time_utc":"2023-04-13T18:10:00Z","perimeter_time_utc":"2023-04-13T23:10:00Z","perimeter_edit_time_utc":"2023-04-16T14:23:26Z","incident_modified_time_utc":"2023-04-15T18:45:55Z","containment_time_utc":"2023-04-13T22:00:00Z","control_time_utc":"2023-04-13T22:00:00Z","fire_out_time_utc":"2023-04-13T22:00:00Z","fire_cause":"Undetermined","fire_cause_general":null,"map_method":"GPS-Walked","source_dataset":"2023 NIFS","unique_fire_identifier":"2023-PAPAS-000322","irwin_id":"{AD0F8FB7-D580-448D-88E2-351FBC613E74}","global_id":"140761a1-864e-4a57-9411-66ba7ac77eda"}},{"type":"Feature","geometry":{"type":"Polygon","coordinates":[[[-76.35985,40.52716],[-76.35922,40.52731],[-76.35889,40.52682],[-76.35951,40.52662],[-76.35971,40.5267],[-76.35962,40.52678],[-76.35985,40.52716]]]},"properties":{"fire_id":"ufid:2023-PAPAS-000263","source_collection":"history-2023","source_objectid":16089,"incident_name":"Owl Lane","mapped_acres":1.01612698865841,"mapped_acres_source":"poly_GISAcres","gis_acres":1.01612698865841,"auto_acres":1.01612295388933,"reported_acres":1.0,"percent_contained":99.0,"state":"PA","state_wfigs":"US-PA","county":"Schuylkill","discovery_time_utc":"2023-04-04T20:23:55Z","perimeter_time_utc":"2023-04-05T01:23:55Z","perimeter_edit_time_utc":"2023-04-16T14:23:26Z","incident_modified_time_utc":"2023-04-05T20:47:50Z","containment_time_utc":"2023-04-04T22:00:00Z","control_time_utc":null,"fire_out_time_utc":null,"fire_cause":"Undetermined","fire_cause_general":null,"map_method":"GPS-Walked","source_dataset":"2023 NIFS","unique_fire_identifier":"2023-PAPAS-000263","irwin_id":"{FD8B8310-3842-41B1-BF11-DA1FFC750831}","global_id":"3d46080a-e482-4481-a835-7e009d409271"}},{"type":"Feature","geometry":{"type":"Polygon","coordinates":[[[-77.51307,40.45833],[-77.51292,40.4579],[-77.5132,40.45784],[-77.51338,40.45796],[-77.51344,40.4583],[-77.51331,40.4584],[-77.51307,40.45833]]]},"properties":{"fire_id":"ufid:2023-PAPAS-000295","source_collection":"history-2023","source_objectid":16090,"incident_name":"Justin Road","mapped_acres":0.478525892248118,"mapped_acres_source":"poly_GISAcres","gis_acres":0.478525892248118,"auto_acres":0.478523991825347,"reported_acres":0.5,"percent_contained":100.0,"state":"PA","state_wfigs":"US-PA","county":"Juniata","discovery_time_utc":"2023-04-09T16:48:00Z","perimeter_time_utc":"2023-04-09T21:48:00Z","perimeter_edit_time_utc":"2023-04-16T14:23:26Z","incident_modified_time_utc":"2023-04-11T21:19:55Z","containment_time_utc":"2023-04-09T23:00:00Z","control_time_utc":"2023-04-09T23:00:00Z","fire_out_time_utc":"2023-04-09T23:00:00Z","fire_cause":"Undetermined","fire_cause_general":null,"map_method":"GPS-Walked","source_dataset":"2023 NIFS","unique_fire_identifier":"2023-PAPAS-000295","irwin_id":"{065C45BD-74EB-4022-9B9A-25223E231C3E}","global_id":"87d1802a-d724-450f-9618-e8eaf4563fc2"}},{"type":"Feature","geometry":{"type":"Polygon","coordinates":[[[-78.20384,40.79012],[-78.20667,40.79224],[-78.20981,40.79528],[-78.21073,40.79724],[-78.2116,40.79841],[-78.21064,40.79888],[-78.21059,40.79922],[-78.2114,40.7999],[-78.21149,40.80014],[-78.21122,40.80072],[-78.2112,40.80115],[-78.21171,40.80173],[-78.21185,40.80276],[-78.21235,40.80323],[-78.21251,40.80361],[-78.21247,40.80393],[-78.21226,40.80416],[-78.21229,40.8045],[-78.21198,40.80454],[-78.21126,40.80436],[-78.20962,40.80446],[-78.20877,40.80459],[-78.20847,40.80477],[-78.20841,40.80497],[-78.20873,40.80514],[-78.20904,40.80557],[-78.20937,40.80644],[-78.20961,40.80649],[-78.21005,40.80694],[-78.21027,40.80745],[-78.21019,40.80765],[-78.21056,40.80805],[-78.21051,40.80859],[-78.21073,40.80969],[-78.21088,40.80985],[-78.21076,40.81005],[-78.21083,40.81039],[-78.21115,40.81092],[-78.21109,40.81121],[-78.2118,40.81282],[-78.21149,40.81325],[-78.2111,40.81324],[-78.21082,40.81349],[-78.21101,40.81381],[-78.21143,40.81413],[-78.21144,40.81428],[-78.21187,40.81455],[-78.21193,40.81489],[-78.21171,40.81541],[-78.21184,40.81602],[-78.21144,40.81658],[-78.21093,40.81701],[-78.21017,40.81712],[-78.2106,40.81787],[-78.21037,40.81834],[-78.2099,40.81884],[-78.20992,40.81907],[-78.20927,40.81948],[-78.20847,40.81976],[-78.20832,40.81989],[-78.20831,40.82011],[-78.20651,40.82058],[-78.20622,40.82027],[-78.20567,40.82065],[-78.20528,40.82055],[-78.20484,40.82012],[-78.20439,40.81995],[-78.2039,40.81956],[-78.2023,40.81942],[-78.20202,40.81954],[-78.20074,40.81863],[-78.19973,40.81802],[-78.19945,40.81797],[-78.19925,40.81771],[-78.19846,40.81768],[-78.19874,40.81791],[-78.19868,40.81797],[-78.19926,40.81817],[-78.19949,40.81848],[-78.1995,40.81873],[-78.19978,40.81906],[-78.19997,40.81993],[-78.19974,40.82041],[-78.19939,40.82075],[-78.19883,40.82067],[-78.19867,40.82091],[-78.19826,40.82071],[-78.19821,40.82093],[-78.19771,40.82116],[-78.19751,40.82095],[-78.19712,40.82086],[-78.19732,40.82206],[-78.19756,40.82224],[-78.19757,40.82268],[-78.19786,40.82297],[-78.1976,40.82327],[-78.19784,40.82374],[-78.19774,40.82392],[-78.19789,40.8242],[-78.19782,40.82445],[-78.19817,40.82511],[-78.19807,40.82531],[-78.19813,40.82561],[-78.19793,40.82585],[-78.19802,40.82606],[-78.19774,40.82654],[-78.19782,40.82679],[-78.19761,40.82741],[-78.19707,40.82736],[-78.19695,40.82707],[-78.1965,40.82715],[-78.19628,40.82746],[-78.19638,40.82795],[-78.19593,40.82828],[-78.1956,40.82811],[-78.19523,40.82761],[-78.19526,40.8274],[-78.19497,40.82727],[-78.19533,40.82703],[-78.19522,40.82675],[-78.19479,40.82669],[-78.19456,40.82638],[-78.19432,40.82643],[-78.19406,40.82625],[-78.19396,40.82638],[-78.19411,40.82662],[-78.19408,40.82698],[-78.19383,40.82722],[-78.19407,40.82807],[-78.19392,40.82821],[-78.19382,40.82868],[-78.19365,40.82873],[-78.19318,40.82839],[-78.19307,40.82799],[-78.19035,40.82681],[-78.18812,40.82691],[-78.18758,40.82651],[-78.1874,40.82605],[-78.18747,40.82546],[-78.18775,40.82532],[-78.18687,40.82407],[-78.18738,40.82346],[-78.18732,40.82298],[-78.18743,40.82281],[-78.18719,40.8227],[-78.18686,40.823],[-78.18639,40.8231],[-78.18584,40.82286],[-78.18554,40.82286],[-78.18544,40.82249],[-78.18579,40.82206],[-78.18569,40.82092],[-78.18629,40.82026],[-78.18632,40.81992],[-78.18677,40.81946],[-78.18688,40.81914],[-78.18726,40.81893],[-78.18734,40.8187],[-78.18789,40.81821],[-78.18826,40.81808],[-78.18957,40.81685],[-78.19086,40.81605],[-78.1915,40.81505],[-78.19289,40.8147],[-78.19346,40.81505],[-78.19361,40.81481],[-78.19364,40.81432],[-78.19333,40.81372],[-78.19338,40.81346],[-78.19314,40.81337],[-78.19289,40.81292],[-78.1923,40.8126],[-78.1922,40.81226],[-78.19154,40.81214],[-78.19102,40.81155],[-78.1904,40.81169],[-78.18946,40.81126],[-78.18748,40.81142],[-78.18704,40.81087],[-78.18657,40.81068],[-78.1867,40.8103],[-78.18656,40.8102],[-78.18647,40.80984],[-78.18657,40.8096],[-78.18641,40.80943],[-78.18635,40.809],[-78.18659,40.80865],[-78.18618,40.80757],[-78.18606,40.80689],[-78.18622,40.80664],[-78.1861,40.80643],[-78.18635,40.80607],[-78.18473,40.80484],[-78.18413,40.80412],[-78.18507,40.80375],[-78.18528,40.8034],[-78.18539,40.80285],[-78.18682,40.80165],[-78.18838,40.80116],[-78.19016,40.80102],[-78.19097,40.80167],[-78.19138,40.80134],[-78.19194,40.8012],[-78.19301,40.80047],[-78.19319,40.80002],[-78.19378,40.7998],[-78.19431,40.7997],[-78.19548,40.79984],[-78.19657,40.7998],[-78.19816,40.79937],[-78.19828,40.79917],[-78.19766,40.79867],[-78.19741,40.79823],[-78.19769,40.79649],[-78.19758,40.79592],[-78.19776,40.7955],[-78.19798,40.79524],[-78.19895,40.7947],[-78.19937,40.79402],[-78.19945,40.79372],[-78.19933,40.7936],[-78.20142,40.79211],[-78.20212,40.79121],[-78.20384,40.79012]]]},"properties":{"fire_id":"ufid:2023-PAPAS-000359","source_collection":"history-2023","source_objectid":16242,"incident_name":"Pool Hollow","mapped_acres":1445.56829250163,"mapped_acres_source":"poly_GISAcres","gis_acres":1445.56829250163,"auto_acres":1445.56255138214,"reported_acres":1200.0,"percent_contained":100.0,"state":"PA","state_wfigs":"US-PA","county":"Centre","discovery_time_utc":"2023-04-20T18:38:00Z","perimeter_time_utc":"2023-04-20T23:38:00Z","perimeter_edit_time_utc":"2023-04-25T13:05:34Z","incident_modified_time_utc":"2023-11-28T17:30:54Z","containment_time_utc":null,"control_time_utc":null,"fire_out_time_utc":null,"fire_cause":"Human","fire_cause_general":null,"map_method":"GPS-Walked","source_dataset":"2023 NIFS","unique_fire_identifier":"2023-PAPAS-000359","irwin_id":"{9C8EBCAF-127A-4BA7-8D7B-BB1F2C1B5718}","global_id":"bfcdd558-0a84-4728-a467-6224d211ff96"}},{"type":"Feature","geometry":{"type":"Polygon","coordinates":[[[-78.62281,41.65946],[-78.62249,41.65977],[-78.62233,41.6596],[-78.62267,41.65893],[-78.62322,41.65931],[-78.62281,41.65946]]]},"properties":{"fire_id":"ufid:2023-PAPAS-000360","source_collection":"history-2023","source_objectid":16243,"incident_name":"Hutchins","mapped_acres":0.755583316447932,"mapped_acres_source":"poly_GISAcres","gis_acres":0.755583316447932,"auto_acres":0.755580202920165,"reported_acres":0.8,"percent_contained":null,"state":"PA","state_wfigs":"US-PA","county":"McKean","discovery_time_utc":"2023-04-10T20:48:00Z","perimeter_time_utc":"2023-04-11T01:48:00Z","perimeter_edit_time_utc":"2023-04-22T16:07:03Z","incident_modified_time_utc":"2023-11-28T17:31:31Z","containment_time_utc":"2023-04-10T23:00:00Z","control_time_utc":"2023-04-10T23:00:00Z","fire_out_time_utc":"2023-04-10T23:00:00Z","fire_cause":"Human","fire_cause_general":null,"map_method":"Auto-generated","source_dataset":"2023 NIFS","unique_fire_identifier":"2023-PAPAS-000360","irwin_id":"{B1B87ADB-4BB9-4CBB-B508-0B5140EC8D51}","global_id":"353be4c1-856c-47e9-adf3-c87416ca2f72"}},{"type":"Feature","geometry":{"type":"Polygon","coordinates":[[[-79.04646,41.35916],[-79.04609,41.3592],[-79.04467,41.36021],[-79.04388,41.36026],[-79.04299,41.35927],[-79.04231,41.35793],[-79.04236,41.35743],[-79.04345,41.3563],[-79.04435,41.35611],[-79.04481,41.35577],[-79.04535,41.35579],[-79.04562,41.35557],[-79.04585,41.35496],[-79.04636,41.35463],[-79.04689,41.35454],[-79.04719,41.35395],[-79.04764,41.35386],[-79.04779,41.35357],[-79.04834,41.35337],[-79.04876,41.35292],[-79.04972,41.35259],[-79.05044,41.35211],[-79.0512,41.35202],[-79.05165,41.3517],[-79.05235,41.35155],[-79.05322,41.35194],[-79.05369,41.3518],[-79.05423,41.35135],[-79.05484,41.35119],[-79.05733,41.35099],[-79.05801,41.35111],[-79.05901,41.35105],[-79.05969,41.35079],[-79.06002,41.3509],[-79.06063,41.35147],[-79.0613,41.35124],[-79.06204,41.35153],[-79.06251,41.35145],[-79.06298,41.35112],[-79.06312,41.35083],[-79.06424,41.35057],[-79.06527,41.3507],[-79.06559,41.3509],[-79.06618,41.35074],[-79.06609,41.35131],[-79.06675,41.35173],[-79.06643,41.3524],[-79.0667,41.35382],[-79.06625,41.35439],[-79.06562,41.35477],[-79.06494,41.3549],[-79.06425,41.35542],[-79.06292,41.35586],[-79.06123,41.35698],[-79.06121,41.35714],[-79.06148,41.35741],[-79.06141,41.35833],[-79.06103,41.359],[-79.06104,41.35974],[-79.06088,41.36027],[-79.06043,41.36095],[-79.05874,41.3614],[-79.05767,41.36146],[-79.05598,41.36243],[-79.05497,41.36236],[-79.05431,41.36251],[-79.05369,41.36281],[-79.05268,41.36385],[-79.05248,41.36387],[-79.051,41.36324],[-79.04981,41.36241],[-79.04646,41.35916]]]},"properties":{"fire_id":"ufid:2023-PAALF-000300","source_collection":"history-2023","source_objectid":16697,"incident_name":"River Road","mapped_acres":447.0,"mapped_acres_source":"poly_GISAcres","gis_acres":447.0,"auto_acres":430.0275342914069,"reported_acres":447.0,"percent_contained":null,"state":"PA","state_wfigs":"US-PA","county":"Elk","discovery_time_utc":"2023-04-12T17:16:00Z","perimeter_time_utc":"2023-05-15T14:30:59Z","perimeter_edit_time_utc":"2023-05-15T14:30:59Z","incident_modified_time_utc":"2023-04-28T15:42:53Z","containment_time_utc":"2023-04-16T19:43:00Z","control_time_utc":"2023-04-19T19:19:00Z","fire_out_time_utc":"2023-04-28T15:42:00Z","fire_cause":"Human","fire_cause_general":"Undetermined","map_method":"Image Interpretation","source_dataset":"FFP","unique_fire_identifier":"2023-PAALF-000300","irwin_id":"{EEAEACD1-15B0-4692-830F-0DE741FE9243}","global_id":"26939c58-6dc4-4cb1-a616-bbbf195a33ec"}},{"type":"Feature","geometry":{"type":"Polygon","coordinates":[[[-75.29228,40.8613],[-75.29176,40.86123],[-75.2919,40.86109],[-75.29228,40.86105],[-75.29228,40.8613]]]},"properties":{"fire_id":"ufid:2023-PACVR-230002","source_collection":"history-2023","source_objectid":17243,"incident_name":"Tribe","mapped_acres":0.285086090260413,"mapped_acres_source":"poly_GISAcres","gis_acres":0.285086090260413,"auto_acres":0.284336675274007,"reported_acres":0.3,"percent_contained":null,"state":"PA","state_wfigs":"US-PA","county":"Northampton","discovery_time_utc":"2023-04-12T00:45:00Z","perimeter_time_utc":"2023-04-12T05:00:00Z","perimeter_edit_time_utc":"2023-06-07T02:55:10Z","incident_modified_time_utc":"2023-06-21T13:12:42Z","containment_time_utc":"2023-04-12T03:00:00Z","control_time_utc":"2023-04-12T03:00:00Z","fire_out_time_utc":"2023-04-14T16:00:00Z","fire_cause":"Human","fire_cause_general":null,"map_method":"Auto-generated","source_dataset":"2023 NIFS","unique_fire_identifier":"2023-PACVR-230002","irwin_id":"{F620719C-17BF-4FCF-AD4F-80F47503C4DB}","global_id":"e9ca1432-d114-4df7-9bba-c90004055355"}},{"type":"Feature","geometry":{"type":"Polygon","coordinates":[[[-77.0769,40.7355],[-77.077,40.73668],[-77.07672,40.73716],[-77.07643,40.73725],[-77.07595,40.73792],[-77.07636,40.73831],[-77.07698,40.74073],[-77.07612,40.74059],[-77.07583,40.74008],[-77.07597,40.73965],[-77.07536,40.73925],[-77.07402,40.73952],[-77.07311,40.73941],[-77.0735,40.73986],[-77.07398,40.73967],[-77.0747,40.73994],[-77.07493,40.74034],[-77.07488,40.74084],[-77.07372,40.74167],[-77.07346,40.7417],[-77.07301,40.74145],[-77.07256,40.74152],[-77.07251,40.74173],[-77.0728,40.74234],[-77.07257,40.74276],[-77.07137,40.74305],[-77.07158,40.74354],[-77.07039,40.74401],[-77.06963,40.74426],[-77.06957,40.74392],[-77.0694,40.74394],[-77.06868,40.74347],[-77.06817,40.74251],[-77.068,40.74244],[-77.06807,40.74229],[-77.06797,40.74202],[-77.06765,40.74169],[-77.06736,40.7409],[-77.06682,40.74117],[-77.0659,40.74093],[-77.06528,40.74112],[-77.06505,40.74149],[-77.06444,40.74164],[-77.0642,40.74202],[-77.06342,40.74134],[-77.0639,40.741],[-77.06404,40.74038],[-77.06426,40.74008],[-77.0655,40.7392],[-77.06591,40.73868],[-77.06613,40.73816],[-77.06641,40.73791],[-77.06732,40.73787],[-77.06788,40.73746],[-77.06821,40.7376],[-77.06897,40.73764],[-77.06902,40.73728],[-77.06938,40.73733],[-77.06934,40.73717],[-77.06996,40.7362],[-77.06954,40.73616],[-77.0695,40.73606],[-77.06964,40.73603],[-77.06952,40.736],[-77.06979,40.73581],[-77.06973,40.73565],[-77.07025,40.73533],[-77.0701,40.7349],[-77.07033,40.73478],[-77.07043,40.73488],[-77.07061,40.73483],[-77.07052,40.73464],[-77.07085,40.73437],[-77.07139,40.73454],[-77.07195,40.73427],[-77.07255,40.73423],[-77.07251,40.73444],[-77.07273,40.73433],[-77.07326,40.73436],[-77.07335,40.7345],[-77.07313,40.73455],[-77.07345,40.73475],[-77.07363,40.73467],[-77.07367,40.73448],[-77.07433,40.73439],[-77.0746,40.7346],[-77.07495,40.7346],[-77.07536,40.73494],[-77.07541,40.73513],[-77.07563,40.7352],[-77.07574,40.73548],[-77.07607,40.73539],[-77.07619,40.73516],[-77.07611,40.73505],[-77.07639,40.73479],[-77.0769,40.7355]]]},"properties":{"fire_id":"ufid:2023-PAPAS-000452","source_collection":"history-2023","source_objectid":17265,"incident_name":"Game Refuge Trail","mapped_acres":163.681570980423,"mapped_acres_source":"poly_GISAcres","gis_acres":163.681570980423,"auto_acres":163.680913333324,"reported_acres":162.0,"percent_contained":100.0,"state":"PA","state_wfigs":"US-PA","county":"Snyder","discovery_time_utc":"2023-05-30T23:30:00Z","perimeter_time_utc":"2023-05-31T04:30:00Z","perimeter_edit_time_utc":"2023-06-07T03:09:05Z","incident_modified_time_utc":"2023-11-28T18:15:27Z","containment_time_utc":"2023-06-07T23:00:00Z","control_time_utc":"2023-06-07T23:00:00Z","fire_out_time_utc":null,"fire_cause":"Human","fire_cause_general":null,"map_method":"Auto-generated","source_dataset":"2023 NIFS","unique_fire_identifier":"2023-PAPAS-000452","irwin_id":"{2B41716F-0529-492E-936F-73B90121B7BC}","global_id":"09fcd6a1-3926-4681-aaef-d181faef2378"}},{"type":"Feature","geometry":{"type":"Polygon","coordinates":[[[-75.29491,40.8594],[-75.29458,40.85849],[-75.29504,40.85872],[-75.29503,40.85861],[-75.29509,40.85871],[-75.29532,40.85866],[-75.2955,40.85901],[-75.29576,40.85886],[-75.29571,40.85875],[-75.29596,40.85875],[-75.29683,40.85942],[-75.29643,40.85966],[-75.29623,40.86001],[-75.29622,40.86031],[-75.29585,40.86005],[-75.29546,40.85936],[-75.29491,40.8594]]]},"properties":{"fire_id":"ufid:2023-PAPAS-000458","source_collection":"history-2023","source_objectid":17266,"incident_name":"Emerson Road","mapped_acres":3.74958803400294,"mapped_acres_source":"poly_GISAcres","gis_acres":3.74958803400294,"auto_acres":3.74957374217429,"reported_acres":5.0,"percent_contained":null,"state":"PA","state_wfigs":"US-PA","county":"Northampton","discovery_time_utc":"2023-06-05T16:05:00Z","perimeter_time_utc":"2023-06-05T21:05:00Z","perimeter_edit_time_utc":"2023-06-07T03:11:25Z","incident_modified_time_utc":"2023-11-28T18:19:48Z","containment_time_utc":null,"control_time_utc":null,"fire_out_time_utc":null,"fire_cause":"Human","fire_cause_general":null,"map_method":"Auto-generated","source_dataset":"2023 NIFS","unique_fire_identifier":"2023-PAPAS-000458","irwin_id":"{1707399C-0584-459F-BA85-B56148602156}","global_id":"884786aa-a12b-4554-985e-40beef6ec504"}},{"type":"Feature","geometry":{"type":"Polygon","coordinates":[[[-78.93416,41.90176],[-78.93453,41.90189],[-78.93497,41.90186],[-78.93559,41.90227],[-78.93638,41.90254],[-78.93617,41.90303],[-78.93625,41.90398],[-78.93599,41.9056],[-78.93605,41.90586],[-78.93551,41.90661],[-78.9351,41.9067],[-78.93354,41.90633],[-78.9335,41.90618],[-78.93312,41.90627],[-78.93155,41.906],[-78.93069,41.90569],[-78.93067,41.90542],[-78.93041,41.90555],[-78.93037,41.90574],[-78.9299,41.90587],[-78.92908,41.9054],[-78.9293,41.90515],[-78.92905,41.90479],[-78.92903,41.90428],[-78.92923,41.90416],[-78.92936,41.90381],[-78.92996,41.90331],[-78.92975,41.90328],[-78.93014,41.90293],[-78.93011,41.90276],[-78.93063,41.90276],[-78.93102,41.90246],[-78.93193,41.90221],[-78.93227,41.90171],[-78.93195,41.9016],[-78.93193,41.90119],[-78.93226,41.90108],[-78.93308,41.90123],[-78.93329,41.9015],[-78.9331,41.90179],[-78.93416,41.90176]]]},"properties":{"fire_id":"ufid:2023-PAALF-000764","source_collection":"history-2023","source_objectid":22994,"incident_name":"Sugar Bay","mapped_acres":20.0,"mapped_acres_source":"poly_GISAcres","gis_acres":20.0,"auto_acres":62.638976685496665,"reported_acres":62.0,"percent_contained":null,"state":"PA","state_wfigs":"US-PA","county":"Warren","discovery_time_utc":"2023-11-06T19:29:00Z","perimeter_time_utc":"2023-12-01T14:45:31Z","perimeter_edit_time_utc":"2023-12-01T14:45:32Z","incident_modified_time_utc":"2023-11-30T20:11:43Z","containment_time_utc":"2023-11-08T21:05:00Z","control_time_utc":"2023-11-16T16:15:00Z","fire_out_time_utc":"2023-11-17T19:48:00Z","fire_cause":"Human","fire_cause_general":"Recreation and ceremony","map_method":"Auto-generated","source_dataset":"FFP","unique_fire_identifier":"2023-PAALF-000764","irwin_id":"{144E6A33-B760-4796-962D-303B32E925E6}","global_id":"7ddadf4d-baf8-408f-b58a-613f09c6e509"}},{"type":"Feature","geometry":{"type":"Polygon","coordinates":[[[-79.26571,41.83231],[-79.26675,41.83264],[-79.26626,41.83285],[-79.2661,41.83272],[-79.26557,41.83269],[-79.26571,41.83231]]]},"properties":{"fire_id":"ufid:2023-PAALF-000807","source_collection":"history-2023","source_objectid":23012,"incident_name":"Buckaloons","mapped_acres":0.8,"mapped_acres_source":"poly_GISAcres","gis_acres":0.8,"auto_acres":0.8019938938012717,"reported_acres":0.87,"percent_contained":null,"state":"PA","state_wfigs":"US-PA","county":"Warren","discovery_time_utc":"2023-11-14T19:36:46Z","perimeter_time_utc":"2023-12-01T18:08:01Z","perimeter_edit_time_utc":"2023-12-01T18:08:01Z","incident_modified_time_utc":"2023-11-30T20:37:37Z","containment_time_utc":"2023-11-14T21:00:00Z","control_time_utc":"2023-11-14T21:30:00Z","fire_out_time_utc":"2023-11-17T19:48:00Z","fire_cause":"Human","fire_cause_general":"Undetermined","map_method":"GPS-Walked","source_dataset":"FFP","unique_fire_identifier":"2023-PAALF-000807","irwin_id":"{D1231E2B-44DB-46E6-8CC6-4C2D32901DB2}","global_id":"a04a14a8-80bb-4620-bacf-01cb410a444a"}}]}
