{"type":"FeatureCollection","features":[{"type":"Feature","geometry":{"type":"Polygon","coordinates":[[[-97.53891,44.26837],[-97.53856,44.26827],[-97.5385,44.26789],[-97.53805,44.26766],[-97.53667,44.26767],[-97.53615,44.26781],[-97.53607,44.26771],[-97.5363,44.26753],[-97.53586,44.26738],[-97.53577,44.26717],[-97.53644,44.266],[-97.53722,44.26501],[-97.53778,44.26376],[-97.53863,44.2629],[-97.53878,44.26214],[-97.53955,44.26142],[-97.54042,44.26128],[-97.5411,44.26051],[-97.54137,44.26038],[-97.54103,44.25998],[-97.54117,44.25943],[-97.54173,44.25871],[-97.54291,44.25792],[-97.54322,44.25743],[-97.54381,44.25703],[-97.54397,44.25677],[-97.54468,44.25657],[-97.54523,44.25611],[-97.54548,44.2563],[-97.5455,44.25654],[-97.54595,44.25667],[-97.54608,44.25648],[-97.5459,44.2563],[-97.54608,44.25607],[-97.54739,44.25612],[-97.54757,44.25639],[-97.54758,44.25702],[-97.54728,44.25817],[-97.54689,44.25864],[-97.5469,44.25971],[-97.5467,44.26037],[-97.54487,44.26037],[-97.54442,44.2603],[-97.54415,44.26011],[-97.54334,44.2606],[-97.54302,44.26136],[-97.54257,44.26187],[-97.54267,44.26259],[-97.54231,44.2634],[-97.54257,44.26465],[-97.54236,44.2652],[-97.54203,44.26537],[-97.54212,44.26585],[-97.54179,44.26636],[-97.5416,44.26758],[-97.53975,44.26764],[-97.53921,44.2678],[-97.53914,44.26817],[-97.53891,44.26837]]]},"properties":{"fire_id":"ufid:2023-SDSDS-230160","source_collection":"history-2023","source_objectid":21433,"incident_name":"Matthews","mapped_acres":115.0,"mapped_acres_source":"poly_GISAcres","gis_acres":115.0,"auto_acres":115.39823068368658,"reported_acres":360.0,"percent_contained":null,"state":"SD","state_wfigs":"US-SD","county":"Kingsbury","discovery_time_utc":"2023-04-12T17:39:00Z","perimeter_time_utc":"2023-10-02T17:13:10Z","perimeter_edit_time_utc":"2023-10-02T17:13:11Z","incident_modified_time_utc":"2023-04-12T20:07:05Z","containment_time_utc":null,"control_time_utc":null,"fire_out_time_utc":null,"fire_cause":"Human","fire_cause_general":"Undetermined","map_method":"Image Interpretation","source_dataset":"FFP","unique_fire_identifier":"2023-SDSDS-230160","irwin_id":"{68A1A9EC-7033-40C6-8EE1-A62D06C7FE7A}","global_id":"9d522a00-e215-426f-8da3-36f7ef3be984"}}]}
