{"type":"FeatureCollection","features":[{"type":"Feature","geometry":{"type":"Polygon","coordinates":[[[-103.55016,43.79165],[-103.5501,43.7918],[-103.54973,43.79184],[-103.54989,43.79169],[-103.54987,43.79152],[-103.55016,43.79165]]]},"properties":{"fire_id":"ufid:2023-SDSDS-230189","source_collection":"history-2023","source_objectid":16880,"incident_name":"Willow","mapped_acres":0.2,"mapped_acres_source":"poly_GISAcres","gis_acres":0.2,"auto_acres":0.2011291968272784,"reported_acres":0.26,"percent_contained":null,"state":"SD","state_wfigs":"US-SD","county":"Custer","discovery_time_utc":"2023-04-28T22:47:00Z","perimeter_time_utc":"2023-05-23T04:41:49Z","perimeter_edit_time_utc":"2023-05-23T04:41:49Z","incident_modified_time_utc":"2023-05-01T19:35:41Z","containment_time_utc":"2023-04-29T01:42:00Z","control_time_utc":"2023-05-01T19:26:00Z","fire_out_time_utc":"2023-05-01T19:26:00Z","fire_cause":"Human","fire_cause_general":"Other causes","map_method":"Hand Sketch","source_dataset":"FFP","unique_fire_identifier":"2023-SDSDS-230189","irwin_id":"{D1D092F1-7FA4-41ED-AF07-8E28854D0532}","global_id":"fede68e2-48e9-43e9-894c-01bc8bcc956a"}},{"type":"Feature","geometry":{"type":"Polygon","coordinates":[[[-103.71876,43.73854],[-103.71886,43.73889],[-103.7186,43.73902],[-103.71793,43.73872],[-103.71784,43.73879],[-103.71793,43.73899],[-103.71777,43.73897],[-103.71774,43.7391],[-103.71734,43.73914],[-103.71709,43.73892],[-103.71698,43.73914],[-103.71666,43.73922],[-103.71562,43.73905],[-103.71631,43.73794],[-103.71655,43.73793],[-103.71685,43.73816],[-103.71744,43.73822],[-103.71764,43.73843],[-103.71876,43.73854]]]},"properties":{"fire_id":"ufid:2023-SDSDS-230135","source_collection":"history-2023","source_objectid":16881,"incident_name":"Sunny","mapped_acres":2.0,"mapped_acres_source":"poly_GISAcres","gis_acres":2.0,"auto_acres":5.194965372077481,"reported_acres":5.25,"percent_contained":null,"state":"SD","state_wfigs":"US-SD","county":"Custer","discovery_time_utc":"2023-03-18T23:03:00Z","perimeter_time_utc":"2023-05-23T04:45:49Z","perimeter_edit_time_utc":"2023-05-23T04:45:49Z","incident_modified_time_utc":"2023-03-28T21:09:21Z","containment_time_utc":"2023-03-19T16:53:00Z","control_time_utc":"2023-03-20T18:26:00Z","fire_out_time_utc":"2023-03-28T20:19:00Z","fire_cause":"Human","fire_cause_general":"Debris and open burning","map_method":"Auto-generated","source_dataset":"FFP","unique_fire_identifier":"2023-SDSDS-230135","irwin_id":"{42CB9E48-82E4-4250-A034-245C42A221F3}","global_id":"596f05bd-8993-4941-bfae-8ef1d2ed4144"}},{"type":"Feature","geometry":{"type":"Polygon","coordinates":[[[-103.64863,43.49161],[-103.64807,43.49195],[-103.64766,43.49184],[-103.64743,43.49192],[-103.64659,43.49162],[-103.64649,43.49136],[-103.64634,43.49137],[-103.64631,43.49105],[-103.64588,43.49114],[-103.64578,43.49081],[-103.64648,43.49059],[-103.64627,43.4901],[-103.64588,43.48993],[-103.64583,43.48947],[-103.64639,43.48915],[-103.64671,43.48919],[-103.64687,43.48909],[-103.64689,43.48885],[-103.64723,43.48898],[-103.64774,43.48957],[-103.64863,43.49161]]]},"properties":{"fire_id":"ufid:2023-SDSDS-230253","source_collection":"history-2023","source_objectid":17312,"incident_name":"Boom","mapped_acres":1.0,"mapped_acres_source":"poly_GISAcres","gis_acres":1.0,"auto_acres":11.593012119681022,"reported_acres":11.6,"percent_contained":null,"state":"SD","state_wfigs":"US-SD","county":"Custer","discovery_time_utc":"2023-05-08T02:06:00Z","perimeter_time_utc":"2023-06-08T15:35:02Z","perimeter_edit_time_utc":"2023-06-08T15:35:03Z","incident_modified_time_utc":"2023-05-19T21:37:56Z","containment_time_utc":"2023-05-08T22:11:00Z","control_time_utc":"2023-05-09T21:24:00Z","fire_out_time_utc":"2023-05-19T18:16:00Z","fire_cause":"Natural","fire_cause_general":"Natural","map_method":"Auto-generated","source_dataset":"FFP","unique_fire_identifier":"2023-SDSDS-230253","irwin_id":"{3A52AF6D-A942-4AF6-9718-1E84F2082602}","global_id":"c4cc7f04-5db0-432a-b77d-b836372e9b05"}},{"type":"Feature","geometry":{"type":"MultiPolygon","coordinates":[[[[-103.8303,43.66526],[-103.82979,43.66471],[-103.82954,43.66482],[-103.82971,43.66498],[-103.82949,43.66498],[-103.82945,43.66533],[-103.82907,43.66573],[-103.82919,43.66577],[-103.82906,43.66574],[-103.82878,43.66541],[-103.82875,43.6648],[-103.82837,43.66465],[-103.82832,43.6644],[-103.82798,43.66409],[-103.82779,43.66444],[-103.82798,43.66458],[-103.82777,43.66469],[-103.82704,43.66448],[-103.82698,43.66423],[-103.82638,43.66432],[-103.82634,43.66443],[-103.82597,43.66435],[-103.82589,43.66428],[-103.8261,43.66426],[-103.82574,43.66419],[-103.82573,43.66402],[-103.82466,43.66299],[-103.82501,43.66271],[-103.82487,43.66257],[-103.82556,43.66237],[-103.82563,43.66211],[-103.82608,43.66174],[-103.82625,43.6618],[-103.82627,43.662],[-103.8265,43.66196],[-103.82675,43.66171],[-103.82702,43.66184],[-103.82767,43.66123],[-103.82799,43.66115],[-103.82866,43.66129],[-103.82889,43.66201],[-103.82972,43.66227],[-103.82958,43.66259],[-103.8304,43.66286],[-103.83041,43.66301],[-103.83022,43.66309],[-103.83093,43.66308],[-103.83056,43.66354],[-103.83122,43.66386],[-103.831,43.66408],[-103.83122,43.66413],[-103.83137,43.66433],[-103.83122,43.6647],[-103.8314,43.66494],[-103.83138,43.66519],[-103.83127,43.66537],[-103.83072,43.66507],[-103.8303,43.66526]]],[[[-103.83075,43.66345],[-103.83084,43.66346],[-103.83072,43.66346],[-103.83075,43.66345]]]]},"properties":{"fire_id":"ufid:2023-SDBKF-230337","source_collection":"history-2023","source_objectid":17721,"incident_name":"Water Draw","mapped_acres":35.147906966700816,"mapped_acres_source":"poly_Acres_AutoCalc_fallback","gis_acres":null,"auto_acres":35.147906966700816,"reported_acres":35.2,"percent_contained":null,"state":"SD","state_wfigs":"US-SD","county":"Custer","discovery_time_utc":"2023-05-27T18:11:00Z","perimeter_time_utc":"2023-06-27T20:40:17Z","perimeter_edit_time_utc":"2023-06-27T20:40:17Z","incident_modified_time_utc":"2023-06-12T21:49:16Z","containment_time_utc":"2023-05-28T22:28:00Z","control_time_utc":null,"fire_out_time_utc":"2023-06-12T17:45:38Z","fire_cause":"Natural","fire_cause_general":"Natural","map_method":"Auto-generated","source_dataset":"FFP","unique_fire_identifier":"2023-SDBKF-230337","irwin_id":"{93BF2528-7785-45DB-94EF-B53FAFB4848C}","global_id":"b11827a4-6d24-4901-b675-1b647606200f"}},{"type":"Feature","geometry":{"type":"Polygon","coordinates":[[[-103.40559,43.99064],[-103.40561,43.99072],[-103.40548,43.9907],[-103.40559,43.99064]]]},"properties":{"fire_id":"ufid:2023-SDBKF-230396","source_collection":"history-2023","source_objectid":17724,"incident_name":"Burgess","mapped_acres":0.1,"mapped_acres_source":"poly_GISAcres","gis_acres":0.1,"auto_acres":0.021215170232773868,"reported_acres":0.1,"percent_contained":null,"state":"SD","state_wfigs":"US-SD","county":"Pennington","discovery_time_utc":"2023-06-18T00:50:00Z","perimeter_time_utc":"2023-06-27T22:03:24Z","perimeter_edit_time_utc":"2023-06-27T22:03:24Z","incident_modified_time_utc":"2023-06-20T20:13:21Z","containment_time_utc":"2023-06-18T03:30:00Z","control_time_utc":"2023-06-18T04:30:00Z","fire_out_time_utc":"2023-06-20T20:10:00Z","fire_cause":"Human","fire_cause_general":"Undetermined","map_method":"GPS-Walked","source_dataset":"FFP","unique_fire_identifier":"2023-SDBKF-230396","irwin_id":"{C589864E-3817-47E4-9D32-C4C06A519DBD}","global_id":"68617311-8908-4ebe-b60e-62c2b12eb779"}},{"type":"Feature","geometry":{"type":"MultiPolygon","coordinates":[[[[-100.62014,43.40926],[-100.62012,43.40929],[-100.6201,43.4093],[-100.62014,43.40926]]],[[[-100.62079,43.40921],[-100.62,43.40953],[-100.62016,43.40926],[-100.62079,43.40921]]],[[[-100.6201,43.4093],[-100.6197,43.40965],[-100.62,43.40936],[-100.6201,43.4093]]],[[[-100.62176,43.40945],[-100.62175,43.40986],[-100.622689,43.410809],[-100.62082,43.4092],[-100.62092,43.40916],[-100.62176,43.40945]]],[[[-100.61945,43.4106],[-100.61927,43.41021],[-100.61961,43.40996],[-100.6197,43.40965],[-100.62,43.40953],[-100.61945,43.4106]]],[[[-100.62286,43.4106],[-100.62272,43.41077],[-100.62254,43.4106],[-100.62286,43.4106]]],[[[-100.62221,43.41208],[-100.62201,43.41256],[-100.6211,43.41281],[-100.622615,43.410903],[-100.62108,43.41279],[-100.62042,43.41268],[-100.61944,43.41186],[-100.6198,43.41158],[-100.61948,43.41111],[-100.61956,43.41089],[-100.61945,43.4106],[-100.622689,43.410809],[-100.62305,43.41121],[-100.62278,43.41176],[-100.62221,43.41208]]],[[[-100.6211,43.41281],[-100.62058,43.41275],[-100.62042,43.41268],[-100.6211,43.41281]]]]},"properties":{"fire_id":"ufid:2023-SDRBA-000012","source_collection":"history-2023","source_objectid":18305,"incident_name":"Fox","mapped_acres":18.5,"mapped_acres_source":"poly_GISAcres","gis_acres":18.5,"auto_acres":14.721094855090938,"reported_acres":18.5,"percent_contained":null,"state":"SD","state_wfigs":"US-SD","county":"Mellette","discovery_time_utc":"2023-05-08T23:25:18Z","perimeter_time_utc":"2023-07-20T20:27:49Z","perimeter_edit_time_utc":"2023-07-20T20:27:50Z","incident_modified_time_utc":"2023-05-11T20:25:14Z","containment_time_utc":null,"control_time_utc":null,"fire_out_time_utc":"2023-05-10T21:30:00Z","fire_cause":"Undetermined","fire_cause_general":"Undetermined","map_method":"Hand Sketch","source_dataset":"FFP","unique_fire_identifier":"2023-SDRBA-000012","irwin_id":"{457018E9-80E1-438F-9A8A-29BBC7E19DF1}","global_id":"ce1b5d21-240a-46c6-94b9-55b24cf3b0ca"}},{"type":"Feature","geometry":{"type":"MultiPolygon","coordinates":[[[[-100.89692,43.17195],[-100.89713,43.17221],[-100.89689,43.17199],[-100.89679,43.17204],[-100.89692,43.17195]]],[[[-100.89713,43.17223],[-100.89713,43.17221],[-100.89715,43.17223],[-100.89713,43.17223]]],[[[-100.89715,43.17223],[-100.89718,43.17223],[-100.8972,43.17228],[-100.89715,43.17223]]],[[[-100.89723,43.17231],[-100.89725,43.17248],[-100.897,43.17224],[-100.89723,43.17231]]],[[[-100.89725,43.17253],[-100.89725,43.17248],[-100.89726,43.17254],[-100.89725,43.17253]]],[[[-100.89728,43.17267],[-100.89726,43.17254],[-100.89728,43.17261],[-100.89728,43.17267]]],[[[-100.8968,43.17248],[-100.89724,43.17248],[-100.89729,43.17274],[-100.8968,43.17248]]],[[[-100.89728,43.17268],[-100.89728,43.17267],[-100.89729,43.1727],[-100.89728,43.17268]]],[[[-100.8973,43.17277],[-100.89729,43.17274],[-100.8973,43.17274],[-100.8973,43.17277]]],[[[-100.89732,43.17283],[-100.89731,43.17281],[-100.8973,43.17277],[-100.89732,43.17283]]],[[[-100.89696,43.17307],[-100.89696,43.17306],[-100.89697,43.17312],[-100.89696,43.17307]]],[[[-100.89702,43.1732],[-100.89732,43.17309],[-100.89732,43.1731],[-100.89702,43.1732]]],[[[-100.89699,43.17318],[-100.89698,43.17317],[-100.89697,43.17312],[-100.89699,43.17318]]],[[[-100.8969,43.17214],[-100.89683,43.17208],[-100.89691,43.17213],[-100.8969,43.17214]]],[[[-100.89691,43.1722],[-100.8969,43.17214],[-100.897,43.17224],[-100.89691,43.1722]]],[[[-100.89691,43.17225],[-100.89688,43.17227],[-100.89691,43.1722],[-100.89691,43.17225]]],[[[-100.8968,43.17233],[-100.89688,43.17227],[-100.89686,43.17231],[-100.8968,43.17233]]],[[[-100.89669,43.17236],[-100.8968,43.17233],[-100.89679,43.17235],[-100.89669,43.17236]]],[[[-100.8968,43.17248],[-100.89663,43.17238],[-100.89665,43.17236],[-100.89669,43.17236],[-100.8968,43.17248]]],[[[-100.89675,43.17258],[-100.89669,43.17248],[-100.89671,43.1725],[-100.89675,43.17258]]],[[[-100.89691,43.17284],[-100.89675,43.1726],[-100.8969,43.17281],[-100.89691,43.17284]]],[[[-100.89691,43.17288],[-100.89691,43.17285],[-100.89693,43.17293],[-100.89691,43.17288]]],[[[-100.89694,43.17298],[-100.89693,43.17293],[-100.89695,43.17303],[-100.89694,43.17298]]],[[[-100.89695,43.17304],[-100.89695,43.17303],[-100.89696,43.17306],[-100.89695,43.17304]]]]},"properties":{"fire_id":"ufid:2023-SDRBA-000004","source_collection":"history-2023","source_objectid":18306,"incident_name":"One star Pie","mapped_acres":0.5,"mapped_acres_source":"poly_GISAcres","gis_acres":0.5,"auto_acres":0.22476762196805075,"reported_acres":1.0,"percent_contained":null,"state":"SD","state_wfigs":"US-SD","county":"Todd","discovery_time_utc":"2023-04-12T15:20:00Z","perimeter_time_utc":"2023-07-20T20:30:48Z","perimeter_edit_time_utc":"2023-07-20T20:30:49Z","incident_modified_time_utc":"2023-04-12T15:51:26Z","containment_time_utc":null,"control_time_utc":null,"fire_out_time_utc":"2023-04-14T21:30:00Z","fire_cause":"Human","fire_cause_general":"Equipment and vehicle use","map_method":"Hand Sketch","source_dataset":"FFP","unique_fire_identifier":"2023-SDRBA-000004","irwin_id":"{EF739890-FA3A-4746-AFD9-C6285592A0DC}","global_id":"c5f2c5e6-00fd-4c19-b442-d72eb1d5c463"}},{"type":"Feature","geometry":{"type":"MultiPolygon","coordinates":[[[[-102.17946,43.19816],[-102.17907,43.19827],[-102.17912,43.19812],[-102.17929,43.1981],[-102.17918,43.19785],[-102.17931,43.1978],[-102.17946,43.19816]]],[[[-102.17905,43.1982],[-102.17904,43.1982],[-102.17906,43.19819],[-102.17905,43.1982]]]]},"properties":{"fire_id":"ufid:2023-SDPRA-000032","source_collection":"history-2023","source_objectid":18939,"incident_name":"First Strike","mapped_acres":0.5,"mapped_acres_source":"poly_GISAcres","gis_acres":0.5,"auto_acres":0.23686947636425085,"reported_acres":0.24,"percent_contained":null,"state":"SD","state_wfigs":"US-SD","county":"Oglala Lakota","discovery_time_utc":"2023-07-28T18:45:00Z","perimeter_time_utc":"2023-08-28T18:47:11Z","perimeter_edit_time_utc":"2023-08-28T18:47:11Z","incident_modified_time_utc":"2023-08-16T23:23:43Z","containment_time_utc":"2023-07-28T19:20:00Z","control_time_utc":"2023-07-28T19:35:00Z","fire_out_time_utc":"2023-07-31T15:00:00Z","fire_cause":"Natural","fire_cause_general":"Natural","map_method":"Auto-generated","source_dataset":"FFP","unique_fire_identifier":"2023-SDPRA-000032","irwin_id":"{934FD309-B815-413C-813B-6903F1C5C8DD}","global_id":"0cfab89a-dc61-4130-b1ad-83ccfc5c923a"}},{"type":"Feature","geometry":{"type":"Polygon","coordinates":[[[-103.47273,43.51747],[-103.47293,43.5175],[-103.47287,43.5177],[-103.47272,43.51763],[-103.47273,43.51747]]]},"properties":{"fire_id":"ufid:2023-SDWCP-230190","source_collection":"history-2023","source_objectid":18941,"incident_name":"Power Pole","mapped_acres":0.1,"mapped_acres_source":"poly_GISAcres","gis_acres":0.1,"auto_acres":0.09268687502105069,"reported_acres":0.1,"percent_contained":null,"state":"SD","state_wfigs":"US-SD","county":"Custer","discovery_time_utc":"2023-05-01T15:35:00Z","perimeter_time_utc":"2023-08-02T20:21:35Z","perimeter_edit_time_utc":"2023-08-02T20:21:36Z","incident_modified_time_utc":"2023-05-09T22:16:27Z","containment_time_utc":"2023-05-01T16:20:00Z","control_time_utc":"2023-05-01T17:20:00Z","fire_out_time_utc":"2023-05-09T22:00:00Z","fire_cause":"Human","fire_cause_general":"Power generation / transmission / distribution","map_method":"Hand Sketch","source_dataset":"FFP","unique_fire_identifier":"2023-SDWCP-230190","irwin_id":"{96A003CB-A8C4-4EF8-A8B5-30258F98A2EF}","global_id":"21c1f4d4-bcd5-4fbc-957c-683b1825bf95"}},{"type":"Feature","geometry":{"type":"MultiPolygon","coordinates":[[[[-103.50454,44.18261],[-103.5044,44.18259],[-103.50454,44.18259],[-103.50454,44.18261]]],[[[-103.50459,44.18283],[-103.50454,44.18261],[-103.50478,44.18259],[-103.50459,44.18283]]]]},"properties":{"fire_id":"ufid:2023-SDBKF-230567","source_collection":"history-2023","source_objectid":18947,"incident_name":"Estes","mapped_acres":0.1,"mapped_acres_source":"poly_GISAcres","gis_acres":0.1,"auto_acres":0.0656798583691309,"reported_acres":0.1,"percent_contained":null,"state":"SD","state_wfigs":"US-SD","county":"Lawrence","discovery_time_utc":"2023-07-30T23:47:26Z","perimeter_time_utc":"2023-07-31T04:47:26Z","perimeter_edit_time_utc":"2023-08-02T21:14:32Z","incident_modified_time_utc":"2023-08-02T19:23:21Z","containment_time_utc":null,"control_time_utc":null,"fire_out_time_utc":null,"fire_cause":"Natural","fire_cause_general":null,"map_method":"Auto-generated","source_dataset":"2023 NIFS","unique_fire_identifier":"2023-SDBKF-230567","irwin_id":"{5D75A780-8D8F-497B-BD57-735C609D950E}","global_id":"6df462e3-18ba-4a30-b6c9-9e59374bf6a5"}},{"type":"Feature","geometry":{"type":"Polygon","coordinates":[[[-103.45499,43.5313],[-103.45478,43.53181],[-103.45414,43.53163],[-103.45423,43.53132],[-103.45399,43.53129],[-103.45414,43.53121],[-103.45403,43.53111],[-103.4546,43.53116],[-103.45461,43.53088],[-103.4549,43.53126],[-103.45506,43.53115],[-103.45498,43.53102],[-103.45511,43.53102],[-103.45526,43.53138],[-103.45517,43.53145],[-103.45499,43.5313]]]},"properties":{"fire_id":"ufid:2023-SDWCP-000527","source_collection":"history-2023","source_objectid":18956,"incident_name":"Gobbler","mapped_acres":3.0,"mapped_acres_source":"poly_GISAcres","gis_acres":3.0,"auto_acres":1.077362390554727,"reported_acres":1.08,"percent_contained":null,"state":"SD","state_wfigs":"US-SD","county":"Custer","discovery_time_utc":"2023-07-25T19:54:00Z","perimeter_time_utc":"2023-08-02T23:06:25Z","perimeter_edit_time_utc":"2023-08-02T23:06:26Z","incident_modified_time_utc":"2023-07-28T19:14:06Z","containment_time_utc":"2023-07-25T22:40:00Z","control_time_utc":"2023-07-25T23:05:00Z","fire_out_time_utc":"2023-07-28T19:00:00Z","fire_cause":"Natural","fire_cause_general":"Natural","map_method":"Hand Sketch","source_dataset":"FFP","unique_fire_identifier":"2023-SDWCP-000527","irwin_id":"{5AB701D7-96BC-4DB0-B723-5920A6EC6951}","global_id":"ac883df8-1918-4709-aa1f-1585a12ec14d"}},{"type":"Feature","geometry":{"type":"Polygon","coordinates":[[[-103.52643,43.83905],[-103.52637,43.83905],[-103.52637,43.83902],[-103.52643,43.83905]]]},"properties":{"fire_id":"ufid:2023-SDBKF-230551","source_collection":"history-2023","source_objectid":18974,"incident_name":"Cathedral","mapped_acres":0.1,"mapped_acres_source":"poly_GISAcres","gis_acres":0.1,"auto_acres":0.007095948157757584,"reported_acres":0.1,"percent_contained":null,"state":"SD","state_wfigs":"US-SD","county":"Custer","discovery_time_utc":"2023-07-28T14:24:18Z","perimeter_time_utc":"2023-08-03T17:46:17Z","perimeter_edit_time_utc":"2023-08-03T17:46:17Z","incident_modified_time_utc":"2023-08-03T17:44:18Z","containment_time_utc":"2023-07-28T17:10:00Z","control_time_utc":"2023-07-28T18:30:00Z","fire_out_time_utc":"2023-08-02T18:00:00Z","fire_cause":"Natural","fire_cause_general":"Natural","map_method":"Auto-generated","source_dataset":"FFP","unique_fire_identifier":"2023-SDBKF-230551","irwin_id":"{24A19E60-C65E-4775-BB40-5EEB29181515}","global_id":"207fd612-67be-48ec-a0a9-673f222457f9"}},{"type":"Feature","geometry":{"type":"Polygon","coordinates":[[[-103.55234,43.83492],[-103.55271,43.8351],[-103.55243,43.83521],[-103.55212,43.83505],[-103.55234,43.83492]]]},"properties":{"fire_id":"ufid:2023-SDBKF-230550","source_collection":"history-2023","source_objectid":19436,"incident_name":"Sylvan","mapped_acres":0.25,"mapped_acres_source":"poly_GISAcres","gis_acres":0.25,"auto_acres":0.19415308221531627,"reported_acres":0.25,"percent_contained":null,"state":"SD","state_wfigs":"US-SD","county":"Custer","discovery_time_utc":"2023-07-28T12:46:08Z","perimeter_time_utc":"2023-08-13T16:32:13Z","perimeter_edit_time_utc":"2023-08-13T16:32:13Z","incident_modified_time_utc":"2023-08-02T16:57:35Z","containment_time_utc":"2023-07-28T23:00:00Z","control_time_utc":"2023-07-29T19:00:00Z","fire_out_time_utc":"2023-08-02T16:50:00Z","fire_cause":"Natural","fire_cause_general":"Natural","map_method":"Auto-generated","source_dataset":"FFP","unique_fire_identifier":"2023-SDBKF-230550","irwin_id":"{37B022E0-6662-4DDD-8C4F-7CC94CD3E3A7}","global_id":"fc656520-3adc-4e59-8994-7919cbb91db7"}},{"type":"Feature","geometry":{"type":"MultiPolygon","coordinates":[[[[-100.9868,43.20638],[-100.98681,43.20639],[-100.9868,43.20639],[-100.9868,43.20638]]],[[[-100.98681,43.20639],[-100.98682,43.20663],[-100.98705,43.20675],[-100.98701,43.20683],[-100.98688,43.20709],[-100.98688,43.20711],[-100.986875,43.2071],[-100.98672,43.20717],[-100.98565,43.20605],[-100.98579,43.2059],[-100.98678,43.20637],[-100.98681,43.206565],[-100.98681,43.20639]]],[[[-100.98682,43.20661],[-100.98683,43.20662],[-100.98682,43.20662],[-100.98682,43.20661]]],[[[-100.98683,43.20662],[-100.98694,43.20663],[-100.98684,43.20663],[-100.98683,43.20662]]],[[[-100.98697,43.20663],[-100.98702,43.20666],[-100.98701,43.20669],[-100.98697,43.20663]]],[[[-100.98701,43.20669],[-100.98704,43.20673],[-100.98703,43.20672],[-100.98701,43.20669]]],[[[-100.98704,43.20673],[-100.98705,43.20674],[-100.98706,43.20676],[-100.98704,43.20673]]],[[[-100.98704,43.20681],[-100.98701,43.20683],[-100.98706,43.20677],[-100.98704,43.20681]]],[[[-100.98687,43.20712],[-100.98677,43.20716],[-100.98685,43.20712],[-100.98687,43.20712]]],[[[-100.98678,43.20727],[-100.9868,43.2073],[-100.98679,43.20729],[-100.98678,43.20727]]],[[[-100.9868,43.2073],[-100.98683,43.20734],[-100.98683,43.20745],[-100.9868,43.2073]]],[[[-100.98687,43.20748],[-100.98684,43.20746],[-100.98683,43.20745],[-100.98687,43.20748]]],[[[-100.98705,43.20757],[-100.986933,43.207528],[-100.98721,43.20772],[-100.98726,43.20799],[-100.98582,43.20831],[-100.98567,43.20789],[-100.98587,43.20775],[-100.98559,43.20754],[-100.98579,43.20717],[-100.98564,43.20682],[-100.98536,43.20674],[-100.98527,43.20647],[-100.98565,43.20606],[-100.98672,43.20717],[-100.98682,43.20745],[-100.986885,43.207495],[-100.98705,43.20757]]],[[[-100.98705,43.20757],[-100.98714,43.20763],[-100.98712,43.20762],[-100.98705,43.20757]]],[[[-100.98714,43.20763],[-100.98716,43.20764],[-100.98719,43.20766],[-100.98714,43.20763]]],[[[-100.98722,43.20768],[-100.98723,43.20768],[-100.98723,43.20769],[-100.98722,43.20768]]],[[[-100.98723,43.20775],[-100.98724,43.20776],[-100.98723,43.2078],[-100.98723,43.20775]]],[[[-100.98727,43.2079],[-100.98728,43.2079],[-100.98728,43.20799],[-100.98727,43.2079]]],[[[-100.98591,43.2059],[-100.98592,43.20591],[-100.9859,43.2059],[-100.98591,43.2059]]],[[[-100.9862,43.20604],[-100.98613,43.20602],[-100.98592,43.20591],[-100.9862,43.20604]]],[[[-100.98624,43.20605],[-100.98621,43.20605],[-100.9862,43.20604],[-100.98624,43.20605]]],[[[-100.98624,43.20605],[-100.98626,43.20607],[-100.98624,43.20606],[-100.98624,43.20605]]],[[[-100.98626,43.20607],[-100.9863,43.2061],[-100.98631,43.20611],[-100.98626,43.20607]]],[[[-100.98631,43.20611],[-100.98636,43.20614],[-100.98636,43.20615],[-100.98631,43.20611]]],[[[-100.98657,43.20627],[-100.98662,43.20627],[-100.98665,43.20628],[-100.98657,43.20627]]],[[[-100.98666,43.20628],[-100.98668,43.20629],[-100.98665,43.20628],[-100.98666,43.20628]]],[[[-100.98675,43.20633],[-100.98673,43.20632],[-100.98668,43.20629],[-100.98675,43.20633]]],[[[-100.98676,43.20634],[-100.9868,43.20638],[-100.98678,43.20637],[-100.98676,43.20634]]],[[[-100.98677,43.20716],[-100.98678,43.20727],[-100.98675,43.20718],[-100.98677,43.20716]]],[[[-100.98581,43.20831],[-100.98589,43.20835],[-100.98583,43.20833],[-100.98581,43.20831]]],[[[-100.98589,43.20833],[-100.9859,43.20835],[-100.98589,43.20834],[-100.98589,43.20833]]],[[[-100.9859,43.20835],[-100.98606,43.20842],[-100.98591,43.20836],[-100.9859,43.20835]]],[[[-100.98658,43.20871],[-100.9859,43.20832],[-100.98728,43.20799],[-100.98739,43.20815],[-100.98726,43.20827],[-100.9875,43.20842],[-100.98699,43.20877],[-100.98658,43.20871]]],[[[-100.98581,43.20589],[-100.9859,43.2059],[-100.9858,43.2059],[-100.98581,43.20589]]],[[[-100.98531,43.20661],[-100.98529,43.20665],[-100.98528,43.20665],[-100.98531,43.20661]]],[[[-100.98536,43.20675],[-100.98534,43.20673],[-100.98529,43.20666],[-100.98536,43.20675]]],[[[-100.98543,43.20676],[-100.98546,43.20678],[-100.98539,43.20675],[-100.98543,43.20676]]],[[[-100.98546,43.20678],[-100.98552,43.20679],[-100.98551,43.20679],[-100.98546,43.20678]]],[[[-100.98564,43.20682],[-100.98565,43.20689],[-100.98564,43.20683],[-100.98564,43.20682]]],[[[-100.98565,43.20689],[-100.98566,43.20696],[-100.98565,43.2069],[-100.98565,43.20689]]],[[[-100.98566,43.20696],[-100.98567,43.20707],[-100.98566,43.20707],[-100.98566,43.20696]]],[[[-100.98567,43.20707],[-100.98573,43.20713],[-100.98568,43.2071],[-100.98567,43.20707]]],[[[-100.98573,43.20713],[-100.98577,43.20716],[-100.98578,43.20717],[-100.98573,43.20713]]],[[[-100.98559,43.20753],[-100.98559,43.20756],[-100.98557,43.20754],[-100.98559,43.20753]]],[[[-100.98559,43.20756],[-100.9856,43.20757],[-100.9856,43.20759],[-100.98559,43.20756]]],[[[-100.9856,43.2076],[-100.98566,43.20764],[-100.98561,43.20763],[-100.9856,43.2076]]],[[[-100.98568,43.20763],[-100.98573,43.20765],[-100.98576,43.2077],[-100.98568,43.20763]]],[[[-100.98576,43.2077],[-100.98577,43.20771],[-100.98576,43.20771],[-100.98576,43.2077]]],[[[-100.98577,43.20771],[-100.9858,43.20772],[-100.98584,43.20775],[-100.98577,43.20771]]],[[[-100.98573,43.20809],[-100.98568,43.20797],[-100.98568,43.20793],[-100.98573,43.20809]]],[[[-100.98581,43.20831],[-100.98572,43.20815],[-100.98573,43.20809],[-100.98581,43.20831]]]]},"properties":{"fire_id":"ufid:2023-SDRBA-000018","source_collection":"history-2023","source_objectid":20209,"incident_name":"Lucky Strike","mapped_acres":8.0,"mapped_acres_source":"poly_GISAcres","gis_acres":8.0,"auto_acres":7.89819200642593,"reported_acres":8.0,"percent_contained":null,"state":"SD","state_wfigs":"US-SD","county":"Todd","discovery_time_utc":"2023-07-19T22:45:00Z","perimeter_time_utc":"2023-08-27T14:43:11Z","perimeter_edit_time_utc":"2023-08-27T14:43:11Z","incident_modified_time_utc":"2023-07-20T15:57:37Z","containment_time_utc":null,"control_time_utc":null,"fire_out_time_utc":"2023-07-21T21:30:00Z","fire_cause":"Natural","fire_cause_general":"Natural","map_method":"Hand Sketch","source_dataset":"FFP","unique_fire_identifier":"2023-SDRBA-000018","irwin_id":"{16205E12-62BA-4E65-A137-0D35E0D2936A}","global_id":"2bfeb31d-8739-4b45-9aed-27563a8ae317"}},{"type":"Feature","geometry":{"type":"MultiPolygon","coordinates":[[[[-100.98404,43.21119],[-100.98406,43.21126],[-100.98403,43.21124],[-100.98404,43.21119]]],[[[-100.98416,43.21074],[-100.98404,43.21119],[-100.98392,43.21105],[-100.98416,43.21074]]],[[[-100.98419,43.21064],[-100.98418,43.21071],[-100.98416,43.21074],[-100.98419,43.21064]]],[[[-100.98421,43.21022],[-100.98426,43.21035],[-100.98419,43.21064],[-100.98421,43.21022]]],[[[-100.98431,43.20839],[-100.98434,43.20842],[-100.98423,43.20841],[-100.98431,43.20839]]],[[[-100.98422,43.20838],[-100.98423,43.20841],[-100.98418,43.2084],[-100.98422,43.20838]]],[[[-100.98266,43.20766],[-100.98277,43.20795],[-100.98364,43.20812],[-100.98385,43.20842],[-100.98418,43.2084],[-100.9842,43.20865],[-100.98405,43.20876],[-100.98441,43.20893],[-100.98454,43.20922],[-100.98466,43.20887],[-100.9852,43.20895],[-100.98527,43.2091],[-100.98516,43.2094],[-100.9856,43.20945],[-100.98584,43.21002],[-100.98597,43.21005],[-100.98593,43.21025],[-100.98608,43.21036],[-100.98583,43.2107],[-100.98613,43.2107],[-100.98616,43.2108],[-100.98502,43.21117],[-100.98415,43.21125],[-100.98421,43.21067],[-100.98454,43.21085],[-100.98469,43.2108],[-100.98449,43.21046],[-100.98426,43.21035],[-100.98445,43.20961],[-100.98464,43.20937],[-100.98427,43.20937],[-100.98421,43.21022],[-100.98368,43.21002],[-100.98373,43.20979],[-100.98352,43.20975],[-100.98339,43.20949],[-100.98318,43.20947],[-100.98295,43.20971],[-100.98211,43.20965],[-100.98134,43.20935],[-100.98111,43.20912],[-100.98116,43.2089],[-100.98144,43.20868],[-100.98129,43.20861],[-100.98135,43.20846],[-100.98197,43.20869],[-100.98202,43.2086],[-100.98176,43.20848],[-100.98177,43.20835],[-100.98201,43.20822],[-100.98202,43.20804],[-100.98233,43.20796],[-100.98266,43.20766]]]]},"properties":{"fire_id":"ufid:2023-SDRBA-000019","source_collection":"history-2023","source_objectid":20210,"incident_name":"0000FB 11","mapped_acres":0.1,"mapped_acres_source":"poly_GISAcres","gis_acres":0.1,"auto_acres":16.66361857358772,"reported_acres":16.6,"percent_contained":null,"state":"SD","state_wfigs":"US-SD","county":"Todd","discovery_time_utc":"2023-07-23T21:28:53Z","perimeter_time_utc":"2023-08-27T14:42:20Z","perimeter_edit_time_utc":"2023-08-27T14:42:20Z","incident_modified_time_utc":"2023-07-24T13:21:16Z","containment_time_utc":null,"control_time_utc":null,"fire_out_time_utc":"2023-07-28T21:30:00Z","fire_cause":"Natural","fire_cause_general":"Natural","map_method":"Auto-generated","source_dataset":"FFP","unique_fire_identifier":"2023-SDRBA-000019","irwin_id":"{1756DB81-8D17-4565-AF68-7BFFCD0BE963}","global_id":"f7f217ae-0a00-4a8a-95c9-c2207588cee9"}},{"type":"Feature","geometry":{"type":"Polygon","coordinates":[[[-103.63004,44.26014],[-103.63039,44.26],[-103.6304,44.26027],[-103.6301,44.26022],[-103.63004,44.26014]]]},"properties":{"fire_id":"ufid:2023-SDBKF-230522","source_collection":"history-2023","source_objectid":20215,"incident_name":"Hay Creek","mapped_acres":0.1,"mapped_acres_source":"poly_GISAcres","gis_acres":0.1,"auto_acres":0.1495241129034021,"reported_acres":0.2,"percent_contained":null,"state":"SD","state_wfigs":"US-SD","county":"Lawrence","discovery_time_utc":"2023-07-23T23:37:00Z","perimeter_time_utc":"2023-08-27T19:33:18Z","perimeter_edit_time_utc":"2023-08-27T19:33:18Z","incident_modified_time_utc":"2023-07-26T21:02:02Z","containment_time_utc":"2023-07-24T01:20:00Z","control_time_utc":"2023-07-24T02:20:00Z","fire_out_time_utc":"2023-07-26T18:55:00Z","fire_cause":"Undetermined","fire_cause_general":"Undetermined","map_method":"GPS-Walked","source_dataset":"FFP","unique_fire_identifier":"2023-SDBKF-230522","irwin_id":"{E2246E3E-5FB5-4AA2-B1F5-ED0F965A14C3}","global_id":"e9e76b5b-42d1-4e87-8a89-98c42a87d85d"}},{"type":"Feature","geometry":{"type":"Polygon","coordinates":[[[-102.83833,43.18721],[-102.83728,43.18683],[-102.83715,43.18661],[-102.83742,43.18653],[-102.83768,43.18664],[-102.83771,43.18607],[-102.8384,43.18575],[-102.83966,43.18541],[-102.84006,43.18517],[-102.84046,43.18524],[-102.84065,43.18507],[-102.8414,43.18504],[-102.84211,43.18515],[-102.84273,43.18509],[-102.8442,43.18562],[-102.84358,43.18602],[-102.84279,43.18629],[-102.84273,43.18648],[-102.8416,43.18676],[-102.84023,43.18689],[-102.83983,43.18713],[-102.83912,43.18723],[-102.83833,43.18721]]]},"properties":{"fire_id":"ufid:2023-SDPRA-000035","source_collection":"history-2023","source_objectid":20430,"incident_name":"Chev","mapped_acres":12.0,"mapped_acres_source":"poly_GISAcres","gis_acres":12.0,"auto_acres":20.5527043550653,"reported_acres":12.0,"percent_contained":null,"state":"SD","state_wfigs":"US-SD","county":"Oglala Lakota","discovery_time_utc":"2023-08-29T22:00:00Z","perimeter_time_utc":"2023-08-30T03:00:00Z","perimeter_edit_time_utc":"2023-10-16T17:18:09Z","incident_modified_time_utc":"2023-08-29T22:45:53Z","containment_time_utc":"2023-08-29T22:33:00Z","control_time_utc":"2023-08-29T22:42:00Z","fire_out_time_utc":null,"fire_cause":"Human","fire_cause_general":"Equipment and vehicle use","map_method":"Mixed Methods","source_dataset":"2023 NIFS","unique_fire_identifier":"2023-SDPRA-000035","irwin_id":"{EC42D6E6-0889-49A0-8478-584FD379BBD4}","global_id":"b4c2d652-d907-4d94-b944-f111ba52ce05"}},{"type":"Feature","geometry":{"type":"Polygon","coordinates":[[[-103.67444,43.78181],[-103.67449,43.78191],[-103.67436,43.78197],[-103.67399,43.78178],[-103.67444,43.78181]]]},"properties":{"fire_id":"ufid:2023-SDSDS-230057","source_collection":"history-2023","source_objectid":20451,"incident_name":"Ruby","mapped_acres":0.21,"mapped_acres_source":"poly_GISAcres","gis_acres":0.21,"auto_acres":0.177220394757985,"reported_acres":0.21,"percent_contained":null,"state":"SD","state_wfigs":"US-SD","county":"Custer","discovery_time_utc":"2023-01-14T04:30:00Z","perimeter_time_utc":"2023-01-14T00:00:00Z","perimeter_edit_time_utc":"2023-08-30T16:11:55Z","incident_modified_time_utc":"2023-01-19T21:46:20Z","containment_time_utc":"2023-01-14T15:55:00Z","control_time_utc":"2023-01-14T17:45:00Z","fire_out_time_utc":"2023-01-19T21:07:00Z","fire_cause":"Human","fire_cause_general":null,"map_method":"Mixed Methods","source_dataset":"2023 NIFS","unique_fire_identifier":"2023-SDSDS-230057","irwin_id":"{E7018370-61A5-4E25-B380-699EC5BCB140}","global_id":"7c68f19d-59f1-44a7-81dc-b091f6d113ce"}},{"type":"Feature","geometry":{"type":"Polygon","coordinates":[[[-103.55063,44.06249],[-103.55028,44.06227],[-103.55025,44.06209],[-103.55009,44.06207],[-103.55002,44.06172],[-103.55014,44.06162],[-103.55074,44.06188],[-103.55076,44.06242],[-103.55063,44.06249]]]},"properties":{"fire_id":"ufid:2023-SDBKF-230447","source_collection":"history-2023","source_objectid":20494,"incident_name":"Empress Gulch Fire","mapped_acres":0.905874288544727,"mapped_acres_source":"poly_Acres_AutoCalc_fallback","gis_acres":null,"auto_acres":0.905874288544727,"reported_acres":0.91,"percent_contained":null,"state":"SD","state_wfigs":"US-SD","county":"Pennington","discovery_time_utc":"2023-07-02T22:59:50Z","perimeter_time_utc":null,"perimeter_edit_time_utc":"2023-08-30T22:26:20Z","incident_modified_time_utc":"2026-06-26T16:54:13Z","containment_time_utc":"2023-07-03T04:30:00Z","control_time_utc":"2023-07-03T20:30:00Z","fire_out_time_utc":"2023-07-09T19:00:00Z","fire_cause":"Natural","fire_cause_general":null,"map_method":"Mixed Methods","source_dataset":"2023 NIFS","unique_fire_identifier":"2023-SDBKF-230447","irwin_id":"{DE3C8178-14CE-474E-9ACE-6DB9C356FEE8}","global_id":"9efe2a3d-20e5-4efd-a73a-0a8d21296113"}},{"type":"Feature","geometry":{"type":"Polygon","coordinates":[[[-103.35312,43.88368],[-103.35258,43.88381],[-103.35224,43.88349],[-103.3525,43.88332],[-103.35308,43.8833],[-103.35318,43.88343],[-103.35306,43.88354],[-103.35312,43.88368]]]},"properties":{"fire_id":"ufid:2023-SDBKF-230556","source_collection":"history-2023","source_objectid":20502,"incident_name":"Battle","mapped_acres":1.0,"mapped_acres_source":"poly_GISAcres","gis_acres":1.0,"auto_acres":0.779268634273985,"reported_acres":0.78,"percent_contained":null,"state":"SD","state_wfigs":"US-SD","county":"Pennington","discovery_time_utc":"2023-07-28T19:48:00Z","perimeter_time_utc":null,"perimeter_edit_time_utc":"2023-08-30T22:52:27Z","incident_modified_time_utc":"2026-06-26T16:29:34Z","containment_time_utc":"2023-07-29T14:39:00Z","control_time_utc":"2023-07-29T16:45:00Z","fire_out_time_utc":"2023-08-01T18:00:00Z","fire_cause":"Natural","fire_cause_general":null,"map_method":"Mixed Methods","source_dataset":"2023 NIFS","unique_fire_identifier":"2023-SDBKF-230556","irwin_id":"{B7FA8D73-6D45-4620-B404-97CAF1D746CC}","global_id":"558de88c-d9a0-4743-bf34-ad24e6b3ca08"}},{"type":"Feature","geometry":{"type":"Polygon","coordinates":[[[-103.41356,43.94191],[-103.41357,43.94172],[-103.41379,43.94154],[-103.4141,43.94158],[-103.41443,43.9419],[-103.41404,43.94205],[-103.41356,43.94191]]]},"properties":{"fire_id":"ufid:2023-SDBKF-230266","source_collection":"history-2023","source_objectid":20503,"incident_name":"Beretta","mapped_acres":0.25,"mapped_acres_source":"poly_GISAcres","gis_acres":0.25,"auto_acres":0.681773379799284,"reported_acres":0.64,"percent_contained":null,"state":"SD","state_wfigs":"US-SD","county":"Pennington","discovery_time_utc":"2023-05-10T22:16:54Z","perimeter_time_utc":null,"perimeter_edit_time_utc":"2023-08-30T22:50:56Z","incident_modified_time_utc":"2026-06-26T17:24:32Z","containment_time_utc":"2023-05-11T00:06:00Z","control_time_utc":"2023-05-11T02:00:00Z","fire_out_time_utc":"2023-05-16T19:30:00Z","fire_cause":"Undetermined","fire_cause_general":null,"map_method":"GPS-Walked","source_dataset":"2023 NIFS","unique_fire_identifier":"2023-SDBKF-230266","irwin_id":"{516ED84A-C2D5-4038-8CC2-3E5F744C81D2}","global_id":"b2c164b7-2440-4e1f-adc4-d22ae8995718"}},{"type":"Feature","geometry":{"type":"Polygon","coordinates":[[[-103.57709,43.95915],[-103.57739,43.95909],[-103.5773,43.95921],[-103.57709,43.95915]]]},"properties":{"fire_id":"ufid:2023-SDSDS-230138","source_collection":"history-2023","source_objectid":20514,"incident_name":"Little Tiger","mapped_acres":0.25,"mapped_acres_source":"poly_GISAcres","gis_acres":0.25,"auto_acres":0.09796511459569929,"reported_acres":0.1,"percent_contained":null,"state":"SD","state_wfigs":"US-SD","county":"Pennington","discovery_time_utc":"2023-03-20T20:57:00Z","perimeter_time_utc":"2023-08-31T17:26:45Z","perimeter_edit_time_utc":"2023-08-31T17:26:45Z","incident_modified_time_utc":"2023-03-29T21:05:50Z","containment_time_utc":"2023-03-20T22:30:00Z","control_time_utc":"2023-03-22T18:44:00Z","fire_out_time_utc":"2023-03-29T21:01:00Z","fire_cause":"Human","fire_cause_general":"Debris and open burning","map_method":"Mixed Methods","source_dataset":"FFP","unique_fire_identifier":"2023-SDSDS-230138","irwin_id":"{7EF9B1E0-276D-4A56-AB2D-B12E007308B3}","global_id":"9b65d4a8-e15a-4c5c-9db1-9e6b6a248136"}},{"type":"Feature","geometry":{"type":"MultiPolygon","coordinates":[[[[-103.37882,43.96442],[-103.37865,43.96464],[-103.37907,43.96487],[-103.37902,43.96497],[-103.37848,43.96471],[-103.37826,43.96474],[-103.3782,43.9645],[-103.37882,43.96442]]],[[[-103.37909,43.96487],[-103.37907,43.96487],[-103.3791,43.9648],[-103.37909,43.96487]]]]},"properties":{"fire_id":"ufid:2023-SDSDS-230129","source_collection":"history-2023","source_objectid":20515,"incident_name":"Storm Mountain","mapped_acres":0.25,"mapped_acres_source":"poly_GISAcres","gis_acres":0.25,"auto_acres":0.4366231803333064,"reported_acres":0.25,"percent_contained":null,"state":"SD","state_wfigs":"US-SD","county":"Pennington","discovery_time_utc":"2023-03-12T02:41:00Z","perimeter_time_utc":"2023-08-31T17:05:21Z","perimeter_edit_time_utc":"2023-08-31T17:05:22Z","incident_modified_time_utc":"2023-03-16T15:29:19Z","containment_time_utc":"2023-03-13T16:30:00Z","control_time_utc":"2023-03-13T16:30:00Z","fire_out_time_utc":"2023-03-16T15:27:00Z","fire_cause":"Human","fire_cause_general":"Debris and open burning","map_method":"Hand Sketch","source_dataset":"FFP","unique_fire_identifier":"2023-SDSDS-230129","irwin_id":"{AB12A0BF-2487-4F76-BF08-394EC755F74E}","global_id":"3a3b5beb-3352-4ffe-9d59-4115643a409c"}},{"type":"Feature","geometry":{"type":"Polygon","coordinates":[[[-103.57674,44.09628],[-103.57666,44.0964],[-103.57641,44.09631],[-103.5762,44.09661],[-103.57604,44.09664],[-103.57493,44.09598],[-103.57559,44.09582],[-103.57617,44.09585],[-103.57674,44.09628]]]},"properties":{"fire_id":"ufid:2023-SDSDS-230107","source_collection":"history-2023","source_objectid":20516,"incident_name":"Sunnyside","mapped_acres":2.0,"mapped_acres_source":"poly_GISAcres","gis_acres":2.0,"auto_acres":1.740944467365603,"reported_acres":1.7,"percent_contained":null,"state":"SD","state_wfigs":"US-SD","county":"Pennington","discovery_time_utc":"2023-02-26T23:38:00Z","perimeter_time_utc":"2023-08-31T17:03:47Z","perimeter_edit_time_utc":"2023-08-31T17:03:48Z","incident_modified_time_utc":"2023-03-03T22:25:03Z","containment_time_utc":"2023-02-27T22:24:00Z","control_time_utc":"2023-03-02T22:32:00Z","fire_out_time_utc":"2023-03-03T22:15:00Z","fire_cause":"Human","fire_cause_general":"Debris and open burning","map_method":"Mixed Methods","source_dataset":"FFP","unique_fire_identifier":"2023-SDSDS-230107","irwin_id":"{CB3E4785-1641-44CA-A25C-8EB71CA94519}","global_id":"0a868ee5-629d-486b-9086-9392c21dfaa8"}},{"type":"Feature","geometry":{"type":"Polygon","coordinates":[[[-103.44218,44.12391],[-103.44271,44.12387],[-103.44286,44.12399],[-103.44279,44.12424],[-103.44212,44.12415],[-103.44218,44.12391]]]},"properties":{"fire_id":"ufid:2023-SDSDS-230055","source_collection":"history-2023","source_objectid":20517,"incident_name":"Bogus","mapped_acres":0.1,"mapped_acres_source":"poly_GISAcres","gis_acres":0.1,"auto_acres":0.5440976338744029,"reported_acres":0.56,"percent_contained":null,"state":"SD","state_wfigs":"US-SD","county":"Pennington","discovery_time_utc":"2023-01-09T22:05:00Z","perimeter_time_utc":"2023-08-31T17:20:01Z","perimeter_edit_time_utc":"2023-08-31T17:20:01Z","incident_modified_time_utc":"2023-01-18T22:43:35Z","containment_time_utc":"2023-01-10T19:18:00Z","control_time_utc":"2023-01-10T19:18:00Z","fire_out_time_utc":"2023-01-18T22:41:00Z","fire_cause":"Human","fire_cause_general":"Debris and open burning","map_method":"Hand Sketch","source_dataset":"FFP","unique_fire_identifier":"2023-SDSDS-230055","irwin_id":"{E94DF974-938C-46A4-AC25-920620E259E5}","global_id":"ef1abe4d-45ca-4d47-a6f6-13ab93f5a48b"}},{"type":"Feature","geometry":{"type":"Polygon","coordinates":[[[-103.39379,43.86313],[-103.39401,43.86317],[-103.39408,43.86343],[-103.3938,43.86342],[-103.39367,43.86325],[-103.39379,43.86313]]]},"properties":{"fire_id":"ufid:2023-SDSDS-230130","source_collection":"history-2023","source_objectid":20518,"incident_name":"Playhouse","mapped_acres":0.5,"mapped_acres_source":"poly_GISAcres","gis_acres":0.5,"auto_acres":0.224361244524767,"reported_acres":0.22,"percent_contained":null,"state":"SD","state_wfigs":"US-SD","county":"Pennington","discovery_time_utc":"2023-03-14T22:00:00Z","perimeter_time_utc":"2023-08-31T17:28:06Z","perimeter_edit_time_utc":"2023-08-31T17:28:06Z","incident_modified_time_utc":"2023-03-22T17:44:06Z","containment_time_utc":"2023-03-14T22:40:00Z","control_time_utc":"2023-03-16T21:42:00Z","fire_out_time_utc":"2023-03-22T17:36:00Z","fire_cause":"Human","fire_cause_general":"Debris and open burning","map_method":"Mixed Methods","source_dataset":"FFP","unique_fire_identifier":"2023-SDSDS-230130","irwin_id":"{C9BBF05E-61E5-47E6-80EF-15157D385E2C}","global_id":"2b4f6ba7-19ec-4426-abe1-2dd80a121c2f"}},{"type":"Feature","geometry":{"type":"Polygon","coordinates":[[[-103.33606,43.97006],[-103.3364,43.97019],[-103.33602,43.97028],[-103.33583,43.97012],[-103.33606,43.97006]]]},"properties":{"fire_id":"ufid:2023-SDSDS-230093","source_collection":"history-2023","source_objectid":20519,"incident_name":"Rush Mart","mapped_acres":0.3,"mapped_acres_source":"poly_GISAcres","gis_acres":0.3,"auto_acres":0.14595645371014732,"reported_acres":0.3,"percent_contained":null,"state":"SD","state_wfigs":"US-SD","county":"Pennington","discovery_time_utc":"2023-02-16T16:47:00Z","perimeter_time_utc":"2023-08-31T17:19:06Z","perimeter_edit_time_utc":"2023-08-31T17:19:06Z","incident_modified_time_utc":"2023-07-28T17:21:39Z","containment_time_utc":"2023-02-16T18:00:00Z","control_time_utc":"2023-02-16T19:00:00Z","fire_out_time_utc":"2023-02-24T20:50:00Z","fire_cause":"Human","fire_cause_general":"Power generation / transmission / distribution","map_method":"Hand Sketch","source_dataset":"FFP","unique_fire_identifier":"2023-SDSDS-230093","irwin_id":"{34DD7986-0B5C-4B08-9720-0021D7A44087}","global_id":"01654084-4c01-46f8-bcac-beadb7c89357"}},{"type":"Feature","geometry":{"type":"Polygon","coordinates":[[[-103.35604,44.15282],[-103.35593,44.15281],[-103.35596,44.1527],[-103.35604,44.15282]]]},"properties":{"fire_id":"ufid:2023-SDSDS-230071","source_collection":"history-2023","source_objectid":20520,"incident_name":"Flicker","mapped_acres":0.1,"mapped_acres_source":"poly_GISAcres","gis_acres":0.1,"auto_acres":0.019098016349127143,"reported_acres":0.1,"percent_contained":null,"state":"SD","state_wfigs":"US-SD","county":"Meade","discovery_time_utc":"2023-01-26T22:44:00Z","perimeter_time_utc":"2023-08-31T17:08:27Z","perimeter_edit_time_utc":"2023-08-31T17:08:28Z","incident_modified_time_utc":"2023-07-28T17:20:54Z","containment_time_utc":"2023-01-26T22:50:00Z","control_time_utc":"2023-01-27T20:29:00Z","fire_out_time_utc":"2023-02-24T21:18:00Z","fire_cause":"Human","fire_cause_general":"Debris and open burning","map_method":"Mixed Methods","source_dataset":"FFP","unique_fire_identifier":"2023-SDSDS-230071","irwin_id":"{1663E442-A4A7-4258-8756-51CF52C32169}","global_id":"d0126209-2b55-410f-b524-f2494e27a15a"}},{"type":"Feature","geometry":{"type":"Polygon","coordinates":[[[-103.31193,43.90914],[-103.31197,43.90915],[-103.31184,43.90927],[-103.31193,43.90914]]]},"properties":{"fire_id":"ufid:2023-SDSDS-230132","source_collection":"history-2023","source_objectid":20524,"incident_name":"Pine Grove","mapped_acres":0.1,"mapped_acres_source":"poly_GISAcres","gis_acres":0.1,"auto_acres":0.011352734744644962,"reported_acres":0.1,"percent_contained":null,"state":"SD","state_wfigs":"US-SD","county":"Pennington","discovery_time_utc":"2023-03-15T22:25:00Z","perimeter_time_utc":"2023-08-31T17:33:10Z","perimeter_edit_time_utc":"2023-08-31T17:33:10Z","incident_modified_time_utc":"2023-03-22T16:24:41Z","containment_time_utc":"2023-03-16T00:01:00Z","control_time_utc":"2023-03-16T16:31:00Z","fire_out_time_utc":"2023-03-22T16:21:00Z","fire_cause":"Human","fire_cause_general":"Debris and open burning","map_method":"Auto-generated","source_dataset":"FFP","unique_fire_identifier":"2023-SDSDS-230132","irwin_id":"{665FD07F-6E31-44BC-9E5E-5523174F97FA}","global_id":"8463f56f-8d8f-40a9-bdd3-11cee2b0a0b7"}},{"type":"Feature","geometry":{"type":"Polygon","coordinates":[[[-103.3038,43.91642],[-103.30349,43.91615],[-103.30363,43.916],[-103.3041,43.91616],[-103.30404,43.91634],[-103.3038,43.91642]],[[-103.30386,43.91627],[-103.30385,43.91632],[-103.30389,43.91635],[-103.30386,43.91627]]]},"properties":{"fire_id":"ufid:2023-SDSDS-230368","source_collection":"history-2023","source_objectid":20525,"incident_name":"Stone Ridge","mapped_acres":0.1,"mapped_acres_source":"poly_GISAcres","gis_acres":0.1,"auto_acres":0.354628378957887,"reported_acres":0.35,"percent_contained":null,"state":"SD","state_wfigs":"US-SD","county":"Pennington","discovery_time_utc":"2023-06-06T20:51:00Z","perimeter_time_utc":"2023-08-31T17:32:13Z","perimeter_edit_time_utc":"2023-08-31T17:32:13Z","incident_modified_time_utc":"2023-07-28T17:46:23Z","containment_time_utc":null,"control_time_utc":null,"fire_out_time_utc":"2023-06-12T20:50:00Z","fire_cause":"Human","fire_cause_general":"Other causes","map_method":"GPS-Walked","source_dataset":"FFP","unique_fire_identifier":"2023-SDSDS-230368","irwin_id":"{ADE1BE52-33DA-440E-93A3-D8084063351B}","global_id":"50b5ec05-864e-4c93-8b53-c3af4197ef66"}},{"type":"Feature","geometry":{"type":"Polygon","coordinates":[[[-100.02776,44.22371],[-100.02688,44.22272],[-100.02654,44.2229],[-100.02673,44.22357],[-100.02615,44.22297],[-100.02597,44.22306],[-100.02574,44.22298],[-100.02547,44.2236],[-100.02532,44.22353],[-100.02524,44.22309],[-100.02546,44.22237],[-100.02582,44.22178],[-100.02832,44.21966],[-100.02793,44.21947],[-100.02785,44.21922],[-100.02889,44.21867],[-100.02861,44.21844],[-100.02865,44.21832],[-100.02927,44.21822],[-100.03097,44.21845],[-100.03134,44.21833],[-100.03288,44.21829],[-100.03326,44.21851],[-100.03328,44.21863],[-100.03259,44.21909],[-100.03165,44.2194],[-100.03123,44.21909],[-100.03114,44.2195],[-100.03136,44.21977],[-100.03128,44.2199],[-100.03118,44.21973],[-100.03105,44.21976],[-100.03124,44.22042],[-100.03171,44.22117],[-100.03174,44.22166],[-100.03159,44.22159],[-100.03206,44.22268],[-100.03208,44.22312],[-100.03237,44.22334],[-100.03229,44.22347],[-100.03212,44.22339],[-100.03217,44.22372],[-100.03207,44.22388],[-100.02852,44.22381],[-100.02866,44.22374],[-100.02829,44.2236],[-100.02776,44.22371]]]},"properties":{"fire_id":"ufid:2023-SDSTX-230697","source_collection":"history-2023","source_objectid":20614,"incident_name":"Rowse","mapped_acres":10.0,"mapped_acres_source":"poly_GISAcres","gis_acres":10.0,"auto_acres":58.6096402538015,"reported_acres":58.6,"percent_contained":null,"state":"SD","state_wfigs":"US-SD","county":"Stanley","discovery_time_utc":"2023-09-01T16:43:00Z","perimeter_time_utc":"2023-09-01T21:43:00Z","perimeter_edit_time_utc":"2023-10-16T17:16:38Z","incident_modified_time_utc":"2026-06-26T15:57:22Z","containment_time_utc":"2023-09-01T21:28:00Z","control_time_utc":null,"fire_out_time_utc":null,"fire_cause":"Undetermined","fire_cause_general":null,"map_method":"Mixed Methods","source_dataset":"2023 NIFS","unique_fire_identifier":"2023-SDSTX-230697","irwin_id":"{38F653AF-892E-4DC9-B6F2-AE961A9C424B}","global_id":"bd48e951-3a0b-4b19-97a1-2cc2c12aeb07"}},{"type":"Feature","geometry":{"type":"Polygon","coordinates":[[[-103.54311,44.33361],[-103.54342,44.3334],[-103.54364,44.33345],[-103.54333,44.33366],[-103.54311,44.33361]]]},"properties":{"fire_id":"ufid:2023-SDBKF-23230686","source_collection":"history-2023","source_objectid":20934,"incident_name":"Beaver","mapped_acres":0.1,"mapped_acres_source":"poly_GISAcres","gis_acres":0.1,"auto_acres":0.12169399483882339,"reported_acres":0.1,"percent_contained":null,"state":"SD","state_wfigs":"US-SD","county":"Meade","discovery_time_utc":"2023-08-27T21:07:13Z","perimeter_time_utc":"2026-02-02T21:40:44Z","perimeter_edit_time_utc":null,"incident_modified_time_utc":"2023-09-01T17:39:27Z","containment_time_utc":"2023-08-27T22:34:00Z","control_time_utc":"2023-08-27T23:49:00Z","fire_out_time_utc":"2023-09-01T17:31:00Z","fire_cause":"Natural","fire_cause_general":"Natural","map_method":"Auto-generated","source_dataset":"FFP","unique_fire_identifier":"2023-SDBKF-23230686","irwin_id":"{A0CE5561-5D56-49C8-87AE-56B0A9265D4B}","global_id":"8bae7a10-9dc3-4284-b03b-5becdba041ae"}},{"type":"Feature","geometry":{"type":"Polygon","coordinates":[[[-103.98242,44.48235],[-103.98244,44.4824],[-103.98238,44.48236],[-103.98242,44.48235]]]},"properties":{"fire_id":"ufid:2023-SDBKF-230739","source_collection":"history-2023","source_objectid":21008,"incident_name":"Crow Creek","mapped_acres":0.1,"mapped_acres_source":"poly_GISAcres","gis_acres":0.1,"auto_acres":0.005581292064558152,"reported_acres":0.1,"percent_contained":null,"state":"SD","state_wfigs":"US-SD","county":"Lawrence","discovery_time_utc":"2023-09-14T04:12:43Z","perimeter_time_utc":"2023-09-14T20:03:12Z","perimeter_edit_time_utc":"2023-09-14T20:03:12Z","incident_modified_time_utc":"2026-06-26T15:50:34Z","containment_time_utc":"2023-09-14T16:55:00Z","control_time_utc":"2023-09-14T17:15:00Z","fire_out_time_utc":"2023-09-14T17:50:00Z","fire_cause":"Natural","fire_cause_general":null,"map_method":"Auto-generated","source_dataset":"Decertified","unique_fire_identifier":"2023-SDBKF-230739","irwin_id":"{23719C39-CF19-4FC1-A16E-C54B65D3891B}","global_id":"c53110c2-0431-4eb9-b049-088581ab1674"}},{"type":"Feature","geometry":{"type":"Polygon","coordinates":[[[-103.48327,44.19746],[-103.48304,44.19758],[-103.48278,44.19734],[-103.48279,44.19707],[-103.48266,44.19706],[-103.48256,44.19673],[-103.48272,44.19654],[-103.483,44.19672],[-103.48301,44.19699],[-103.48327,44.19746]]]},"properties":{"fire_id":"ufid:2023-SDBKF-23230710","source_collection":"history-2023","source_objectid":21048,"incident_name":"Nemo Ridge","mapped_acres":1.0,"mapped_acres_source":"poly_GISAcres","gis_acres":1.0,"auto_acres":0.768855847378348,"reported_acres":0.77,"percent_contained":null,"state":"SD","state_wfigs":"US-SD","county":"Lawrence","discovery_time_utc":"2023-09-04T23:48:00Z","perimeter_time_utc":"2026-02-02T21:47:56Z","perimeter_edit_time_utc":null,"incident_modified_time_utc":"2023-09-14T20:53:22Z","containment_time_utc":"2023-09-05T17:00:00Z","control_time_utc":"2023-09-05T22:20:00Z","fire_out_time_utc":"2023-09-14T20:50:00Z","fire_cause":"Natural","fire_cause_general":"Natural","map_method":"Auto-generated","source_dataset":"FFP","unique_fire_identifier":"2023-SDBKF-23230710","irwin_id":"{74626A11-EC21-478D-9ACD-852A9DE3B5F0}","global_id":"4e366d52-281b-4aa5-a6ac-31ba2b47ffe0"}},{"type":"Feature","geometry":{"type":"MultiPolygon","coordinates":[[[[-102.0616,43.66813],[-102.05754,43.66647],[-102.05752,43.66644],[-102.0616,43.66813]]],[[[-102.062,43.66816],[-102.06276,43.66854],[-102.06319,43.66898],[-102.06445,43.66912],[-102.06445,43.66971],[-102.06388,43.66955],[-102.06389,43.6697],[-102.06448,43.66988],[-102.0649,43.67032],[-102.06527,43.67051],[-102.06647,43.67081],[-102.06742,43.67122],[-102.06805,43.67167],[-102.068,43.67221],[-102.06809,43.67233],[-102.06839,43.67249],[-102.0688,43.67238],[-102.06898,43.67249],[-102.06937,43.6731],[-102.06998,43.67345],[-102.07007,43.67388],[-102.0703,43.67392],[-102.07034,43.67417],[-102.07082,43.67454],[-102.07047,43.67452],[-102.06956,43.67396],[-102.06875,43.67375],[-102.06841,43.67337],[-102.06821,43.67338],[-102.06796,43.67316],[-102.06703,43.6728],[-102.0667,43.67247],[-102.06556,43.67182],[-102.06539,43.67192],[-102.06488,43.67173],[-102.0648,43.67189],[-102.06393,43.672],[-102.06359,43.67226],[-102.0623,43.67219],[-102.0618,43.67254],[-102.0612,43.67249],[-102.06046,43.67283],[-102.05994,43.67264],[-102.06,43.67257],[-102.05985,43.67246],[-102.05893,43.67259],[-102.05887,43.67243],[-102.05752,43.67228],[-102.05683,43.67199],[-102.05687,43.67177],[-102.05617,43.67173],[-102.05618,43.6716],[-102.05638,43.67157],[-102.05655,43.67118],[-102.0566,43.67141],[-102.05692,43.67156],[-102.05718,43.67129],[-102.05765,43.67126],[-102.05793,43.67138],[-102.05811,43.67127],[-102.05831,43.67133],[-102.0585,43.67114],[-102.05929,43.6712],[-102.05921,43.67097],[-102.05961,43.67083],[-102.05952,43.67078],[-102.05966,43.67046],[-102.05948,43.67038],[-102.05963,43.67028],[-102.05937,43.66994],[-102.05972,43.66978],[-102.05973,43.66953],[-102.05959,43.66935],[-102.06005,43.66819],[-102.0601,43.66831],[-102.06148,43.66812],[-102.061965,43.668279],[-102.06162,43.66813],[-102.062,43.66816]]]]},"properties":{"fire_id":"ufid:2023-SDPRA-000040","source_collection":"history-2023","source_objectid":21204,"incident_name":"Thounder","mapped_acres":65.0,"mapped_acres_source":"poly_GISAcres","gis_acres":65.0,"auto_acres":66.06644049753702,"reported_acres":65.0,"percent_contained":null,"state":"SD","state_wfigs":"US-SD","county":"Jackson","discovery_time_utc":"2023-09-01T18:09:00Z","perimeter_time_utc":"2023-09-22T19:15:59Z","perimeter_edit_time_utc":"2023-09-22T19:16:00Z","incident_modified_time_utc":"2023-09-01T22:44:01Z","containment_time_utc":"2023-09-01T19:43:00Z","control_time_utc":"2023-09-01T20:43:00Z","fire_out_time_utc":"2023-09-01T22:43:00Z","fire_cause":"Undetermined","fire_cause_general":"Undetermined","map_method":"Auto-generated","source_dataset":"FFP","unique_fire_identifier":"2023-SDPRA-000040","irwin_id":"{6C83BE79-7076-4DE5-AFB7-1D26F26701C5}","global_id":"46e29537-5baf-4d23-9dd7-e681ef66f545"}},{"type":"Feature","geometry":{"type":"MultiPolygon","coordinates":[[[[-103.91511,43.86484],[-103.91509,43.86485],[-103.91511,43.86482],[-103.91511,43.86484]]],[[[-103.91676,43.86464],[-103.91677,43.86528],[-103.91703,43.86554],[-103.91747,43.86543],[-103.91788,43.86559],[-103.91821,43.86643],[-103.9176,43.86715],[-103.91698,43.86734],[-103.91653,43.86781],[-103.91592,43.86793],[-103.91479,43.86791],[-103.91435,43.86777],[-103.91414,43.8674],[-103.91417,43.86712],[-103.91394,43.86695],[-103.91327,43.86703],[-103.91307,43.86686],[-103.91305,43.86645],[-103.91355,43.86629],[-103.91335,43.86592],[-103.91343,43.86535],[-103.9143,43.86485],[-103.91507,43.86488],[-103.91599,43.86459],[-103.91676,43.86464]]]]},"properties":{"fire_id":"ufid:2023-SDBKF-23230716","source_collection":"history-2023","source_objectid":21936,"incident_name":"Wildcat","mapped_acres":26.539162893267083,"mapped_acres_source":"poly_Acres_AutoCalc_fallback","gis_acres":null,"auto_acres":26.539162893267083,"reported_acres":26.54,"percent_contained":null,"state":"SD","state_wfigs":"US-SD","county":"Pennington","discovery_time_utc":"2023-09-06T20:13:00Z","perimeter_time_utc":"2026-02-02T21:53:15Z","perimeter_edit_time_utc":null,"incident_modified_time_utc":"2023-09-14T21:01:18Z","containment_time_utc":"2023-09-07T21:20:00Z","control_time_utc":"2023-09-09T16:16:00Z","fire_out_time_utc":"2023-09-14T20:00:00Z","fire_cause":"Natural","fire_cause_general":"Natural","map_method":"Mixed Methods","source_dataset":"FFP","unique_fire_identifier":"2023-SDBKF-23230716","irwin_id":"{28CA5779-11CF-44E8-AC82-303A6D5A8AAA}","global_id":"64fc9cee-556a-4c38-917c-06a5a8190acd"}},{"type":"Feature","geometry":{"type":"Polygon","coordinates":[[[-100.50176,44.89403],[-100.50222,44.89414],[-100.50231,44.89445],[-100.50269,44.8947],[-100.50293,44.89526],[-100.50282,44.89535],[-100.50255,44.895],[-100.50252,44.89517],[-100.50291,44.89585],[-100.50265,44.89596],[-100.50285,44.89659],[-100.50379,44.89785],[-100.50462,44.89939],[-100.50412,44.89991],[-100.50321,44.8996],[-100.50311,44.89939],[-100.50198,44.8986],[-100.50144,44.89796],[-100.50114,44.89686],[-100.50078,44.89698],[-100.50034,44.89768],[-100.50066,44.898],[-100.50103,44.89804],[-100.5013,44.89832],[-100.50142,44.89875],[-100.50168,44.89901],[-100.5025,44.90048],[-100.50241,44.90075],[-100.50251,44.90093],[-100.50236,44.90108],[-100.50247,44.90134],[-100.50203,44.90135],[-100.50177,44.90178],[-100.50197,44.90212],[-100.50202,44.90273],[-100.50179,44.90293],[-100.50123,44.90286],[-100.50117,44.90296],[-100.50073,44.90275],[-100.50071,44.90248],[-100.50036,44.90221],[-100.4993,44.90191],[-100.49931,44.90164],[-100.49894,44.90135],[-100.49906,44.90115],[-100.49863,44.90018],[-100.49861,44.89958],[-100.4984,44.89887],[-100.49857,44.89863],[-100.49854,44.89845],[-100.49777,44.89855],[-100.49749,44.89815],[-100.49775,44.8977],[-100.49802,44.89758],[-100.49822,44.89764],[-100.49814,44.89742],[-100.49856,44.89686],[-100.49843,44.89595],[-100.49861,44.89564],[-100.4994,44.89569],[-100.50004,44.89511],[-100.50033,44.89461],[-100.50176,44.89403]]]},"properties":{"fire_id":"ufid:2023-SDCRA-000041","source_collection":"history-2023","source_objectid":23182,"incident_name":"RED ONE 2","mapped_acres":1.0,"mapped_acres_source":"poly_GISAcres","gis_acres":1.0,"auto_acres":69.3033077186774,"reported_acres":null,"percent_contained":null,"state":"SD","state_wfigs":"US-SD","county":"Dewey","discovery_time_utc":"2023-08-31T22:17:00Z","perimeter_time_utc":"2023-09-01T03:17:00Z","perimeter_edit_time_utc":"2023-12-11T18:54:25Z","incident_modified_time_utc":"2023-09-01T01:24:49Z","containment_time_utc":null,"control_time_utc":null,"fire_out_time_utc":null,"fire_cause":null,"fire_cause_general":null,"map_method":"GPS-Walked/Driven","source_dataset":"2023 NIFS","unique_fire_identifier":"2023-SDCRA-000041","irwin_id":"{253CF352-3792-44CA-B752-772D1D543B0D}","global_id":"4e44fe15-d4d8-4218-af6b-f94ba77cd560"}},{"type":"Feature","geometry":{"type":"Polygon","coordinates":[[[-101.16383,44.82167],[-101.16438,44.82153],[-101.16454,44.82163],[-101.16442,44.82174],[-101.16383,44.82167]]]},"properties":{"fire_id":"ufid:2023-SDCRA-000034","source_collection":"history-2023","source_objectid":23192,"incident_name":"COUNTY","mapped_acres":1.0,"mapped_acres_source":"poly_GISAcres","gis_acres":1.0,"auto_acres":0.161910974251939,"reported_acres":null,"percent_contained":null,"state":"SD","state_wfigs":"US-SD","county":"Ziebach","discovery_time_utc":"2023-08-02T18:47:00Z","perimeter_time_utc":"2023-08-02T23:47:00Z","perimeter_edit_time_utc":"2023-12-11T22:02:13Z","incident_modified_time_utc":"2023-08-02T20:26:07Z","containment_time_utc":null,"control_time_utc":null,"fire_out_time_utc":null,"fire_cause":null,"fire_cause_general":null,"map_method":"Hand Sketch","source_dataset":"2023 NIFS","unique_fire_identifier":"2023-SDCRA-000034","irwin_id":"{E445A107-9935-4224-BE29-DCA6F67ABC85}","global_id":"a0f89e68-443e-43a4-ae2d-dd6a7da2a68d"}},{"type":"Feature","geometry":{"type":"Polygon","coordinates":[[[-101.54217,44.96047],[-101.54262,44.96082],[-101.54262,44.96163],[-101.54247,44.9621],[-101.54346,44.96196],[-101.54448,44.96203],[-101.54522,44.96189],[-101.54638,44.96199],[-101.54651,44.96222],[-101.54607,44.9624],[-101.54214,44.96237],[-101.54203,44.96223],[-101.54203,44.96065],[-101.54217,44.96047]]]},"properties":{"fire_id":"ufid:2023-SDCRA-000028","source_collection":"history-2023","source_objectid":23213,"incident_name":"8 BALES","mapped_acres":5.7,"mapped_acres_source":"poly_GISAcres","gis_acres":5.7,"auto_acres":5.70427866439494,"reported_acres":null,"percent_contained":null,"state":"SD","state_wfigs":"US-SD","county":"Ziebach","discovery_time_utc":"2023-07-09T22:45:00Z","perimeter_time_utc":"2023-12-12T17:32:28Z","perimeter_edit_time_utc":"2023-12-12T17:35:51Z","incident_modified_time_utc":"2023-07-10T13:26:36Z","containment_time_utc":null,"control_time_utc":null,"fire_out_time_utc":null,"fire_cause":null,"fire_cause_general":null,"map_method":"GPS-Walked","source_dataset":"2023 NIFS","unique_fire_identifier":"2023-SDCRA-000028","irwin_id":"{5CFEF4FE-0BB9-41B0-A312-AAB5A1A0A8A8}","global_id":"a55a050b-a1e7-49b5-a3cd-adbe3150c6e6"}},{"type":"Feature","geometry":{"type":"Polygon","coordinates":[[[-103.71679,44.00034],[-103.71677,44.00021],[-103.71748,44.00005],[-103.71782,44.00007],[-103.71801,44.00025],[-103.71768,44.00043],[-103.71797,44.00062],[-103.71763,44.00065],[-103.71745,44.0005],[-103.71753,44.00062],[-103.7174,44.00069],[-103.71679,44.00034]]]},"properties":{"fire_id":"ufid:2023-SDSDS-230338","source_collection":"history-2023","source_objectid":23278,"incident_name":"Leisure Hills","mapped_acres":1.13819281070748,"mapped_acres_source":"poly_Acres_AutoCalc_fallback","gis_acres":null,"auto_acres":1.13819281070748,"reported_acres":1.5,"percent_contained":null,"state":"SD","state_wfigs":"US-SD","county":"Pennington","discovery_time_utc":"2023-05-27T18:44:00Z","perimeter_time_utc":null,"perimeter_edit_time_utc":"2023-12-14T22:08:32Z","incident_modified_time_utc":"2026-06-26T17:09:29Z","containment_time_utc":"2023-05-28T16:00:00Z","control_time_utc":"2023-05-28T17:00:00Z","fire_out_time_utc":"2023-06-05T20:58:00Z","fire_cause":"Natural","fire_cause_general":null,"map_method":"Mixed Methods","source_dataset":"2023 NIFS","unique_fire_identifier":"2023-SDSDS-230338","irwin_id":"{00F463D6-E3F6-4EF5-9EFA-FA59F219C548}","global_id":"688892cc-bccd-4921-a54f-78d99eca5dff"}},{"type":"Feature","geometry":{"type":"MultiPolygon","coordinates":[[[[-102.74837,44.28461],[-102.74908,44.2845],[-102.74918,44.28434],[-102.74833,44.28282],[-102.74832,44.28242],[-102.74794,44.28188],[-102.74802,44.28157],[-102.74835,44.28143],[-102.74835,44.28108],[-102.74706,44.27917],[-102.7442,44.2736],[-102.74227,44.27073],[-102.74384,44.27183],[-102.74454,44.27162],[-102.74604,44.27184],[-102.74649,44.27242],[-102.74835,44.27635],[-102.74836,44.27668],[-102.74853,44.27675],[-102.7485,44.27698],[-102.74909,44.27841],[-102.74951,44.28205],[-102.74934,44.28438],[-102.74946,44.28457],[-102.74837,44.28461]]],[[[-102.74831,44.28454],[-102.74834,44.28457],[-102.74831,44.28457],[-102.74831,44.28454]]]]},"properties":{"fire_id":"ufid:2023-SDMDX-230835","source_collection":"history-2023","source_objectid":23677,"incident_name":"Curlew","mapped_acres":59.4,"mapped_acres_source":"poly_GISAcres","gis_acres":59.4,"auto_acres":59.43337292262733,"reported_acres":59.4,"percent_contained":null,"state":"SD","state_wfigs":"US-SD","county":"Meade","discovery_time_utc":"2023-12-12T20:22:21Z","perimeter_time_utc":"2024-01-08T21:05:33Z","perimeter_edit_time_utc":"2024-01-08T21:05:33Z","incident_modified_time_utc":"2023-12-18T19:06:36Z","containment_time_utc":null,"control_time_utc":null,"fire_out_time_utc":"2023-12-18T18:55:00Z","fire_cause":"Human","fire_cause_general":"Undetermined","map_method":"GPS-Walked/Driven","source_dataset":"FFP","unique_fire_identifier":"2023-SDMDX-230835","irwin_id":"{C538EACD-5004-4453-AA91-93BF40321F39}","global_id":"010cbb3f-ed64-4d39-8187-4dc79ac8dcc5"}},{"type":"Feature","geometry":{"type":"Polygon","coordinates":[[[-103.58319,43.74556],[-103.58305,43.74548],[-103.58314,43.74526],[-103.5833,43.74537],[-103.58319,43.74556]]]},"properties":{"fire_id":"ufid:2023-SDSDS-230837","source_collection":"history-2023","source_objectid":24898,"incident_name":"Sidney Park","mapped_acres":0.12029030790828393,"mapped_acres_source":"poly_Acres_AutoCalc_fallback","gis_acres":null,"auto_acres":0.12029030790828393,"reported_acres":0.12,"percent_contained":null,"state":"SD","state_wfigs":"US-SD","county":"Custer","discovery_time_utc":"2023-12-16T20:19:43Z","perimeter_time_utc":"2024-03-19T16:18:40Z","perimeter_edit_time_utc":"2024-03-19T16:18:40Z","incident_modified_time_utc":"2023-12-27T20:38:11Z","containment_time_utc":"2023-12-16T21:32:00Z","control_time_utc":"2023-12-16T21:32:00Z","fire_out_time_utc":"2023-12-27T20:00:00Z","fire_cause":"Human","fire_cause_general":"Fireworks","map_method":"GPS-Walked","source_dataset":"FFP","unique_fire_identifier":"2023-SDSDS-230837","irwin_id":"{906A2D11-6549-442E-9BA4-809BCFA0AE14}","global_id":"05c07f44-7aee-44c9-8e59-4cc37cb6bb63"}},{"type":"Feature","geometry":{"type":"MultiPolygon","coordinates":[[[[-100.77693,43.57667],[-100.77697,43.57663],[-100.77702,43.57667],[-100.77693,43.57667]]],[[[-100.77692,43.57669],[-100.77686,43.57667],[-100.77693,43.57667],[-100.77692,43.57669]]],[[[-100.77707,43.576753],[-100.77705,43.57691],[-100.77717,43.57688],[-100.77741,43.57731],[-100.77802,43.57753],[-100.77799,43.57768],[-100.7774,43.57783],[-100.77692,43.57776],[-100.77672,43.57748],[-100.77669,43.57706],[-100.77651,43.5767],[-100.77664,43.57645],[-100.77675,43.57665],[-100.777068,43.576749],[-100.77702,43.57667],[-100.77724,43.57667],[-100.77707,43.576753]]]]},"properties":{"fire_id":"ufid:2023-SDRBA-1693158383","source_collection":"history-2023","source_objectid":42201,"incident_name":"Pine Creek","mapped_acres":0.1,"mapped_acres_source":"poly_GISAcres","gis_acres":0.1,"auto_acres":2.0714654664140957,"reported_acres":2.1,"percent_contained":null,"state":"SD","state_wfigs":"US-SD","county":"Mellette","discovery_time_utc":"2023-08-25T11:28:00Z","perimeter_time_utc":"2023-10-03T19:12:28Z","perimeter_edit_time_utc":"2023-10-03T19:12:28Z","incident_modified_time_utc":"2023-08-26T17:59:25Z","containment_time_utc":null,"control_time_utc":null,"fire_out_time_utc":"2023-08-27T00:00:00Z","fire_cause":"Natural","fire_cause_general":"Natural","map_method":"Auto-generated","source_dataset":"FFP","unique_fire_identifier":"2023-SDRBA-1693158383","irwin_id":"{187B4331-66DD-4FE1-83A1-4C66A1CBF458}","global_id":"4a71453d-6a2b-429e-aee3-66cc03c153b5"}},{"type":"Feature","geometry":{"type":"MultiPolygon","coordinates":[[[[-100.65796,43.37087],[-100.65834,43.37121],[-100.65796,43.37088],[-100.65796,43.37087]]],[[[-100.65644,43.37104],[-100.65644,43.371123],[-100.65652,43.37089],[-100.65796,43.37088],[-100.65997,43.37313],[-100.66037,43.37369],[-100.66068,43.37454],[-100.6611,43.37483],[-100.66125,43.37535],[-100.65778,43.37539],[-100.65778,43.37518],[-100.65739,43.37513],[-100.6572,43.37448],[-100.65724,43.37423],[-100.65702,43.37389],[-100.65696,43.37315],[-100.65654,43.37252],[-100.65636,43.37184],[-100.65644,43.37104]]],[[[-100.65834,43.37121],[-100.65836,43.37123],[-100.65855,43.37144],[-100.65834,43.37121]]],[[[-100.65869,43.3716],[-100.65876,43.37169],[-100.65856,43.37144],[-100.65869,43.3716]]],[[[-100.65331,43.36928],[-100.65364,43.36907],[-100.65393,43.36932],[-100.65432,43.36919],[-100.654754,43.369592],[-100.65464,43.36942],[-100.65619,43.36971],[-100.65657,43.37003],[-100.65662,43.37026],[-100.65707,43.3703],[-100.65795,43.37087],[-100.65572,43.370889],[-100.65649,43.37089],[-100.65644,43.37104],[-100.65632,43.37092],[-100.65607,43.371],[-100.65248,43.37066],[-100.65226,43.37041],[-100.65247,43.37039],[-100.65256,43.37027],[-100.6524,43.37022],[-100.65292,43.3698],[-100.65289,43.36932],[-100.65319,43.36922],[-100.65287,43.36931],[-100.65283,43.36976],[-100.65254,43.36988],[-100.65245,43.36966],[-100.65232,43.36972],[-100.65224,43.36903],[-100.6518,43.36832],[-100.65181,43.36807],[-100.65195,43.36792],[-100.65244,43.36849],[-100.65271,43.36855],[-100.65273,43.36872],[-100.65331,43.36928]]],[[[-100.65287,43.36979],[-100.65283,43.36976],[-100.65287,43.36975],[-100.65287,43.36979]]]]},"properties":{"fire_id":"ufid:2023-SDRBA-000026","source_collection":"history-2023","source_objectid":42216,"incident_name":"Thin Elk","mapped_acres":10.0,"mapped_acres_source":"poly_GISAcres","gis_acres":10.0,"auto_acres":45.720139356023004,"reported_acres":45.72,"percent_contained":null,"state":"SD","state_wfigs":"US-SD","county":"Todd","discovery_time_utc":"2023-09-04T21:04:17Z","perimeter_time_utc":"2023-10-03T19:13:11Z","perimeter_edit_time_utc":"2023-10-03T19:13:12Z","incident_modified_time_utc":"2023-09-05T04:04:58Z","containment_time_utc":null,"control_time_utc":null,"fire_out_time_utc":"2023-09-08T21:30:00Z","fire_cause":"Human","fire_cause_general":"Equipment and vehicle use","map_method":"Hand Sketch","source_dataset":"FFP","unique_fire_identifier":"2023-SDRBA-000026","irwin_id":"{E96B1284-224D-4B26-9C7F-918BB5A7DF3D}","global_id":"5770f6ed-f0ce-44e8-954f-d7d51eba8780"}}]}
