{"type":"FeatureCollection","features":[{"type":"Feature","geometry":{"type":"Polygon","coordinates":[[[-86.98886,35.96633],[-86.98919,35.96631],[-86.9889,35.96641],[-86.98886,35.96633]]]},"properties":{"fire_id":"ufid:2023-MSNAP-23-002","source_collection":"history-2023","source_objectid":17533,"incident_name":"MP 436","mapped_acres":1.0,"mapped_acres_source":"poly_GISAcres","gis_acres":1.0,"auto_acres":0.06350442436439876,"reported_acres":0.5,"percent_contained":null,"state":"TN","state_wfigs":"US-TN","county":"Williamson","discovery_time_utc":"2023-02-08T04:19:00Z","perimeter_time_utc":"2023-03-09T21:12:44Z","perimeter_edit_time_utc":"2023-03-14T15:13:42Z","incident_modified_time_utc":"2023-02-16T18:20:57Z","containment_time_utc":null,"control_time_utc":null,"fire_out_time_utc":"2023-02-08T18:00:00Z","fire_cause":"Human","fire_cause_general":"Equipment and vehicle use","map_method":"Hand Sketch","source_dataset":"FFP","unique_fire_identifier":"2023-MSNAP-23-002","irwin_id":"{209C1C3B-FC9E-4D95-9109-44FA9B4CC888}","global_id":"d502b5c9-2d10-4b3c-aa84-f0d96d5bb38e"}},{"type":"Feature","geometry":{"type":"Polygon","coordinates":[[[-87.47033,35.45008],[-87.47033,35.45033],[-87.47009,35.45043],[-87.4702,35.4506],[-87.46994,35.45063],[-87.46976,35.45048],[-87.4698,35.45031],[-87.4697,35.45027],[-87.47033,35.45008]]]},"properties":{"fire_id":"ufid:2023-MSNAP-000697","source_collection":"history-2023","source_objectid":23069,"incident_name":"Napier Mine Fire","mapped_acres":0.52,"mapped_acres_source":"poly_GISAcres","gis_acres":0.52,"auto_acres":0.519394351697825,"reported_acres":3.0,"percent_contained":null,"state":"TN","state_wfigs":"US-TN","county":"Lewis","discovery_time_utc":"2023-11-19T23:05:15Z","perimeter_time_utc":null,"perimeter_edit_time_utc":"2024-02-09T20:23:03Z","incident_modified_time_utc":"2023-11-29T14:25:06Z","containment_time_utc":"2023-11-20T14:00:00Z","control_time_utc":"2023-11-24T14:00:00Z","fire_out_time_utc":"2023-11-27T14:00:00Z","fire_cause":"Human","fire_cause_general":null,"map_method":"Mixed Methods","source_dataset":"2024 NIFS","unique_fire_identifier":"2023-MSNAP-000697","irwin_id":"{13A8F576-E21F-4367-A92C-517656A0579B}","global_id":"072f69a4-66aa-4a95-ac0b-18bc97d5d68e"}}]}
