{"type":"FeatureCollection","features":[{"type":"Feature","geometry":{"type":"Polygon","coordinates":[[[-84.62634,36.47572],[-84.62732,36.47568],[-84.62776,36.47752],[-84.6273,36.47766],[-84.62634,36.47572]]]},"properties":{"fire_id":"ufid:2023-TNBSP-000001","source_collection":"history-2023","source_objectid":15363,"incident_name":"TROSPER","mapped_acres":1.0,"mapped_acres_source":"poly_GISAcres","gis_acres":1.0,"auto_acres":3.50343463310249,"reported_acres":null,"percent_contained":null,"state":"TN","state_wfigs":"US-TN","county":"Scott","discovery_time_utc":"2023-03-08T19:15:00Z","perimeter_time_utc":"2023-03-09T01:15:00Z","perimeter_edit_time_utc":"2023-03-09T20:59:52Z","incident_modified_time_utc":"2023-03-09T14:38:11Z","containment_time_utc":null,"control_time_utc":null,"fire_out_time_utc":null,"fire_cause":null,"fire_cause_general":null,"map_method":"Hand Sketch","source_dataset":"2023 NIFS","unique_fire_identifier":"2023-TNBSP-000001","irwin_id":"{4785861B-927A-4EA8-81E3-D7E2BBE38023}","global_id":"54092859-c3a5-4c6b-b630-640ed8104a48"}},{"type":"Feature","geometry":{"type":"Polygon","coordinates":[[[-81.99727,36.54164],[-81.99709,36.54147],[-81.99716,36.54144],[-81.99727,36.54164]]]},"properties":{"fire_id":"ufid:2023-TNCNF-000114","source_collection":"history-2023","source_objectid":16376,"incident_name":"Sharps Creek","mapped_acres":0.25,"mapped_acres_source":"poly_GISAcres","gis_acres":0.25,"auto_acres":0.02974524015389476,"reported_acres":0.25,"percent_contained":null,"state":"TN","state_wfigs":"US-TN","county":"Sullivan","discovery_time_utc":"2023-03-09T19:18:00Z","perimeter_time_utc":"2023-04-30T14:51:43Z","perimeter_edit_time_utc":"2023-04-30T14:51:44Z","incident_modified_time_utc":"2023-03-14T21:36:13Z","containment_time_utc":"2023-03-09T21:47:00Z","control_time_utc":"2023-03-14T19:58:00Z","fire_out_time_utc":"2023-03-14T19:58:00Z","fire_cause":"Human","fire_cause_general":"Undetermined","map_method":"Hand Sketch","source_dataset":"FFP","unique_fire_identifier":"2023-TNCNF-000114","irwin_id":"{0FF6AB16-CFF4-49B0-A2E9-53510B0EDB16}","global_id":"f6b7b30a-9c65-4e44-b290-502b926c7bb7"}},{"type":"Feature","geometry":{"type":"MultiPolygon","coordinates":[[[[-81.98525,36.54278],[-81.98531,36.54279],[-81.98531,36.54281],[-81.98525,36.54278]]],[[[-81.98612,36.54248],[-81.98663,36.54322],[-81.98723,36.54331],[-81.98772,36.54358],[-81.98799,36.54395],[-81.9879,36.54443],[-81.98713,36.54423],[-81.98554,36.54422],[-81.9844,36.54379],[-81.9842,36.54341],[-81.98426,36.54307],[-81.98478,36.54309],[-81.98471,36.54302],[-81.98535,36.54284],[-81.98561,36.54259],[-81.98612,36.54248]]]]},"properties":{"fire_id":"ufid:2023-TNCNF-000270","source_collection":"history-2023","source_objectid":17270,"incident_name":"Pine","mapped_acres":4.0,"mapped_acres_source":"poly_GISAcres","gis_acres":4.0,"auto_acres":10.384041286252835,"reported_acres":10.4,"percent_contained":null,"state":"TN","state_wfigs":"US-TN","county":"Sullivan","discovery_time_utc":"2023-04-20T18:47:00Z","perimeter_time_utc":"2023-06-07T13:53:12Z","perimeter_edit_time_utc":"2023-06-07T13:53:12Z","incident_modified_time_utc":"2023-06-07T13:45:22Z","containment_time_utc":"2023-04-21T16:39:00Z","control_time_utc":"2023-04-23T18:04:00Z","fire_out_time_utc":"2023-04-27T15:27:00Z","fire_cause":"Human","fire_cause_general":"Undetermined","map_method":"Hand Sketch","source_dataset":"FFP","unique_fire_identifier":"2023-TNCNF-000270","irwin_id":"{09040A87-26B0-4259-B2EA-C3E026737465}","global_id":"d6f6e12d-db34-469d-812e-f01b260c838c"}},{"type":"Feature","geometry":{"type":"Polygon","coordinates":[[[-83.06753,35.95516],[-83.0654,35.95459],[-83.06491,35.95469],[-83.06462,35.95442],[-83.06453,35.95326],[-83.06246,35.95155],[-83.05991,35.9499],[-83.05976,35.94575],[-83.06103,35.94557],[-83.06813,35.94134],[-83.07241,35.94514],[-83.07265,35.94706],[-83.07178,35.94984],[-83.07158,35.95115],[-83.07146,35.95131],[-83.07122,35.95351],[-83.06975,35.95432],[-83.06753,35.95516]]]},"properties":{"fire_id":"ufid:2023-TNCNF-000261","source_collection":"history-2023","source_objectid":17332,"incident_name":"Neddy","mapped_acres":2.0,"mapped_acres_source":"poly_GISAcres","gis_acres":2.0,"auto_acres":293.029682136422,"reported_acres":306.0,"percent_contained":null,"state":"TN","state_wfigs":"US-TN","county":"Cocke","discovery_time_utc":"2023-04-19T19:10:00Z","perimeter_time_utc":"2023-06-08T16:35:02Z","perimeter_edit_time_utc":"2023-06-08T16:35:03Z","incident_modified_time_utc":"2023-06-10T16:26:56Z","containment_time_utc":"2023-04-24T18:00:00Z","control_time_utc":"2023-04-26T17:59:00Z","fire_out_time_utc":"2023-04-26T18:00:00Z","fire_cause":"Undetermined","fire_cause_general":null,"map_method":"Hand Sketch","source_dataset":"Decertified","unique_fire_identifier":"2023-TNCNF-000261","irwin_id":"{BC45947B-07F6-4C1E-8A08-FF4FF4414A35}","global_id":"3cd85ce2-3de1-485e-b14b-66f7d829e304"}},{"type":"Feature","geometry":{"type":"Polygon","coordinates":[[[-83.80576,35.64261],[-83.80652,35.64289],[-83.80665,35.64322],[-83.80701,35.64307],[-83.80738,35.64262],[-83.80727,35.64309],[-83.80735,35.64335],[-83.80686,35.64349],[-83.80665,35.64374],[-83.80583,35.64385],[-83.80567,35.64371],[-83.80527,35.64386],[-83.80512,35.64379],[-83.80511,35.64362],[-83.80475,35.64354],[-83.8047,35.64364],[-83.80461,35.64351],[-83.80429,35.64349],[-83.80438,35.64336],[-83.80403,35.64323],[-83.80379,35.64334],[-83.80416,35.64289],[-83.80533,35.6429],[-83.80576,35.64261]]]},"properties":{"fire_id":"ufid:2023-TNGSP-000539","source_collection":"history-2023","source_objectid":23036,"incident_name":"Rich Mountain Trail","mapped_acres":6.13,"mapped_acres_source":"poly_GISAcres","gis_acres":6.13,"auto_acres":6.135108564009987,"reported_acres":6.1,"percent_contained":null,"state":"TN","state_wfigs":"US-TN","county":"Blount","discovery_time_utc":"2023-11-20T20:09:00Z","perimeter_time_utc":"2023-12-05T23:02:42Z","perimeter_edit_time_utc":"2023-12-05T23:02:43Z","incident_modified_time_utc":"2023-12-04T18:09:13Z","containment_time_utc":"2023-11-22T13:50:00Z","control_time_utc":"2023-12-04T17:20:00Z","fire_out_time_utc":"2023-12-04T17:20:00Z","fire_cause":"Human","fire_cause_general":"Arson","map_method":"GPS-Walked","source_dataset":"FFP","unique_fire_identifier":"2023-TNGSP-000539","irwin_id":"{69D1297F-C929-4A1D-AE2B-A74AD927D72A}","global_id":"02177817-8cf8-4979-b53f-712f14709e99"}},{"type":"Feature","geometry":{"type":"Polygon","coordinates":[[[-82.92382,35.97082],[-82.92476,35.97238],[-82.92597,35.97398],[-82.92691,35.97429],[-82.92826,35.97408],[-82.92882,35.97377],[-82.92927,35.97377],[-82.92989,35.97287],[-82.93079,35.97236],[-82.9327,35.97172],[-82.93322,35.97106],[-82.9351,35.97054],[-82.93523,35.97041],[-82.93568,35.96988],[-82.93544,35.96923],[-82.93459,35.96798],[-82.93682,35.96762],[-82.93908,35.96676],[-82.94016,35.96631],[-82.94081,35.96568],[-82.94173,35.9652],[-82.94198,35.96578],[-82.94206,35.96651],[-82.9417,35.96743],[-82.94179,35.96888],[-82.942,35.96907],[-82.94293,35.96895],[-82.94376,35.96919],[-82.94439,35.96982],[-82.94453,35.97023],[-82.9447,35.97224],[-82.94453,35.97273],[-82.94349,35.97342],[-82.9436,35.97338],[-82.94366,35.97383],[-82.94399,35.97418],[-82.94426,35.97424],[-82.94521,35.97494],[-82.94467,35.97566],[-82.94472,35.97586],[-82.94486,35.9759],[-82.94515,35.97699],[-82.94508,35.97767],[-82.94395,35.97796],[-82.94297,35.97783],[-82.94266,35.97791],[-82.94182,35.97827],[-82.94155,35.97888],[-82.94041,35.97884],[-82.93941,35.9792],[-82.93893,35.97963],[-82.93881,35.98038],[-82.93953,35.98039],[-82.93968,35.98059],[-82.93846,35.98119],[-82.9366,35.98126],[-82.93474,35.98152],[-82.93166,35.98252],[-82.93059,35.98221],[-82.93028,35.98252],[-82.92906,35.98244],[-82.92863,35.98137],[-82.92708,35.98256],[-82.92425,35.98406],[-82.9238,35.98421],[-82.92169,35.98431],[-82.92068,35.98464],[-82.91894,35.98495],[-82.92102,35.98354],[-82.92199,35.9826],[-82.92273,35.98221],[-82.92391,35.98118],[-82.92604,35.97983],[-82.9271,35.9788],[-82.92719,35.97843],[-82.92683,35.97748],[-82.92642,35.9768],[-82.92505,35.9754],[-82.92415,35.97358],[-82.9237,35.97161],[-82.92363,35.9707],[-82.92382,35.97082]]]},"properties":{"fire_id":"ufid:2023-TNCNF-000471","source_collection":"history-2023","source_objectid":23926,"incident_name":"Tweed","mapped_acres":537.7255,"mapped_acres_source":"poly_GISAcres","gis_acres":537.7255,"auto_acres":537.723569458391,"reported_acres":538.0,"percent_contained":null,"state":"TN","state_wfigs":"US-TN","county":"Cocke","discovery_time_utc":"2023-11-08T16:43:00Z","perimeter_time_utc":"2024-02-02T13:03:40Z","perimeter_edit_time_utc":"2024-02-02T13:03:40Z","incident_modified_time_utc":"2024-01-31T15:25:52Z","containment_time_utc":"2023-11-26T22:00:00Z","control_time_utc":"2023-12-08T19:00:00Z","fire_out_time_utc":"2023-12-20T14:30:00Z","fire_cause":"Human","fire_cause_general":"Undetermined","map_method":"GPS-Walked","source_dataset":"FFP","unique_fire_identifier":"2023-TNCNF-000471","irwin_id":"{2AC168E2-58D7-479B-A05C-9A8665DA637C}","global_id":"20f66219-e189-4dc2-8524-775bf15bd0cf"}},{"type":"Feature","geometry":{"type":"Polygon","coordinates":[[[-84.32352,35.18929],[-84.32086,35.19064],[-84.32051,35.19111],[-84.32046,35.19155],[-84.31999,35.19205],[-84.31929,35.19235],[-84.31841,35.19223],[-84.3182,35.1921],[-84.31785,35.19147],[-84.31698,35.1913],[-84.31513,35.19276],[-84.31412,35.19229],[-84.3131,35.19273],[-84.31154,35.19195],[-84.31229,35.19136],[-84.31268,35.19068],[-84.31352,35.19001],[-84.31435,35.19061],[-84.31452,35.19049],[-84.31424,35.19035],[-84.3155,35.18908],[-84.31592,35.1889],[-84.3157,35.18838],[-84.31579,35.18777],[-84.31601,35.18757],[-84.31669,35.18737],[-84.31656,35.18683],[-84.31698,35.18625],[-84.31697,35.18596],[-84.3173,35.18568],[-84.31729,35.18537],[-84.31749,35.18514],[-84.31712,35.18489],[-84.31703,35.18451],[-84.31662,35.18384],[-84.31548,35.18256],[-84.31525,35.18244],[-84.31409,35.18235],[-84.31296,35.18151],[-84.31229,35.1815],[-84.31162,35.18178],[-84.31133,35.18173],[-84.30945,35.1806],[-84.31264,35.17849],[-84.31311,35.1785],[-84.31409,35.17771],[-84.31453,35.17719],[-84.31543,35.17474],[-84.31715,35.17178],[-84.31705,35.17117],[-84.31644,35.17018],[-84.31651,35.16961],[-84.31811,35.16794],[-84.31873,35.16778],[-84.31979,35.16786],[-84.3205,35.1684],[-84.32137,35.16971],[-84.32206,35.17171],[-84.32281,35.17335],[-84.32344,35.17418],[-84.32522,35.17525],[-84.32692,35.17565],[-84.327,35.17592],[-84.32819,35.1762],[-84.33164,35.17804],[-84.33153,35.17852],[-84.33075,35.17939],[-84.32934,35.18021],[-84.32717,35.18203],[-84.32651,35.18319],[-84.32481,35.18381],[-84.32397,35.1845],[-84.32478,35.18376],[-84.32268,35.18547],[-84.32137,35.18678],[-84.32142,35.18744],[-84.32274,35.18886],[-84.32352,35.18929]]]},"properties":{"fire_id":"ufid:2023-TNCNF-000462","source_collection":"history-2023","source_objectid":24060,"incident_name":"Buck Bald","mapped_acres":572.595,"mapped_acres_source":"poly_GISAcres","gis_acres":572.595,"auto_acres":572.5928698446231,"reported_acres":473.0,"percent_contained":null,"state":"TN","state_wfigs":"US-TN","county":"Polk","discovery_time_utc":"2023-11-07T15:53:00Z","perimeter_time_utc":"2024-02-22T14:47:04Z","perimeter_edit_time_utc":"2024-02-22T14:47:05Z","incident_modified_time_utc":"2023-12-20T14:02:40Z","containment_time_utc":"2023-11-16T18:45:00Z","control_time_utc":"2023-11-30T00:28:00Z","fire_out_time_utc":"2023-11-30T00:29:00Z","fire_cause":"Human","fire_cause_general":"Undetermined","map_method":"Mixed Methods","source_dataset":"FFP","unique_fire_identifier":"2023-TNCNF-000462","irwin_id":"{B107327E-0B42-4913-A53A-45EBE969492F}","global_id":"7f084e29-9e44-4fdf-a81c-41f5b1150ca0"}},{"type":"Feature","geometry":{"type":"Polygon","coordinates":[[[-84.63459,35.09337],[-84.63373,35.09249],[-84.63295,35.09215],[-84.63298,35.09122],[-84.63403,35.09103],[-84.63462,35.0896],[-84.6351,35.08964],[-84.63549,35.08931],[-84.63574,35.08934],[-84.63582,35.08952],[-84.6362,35.08952],[-84.63594,35.08893],[-84.63613,35.0885],[-84.63639,35.08834],[-84.63654,35.08848],[-84.63743,35.08804],[-84.63764,35.08839],[-84.63787,35.0895],[-84.63765,35.09004],[-84.63709,35.09064],[-84.63733,35.09064],[-84.63738,35.09092],[-84.63748,35.09088],[-84.63752,35.0913],[-84.63778,35.0918],[-84.63845,35.09198],[-84.63882,35.0925],[-84.6388,35.09279],[-84.63858,35.09305],[-84.63798,35.09316],[-84.63785,35.0935],[-84.63815,35.09365],[-84.6382,35.09393],[-84.63812,35.09402],[-84.63761,35.0939],[-84.63699,35.09403],[-84.63673,35.09421],[-84.63573,35.09288],[-84.63588,35.09361],[-84.63582,35.09411],[-84.63558,35.09431],[-84.63506,35.09428],[-84.63482,35.09407],[-84.63459,35.09337]]]},"properties":{"fire_id":"ufid:2023-TNCNF-000191","source_collection":"history-2023","source_objectid":24061,"incident_name":"Parksville Lake","mapped_acres":3.0,"mapped_acres_source":"poly_GISAcres","gis_acres":3.0,"auto_acres":49.94849913531609,"reported_acres":50.0,"percent_contained":null,"state":"TN","state_wfigs":"US-TN","county":"Polk","discovery_time_utc":"2023-04-05T19:48:00Z","perimeter_time_utc":"2024-02-22T14:55:44Z","perimeter_edit_time_utc":"2024-02-22T14:55:44Z","incident_modified_time_utc":"2023-11-14T13:42:13Z","containment_time_utc":"2023-04-06T00:15:00Z","control_time_utc":"2023-04-16T14:07:00Z","fire_out_time_utc":"2023-05-03T13:45:00Z","fire_cause":"Human","fire_cause_general":"Undetermined","map_method":"GPS-Walked","source_dataset":"FFP","unique_fire_identifier":"2023-TNCNF-000191","irwin_id":"{66FA9F51-C989-42CD-B687-910494CBBA30}","global_id":"e36fb9c6-d706-4abe-b4ef-d15b548a52df"}},{"type":"Feature","geometry":{"type":"Polygon","coordinates":[[[-84.44305,35.29014],[-84.44279,35.29004],[-84.44221,35.2902],[-84.44225,35.29075],[-84.4424,35.29087],[-84.44303,35.29065],[-84.44375,35.29099],[-84.44384,35.29131],[-84.44332,35.29209],[-84.44281,35.29231],[-84.44138,35.29353],[-84.44077,35.29439],[-84.44082,35.2948],[-84.44117,35.29493],[-84.44223,35.29447],[-84.44294,35.29469],[-84.44412,35.29468],[-84.44452,35.29558],[-84.44558,35.29646],[-84.44596,35.29703],[-84.44704,35.29667],[-84.44763,35.29671],[-84.44811,35.29713],[-84.4484,35.2977],[-84.44745,35.29774],[-84.44677,35.29841],[-84.44501,35.29814],[-84.44314,35.29845],[-84.44427,35.30018],[-84.44458,35.30122],[-84.44353,35.30131],[-84.44274,35.29969],[-84.44122,35.2988],[-84.44083,35.29842],[-84.44108,35.29725],[-84.44042,35.29689],[-84.4402,35.29553],[-84.43932,35.29485],[-84.43875,35.29363],[-84.43867,35.29168],[-84.43877,35.29049],[-84.43851,35.29018],[-84.43938,35.28947],[-84.43999,35.29004],[-84.44121,35.29011],[-84.44164,35.28995],[-84.44235,35.28925],[-84.44291,35.28908],[-84.44331,35.28926],[-84.44354,35.28953],[-84.4434,35.28997],[-84.44305,35.29014]]]},"properties":{"fire_id":"ufid:2023-TNCNF-000445","source_collection":"history-2023","source_objectid":24062,"incident_name":"Bullet","mapped_acres":106.9443,"mapped_acres_source":"poly_GISAcres","gis_acres":106.9443,"auto_acres":106.94386813500846,"reported_acres":103.0,"percent_contained":null,"state":"TN","state_wfigs":"US-TN","county":"Monroe","discovery_time_utc":"2023-11-05T19:28:00Z","perimeter_time_utc":"2024-02-22T14:30:11Z","perimeter_edit_time_utc":"2024-02-22T14:30:12Z","incident_modified_time_utc":"2023-12-01T13:17:56Z","containment_time_utc":"2023-11-21T18:30:00Z","control_time_utc":"2023-11-30T00:28:00Z","fire_out_time_utc":"2023-11-30T00:29:00Z","fire_cause":"Undetermined","fire_cause_general":"Undetermined","map_method":"Mixed Methods","source_dataset":"FFP","unique_fire_identifier":"2023-TNCNF-000445","irwin_id":"{2EC30668-4367-439B-8981-758B6F4571B8}","global_id":"6a70ff95-afa7-493f-a01d-f2b23229f589"}},{"type":"Feature","geometry":{"type":"Polygon","coordinates":[[[-84.31698,35.1913],[-84.31513,35.19276],[-84.31412,35.19229],[-84.3131,35.19273],[-84.31154,35.19195],[-84.31229,35.19136],[-84.31268,35.19068],[-84.31352,35.19001],[-84.31452,35.19049],[-84.31435,35.19061],[-84.31447,35.1907],[-84.31527,35.19051],[-84.315,35.19116],[-84.31533,35.19115],[-84.31542,35.19138],[-84.31622,35.19115],[-84.31698,35.1913]]]},"properties":{"fire_id":"ufid:2023-TNCNF-000464","source_collection":"history-2023","source_objectid":24063,"incident_name":"West Fork","mapped_acres":19.3,"mapped_acres_source":"poly_GISAcres","gis_acres":19.3,"auto_acres":19.30064626683799,"reported_acres":20.0,"percent_contained":null,"state":"TN","state_wfigs":"US-TN","county":"Polk","discovery_time_utc":"2023-11-07T16:28:43Z","perimeter_time_utc":"2024-02-22T15:00:33Z","perimeter_edit_time_utc":"2024-02-22T15:00:33Z","incident_modified_time_utc":"2023-12-01T13:25:33Z","containment_time_utc":"2023-11-16T18:45:00Z","control_time_utc":"2023-11-30T00:28:00Z","fire_out_time_utc":"2023-11-30T00:29:00Z","fire_cause":"Human","fire_cause_general":"Undetermined","map_method":"Hand Sketch","source_dataset":"FFP","unique_fire_identifier":"2023-TNCNF-000464","irwin_id":"{39B605A7-26C7-4DEC-8EF5-8C7F1BB538A3}","global_id":"521e618e-5b5c-42a9-8167-df8496b65ae7"}},{"type":"Feature","geometry":{"type":"Polygon","coordinates":[[[-84.31655,35.17419],[-84.31672,35.1739],[-84.317,35.17391],[-84.31972,35.1763],[-84.31978,35.17774],[-84.31838,35.17855],[-84.31799,35.17968],[-84.31687,35.18028],[-84.31629,35.18118],[-84.31545,35.18154],[-84.31478,35.1824],[-84.31409,35.18235],[-84.31296,35.18151],[-84.31229,35.1815],[-84.31162,35.18178],[-84.31067,35.18139],[-84.31063,35.18105],[-84.31127,35.18067],[-84.31178,35.17991],[-84.3129,35.17941],[-84.31322,35.17915],[-84.3144,35.17887],[-84.31478,35.17805],[-84.31525,35.17759],[-84.31541,35.17711],[-84.31573,35.17677],[-84.31608,35.17667],[-84.31591,35.17601],[-84.31643,35.17498],[-84.31655,35.17419]]]},"properties":{"fire_id":"ufid:2023-TNCNF-000459","source_collection":"history-2023","source_objectid":24064,"incident_name":"Miller Cove","mapped_acres":78.04,"mapped_acres_source":"poly_GISAcres","gis_acres":78.04,"auto_acres":78.04350689172776,"reported_acres":80.0,"percent_contained":null,"state":"TN","state_wfigs":"US-TN","county":"Polk","discovery_time_utc":"2023-11-07T13:06:27Z","perimeter_time_utc":"2024-03-01T15:19:09Z","perimeter_edit_time_utc":"2024-03-01T15:19:10Z","incident_modified_time_utc":"2024-02-23T21:39:49Z","containment_time_utc":"2023-11-16T18:45:00Z","control_time_utc":"2023-11-30T00:28:00Z","fire_out_time_utc":"2023-11-30T00:29:00Z","fire_cause":"Human","fire_cause_general":"Undetermined","map_method":"Hand Sketch","source_dataset":"FFP","unique_fire_identifier":"2023-TNCNF-000459","irwin_id":"{9D3EDBFE-3937-494B-B763-0D1336A1BEA5}","global_id":"8258c799-a997-43c7-95ee-112c7979763e"}},{"type":"Feature","geometry":{"type":"Polygon","coordinates":[[[-84.41593,35.16497],[-84.41692,35.1635],[-84.41832,35.16407],[-84.41886,35.1639],[-84.41909,35.16343],[-84.42008,35.16263],[-84.42228,35.16202],[-84.42318,35.16138],[-84.42588,35.1625],[-84.42805,35.16313],[-84.4296,35.16428],[-84.43028,35.16636],[-84.43065,35.1666],[-84.4305,35.16785],[-84.42906,35.16809],[-84.42807,35.16935],[-84.42976,35.16965],[-84.42995,35.17043],[-84.4295,35.1712],[-84.42841,35.17183],[-84.42788,35.17316],[-84.42689,35.17286],[-84.42375,35.17241],[-84.423,35.17261],[-84.42258,35.17248],[-84.42187,35.17155],[-84.42208,35.17091],[-84.42207,35.17048],[-84.42259,35.16987],[-84.42308,35.16827],[-84.42262,35.16786],[-84.4216,35.16794],[-84.42052,35.16677],[-84.42057,35.16609],[-84.42038,35.16594],[-84.41651,35.16569],[-84.41618,35.1655],[-84.41593,35.16497]]]},"properties":{"fire_id":"ufid:2023-TNCNF-000233","source_collection":"history-2023","source_objectid":24824,"incident_name":"Powerhouse","mapped_acres":229.29,"mapped_acres_source":"poly_GISAcres","gis_acres":229.29,"auto_acres":229.28928303726337,"reported_acres":230.0,"percent_contained":null,"state":"TN","state_wfigs":"US-TN","county":"Polk","discovery_time_utc":"2023-04-13T17:12:00Z","perimeter_time_utc":"2024-03-15T13:43:04Z","perimeter_edit_time_utc":"2024-03-15T13:43:04Z","incident_modified_time_utc":"2023-05-12T14:13:08Z","containment_time_utc":"2023-04-15T13:34:00Z","control_time_utc":"2023-05-03T14:00:00Z","fire_out_time_utc":"2023-05-03T14:15:00Z","fire_cause":"Undetermined","fire_cause_general":"Undetermined","map_method":"Hand Sketch","source_dataset":"FFP","unique_fire_identifier":"2023-TNCNF-000233","irwin_id":"{CFD9DA61-5330-41FA-B789-3587F432B510}","global_id":"ec1379f9-f372-4697-a638-74a54fe4c6f7"}},{"type":"Feature","geometry":{"type":"Polygon","coordinates":[[[-82.10892,36.18718],[-82.10914,36.18691],[-82.10927,36.18699],[-82.10922,36.18725],[-82.1085,36.18776],[-82.10896,36.1877],[-82.11004,36.1872],[-82.11041,36.18667],[-82.11121,36.18657],[-82.11157,36.18673],[-82.11263,36.18685],[-82.11289,36.18718],[-82.11275,36.18743],[-82.11224,36.18761],[-82.11189,36.18794],[-82.11159,36.18916],[-82.11126,36.18982],[-82.11075,36.19029],[-82.11046,36.19031],[-82.10969,36.18995],[-82.1095,36.18999],[-82.10934,36.18963],[-82.10903,36.18953],[-82.10926,36.18993],[-82.1093,36.19034],[-82.10914,36.19093],[-82.10882,36.19106],[-82.10811,36.19086],[-82.10762,36.19168],[-82.1073,36.19168],[-82.10686,36.19136],[-82.10624,36.19053],[-82.10627,36.19003],[-82.10739,36.18781],[-82.10839,36.18728],[-82.10892,36.18718]]]},"properties":{"fire_id":"ufid:2023-TNCNF-000457","source_collection":"history-2023","source_objectid":25047,"incident_name":"Hogum Hollow","mapped_acres":43.83,"mapped_acres_source":"poly_GISAcres","gis_acres":43.83,"auto_acres":43.82982395720677,"reported_acres":43.8,"percent_contained":null,"state":"TN","state_wfigs":"US-TN","county":"Carter","discovery_time_utc":"2023-11-07T08:01:00Z","perimeter_time_utc":"2024-03-25T19:43:36Z","perimeter_edit_time_utc":"2024-03-25T19:43:36Z","incident_modified_time_utc":"2023-12-20T18:34:08Z","containment_time_utc":"2023-11-07T22:30:00Z","control_time_utc":"2023-11-25T15:21:00Z","fire_out_time_utc":"2023-12-20T14:30:00Z","fire_cause":"Human","fire_cause_general":"Undetermined","map_method":"Hand Sketch","source_dataset":"FFP","unique_fire_identifier":"2023-TNCNF-000457","irwin_id":"{F400486D-853F-4C8B-AC8C-A1572448752F}","global_id":"915106b5-5f9c-4f40-8450-3f5884346729"}}]}
