{"type":"FeatureCollection","features":[{"type":"Feature","geometry":{"type":"Polygon","coordinates":[[[-104.15987,29.86293],[-104.15889,29.86214],[-104.15877,29.86168],[-104.15814,29.86108],[-104.15786,29.86062],[-104.15751,29.86057],[-104.15711,29.85959],[-104.15691,29.85979],[-104.15674,29.85976],[-104.15638,29.85997],[-104.156,29.85979],[-104.15566,29.85994],[-104.1557,29.86021],[-104.15608,29.86026],[-104.15621,29.86041],[-104.15639,29.86102],[-104.15601,29.86113],[-104.15536,29.86081],[-104.15516,29.86046],[-104.15481,29.86029],[-104.15454,29.85981],[-104.15445,29.85945],[-104.15466,29.85931],[-104.1544,29.85918],[-104.15441,29.8587],[-104.1541,29.85857],[-104.15396,29.85829],[-104.15429,29.85831],[-104.15453,29.85856],[-104.15495,29.85866],[-104.15503,29.85837],[-104.15549,29.8585],[-104.15613,29.8581],[-104.15591,29.85775],[-104.15605,29.85607],[-104.15567,29.85587],[-104.15567,29.85563],[-104.15606,29.8556],[-104.15611,29.85531],[-104.15605,29.85473],[-104.15583,29.85423],[-104.15686,29.85479],[-104.15805,29.85493],[-104.1582,29.85483],[-104.15824,29.85449],[-104.15789,29.85425],[-104.15825,29.85413],[-104.15836,29.85376],[-104.15799,29.85337],[-104.15722,29.85297],[-104.15677,29.85239],[-104.15682,29.85195],[-104.15712,29.85169],[-104.15865,29.85269],[-104.15936,29.85331],[-104.15968,29.85316],[-104.15989,29.85349],[-104.16029,29.85332],[-104.16041,29.85259],[-104.1606,29.85251],[-104.1609,29.85264],[-104.16113,29.85297],[-104.16158,29.85301],[-104.16191,29.8532],[-104.16256,29.85315],[-104.16304,29.85389],[-104.16306,29.85434],[-104.16285,29.85456],[-104.16278,29.8541],[-104.16215,29.85387],[-104.16227,29.85444],[-104.16282,29.85498],[-104.16291,29.85473],[-104.16354,29.8546],[-104.1639,29.85484],[-104.16424,29.85549],[-104.1641,29.85562],[-104.16427,29.85571],[-104.16452,29.85555],[-104.16461,29.85575],[-104.16435,29.8558],[-104.1642,29.85599],[-104.16438,29.85607],[-104.16385,29.85676],[-104.16317,29.85718],[-104.16344,29.85745],[-104.16334,29.85757],[-104.16316,29.85753],[-104.16277,29.85798],[-104.16271,29.85851],[-104.16243,29.85873],[-104.16233,29.85863],[-104.16209,29.85901],[-104.1622,29.8593],[-104.16244,29.85946],[-104.16225,29.85996],[-104.16235,29.86024],[-104.16168,29.86019],[-104.16141,29.86058],[-104.16171,29.86096],[-104.16135,29.86128],[-104.16094,29.86131],[-104.16092,29.86144],[-104.1611,29.86144],[-104.16051,29.86163],[-104.16025,29.86215],[-104.16035,29.86229],[-104.16062,29.86219],[-104.16075,29.86238],[-104.16054,29.86258],[-104.16026,29.86242],[-104.16033,29.86265],[-104.16009,29.86268],[-104.16,29.86282],[-104.16013,29.86294],[-104.15987,29.86293]]]},"properties":{"fire_id":"ufid:2023-TXTXS-232181","source_collection":"history-2023","source_objectid":17801,"incident_name":"Ocotillo","mapped_acres":154.538697343918,"mapped_acres_source":"poly_GISAcres","gis_acres":154.538697343918,"auto_acres":154.538755236833,"reported_acres":155.0,"percent_contained":100.0,"state":"TX","state_wfigs":"US-TX","county":"Presidio","discovery_time_utc":"2023-06-25T17:10:29Z","perimeter_time_utc":"2023-06-25T22:10:29Z","perimeter_edit_time_utc":"2023-06-30T16:39:01Z","incident_modified_time_utc":"2023-10-09T19:35:08Z","containment_time_utc":"2023-06-26T05:06:32Z","control_time_utc":"2023-06-30T22:16:58Z","fire_out_time_utc":null,"fire_cause":"Natural","fire_cause_general":"Natural","map_method":"Mixed Methods","source_dataset":"2023 NIFS","unique_fire_identifier":"2023-TXTXS-232181","irwin_id":"{C185AC14-7496-4C57-A767-DACB15B84931}","global_id":"a79536e7-53a9-4797-abb6-609fd25b70b5"}},{"type":"Feature","geometry":{"type":"Polygon","coordinates":[[[-103.29986,29.00904],[-103.3011,29.00839],[-103.29932,29.00801],[-103.2979,29.00725],[-103.29292,29.00422],[-103.29127,29.00308],[-103.29228,29.00228],[-103.29433,29.003],[-103.29613,29.00448],[-103.29982,29.00481],[-103.30792,29.00328],[-103.30841,29.00164],[-103.30917,29.00275],[-103.3109,29.00383],[-103.31533,29.00806],[-103.31701,29.01176],[-103.3102,29.01709],[-103.3098,29.0166],[-103.31063,29.01537],[-103.31126,29.01381],[-103.3115,29.01176],[-103.31041,29.00965],[-103.30914,29.00823],[-103.30749,29.00725],[-103.30628,29.0073],[-103.30416,29.00681],[-103.30451,29.00834],[-103.30419,29.00918],[-103.30358,29.00913],[-103.30295,29.00946],[-103.30145,29.00991],[-103.30029,29.0095],[-103.29986,29.00904]]]},"properties":{"fire_id":"ufid:2023-TXBBP-000242","source_collection":"history-2023","source_objectid":18937,"incident_name":"Jewels","mapped_acres":50.0,"mapped_acres_source":"poly_GISAcres","gis_acres":50.0,"auto_acres":302.69269653494126,"reported_acres":167.0,"percent_contained":null,"state":"TX","state_wfigs":"US-TX","county":"Brewster","discovery_time_utc":"2023-04-29T02:00:00Z","perimeter_time_utc":"2023-08-02T19:20:39Z","perimeter_edit_time_utc":"2023-08-02T19:20:39Z","incident_modified_time_utc":"2023-04-30T12:09:32Z","containment_time_utc":null,"control_time_utc":null,"fire_out_time_utc":"2023-05-12T17:00:00Z","fire_cause":"Human","fire_cause_general":"Debris and open burning","map_method":"Hand Sketch","source_dataset":"FFP","unique_fire_identifier":"2023-TXBBP-000242","irwin_id":"{53C4B52D-9192-4E60-AC31-D5F7E1930715}","global_id":"99d27fa9-1d01-4faa-92fa-e300e4f52687"}},{"type":"Feature","geometry":{"type":"Polygon","coordinates":[[[-103.15658,29.21368],[-103.15613,29.21298],[-103.15643,29.21288],[-103.15652,29.21297],[-103.1566,29.21281],[-103.15686,29.21289],[-103.15688,29.21326],[-103.15656,29.2135],[-103.15658,29.21368]]]},"properties":{"fire_id":"ufid:2023-TXBBP-000379","source_collection":"history-2023","source_objectid":20158,"incident_name":"Chilicotal","mapped_acres":0.9071942976322932,"mapped_acres_source":"poly_Acres_AutoCalc_fallback","gis_acres":null,"auto_acres":0.9071942976322932,"reported_acres":0.9,"percent_contained":null,"state":"TX","state_wfigs":"US-TX","county":"Brewster","discovery_time_utc":"2023-08-18T00:30:00Z","perimeter_time_utc":"2023-08-25T17:04:22Z","perimeter_edit_time_utc":"2023-08-25T17:04:23Z","incident_modified_time_utc":"2023-08-19T01:49:30Z","containment_time_utc":"2023-08-21T15:00:00Z","control_time_utc":"2023-08-23T15:00:00Z","fire_out_time_utc":"2023-08-23T15:00:00Z","fire_cause":"Natural","fire_cause_general":"Natural","map_method":"GPS-Walked/Driven","source_dataset":"FFP","unique_fire_identifier":"2023-TXBBP-000379","irwin_id":"{DD0818B9-05F6-44B2-95BF-4FB36BE533DF}","global_id":"cb0a5622-8823-403d-803d-a1d20e8b4c5f"}},{"type":"Feature","geometry":{"type":"Polygon","coordinates":[[[-103.1894,28.98375],[-103.19111,28.98391],[-103.19527,28.98517],[-103.19799,28.98577],[-103.19754,28.9859],[-103.19596,28.98549],[-103.19569,28.98561],[-103.18862,28.98416],[-103.1894,28.98375]]]},"properties":{"fire_id":"ufid:2023-TXBBP-000488","source_collection":"history-2023","source_objectid":21808,"incident_name":"Talley","mapped_acres":5.0,"mapped_acres_source":"poly_GISAcres","gis_acres":5.0,"auto_acres":11.076557542902725,"reported_acres":14.0,"percent_contained":null,"state":"TX","state_wfigs":"US-TX","county":"Brewster","discovery_time_utc":"2023-09-29T20:30:00Z","perimeter_time_utc":"2023-10-18T20:44:23Z","perimeter_edit_time_utc":"2023-10-18T20:44:23Z","incident_modified_time_utc":"2023-10-02T15:51:57Z","containment_time_utc":"2023-10-01T23:00:00Z","control_time_utc":"2023-10-04T20:00:39Z","fire_out_time_utc":"2023-10-18T20:00:36Z","fire_cause":"Human","fire_cause_general":"Debris and open burning","map_method":"Hand Sketch","source_dataset":"FFP","unique_fire_identifier":"2023-TXBBP-000488","irwin_id":"{3734D8B5-3D9A-4645-A648-C3B08B901E18}","global_id":"a85696d1-7621-4a1b-b570-4d25d97f1024"}}]}
