{"type":"FeatureCollection","features":[{"type":"Feature","geometry":{"type":"Polygon","coordinates":[[[-105.94806,31.83393],[-105.94783,31.8341],[-105.94764,31.83395],[-105.94711,31.83403],[-105.94685,31.83456],[-105.94607,31.83461],[-105.94571,31.83491],[-105.94472,31.83518],[-105.94491,31.83531],[-105.94494,31.83592],[-105.94416,31.83598],[-105.94407,31.83579],[-105.94419,31.83564],[-105.94407,31.83549],[-105.94321,31.83577],[-105.94315,31.8353],[-105.9427,31.83557],[-105.94233,31.83537],[-105.94165,31.83535],[-105.94156,31.83547],[-105.94176,31.83557],[-105.9418,31.83584],[-105.9411,31.83631],[-105.94042,31.83653],[-105.94052,31.83672],[-105.94037,31.83687],[-105.93993,31.83697],[-105.93975,31.83724],[-105.93998,31.83747],[-105.9396,31.8378],[-105.93958,31.83799],[-105.93864,31.83829],[-105.93898,31.83811],[-105.93826,31.8382],[-105.93758,31.83874],[-105.93751,31.83818],[-105.93766,31.83824],[-105.93838,31.83782],[-105.93807,31.83765],[-105.93755,31.83778],[-105.93753,31.83755],[-105.93731,31.83751],[-105.93674,31.83803],[-105.93609,31.83832],[-105.9358,31.83898],[-105.9356,31.83912],[-105.9336,31.83755],[-105.93276,31.83776],[-105.9326,31.83788],[-105.93272,31.83802],[-105.93267,31.83819],[-105.93176,31.83841],[-105.93062,31.83892],[-105.93055,31.83944],[-105.93036,31.83966],[-105.93045,31.83996],[-105.93075,31.84021],[-105.93082,31.8407],[-105.9313,31.84066],[-105.93118,31.84125],[-105.93084,31.84145],[-105.93086,31.84172],[-105.93069,31.84187],[-105.92941,31.84205],[-105.92898,31.84202],[-105.92856,31.84176],[-105.92794,31.8416],[-105.92683,31.8424],[-105.92662,31.84283],[-105.92602,31.84335],[-105.926,31.84355],[-105.92559,31.8441],[-105.92561,31.84442],[-105.92625,31.84528],[-105.92598,31.84582],[-105.92528,31.84626],[-105.9255,31.84674],[-105.92491,31.84748],[-105.92281,31.8485],[-105.92255,31.84873],[-105.92189,31.84887],[-105.92183,31.84913],[-105.92156,31.8493],[-105.9212,31.84927],[-105.92067,31.84954],[-105.92009,31.84961],[-105.91963,31.84949],[-105.91901,31.84965],[-105.91895,31.84982],[-105.91856,31.84997],[-105.91838,31.85036],[-105.91754,31.85094],[-105.91728,31.85098],[-105.9172,31.85145],[-105.91673,31.85187],[-105.91661,31.85192],[-105.91624,31.85166],[-105.91599,31.85182],[-105.91595,31.85232],[-105.91647,31.8526],[-105.91663,31.85303],[-105.91627,31.85329],[-105.91612,31.85369],[-105.91473,31.85398],[-105.91414,31.85441],[-105.91337,31.85473],[-105.91048,31.85426],[-105.90861,31.8544],[-105.90821,31.85461],[-105.90672,31.85439],[-105.90564,31.85447],[-105.90525,31.8542],[-105.90571,31.85415],[-105.90585,31.85405],[-105.90582,31.85389],[-105.90556,31.8538],[-105.90545,31.85362],[-105.90501,31.85361],[-105.90489,31.85321],[-105.90508,31.85292],[-105.90503,31.85279],[-105.90435,31.85265],[-105.9041,31.85247],[-105.9042,31.85236],[-105.90497,31.85232],[-105.90521,31.85218],[-105.90523,31.85195],[-105.90623,31.85153],[-105.90619,31.85135],[-105.90552,31.85124],[-105.90533,31.85085],[-105.90557,31.85044],[-105.90534,31.85035],[-105.90564,31.8501],[-105.9066,31.84973],[-105.90665,31.8496],[-105.9065,31.84955],[-105.90653,31.84945],[-105.90707,31.84923],[-105.90699,31.8489],[-105.9066,31.84897],[-105.9066,31.84888],[-105.90707,31.84864],[-105.90856,31.84832],[-105.90943,31.84774],[-105.91,31.84757],[-105.91101,31.84639],[-105.91169,31.84591],[-105.9127,31.84451],[-105.91309,31.84355],[-105.91312,31.84315],[-105.91357,31.84286],[-105.91386,31.84248],[-105.91383,31.84236],[-105.91237,31.84265],[-105.91215,31.84238],[-105.91181,31.84245],[-105.91126,31.8423],[-105.91086,31.84203],[-105.91027,31.8421],[-105.90922,31.84188],[-105.90862,31.84154],[-105.90708,31.8417],[-105.90726,31.8415],[-105.90709,31.84113],[-105.906,31.84121],[-105.90558,31.84197],[-105.90554,31.84277],[-105.90512,31.84428],[-105.90282,31.84572],[-105.90198,31.84651],[-105.90038,31.84765],[-105.89927,31.84814],[-105.89885,31.84881],[-105.89812,31.84954],[-105.89828,31.85002],[-105.89817,31.85047],[-105.89745,31.85117],[-105.8964,31.85097],[-105.89574,31.85102],[-105.89557,31.85073],[-105.89485,31.85075],[-105.89453,31.85062],[-105.89453,31.85009],[-105.89523,31.84965],[-105.89563,31.84956],[-105.89569,31.84941],[-105.89486,31.8491],[-105.89497,31.84854],[-105.89522,31.84845],[-105.89486,31.848],[-105.89483,31.84777],[-105.89519,31.8476],[-105.89637,31.8479],[-105.89683,31.84786],[-105.89688,31.8475],[-105.89766,31.84711],[-105.89794,31.84661],[-105.89965,31.84607],[-105.89982,31.84503],[-105.89974,31.84485],[-105.89866,31.84506],[-105.89781,31.84449],[-105.89758,31.84449],[-105.89611,31.84535],[-105.89497,31.84552],[-105.89441,31.84607],[-105.89413,31.84591],[-105.89244,31.84661],[-105.89204,31.8465],[-105.89124,31.84704],[-105.89093,31.84702],[-105.89012,31.84733],[-105.89002,31.8473],[-105.89009,31.84708],[-105.89039,31.84657],[-105.89019,31.8463],[-105.88947,31.84604],[-105.88787,31.84636],[-105.88786,31.84572],[-105.88771,31.84548],[-105.88846,31.84543],[-105.88875,31.84462],[-105.88968,31.84436],[-105.88994,31.84447],[-105.88996,31.84476],[-105.89078,31.8442],[-105.89116,31.84408],[-105.89152,31.84365],[-105.89226,31.84355],[-105.89232,31.84279],[-105.89271,31.84247],[-105.89336,31.84127],[-105.89391,31.84106],[-105.89374,31.84059],[-105.89255,31.8405],[-105.89093,31.84151],[-105.89004,31.84117],[-105.88898,31.84198],[-105.88859,31.84135],[-105.88884,31.84087],[-105.88816,31.84067],[-105.88777,31.84186],[-105.88721,31.84221],[-105.88635,31.8419],[-105.88714,31.84196],[-105.88759,31.84153],[-105.88775,31.84077],[-105.88721,31.84038],[-105.88795,31.84016],[-105.8886,31.8397],[-105.88847,31.83919],[-105.88879,31.83914],[-105.88925,31.83934],[-105.88914,31.84022],[-105.89026,31.8407],[-105.89081,31.84044],[-105.89116,31.84054],[-105.89169,31.84046],[-105.89164,31.83994],[-105.89148,31.83969],[-105.8916,31.83938],[-105.89244,31.83955],[-105.89382,31.83705],[-105.89417,31.83598],[-105.89653,31.83515],[-105.89681,31.83432],[-105.90044,31.83465],[-105.90131,31.83563],[-105.90273,31.8358],[-105.90274,31.83571],[-105.9022,31.83549],[-105.9024,31.83535],[-105.90236,31.83485],[-105.90198,31.83473],[-105.90219,31.83423],[-105.90674,31.83415],[-105.90694,31.8343],[-105.90725,31.83415],[-105.90857,31.8342],[-105.90894,31.83441],[-105.90939,31.83527],[-105.9093,31.83561],[-105.9095,31.8359],[-105.90875,31.83639],[-105.90848,31.83679],[-105.90862,31.83705],[-105.90816,31.83726],[-105.90801,31.83768],[-105.90842,31.83774],[-105.90862,31.83797],[-105.90913,31.83781],[-105.90937,31.83792],[-105.90938,31.83805],[-105.90994,31.83786],[-105.91073,31.83787],[-105.91076,31.838],[-105.91142,31.83807],[-105.91157,31.83824],[-105.912,31.83821],[-105.91202,31.83793],[-105.91223,31.83778],[-105.9122,31.83759],[-105.91239,31.83754],[-105.91263,31.83767],[-105.91303,31.83744],[-105.91302,31.8373],[-105.91325,31.83722],[-105.91326,31.83707],[-105.91355,31.83711],[-105.91353,31.83689],[-105.91376,31.8368],[-105.91411,31.83624],[-105.91466,31.83619],[-105.9148,31.83606],[-105.91486,31.83619],[-105.91587,31.83611],[-105.91583,31.83588],[-105.91603,31.83582],[-105.91597,31.83552],[-105.91618,31.83532],[-105.91703,31.83537],[-105.91741,31.83502],[-105.91689,31.8349],[-105.91679,31.83477],[-105.9169,31.83464],[-105.91705,31.83476],[-105.91776,31.83465],[-105.918,31.83476],[-105.91956,31.83456],[-105.92039,31.83489],[-105.92104,31.83457],[-105.92146,31.83457],[-105.92159,31.83436],[-105.92185,31.8343],[-105.92232,31.83434],[-105.92266,31.83461],[-105.923,31.83459],[-105.92352,31.83492],[-105.92365,31.83469],[-105.92362,31.8344],[-105.92381,31.83435],[-105.92413,31.83442],[-105.92418,31.83457],[-105.92559,31.83454],[-105.92579,31.83483],[-105.92632,31.83516],[-105.9274,31.83539],[-105.92763,31.83567],[-105.92834,31.83558],[-105.92905,31.83574],[-105.92921,31.83555],[-105.93001,31.8355],[-105.93082,31.83622],[-105.93112,31.83631],[-105.93167,31.83599],[-105.92961,31.83437],[-105.92898,31.8348],[-105.92888,31.83448],[-105.92905,31.8343],[-105.92904,31.83396],[-105.92917,31.83395],[-105.92907,31.83382],[-105.92428,31.83388],[-105.92396,31.83375],[-105.92457,31.83369],[-105.92468,31.83339],[-105.92429,31.83294],[-105.92356,31.83285],[-105.92392,31.83262],[-105.92384,31.83235],[-105.92307,31.83252],[-105.9228,31.83244],[-105.92147,31.83259],[-105.92081,31.83237],[-105.92082,31.83216],[-105.9211,31.83209],[-105.92123,31.83182],[-105.92178,31.8316],[-105.92164,31.83144],[-105.92254,31.83148],[-105.92278,31.83132],[-105.92142,31.83114],[-105.92099,31.83093],[-105.92112,31.83085],[-105.92107,31.83064],[-105.92049,31.83072],[-105.92091,31.83031],[-105.92168,31.83021],[-105.92167,31.83],[-105.92134,31.82986],[-105.92105,31.82997],[-105.92067,31.82988],[-105.92002,31.83021],[-105.91929,31.83021],[-105.91919,31.83044],[-105.91882,31.83038],[-105.91837,31.83066],[-105.91814,31.83054],[-105.91811,31.83036],[-105.91778,31.83032],[-105.91772,31.83008],[-105.91702,31.82992],[-105.91749,31.82967],[-105.91887,31.8295],[-105.91902,31.82933],[-105.91941,31.82938],[-105.91946,31.82927],[-105.91932,31.82863],[-105.91895,31.82888],[-105.91865,31.82878],[-105.91928,31.82845],[-105.91918,31.8281],[-105.91651,31.82797],[-105.91667,31.82751],[-105.91639,31.82698],[-105.91679,31.82699],[-105.91742,31.8274],[-105.91846,31.82749],[-105.91866,31.82731],[-105.91905,31.82767],[-105.91925,31.82769],[-105.91947,31.82766],[-105.91958,31.82742],[-105.91981,31.82735],[-105.92058,31.82751],[-105.92275,31.82752],[-105.92312,31.82728],[-105.92358,31.82735],[-105.92514,31.82696],[-105.92468,31.82683],[-105.92488,31.82679],[-105.93269,31.82676],[-105.93329,31.82669],[-105.93361,31.82638],[-105.93818,31.82643],[-105.93828,31.82645],[-105.9383,31.82668],[-105.93878,31.82686],[-105.93943,31.82685],[-105.94,31.82708],[-105.94103,31.82712],[-105.94114,31.82727],[-105.94166,31.82707],[-105.94256,31.82713],[-105.94497,31.82779],[-105.94569,31.82827],[-105.94583,31.82797],[-105.94635,31.82828],[-105.94752,31.82832],[-105.94801,31.82852],[-105.94851,31.82838],[-105.94925,31.82863],[-105.9495,31.82855],[-105.94944,31.82883],[-105.95002,31.82895],[-105.94985,31.8294],[-105.95019,31.82969],[-105.9504,31.82967],[-105.95075,31.83008],[-105.95129,31.83012],[-105.95174,31.83042],[-105.95228,31.83043],[-105.95261,31.83058],[-105.95283,31.83034],[-105.95304,31.83058],[-105.95309,31.83099],[-105.95331,31.83113],[-105.95428,31.8315],[-105.95479,31.8319],[-105.95539,31.83185],[-105.95535,31.83157],[-105.95507,31.83154],[-105.9552,31.83129],[-105.9555,31.83162],[-105.95585,31.83162],[-105.95629,31.83188],[-105.95638,31.83226],[-105.95582,31.83321],[-105.95545,31.83342],[-105.95522,31.8334],[-105.95511,31.83358],[-105.95466,31.83359],[-105.95402,31.83339],[-105.95402,31.83361],[-105.95389,31.83363],[-105.95368,31.83359],[-105.95374,31.83342],[-105.9536,31.83336],[-105.95375,31.83324],[-105.95368,31.83301],[-105.9532,31.83303],[-105.95297,31.83287],[-105.95294,31.83311],[-105.95283,31.83312],[-105.95274,31.83272],[-105.953,31.83274],[-105.95287,31.8326],[-105.95346,31.8325],[-105.95291,31.83217],[-105.95064,31.83233],[-105.95024,31.83271],[-105.94963,31.83263],[-105.94929,31.83286],[-105.94883,31.83285],[-105.94883,31.83319],[-105.94844,31.83349],[-105.94799,31.8336],[-105.94794,31.83379],[-105.94806,31.83393]]]},"properties":{"fire_id":"ufid:2023-TXTXS-231336","source_collection":"history-2023","source_objectid":15890,"incident_name":"Loma Desert","mapped_acres":1943.93076857268,"mapped_acres_source":"poly_GISAcres","gis_acres":1943.93076857268,"auto_acres":1943.93131056939,"reported_acres":1946.0,"percent_contained":100.0,"state":"TX","state_wfigs":"US-TX","county":"Hudspeth","discovery_time_utc":"2023-04-05T00:34:52Z","perimeter_time_utc":"2023-04-05T05:34:52Z","perimeter_edit_time_utc":"2023-04-07T15:38:38Z","incident_modified_time_utc":"2023-10-27T15:01:28Z","containment_time_utc":"2023-04-05T22:48:57Z","control_time_utc":null,"fire_out_time_utc":null,"fire_cause":"Undetermined","fire_cause_general":"Undetermined (remarks required)","map_method":"Mixed Methods","source_dataset":"2023 NIFS","unique_fire_identifier":"2023-TXTXS-231336","irwin_id":"{B6C90903-D9B1-47D5-9188-E839FA2FF45D}","global_id":"c10ec0d8-2d64-48d7-b62e-21df0d5fd9b6"}}]}
