{"type":"FeatureCollection","features":[{"type":"Feature","geometry":{"type":"Polygon","coordinates":[[[-78.66852,39.0146],[-78.67051,39.01209],[-78.67206,39.01262],[-78.66995,39.01512],[-78.66852,39.0146]]]},"properties":{"fire_id":"ufid:2023-VAVAF-230092","source_collection":"history-2023","source_objectid":21494,"incident_name":"Cherry Ridge","mapped_acres":0.1,"mapped_acres_source":"poly_GISAcres","gis_acres":0.1,"auto_acres":11.566864764974408,"reported_acres":11.6,"percent_contained":null,"state":"WV","state_wfigs":"US-WV","county":"Hardy","discovery_time_utc":"2023-09-07T17:51:30Z","perimeter_time_utc":"2024-01-18T13:49:23Z","perimeter_edit_time_utc":"2024-01-18T13:49:23Z","incident_modified_time_utc":"2023-09-18T18:41:53Z","containment_time_utc":"2023-09-11T22:00:00Z","control_time_utc":"2023-09-18T16:00:00Z","fire_out_time_utc":"2023-09-18T16:30:00Z","fire_cause":"Human","fire_cause_general":"Power generation / transmission / distribution","map_method":"GPS-Walked","source_dataset":"FFP","unique_fire_identifier":"2023-VAVAF-230092","irwin_id":"{87A0D94B-BB4C-4013-8099-9BAB409362D5}","global_id":"56553325-956d-45a8-969f-8eae95a058b7"}},{"type":"Feature","geometry":{"type":"Polygon","coordinates":[[[-79.20208,38.61887],[-79.20213,38.61928],[-79.20256,38.61968],[-79.20264,38.62014],[-79.20283,38.62033],[-79.20367,38.62038],[-79.2037,38.62187],[-79.20117,38.62245],[-79.1996,38.62196],[-79.19973,38.62267],[-79.1994,38.6231],[-79.1985,38.62313],[-79.19862,38.62372],[-79.19929,38.62427],[-79.19912,38.62472],[-79.19823,38.62513],[-79.19697,38.62605],[-79.19549,38.62632],[-79.19504,38.6267],[-79.19552,38.6273],[-79.19505,38.62816],[-79.19399,38.62793],[-79.19174,38.62668],[-79.19143,38.62685],[-79.19148,38.62744],[-79.19072,38.6283],[-79.19064,38.62862],[-79.19026,38.62888],[-79.19018,38.62926],[-79.19002,38.62931],[-79.18973,38.62889],[-79.18973,38.62777],[-79.18962,38.62746],[-79.18936,38.62744],[-79.18902,38.62784],[-79.18809,38.62775],[-79.18798,38.62789],[-79.18817,38.62827],[-79.18813,38.62901],[-79.18703,38.63055],[-79.18679,38.63051],[-79.18652,38.62957],[-79.1863,38.62941],[-79.18611,38.62947],[-79.18531,38.63031],[-79.18504,38.63042],[-79.18488,38.63034],[-79.18439,38.62947],[-79.18413,38.62944],[-79.18378,38.6306],[-79.18365,38.63071],[-79.18339,38.63063],[-79.18312,38.62971],[-79.18294,38.62952],[-79.1827,38.62958],[-79.1825,38.63],[-79.18231,38.6301],[-79.18181,38.6301],[-79.18125,38.62992],[-79.1806,38.6293],[-79.1803,38.62925],[-79.17745,38.62738],[-79.17722,38.62712],[-79.17696,38.62631],[-79.1769,38.6256],[-79.1772,38.62407],[-79.17713,38.62361],[-79.17733,38.62286],[-79.17793,38.62209],[-79.17729,38.62094],[-79.1777,38.62014],[-79.17757,38.61933],[-79.1778,38.62004],[-79.17762,38.61936],[-79.17783,38.61875],[-79.17794,38.6168],[-79.17884,38.61596],[-79.17917,38.61555],[-79.17932,38.61512],[-79.18007,38.61418],[-79.18282,38.61317],[-79.18353,38.61259],[-79.18428,38.61137],[-79.18483,38.61111],[-79.18516,38.61069],[-79.18407,38.61043],[-79.18319,38.60942],[-79.18296,38.60889],[-79.18273,38.60768],[-79.18294,38.60717],[-79.18315,38.60689],[-79.1835,38.60672],[-79.18364,38.60643],[-79.18647,38.60757],[-79.18659,38.60792],[-79.18627,38.60878],[-79.18672,38.60881],[-79.18786,38.60784],[-79.18868,38.60741],[-79.18847,38.60706],[-79.18856,38.60688],[-79.18912,38.60652],[-79.18948,38.606],[-79.19085,38.60528],[-79.19164,38.60511],[-79.19231,38.60477],[-79.19371,38.60484],[-79.19475,38.60519],[-79.19637,38.60514],[-79.19711,38.60532],[-79.19805,38.60532],[-79.19823,38.60548],[-79.19904,38.60729],[-79.19936,38.60753],[-79.19917,38.60778],[-79.19835,38.60809],[-79.19831,38.60836],[-79.19883,38.6086],[-79.19977,38.6087],[-79.201,38.60834],[-79.20138,38.60877],[-79.20049,38.60934],[-79.19995,38.60947],[-79.19959,38.60972],[-79.19973,38.61042],[-79.2,38.61079],[-79.1999,38.61134],[-79.19939,38.61139],[-79.19882,38.61097],[-79.19856,38.61112],[-79.19876,38.61243],[-79.19903,38.61317],[-79.19904,38.61377],[-79.1992,38.61384],[-79.19974,38.61365],[-79.19993,38.61385],[-79.19973,38.61457],[-79.20014,38.61501],[-79.1997,38.61561],[-79.20079,38.61624],[-79.20081,38.61645],[-79.20043,38.61676],[-79.20043,38.61702],[-79.2011,38.61743],[-79.20103,38.61793],[-79.2016,38.61859],[-79.20208,38.61887]]]},"properties":{"fire_id":"ufid:2023-VAVAF-230120","source_collection":"history-2023","source_objectid":23789,"incident_name":"Heavener Mountain","mapped_acres":1078.4776039484593,"mapped_acres_source":"poly_Acres_AutoCalc_fallback","gis_acres":null,"auto_acres":1078.4776039484593,"reported_acres":600.0,"percent_contained":null,"state":"WV","state_wfigs":"US-WV","county":"Pendleton","discovery_time_utc":"2023-11-07T10:30:00Z","perimeter_time_utc":"2024-01-16T21:14:35Z","perimeter_edit_time_utc":"2024-01-16T21:14:36Z","incident_modified_time_utc":"2023-12-11T17:30:59Z","containment_time_utc":"2023-11-11T23:00:00Z","control_time_utc":"2023-12-11T17:00:00Z","fire_out_time_utc":"2023-12-11T17:00:00Z","fire_cause":"Human","fire_cause_general":"Arson","map_method":"Mixed Methods","source_dataset":"FFP","unique_fire_identifier":"2023-VAVAF-230120","irwin_id":"{CF73C2AA-BE76-4BB6-B860-8EAA4D13AC48}","global_id":"04062e88-e18f-49e5-bb0f-6e71ccdab42f"}},{"type":"Feature","geometry":{"type":"Polygon","coordinates":[[[-78.66681,39.0265],[-78.667,39.02644],[-78.66754,39.02551],[-78.66935,39.02347],[-78.67048,39.02291],[-78.6707,39.02296],[-78.67114,39.02336],[-78.67198,39.02269],[-78.67281,39.02259],[-78.67254,39.02327],[-78.6726,39.0238],[-78.67285,39.02426],[-78.67183,39.02448],[-78.67235,39.02489],[-78.67216,39.02495],[-78.67217,39.02547],[-78.67195,39.02624],[-78.67157,39.02628],[-78.67164,39.02658],[-78.67119,39.02693],[-78.67027,39.02734],[-78.66933,39.02745],[-78.6689,39.02764],[-78.66895,39.02729],[-78.66801,39.02729],[-78.66787,39.02713],[-78.66741,39.02703],[-78.66681,39.0265]]]},"properties":{"fire_id":"ufid:2023-VAVAF-230026","source_collection":"history-2023","source_objectid":23797,"incident_name":"Thorne Bottom","mapped_acres":25.0,"mapped_acres_source":"poly_GISAcres","gis_acres":25.0,"auto_acres":41.31537223757356,"reported_acres":41.31,"percent_contained":null,"state":"WV","state_wfigs":"US-WV","county":"Hardy","discovery_time_utc":"2023-03-15T17:57:00Z","perimeter_time_utc":"2024-01-18T10:46:09Z","perimeter_edit_time_utc":"2024-01-18T10:46:09Z","incident_modified_time_utc":"2023-03-31T21:25:19Z","containment_time_utc":"2023-03-16T22:00:00Z","control_time_utc":"2023-03-28T21:00:00Z","fire_out_time_utc":"2023-03-28T22:00:00Z","fire_cause":"Human","fire_cause_general":"Other causes","map_method":"Hand Sketch","source_dataset":"FFP","unique_fire_identifier":"2023-VAVAF-230026","irwin_id":"{DA63D60B-805A-48F4-95DD-60221911A68C}","global_id":"836ba372-6583-4f25-8b8c-d9e05f9f96a3"}}]}
