{"type":"FeatureCollection","features":[{"type":"Feature","geometry":{"type":"Polygon","coordinates":[[[-110.79152,43.47425],[-110.79133,43.47442],[-110.79143,43.47463],[-110.7913,43.47481],[-110.79093,43.47459],[-110.79104,43.47438],[-110.79152,43.47425]]]},"properties":{"fire_id":"ufid:2023-WYTDX-002301","source_collection":"history-2023","source_objectid":17300,"incident_name":"Highway 22 Fire","mapped_acres":0.342698755938026,"mapped_acres_source":"poly_GISAcres","gis_acres":0.342698755938026,"auto_acres":0.342698838627196,"reported_acres":0.25,"percent_contained":null,"state":"WY","state_wfigs":"US-WY","county":"Teton","discovery_time_utc":"2023-06-05T21:39:58Z","perimeter_time_utc":null,"perimeter_edit_time_utc":"2023-06-07T19:58:54Z","incident_modified_time_utc":"2023-06-21T15:22:28Z","containment_time_utc":"2023-06-05T22:30:00Z","control_time_utc":"2023-06-05T23:33:00Z","fire_out_time_utc":"2023-06-05T23:33:00Z","fire_cause":"Undetermined","fire_cause_general":null,"map_method":"Mixed Methods","source_dataset":"2023 NIFS","unique_fire_identifier":"2023-WYTDX-002301","irwin_id":"{415763AF-55D7-47E5-952C-232F10CAD75E}","global_id":"bfb8eff6-61ce-4fc0-8c8b-f671c0540de8"}},{"type":"Feature","geometry":{"type":"Polygon","coordinates":[[[-110.56887,43.95885],[-110.56887,43.95897],[-110.56867,43.95906],[-110.56856,43.95895],[-110.56863,43.95881],[-110.56887,43.95885]]]},"properties":{"fire_id":"ufid:2023-WYBTF-002304","source_collection":"history-2023","source_objectid":18619,"incident_name":"Pilgrim Creek","mapped_acres":0.1,"mapped_acres_source":"poly_GISAcres","gis_acres":0.1,"auto_acres":0.12000803246320883,"reported_acres":0.1,"percent_contained":null,"state":"WY","state_wfigs":"US-WY","county":"Teton","discovery_time_utc":"2023-07-25T18:18:20Z","perimeter_time_utc":"2023-08-19T19:46:01Z","perimeter_edit_time_utc":"2023-08-19T19:46:01Z","incident_modified_time_utc":"2023-07-28T16:18:42Z","containment_time_utc":"2023-07-26T16:00:00Z","control_time_utc":"2023-07-26T23:25:00Z","fire_out_time_utc":"2023-07-28T14:08:00Z","fire_cause":"Natural","fire_cause_general":"Natural","map_method":"Auto-generated","source_dataset":"FFP","unique_fire_identifier":"2023-WYBTF-002304","irwin_id":"{D215798C-31A2-4BF2-8FD8-096C20E919EA}","global_id":"58fe94ca-712d-4922-9fa6-950540418826"}}]}
