{"type":"FeatureCollection","features":[{"type":"Feature","geometry":{"type":"Polygon","coordinates":[[[-165.16516,60.58075],[-165.16555,60.58049],[-165.16567,60.5798],[-165.16611,60.57934],[-165.16615,60.57865],[-165.16654,60.57849],[-165.16701,60.5786],[-165.16707,60.57914],[-165.16743,60.5793],[-165.16756,60.57979],[-165.16793,60.57993],[-165.16793,60.58048],[-165.16828,60.58096],[-165.168,60.58135],[-165.16761,60.58151],[-165.16751,60.58168],[-165.16841,60.5817],[-165.16841,60.5819],[-165.16807,60.58233],[-165.16863,60.58246],[-165.16868,60.58229],[-165.16927,60.58224],[-165.16948,60.58255],[-165.16942,60.58279],[-165.16883,60.58355],[-165.16804,60.58367],[-165.16682,60.58312],[-165.16659,60.5824],[-165.16631,60.58237],[-165.16606,60.58258],[-165.16606,60.58282],[-165.16573,60.58295],[-165.16581,60.58317],[-165.16647,60.58337],[-165.16647,60.58351],[-165.16806,60.58378],[-165.16829,60.58393],[-165.16895,60.58389],[-165.16928,60.58365],[-165.17038,60.58353],[-165.17054,60.5833],[-165.17045,60.58285],[-165.17056,60.58236],[-165.17096,60.58269],[-165.17081,60.58373],[-165.17106,60.58387],[-165.17165,60.5838],[-165.17173,60.58402],[-165.17262,60.58418],[-165.17272,60.58433],[-165.17325,60.58434],[-165.17352,60.58392],[-165.17338,60.58353],[-165.1744,60.5838],[-165.17474,60.58375],[-165.1749,60.58356],[-165.1747,60.58341],[-165.17351,60.58338],[-165.17292,60.58281],[-165.17212,60.5827],[-165.17203,60.58246],[-165.17246,60.58213],[-165.17269,60.58254],[-165.17414,60.58281],[-165.17436,60.58304],[-165.17477,60.58299],[-165.17495,60.58266],[-165.17545,60.58266],[-165.17585,60.5829],[-165.17579,60.58271],[-165.1763,60.58247],[-165.17621,60.58232],[-165.17634,60.58222],[-165.17679,60.58218],[-165.17703,60.58247],[-165.17727,60.58249],[-165.17804,60.58225],[-165.17852,60.58256],[-165.17817,60.58273],[-165.17826,60.58289],[-165.17793,60.58314],[-165.17799,60.58336],[-165.17776,60.58361],[-165.17759,60.58441],[-165.17644,60.58522],[-165.17559,60.58511],[-165.17516,60.58473],[-165.1738,60.58503],[-165.17365,60.58526],[-165.1733,60.58544],[-165.17255,60.58542],[-165.17232,60.58517],[-165.17233,60.58494],[-165.17177,60.58495],[-165.17132,60.58504],[-165.17143,60.58573],[-165.1712,60.58615],[-165.1704,60.58627],[-165.16983,60.58653],[-165.16927,60.58625],[-165.16946,60.58565],[-165.16928,60.58555],[-165.1689,60.58555],[-165.16847,60.58583],[-165.16805,60.58586],[-165.16782,60.58578],[-165.16763,60.58551],[-165.16773,60.58537],[-165.16703,60.58562],[-165.16668,60.58558],[-165.1664,60.58512],[-165.16654,60.58484],[-165.16637,60.5847],[-165.16516,60.58461],[-165.1643,60.58404],[-165.16414,60.58361],[-165.16356,60.58387],[-165.16355,60.58407],[-165.16301,60.58413],[-165.16279,60.58429],[-165.16304,60.58442],[-165.16304,60.58501],[-165.16244,60.58493],[-165.16199,60.58402],[-165.16226,60.5836],[-165.16208,60.58353],[-165.16199,60.58331],[-165.16136,60.58403],[-165.16148,60.58456],[-165.16114,60.58464],[-165.16111,60.58478],[-165.16151,60.58536],[-165.16283,60.58554],[-165.1631,60.58568],[-165.16314,60.58588],[-165.16275,60.58606],[-165.16265,60.58645],[-165.16191,60.58672],[-165.16075,60.5867],[-165.16002,60.58729],[-165.15921,60.58736],[-165.15917,60.58694],[-165.15876,60.58672],[-165.15843,60.58728],[-165.15802,60.58733],[-165.15738,60.58715],[-165.15679,60.58674],[-165.15573,60.58657],[-165.15552,60.58633],[-165.1557,60.58584],[-165.15598,60.58553],[-165.15623,60.58453],[-165.15668,60.58432],[-165.15669,60.5842],[-165.1573,60.58373],[-165.1574,60.58326],[-165.15818,60.58317],[-165.15838,60.58297],[-165.15718,60.58265],[-165.15713,60.58239],[-165.15757,60.5824],[-165.15814,60.58271],[-165.15855,60.58269],[-165.15879,60.58219],[-165.1599,60.5821],[-165.16052,60.58192],[-165.16069,60.58171],[-165.16069,60.58145],[-165.1612,60.58111],[-165.16163,60.58168],[-165.1616,60.58218],[-165.16151,60.58245],[-165.16107,60.58247],[-165.16078,60.58266],[-165.1608,60.58277],[-165.16173,60.58269],[-165.1622,60.58283],[-165.16257,60.58253],[-165.16242,60.58222],[-165.16269,60.58199],[-165.1624,60.58188],[-165.16236,60.58168],[-165.1626,60.58149],[-165.16318,60.5815],[-165.16391,60.58172],[-165.16414,60.58204],[-165.16411,60.58218],[-165.16429,60.58225],[-165.16482,60.58221],[-165.16525,60.58171],[-165.16478,60.58137],[-165.1649,60.58106],[-165.16521,60.58086],[-165.16516,60.58075]]]},"properties":{"fire_id":"ufid:2022-AKSWS-204233","source_collection":"history-2022","source_objectid":10702,"incident_name":"Ugchirnak Mountain","mapped_acres":107.3009,"mapped_acres_source":"poly_GISAcres","gis_acres":107.3009,"auto_acres":107.30042262117222,"reported_acres":107.3,"percent_contained":null,"state":"AK","state_wfigs":"US-AK","county":"Bethel","discovery_time_utc":"2022-06-08T02:17:38Z","perimeter_time_utc":"2022-09-07T21:32:53Z","perimeter_edit_time_utc":"2023-03-14T15:13:42Z","incident_modified_time_utc":"2022-08-10T01:16:33Z","containment_time_utc":"2022-06-09T21:10:25Z","control_time_utc":"2022-06-10T21:25:25Z","fire_out_time_utc":"2022-08-04T02:00:04Z","fire_cause":"Natural","fire_cause_general":"Natural","map_method":"Digitized-Image","source_dataset":"FFP","unique_fire_identifier":"2022-AKSWS-204233","irwin_id":"{92C97C36-1D4E-496E-BDDC-4F9BF38B3178}","global_id":"6c9e8d59-7edb-477a-b7db-56f0ade44076"}}]}
