{"type":"FeatureCollection","features":[{"type":"Feature","geometry":{"type":"Polygon","coordinates":[[[-160.43518,55.3404],[-160.43452,55.34019],[-160.434,55.33956],[-160.43238,55.33884],[-160.43036,55.33829],[-160.42909,55.33821],[-160.42839,55.33789],[-160.42792,55.33784],[-160.42844,55.33768],[-160.43005,55.33778],[-160.43,55.33768],[-160.42906,55.33751],[-160.42896,55.33721],[-160.42834,55.33723],[-160.42833,55.33671],[-160.42875,55.33653],[-160.42851,55.33628],[-160.42853,55.33604],[-160.42886,55.33593],[-160.42902,55.33558],[-160.42981,55.33588],[-160.42999,55.33572],[-160.42959,55.33556],[-160.42956,55.33544],[-160.43006,55.33541],[-160.43043,55.33496],[-160.43133,55.33462],[-160.43153,55.33487],[-160.43157,55.33525],[-160.43244,55.33482],[-160.4332,55.33476],[-160.43348,55.33497],[-160.43345,55.33507],[-160.43392,55.33522],[-160.43407,55.33542],[-160.43399,55.33571],[-160.43352,55.33596],[-160.43444,55.33618],[-160.4346,55.33643],[-160.43454,55.33655],[-160.43394,55.33716],[-160.43227,55.33742],[-160.43123,55.33791],[-160.43356,55.33835],[-160.43449,55.33877],[-160.43511,55.33873],[-160.43529,55.33903],[-160.43597,55.33942],[-160.43634,55.34026],[-160.43664,55.34],[-160.43688,55.33998],[-160.43745,55.34015],[-160.43772,55.3404],[-160.43784,55.34063],[-160.43742,55.34083],[-160.4377,55.34106],[-160.43776,55.34145],[-160.43732,55.34166],[-160.43781,55.34201],[-160.43754,55.34201],[-160.43746,55.34212],[-160.43755,55.34234],[-160.43719,55.34279],[-160.43733,55.3432],[-160.43725,55.34346],[-160.43627,55.34468],[-160.43616,55.34463],[-160.43591,55.34489],[-160.436,55.34494],[-160.43589,55.34521],[-160.43547,55.34564],[-160.4347,55.3458],[-160.43401,55.34559],[-160.43364,55.34508],[-160.43315,55.34363],[-160.43238,55.34294],[-160.4322,55.34251],[-160.43279,55.34221],[-160.43312,55.3412],[-160.43361,55.34068],[-160.43429,55.34047],[-160.43502,55.34081],[-160.43518,55.34063],[-160.43495,55.34048],[-160.43518,55.3404]]]},"properties":{"fire_id":"ufid:2022-AKSWS-204074","source_collection":"history-2022","source_objectid":2736,"incident_name":"Danger Point","mapped_acres":70.4444041446687,"mapped_acres_source":"poly_GISAcres","gis_acres":70.4444041446687,"auto_acres":70.4441104790557,"reported_acres":70.4,"percent_contained":null,"state":"AK","state_wfigs":"US-AK","county":"Aleutians East","discovery_time_utc":"2022-05-12T19:48:15Z","perimeter_time_utc":"2022-05-13T20:00:00Z","perimeter_edit_time_utc":"2022-09-19T23:04:03Z","incident_modified_time_utc":"2022-10-07T22:59:07Z","containment_time_utc":"2022-05-14T04:18:16Z","control_time_utc":"2022-05-14T20:33:26Z","fire_out_time_utc":"2022-05-16T20:39:00Z","fire_cause":"Human","fire_cause_general":null,"map_method":"Mixed Methods","source_dataset":"2022 NIFS","unique_fire_identifier":"2022-AKSWS-204074","irwin_id":"{D3A21370-0549-4DEB-8B80-45E383B2A806}","global_id":"94659b19-7716-4b56-97ba-55c6f05765cd"}},{"type":"Feature","geometry":{"type":"Polygon","coordinates":[[[-161.8837,59.70857],[-161.88332,59.70876],[-161.88351,59.70901],[-161.88305,59.70903],[-161.88294,59.70891],[-161.88303,59.70872],[-161.88155,59.70846],[-161.88022,59.70803],[-161.87997,59.70781],[-161.87951,59.70778],[-161.87491,59.70494],[-161.87337,59.70344],[-161.87458,59.70361],[-161.87574,59.70402],[-161.87628,59.70408],[-161.8765,59.70421],[-161.8766,59.70455],[-161.87721,59.70467],[-161.87709,59.70485],[-161.87778,59.70461],[-161.87903,59.70472],[-161.88061,59.70533],[-161.88198,59.7064],[-161.88202,59.70665],[-161.88267,59.70685],[-161.88282,59.70706],[-161.88269,59.70714],[-161.88325,59.70716],[-161.88332,59.70728],[-161.88304,59.70755],[-161.88341,59.70784],[-161.88359,59.70833],[-161.88346,59.70843],[-161.8837,59.70857]]]},"properties":{"fire_id":"ufid:2022-AKSWS-204090","source_collection":"history-2022","source_objectid":4931,"incident_name":"Arolik","mapped_acres":29.17279,"mapped_acres_source":"poly_GISAcres","gis_acres":29.17279,"auto_acres":29.17267049720709,"reported_acres":29.2,"percent_contained":null,"state":"AK","state_wfigs":"US-AK","county":"Bethel","discovery_time_utc":"2022-05-17T02:00:36Z","perimeter_time_utc":"2022-09-21T19:18:14Z","perimeter_edit_time_utc":"2023-03-14T15:13:42Z","incident_modified_time_utc":"2022-09-01T20:21:20Z","containment_time_utc":"2022-05-17T03:01:56Z","control_time_utc":"2022-05-17T03:02:00Z","fire_out_time_utc":"2022-07-22T20:46:45Z","fire_cause":"Human","fire_cause_general":"Recreation and ceremony","map_method":"Image Interpretation","source_dataset":"FFP","unique_fire_identifier":"2022-AKSWS-204090","irwin_id":"{80E2373F-E92E-479C-ADC0-79ABB8F10082}","global_id":"d05c6635-c91c-4593-8ec4-96c3f462ac2f"}},{"type":"Feature","geometry":{"type":"Polygon","coordinates":[[[-161.55942,59.12521],[-161.55904,59.12552],[-161.55873,59.12542],[-161.55905,59.12515],[-161.55942,59.12521]]]},"properties":{"fire_id":"ufid:2022-AKSWS-204166","source_collection":"history-2022","source_objectid":7077,"incident_name":"Mumtrak Hill","mapped_acres":0.3,"mapped_acres_source":"poly_GISAcres","gis_acres":0.3,"auto_acres":0.2687907224204632,"reported_acres":0.3,"percent_contained":null,"state":"AK","state_wfigs":"US-AK","county":"Bethel","discovery_time_utc":"2022-06-02T01:12:36Z","perimeter_time_utc":"2022-09-07T21:07:30Z","perimeter_edit_time_utc":"2023-03-14T15:13:42Z","incident_modified_time_utc":"2022-08-16T18:15:53Z","containment_time_utc":"2022-08-04T02:00:41Z","control_time_utc":"2022-08-04T02:00:44Z","fire_out_time_utc":"2022-08-04T02:00:48Z","fire_cause":"Human","fire_cause_general":"Power generation / transmission / distribution","map_method":"Image Interpretation","source_dataset":"FFP","unique_fire_identifier":"2022-AKSWS-204166","irwin_id":"{25977ABD-FB23-46B8-9AAA-2C98C3FE6B31}","global_id":"0ce66747-170f-4569-80f9-b8e0f6643d22"}}]}
