{"type":"FeatureCollection","features":[{"type":"Feature","geometry":{"type":"MultiPolygon","coordinates":[[[[-85.9783,33.40862],[-85.97908,33.40824],[-85.97962,33.40863],[-85.98023,33.40887],[-85.98037,33.4092],[-85.98091,33.40929],[-85.98127,33.40958],[-85.98139,33.40999],[-85.98159,33.41018],[-85.98183,33.40994],[-85.98189,33.40966],[-85.98231,33.40973],[-85.98251,33.41087],[-85.98232,33.41128],[-85.98062,33.4127],[-85.97914,33.41365],[-85.97909,33.41355],[-85.97878,33.41362],[-85.9787,33.41352],[-85.97873,33.41316],[-85.97912,33.41236],[-85.97903,33.41209],[-85.97914,33.41156],[-85.97912,33.41129],[-85.9789,33.41121],[-85.97869,33.4108],[-85.97919,33.41071],[-85.97896,33.41053],[-85.9788,33.40998],[-85.97858,33.40973],[-85.97855,33.40933],[-85.97818,33.40882],[-85.9783,33.40862]]],[[[-85.98231,33.40973],[-85.98231,33.40972],[-85.98232,33.40973],[-85.98231,33.40973]]]]},"properties":{"fire_id":"ufid:2022-ALALS-220145","source_collection":"history-2022","source_objectid":992,"incident_name":"TL Cemetery 2 Assist","mapped_acres":31.6263254529414,"mapped_acres_source":"poly_Acres_AutoCalc_fallback","gis_acres":null,"auto_acres":31.6263254529414,"reported_acres":32.0,"percent_contained":null,"state":"AL","state_wfigs":"US-AL","county":"Talladega","discovery_time_utc":"2022-03-06T22:40:41Z","perimeter_time_utc":null,"perimeter_edit_time_utc":"2022-03-08T14:31:20Z","incident_modified_time_utc":"2022-03-16T17:28:40Z","containment_time_utc":null,"control_time_utc":null,"fire_out_time_utc":null,"fire_cause":"Undetermined","fire_cause_general":"Other Human Cause","map_method":"Hand Sketch","source_dataset":"2022 NIFS","unique_fire_identifier":"2022-ALALS-220145","irwin_id":"{B6033701-D841-4793-A0C2-9455BA4A3406}","global_id":"b4361d2d-c276-49b1-9987-0d2d5d2b0433"}},{"type":"Feature","geometry":{"type":"Polygon","coordinates":[[[-85.68266,34.35436],[-85.6836,34.35442],[-85.68313,34.35565],[-85.68272,34.35541],[-85.68266,34.35436]]]},"properties":{"fire_id":"ufid:2022-ALLRP-220209","source_collection":"history-2022","source_objectid":1919,"incident_name":"Tiger Fire","mapped_acres":6.0,"mapped_acres_source":"poly_GISAcres","gis_acres":6.0,"auto_acres":2.00597361682866,"reported_acres":6.0,"percent_contained":null,"state":"AL","state_wfigs":"US-AL","county":"Bibb","discovery_time_utc":"2022-06-23T19:26:00Z","perimeter_time_utc":"2022-06-24T00:26:03Z","perimeter_edit_time_utc":"2022-08-09T15:55:31Z","incident_modified_time_utc":"2023-01-11T13:38:11Z","containment_time_utc":"2022-06-24T01:00:00Z","control_time_utc":null,"fire_out_time_utc":null,"fire_cause":"Human","fire_cause_general":null,"map_method":"Hand Sketch","source_dataset":"2022 NIFS","unique_fire_identifier":"2022-ALLRP-220209","irwin_id":"{05F4CD88-3A12-48E7-87BB-5BD291770437}","global_id":"dfedf2d2-e1bc-4080-8734-65be01e22e55"}},{"type":"Feature","geometry":{"type":"Polygon","coordinates":[[[-86.64043,31.07104],[-86.64001,31.0711],[-86.63948,31.07096],[-86.63914,31.07065],[-86.63904,31.07013],[-86.63921,31.06993],[-86.63973,31.0698],[-86.64014,31.06992],[-86.64039,31.06963],[-86.64053,31.06966],[-86.64065,31.06992],[-86.64043,31.07104]]]},"properties":{"fire_id":"ufid:2022-ALALF-220129","source_collection":"history-2022","source_objectid":4150,"incident_name":"CN Wolf","mapped_acres":4.366417438313217,"mapped_acres_source":"poly_Acres_AutoCalc_fallback","gis_acres":null,"auto_acres":4.366417438313217,"reported_acres":7.0,"percent_contained":null,"state":"AL","state_wfigs":"US-AL","county":"Covington","discovery_time_utc":"2022-03-03T23:02:34Z","perimeter_time_utc":"2023-01-13T02:46:01Z","perimeter_edit_time_utc":"2023-03-14T15:13:42Z","incident_modified_time_utc":"2023-01-04T21:33:34Z","containment_time_utc":"2022-03-04T02:14:00Z","control_time_utc":"2022-03-10T16:54:00Z","fire_out_time_utc":"2022-03-10T16:54:00Z","fire_cause":"Human","fire_cause_general":"Smoking","map_method":"Hand Sketch","source_dataset":"FFP","unique_fire_identifier":"2022-ALALF-220129","irwin_id":"{DBBD2D0C-0828-4975-A7E6-AF988E3EB78E}","global_id":"c30a04b6-655e-4504-ab2b-ea0e6a31344f"}},{"type":"Feature","geometry":{"type":"Polygon","coordinates":[[[-85.65075,32.41405],[-85.65059,32.41429],[-85.64978,32.41461],[-85.64957,32.41487],[-85.64943,32.41551],[-85.64909,32.4155],[-85.64911,32.41633],[-85.64805,32.41788],[-85.64732,32.41861],[-85.64672,32.41872],[-85.64475,32.41777],[-85.64453,32.41564],[-85.64569,32.41517],[-85.65075,32.41405]]]},"properties":{"fire_id":"ufid:2022-ALALF-220156","source_collection":"history-2022","source_objectid":4190,"incident_name":"TK 26","mapped_acres":37.24,"mapped_acres_source":"poly_GISAcres","gis_acres":37.24,"auto_acres":37.96598366250654,"reported_acres":38.0,"percent_contained":null,"state":"AL","state_wfigs":"US-AL","county":"Macon","discovery_time_utc":"2022-03-21T21:54:00Z","perimeter_time_utc":"2023-01-13T03:02:44Z","perimeter_edit_time_utc":"2023-03-14T15:13:42Z","incident_modified_time_utc":"2022-12-29T15:38:21Z","containment_time_utc":"2022-03-22T21:36:00Z","control_time_utc":"2022-03-24T20:30:00Z","fire_out_time_utc":"2022-04-08T14:30:00Z","fire_cause":"Human","fire_cause_general":"Debris and open burning","map_method":"GPS-Walked","source_dataset":"FFP","unique_fire_identifier":"2022-ALALF-220156","irwin_id":"{ED86DC25-E218-4866-AF6B-9EB6DFD4DA25}","global_id":"103bae8e-4a75-451e-812a-9bcae598ef9a"}},{"type":"Feature","geometry":{"type":"Polygon","coordinates":[[[-85.9897,33.35197],[-85.98948,33.35192],[-85.98953,33.35172],[-85.98929,33.35179],[-85.98952,33.35129],[-85.9891,33.35092],[-85.98938,33.35079],[-85.98908,33.3507],[-85.98947,33.35026],[-85.98927,33.34994],[-85.9885,33.35024],[-85.98815,33.35025],[-85.98877,33.35042],[-85.98892,33.35031],[-85.98905,33.35076],[-85.98878,33.35105],[-85.98842,33.3512],[-85.9882,33.35104],[-85.98761,33.3516],[-85.9873,33.35145],[-85.98711,33.35056],[-85.98728,33.35007],[-85.9878,33.34969],[-85.98776,33.34901],[-85.98789,33.34846],[-85.98779,33.34812],[-85.98832,33.34785],[-85.98967,33.3502],[-85.99063,33.35121],[-85.99185,33.35178],[-85.99303,33.35206],[-85.99358,33.35289],[-85.99436,33.35318],[-85.99439,33.35334],[-85.99353,33.35392],[-85.99307,33.35439],[-85.993,33.35465],[-85.99342,33.35508],[-85.99431,33.3551],[-85.99476,33.35522],[-85.99497,33.35547],[-85.99368,33.35599],[-85.99076,33.35626],[-85.99048,33.35652],[-85.99013,33.35736],[-85.98989,33.35747],[-85.98901,33.35724],[-85.98788,33.3574],[-85.98715,33.35725],[-85.98558,33.35593],[-85.98555,33.355],[-85.9859,33.35439],[-85.98622,33.35217],[-85.98716,33.35207],[-85.98741,33.3523],[-85.98736,33.35271],[-85.98767,33.35276],[-85.9887,33.35252],[-85.9897,33.35197]],[[-85.98942,33.35],[-85.98942,33.34998],[-85.98937,33.35],[-85.98942,33.35]]]},"properties":{"fire_id":"ufid:2022-ALALF-220190","source_collection":"history-2022","source_objectid":4223,"incident_name":"Forest Fire %2310","mapped_acres":2.0,"mapped_acres_source":"poly_GISAcres","gis_acres":2.0,"auto_acres":109.63920513762953,"reported_acres":126.0,"percent_contained":null,"state":"AL","state_wfigs":"US-AL","county":"Talladega","discovery_time_utc":"2022-04-25T19:26:00Z","perimeter_time_utc":"2023-01-13T03:12:00Z","perimeter_edit_time_utc":"2023-03-14T15:13:42Z","incident_modified_time_utc":"2022-12-29T19:34:27Z","containment_time_utc":"2022-04-25T23:30:00Z","control_time_utc":"2022-04-26T17:17:00Z","fire_out_time_utc":null,"fire_cause":"Human","fire_cause_general":"Railroad operations and maintenance","map_method":"Hand Sketch","source_dataset":"FFP","unique_fire_identifier":"2022-ALALF-220190","irwin_id":"{9E4C8E6A-759D-479E-A674-42D9157FE22B}","global_id":"35e71d80-4212-4599-b5ec-720085e89c40"}},{"type":"Feature","geometry":{"type":"Polygon","coordinates":[[[-87.225,32.79133],[-87.22715,32.78929],[-87.2278,32.78915],[-87.22929,32.78989],[-87.23071,32.78951],[-87.23066,32.78985],[-87.23079,32.79016],[-87.23219,32.79283],[-87.2322,32.79318],[-87.23196,32.79351],[-87.23245,32.79427],[-87.23229,32.79506],[-87.23264,32.79892],[-87.23306,32.79955],[-87.23423,32.80013],[-87.23545,32.80037],[-87.23669,32.80028],[-87.23919,32.79964],[-87.24004,32.79991],[-87.24028,32.80025],[-87.24058,32.80144],[-87.24093,32.80177],[-87.241,32.80237],[-87.24087,32.80309],[-87.24055,32.80362],[-87.24039,32.80421],[-87.23827,32.80592],[-87.23703,32.80604],[-87.23535,32.80555],[-87.23402,32.8056],[-87.23324,32.80587],[-87.23245,32.80594],[-87.23242,32.80748],[-87.23147,32.80776],[-87.23126,32.80753],[-87.23063,32.80743],[-87.23045,32.80758],[-87.2304,32.80795],[-87.22896,32.80847],[-87.22848,32.80799],[-87.2273,32.80807],[-87.22648,32.80712],[-87.22598,32.80676],[-87.2257,32.80618],[-87.22552,32.80461],[-87.22552,32.80417],[-87.2257,32.8039],[-87.22552,32.80318],[-87.22599,32.80036],[-87.22627,32.8003],[-87.22594,32.79999],[-87.22543,32.79858],[-87.22543,32.79806],[-87.22573,32.79772],[-87.22549,32.7971],[-87.22489,32.79629],[-87.22455,32.7947],[-87.22453,32.7942],[-87.22498,32.79221],[-87.225,32.79133]]]},"properties":{"fire_id":"ufid:2022-ALALF-220061","source_collection":"history-2022","source_objectid":6004,"incident_name":"OK Heiberger","mapped_acres":487.58,"mapped_acres_source":"poly_GISAcres","gis_acres":487.58,"auto_acres":435.49089327572926,"reported_acres":450.02,"percent_contained":null,"state":"AL","state_wfigs":"US-AL","county":"Perry","discovery_time_utc":"2022-01-31T21:29:00Z","perimeter_time_utc":"2022-07-22T20:04:06Z","perimeter_edit_time_utc":"2023-03-14T15:13:42Z","incident_modified_time_utc":"2022-03-09T15:54:21Z","containment_time_utc":"2022-02-05T17:26:00Z","control_time_utc":null,"fire_out_time_utc":"2022-02-25T20:45:00Z","fire_cause":"Human","fire_cause_general":"Arson","map_method":"Hand Sketch","source_dataset":"FFP","unique_fire_identifier":"2022-ALALF-220061","irwin_id":"{650C5B6C-2AB7-4854-824D-4E04A750D894}","global_id":"f5e814f0-edf2-40b7-b7c3-884cbd6b8cb5"}},{"type":"Feature","geometry":{"type":"Polygon","coordinates":[[[-85.65623,34.36164],[-85.65624,34.36164],[-85.65625,34.36165],[-85.65623,34.36164]]]},"properties":{"fire_id":"ufid:2022-ALLRP-220200","source_collection":"history-2022","source_objectid":6423,"incident_name":"NPS Canyon View","mapped_acres":0.5,"mapped_acres_source":"poly_GISAcres","gis_acres":0.5,"auto_acres":0.00036348048746018616,"reported_acres":0.5,"percent_contained":null,"state":"AL","state_wfigs":"US-AL","county":"Cherokee","discovery_time_utc":"2022-05-11T23:35:00Z","perimeter_time_utc":"2022-09-06T20:03:11Z","perimeter_edit_time_utc":"2023-03-14T15:13:42Z","incident_modified_time_utc":"2022-07-29T14:52:57Z","containment_time_utc":"2022-07-01T17:00:00Z","control_time_utc":"2022-07-01T17:00:00Z","fire_out_time_utc":"2022-08-01T20:00:00Z","fire_cause":"Human","fire_cause_general":"Debris and open burning","map_method":"Hand Sketch","source_dataset":"FFP","unique_fire_identifier":"2022-ALLRP-220200","irwin_id":"{A754121D-60F5-459E-8E69-32FBEB96D444}","global_id":"ad65be22-c00c-4759-88a3-a8beba473ff5"}},{"type":"Feature","geometry":{"type":"MultiPolygon","coordinates":[[[[-85.58065,33.74774],[-85.58046,33.74712],[-85.58084,33.74621],[-85.58112,33.74612],[-85.58156,33.74616],[-85.58252,33.74672],[-85.58318,33.74761],[-85.58311,33.74775],[-85.58065,33.74774]]],[[[-85.58046,33.74712],[-85.58044,33.74715],[-85.58038,33.74715],[-85.58046,33.74712]]]]},"properties":{"fire_id":"ufid:2022-ALALF-220178","source_collection":"history-2022","source_objectid":6837,"incident_name":"SC Sweetwater Lake","mapped_acres":8.0,"mapped_acres_source":"poly_GISAcres","gis_acres":8.0,"auto_acres":8.020018999942119,"reported_acres":8.0,"percent_contained":null,"state":"AL","state_wfigs":"US-AL","county":"Cleburne","discovery_time_utc":"2022-04-20T23:53:00Z","perimeter_time_utc":"2023-01-13T03:08:38Z","perimeter_edit_time_utc":"2023-03-14T15:13:42Z","incident_modified_time_utc":"2022-04-26T20:59:28Z","containment_time_utc":"2022-04-21T13:45:00Z","control_time_utc":"2022-04-21T13:45:00Z","fire_out_time_utc":"2022-04-26T21:00:00Z","fire_cause":"Human","fire_cause_general":"Undetermined","map_method":"Hand Sketch","source_dataset":"FFP","unique_fire_identifier":"2022-ALALF-220178","irwin_id":"{4B690B96-7E32-492F-B4D3-AAB0ABE2BF24}","global_id":"a38e9de5-2d10-405c-93bb-a65227805f54"}},{"type":"Feature","geometry":{"type":"Polygon","coordinates":[[[-87.33256,34.36051],[-87.33122,34.35929],[-87.33053,34.35956],[-87.32891,34.35938],[-87.32816,34.35956],[-87.32683,34.35958],[-87.32581,34.35954],[-87.32551,34.35913],[-87.32523,34.35528],[-87.32543,34.3545],[-87.32492,34.35358],[-87.32494,34.35293],[-87.3265,34.34981],[-87.3266,34.34891],[-87.32498,34.34791],[-87.32396,34.34745],[-87.32381,34.34685],[-87.32399,34.34618],[-87.3245,34.34526],[-87.32439,34.34467],[-87.32316,34.34434],[-87.32246,34.34399],[-87.32026,34.34383],[-87.31986,34.34363],[-87.31965,34.34332],[-87.31936,34.34226],[-87.31862,34.34153],[-87.31848,34.3412],[-87.3185,34.34072],[-87.31896,34.34013],[-87.31857,34.33986],[-87.31826,34.3391],[-87.31772,34.33866],[-87.31698,34.33837],[-87.31717,34.33785],[-87.31697,34.33757],[-87.31703,34.33727],[-87.3168,34.33695],[-87.31646,34.33676],[-87.31655,34.3362],[-87.31706,34.33514],[-87.31669,34.3344],[-87.31659,34.33388],[-87.31706,34.33324],[-87.31781,34.33384],[-87.31912,34.33456],[-87.32025,34.33485],[-87.32043,34.33434],[-87.32147,34.33405],[-87.32217,34.33354],[-87.32278,34.33347],[-87.32417,34.33289],[-87.32906,34.33287],[-87.33011,34.33359],[-87.33071,34.33491],[-87.33103,34.33828],[-87.33026,34.34041],[-87.33023,34.34112],[-87.33142,34.3427],[-87.33124,34.34273],[-87.33187,34.34338],[-87.33382,34.34488],[-87.33592,34.34726],[-87.33758,34.34725],[-87.33394,34.35345],[-87.33334,34.35505],[-87.3336,34.35642],[-87.33469,34.35782],[-87.33513,34.3586],[-87.33527,34.35953],[-87.3351,34.36072],[-87.33449,34.36135],[-87.33352,34.36194],[-87.33256,34.36051]]]},"properties":{"fire_id":"ufid:2022-ALALF-220103","source_collection":"history-2022","source_objectid":8288,"incident_name":"BK CAT NIP","mapped_acres":734.871211421835,"mapped_acres_source":"poly_Acres_AutoCalc_fallback","gis_acres":null,"auto_acres":734.871211421835,"reported_acres":734.88,"percent_contained":null,"state":"AL","state_wfigs":"US-AL","county":"Lawrence","discovery_time_utc":"2022-02-13T23:33:00Z","perimeter_time_utc":null,"perimeter_edit_time_utc":"2023-03-14T15:13:42Z","incident_modified_time_utc":"2022-02-25T15:32:25Z","containment_time_utc":"2022-02-14T23:30:00Z","control_time_utc":"2022-02-22T14:42:00Z","fire_out_time_utc":"2022-02-22T14:42:00Z","fire_cause":"Human","fire_cause_general":"Other causes","map_method":"Hand Sketch","source_dataset":"FFP","unique_fire_identifier":"2022-ALALF-220103","irwin_id":"{07376CE4-899C-408E-A856-13F199FBA756}","global_id":"02d80746-6da2-4db5-ab6a-ca7823d5ce49"}},{"type":"Feature","geometry":{"type":"MultiPolygon","coordinates":[[[[-85.93594,33.3614],[-85.93583,33.36141],[-85.93639,33.36218],[-85.93638,33.36241],[-85.93683,33.36322],[-85.93681,33.36357],[-85.93611,33.36324],[-85.93492,33.36324],[-85.93436,33.36272],[-85.93433,33.36191],[-85.93478,33.36102],[-85.93502,33.36092],[-85.93537,33.36127],[-85.93562,33.36118],[-85.93594,33.3614]]],[[[-85.93594,33.3614],[-85.93594,33.36138],[-85.93595,33.36141],[-85.93594,33.3614]]]]},"properties":{"fire_id":"ufid:2022-ALALF-220147","source_collection":"history-2022","source_objectid":8697,"incident_name":"Guntertown","mapped_acres":10.163860316323346,"mapped_acres_source":"poly_Acres_AutoCalc_fallback","gis_acres":null,"auto_acres":10.163860316323346,"reported_acres":10.0,"percent_contained":null,"state":"AL","state_wfigs":"US-AL","county":"Clay","discovery_time_utc":"2022-03-07T00:12:00Z","perimeter_time_utc":"2022-08-05T20:49:30Z","perimeter_edit_time_utc":"2023-03-14T15:13:42Z","incident_modified_time_utc":"2022-03-08T16:03:16Z","containment_time_utc":"2022-03-07T16:40:00Z","control_time_utc":"2022-03-08T15:58:00Z","fire_out_time_utc":"2022-03-08T15:58:00Z","fire_cause":"Human","fire_cause_general":"Other causes","map_method":"Mixed Methods","source_dataset":"FFP","unique_fire_identifier":"2022-ALALF-220147","irwin_id":"{5806E7DA-DA44-4C02-9B97-BEC5B4B5C659}","global_id":"263eee24-9743-4f89-982c-a3f6449e8b2a"}},{"type":"Feature","geometry":{"type":"Polygon","coordinates":[[[-86.07558,33.17234],[-86.07643,33.17216],[-86.07703,33.17262],[-86.07795,33.1714],[-86.07927,33.17187],[-86.07999,33.17178],[-86.08072,33.17192],[-86.08169,33.17132],[-86.0837,33.17098],[-86.08423,33.17068],[-86.08449,33.17116],[-86.08501,33.17161],[-86.08516,33.17218],[-86.0857,33.17283],[-86.08667,33.17353],[-86.08692,33.17391],[-86.08662,33.17387],[-86.0858,33.17434],[-86.0839,33.17587],[-86.08321,33.17625],[-86.08239,33.17705],[-86.0807,33.17761],[-86.07873,33.17778],[-86.07745,33.17804],[-86.07646,33.1778],[-86.07623,33.17765],[-86.07587,33.17698],[-86.07488,33.17646],[-86.07434,33.17641],[-86.07325,33.17571],[-86.07327,33.17524],[-86.07304,33.1748],[-86.07329,33.1744],[-86.07333,33.1728],[-86.07365,33.17257],[-86.07433,33.17237],[-86.07558,33.17234]]]},"properties":{"fire_id":"ufid:2022-ALALF-220208","source_collection":"history-2022","source_objectid":8978,"incident_name":"Holland Tower","mapped_acres":30.0,"mapped_acres_source":"poly_GISAcres","gis_acres":30.0,"auto_acres":163.4233748000903,"reported_acres":170.0,"percent_contained":null,"state":"AL","state_wfigs":"US-AL","county":"Clay","discovery_time_utc":"2022-06-19T17:56:00Z","perimeter_time_utc":"2023-01-13T03:14:59Z","perimeter_edit_time_utc":"2023-03-14T15:13:42Z","incident_modified_time_utc":"2022-07-27T20:14:43Z","containment_time_utc":"2022-06-24T17:00:00Z","control_time_utc":"2022-06-29T16:00:00Z","fire_out_time_utc":"2022-07-19T22:00:00Z","fire_cause":"Undetermined","fire_cause_general":"Undetermined","map_method":"Hand Sketch","source_dataset":"FFP","unique_fire_identifier":"2022-ALALF-220208","irwin_id":"{6FB7CE58-1E99-43A1-A6F6-09B1219595CB}","global_id":"ef233a25-40b2-4c32-bd3a-c9cbbd97b9ab"}},{"type":"Feature","geometry":{"type":"MultiPolygon","coordinates":[[[[-87.49774,34.304],[-87.49805,34.30407],[-87.49806,34.30427],[-87.49793,34.30435],[-87.49755,34.30413],[-87.49774,34.304]]],[[[-87.50966,34.3288],[-87.50947,34.32839],[-87.50936,34.32777],[-87.50944,34.32758],[-87.51007,34.32815],[-87.50991,34.3286],[-87.50966,34.3288]]],[[[-87.50937,34.32989],[-87.51005,34.33008],[-87.51076,34.33006],[-87.51048,34.3305],[-87.5106,34.33049],[-87.51075,34.33085],[-87.51054,34.33097],[-87.5106,34.33111],[-87.51078,34.33107],[-87.51085,34.33127],[-87.51061,34.33155],[-87.51029,34.33165],[-87.51085,34.33184],[-87.51084,34.33272],[-87.5102,34.33314],[-87.50904,34.33141],[-87.50895,34.33073],[-87.50937,34.32989]]],[[[-87.5134,34.33653],[-87.51324,34.33636],[-87.51339,34.33629],[-87.51278,34.33582],[-87.5128,34.33562],[-87.51332,34.33534],[-87.5137,34.33538],[-87.51404,34.33573],[-87.514,34.33616],[-87.51365,34.33649],[-87.5138,34.33657],[-87.51363,34.33668],[-87.51331,34.3366],[-87.5134,34.33653]]],[[[-87.51408,34.3369],[-87.51434,34.337],[-87.51414,34.33706],[-87.51408,34.3369]]],[[[-87.50605,34.38464],[-87.50626,34.38485],[-87.50626,34.38514],[-87.50604,34.38519],[-87.50525,34.386],[-87.50504,34.38603],[-87.50487,34.38589],[-87.5049,34.38559],[-87.50472,34.38546],[-87.50513,34.38489],[-87.50605,34.38464]]]]},"properties":{"fire_id":"ufid:2022-ALALF-220113","source_collection":"history-2022","source_objectid":9031,"incident_name":"Bear 1","mapped_acres":17.72603,"mapped_acres_source":"poly_GISAcres","gis_acres":17.72603,"auto_acres":17.725965531483848,"reported_acres":16.35,"percent_contained":null,"state":"AL","state_wfigs":"US-AL","county":"Lawrence","discovery_time_utc":"2022-02-17T13:23:00Z","perimeter_time_utc":"2023-01-13T02:36:32Z","perimeter_edit_time_utc":"2023-03-14T15:13:42Z","incident_modified_time_utc":"2022-07-21T19:42:42Z","containment_time_utc":"2022-02-17T19:16:00Z","control_time_utc":"2022-02-23T16:00:00Z","fire_out_time_utc":"2022-02-23T16:00:00Z","fire_cause":"Human","fire_cause_general":"Power generation / transmission / distribution","map_method":"Mixed Methods","source_dataset":"FFP","unique_fire_identifier":"2022-ALALF-220113","irwin_id":"{DE8431B9-CB17-4781-ABF1-E56B96A42F76}","global_id":"7b934892-3ee3-40d3-a1e9-10c064e1ec0e"}},{"type":"Feature","geometry":{"type":"Polygon","coordinates":[[[-85.8937,33.524],[-85.89583,33.52438],[-85.89647,33.52487],[-85.89671,33.52526],[-85.89735,33.5256],[-85.89754,33.52586],[-85.8975,33.52646],[-85.89683,33.52654],[-85.8963,33.52681],[-85.89554,33.52696],[-85.89549,33.52711],[-85.89572,33.52739],[-85.89553,33.52751],[-85.89501,33.52731],[-85.89463,33.52735],[-85.89458,33.52756],[-85.89608,33.52782],[-85.89758,33.5278],[-85.89831,33.52813],[-85.89813,33.52875],[-85.89774,33.52917],[-85.89789,33.53041],[-85.89756,33.53111],[-85.89664,33.53092],[-85.89608,33.5306],[-85.89573,33.53065],[-85.89528,33.53045],[-85.89406,33.53048],[-85.89384,33.53015],[-85.89249,33.53005],[-85.89165,33.52927],[-85.89184,33.52923],[-85.89224,33.52866],[-85.89235,33.52816],[-85.89216,33.52781],[-85.89136,33.52769],[-85.89052,33.52797],[-85.88941,33.52802],[-85.88914,33.5277],[-85.88908,33.52597],[-85.88947,33.52553],[-85.8905,33.52521],[-85.89167,33.52525],[-85.89184,33.52535],[-85.89274,33.5253],[-85.89304,33.5251],[-85.89318,33.52472],[-85.89376,33.52432],[-85.8937,33.524]]]},"properties":{"fire_id":"ufid:2022-ALALF-220222","source_collection":"history-2022","source_objectid":9086,"incident_name":"TL Bell Springs 2","mapped_acres":96.03,"mapped_acres_source":"poly_GISAcres","gis_acres":96.03,"auto_acres":96.03455682532042,"reported_acres":93.0,"percent_contained":null,"state":"AL","state_wfigs":"US-AL","county":"Talladega","discovery_time_utc":"2022-10-02T17:45:50Z","perimeter_time_utc":"2023-01-14T16:26:29Z","perimeter_edit_time_utc":"2023-03-14T15:13:42Z","incident_modified_time_utc":"2022-10-28T14:47:22Z","containment_time_utc":"2022-10-07T17:24:00Z","control_time_utc":"2022-10-26T12:00:00Z","fire_out_time_utc":"2022-10-26T12:00:00Z","fire_cause":"Human","fire_cause_general":"Undetermined","map_method":"Hand Sketch","source_dataset":"FFP","unique_fire_identifier":"2022-ALALF-220222","irwin_id":"{CD51844F-2163-4A3E-8940-55562DAB524F}","global_id":"5d26f093-0298-400f-b707-6e3395f89f6d"}},{"type":"Feature","geometry":{"type":"Polygon","coordinates":[[[-87.32557,32.86339],[-87.32643,32.86318],[-87.3281,32.8633],[-87.3281,32.86384],[-87.32849,32.8643],[-87.32849,32.86473],[-87.32838,32.86485],[-87.32849,32.86539],[-87.32839,32.8655],[-87.32899,32.86581],[-87.32977,32.86676],[-87.32982,32.86759],[-87.32958,32.86859],[-87.32888,32.86893],[-87.32754,32.86904],[-87.32698,32.86849],[-87.32608,32.86655],[-87.32483,32.86494],[-87.32489,32.86448],[-87.32557,32.86339]]]},"properties":{"fire_id":"ufid:2022-ALALF-220115","source_collection":"history-2022","source_objectid":9163,"incident_name":"OK 66","mapped_acres":46.24204094850181,"mapped_acres_source":"poly_Acres_AutoCalc_fallback","gis_acres":null,"auto_acres":46.24204094850181,"reported_acres":46.24,"percent_contained":null,"state":"AL","state_wfigs":"US-AL","county":"Perry","discovery_time_utc":"2022-02-17T15:19:00Z","perimeter_time_utc":"2022-08-05T20:49:22Z","perimeter_edit_time_utc":"2023-03-14T15:13:42Z","incident_modified_time_utc":"2022-04-08T12:35:25Z","containment_time_utc":"2022-02-17T21:22:00Z","control_time_utc":null,"fire_out_time_utc":"2022-02-25T19:00:00Z","fire_cause":"Human","fire_cause_general":"Other causes","map_method":"Hand Sketch","source_dataset":"FFP","unique_fire_identifier":"2022-ALALF-220115","irwin_id":"{37169C98-C609-4EB5-8A30-F164527DB0EA}","global_id":"41b50e3f-f9fd-49bf-9039-2970bde91fc8"}},{"type":"Feature","geometry":{"type":"Polygon","coordinates":[[[-87.52482,34.33878],[-87.52486,34.33888],[-87.52432,34.33952],[-87.52389,34.33932],[-87.52426,34.33884],[-87.52452,34.3389],[-87.52482,34.33878]]]},"properties":{"fire_id":"ufid:2022-ALALF-220116","source_collection":"history-2022","source_objectid":10451,"incident_name":"Kenlock","mapped_acres":0.8961666,"mapped_acres_source":"poly_GISAcres","gis_acres":0.8961666,"auto_acres":0.8961633738676271,"reported_acres":0.5,"percent_contained":null,"state":"AL","state_wfigs":"US-AL","county":"Lawrence","discovery_time_utc":"2022-02-18T01:06:00Z","perimeter_time_utc":"2023-01-13T02:43:36Z","perimeter_edit_time_utc":"2023-03-14T15:13:42Z","incident_modified_time_utc":"2022-10-15T21:54:13Z","containment_time_utc":"2022-02-18T18:00:00Z","control_time_utc":"2022-02-23T16:00:00Z","fire_out_time_utc":"2022-02-23T16:00:00Z","fire_cause":"Human","fire_cause_general":"Power generation / transmission / distribution","map_method":"Mixed Methods","source_dataset":"FFP","unique_fire_identifier":"2022-ALALF-220116","irwin_id":"{72F8BE25-F88A-4907-9AC1-965B8A3F236A}","global_id":"0c4105fc-73f9-4a3e-a762-14f19b621d09"}},{"type":"Feature","geometry":{"type":"Polygon","coordinates":[[[-87.07004,32.67846],[-87.07011,32.67935],[-87.07051,32.6796],[-87.07049,32.67994],[-87.0694,32.68063],[-87.06884,32.68173],[-87.06845,32.68346],[-87.06817,32.68383],[-87.06738,32.6844],[-87.06586,32.68637],[-87.06579,32.6869],[-87.0659,32.68724],[-87.0656,32.68854],[-87.06571,32.68922],[-87.06493,32.69179],[-87.06455,32.69217],[-87.06305,32.69237],[-87.06264,32.69253],[-87.06264,32.69318],[-87.06195,32.69473],[-87.06159,32.69526],[-87.06096,32.69699],[-87.06081,32.69851],[-87.06089,32.69944],[-87.0599,32.70143],[-87.05977,32.70256],[-87.05935,32.70241],[-87.05884,32.70246],[-87.05717,32.70185],[-87.05564,32.70075],[-87.05423,32.70073],[-87.05384,32.70024],[-87.05386,32.69935],[-87.05227,32.69889],[-87.05046,32.69779],[-87.0489,32.6973],[-87.04764,32.69643],[-87.04746,32.696],[-87.0478,32.69475],[-87.04734,32.69346],[-87.04758,32.69312],[-87.048,32.69291],[-87.04923,32.69188],[-87.04912,32.69154],[-87.0488,32.69123],[-87.04878,32.69038],[-87.04831,32.68926],[-87.04934,32.6896],[-87.05006,32.68937],[-87.05036,32.68915],[-87.05064,32.68847],[-87.05118,32.688],[-87.05513,32.68699],[-87.05594,32.68648],[-87.05637,32.68556],[-87.05644,32.68478],[-87.0568,32.68415],[-87.05747,32.68341],[-87.0585,32.68086],[-87.05996,32.68065],[-87.06094,32.6807],[-87.06169,32.68092],[-87.06257,32.6815],[-87.06373,32.68166],[-87.06453,32.68119],[-87.06532,32.68103],[-87.06581,32.68057],[-87.06624,32.67989],[-87.06689,32.67947],[-87.06766,32.67871],[-87.06822,32.6785],[-87.06856,32.67799],[-87.06901,32.67783],[-87.06903,32.67803],[-87.0694,32.67837],[-87.07004,32.67846]]]},"properties":{"fire_id":"ufid:2022-ALALF-220112","source_collection":"history-2022","source_objectid":11184,"incident_name":"OK 145","mapped_acres":662.7491751457642,"mapped_acres_source":"poly_Acres_AutoCalc_fallback","gis_acres":null,"auto_acres":662.7491751457642,"reported_acres":660.0,"percent_contained":null,"state":"AL","state_wfigs":"US-AL","county":"Perry","discovery_time_utc":"2022-02-16T16:54:00Z","perimeter_time_utc":"2022-07-22T20:22:56Z","perimeter_edit_time_utc":"2023-03-14T15:13:42Z","incident_modified_time_utc":"2022-04-08T12:33:06Z","containment_time_utc":"2022-02-18T00:50:00Z","control_time_utc":"2022-02-25T18:30:00Z","fire_out_time_utc":"2022-02-25T18:30:00Z","fire_cause":"Human","fire_cause_general":"Arson","map_method":"Hand Sketch","source_dataset":"FFP","unique_fire_identifier":"2022-ALALF-220112","irwin_id":"{E3E3EF93-C1F7-4E99-A6A9-F598465C0FD7}","global_id":"1f586a32-a372-428f-b43b-a3418783222b"}},{"type":"Feature","geometry":{"type":"Polygon","coordinates":[[[-87.00436,32.88468],[-87.00513,32.88461],[-87.00584,32.88479],[-87.00693,32.88546],[-87.00779,32.88529],[-87.00912,32.88526],[-87.00992,32.88506],[-87.01022,32.88482],[-87.01015,32.88401],[-87.00953,32.8834],[-87.00927,32.88252],[-87.00846,32.88209],[-87.00818,32.88178],[-87.00816,32.88151],[-87.00914,32.87935],[-87.01127,32.87816],[-87.01281,32.87708],[-87.01423,32.87818],[-87.01466,32.87879],[-87.01481,32.87911],[-87.01438,32.88025],[-87.01485,32.88126],[-87.01704,32.88309],[-87.01773,32.88436],[-87.01833,32.88468],[-87.01721,32.88657],[-87.01637,32.88747],[-87.01631,32.88922],[-87.01601,32.88982],[-87.01524,32.89003],[-87.01494,32.88964],[-87.01485,32.88782],[-87.00859,32.88787],[-87.00841,32.888],[-87.00904,32.88933],[-87.00874,32.88974],[-87.00846,32.89081],[-87.00777,32.89156],[-87.00562,32.89227],[-87.00496,32.89119],[-87.00447,32.89115],[-87.00432,32.89066],[-87.00489,32.88991],[-87.00489,32.88928],[-87.00502,32.88906],[-87.00618,32.88803],[-87.00635,32.88756],[-87.00507,32.88627],[-87.00468,32.88515],[-87.00436,32.88468]]]},"properties":{"fire_id":"ufid:2022-ALALF-220060","source_collection":"history-2022","source_objectid":11878,"incident_name":"OK Maud Hunter Camp","mapped_acres":245.8,"mapped_acres_source":"poly_GISAcres","gis_acres":245.8,"auto_acres":245.80084851006663,"reported_acres":224.0,"percent_contained":null,"state":"AL","state_wfigs":"US-AL","county":"Bibb","discovery_time_utc":"2022-01-31T19:25:00Z","perimeter_time_utc":"2022-07-22T20:13:31Z","perimeter_edit_time_utc":"2023-03-14T15:13:42Z","incident_modified_time_utc":"2022-07-16T12:19:40Z","containment_time_utc":"2022-02-01T01:54:00Z","control_time_utc":"2022-02-02T16:42:00Z","fire_out_time_utc":"2022-02-04T18:00:00Z","fire_cause":"Human","fire_cause_general":"Recreation and ceremony","map_method":"Hand Sketch","source_dataset":"FFP","unique_fire_identifier":"2022-ALALF-220060","irwin_id":"{0F7040C7-19E8-43EB-96D2-5B3341F3C0D2}","global_id":"4f12d27d-830a-48ab-bf70-fa0baa305c0f"}},{"type":"Feature","geometry":{"type":"Polygon","coordinates":[[[-86.03039,33.31563],[-86.0299,33.31621],[-86.02954,33.31626],[-86.02926,33.31571],[-86.02834,33.31463],[-86.02916,33.31414],[-86.03021,33.31391],[-86.03038,33.31404],[-86.03048,33.31437],[-86.03039,33.31563]]]},"properties":{"fire_id":"ufid:2022-ALALF-220067","source_collection":"history-2022","source_objectid":12285,"incident_name":"dodge WF","mapped_acres":8.155224,"mapped_acres_source":"poly_GISAcres","gis_acres":8.155224,"auto_acres":8.155195481748018,"reported_acres":8.0,"percent_contained":null,"state":"AL","state_wfigs":"US-AL","county":"Talladega","discovery_time_utc":"2022-02-01T17:35:54Z","perimeter_time_utc":"2022-08-05T20:49:08Z","perimeter_edit_time_utc":"2023-03-14T15:13:42Z","incident_modified_time_utc":"2022-04-07T12:19:49Z","containment_time_utc":"2022-02-02T14:45:00Z","control_time_utc":"2022-02-03T21:30:00Z","fire_out_time_utc":"2022-02-04T18:00:00Z","fire_cause":"Human","fire_cause_general":"Equipment and vehicle use","map_method":"Mixed Methods","source_dataset":"FFP","unique_fire_identifier":"2022-ALALF-220067","irwin_id":"{03DF4B60-7F8B-4C05-9C49-3534C4063883}","global_id":"1d3846bd-a961-4641-8456-7d116e82a94a"}},{"type":"Feature","geometry":{"type":"Polygon","coordinates":[[[-87.19492,32.81178],[-87.19549,32.81105],[-87.19606,32.80917],[-87.19694,32.80845],[-87.19774,32.80871],[-87.19801,32.80911],[-87.19895,32.80901],[-87.19969,32.80875],[-87.20013,32.80886],[-87.20016,32.80906],[-87.19965,32.80975],[-87.19915,32.80995],[-87.19961,32.81003],[-87.20006,32.80989],[-87.2002,32.81048],[-87.2,32.81116],[-87.20104,32.81136],[-87.20091,32.81195],[-87.20097,32.81248],[-87.20127,32.81304],[-87.20123,32.81383],[-87.20148,32.8142],[-87.20192,32.81448],[-87.20207,32.81881],[-87.19997,32.81844],[-87.19871,32.81841],[-87.19716,32.81767],[-87.19646,32.81781],[-87.19516,32.81751],[-87.19441,32.81693],[-87.19391,32.816],[-87.19422,32.81492],[-87.19449,32.81443],[-87.19451,32.8138],[-87.19492,32.81178]]]},"properties":{"fire_id":"ufid:2022-ALALF-220213","source_collection":"history-2022","source_objectid":12776,"incident_name":"117","mapped_acres":10.0,"mapped_acres_source":"poly_GISAcres","gis_acres":10.0,"auto_acres":151.19875050871286,"reported_acres":150.0,"percent_contained":null,"state":"AL","state_wfigs":"US-AL","county":"Perry","discovery_time_utc":"2022-07-15T19:49:00Z","perimeter_time_utc":"2023-01-14T16:19:59Z","perimeter_edit_time_utc":"2023-03-14T15:13:42Z","incident_modified_time_utc":"2023-01-06T17:12:36Z","containment_time_utc":"2022-07-16T02:43:00Z","control_time_utc":"2022-07-22T19:57:00Z","fire_out_time_utc":"2022-07-22T19:57:00Z","fire_cause":"Natural","fire_cause_general":"Natural","map_method":"Hand Sketch","source_dataset":"FFP","unique_fire_identifier":"2022-ALALF-220213","irwin_id":"{B4846F22-F1E4-4B94-9431-EFD336B45BD6}","global_id":"c80ee9e8-aa9c-49fc-9d86-526255b1e3c0"}},{"type":"Feature","geometry":{"type":"Polygon","coordinates":[[[-87.04812,32.68923],[-87.04769,32.68883],[-87.04704,32.68771],[-87.04631,32.68584],[-87.04494,32.68399],[-87.04468,32.68262],[-87.04468,32.68161],[-87.04507,32.68078],[-87.04481,32.68016],[-87.04275,32.67894],[-87.04254,32.67746],[-87.04305,32.67666],[-87.04249,32.67634],[-87.04185,32.67518],[-87.04237,32.6742],[-87.04391,32.67247],[-87.04473,32.672],[-87.0458,32.6703],[-87.04799,32.66918],[-87.04837,32.66842],[-87.04842,32.66756],[-87.04893,32.66687],[-87.04953,32.6664],[-87.05082,32.66496],[-87.05142,32.66449],[-87.05224,32.66431],[-87.05292,32.66347],[-87.05357,32.66319],[-87.05614,32.66145],[-87.05687,32.66062],[-87.05717,32.66066],[-87.05859,32.6616],[-87.05915,32.66214],[-87.06322,32.66282],[-87.06739,32.66188],[-87.06923,32.6617],[-87.06962,32.66452],[-87.06987,32.66517],[-87.07005,32.6664],[-87.07065,32.66691],[-87.07116,32.66756],[-87.07168,32.66889],[-87.07146,32.6703],[-87.07112,32.67124],[-87.07129,32.67168],[-87.0712,32.67243],[-87.07013,32.6733],[-87.06979,32.67453],[-87.06889,32.67677],[-87.06872,32.67738],[-87.0688,32.67785],[-87.06811,32.6785],[-87.06751,32.67872],[-87.0673,32.6793],[-87.06644,32.6798],[-87.06554,32.68092],[-87.06408,32.68157],[-87.06339,32.68168],[-87.06284,32.68161],[-87.06125,32.68081],[-87.06052,32.68067],[-87.05842,32.68089],[-87.05842,32.68132],[-87.05721,32.68385],[-87.05644,32.68454],[-87.05648,32.68519],[-87.05623,32.68627],[-87.05597,32.68667],[-87.05507,32.68703],[-87.05387,32.68717],[-87.05262,32.68753],[-87.05108,32.68815],[-87.05056,32.68862],[-87.05031,32.68923],[-87.04983,32.68952],[-87.04915,32.68966],[-87.04812,32.68923]]]},"properties":{"fire_id":"ufid:2022-ALALF-220108","source_collection":"history-2022","source_objectid":12885,"incident_name":"OK 146","mapped_acres":1346.3326554222954,"mapped_acres_source":"poly_Acres_AutoCalc_fallback","gis_acres":null,"auto_acres":1346.3326554222954,"reported_acres":1223.0,"percent_contained":null,"state":"AL","state_wfigs":"US-AL","county":"Perry","discovery_time_utc":"2022-02-15T18:47:00Z","perimeter_time_utc":"2022-07-22T16:57:07Z","perimeter_edit_time_utc":"2023-03-14T15:13:42Z","incident_modified_time_utc":"2022-04-08T12:32:06Z","containment_time_utc":"2022-02-16T03:59:00Z","control_time_utc":"2022-02-25T18:00:00Z","fire_out_time_utc":"2022-02-25T18:00:00Z","fire_cause":"Human","fire_cause_general":"Debris and open burning","map_method":"Phone/Tablet","source_dataset":"FFP","unique_fire_identifier":"2022-ALALF-220108","irwin_id":"{0624D098-9BCD-4E6F-84A5-ACC5CF7949C7}","global_id":"dd32abf9-8c9b-473f-aeae-2526be876e69"}},{"type":"Feature","geometry":{"type":"Polygon","coordinates":[[[-87.04784,32.69291],[-87.04719,32.69164],[-87.04608,32.6907],[-87.04457,32.68998],[-87.04324,32.6898],[-87.03912,32.68886],[-87.03788,32.68821],[-87.03569,32.68738],[-87.03586,32.68641],[-87.03586,32.68507],[-87.0356,32.68243],[-87.03522,32.68135],[-87.03367,32.67925],[-87.03209,32.67763],[-87.03161,32.67698],[-87.03067,32.67474],[-87.0323,32.67091],[-87.03217,32.66986],[-87.03127,32.66838],[-87.03183,32.66665],[-87.03187,32.66545],[-87.03226,32.66498],[-87.03209,32.66462],[-87.03204,32.66394],[-87.03281,32.66282],[-87.03281,32.66228],[-87.03264,32.66184],[-87.03294,32.66159],[-87.03316,32.66047],[-87.03363,32.66004],[-87.03384,32.65964],[-87.03367,32.65917],[-87.03415,32.65881],[-87.03415,32.6583],[-87.03432,32.65794],[-87.03415,32.65747],[-87.03432,32.65696],[-87.0347,32.65664],[-87.03548,32.6553],[-87.03655,32.65628],[-87.03754,32.65772],[-87.04075,32.66076],[-87.04131,32.66148],[-87.0417,32.66246],[-87.04354,32.66383],[-87.04582,32.66448],[-87.04616,32.66368],[-87.04711,32.66242],[-87.04728,32.66188],[-87.04788,32.66126],[-87.04856,32.66126],[-87.04921,32.6617],[-87.04981,32.66242],[-87.05007,32.66354],[-87.05075,32.66491],[-87.04891,32.6665],[-87.04805,32.66921],[-87.04753,32.66954],[-87.04655,32.66975],[-87.0456,32.6703],[-87.04513,32.67073],[-87.04513,32.67127],[-87.04492,32.67188],[-87.0441,32.67239],[-87.04239,32.67405],[-87.04221,32.67459],[-87.04174,32.67521],[-87.04286,32.67698],[-87.04256,32.67756],[-87.04273,32.67875],[-87.04294,32.67922],[-87.04337,32.67951],[-87.04423,32.67972],[-87.04475,32.68012],[-87.04475,32.68041],[-87.04509,32.68074],[-87.04462,32.68218],[-87.04475,32.68359],[-87.04616,32.68543],[-87.04723,32.68807],[-87.04775,32.68893],[-87.04822,32.68926],[-87.04869,32.6902],[-87.04878,32.69114],[-87.04921,32.69193],[-87.04874,32.69244],[-87.04784,32.69291]]]},"properties":{"fire_id":"ufid:2022-ALALF-220109","source_collection":"history-2022","source_objectid":13135,"incident_name":"OK 148","mapped_acres":967.2973635555362,"mapped_acres_source":"poly_Acres_AutoCalc_fallback","gis_acres":null,"auto_acres":967.2973635555362,"reported_acres":997.0,"percent_contained":null,"state":"AL","state_wfigs":"US-AL","county":"Perry","discovery_time_utc":"2022-02-15T20:48:00Z","perimeter_time_utc":"2023-01-13T02:28:12Z","perimeter_edit_time_utc":"2023-03-14T15:13:42Z","incident_modified_time_utc":"2022-09-30T13:35:54Z","containment_time_utc":"2022-02-18T00:58:00Z","control_time_utc":"2022-02-18T22:00:00Z","fire_out_time_utc":"2022-02-18T22:00:00Z","fire_cause":"Human","fire_cause_general":"Arson","map_method":"Hand Sketch","source_dataset":"FFP","unique_fire_identifier":"2022-ALALF-220109","irwin_id":"{D15D7EA2-87F5-40BC-804A-4E9C3F78AC39}","global_id":"c853c923-7418-4245-9017-b724cd0e0ea1"}},{"type":"Feature","geometry":{"type":"MultiPolygon","coordinates":[[[[-85.49525,33.96962],[-85.49527,33.96963],[-85.49524,33.96964],[-85.49525,33.96962]]],[[[-85.4954,33.97033],[-85.49588,33.96963],[-85.49514,33.96956],[-85.49487,33.96995],[-85.49415,33.96988],[-85.49435,33.9696],[-85.49477,33.96938],[-85.49472,33.9692],[-85.49508,33.96928],[-85.49532,33.96916],[-85.49536,33.96897],[-85.49517,33.96887],[-85.49526,33.9687],[-85.49597,33.96863],[-85.49624,33.96843],[-85.49676,33.96861],[-85.49696,33.9685],[-85.49787,33.96892],[-85.49821,33.96894],[-85.49855,33.96935],[-85.49891,33.9691],[-85.49931,33.96929],[-85.49937,33.96954],[-85.49953,33.96961],[-85.49935,33.96972],[-85.49949,33.96983],[-85.49926,33.96994],[-85.49915,33.9703],[-85.49972,33.97037],[-85.49992,33.97061],[-85.49987,33.97076],[-85.49999,33.9707],[-85.50009,33.9708],[-85.50029,33.97121],[-85.50026,33.9714],[-85.50043,33.97142],[-85.50037,33.972],[-85.50012,33.97205],[-85.49993,33.97184],[-85.49997,33.97165],[-85.49983,33.97158],[-85.49972,33.97171],[-85.49933,33.97176],[-85.49942,33.97182],[-85.49931,33.97212],[-85.49958,33.9721],[-85.49986,33.97228],[-85.49943,33.97274],[-85.49986,33.97287],[-85.49982,33.97317],[-85.49955,33.97319],[-85.49909,33.97272],[-85.49896,33.97275],[-85.49874,33.97314],[-85.49932,33.9736],[-85.49916,33.97384],[-85.49991,33.97414],[-85.49998,33.97403],[-85.49985,33.97386],[-85.5,33.97363],[-85.50114,33.97362],[-85.50124,33.97357],[-85.50117,33.97342],[-85.50132,33.97338],[-85.50151,33.97355],[-85.50154,33.97335],[-85.50128,33.97309],[-85.50142,33.973],[-85.50128,33.97276],[-85.50138,33.97266],[-85.50156,33.97271],[-85.50169,33.97324],[-85.50194,33.97361],[-85.50167,33.97367],[-85.50168,33.97385],[-85.50138,33.97393],[-85.50151,33.97408],[-85.50116,33.97418],[-85.50156,33.97447],[-85.50158,33.9747],[-85.50182,33.97477],[-85.50176,33.9749],[-85.50257,33.97492],[-85.50248,33.97478],[-85.50275,33.97463],[-85.50436,33.97553],[-85.50573,33.97567],[-85.50681,33.97618],[-85.50144,33.97925],[-85.49689,33.98068],[-85.49686,33.98027],[-85.49749,33.97952],[-85.49754,33.97879],[-85.49804,33.97866],[-85.49886,33.97765],[-85.49807,33.97744],[-85.49807,33.97754],[-85.49767,33.97757],[-85.49757,33.97732],[-85.49741,33.97743],[-85.49705,33.97721],[-85.49649,33.97729],[-85.49624,33.97705],[-85.49604,33.97728],[-85.49577,33.97715],[-85.49579,33.97697],[-85.49553,33.9767],[-85.49575,33.97655],[-85.49568,33.97631],[-85.49585,33.97602],[-85.49549,33.97579],[-85.49562,33.97553],[-85.49548,33.97531],[-85.49566,33.97451],[-85.49528,33.97435],[-85.49526,33.97417],[-85.4951,33.97409],[-85.49557,33.97387],[-85.49576,33.97347],[-85.49618,33.97351],[-85.49634,33.97319],[-85.49682,33.97317],[-85.49683,33.97304],[-85.497,33.973],[-85.49693,33.97273],[-85.49714,33.97254],[-85.49699,33.97243],[-85.49716,33.97221],[-85.49696,33.97188],[-85.49687,33.97191],[-85.49685,33.97172],[-85.49656,33.97155],[-85.496496,33.971204],[-85.49623,33.9708],[-85.49601,33.97071],[-85.49567,33.97081],[-85.49558,33.9707],[-85.49565,33.97058],[-85.4955,33.97058],[-85.4954,33.97033]],[[-85.4965,33.9712],[-85.49656,33.97114],[-85.4965,33.97116],[-85.4965,33.9712]]],[[[-85.49555,33.97068],[-85.49556,33.9707],[-85.49555,33.9707],[-85.49555,33.97068]]],[[[-85.49993,33.97184],[-85.49991,33.97185],[-85.49991,33.97183],[-85.49993,33.97184]]],[[[-85.49993,33.97186],[-85.49993,33.9719],[-85.49989,33.97189],[-85.49993,33.97186]]],[[[-85.49896,33.97321],[-85.49894,33.9732],[-85.49899,33.97321],[-85.49896,33.97321]]],[[[-85.49902,33.97324],[-85.49894,33.97323],[-85.49896,33.97321],[-85.49902,33.97324]]]]},"properties":{"fire_id":"ufid:2022-ALALF-220257","source_collection":"history-2022","source_objectid":13840,"incident_name":"SC WOLF BRANCH","mapped_acres":155.45,"mapped_acres_source":"poly_GISAcres","gis_acres":155.45,"auto_acres":155.45334039254354,"reported_acres":155.0,"percent_contained":null,"state":"AL","state_wfigs":"US-AL","county":"Cherokee","discovery_time_utc":"2022-12-29T21:42:00Z","perimeter_time_utc":"2023-01-14T17:16:05Z","perimeter_edit_time_utc":"2023-03-14T15:13:42Z","incident_modified_time_utc":"2023-01-09T17:00:11Z","containment_time_utc":"2023-01-03T16:00:00Z","control_time_utc":"2023-01-05T18:00:00Z","fire_out_time_utc":"2023-01-05T18:00:00Z","fire_cause":"Human","fire_cause_general":"Undetermined","map_method":"Hand Sketch","source_dataset":"FFP","unique_fire_identifier":"2022-ALALF-220257","irwin_id":"{6365C384-F152-46A6-BA01-F03E080D5D95}","global_id":"b131f28f-0578-4df3-967a-764c4b2a2f5b"}},{"type":"Feature","geometry":{"type":"Polygon","coordinates":[[[-86.53154,33.3005],[-86.53145,33.30026],[-86.53109,33.29997],[-86.53055,33.3],[-86.5303,33.29987],[-86.53067,33.29969],[-86.53069,33.29933],[-86.53057,33.29915],[-86.5301,33.29957],[-86.52995,33.29951],[-86.52996,33.29927],[-86.53027,33.29877],[-86.53062,33.29861],[-86.53084,33.29807],[-86.53118,33.29807],[-86.53126,33.29753],[-86.53109,33.29743],[-86.53091,33.29759],[-86.53089,33.29735],[-86.53136,33.29681],[-86.53154,33.2969],[-86.53163,33.29677],[-86.53174,33.29591],[-86.53196,33.29543],[-86.53219,33.2954],[-86.53218,33.29518],[-86.53199,33.29508],[-86.53193,33.29531],[-86.53159,33.29551],[-86.53154,33.2951],[-86.53103,33.29436],[-86.531,33.29373],[-86.53061,33.29343],[-86.53044,33.29306],[-86.53043,33.29291],[-86.53058,33.29282],[-86.52977,33.29205],[-86.52925,33.29173],[-86.52911,33.29145],[-86.52877,33.29149],[-86.5287,33.29133],[-86.5292,33.29116],[-86.52947,33.29131],[-86.52992,33.29127],[-86.53007,33.29094],[-86.53028,33.29082],[-86.53037,33.29088],[-86.53035,33.29142],[-86.53062,33.29124],[-86.53066,33.29059],[-86.5305,33.29016],[-86.53083,33.28981],[-86.53113,33.28885],[-86.53155,33.28836],[-86.53155,33.28826],[-86.53132,33.28822],[-86.53132,33.28804],[-86.53156,33.28793],[-86.53172,33.28764],[-86.53163,33.28735],[-86.53135,33.28746],[-86.53145,33.28719],[-86.53129,33.28683],[-86.53135,33.28646],[-86.53174,33.28645],[-86.5319,33.28661],[-86.53178,33.28572],[-86.5326,33.28582],[-86.53287,33.28537],[-86.53317,33.28531],[-86.53311,33.28503],[-86.53331,33.28467],[-86.53331,33.28437],[-86.53375,33.28413],[-86.53361,33.28398],[-86.53342,33.28412],[-86.53235,33.28412],[-86.53154,33.28431],[-86.53145,33.2844],[-86.53172,33.28454],[-86.53187,33.28479],[-86.53204,33.28472],[-86.53208,33.2844],[-86.53283,33.28455],[-86.53271,33.28494],[-86.5328,33.28512],[-86.53244,33.28537],[-86.5321,33.28501],[-86.53154,33.28485],[-86.5313,33.28458],[-86.53136,33.2844],[-86.53123,33.28422],[-86.53069,33.28399],[-86.53037,33.28307],[-86.53022,33.28314],[-86.53016,33.28368],[-86.53028,33.28395],[-86.53018,33.28412],[-86.52884,33.28404],[-86.52758,33.28431],[-86.52763,33.28467],[-86.5274,33.2849],[-86.52705,33.28473],[-86.52666,33.28479],[-86.52651,33.28458],[-86.52629,33.28462],[-86.5261,33.28449],[-86.52612,33.28485],[-86.52583,33.28539],[-86.52588,33.28547],[-86.52611,33.28524],[-86.52621,33.28539],[-86.526,33.28557],[-86.52596,33.28594],[-86.52624,33.28591],[-86.52657,33.28623],[-86.52654,33.28656],[-86.52672,33.28665],[-86.5266,33.28686],[-86.52699,33.28725],[-86.52702,33.28749],[-86.52717,33.28751],[-86.52714,33.28767],[-86.52651,33.28765],[-86.52606,33.28736],[-86.52588,33.28751],[-86.52565,33.2875],[-86.52459,33.2865],[-86.52477,33.28629],[-86.52437,33.2862],[-86.52435,33.28611],[-86.5248,33.28593],[-86.52504,33.28557],[-86.52498,33.28547],[-86.5248,33.28539],[-86.52463,33.28576],[-86.52434,33.28583],[-86.5243,33.28606],[-86.52404,33.28605],[-86.52358,33.2858],[-86.52366,33.28557],[-86.52323,33.28543],[-86.52281,33.28504],[-86.52226,33.28422],[-86.52309,33.28424],[-86.52321,33.28413],[-86.52279,33.28389],[-86.52243,33.28305],[-86.52247,33.28134],[-86.52235,33.28099],[-86.52259,33.27995],[-86.52287,33.27982],[-86.52285,33.27949],[-86.52314,33.27924],[-86.52373,33.27901],[-86.5241,33.27867],[-86.52441,33.27874],[-86.52484,33.27784],[-86.52465,33.27739],[-86.5248,33.27731],[-86.52496,33.2775],[-86.52534,33.27754],[-86.52575,33.27646],[-86.52608,33.27625],[-86.52624,33.27598],[-86.52638,33.27604],[-86.52618,33.27622],[-86.52625,33.27685],[-86.52672,33.27739],[-86.52652,33.27874],[-86.52682,33.27919],[-86.52651,33.27991],[-86.52643,33.28045],[-86.52758,33.28063],[-86.52803,33.28049],[-86.52884,33.28057],[-86.52911,33.28048],[-86.52945,33.28065],[-86.52992,33.28059],[-86.53009,33.28072],[-86.53019,33.28114],[-86.53097,33.2806],[-86.53172,33.28049],[-86.53202,33.28051],[-86.53235,33.28072],[-86.53316,33.2806],[-86.53379,33.28081],[-86.53424,33.28066],[-86.53515,33.28089],[-86.53529,33.28126],[-86.53511,33.2817],[-86.53532,33.28201],[-86.53562,33.28212],[-86.53578,33.28251],[-86.53559,33.2826],[-86.53532,33.28244],[-86.53516,33.28251],[-86.53505,33.28319],[-86.5355,33.28363],[-86.53658,33.28359],[-86.53603,33.28413],[-86.5355,33.284],[-86.53523,33.28422],[-86.5345,33.28412],[-86.53424,33.28422],[-86.53417,33.2846],[-86.53393,33.28476],[-86.53397,33.2849],[-86.53437,33.28508],[-86.53442,33.2853],[-86.53421,33.28551],[-86.53465,33.28552],[-86.53456,33.28581],[-86.53465,33.28597],[-86.5355,33.28615],[-86.53631,33.28572],[-86.53671,33.28571],[-86.53671,33.28588],[-86.5364,33.28608],[-86.53643,33.28644],[-86.53712,33.28624],[-86.53759,33.28631],[-86.53748,33.28613],[-86.5369,33.28606],[-86.53703,33.28575],[-86.53786,33.28591],[-86.53793,33.28602],[-86.53773,33.28622],[-86.53794,33.28656],[-86.53781,33.28703],[-86.53811,33.28686],[-86.53818,33.28702],[-86.5381,33.28729],[-86.53823,33.28749],[-86.53769,33.2883],[-86.53735,33.28823],[-86.53721,33.28865],[-86.53704,33.28836],[-86.53709,33.28809],[-86.53685,33.28782],[-86.53712,33.28766],[-86.53725,33.28737],[-86.53694,33.28728],[-86.53706,33.28692],[-86.53694,33.28678],[-86.53637,33.28695],[-86.53625,33.28689],[-86.53622,33.28663],[-86.53604,33.28692],[-86.53581,33.28692],[-86.53568,33.28676],[-86.53532,33.28692],[-86.53566,33.28712],[-86.53579,33.28782],[-86.53568,33.28794],[-86.5355,33.28783],[-86.53532,33.28809],[-86.53548,33.28836],[-86.53534,33.2889],[-86.53561,33.28908],[-86.53556,33.28971],[-86.53584,33.2907],[-86.53572,33.29083],[-86.53513,33.29087],[-86.53529,33.29118],[-86.53518,33.29196],[-86.5353,33.29223],[-86.53505,33.29249],[-86.53507,33.29306],[-86.53496,33.29317],[-86.53451,33.29311],[-86.53438,33.29321],[-86.53499,33.29354],[-86.53496,33.29393],[-86.53518,33.29429],[-86.53521,33.29519],[-86.53508,33.29537],[-86.53528,33.29591],[-86.53482,33.29609],[-86.53511,33.29627],[-86.53503,33.2969],[-86.53487,33.29717],[-86.5346,33.29696],[-86.53441,33.297],[-86.53445,33.29681],[-86.53424,33.29679],[-86.53356,33.29753],[-86.53415,33.2974],[-86.53467,33.29744],[-86.53466,33.29762],[-86.53431,33.29789],[-86.53446,33.29816],[-86.53443,33.29853],[-86.53403,33.29858],[-86.53345,33.29899],[-86.53318,33.29895],[-86.5328,33.29858],[-86.53251,33.2987],[-86.53259,33.29909],[-86.53287,33.29942],[-86.53269,33.29969],[-86.53289,33.29987],[-86.53309,33.29984],[-86.53309,33.30007],[-86.53211,33.30053],[-86.53154,33.3005]]]},"properties":{"fire_id":"ufid:2022-ALALS-220929-1","source_collection":"history-2022","source_objectid":14262,"incident_name":"2650 HWY 51","mapped_acres":600.0,"mapped_acres_source":"poly_GISAcres","gis_acres":600.0,"auto_acres":328.106772681503,"reported_acres":600.0,"percent_contained":100.0,"state":"AL","state_wfigs":"US-AL","county":"Shelby","discovery_time_utc":"2022-09-29T12:49:00Z","perimeter_time_utc":"2022-09-29T17:49:00Z","perimeter_edit_time_utc":"2022-12-15T20:23:08Z","incident_modified_time_utc":"2022-11-08T22:30:46Z","containment_time_utc":null,"control_time_utc":null,"fire_out_time_utc":null,"fire_cause":"Human","fire_cause_general":null,"map_method":"Image Interpretation","source_dataset":"2022 NIFS","unique_fire_identifier":"2022-ALALS-220929-1","irwin_id":"{F121AB30-07CE-4684-B2E1-970CB48E9496}","global_id":"1a854519-7e9e-4330-93b4-d71aa768ca52"}},{"type":"Feature","geometry":{"type":"Polygon","coordinates":[[[-85.07981,32.34051],[-85.0794,32.34045],[-85.07904,32.3401],[-85.07886,32.33956],[-85.07824,32.33917],[-85.07578,32.33999],[-85.07455,32.34003],[-85.07437,32.33967],[-85.07311,32.3402],[-85.07257,32.34011],[-85.07234,32.33992],[-85.07266,32.33982],[-85.07293,32.33999],[-85.07307,32.33974],[-85.07266,32.33935],[-85.07194,32.33917],[-85.07176,32.33889],[-85.07174,32.33849],[-85.07208,32.33822],[-85.07239,32.33751],[-85.07329,32.3379],[-85.07352,32.33768],[-85.073,32.33725],[-85.07197,32.33693],[-85.0716,32.33651],[-85.07266,32.33566],[-85.07303,32.33587],[-85.07312,32.33623],[-85.07329,32.33634],[-85.07392,32.33633],[-85.07437,32.33652],[-85.07471,32.33651],[-85.07535,32.33605],[-85.07501,32.33525],[-85.07626,32.33574],[-85.07689,32.3358],[-85.07713,32.33552],[-85.07704,32.33516],[-85.07713,32.33489],[-85.07698,32.33471],[-85.0759,32.33425],[-85.07573,32.33444],[-85.07572,32.33478],[-85.07482,32.33449],[-85.07288,32.33296],[-85.07212,32.33281],[-85.07131,32.33244],[-85.07054,32.33183],[-85.07018,32.33135],[-85.07033,32.33031],[-85.07051,32.33016],[-85.07095,32.33034],[-85.07142,32.33032],[-85.07149,32.33013],[-85.07113,32.32959],[-85.07122,32.32947],[-85.07158,32.32951],[-85.07173,32.32989],[-85.07211,32.32996],[-85.0736,32.32962],[-85.07376,32.3295],[-85.07365,32.32911],[-85.07437,32.32917],[-85.07479,32.32902],[-85.0747,32.3286],[-85.07482,32.3283],[-85.07576,32.32837],[-85.07604,32.32815],[-85.07626,32.32828],[-85.07698,32.32795],[-85.07752,32.32815],[-85.0777,32.32802],[-85.07797,32.32814],[-85.07813,32.32759],[-85.07967,32.32676],[-85.08013,32.32671],[-85.08066,32.32643],[-85.08202,32.32689],[-85.08219,32.32817],[-85.08291,32.32784],[-85.08307,32.32761],[-85.08302,32.32734],[-85.08327,32.32719],[-85.08399,32.32745],[-85.08444,32.32739],[-85.08507,32.3275],[-85.08539,32.32716],[-85.08535,32.32691],[-85.08588,32.32679],[-85.08785,32.32674],[-85.08899,32.32684],[-85.08914,32.32716],[-85.08923,32.32923],[-85.08946,32.32986],[-85.0893,32.33031],[-85.08929,32.33103],[-85.08947,32.3321],[-85.08948,32.33362],[-85.08961,32.3339],[-85.08978,32.33543],[-85.08967,32.33624],[-85.08911,32.33624],[-85.08848,32.33599],[-85.08785,32.336],[-85.08722,32.33581],[-85.0865,32.33597],[-85.08549,32.33684],[-85.08435,32.33858],[-85.08399,32.3389],[-85.08327,32.33925],[-85.08291,32.33911],[-85.08246,32.33927],[-85.08158,32.33914],[-85.08111,32.33982],[-85.07981,32.34051]]]},"properties":{"fire_id":"ufid:2022-ALPRI-2022302-21","source_collection":"history-2022","source_objectid":14281,"incident_name":"BROKEN ARROW PLANTATION","mapped_acres":641.0,"mapped_acres_source":"poly_GISAcres","gis_acres":641.0,"auto_acres":479.177782239027,"reported_acres":641.0,"percent_contained":100.0,"state":"AL","state_wfigs":"US-AL","county":"Russell","discovery_time_utc":"2022-03-02T23:04:00Z","perimeter_time_utc":null,"perimeter_edit_time_utc":"2022-12-16T22:26:58Z","incident_modified_time_utc":"2022-03-17T19:17:05Z","containment_time_utc":null,"control_time_utc":null,"fire_out_time_utc":null,"fire_cause":"Natural","fire_cause_general":null,"map_method":"Image Interpretation","source_dataset":"2022 NIFS","unique_fire_identifier":"2022-ALPRI-2022302-21","irwin_id":"{8F13CCBF-7F67-4E47-BF87-C6D9721F35EA}","global_id":"77984399-87fc-44dd-a4b8-9d254335862d"}},{"type":"Feature","geometry":{"type":"Polygon","coordinates":[[[-85.89534,33.51385],[-85.89622,33.51436],[-85.89695,33.51449],[-85.89784,33.51505],[-85.89772,33.5165],[-85.89784,33.51673],[-85.8974,33.51748],[-85.89746,33.51757],[-85.89798,33.51753],[-85.89804,33.51787],[-85.89783,33.51799],[-85.89751,33.51788],[-85.89719,33.51831],[-85.89664,33.51804],[-85.89685,33.51763],[-85.89671,33.51731],[-85.89657,33.51731],[-85.8966,33.51718],[-85.89643,33.51708],[-85.89552,33.51543],[-85.89509,33.51496],[-85.89507,33.51473],[-85.89542,33.51415],[-85.89534,33.51385]]]},"properties":{"fire_id":"ufid:2022-ALALF-220220","source_collection":"history-2022","source_objectid":14964,"incident_name":"TL Salt","mapped_acres":17.04,"mapped_acres_source":"poly_GISAcres","gis_acres":17.04,"auto_acres":17.042877701515703,"reported_acres":17.0,"percent_contained":null,"state":"AL","state_wfigs":"US-AL","county":"Talladega","discovery_time_utc":"2022-09-30T15:41:59Z","perimeter_time_utc":"2023-07-24T14:24:05Z","perimeter_edit_time_utc":"2023-07-24T14:24:06Z","incident_modified_time_utc":"2022-10-26T15:15:31Z","containment_time_utc":"2022-10-02T20:22:00Z","control_time_utc":"2022-10-12T14:26:00Z","fire_out_time_utc":"2022-10-26T12:00:00Z","fire_cause":"Human","fire_cause_general":"Undetermined","map_method":"Hand Sketch","source_dataset":"FFP","unique_fire_identifier":"2022-ALALF-220220","irwin_id":"{29210C80-7C75-4404-8CDA-21A3F00E670C}","global_id":"605ac622-2e9d-4b0f-998b-58df904f7c21"}},{"type":"Feature","geometry":{"type":"Polygon","coordinates":[[[-87.49801,34.40688],[-87.4975,34.40738],[-87.49696,34.40758],[-87.49669,34.40785],[-87.49579,34.4078],[-87.49536,34.40764],[-87.49504,34.40702],[-87.49503,34.40645],[-87.49514,34.40599],[-87.4956,34.4056],[-87.49606,34.40554],[-87.49674,34.40599],[-87.49745,34.4057],[-87.49785,34.40617],[-87.49801,34.40688]]]},"properties":{"fire_id":"ufid:2022-ALALF-220252","source_collection":"history-2022","source_objectid":18209,"incident_name":"BK Stinson Gap","mapped_acres":15.0,"mapped_acres_source":"poly_GISAcres","gis_acres":15.0,"auto_acres":12.912781542665531,"reported_acres":13.0,"percent_contained":null,"state":"AL","state_wfigs":"US-AL","county":"Lawrence","discovery_time_utc":"2022-11-21T21:43:00Z","perimeter_time_utc":"2023-07-18T19:18:53Z","perimeter_edit_time_utc":"2023-07-18T19:18:53Z","incident_modified_time_utc":"2023-01-17T13:30:44Z","containment_time_utc":"2022-11-22T02:33:00Z","control_time_utc":"2022-12-01T15:03:00Z","fire_out_time_utc":"2022-12-01T15:03:00Z","fire_cause":"Human","fire_cause_general":"Arson","map_method":"Auto-generated","source_dataset":"FFP","unique_fire_identifier":"2022-ALALF-220252","irwin_id":"{3B40712B-EE25-4C81-BDD0-EC5A7471BBEE}","global_id":"56e33e24-53a1-45cd-a87e-ccd7196b1472"}},{"type":"Feature","geometry":{"type":"Polygon","coordinates":[[[-87.34875,34.10096],[-87.35045,34.10122],[-87.35099,34.10243],[-87.35018,34.10289],[-87.34944,34.10311],[-87.34906,34.10345],[-87.34878,34.10314],[-87.34806,34.10365],[-87.34764,34.10376],[-87.34736,34.10253],[-87.34762,34.1019],[-87.3475,34.10165],[-87.34758,34.10132],[-87.34794,34.10106],[-87.34834,34.10114],[-87.34875,34.10096]]]},"properties":{"fire_id":"ufid:2022-ALALF-220234","source_collection":"history-2022","source_objectid":18210,"incident_name":"BK Kristy","mapped_acres":0.1,"mapped_acres_source":"poly_GISAcres","gis_acres":0.1,"auto_acres":17.558880904922653,"reported_acres":18.0,"percent_contained":null,"state":"AL","state_wfigs":"US-AL","county":"Winston","discovery_time_utc":"2022-10-18T19:51:08Z","perimeter_time_utc":"2023-07-18T19:12:45Z","perimeter_edit_time_utc":"2023-07-18T19:12:45Z","incident_modified_time_utc":"2023-06-09T12:56:17Z","containment_time_utc":"2022-10-19T00:05:00Z","control_time_utc":"2022-11-08T09:32:00Z","fire_out_time_utc":"2022-11-08T09:32:00Z","fire_cause":"Human","fire_cause_general":"Arson","map_method":"Auto-generated","source_dataset":"FFP","unique_fire_identifier":"2022-ALALF-220234","irwin_id":"{4F82B86E-2176-4A5B-8696-9FB3CDC94C50}","global_id":"0ab58fc6-1f5d-409a-b6fd-993107b57f10"}},{"type":"Feature","geometry":{"type":"MultiPolygon","coordinates":[[[[-87.18965,32.81816],[-87.18963,32.81819],[-87.1896,32.81817],[-87.18965,32.81816]]],[[[-87.189,32.81691],[-87.18909,32.81769],[-87.18956,32.81824],[-87.18989,32.81823],[-87.19008,32.81839],[-87.19015,32.81876],[-87.1904,32.81909],[-87.19038,32.81948],[-87.18945,32.81981],[-87.18893,32.82019],[-87.1879,32.82051],[-87.18736,32.82027],[-87.1872,32.81934],[-87.1873,32.81931],[-87.18709,32.81868],[-87.18765,32.81785],[-87.189,32.81691]]]]},"properties":{"fire_id":"ufid:2022-ALALF-220230","source_collection":"history-2022","source_objectid":18347,"incident_name":"OK Hamm Fork","mapped_acres":18.22,"mapped_acres_source":"poly_GISAcres","gis_acres":18.22,"auto_acres":18.223121977541634,"reported_acres":18.0,"percent_contained":null,"state":"AL","state_wfigs":"US-AL","county":"Perry","discovery_time_utc":"2022-10-16T18:49:00Z","perimeter_time_utc":"2023-07-21T19:02:54Z","perimeter_edit_time_utc":"2023-07-21T19:02:54Z","incident_modified_time_utc":"2023-01-14T16:59:20Z","containment_time_utc":"2022-10-20T20:30:00Z","control_time_utc":"2022-11-01T18:00:00Z","fire_out_time_utc":"2022-11-17T17:43:00Z","fire_cause":"Human","fire_cause_general":"Arson","map_method":"Hand Sketch","source_dataset":"FFP","unique_fire_identifier":"2022-ALALF-220230","irwin_id":"{FB886AA6-0E51-47C7-BAFD-E8F9E2098CB6}","global_id":"03418a19-c263-4c22-ad9c-bd1752abbe11"}},{"type":"Feature","geometry":{"type":"Polygon","coordinates":[[[-87.12741,34.28046],[-87.12719,34.28016],[-87.12753,34.28003],[-87.12772,34.27976],[-87.12806,34.27986],[-87.12818,34.28015],[-87.12779,34.28067],[-87.12741,34.28046]]]},"properties":{"fire_id":"ufid:2022-ALALF-220166","source_collection":"history-2022","source_objectid":18349,"incident_name":"Rock creek","mapped_acres":1.28,"mapped_acres_source":"poly_GISAcres","gis_acres":1.28,"auto_acres":1.2762595370848488,"reported_acres":1.27,"percent_contained":null,"state":"AL","state_wfigs":"US-AL","county":"Winston","discovery_time_utc":"2022-03-27T03:11:00Z","perimeter_time_utc":"2023-07-21T19:06:24Z","perimeter_edit_time_utc":"2023-07-21T19:06:25Z","incident_modified_time_utc":"2023-07-20T12:37:03Z","containment_time_utc":"2022-03-27T16:00:00Z","control_time_utc":"2022-03-30T20:04:00Z","fire_out_time_utc":"2022-03-30T20:04:00Z","fire_cause":"Human","fire_cause_general":"Other causes","map_method":"Mixed Methods","source_dataset":"FFP","unique_fire_identifier":"2022-ALALF-220166","irwin_id":"{A224E915-72DA-4FB9-A1BE-630C47932F03}","global_id":"b08201df-07c6-4c58-9265-c3d9aefe150a"}},{"type":"Feature","geometry":{"type":"Polygon","coordinates":[[[-86.75379,31.07629],[-86.75289,31.07758],[-86.7519,31.08067],[-86.75297,31.08045],[-86.75452,31.08276],[-86.75615,31.08309],[-86.75598,31.0842],[-86.7561,31.08567],[-86.7555,31.08732],[-86.75439,31.08842],[-86.75293,31.08901],[-86.75181,31.08912],[-86.75018,31.08883],[-86.74812,31.0868],[-86.74701,31.08592],[-86.74447,31.08456],[-86.74344,31.08353],[-86.74095,31.07964],[-86.74186,31.07905],[-86.74263,31.07956],[-86.74349,31.07982],[-86.74383,31.07945],[-86.74409,31.07828],[-86.74413,31.07585],[-86.74392,31.07446],[-86.74332,31.07357],[-86.7443,31.07313],[-86.74486,31.07409],[-86.74559,31.0742],[-86.74568,31.07343],[-86.74636,31.07247],[-86.74838,31.07133],[-86.75027,31.07218],[-86.75147,31.07218],[-86.75379,31.07629]]]},"properties":{"fire_id":"ufid:2022-ALALF-220135","source_collection":"history-2022","source_objectid":18394,"incident_name":"CN LIMA","mapped_acres":404.54,"mapped_acres_source":"poly_GISAcres","gis_acres":404.54,"auto_acres":404.54137243907644,"reported_acres":373.0,"percent_contained":null,"state":"AL","state_wfigs":"US-AL","county":"Escambia","discovery_time_utc":"2022-03-04T17:33:00Z","perimeter_time_utc":"2023-07-24T14:18:46Z","perimeter_edit_time_utc":"2023-07-24T14:18:46Z","incident_modified_time_utc":"2023-07-20T13:52:43Z","containment_time_utc":"2022-03-04T21:30:00Z","control_time_utc":"2022-03-10T16:33:00Z","fire_out_time_utc":"2022-03-10T16:33:00Z","fire_cause":"Human","fire_cause_general":"Debris and open burning","map_method":"Hand Sketch","source_dataset":"FFP","unique_fire_identifier":"2022-ALALF-220135","irwin_id":"{C2B480B3-365B-4327-8426-5BE36A2B80DF}","global_id":"d7c09790-6d72-4530-b606-f1b95f61e980"}}]}
