{"type":"FeatureCollection","features":[{"type":"Feature","geometry":{"type":"Polygon","coordinates":[[[-93.96544,34.38514],[-93.96578,34.38494],[-93.96606,34.38514],[-93.96655,34.3859],[-93.96648,34.38644],[-93.96663,34.38656],[-93.96787,34.38664],[-93.96894,34.38729],[-93.9696,34.38731],[-93.97126,34.38699],[-93.97281,34.38733],[-93.97345,34.38731],[-93.97429,34.38784],[-93.97573,34.38846],[-93.97655,34.38848],[-93.97931,34.38965],[-93.97998,34.38966],[-93.97996,34.39031],[-93.98039,34.39074],[-93.98059,34.39119],[-93.98011,34.39162],[-93.97976,34.39175],[-93.97745,34.39165],[-93.97641,34.39212],[-93.97533,34.39229],[-93.97478,34.39254],[-93.97448,34.39319],[-93.97371,34.39348],[-93.97272,34.39352],[-93.971,34.39305],[-93.97076,34.39309],[-93.96923,34.39403],[-93.96818,34.39551],[-93.96798,34.39635],[-93.96754,34.39673],[-93.96717,34.39685],[-93.96408,34.39618],[-93.96373,34.39568],[-93.96264,34.39541],[-93.96119,34.39372],[-93.96021,34.3935],[-93.96015,34.39338],[-93.95805,34.39256],[-93.95828,34.39208],[-93.95807,34.39101],[-93.95807,34.38991],[-93.95862,34.38935],[-93.95876,34.38848],[-93.95891,34.38835],[-93.96008,34.38832],[-93.96059,34.3878],[-93.96222,34.3872],[-93.96266,34.38669],[-93.96308,34.38658],[-93.96327,34.38634],[-93.96353,34.38626],[-93.9636,34.3859],[-93.96413,34.38567],[-93.96461,34.38574],[-93.96541,34.38535],[-93.96544,34.38514]]]},"properties":{"fire_id":"ufid:2022-AROUF-001120","source_collection":"history-2022","source_objectid":957,"incident_name":"Leader Mountain","mapped_acres":0.1,"mapped_acres_source":"poly_GISAcres","gis_acres":0.1,"auto_acres":352.86317766963,"reported_acres":351.4,"percent_contained":100.0,"state":"AR","state_wfigs":"US-AR","county":"Polk","discovery_time_utc":"2022-04-10T22:00:00Z","perimeter_time_utc":"2022-04-11T03:00:46Z","perimeter_edit_time_utc":"2022-04-12T16:19:00Z","incident_modified_time_utc":"2022-05-17T13:27:22Z","containment_time_utc":"2022-04-11T21:20:00Z","control_time_utc":"2022-05-17T13:25:00Z","fire_out_time_utc":"2022-05-17T13:25:00Z","fire_cause":"Human","fire_cause_general":null,"map_method":"Hand Sketch","source_dataset":"2022 NIFS","unique_fire_identifier":"2022-AROUF-001120","irwin_id":"{A606F67B-8E94-484A-9359-821CB0F11E86}","global_id":"3dc0630a-01a8-4fcb-a861-67f03b0d673a"}},{"type":"Feature","geometry":{"type":"MultiPolygon","coordinates":[[[[-93.80738,34.58915],[-93.80739,34.58915],[-93.80738,34.58916],[-93.80738,34.58915]]],[[[-93.80737,34.58917],[-93.80738,34.58916],[-93.80739,34.58917],[-93.80737,34.58917]]],[[[-93.80736,34.58917],[-93.80737,34.58917],[-93.80737,34.58918],[-93.80736,34.58917]]],[[[-93.80483,34.59041],[-93.80484,34.5904],[-93.80485,34.59042],[-93.80483,34.59041]]],[[[-93.80483,34.59041],[-93.80482,34.59043],[-93.80482,34.59041],[-93.80483,34.59041]]],[[[-93.79562,34.58693],[-93.79576,34.58592],[-93.79604,34.58536],[-93.79643,34.58513],[-93.79733,34.58593],[-93.79771,34.58596],[-93.79863,34.58634],[-93.79937,34.58683],[-93.80146,34.58703],[-93.80322,34.58738],[-93.80525,34.5873],[-93.80663,34.58777],[-93.80704,34.58811],[-93.80738,34.58916],[-93.80679,34.58903],[-93.80636,34.58914],[-93.80608,34.58936],[-93.80584,34.58941],[-93.80581,34.58932],[-93.80566,34.58945],[-93.80527,34.58942],[-93.80522,34.58954],[-93.80495,34.58955],[-93.80492,34.58997],[-93.80476,34.59006],[-93.8049,34.59031],[-93.80475,34.59045],[-93.80451,34.59041],[-93.80428,34.59016],[-93.80258,34.59013],[-93.80124,34.58978],[-93.80005,34.59005],[-93.79931,34.58896],[-93.79941,34.58884],[-93.79922,34.58849],[-93.79893,34.58857],[-93.79865,34.58841],[-93.79784,34.58835],[-93.79623,34.58863],[-93.79576,34.58859],[-93.79562,34.58693]]]]},"properties":{"fire_id":"ufid:2022-AROUF-001082","source_collection":"history-2022","source_objectid":1922,"incident_name":"Clear Creek spot","mapped_acres":72.9078455210783,"mapped_acres_source":"poly_Acres_AutoCalc_fallback","gis_acres":null,"auto_acres":72.9078455210783,"reported_acres":75.0,"percent_contained":null,"state":"AR","state_wfigs":"US-AR","county":"Montgomery","discovery_time_utc":"2022-04-07T18:50:00Z","perimeter_time_utc":null,"perimeter_edit_time_utc":"2022-05-17T13:09:08Z","incident_modified_time_utc":"2022-05-17T13:29:49Z","containment_time_utc":"2022-04-11T00:00:00Z","control_time_utc":"2022-05-17T13:25:00Z","fire_out_time_utc":"2022-05-17T13:25:00Z","fire_cause":"Human","fire_cause_general":null,"map_method":"Mixed Methods","source_dataset":"2022 NIFS","unique_fire_identifier":"2022-AROUF-001082","irwin_id":"{24359DA9-23B9-4F45-934D-2B13AEA87C30}","global_id":"03e16ce1-81d7-4d11-b133-9eb808c4b89e"}},{"type":"Feature","geometry":{"type":"MultiPolygon","coordinates":[[[[-93.009,34.8018],[-93.00893,34.80186],[-93.00896,34.80179],[-93.009,34.8018]]],[[[-93.01095,34.80178],[-93.01123,34.80214],[-93.01118,34.80266],[-93.01132,34.80294],[-93.01083,34.80355],[-93.01021,34.80339],[-93.00971,34.80296],[-93.00919,34.80308],[-93.00889,34.80279],[-93.00868,34.80211],[-93.00916,34.80167],[-93.01004,34.80151],[-93.01095,34.80178]]]]},"properties":{"fire_id":"ufid:2022-AROUF-001955","source_collection":"history-2022","source_objectid":2563,"incident_name":"North Alum","mapped_acres":9.22,"mapped_acres_source":"poly_GISAcres","gis_acres":9.22,"auto_acres":9.22299436912597,"reported_acres":9.2,"percent_contained":null,"state":"AR","state_wfigs":"US-AR","county":"Saline","discovery_time_utc":"2022-07-19T19:32:54Z","perimeter_time_utc":null,"perimeter_edit_time_utc":"2022-08-05T17:47:57Z","incident_modified_time_utc":"2022-10-12T18:58:17Z","containment_time_utc":"2022-07-19T22:11:00Z","control_time_utc":"2022-08-10T13:30:00Z","fire_out_time_utc":"2022-08-15T18:30:00Z","fire_cause":"Undetermined","fire_cause_general":null,"map_method":"Mixed Methods","source_dataset":"2022 NIFS","unique_fire_identifier":"2022-AROUF-001955","irwin_id":"{FF130EAB-0AC8-49F7-A2EE-F5054855D5D1}","global_id":"f81914f8-59bb-4b7d-a9da-e0b64b5331f0"}},{"type":"Feature","geometry":{"type":"Polygon","coordinates":[[[-93.56149,34.92715],[-93.56196,34.92689],[-93.56229,34.92704],[-93.56199,34.92747],[-93.56149,34.92715]]]},"properties":{"fire_id":"ufid:2022-AROUF-002124","source_collection":"history-2022","source_objectid":3547,"incident_name":"Needle Fire","mapped_acres":0.59,"mapped_acres_source":"poly_GISAcres","gis_acres":0.59,"auto_acres":0.599209526211923,"reported_acres":0.6,"percent_contained":null,"state":"AR","state_wfigs":"US-AR","county":"Yell","discovery_time_utc":"2022-07-29T17:48:53Z","perimeter_time_utc":null,"perimeter_edit_time_utc":"2022-08-05T17:22:47Z","incident_modified_time_utc":"2022-09-06T14:07:47Z","containment_time_utc":"2022-07-29T21:30:00Z","control_time_utc":"2022-08-10T13:30:00Z","fire_out_time_utc":"2022-09-06T14:00:00Z","fire_cause":"Natural","fire_cause_general":null,"map_method":"Mixed Methods","source_dataset":"2022 NIFS","unique_fire_identifier":"2022-AROUF-002124","irwin_id":"{47E7CB78-5D3B-459C-A04B-DE965F65FE62}","global_id":"b1f22789-a868-4e2a-838a-5e289f134939"}},{"type":"Feature","geometry":{"type":"Polygon","coordinates":[[[-94.25766,34.63807],[-94.25744,34.63789],[-94.25747,34.63779],[-94.25777,34.63793],[-94.25766,34.63807]]]},"properties":{"fire_id":"ufid:2022-AROUF-001280","source_collection":"history-2022","source_objectid":4503,"incident_name":"Mom","mapped_acres":0.1,"mapped_acres_source":"poly_GISAcres","gis_acres":0.1,"auto_acres":0.12854235987240517,"reported_acres":0.13,"percent_contained":null,"state":"AR","state_wfigs":"US-AR","county":"Polk","discovery_time_utc":"2022-05-08T22:45:00Z","perimeter_time_utc":"2022-08-05T20:49:04Z","perimeter_edit_time_utc":"2023-03-14T15:13:42Z","incident_modified_time_utc":"2022-05-17T13:24:24Z","containment_time_utc":"2022-05-09T00:40:00Z","control_time_utc":"2022-05-17T13:21:00Z","fire_out_time_utc":"2022-05-17T13:21:00Z","fire_cause":"Human","fire_cause_general":"Arson","map_method":"Auto-generated","source_dataset":"FFP","unique_fire_identifier":"2022-AROUF-001280","irwin_id":"{F94ACDE2-F082-4AD4-A753-4C729302E08C}","global_id":"62e3e521-4a72-455f-961d-7678ae8ea062"}},{"type":"Feature","geometry":{"type":"Polygon","coordinates":[[[-94.30084,34.64021],[-94.30088,34.64003],[-94.30107,34.64004],[-94.30126,34.64033],[-94.30113,34.64044],[-94.30084,34.64021]]]},"properties":{"fire_id":"ufid:2022-AROUF-001812","source_collection":"history-2022","source_objectid":4583,"incident_name":"Rock Creek","mapped_acres":0.25,"mapped_acres_source":"poly_GISAcres","gis_acres":0.25,"auto_acres":0.27938696502854,"reported_acres":0.25,"percent_contained":null,"state":"AR","state_wfigs":"US-AR","county":"Polk","discovery_time_utc":"2022-07-10T22:47:00Z","perimeter_time_utc":"2022-07-25T14:33:45Z","perimeter_edit_time_utc":"2023-03-14T15:13:42Z","incident_modified_time_utc":"2022-07-21T19:28:21Z","containment_time_utc":"2022-07-11T00:39:00Z","control_time_utc":"2022-07-15T14:29:00Z","fire_out_time_utc":"2022-07-21T19:25:00Z","fire_cause":"Undetermined","fire_cause_general":null,"map_method":"Auto-generated","source_dataset":"Decertified","unique_fire_identifier":"2022-AROUF-001812","irwin_id":"{CD9C3A2C-8A4D-4E58-931F-295C71434DB1}","global_id":"3924dcde-2ea0-4735-9167-258350c849b8"}},{"type":"Feature","geometry":{"type":"Polygon","coordinates":[[[-93.51619,34.36343],[-93.51682,34.36363],[-93.52228,34.36396],[-93.52235,34.36477],[-93.52246,34.36487],[-93.52248,34.36592],[-93.52222,34.36661],[-93.52205,34.36762],[-93.52302,34.36801],[-93.52313,34.36854],[-93.52305,34.36891],[-93.52214,34.36894],[-93.52117,34.36917],[-93.52006,34.36966],[-93.51961,34.37012],[-93.51701,34.37047],[-93.51662,34.3691],[-93.51519,34.36741],[-93.51472,34.36622],[-93.51349,34.36521],[-93.5126,34.36485],[-93.51351,34.36442],[-93.51576,34.36373],[-93.51619,34.36343]]]},"properties":{"fire_id":"ufid:2022-AROUF-000225","source_collection":"history-2022","source_objectid":4707,"incident_name":"Bumble Bee","mapped_acres":113.9971260502508,"mapped_acres_source":"poly_Acres_AutoCalc_fallback","gis_acres":null,"auto_acres":113.9971260502508,"reported_acres":114.0,"percent_contained":null,"state":"AR","state_wfigs":"US-AR","county":"Montgomery","discovery_time_utc":"2022-01-29T23:53:00Z","perimeter_time_utc":"2022-08-05T20:48:53Z","perimeter_edit_time_utc":"2023-03-14T15:13:42Z","incident_modified_time_utc":"2022-02-28T18:18:30Z","containment_time_utc":"2022-01-30T02:20:00Z","control_time_utc":"2022-02-25T19:15:00Z","fire_out_time_utc":"2022-02-25T19:15:00Z","fire_cause":"Undetermined","fire_cause_general":"Undetermined","map_method":"Hand Sketch","source_dataset":"FFP","unique_fire_identifier":"2022-AROUF-000225","irwin_id":"{E223970D-A761-4010-9F78-C5D033FC79FB}","global_id":"1b7714a8-684c-4367-b7bd-4787099a10db"}},{"type":"Feature","geometry":{"type":"Polygon","coordinates":[[[-93.60853,34.73735],[-93.60893,34.73722],[-93.60915,34.73732],[-93.60891,34.73754],[-93.60853,34.73735]]]},"properties":{"fire_id":"ufid:2022-AROUF-002776","source_collection":"history-2022","source_objectid":5088,"incident_name":"Muddy Mountain","mapped_acres":0.25,"mapped_acres_source":"poly_GISAcres","gis_acres":0.25,"auto_acres":0.31989054304536885,"reported_acres":0.34,"percent_contained":null,"state":"AR","state_wfigs":"US-AR","county":"Montgomery","discovery_time_utc":"2022-10-08T20:57:00Z","perimeter_time_utc":"2022-10-18T12:55:49Z","perimeter_edit_time_utc":"2023-03-14T15:13:42Z","incident_modified_time_utc":"2022-10-17T15:03:33Z","containment_time_utc":"2022-10-08T22:33:00Z","control_time_utc":"2022-10-17T14:31:00Z","fire_out_time_utc":"2022-10-17T14:31:00Z","fire_cause":"Human","fire_cause_general":"Undetermined","map_method":"Auto-generated","source_dataset":"FFP","unique_fire_identifier":"2022-AROUF-002776","irwin_id":"{D975E0A3-97C8-4A80-AACC-BF14521A532B}","global_id":"a758561d-b753-4aac-9238-fd0f586c5049"}},{"type":"Feature","geometry":{"type":"Polygon","coordinates":[[[-94.30056,34.46985],[-94.30131,34.47021],[-94.30188,34.47014],[-94.30228,34.47042],[-94.30266,34.47028],[-94.30328,34.47032],[-94.30367,34.47053],[-94.30364,34.4712],[-94.30432,34.4715],[-94.30466,34.47186],[-94.30449,34.47213],[-94.30415,34.47232],[-94.30414,34.47271],[-94.3031,34.47387],[-94.30375,34.47453],[-94.30376,34.4748],[-94.30356,34.47507],[-94.30362,34.47536],[-94.30106,34.47604],[-94.30094,34.47597],[-94.30088,34.47563],[-94.30041,34.4754],[-94.29974,34.47477],[-94.29929,34.47484],[-94.2999,34.47375],[-94.30002,34.4729],[-94.29979,34.47229],[-94.29884,34.47162],[-94.299,34.4709],[-94.29872,34.47024],[-94.29893,34.46955],[-94.29992,34.46909],[-94.30012,34.46916],[-94.30083,34.46883],[-94.30109,34.46893],[-94.30056,34.46985]]]},"properties":{"fire_id":"ufid:2022-AROUF-001136","source_collection":"history-2022","source_objectid":5107,"incident_name":"6 Mile 7","mapped_acres":0.1,"mapped_acres_source":"poly_GISAcres","gis_acres":0.1,"auto_acres":62.910710380320076,"reported_acres":33.5,"percent_contained":null,"state":"AR","state_wfigs":"US-AR","county":"Polk","discovery_time_utc":"2022-04-10T11:57:00Z","perimeter_time_utc":"2022-08-05T20:47:01Z","perimeter_edit_time_utc":"2023-03-14T15:13:42Z","incident_modified_time_utc":"2022-04-18T22:51:51Z","containment_time_utc":"2022-04-11T00:00:00Z","control_time_utc":"2022-04-18T23:00:00Z","fire_out_time_utc":"2022-04-18T23:00:00Z","fire_cause":"Human","fire_cause_general":"Arson","map_method":"Auto-generated","source_dataset":"FFP","unique_fire_identifier":"2022-AROUF-001136","irwin_id":"{D6C038C5-06FB-4ED2-AD4B-703C986661E5}","global_id":"50f56f1e-b908-4bab-8c80-d2099372a7fc"}},{"type":"Feature","geometry":{"type":"Polygon","coordinates":[[[-93.52143,34.49653],[-93.52335,34.49826],[-93.52299,34.49816],[-93.52188,34.49835],[-93.52167,34.49809],[-93.5216,34.4976],[-93.52109,34.49715],[-93.52111,34.49686],[-93.52091,34.49686],[-93.52069,34.4966],[-93.52066,34.49628],[-93.5208,34.4962],[-93.52143,34.49653]]]},"properties":{"fire_id":"ufid:2022-AROUF-001378","source_collection":"history-2022","source_objectid":5708,"incident_name":"Logan Gap","mapped_acres":2.0,"mapped_acres_source":"poly_GISAcres","gis_acres":2.0,"auto_acres":4.6078355508545465,"reported_acres":4.6,"percent_contained":null,"state":"AR","state_wfigs":"US-AR","county":"Montgomery","discovery_time_utc":"2022-05-20T12:47:00Z","perimeter_time_utc":"2022-08-05T21:12:29Z","perimeter_edit_time_utc":"2023-03-14T15:13:42Z","incident_modified_time_utc":"2022-05-20T19:18:52Z","containment_time_utc":"2022-05-20T19:10:00Z","control_time_utc":null,"fire_out_time_utc":"2022-06-01T14:33:00Z","fire_cause":"Human","fire_cause_general":"Undetermined","map_method":"GPS-Walked","source_dataset":"FFP","unique_fire_identifier":"2022-AROUF-001378","irwin_id":"{DBACE8F8-1C74-4BB3-8C36-489467C99539}","global_id":"020f7797-d733-4259-aa2a-b051ee9dd94f"}},{"type":"Feature","geometry":{"type":"Polygon","coordinates":[[[-93.62078,34.59214],[-93.62155,34.5921],[-93.62138,34.59221],[-93.62127,34.59254],[-93.62078,34.59214]]]},"properties":{"fire_id":"ufid:2022-AROUF-002029","source_collection":"history-2022","source_objectid":5831,"incident_name":"37 Road","mapped_acres":0.5,"mapped_acres_source":"poly_GISAcres","gis_acres":0.5,"auto_acres":0.5033657689229261,"reported_acres":0.26,"percent_contained":null,"state":"AR","state_wfigs":"US-AR","county":"Montgomery","discovery_time_utc":"2022-07-23T20:10:00Z","perimeter_time_utc":"2022-08-09T14:17:42Z","perimeter_edit_time_utc":"2023-03-14T15:13:42Z","incident_modified_time_utc":"2022-08-04T19:26:57Z","containment_time_utc":"2022-07-23T22:08:00Z","control_time_utc":"2022-08-04T19:24:00Z","fire_out_time_utc":"2022-08-04T19:26:00Z","fire_cause":"Human","fire_cause_general":"Undetermined","map_method":"Mixed Methods","source_dataset":"FFP","unique_fire_identifier":"2022-AROUF-002029","irwin_id":"{D7DBA6DB-3845-43D8-B6FE-61094F73D885}","global_id":"edfb7ae6-9ae5-4790-992e-b1510697691c"}},{"type":"Feature","geometry":{"type":"Polygon","coordinates":[[[-94.2702,34.47255],[-94.26992,34.47229],[-94.2698,34.47165],[-94.27004,34.47113],[-94.27046,34.47087],[-94.27049,34.4706],[-94.27108,34.47037],[-94.27129,34.47006],[-94.27184,34.47014],[-94.27202,34.4697],[-94.27235,34.46948],[-94.27257,34.4691],[-94.27339,34.46894],[-94.27363,34.46912],[-94.27388,34.46893],[-94.274,34.46985],[-94.27282,34.47037],[-94.27279,34.47098],[-94.27233,34.47088],[-94.27239,34.47056],[-94.27127,34.47062],[-94.27092,34.4708],[-94.27085,34.47216],[-94.2702,34.47255]]]},"properties":{"fire_id":"ufid:2022-AROUF-001131","source_collection":"history-2022","source_objectid":5833,"incident_name":"6 Mile 2","mapped_acres":0.1,"mapped_acres_source":"poly_GISAcres","gis_acres":0.1,"auto_acres":11.509070872515352,"reported_acres":10.8,"percent_contained":null,"state":"AR","state_wfigs":"US-AR","county":"Polk","discovery_time_utc":"2022-04-10T11:52:00Z","perimeter_time_utc":"2022-08-05T20:47:25Z","perimeter_edit_time_utc":"2023-03-14T15:13:42Z","incident_modified_time_utc":"2022-04-12T14:37:28Z","containment_time_utc":"2022-04-11T00:00:00Z","control_time_utc":null,"fire_out_time_utc":"2022-04-18T23:00:00Z","fire_cause":"Human","fire_cause_general":"Arson","map_method":"Auto-generated","source_dataset":"FFP","unique_fire_identifier":"2022-AROUF-001131","irwin_id":"{F5A60003-B203-46FE-A13D-6400246C234F}","global_id":"bc087522-a49f-4ee7-bb51-4ebefb74e1f3"}},{"type":"Feature","geometry":{"type":"MultiPolygon","coordinates":[[[[-93.5939,34.58046],[-93.59406,34.58063],[-93.59438,34.5805],[-93.59456,34.5806],[-93.59479,34.58149],[-93.59436,34.58191],[-93.59443,34.5823],[-93.5942,34.58248],[-93.5939,34.58239],[-93.59369,34.58253],[-93.59346,34.58243],[-93.59346,34.58153],[-93.59358,34.58125],[-93.59348,34.58097],[-93.59363,34.58047],[-93.5939,34.58046]]],[[[-93.59365,34.58044],[-93.59362,34.58046],[-93.59362,34.58045],[-93.59365,34.58044]]],[[[-93.59363,34.58047],[-93.59362,34.58047],[-93.59362,34.58046],[-93.59363,34.58047]]]]},"properties":{"fire_id":"ufid:2022-AROUF-001179","source_collection":"history-2022","source_objectid":5989,"incident_name":"CW Hovel Fire","mapped_acres":5.19,"mapped_acres_source":"poly_GISAcres","gis_acres":5.19,"auto_acres":5.197674862006243,"reported_acres":5.0,"percent_contained":null,"state":"AR","state_wfigs":"US-AR","county":"Montgomery","discovery_time_utc":"2022-04-18T20:14:00Z","perimeter_time_utc":"2022-08-05T21:12:14Z","perimeter_edit_time_utc":"2023-03-14T15:13:42Z","incident_modified_time_utc":"2022-06-01T14:09:44Z","containment_time_utc":"2022-04-18T23:00:00Z","control_time_utc":null,"fire_out_time_utc":"2022-06-01T14:00:00Z","fire_cause":"Undetermined","fire_cause_general":"Undetermined","map_method":"Mixed Methods","source_dataset":"FFP","unique_fire_identifier":"2022-AROUF-001179","irwin_id":"{DF28CC99-6459-4330-9FEC-DE3A5DB5986C}","global_id":"3b8a944a-7b97-48db-8fa5-5180649f57b2"}},{"type":"Feature","geometry":{"type":"Polygon","coordinates":[[[-93.40537,34.41872],[-93.40505,34.41913],[-93.4047,34.41929],[-93.40409,34.41924],[-93.40351,34.41966],[-93.40262,34.41981],[-93.40192,34.41971],[-93.40143,34.41935],[-93.40108,34.41872],[-93.40136,34.41843],[-93.4027,34.41818],[-93.40401,34.41756],[-93.40463,34.41769],[-93.40507,34.41799],[-93.40537,34.41872]]]},"properties":{"fire_id":"ufid:2022-AROUF-000286","source_collection":"history-2022","source_objectid":6292,"incident_name":"Caddo 24","mapped_acres":15.39,"mapped_acres_source":"poly_GISAcres","gis_acres":15.39,"auto_acres":15.388199715325097,"reported_acres":15.0,"percent_contained":null,"state":"AR","state_wfigs":"US-AR","county":"Garland","discovery_time_utc":"2022-01-31T22:10:00Z","perimeter_time_utc":"2022-06-30T15:41:08Z","perimeter_edit_time_utc":"2023-03-14T15:13:42Z","incident_modified_time_utc":"2022-02-28T18:22:31Z","containment_time_utc":"2022-02-01T02:45:00Z","control_time_utc":"2022-02-25T20:53:00Z","fire_out_time_utc":"2022-02-25T20:53:00Z","fire_cause":"Undetermined","fire_cause_general":"Undetermined","map_method":"Hand Sketch","source_dataset":"FFP","unique_fire_identifier":"2022-AROUF-000286","irwin_id":"{E726D5A3-51ED-4B86-A7AE-7B229E275BB2}","global_id":"5eea3de0-3f08-4819-8383-1e7ccc2ffe66"}},{"type":"Feature","geometry":{"type":"Polygon","coordinates":[[[-94.30634,34.46559],[-94.30662,34.46475],[-94.30531,34.46326],[-94.30529,34.46291],[-94.30555,34.46267],[-94.3077,34.46274],[-94.30932,34.46308],[-94.31206,34.46316],[-94.31279,34.46335],[-94.31294,34.46402],[-94.31329,34.46447],[-94.31326,34.46483],[-94.31357,34.46493],[-94.31377,34.46535],[-94.3138,34.4658],[-94.31439,34.46675],[-94.31427,34.467],[-94.31395,34.46698],[-94.31388,34.46714],[-94.31325,34.46749],[-94.31158,34.46739],[-94.31116,34.46717],[-94.31027,34.46724],[-94.31017,34.46697],[-94.30989,34.46676],[-94.30841,34.46625],[-94.30686,34.46621],[-94.30647,34.46592],[-94.30634,34.46559]]]},"properties":{"fire_id":"ufid:2022-AROUF-001135","source_collection":"history-2022","source_objectid":6309,"incident_name":"6 Mile 6","mapped_acres":0.1,"mapped_acres_source":"poly_GISAcres","gis_acres":0.1,"auto_acres":71.63375262420084,"reported_acres":35.9,"percent_contained":null,"state":"AR","state_wfigs":"US-AR","county":"Polk","discovery_time_utc":"2022-04-10T11:56:00Z","perimeter_time_utc":"2022-08-05T20:43:57Z","perimeter_edit_time_utc":"2023-03-14T15:13:42Z","incident_modified_time_utc":"2022-04-18T22:51:29Z","containment_time_utc":"2022-04-11T00:00:00Z","control_time_utc":"2022-04-18T23:00:00Z","fire_out_time_utc":"2022-04-18T23:00:00Z","fire_cause":"Human","fire_cause_general":"Arson","map_method":"Auto-generated","source_dataset":"FFP","unique_fire_identifier":"2022-AROUF-001135","irwin_id":"{D6B8C781-B4F1-4AC3-A2E6-683A4EAD4C15}","global_id":"5c60b38b-6c7a-41d8-88c5-cc5e6c775625"}},{"type":"Feature","geometry":{"type":"Polygon","coordinates":[[[-93.47305,34.42372],[-93.47371,34.42421],[-93.47428,34.42416],[-93.47441,34.42431],[-93.47437,34.42462],[-93.4741,34.42484],[-93.47418,34.42517],[-93.47407,34.42531],[-93.47324,34.42566],[-93.47256,34.42576],[-93.47248,34.42537],[-93.47165,34.42518],[-93.47136,34.42541],[-93.47134,34.42576],[-93.47038,34.42586],[-93.47017,34.42611],[-93.4691,34.42617],[-93.46895,34.42636],[-93.46868,34.42624],[-93.46844,34.42589],[-93.468,34.42578],[-93.46772,34.42543],[-93.46785,34.42483],[-93.4682,34.42448],[-93.46824,34.42421],[-93.46848,34.42407],[-93.46869,34.42414],[-93.46947,34.42394],[-93.46994,34.42406],[-93.47001,34.42397],[-93.47065,34.42427],[-93.47243,34.42434],[-93.47283,34.42381],[-93.47305,34.42372]]]},"properties":{"fire_id":"ufid:2022-AROUF-000551","source_collection":"history-2022","source_objectid":6541,"incident_name":"Campbell Road","mapped_acres":26.056170231023582,"mapped_acres_source":"poly_Acres_AutoCalc_fallback","gis_acres":null,"auto_acres":26.056170231023582,"reported_acres":1.0,"percent_contained":null,"state":"AR","state_wfigs":"US-AR","county":"Montgomery","discovery_time_utc":"2022-03-01T01:11:00Z","perimeter_time_utc":"2022-08-05T21:12:42Z","perimeter_edit_time_utc":"2023-03-14T15:13:42Z","incident_modified_time_utc":"2022-03-27T15:22:43Z","containment_time_utc":"2022-03-01T02:30:00Z","control_time_utc":"2022-03-22T17:00:00Z","fire_out_time_utc":"2022-03-22T17:00:00Z","fire_cause":"Human","fire_cause_general":"Undetermined","map_method":"GPS-Walked","source_dataset":"FFP","unique_fire_identifier":"2022-AROUF-000551","irwin_id":"{65AAFE1B-D0BC-4559-9D36-B9F319B308E2}","global_id":"0755b19e-a9ed-428c-8a12-f6b69443e012"}},{"type":"Feature","geometry":{"type":"Polygon","coordinates":[[[-93.66576,34.52255],[-93.66517,34.52295],[-93.66495,34.52277],[-93.66496,34.52259],[-93.6656,34.52232],[-93.66576,34.52255]]]},"properties":{"fire_id":"ufid:2022-AROUF-002714","source_collection":"history-2022","source_objectid":6796,"incident_name":"W48","mapped_acres":0.7437482860436818,"mapped_acres_source":"poly_Acres_AutoCalc_fallback","gis_acres":null,"auto_acres":0.7437482860436818,"reported_acres":0.74,"percent_contained":null,"state":"AR","state_wfigs":"US-AR","county":"Montgomery","discovery_time_utc":"2022-10-04T13:39:00Z","perimeter_time_utc":"2023-01-10T19:05:35Z","perimeter_edit_time_utc":"2023-03-14T15:13:42Z","incident_modified_time_utc":"2023-01-10T18:58:59Z","containment_time_utc":"2022-10-04T14:36:00Z","control_time_utc":"2022-10-21T13:00:00Z","fire_out_time_utc":"2022-10-21T13:00:00Z","fire_cause":"Human","fire_cause_general":"Undetermined","map_method":"Mixed Methods","source_dataset":"FFP","unique_fire_identifier":"2022-AROUF-002714","irwin_id":"{544569B6-256B-458C-B3C1-58CA8795DCE8}","global_id":"238e46fe-3385-43c2-abbc-f047a1bcee80"}},{"type":"Feature","geometry":{"type":"Polygon","coordinates":[[[-94.04811,34.66582],[-94.04796,34.66614],[-94.04826,34.66697],[-94.04814,34.6681],[-94.04826,34.66823],[-94.04826,34.66865],[-94.04701,34.66869],[-94.04644,34.66883],[-94.04593,34.66915],[-94.04549,34.66905],[-94.04528,34.66858],[-94.0459,34.66795],[-94.04594,34.66777],[-94.04519,34.66653],[-94.0447,34.66652],[-94.04469,34.66643],[-94.04565,34.66606],[-94.04681,34.66598],[-94.04765,34.66544],[-94.04811,34.66582]]]},"properties":{"fire_id":"ufid:2022-AROUF-001186","source_collection":"history-2022","source_objectid":6816,"incident_name":"Baford","mapped_acres":0.1,"mapped_acres_source":"poly_GISAcres","gis_acres":0.1,"auto_acres":19.961529834196476,"reported_acres":19.8,"percent_contained":null,"state":"AR","state_wfigs":"US-AR","county":"Polk","discovery_time_utc":"2022-04-19T18:13:00Z","perimeter_time_utc":"2022-08-05T21:11:36Z","perimeter_edit_time_utc":"2023-03-14T15:13:42Z","incident_modified_time_utc":"2022-04-25T12:41:37Z","containment_time_utc":"2022-04-19T20:48:00Z","control_time_utc":"2022-04-25T12:30:00Z","fire_out_time_utc":"2022-04-25T12:30:00Z","fire_cause":"Human","fire_cause_general":"Debris and open burning","map_method":"GPS-Walked","source_dataset":"FFP","unique_fire_identifier":"2022-AROUF-001186","irwin_id":"{184F37F0-25D8-4C11-B50D-45FF27185F51}","global_id":"e1e11c97-9db6-441f-80a5-9f8e5f1e6785"}},{"type":"Feature","geometry":{"type":"Polygon","coordinates":[[[-94.27346,34.47832],[-94.27433,34.4789],[-94.27421,34.47925],[-94.27361,34.47956],[-94.27295,34.47938],[-94.27257,34.4785],[-94.27268,34.47837],[-94.27303,34.47844],[-94.27346,34.47832]]]},"properties":{"fire_id":"ufid:2022-AROUF-001130","source_collection":"history-2022","source_objectid":7190,"incident_name":"6 mile 1","mapped_acres":0.1,"mapped_acres_source":"poly_GISAcres","gis_acres":0.1,"auto_acres":3.5623829494400776,"reported_acres":3.8,"percent_contained":null,"state":"AR","state_wfigs":"US-AR","county":"Polk","discovery_time_utc":"2022-04-10T11:51:00Z","perimeter_time_utc":"2022-08-05T20:43:24Z","perimeter_edit_time_utc":"2023-03-14T15:13:42Z","incident_modified_time_utc":"2022-04-12T14:43:55Z","containment_time_utc":"2022-04-11T00:00:00Z","control_time_utc":null,"fire_out_time_utc":"2022-04-18T23:00:00Z","fire_cause":"Human","fire_cause_general":"Arson","map_method":"Auto-generated","source_dataset":"FFP","unique_fire_identifier":"2022-AROUF-001130","irwin_id":"{ABBABDFA-C9FF-4042-8218-26D9D6ED8636}","global_id":"2460eefb-5d4c-40e0-b98f-6f865f6ab32a"}},{"type":"Feature","geometry":{"type":"Polygon","coordinates":[[[-93.38427,34.7147],[-93.38404,34.71473],[-93.38401,34.71451],[-93.38425,34.71448],[-93.38427,34.7147]]]},"properties":{"fire_id":"ufid:2022-AROUF-000271","source_collection":"history-2022","source_objectid":7599,"incident_name":"Red Bank","mapped_acres":0.1749603162122485,"mapped_acres_source":"poly_Acres_AutoCalc_fallback","gis_acres":null,"auto_acres":0.1749603162122485,"reported_acres":0.25,"percent_contained":null,"state":"AR","state_wfigs":"US-AR","county":"Garland","discovery_time_utc":"2022-01-31T18:15:00Z","perimeter_time_utc":null,"perimeter_edit_time_utc":"2023-03-14T15:13:42Z","incident_modified_time_utc":"2022-02-07T16:02:37Z","containment_time_utc":"2022-01-31T20:20:00Z","control_time_utc":"2022-02-01T22:00:00Z","fire_out_time_utc":"2022-02-03T16:00:00Z","fire_cause":"Human","fire_cause_general":"Equipment and vehicle use","map_method":"Hand Sketch","source_dataset":"FFP","unique_fire_identifier":"2022-AROUF-000271","irwin_id":"{4D313196-B194-4467-80D0-9B6E21B67764}","global_id":"91bd2534-c5e2-4c73-9a3b-082c3e769456"}},{"type":"Feature","geometry":{"type":"Polygon","coordinates":[[[-92.79066,34.84424],[-92.79071,34.84431],[-92.79055,34.84448],[-92.79066,34.84424]]]},"properties":{"fire_id":"ufid:2022-AROUF-000044","source_collection":"history-2022","source_objectid":7634,"incident_name":"Wildcat","mapped_acres":0.021325890144502438,"mapped_acres_source":"poly_Acres_AutoCalc_fallback","gis_acres":null,"auto_acres":0.021325890144502438,"reported_acres":0.1,"percent_contained":null,"state":"AR","state_wfigs":"US-AR","county":"Perry","discovery_time_utc":"2022-01-07T18:49:00Z","perimeter_time_utc":"2022-06-10T15:26:11Z","perimeter_edit_time_utc":"2023-03-14T15:13:42Z","incident_modified_time_utc":"2022-02-25T15:20:37Z","containment_time_utc":"2022-01-07T20:45:00Z","control_time_utc":"2022-01-09T15:00:00Z","fire_out_time_utc":"2022-01-09T15:00:00Z","fire_cause":"Human","fire_cause_general":"Undetermined","map_method":"Mixed Methods","source_dataset":"FFP","unique_fire_identifier":"2022-AROUF-000044","irwin_id":"{FC0BDD85-3E41-45A9-8FFF-CB787D5DEA13}","global_id":"7f8d70af-2a00-4960-b586-880148aa51dd"}},{"type":"Feature","geometry":{"type":"Polygon","coordinates":[[[-93.52691,34.73258],[-93.52715,34.73262],[-93.5276,34.73303],[-93.52768,34.7334],[-93.52757,34.73354],[-93.5271,34.73363],[-93.52631,34.73321],[-93.52638,34.73282],[-93.52691,34.73258]]]},"properties":{"fire_id":"ufid:2022-AROUF-002101","source_collection":"history-2022","source_objectid":7764,"incident_name":"Mcgil Mtn","mapped_acres":2.0,"mapped_acres_source":"poly_GISAcres","gis_acres":2.0,"auto_acres":2.53817909950401,"reported_acres":2.5,"percent_contained":null,"state":"AR","state_wfigs":"US-AR","county":"Montgomery","discovery_time_utc":"2022-07-27T21:06:54Z","perimeter_time_utc":"2022-08-08T20:55:12Z","perimeter_edit_time_utc":"2023-03-14T15:13:42Z","incident_modified_time_utc":"2022-08-08T15:18:06Z","containment_time_utc":"2022-07-28T00:25:00Z","control_time_utc":"2022-08-01T20:00:00Z","fire_out_time_utc":"2022-08-08T15:15:00Z","fire_cause":"Natural","fire_cause_general":"Natural","map_method":"Auto-generated","source_dataset":"FFP","unique_fire_identifier":"2022-AROUF-002101","irwin_id":"{756C997E-34ED-4C63-BF4D-F12C0ED53B61}","global_id":"ef5bbf5b-32c1-416f-90a5-57a4b28f43d4"}},{"type":"Feature","geometry":{"type":"MultiPolygon","coordinates":[[[[-93.68847,34.55061],[-93.68842,34.55094],[-93.68825,34.55109],[-93.68773,34.55118],[-93.68746,34.55103],[-93.68742,34.5506],[-93.68779,34.55036],[-93.68773,34.55024],[-93.68788,34.5501],[-93.68821,34.55017],[-93.6882,34.55054],[-93.68847,34.55061]]],[[[-93.68849,34.55058],[-93.68851,34.55062],[-93.68845,34.5506],[-93.68849,34.55058]]]]},"properties":{"fire_id":"ufid:2022-AROUF-001188","source_collection":"history-2022","source_objectid":7781,"incident_name":"Southfork","mapped_acres":2.018,"mapped_acres_source":"poly_GISAcres","gis_acres":2.018,"auto_acres":2.018372819113243,"reported_acres":2.0,"percent_contained":null,"state":"AR","state_wfigs":"US-AR","county":"Montgomery","discovery_time_utc":"2022-04-19T23:02:00Z","perimeter_time_utc":"2022-08-05T20:45:36Z","perimeter_edit_time_utc":"2023-03-14T15:13:42Z","incident_modified_time_utc":"2022-04-20T13:18:14Z","containment_time_utc":"2022-04-20T00:22:00Z","control_time_utc":null,"fire_out_time_utc":"2022-05-17T12:58:00Z","fire_cause":"Undetermined","fire_cause_general":"Undetermined","map_method":"Mixed Methods","source_dataset":"FFP","unique_fire_identifier":"2022-AROUF-001188","irwin_id":"{101FC598-65AD-465F-84F0-88F2C012CB17}","global_id":"410eaffb-822f-406d-a141-dbd6bb049ebe"}},{"type":"Feature","geometry":{"type":"Polygon","coordinates":[[[-94.2894,34.4174],[-94.28787,34.41726],[-94.28774,34.41688],[-94.28797,34.41654],[-94.28832,34.41643],[-94.28849,34.41659],[-94.28902,34.41672],[-94.28942,34.4172],[-94.2894,34.4174]]]},"properties":{"fire_id":"ufid:2022-AROUF-001850","source_collection":"history-2022","source_objectid":7942,"incident_name":"Camp Cr","mapped_acres":2.0,"mapped_acres_source":"poly_GISAcres","gis_acres":2.0,"auto_acres":2.6277141397089805,"reported_acres":2.6,"percent_contained":null,"state":"AR","state_wfigs":"US-AR","county":"Polk","discovery_time_utc":"2022-07-13T00:10:00Z","perimeter_time_utc":"2022-08-01T11:57:32Z","perimeter_edit_time_utc":"2023-03-14T15:13:42Z","incident_modified_time_utc":"2022-07-27T14:02:13Z","containment_time_utc":"2022-07-13T02:43:00Z","control_time_utc":"2022-07-21T19:03:00Z","fire_out_time_utc":"2022-07-27T14:00:00Z","fire_cause":"Human","fire_cause_general":"Arson","map_method":"Auto-generated","source_dataset":"FFP","unique_fire_identifier":"2022-AROUF-001850","irwin_id":"{D89B0D6F-38A4-45A9-8EAD-10A220F05F85}","global_id":"ac534da9-49d5-46aa-97e6-446a1f6993c4"}},{"type":"Feature","geometry":{"type":"Polygon","coordinates":[[[-93.82971,34.40719],[-93.8301,34.40809],[-93.82938,34.40727],[-93.82856,34.40687],[-93.82776,34.4069],[-93.82725,34.40631],[-93.82633,34.40638],[-93.82598,34.40602],[-93.82504,34.40579],[-93.82421,34.40526],[-93.82331,34.40523],[-93.8229,34.40456],[-93.82291,34.40423],[-93.82343,34.4039],[-93.82427,34.40379],[-93.82536,34.40392],[-93.8265,34.40383],[-93.82699,34.40401],[-93.82824,34.40416],[-93.82876,34.40404],[-93.82956,34.40358],[-93.82998,34.40385],[-93.83035,34.40379],[-93.83034,34.40396],[-93.83001,34.40433],[-93.82987,34.40484],[-93.82865,34.40523],[-93.82833,34.40604],[-93.82839,34.4062],[-93.8288,34.40622],[-93.82907,34.40644],[-93.8292,34.40692],[-93.82971,34.40719]]]},"properties":{"fire_id":"ufid:2022-AROUF-000128","source_collection":"history-2022","source_objectid":8478,"incident_name":"Polk Creek Mountain","mapped_acres":34.89908,"mapped_acres_source":"poly_GISAcres","gis_acres":34.89908,"auto_acres":34.89895574982497,"reported_acres":35.0,"percent_contained":null,"state":"AR","state_wfigs":"US-AR","county":"Montgomery","discovery_time_utc":"2022-01-22T18:43:00Z","perimeter_time_utc":"2022-08-05T20:49:25Z","perimeter_edit_time_utc":"2023-03-14T15:13:42Z","incident_modified_time_utc":"2022-02-28T18:17:07Z","containment_time_utc":"2022-01-23T00:16:00Z","control_time_utc":"2022-02-25T18:00:00Z","fire_out_time_utc":"2022-02-25T18:00:00Z","fire_cause":"Undetermined","fire_cause_general":"Undetermined","map_method":"Hand Sketch","source_dataset":"FFP","unique_fire_identifier":"2022-AROUF-000128","irwin_id":"{45767266-9061-45FE-AE63-E037D7D84A4B}","global_id":"5d7b3630-1fd5-4bd2-8a8d-67aa1ff2b790"}},{"type":"Feature","geometry":{"type":"Polygon","coordinates":[[[-94.30218,34.46181],[-94.30203,34.46206],[-94.3021,34.46216],[-94.30186,34.46243],[-94.30167,34.46244],[-94.30076,34.46317],[-94.30007,34.46336],[-94.29872,34.46316],[-94.29794,34.46265],[-94.29726,34.46249],[-94.29662,34.463],[-94.29554,34.46312],[-94.29478,34.4627],[-94.29467,34.46249],[-94.29484,34.46234],[-94.29467,34.46202],[-94.29442,34.46198],[-94.2944,34.46182],[-94.29445,34.46165],[-94.2959,34.46143],[-94.29953,34.4618],[-94.30013,34.46167],[-94.30089,34.46125],[-94.30218,34.46181]]]},"properties":{"fire_id":"ufid:2022-AROUF-001134","source_collection":"history-2022","source_objectid":8532,"incident_name":"6 Mile 5","mapped_acres":0.1,"mapped_acres_source":"poly_GISAcres","gis_acres":0.1,"auto_acres":25.700122128532623,"reported_acres":20.2,"percent_contained":null,"state":"AR","state_wfigs":"US-AR","county":"Polk","discovery_time_utc":"2022-04-10T11:55:00Z","perimeter_time_utc":"2022-08-05T20:44:16Z","perimeter_edit_time_utc":"2023-03-14T15:13:42Z","incident_modified_time_utc":"2022-04-18T22:50:58Z","containment_time_utc":"2022-04-11T00:00:00Z","control_time_utc":"2022-04-18T23:00:00Z","fire_out_time_utc":"2022-04-18T23:00:00Z","fire_cause":"Human","fire_cause_general":"Arson","map_method":"Auto-generated","source_dataset":"FFP","unique_fire_identifier":"2022-AROUF-001134","irwin_id":"{1D36DD68-5C90-4DE7-BF7B-C4600558FC4D}","global_id":"d5dd9c65-53b1-4412-9f38-51cc341d2ca8"}},{"type":"Feature","geometry":{"type":"Polygon","coordinates":[[[-94.27123,34.50677],[-94.27166,34.50708],[-94.2715,34.5073],[-94.27122,34.50706],[-94.27123,34.50677]]]},"properties":{"fire_id":"ufid:2022-AROUF-001769","source_collection":"history-2022","source_objectid":9441,"incident_name":"Two Mile","mapped_acres":0.25,"mapped_acres_source":"poly_GISAcres","gis_acres":0.25,"auto_acres":0.26322460327642927,"reported_acres":0.25,"percent_contained":null,"state":"AR","state_wfigs":"US-AR","county":"Polk","discovery_time_utc":"2022-07-08T11:30:00Z","perimeter_time_utc":"2022-07-25T14:19:49Z","perimeter_edit_time_utc":"2023-03-14T15:13:42Z","incident_modified_time_utc":"2022-07-21T20:33:06Z","containment_time_utc":"2022-07-08T12:53:00Z","control_time_utc":"2022-07-15T16:05:00Z","fire_out_time_utc":"2022-07-21T20:30:00Z","fire_cause":"Human","fire_cause_general":"Arson","map_method":"Hand Sketch","source_dataset":"FFP","unique_fire_identifier":"2022-AROUF-001769","irwin_id":"{17CDA9F3-6D74-42DF-A479-FFFA2CAE03DB}","global_id":"6c1367db-5d14-488b-b595-d0860b3c8ebd"}},{"type":"Feature","geometry":{"type":"Polygon","coordinates":[[[-93.15634,34.67062],[-93.15573,34.67057],[-93.15569,34.67036],[-93.15533,34.6703],[-93.15484,34.66989],[-93.15468,34.66938],[-93.15504,34.66891],[-93.15598,34.6692],[-93.15631,34.66956],[-93.15641,34.66982],[-93.15634,34.67062]]]},"properties":{"fire_id":"ufid:2022-AROUF-001668","source_collection":"history-2022","source_objectid":10158,"incident_name":"Dry Branch","mapped_acres":4.0,"mapped_acres_source":"poly_GISAcres","gis_acres":4.0,"auto_acres":4.95098970077216,"reported_acres":4.17,"percent_contained":null,"state":"AR","state_wfigs":"US-AR","county":"Garland","discovery_time_utc":"2022-06-30T12:41:00Z","perimeter_time_utc":"2022-10-03T15:44:04Z","perimeter_edit_time_utc":"2023-03-14T15:13:42Z","incident_modified_time_utc":"2022-07-19T14:47:09Z","containment_time_utc":"2022-06-30T15:20:00Z","control_time_utc":"2022-07-13T19:00:00Z","fire_out_time_utc":"2022-07-19T14:45:00Z","fire_cause":"Human","fire_cause_general":null,"map_method":"Auto-generated","source_dataset":"Decertified","unique_fire_identifier":"2022-AROUF-001668","irwin_id":"{5CDB436D-3389-4A77-9176-1C3981D79EBB}","global_id":"48e93472-52b9-4d0f-a64a-27de1dca6c32"}},{"type":"Feature","geometry":{"type":"Polygon","coordinates":[[[-93.12443,34.90096],[-93.12391,34.90157],[-93.12314,34.90196],[-93.1231,34.90164],[-93.12363,34.90153],[-93.12391,34.90122],[-93.12443,34.90096]]]},"properties":{"fire_id":"ufid:2022-AROUF-001889","source_collection":"history-2022","source_objectid":10208,"incident_name":"Big Cove","mapped_acres":0.8,"mapped_acres_source":"poly_GISAcres","gis_acres":0.8,"auto_acres":0.802460372377959,"reported_acres":0.8,"percent_contained":null,"state":"AR","state_wfigs":"US-AR","county":"Perry","discovery_time_utc":"2022-07-16T00:00:00Z","perimeter_time_utc":"2022-10-11T19:55:04Z","perimeter_edit_time_utc":"2023-03-14T15:13:42Z","incident_modified_time_utc":"2022-08-15T18:44:20Z","containment_time_utc":"2022-07-16T16:37:00Z","control_time_utc":"2022-07-17T16:25:00Z","fire_out_time_utc":"2022-08-15T18:30:00Z","fire_cause":"Undetermined","fire_cause_general":"Undetermined","map_method":"Mixed Methods","source_dataset":"FFP","unique_fire_identifier":"2022-AROUF-001889","irwin_id":"{3A56A15F-B906-4175-971C-D944ED3416D8}","global_id":"2f8c1b37-fece-4cb9-bbf2-def036fc8c17"}},{"type":"Feature","geometry":{"type":"MultiPolygon","coordinates":[[[[-93.78741,34.75833],[-93.78731,34.75901],[-93.7879,34.75965],[-93.78783,34.76024],[-93.78815,34.76029],[-93.78913,34.76001],[-93.78969,34.76023],[-93.79047,34.7608],[-93.79069,34.76154],[-93.79151,34.76215],[-93.79093,34.76248],[-93.79043,34.76318],[-93.78966,34.76367],[-93.78953,34.76401],[-93.7895,34.76485],[-93.78962,34.76506],[-93.78945,34.76525],[-93.79014,34.76674],[-93.78999,34.76723],[-93.79023,34.7678],[-93.79013,34.76843],[-93.78992,34.76882],[-93.78832,34.76883],[-93.78778,34.76852],[-93.78782,34.76841],[-93.78799,34.76842],[-93.78798,34.7679],[-93.78771,34.76713],[-93.78703,34.76607],[-93.78712,34.76464],[-93.78696,34.76412],[-93.78645,34.76345],[-93.78541,34.76299],[-93.78514,34.76269],[-93.78527,34.7625],[-93.78486,34.76102],[-93.78531,34.76049],[-93.7855,34.75981],[-93.78509,34.75895],[-93.78741,34.75833]]],[[[-93.78513,34.75906],[-93.78508,34.75903],[-93.78512,34.75902],[-93.78513,34.75906]]]]},"properties":{"fire_id":"ufid:2022-AROUF-002027","source_collection":"history-2022","source_objectid":10305,"incident_name":"Sandbox","mapped_acres":0.1,"mapped_acres_source":"poly_GISAcres","gis_acres":0.1,"auto_acres":86.97837573655457,"reported_acres":87.0,"percent_contained":null,"state":"AR","state_wfigs":"US-AR","county":"Scott","discovery_time_utc":"2022-07-23T19:34:33Z","perimeter_time_utc":"2022-08-08T21:00:05Z","perimeter_edit_time_utc":"2023-03-14T15:13:42Z","incident_modified_time_utc":"2022-08-08T18:26:07Z","containment_time_utc":"2022-07-24T00:34:00Z","control_time_utc":"2022-08-08T17:00:00Z","fire_out_time_utc":"2022-08-08T18:30:00Z","fire_cause":"Natural","fire_cause_general":"Natural","map_method":"GPS-Walked","source_dataset":"FFP","unique_fire_identifier":"2022-AROUF-002027","irwin_id":"{E266020E-ADCF-4761-8552-F34689715A31}","global_id":"6f6ce65a-9df4-43df-9eb8-d4e315bd3145"}},{"type":"Feature","geometry":{"type":"MultiPolygon","coordinates":[[[[-93.59713,34.79865],[-93.59752,34.79801],[-93.59742,34.79772],[-93.59785,34.79747],[-93.59785,34.79708],[-93.59844,34.7965],[-93.59945,34.79644],[-93.59981,34.79618],[-93.60066,34.79614],[-93.60198,34.79658],[-93.60209,34.79683],[-93.60252,34.79704],[-93.60378,34.79707],[-93.6041,34.79748],[-93.60403,34.79788],[-93.60428,34.79845],[-93.60375,34.79903],[-93.60242,34.79978],[-93.60178,34.79979],[-93.60149,34.80008],[-93.60132,34.80049],[-93.60066,34.8009],[-93.60004,34.80073],[-93.59951,34.80114],[-93.59929,34.80115],[-93.59878,34.80102],[-93.59786,34.80034],[-93.59778,34.79991],[-93.5971,34.79898],[-93.59713,34.79865]]],[[[-93.59713,34.79865],[-93.5971,34.79866],[-93.59712,34.79863],[-93.59713,34.79865]]],[[[-93.5971,34.79866],[-93.59707,34.79872],[-93.59708,34.79867],[-93.5971,34.79866]]]]},"properties":{"fire_id":"ufid:2022-AROUF-001037","source_collection":"history-2022","source_objectid":10808,"incident_name":"Chula Mountain","mapped_acres":0.1,"mapped_acres_source":"poly_GISAcres","gis_acres":0.1,"auto_acres":59.41131112702441,"reported_acres":60.0,"percent_contained":null,"state":"AR","state_wfigs":"US-AR","county":"Yell","discovery_time_utc":"2022-04-03T16:50:50Z","perimeter_time_utc":"2022-08-05T20:42:06Z","perimeter_edit_time_utc":"2023-03-14T15:13:42Z","incident_modified_time_utc":"2022-04-18T22:46:02Z","containment_time_utc":"2022-04-04T00:30:00Z","control_time_utc":"2022-04-18T19:00:00Z","fire_out_time_utc":"2022-04-18T19:00:00Z","fire_cause":"Natural","fire_cause_general":"Natural","map_method":"Auto-generated","source_dataset":"FFP","unique_fire_identifier":"2022-AROUF-001037","irwin_id":"{081987DA-D79A-4794-B19F-73AFDDA34AA3}","global_id":"62fde39c-bc49-4f35-b1d9-64f02bdf3a0d"}},{"type":"Feature","geometry":{"type":"MultiPolygon","coordinates":[[[[-93.53437,34.39136],[-93.53438,34.39138],[-93.53437,34.39137],[-93.53437,34.39136]]],[[[-93.53437,34.39138],[-93.53436,34.39136],[-93.53437,34.39137],[-93.53437,34.39138]]],[[[-93.53435,34.39137],[-93.53436,34.39137],[-93.53436,34.39138],[-93.53435,34.39137]]],[[[-93.53435,34.39137],[-93.53435,34.39138],[-93.53434,34.39137],[-93.53435,34.39137]]],[[[-93.53436,34.39139],[-93.53436,34.39138],[-93.53437,34.39138],[-93.53436,34.39139]]],[[[-93.53434,34.39139],[-93.53435,34.39138],[-93.53436,34.39139],[-93.53434,34.39139]]],[[[-93.53426,34.39132],[-93.53428,34.39134],[-93.53433,34.39137],[-93.534303,34.391375],[-93.53433,34.39141],[-93.53424,34.39155],[-93.53361,34.39127],[-93.53351,34.39084],[-93.53339,34.39078],[-93.5335,34.39052],[-93.53385,34.3905],[-93.53417,34.39073],[-93.53437,34.39136],[-93.53426,34.39132]]],[[[-93.53434,34.39137],[-93.53433,34.39137],[-93.53434,34.39136],[-93.53434,34.39137]]],[[[-93.53434,34.39139],[-93.53432,34.39139],[-93.53434,34.39137],[-93.53434,34.39139]]]]},"properties":{"fire_id":"ufid:2022-AROUF-002024","source_collection":"history-2022","source_objectid":10924,"incident_name":"Nelson Mountain","mapped_acres":1.72,"mapped_acres_source":"poly_GISAcres","gis_acres":1.72,"auto_acres":1.719203494401558,"reported_acres":1.73,"percent_contained":null,"state":"AR","state_wfigs":"US-AR","county":"Montgomery","discovery_time_utc":"2022-07-23T18:15:29Z","perimeter_time_utc":"2023-01-10T19:03:20Z","perimeter_edit_time_utc":"2023-03-14T15:13:42Z","incident_modified_time_utc":"2023-01-10T18:56:10Z","containment_time_utc":"2022-07-23T21:32:00Z","control_time_utc":"2022-08-04T18:06:00Z","fire_out_time_utc":"2022-08-04T18:07:00Z","fire_cause":"Natural","fire_cause_general":"Natural","map_method":"Mixed Methods","source_dataset":"FFP","unique_fire_identifier":"2022-AROUF-002024","irwin_id":"{950D55AE-41DC-4498-A64C-5EA7851B1CF5}","global_id":"0895faea-7c06-4fb3-a0b0-2bf3b2496a32"}},{"type":"Feature","geometry":{"type":"Polygon","coordinates":[[[-93.11044,34.92348],[-93.11011,34.92391],[-93.11033,34.92413],[-93.11032,34.92445],[-93.11,34.92457],[-93.1096,34.92442],[-93.10964,34.92462],[-93.10935,34.92509],[-93.10883,34.92522],[-93.10853,34.92547],[-93.1081,34.92544],[-93.10809,34.92581],[-93.10793,34.92598],[-93.10756,34.92607],[-93.10646,34.92614],[-93.106,34.92593],[-93.10575,34.92569],[-93.10577,34.92555],[-93.10545,34.92544],[-93.10545,34.92503],[-93.10488,34.92459],[-93.10432,34.92457],[-93.10423,34.92442],[-93.10427,34.92375],[-93.10459,34.92348],[-93.10504,34.9234],[-93.10573,34.92361],[-93.10671,34.92355],[-93.10761,34.92365],[-93.1081,34.92324],[-93.10828,34.92287],[-93.10866,34.92293],[-93.10941,34.92261],[-93.10971,34.92259],[-93.11,34.92282],[-93.10989,34.92321],[-93.10944,34.92357],[-93.11044,34.92348]]]},"properties":{"fire_id":"ufid:2022-AROUF-002108","source_collection":"history-2022","source_objectid":11448,"incident_name":"Caney Creek","mapped_acres":30.82,"mapped_acres_source":"poly_GISAcres","gis_acres":30.82,"auto_acres":30.818636375574528,"reported_acres":30.8,"percent_contained":null,"state":"AR","state_wfigs":"US-AR","county":"Perry","discovery_time_utc":"2022-07-28T14:00:00Z","perimeter_time_utc":"2022-10-11T18:24:19Z","perimeter_edit_time_utc":"2023-03-14T15:13:42Z","incident_modified_time_utc":"2022-09-06T14:06:44Z","containment_time_utc":"2022-07-28T18:00:00Z","control_time_utc":"2022-08-08T19:45:00Z","fire_out_time_utc":"2022-09-06T14:00:00Z","fire_cause":"Natural","fire_cause_general":"Natural","map_method":"Mixed Methods","source_dataset":"FFP","unique_fire_identifier":"2022-AROUF-002108","irwin_id":"{96D9E2B5-EB62-4F1E-B35D-6F100F941D2D}","global_id":"0a7adbba-94dc-4ea1-9f35-8bb70fa017dd"}},{"type":"Feature","geometry":{"type":"Polygon","coordinates":[[[-94.28316,34.48037],[-94.28971,34.4814],[-94.28983,34.48149],[-94.2896,34.4817],[-94.28901,34.48281],[-94.28933,34.48315],[-94.28956,34.48378],[-94.29101,34.48457],[-94.29102,34.48501],[-94.29079,34.48557],[-94.28984,34.48607],[-94.28952,34.48603],[-94.28894,34.48588],[-94.2882,34.48546],[-94.28758,34.48548],[-94.28662,34.48512],[-94.28606,34.48511],[-94.28568,34.4849],[-94.28526,34.48445],[-94.28487,34.48432],[-94.2848,34.48381],[-94.28456,34.48335],[-94.28429,34.48303],[-94.28383,34.48279],[-94.2836,34.48245],[-94.28355,34.48181],[-94.28373,34.48147],[-94.28316,34.48037]]]},"properties":{"fire_id":"ufid:2022-AROUF-001106","source_collection":"history-2022","source_objectid":12298,"incident_name":"6 Mile","mapped_acres":0.1,"mapped_acres_source":"poly_GISAcres","gis_acres":0.1,"auto_acres":63.7799904247053,"reported_acres":64.0,"percent_contained":null,"state":"AR","state_wfigs":"US-AR","county":"Polk","discovery_time_utc":"2022-04-10T11:50:00Z","perimeter_time_utc":"2022-08-05T20:44:44Z","perimeter_edit_time_utc":"2023-03-14T15:13:42Z","incident_modified_time_utc":"2022-04-11T21:33:24Z","containment_time_utc":"2022-04-11T00:00:00Z","control_time_utc":null,"fire_out_time_utc":"2022-04-18T23:00:00Z","fire_cause":"Human","fire_cause_general":"Arson","map_method":"Auto-generated","source_dataset":"FFP","unique_fire_identifier":"2022-AROUF-001106","irwin_id":"{87B80F80-7D3D-489D-896B-68CAC548580D}","global_id":"c46684c1-0a66-47d0-8ed4-7ec185c2b546"}},{"type":"Feature","geometry":{"type":"Polygon","coordinates":[[[-93.89261,34.59641],[-93.89317,34.59568],[-93.89367,34.59536],[-93.89402,34.59547],[-93.89415,34.5956],[-93.89422,34.59609],[-93.89451,34.59615],[-93.89478,34.5964],[-93.89469,34.59686],[-93.89487,34.597],[-93.89485,34.59717],[-93.89386,34.59755],[-93.89375,34.59688],[-93.89261,34.59671],[-93.89261,34.59641]]]},"properties":{"fire_id":"ufid:2022-AROUF-002016","source_collection":"history-2022","source_objectid":12531,"incident_name":"Honey Bear","mapped_acres":7.2,"mapped_acres_source":"poly_GISAcres","gis_acres":7.2,"auto_acres":6.7903763973567735,"reported_acres":7.2,"percent_contained":null,"state":"AR","state_wfigs":"US-AR","county":"Montgomery","discovery_time_utc":"2022-07-23T02:31:57Z","perimeter_time_utc":"2022-08-02T12:58:18Z","perimeter_edit_time_utc":"2023-03-14T15:13:42Z","incident_modified_time_utc":"2022-08-02T12:39:24Z","containment_time_utc":"2022-07-23T17:37:00Z","control_time_utc":"2022-08-01T17:16:00Z","fire_out_time_utc":"2022-08-01T17:16:00Z","fire_cause":"Natural","fire_cause_general":"Natural","map_method":"GPS-Walked","source_dataset":"FFP","unique_fire_identifier":"2022-AROUF-002016","irwin_id":"{3C6B6ECF-A1F5-46CD-A77E-58D6356B477B}","global_id":"748c913e-33ca-4e91-b719-d0b75b0a9747"}},{"type":"Feature","geometry":{"type":"Polygon","coordinates":[[[-94.18405,34.65814],[-94.18438,34.65725],[-94.18498,34.65722],[-94.18508,34.65711],[-94.18631,34.65797],[-94.18587,34.6585],[-94.18479,34.65934],[-94.18451,34.659],[-94.18423,34.65892],[-94.1844,34.65864],[-94.18418,34.65856],[-94.18405,34.65814]]]},"properties":{"fire_id":"ufid:2022-AROUF-001072","source_collection":"history-2022","source_objectid":12539,"incident_name":"Acorn Area","mapped_acres":1.0,"mapped_acres_source":"poly_GISAcres","gis_acres":1.0,"auto_acres":7.504528360421287,"reported_acres":6.0,"percent_contained":null,"state":"AR","state_wfigs":"US-AR","county":"Polk","discovery_time_utc":"2022-04-06T20:47:32Z","perimeter_time_utc":"2022-08-05T20:45:46Z","perimeter_edit_time_utc":"2023-03-14T15:13:42Z","incident_modified_time_utc":"2022-04-11T13:50:43Z","containment_time_utc":"2022-04-06T22:00:00Z","control_time_utc":"2022-04-11T13:45:00Z","fire_out_time_utc":"2022-04-11T13:50:00Z","fire_cause":"Human","fire_cause_general":"Undetermined","map_method":"Mixed Methods","source_dataset":"FFP","unique_fire_identifier":"2022-AROUF-001072","irwin_id":"{1B201BA0-915B-4670-8725-E14E7E16C72F}","global_id":"1421c272-f8e0-44f0-bf11-eaf4aa5d6f9a"}},{"type":"Feature","geometry":{"type":"Polygon","coordinates":[[[-94.27368,34.46774],[-94.27343,34.46797],[-94.27251,34.46793],[-94.27145,34.46715],[-94.27172,34.46679],[-94.27157,34.46662],[-94.27203,34.46663],[-94.27199,34.46621],[-94.2726,34.46605],[-94.27347,34.46642],[-94.274,34.4669],[-94.2744,34.46701],[-94.27466,34.46751],[-94.27458,34.46801],[-94.27439,34.46809],[-94.27368,34.46774]]]},"properties":{"fire_id":"ufid:2022-AROUF-001132","source_collection":"history-2022","source_objectid":12640,"incident_name":"6 Mile 3","mapped_acres":0.1,"mapped_acres_source":"poly_GISAcres","gis_acres":0.1,"auto_acres":10.449407218180495,"reported_acres":10.4,"percent_contained":null,"state":"AR","state_wfigs":"US-AR","county":"Polk","discovery_time_utc":"2022-04-10T11:53:00Z","perimeter_time_utc":"2022-08-05T20:42:57Z","perimeter_edit_time_utc":"2023-03-14T15:13:42Z","incident_modified_time_utc":"2022-04-18T22:50:10Z","containment_time_utc":"2022-04-11T00:00:00Z","control_time_utc":"2022-04-18T23:00:00Z","fire_out_time_utc":"2022-04-18T23:00:00Z","fire_cause":"Human","fire_cause_general":"Arson","map_method":"Auto-generated","source_dataset":"FFP","unique_fire_identifier":"2022-AROUF-001132","irwin_id":"{485BCF9D-6E3C-485A-9E44-3BC873C07325}","global_id":"f1a1053b-4400-4707-a379-3d3d5c5a4a93"}},{"type":"Feature","geometry":{"type":"Polygon","coordinates":[[[-93.23462,34.67119],[-93.23438,34.6717],[-93.23454,34.67178],[-93.23461,34.67201],[-93.23456,34.67266],[-93.23395,34.67384],[-93.23319,34.67386],[-93.23258,34.67354],[-93.23236,34.67276],[-93.23261,34.67221],[-93.23261,34.67178],[-93.23217,34.67101],[-93.23238,34.6708],[-93.23265,34.67011],[-93.233,34.66999],[-93.23405,34.67026],[-93.23462,34.67119]]]},"properties":{"fire_id":"ufid:2022-AROUF-000671","source_collection":"history-2022","source_objectid":12853,"incident_name":"North Shores Wildfire","mapped_acres":17.934444205021684,"mapped_acres_source":"poly_Acres_AutoCalc_fallback","gis_acres":null,"auto_acres":17.934444205021684,"reported_acres":18.0,"percent_contained":null,"state":"AR","state_wfigs":"US-AR","county":"Garland","discovery_time_utc":"2022-03-04T20:58:00Z","perimeter_time_utc":null,"perimeter_edit_time_utc":"2023-03-14T15:13:42Z","incident_modified_time_utc":"2022-03-15T16:13:10Z","containment_time_utc":"2022-03-05T01:00:00Z","control_time_utc":"2022-03-07T22:35:00Z","fire_out_time_utc":"2022-03-15T15:45:00Z","fire_cause":"Undetermined","fire_cause_general":"Undetermined","map_method":"Mixed Methods","source_dataset":"FFP","unique_fire_identifier":"2022-AROUF-000671","irwin_id":"{376A2375-5377-40FB-9788-C68D0FA5578B}","global_id":"956c0022-8c0b-4313-85f3-cda2d71392c4"}},{"type":"Feature","geometry":{"type":"Polygon","coordinates":[[[-94.23137,34.52567],[-94.23139,34.52463],[-94.23195,34.52383],[-94.23405,34.52424],[-94.23439,34.52458],[-94.23419,34.52515],[-94.23282,34.52537],[-94.23204,34.52525],[-94.23137,34.52567]]]},"properties":{"fire_id":"ufid:2022-AROUF-000377","source_collection":"history-2022","source_objectid":12948,"incident_name":"Dallas 6","mapped_acres":8.915568754357526,"mapped_acres_source":"poly_Acres_AutoCalc_fallback","gis_acres":null,"auto_acres":8.915568754357526,"reported_acres":8.9,"percent_contained":null,"state":"AR","state_wfigs":"US-AR","county":"Polk","discovery_time_utc":"2022-02-13T09:15:00Z","perimeter_time_utc":null,"perimeter_edit_time_utc":"2023-03-14T15:13:42Z","incident_modified_time_utc":"2022-02-28T13:59:25Z","containment_time_utc":"2022-02-13T19:00:00Z","control_time_utc":"2022-02-24T15:00:00Z","fire_out_time_utc":"2022-02-24T15:00:00Z","fire_cause":"Human","fire_cause_general":"Other causes","map_method":"Hand Sketch","source_dataset":"FFP","unique_fire_identifier":"2022-AROUF-000377","irwin_id":"{5D64BAE1-7DC4-49C1-B10F-E8234F328843}","global_id":"2117af3f-031c-4a1f-b3d0-43373cdd7afe"}},{"type":"Feature","geometry":{"type":"Polygon","coordinates":[[[-94.28476,34.46083],[-94.28556,34.45951],[-94.28577,34.45952],[-94.28679,34.46017],[-94.28942,34.46117],[-94.29005,34.4617],[-94.29023,34.46213],[-94.29119,34.46185],[-94.29171,34.46248],[-94.29239,34.4625],[-94.29276,34.46275],[-94.29297,34.46336],[-94.29328,34.46341],[-94.29359,34.46371],[-94.29348,34.46417],[-94.29365,34.4646],[-94.29317,34.46545],[-94.29356,34.46595],[-94.29325,34.46684],[-94.29267,34.46705],[-94.29106,34.46698],[-94.29057,34.46711],[-94.2904,34.46736],[-94.28956,34.4677],[-94.28846,34.46901],[-94.28784,34.47039],[-94.28742,34.47045],[-94.28661,34.47021],[-94.28626,34.47023],[-94.28593,34.4697],[-94.28559,34.46973],[-94.28467,34.46915],[-94.28448,34.46922],[-94.28336,34.46891],[-94.28296,34.46902],[-94.28189,34.46885],[-94.28143,34.46844],[-94.28081,34.46823],[-94.28146,34.46785],[-94.28252,34.46636],[-94.28369,34.46545],[-94.28468,34.46509],[-94.2872,34.46487],[-94.28717,34.46436],[-94.28644,34.46315],[-94.28533,34.46265],[-94.28496,34.46233],[-94.28493,34.46199],[-94.28527,34.46156],[-94.2848,34.46107],[-94.28476,34.46083]]]},"properties":{"fire_id":"ufid:2022-AROUF-001133","source_collection":"history-2022","source_objectid":13000,"incident_name":"6 Mile 4","mapped_acres":0.1,"mapped_acres_source":"poly_GISAcres","gis_acres":0.1,"auto_acres":170.4633844800178,"reported_acres":14.2,"percent_contained":null,"state":"AR","state_wfigs":"US-AR","county":"Polk","discovery_time_utc":"2022-04-10T11:54:00Z","perimeter_time_utc":"2022-08-05T20:46:43Z","perimeter_edit_time_utc":"2023-03-14T15:13:42Z","incident_modified_time_utc":"2022-04-18T22:50:33Z","containment_time_utc":"2022-04-11T00:00:00Z","control_time_utc":"2022-04-18T23:00:00Z","fire_out_time_utc":"2022-04-18T23:00:00Z","fire_cause":"Human","fire_cause_general":"Arson","map_method":"Auto-generated","source_dataset":"FFP","unique_fire_identifier":"2022-AROUF-001133","irwin_id":"{B596E052-EB1C-436D-A27E-6AA0AC49D87B}","global_id":"70220656-a987-4b40-832c-ae73dece3daf"}},{"type":"Feature","geometry":{"type":"Polygon","coordinates":[[[-94.18107,34.71078],[-94.17887,34.71069],[-94.17846,34.71044],[-94.18018,34.70969],[-94.18079,34.70976],[-94.18109,34.71014],[-94.18093,34.7104],[-94.18107,34.71078]]]},"properties":{"fire_id":"ufid:2022-AROUF-002568","source_collection":"history-2022","source_objectid":13143,"incident_name":"Johnson Creek 2","mapped_acres":0.1,"mapped_acres_source":"poly_GISAcres","gis_acres":0.1,"auto_acres":4.843319841970877,"reported_acres":4.8,"percent_contained":null,"state":"AR","state_wfigs":"US-AR","county":"Scott","discovery_time_utc":"2022-09-23T02:44:00Z","perimeter_time_utc":"2022-10-18T13:38:34Z","perimeter_edit_time_utc":"2023-03-14T15:13:42Z","incident_modified_time_utc":"2022-10-18T13:33:32Z","containment_time_utc":"2022-09-23T04:45:00Z","control_time_utc":"2022-10-18T13:30:00Z","fire_out_time_utc":"2022-10-18T13:30:00Z","fire_cause":"Human","fire_cause_general":"Undetermined","map_method":"Auto-generated","source_dataset":"FFP","unique_fire_identifier":"2022-AROUF-002568","irwin_id":"{130D2C4E-F1C4-41F9-A4AD-1DDFE9CAB92F}","global_id":"6ac3b949-985e-4998-9054-8b898a3bafe9"}},{"type":"Feature","geometry":{"type":"Polygon","coordinates":[[[-93.54393,34.68757],[-93.54419,34.68717],[-93.54455,34.68715],[-93.54486,34.68783],[-93.54467,34.68824],[-93.54422,34.68821],[-93.54393,34.68757]]]},"properties":{"fire_id":"ufid:2022-AROUF-002305","source_collection":"history-2022","source_objectid":13203,"incident_name":"Story Creek","mapped_acres":0.1,"mapped_acres_source":"poly_GISAcres","gis_acres":0.1,"auto_acres":1.8861910864253773,"reported_acres":1.9,"percent_contained":null,"state":"AR","state_wfigs":"US-AR","county":"Montgomery","discovery_time_utc":"2022-08-16T21:30:22Z","perimeter_time_utc":"2022-08-23T18:37:52Z","perimeter_edit_time_utc":"2023-03-14T15:13:42Z","incident_modified_time_utc":"2022-08-22T21:27:21Z","containment_time_utc":"2022-08-16T23:55:00Z","control_time_utc":"2022-08-18T19:00:00Z","fire_out_time_utc":"2022-08-22T21:00:00Z","fire_cause":"Natural","fire_cause_general":"Natural","map_method":"Hand Sketch","source_dataset":"FFP","unique_fire_identifier":"2022-AROUF-002305","irwin_id":"{C448F82F-D6CC-4994-8928-D87D330146BC}","global_id":"b7152cd8-4f2c-43e1-bc43-fc39f092ad5d"}},{"type":"Feature","geometry":{"type":"Polygon","coordinates":[[[-94.44134,34.91214],[-94.44128,34.9121],[-94.44133,34.91193],[-94.44134,34.91214]]]},"properties":{"fire_id":"ufid:2022-AROUF-000362","source_collection":"history-2022","source_objectid":14982,"incident_name":"Strip Pit 1","mapped_acres":0.02,"mapped_acres_source":"poly_GISAcres","gis_acres":0.02,"auto_acres":null,"reported_acres":1.0,"percent_contained":null,"state":"AR","state_wfigs":"US-AR","county":"Scott","discovery_time_utc":"2022-02-12T14:58:00Z","perimeter_time_utc":null,"perimeter_edit_time_utc":null,"incident_modified_time_utc":"2022-02-24T14:27:24Z","containment_time_utc":"2022-02-12T17:00:00Z","control_time_utc":"2022-02-18T21:30:00Z","fire_out_time_utc":"2022-02-24T14:00:00Z","fire_cause":"Human","fire_cause_general":null,"map_method":"Hand Sketch","source_dataset":"Inspector","unique_fire_identifier":"2022-AROUF-000362","irwin_id":"{957CC731-C02A-48FD-AC50-69C4D5942609}","global_id":"bb612963-48c4-4351-8bba-a0d104212a90"}},{"type":"Feature","geometry":{"type":"Polygon","coordinates":[[[-94.42961,34.9311],[-94.4254,34.93417],[-94.4251,34.93454],[-94.42438,34.93475],[-94.42232,34.93593],[-94.41965,34.93854],[-94.41887,34.93872],[-94.4185,34.93862],[-94.41737,34.9379],[-94.41595,34.9368],[-94.41497,34.93512],[-94.41403,34.93443],[-94.41365,34.93399],[-94.41322,34.9331],[-94.4132,34.93269],[-94.41338,34.93255],[-94.41371,34.93257],[-94.41495,34.93307],[-94.41614,34.93324],[-94.41719,34.93369],[-94.41772,34.93369],[-94.42015,34.93126],[-94.42126,34.93067],[-94.42247,34.92981],[-94.42505,34.92869],[-94.42668,34.92744],[-94.4275,34.927],[-94.42901,34.92578],[-94.43187,34.92485],[-94.43244,34.92485],[-94.43472,34.92621],[-94.43724,34.92602],[-94.43897,34.92644],[-94.43933,34.92673],[-94.43952,34.92721],[-94.44017,34.92756],[-94.44068,34.92716],[-94.44092,34.92631],[-94.44119,34.92591],[-94.44163,34.92579],[-94.44254,34.92583],[-94.44348,34.92546],[-94.44381,34.92476],[-94.44445,34.92407],[-94.44517,34.92294],[-94.4455,34.92359],[-94.44627,34.92458],[-94.44679,34.92493],[-94.44843,34.92555],[-94.44922,34.92569],[-94.44914,34.92584],[-94.44814,34.92592],[-94.44769,34.92624],[-94.44688,34.92863],[-94.44647,34.92907],[-94.44649,34.92927],[-94.44506,34.93078],[-94.44452,34.93105],[-94.44368,34.93115],[-94.44243,34.93161],[-94.44251,34.93175],[-94.44372,34.93171],[-94.44303,34.93265],[-94.44265,34.93276],[-94.44155,34.93248],[-94.43943,34.93242],[-94.43177,34.93075],[-94.43077,34.93073],[-94.43016,34.93084],[-94.42961,34.9311]]]},"properties":{"fire_id":"ufid:2022-AROUF-000368","source_collection":"history-2022","source_objectid":15278,"incident_name":"Shadley 1","mapped_acres":468.3198970400215,"mapped_acres_source":"poly_Acres_AutoCalc_fallback","gis_acres":null,"auto_acres":468.3198970400215,"reported_acres":466.0,"percent_contained":null,"state":"AR","state_wfigs":"US-AR","county":"Scott","discovery_time_utc":"2022-02-12T16:29:00Z","perimeter_time_utc":"2023-01-23T17:57:47Z","perimeter_edit_time_utc":"2023-03-14T15:13:42Z","incident_modified_time_utc":"2022-02-24T14:27:04Z","containment_time_utc":"2022-02-13T02:58:00Z","control_time_utc":"2022-02-18T21:30:00Z","fire_out_time_utc":"2022-02-24T14:00:00Z","fire_cause":"Human","fire_cause_general":"Arson","map_method":"Image Interpretation","source_dataset":"FFP","unique_fire_identifier":"2022-AROUF-000368","irwin_id":"{BA64D078-D871-41D7-BDAD-CC5F8B5D22F7}","global_id":"8e6b25fa-a31a-4a54-b636-e684ed8e105b"}},{"type":"Feature","geometry":{"type":"Polygon","coordinates":[[[-93.65213,34.51988],[-93.65235,34.51977],[-93.65231,34.52003],[-93.65186,34.52008],[-93.65157,34.51976],[-93.65232,34.51968],[-93.65213,34.51988]]]},"properties":{"fire_id":"ufid:2022-AROUF-001851","source_collection":"history-2022","source_objectid":15457,"incident_name":"Mine Fire","mapped_acres":0.6,"mapped_acres_source":"poly_GISAcres","gis_acres":0.6,"auto_acres":0.565269516374905,"reported_acres":0.5,"percent_contained":null,"state":"AR","state_wfigs":"US-AR","county":"Montgomery","discovery_time_utc":"2022-07-13T01:59:07Z","perimeter_time_utc":"2023-03-21T15:42:53Z","perimeter_edit_time_utc":"2023-03-21T15:42:54Z","incident_modified_time_utc":"2022-07-18T20:43:04Z","containment_time_utc":"2022-07-13T14:10:00Z","control_time_utc":"2022-07-18T20:42:00Z","fire_out_time_utc":"2022-07-18T20:42:00Z","fire_cause":"Undetermined","fire_cause_general":"Undetermined","map_method":"Mixed Methods","source_dataset":"FFP","unique_fire_identifier":"2022-AROUF-001851","irwin_id":"{B762FF14-D576-4CAE-8F94-E5167A49327F}","global_id":"36284188-b45f-478d-992f-68834f2bffe1"}},{"type":"Feature","geometry":{"type":"Polygon","coordinates":[[[-93.75991,34.3266],[-93.75956,34.32658],[-93.75947,34.32643],[-93.75989,34.32641],[-93.75991,34.3266]]]},"properties":{"fire_id":"ufid:2022-AROUF-002203","source_collection":"history-2022","source_objectid":15459,"incident_name":"Redland Mountain","mapped_acres":0.19219601724325142,"mapped_acres_source":"poly_Acres_AutoCalc_fallback","gis_acres":null,"auto_acres":0.19219601724325142,"reported_acres":0.2,"percent_contained":null,"state":"AR","state_wfigs":"US-AR","county":"Pike","discovery_time_utc":"2022-08-08T20:56:58Z","perimeter_time_utc":"2023-03-21T15:27:35Z","perimeter_edit_time_utc":"2023-03-21T15:27:36Z","incident_modified_time_utc":"2022-08-12T14:37:41Z","containment_time_utc":"2022-08-09T01:41:00Z","control_time_utc":"2022-08-09T14:37:00Z","fire_out_time_utc":"2022-08-09T14:37:00Z","fire_cause":"Natural","fire_cause_general":"Natural","map_method":"Mixed Methods","source_dataset":"FFP","unique_fire_identifier":"2022-AROUF-002203","irwin_id":"{D0D61A81-22E0-4A0C-AD3F-A452C47D930A}","global_id":"9adb439b-c3fc-4f62-9b8e-e2b15a67e0d8"}},{"type":"Feature","geometry":{"type":"MultiPolygon","coordinates":[[[[-93.33821,34.51363],[-93.33829,34.51378],[-93.33795,34.514],[-93.33766,34.51397],[-93.33734,34.51373],[-93.33737,34.51372],[-93.33746,34.51364],[-93.33734,34.51366],[-93.33744,34.51338],[-93.3379,34.51343],[-93.3383,34.51329],[-93.33837,34.51344],[-93.33821,34.51363]]],[[[-93.33736,34.51371],[-93.33738,34.5137],[-93.33737,34.51372],[-93.33736,34.51371]]]]},"properties":{"fire_id":"ufid:2022-AROUF-001908","source_collection":"history-2022","source_objectid":15460,"incident_name":"W10 Wildfire","mapped_acres":1.15,"mapped_acres_source":"poly_GISAcres","gis_acres":1.15,"auto_acres":1.151859915677138,"reported_acres":1.1,"percent_contained":null,"state":"AR","state_wfigs":"US-AR","county":"Garland","discovery_time_utc":"2022-07-17T09:00:00Z","perimeter_time_utc":"2023-03-21T15:45:07Z","perimeter_edit_time_utc":"2023-03-21T15:45:08Z","incident_modified_time_utc":"2022-08-09T14:51:56Z","containment_time_utc":"2022-08-09T14:00:00Z","control_time_utc":"2022-08-09T14:00:00Z","fire_out_time_utc":"2022-08-09T14:00:00Z","fire_cause":"Undetermined","fire_cause_general":"Undetermined","map_method":"Mixed Methods","source_dataset":"FFP","unique_fire_identifier":"2022-AROUF-001908","irwin_id":"{134F54AF-2E19-457E-A318-81EA4ADB6E46}","global_id":"c432a157-d7ef-46ff-9392-a9021b031beb"}},{"type":"Feature","geometry":{"type":"Polygon","coordinates":[[[-93.68205,34.48789],[-93.68235,34.48776],[-93.68263,34.48845],[-93.68318,34.49034],[-93.68302,34.49048],[-93.68292,34.49033],[-93.68272,34.49035],[-93.68233,34.48989],[-93.68197,34.48989],[-93.68185,34.4891],[-93.68157,34.48899],[-93.68149,34.48876],[-93.6818,34.48843],[-93.68203,34.48771],[-93.68221,34.48774],[-93.68205,34.48789]],[[-93.68303,34.49008],[-93.68304,34.49011],[-93.68307,34.49011],[-93.68303,34.49008]]]},"properties":{"fire_id":"ufid:2022-AROUF-001644","source_collection":"history-2022","source_objectid":15462,"incident_name":"Atlantis Wildfire","mapped_acres":5.459515693932267,"mapped_acres_source":"poly_Acres_AutoCalc_fallback","gis_acres":null,"auto_acres":5.459515693932267,"reported_acres":4.3,"percent_contained":null,"state":"AR","state_wfigs":"US-AR","county":"Montgomery","discovery_time_utc":"2022-06-29T12:11:00Z","perimeter_time_utc":"2023-03-21T15:42:22Z","perimeter_edit_time_utc":"2023-03-21T15:42:23Z","incident_modified_time_utc":"2022-08-09T14:50:58Z","containment_time_utc":"2022-06-29T15:10:00Z","control_time_utc":"2022-08-09T14:00:00Z","fire_out_time_utc":"2022-08-09T14:00:00Z","fire_cause":"Undetermined","fire_cause_general":"Undetermined","map_method":"Mixed Methods","source_dataset":"FFP","unique_fire_identifier":"2022-AROUF-001644","irwin_id":"{825AE556-D27E-427E-BB45-CEB67A719B31}","global_id":"4719f5f4-7390-4c41-ab87-b07000a38f8b"}},{"type":"Feature","geometry":{"type":"Polygon","coordinates":[[[-93.18468,34.63209],[-93.1837,34.63236],[-93.1834,34.63215],[-93.18245,34.6322],[-93.18175,34.63199],[-93.18187,34.63179],[-93.1817,34.63161],[-93.18205,34.63147],[-93.18194,34.63121],[-93.18211,34.63083],[-93.18211,34.63037],[-93.18293,34.62929],[-93.18306,34.62873],[-93.18333,34.62861],[-93.18367,34.6286],[-93.18398,34.62893],[-93.18469,34.63033],[-93.18511,34.63073],[-93.18463,34.6313],[-93.18483,34.63175],[-93.18468,34.63209]]]},"properties":{"fire_id":"ufid:2022-AROUF-000845","source_collection":"history-2022","source_objectid":15478,"incident_name":"Little Blakely Trailhead","mapped_acres":12.51,"mapped_acres_source":"poly_GISAcres","gis_acres":12.51,"auto_acres":20.013740230455696,"reported_acres":20.0,"percent_contained":null,"state":"AR","state_wfigs":"US-AR","county":"Garland","discovery_time_utc":"2022-03-20T19:22:00Z","perimeter_time_utc":"2023-03-21T19:50:46Z","perimeter_edit_time_utc":"2023-03-21T19:50:47Z","incident_modified_time_utc":"2022-03-28T20:03:05Z","containment_time_utc":"2022-03-20T23:00:00Z","control_time_utc":"2022-03-23T17:00:00Z","fire_out_time_utc":"2022-03-28T20:00:00Z","fire_cause":"Undetermined","fire_cause_general":null,"map_method":"Hand Sketch","source_dataset":"FFP","unique_fire_identifier":"2022-AROUF-000845","irwin_id":"{E44736E6-DC39-4894-8877-0B2E5FC91F80}","global_id":"1aad462f-2dac-461a-acc4-72f48c89204d"}},{"type":"Feature","geometry":{"type":"Polygon","coordinates":[[[-92.98006,34.86668],[-92.98097,34.86597],[-92.9827,34.86617],[-92.98288,34.86636],[-92.98285,34.86692],[-92.98253,34.86729],[-92.98277,34.8674],[-92.98339,34.86715],[-92.98431,34.86803],[-92.9844,34.86932],[-92.98481,34.86939],[-92.98431,34.86965],[-92.98436,34.86985],[-92.98491,34.86951],[-92.98517,34.8696],[-92.98624,34.8703],[-92.9862,34.8706],[-92.98642,34.87064],[-92.9865,34.87043],[-92.98667,34.87048],[-92.98719,34.87096],[-92.98755,34.87055],[-92.98966,34.87057],[-92.99006,34.87071],[-92.99024,34.87101],[-92.98976,34.87182],[-92.98972,34.87221],[-92.98871,34.87238],[-92.98882,34.87263],[-92.9894,34.87277],[-92.98942,34.87309],[-92.98912,34.87314],[-92.98931,34.87328],[-92.98931,34.87347],[-92.9888,34.87375],[-92.9877,34.87349],[-92.98582,34.87391],[-92.98556,34.87419],[-92.98472,34.87419],[-92.98451,34.87405],[-92.98498,34.8734],[-92.98491,34.87289],[-92.98376,34.87203],[-92.98367,34.87162],[-92.98219,34.87115],[-92.98163,34.87074],[-92.98137,34.87018],[-92.98137,34.86955],[-92.98097,34.8693],[-92.98079,34.869],[-92.98006,34.86668]]]},"properties":{"fire_id":"ufid:2022-AROUF-002167","source_collection":"history-2022","source_objectid":15486,"incident_name":"Cedar Creek","mapped_acres":85.8,"mapped_acres_source":"poly_GISAcres","gis_acres":85.8,"auto_acres":85.79568821786934,"reported_acres":83.0,"percent_contained":null,"state":"AR","state_wfigs":"US-AR","county":"Perry","discovery_time_utc":"2022-08-04T13:06:00Z","perimeter_time_utc":"2023-03-21T21:24:58Z","perimeter_edit_time_utc":"2023-03-21T21:24:59Z","incident_modified_time_utc":"2022-09-06T14:08:11Z","containment_time_utc":"2022-08-04T19:26:00Z","control_time_utc":"2022-08-15T17:30:00Z","fire_out_time_utc":"2022-09-06T14:00:00Z","fire_cause":"Human","fire_cause_general":null,"map_method":"Hand Sketch","source_dataset":"Decertified","unique_fire_identifier":"2022-AROUF-002167","irwin_id":"{1102EA22-BB10-4A22-A881-7CD8DC36C8DD}","global_id":"598d450c-fc9b-4ec6-9b62-686dbccd0c8b"}},{"type":"Feature","geometry":{"type":"Polygon","coordinates":[[[-93.19236,34.7468],[-93.19258,34.74658],[-93.19331,34.74649],[-93.19429,34.74659],[-93.19505,34.74684],[-93.1952,34.74709],[-93.19516,34.74803],[-93.19569,34.74958],[-93.19534,34.75028],[-93.1944,34.75071],[-93.19371,34.75069],[-93.19317,34.75032],[-93.19311,34.7498],[-93.19328,34.74849],[-93.19234,34.74758],[-93.19222,34.74726],[-93.19236,34.7468]]]},"properties":{"fire_id":"ufid:2022-AROUF-002259","source_collection":"history-2022","source_objectid":15487,"incident_name":"Moccasin Creek","mapped_acres":21.86,"mapped_acres_source":"poly_GISAcres","gis_acres":21.86,"auto_acres":24.63370918171023,"reported_acres":27.2,"percent_contained":null,"state":"AR","state_wfigs":"US-AR","county":"Garland","discovery_time_utc":"2022-08-13T18:37:54Z","perimeter_time_utc":"2023-03-21T21:24:00Z","perimeter_edit_time_utc":"2023-03-21T21:24:00Z","incident_modified_time_utc":"2022-09-06T14:08:57Z","containment_time_utc":"2022-08-14T00:07:00Z","control_time_utc":"2022-08-19T16:35:00Z","fire_out_time_utc":"2022-09-06T14:00:00Z","fire_cause":"Natural","fire_cause_general":null,"map_method":"Hand Sketch","source_dataset":"Decertified","unique_fire_identifier":"2022-AROUF-002259","irwin_id":"{2178C999-4F26-4A31-94B9-41DA61C816D3}","global_id":"20f3332d-1282-4f3c-89d0-c14f206ecde1"}},{"type":"Feature","geometry":{"type":"Polygon","coordinates":[[[-93.89658,34.80266],[-93.89675,34.80477],[-93.89979,34.80484],[-93.89885,34.81256],[-93.89889,34.81425],[-93.89761,34.8139],[-93.89537,34.8127],[-93.89349,34.81302],[-93.89186,34.81594],[-93.88992,34.81362],[-93.88958,34.80981],[-93.88932,34.80403],[-93.88932,34.80128],[-93.88971,34.80231],[-93.8901,34.80269],[-93.89658,34.80266]]]},"properties":{"fire_id":"ufid:2022-AROUF-000668","source_collection":"history-2022","source_objectid":15564,"incident_name":"Cutoff","mapped_acres":259.58,"mapped_acres_source":"poly_GISAcres","gis_acres":259.58,"auto_acres":null,"reported_acres":291.0,"percent_contained":100.0,"state":"AR","state_wfigs":"US-AR","county":"Scott","discovery_time_utc":"2022-03-04T19:59:00Z","perimeter_time_utc":null,"perimeter_edit_time_utc":null,"incident_modified_time_utc":"2022-06-08T15:27:46Z","containment_time_utc":"2022-03-05T04:00:00Z","control_time_utc":"2022-03-11T15:00:00Z","fire_out_time_utc":"2022-03-21T15:00:00Z","fire_cause":"Undetermined","fire_cause_general":null,"map_method":"Hand Sketch","source_dataset":"Inspector","unique_fire_identifier":"2022-AROUF-000668","irwin_id":"{F9F562BB-D82B-40EC-8DB4-63AF037CC631}","global_id":"f0564829-f22d-478c-9e5a-a68d6b10c7eb"}},{"type":"Feature","geometry":{"type":"Polygon","coordinates":[[[-93.91999,34.80425],[-93.91999,34.80629],[-93.919,34.81274],[-93.9175,34.81531],[-93.91595,34.8152],[-93.91347,34.8145],[-93.91231,34.81397],[-93.91205,34.81147],[-93.91093,34.81083],[-93.90857,34.81002],[-93.90844,34.80812],[-93.90754,34.80728],[-93.9057,34.80654],[-93.90488,34.80414],[-93.90836,34.80417],[-93.91291,34.80308],[-93.91364,34.80386],[-93.91415,34.80301],[-93.91892,34.8034],[-93.91999,34.80425]]]},"properties":{"fire_id":"ufid:2022-AROUF-000579","source_collection":"history-2022","source_objectid":15565,"incident_name":"River Road","mapped_acres":297.03,"mapped_acres_source":"poly_GISAcres","gis_acres":297.03,"auto_acres":297.03126767916393,"reported_acres":289.0,"percent_contained":null,"state":"AR","state_wfigs":"US-AR","county":"Scott","discovery_time_utc":"2022-03-02T19:14:00Z","perimeter_time_utc":"2023-03-23T19:41:46Z","perimeter_edit_time_utc":"2023-03-23T19:41:47Z","incident_modified_time_utc":"2022-03-21T16:12:25Z","containment_time_utc":"2022-03-03T03:00:00Z","control_time_utc":null,"fire_out_time_utc":"2022-03-21T17:00:00Z","fire_cause":"Undetermined","fire_cause_general":"Undetermined","map_method":"Hand Sketch","source_dataset":"FFP","unique_fire_identifier":"2022-AROUF-000579","irwin_id":"{29E16586-AE43-4B64-8BE9-BDD9B0618B59}","global_id":"d79ab440-47f3-4351-81b6-4afbec8ab7f1"}}]}
