{"type":"FeatureCollection","features":[{"type":"Feature","geometry":{"type":"MultiPolygon","coordinates":[[[[-105.32582,40.03997],[-105.32538,40.03969],[-105.32504,40.03979],[-105.32495,40.03915],[-105.32449,40.03897],[-105.32401,40.03802],[-105.32528,40.03846],[-105.32564,40.03793],[-105.32652,40.03775],[-105.32903,40.03772],[-105.32917,40.03814],[-105.32876,40.03814],[-105.32863,40.03873],[-105.32789,40.03891],[-105.32773,40.03935],[-105.32722,40.03971],[-105.32582,40.03997]]],[[[-105.32197,40.03842],[-105.32211,40.03796],[-105.32289,40.03821],[-105.32349,40.03873],[-105.32333,40.03903],[-105.32293,40.03905],[-105.32197,40.03842]]]]},"properties":{"fire_id":"ufid:2022-COBLX-000855","source_collection":"history-2022","source_objectid":45,"incident_name":"Sanitas","mapped_acres":18.1191413026913,"mapped_acres_source":"poly_GISAcres","gis_acres":18.1191413026913,"auto_acres":18.1191431214388,"reported_acres":19.0,"percent_contained":null,"state":"CO","state_wfigs":"US-CO","county":"Boulder","discovery_time_utc":"2022-12-19T21:39:00Z","perimeter_time_utc":"2022-12-19T15:50:00Z","perimeter_edit_time_utc":"2022-12-20T01:26:11Z","incident_modified_time_utc":"2024-04-25T20:39:32Z","containment_time_utc":"2022-12-21T23:45:00Z","control_time_utc":"2022-12-27T18:29:00Z","fire_out_time_utc":"2022-12-27T18:29:00Z","fire_cause":"Undetermined","fire_cause_general":null,"map_method":"Mixed Methods","source_dataset":"2022 NIFS","unique_fire_identifier":"2022-COBLX-000855","irwin_id":"{6F87A236-A994-47C4-8B63-C1E9754CC63C}","global_id":"a5993d9c-9f61-42fd-833e-d70562d61c11"}},{"type":"Feature","geometry":{"type":"MultiPolygon","coordinates":[[[[-106.51349,40.47771],[-106.51354,40.47769],[-106.51355,40.47769],[-106.51349,40.47771]]],[[[-106.51356,40.47765],[-106.51354,40.47769],[-106.51348,40.47767],[-106.51356,40.47765]]]]},"properties":{"fire_id":"ufid:2022-COJCX-000149","source_collection":"history-2022","source_objectid":249,"incident_name":"SPICER 2","mapped_acres":0.00931809818920373,"mapped_acres_source":"poly_Acres_AutoCalc_fallback","gis_acres":null,"auto_acres":0.00931809818920373,"reported_acres":0.1,"percent_contained":null,"state":"CO","state_wfigs":"US-CO","county":"Jackson","discovery_time_utc":"2022-08-03T16:29:00Z","perimeter_time_utc":null,"perimeter_edit_time_utc":"2022-08-09T17:57:29Z","incident_modified_time_utc":"2022-08-17T17:37:48Z","containment_time_utc":"2022-08-03T20:15:00Z","control_time_utc":"2022-08-03T21:00:00Z","fire_out_time_utc":"2022-08-09T15:00:00Z","fire_cause":"Natural","fire_cause_general":null,"map_method":"Mixed Methods","source_dataset":"2022 NIFS","unique_fire_identifier":"2022-COJCX-000149","irwin_id":"{CEA31F64-0081-42DC-B2CD-461FB3D2DF8A}","global_id":"7fe6e1c8-2daa-41b9-99ab-8e7ba632a054"}},{"type":"Feature","geometry":{"type":"Polygon","coordinates":[[[-105.26467,40.27978],[-105.26456,40.28009],[-105.26488,40.28009],[-105.26509,40.28054],[-105.26507,40.28121],[-105.26479,40.28131],[-105.2648,40.28145],[-105.26538,40.28175],[-105.26522,40.28205],[-105.26478,40.28211],[-105.26467,40.28226],[-105.26492,40.28275],[-105.26513,40.28281],[-105.26406,40.28288],[-105.26377,40.28314],[-105.26384,40.28331],[-105.26401,40.28342],[-105.26446,40.28327],[-105.26489,40.28417],[-105.26515,40.28435],[-105.26605,40.28393],[-105.26638,40.28361],[-105.26667,40.28293],[-105.26691,40.28285],[-105.26721,40.28426],[-105.26746,40.2846],[-105.26735,40.285],[-105.26646,40.28547],[-105.26682,40.28559],[-105.26692,40.28578],[-105.26681,40.2864],[-105.26644,40.28677],[-105.26643,40.28703],[-105.26604,40.28751],[-105.26546,40.28768],[-105.26466,40.28725],[-105.26234,40.28675],[-105.26244,40.28615],[-105.26202,40.28568],[-105.26158,40.2854],[-105.26103,40.28535],[-105.25989,40.28492],[-105.25994,40.28456],[-105.25983,40.28428],[-105.25904,40.28404],[-105.25778,40.2833],[-105.25779,40.28302],[-105.25846,40.28187],[-105.25854,40.28145],[-105.25956,40.28099],[-105.25971,40.28068],[-105.25997,40.28075],[-105.2594,40.28024],[-105.25942,40.27964],[-105.2588,40.27965],[-105.25837,40.27943],[-105.25835,40.27916],[-105.25857,40.27887],[-105.25967,40.27836],[-105.26101,40.27835],[-105.26142,40.27854],[-105.26139,40.27883],[-105.26154,40.2791],[-105.26211,40.27889],[-105.26341,40.27885],[-105.26335,40.27937],[-105.26387,40.27928],[-105.26467,40.27978]]]},"properties":{"fire_id":"ufid:2022-COLRX-000122","source_collection":"history-2022","source_objectid":1075,"incident_name":"37E","mapped_acres":116.7,"mapped_acres_source":"poly_GISAcres","gis_acres":116.7,"auto_acres":116.789478997066,"reported_acres":117.0,"percent_contained":100.0,"state":"CO","state_wfigs":"US-CO","county":"Larimer","discovery_time_utc":"2022-04-15T21:38:00Z","perimeter_time_utc":"2022-04-16T18:27:00Z","perimeter_edit_time_utc":"2022-04-26T18:53:59Z","incident_modified_time_utc":"2022-12-01T19:03:34Z","containment_time_utc":"2022-04-19T00:00:00Z","control_time_utc":"2022-04-27T14:00:00Z","fire_out_time_utc":"2022-05-04T23:00:00Z","fire_cause":"Human","fire_cause_general":null,"map_method":"Image Interpretation","source_dataset":"2022 NIFS","unique_fire_identifier":"2022-COLRX-000122","irwin_id":"{F115EC05-024A-4814-B0C4-03F3AA5036A9}","global_id":"a80e9beb-b28d-4c58-a042-e831e1b4102e"}},{"type":"Feature","geometry":{"type":"Polygon","coordinates":[[[-105.45027,40.37321],[-105.44997,40.37322],[-105.45016,40.37315],[-105.45027,40.37321]]]},"properties":{"fire_id":"ufid:2022-COARF-000318","source_collection":"history-2022","source_objectid":2122,"incident_name":"Noels","mapped_acres":0.052,"mapped_acres_source":"poly_GISAcres","gis_acres":0.052,"auto_acres":0.0521616691883507,"reported_acres":0.1,"percent_contained":null,"state":"CO","state_wfigs":"US-CO","county":"Larimer","discovery_time_utc":"2022-06-20T17:26:40Z","perimeter_time_utc":null,"perimeter_edit_time_utc":"2022-08-05T21:46:03Z","incident_modified_time_utc":"2022-07-18T23:15:32Z","containment_time_utc":"2022-06-20T21:56:00Z","control_time_utc":"2022-06-20T23:00:00Z","fire_out_time_utc":"2022-06-21T19:35:00Z","fire_cause":"Natural","fire_cause_general":null,"map_method":"Mixed Methods","source_dataset":"2022 NIFS","unique_fire_identifier":"2022-COARF-000318","irwin_id":"{57A09432-4A70-4C04-B64A-F61B207F04D0}","global_id":"63e7bc02-b9ca-4852-9f77-661656ac19bb"}},{"type":"Feature","geometry":{"type":"Polygon","coordinates":[[[-108.54096,40.42752],[-108.54074,40.4274],[-108.54103,40.4274],[-108.54096,40.42752]]]},"properties":{"fire_id":"ufid:2022-COLSD-000102","source_collection":"history-2022","source_objectid":2858,"incident_name":"DISAPPOINTMENT","mapped_acres":0.08,"mapped_acres_source":"poly_GISAcres","gis_acres":0.08,"auto_acres":0.0827204674349709,"reported_acres":0.1,"percent_contained":null,"state":"CO","state_wfigs":"US-CO","county":"Moffat","discovery_time_utc":"2022-07-06T22:35:00Z","perimeter_time_utc":null,"perimeter_edit_time_utc":"2022-12-05T21:30:45Z","incident_modified_time_utc":"2023-01-03T17:29:16Z","containment_time_utc":"2022-07-07T21:25:00Z","control_time_utc":"2022-07-07T21:42:00Z","fire_out_time_utc":"2022-08-07T21:00:00Z","fire_cause":"Natural","fire_cause_general":null,"map_method":"Hand Sketch","source_dataset":"2022 NIFS","unique_fire_identifier":"2022-COLSD-000102","irwin_id":"{FFEE3F01-B4BA-465A-A970-FF1151C0C20C}","global_id":"a53905dd-d316-48a3-882e-13c78c5a3802"}},{"type":"Feature","geometry":{"type":"Polygon","coordinates":[[[-108.896109,40.241151],[-108.89618,40.24186],[-108.89576,40.24175],[-108.89568,40.24162],[-108.8959,40.2414],[-108.89554,40.2416],[-108.89554,40.24142],[-108.89523,40.24144],[-108.89515,40.24155],[-108.89536,40.24164],[-108.89533,40.24175],[-108.89483,40.24154],[-108.8947,40.24167],[-108.89492,40.24175],[-108.89482,40.24182],[-108.89405,40.24173],[-108.89457,40.24141],[-108.89375,40.24166],[-108.89593,40.2407],[-108.896109,40.241151]]]},"properties":{"fire_id":"ufid:2022-COMFX-000216","source_collection":"history-2022","source_objectid":3129,"incident_name":"POPS PLACE","mapped_acres":3.00230216528667,"mapped_acres_source":"poly_Acres_AutoCalc_fallback","gis_acres":null,"auto_acres":3.00230216528667,"reported_acres":3.0,"percent_contained":null,"state":"CO","state_wfigs":"US-CO","county":"Moffat","discovery_time_utc":"2022-09-06T21:45:00Z","perimeter_time_utc":"2022-09-07T02:00:00Z","perimeter_edit_time_utc":"2022-12-06T20:02:54Z","incident_modified_time_utc":"2023-07-05T18:38:23Z","containment_time_utc":"2022-09-07T02:31:00Z","control_time_utc":"2022-09-10T22:23:00Z","fire_out_time_utc":"2022-10-24T17:00:00Z","fire_cause":"Undetermined","fire_cause_general":null,"map_method":"Mixed Methods","source_dataset":"2022 NIFS","unique_fire_identifier":"2022-COMFX-000216","irwin_id":"{C03AE17E-0BE1-4255-8189-7740452A82E8}","global_id":"6ba87e8a-0853-4485-99f0-314171585af2"}},{"type":"Feature","geometry":{"type":"Polygon","coordinates":[[[-106.51324,40.47757],[-106.51346,40.47758],[-106.51349,40.47775],[-106.51316,40.47771],[-106.51324,40.47757]]]},"properties":{"fire_id":"ufid:2022-COJCX-000120","source_collection":"history-2022","source_objectid":3226,"incident_name":"Spicer","mapped_acres":0.122657506105392,"mapped_acres_source":"poly_Acres_AutoCalc_fallback","gis_acres":null,"auto_acres":0.122657506105392,"reported_acres":0.2,"percent_contained":null,"state":"CO","state_wfigs":"US-CO","county":"Jackson","discovery_time_utc":"2022-07-18T19:45:00Z","perimeter_time_utc":null,"perimeter_edit_time_utc":"2022-07-22T22:38:22Z","incident_modified_time_utc":"2022-07-20T19:57:41Z","containment_time_utc":"2022-07-19T19:55:00Z","control_time_utc":"2022-07-19T19:55:00Z","fire_out_time_utc":"2022-07-20T19:55:00Z","fire_cause":"Natural","fire_cause_general":null,"map_method":"Mixed Methods","source_dataset":"2022 NIFS","unique_fire_identifier":"2022-COJCX-000120","irwin_id":"{8F51F156-98E6-4D67-ACE5-0DE6599367D9}","global_id":"5bd766cd-07a0-4352-9bfe-04ebc7d4f2cb"}},{"type":"Feature","geometry":{"type":"Polygon","coordinates":[[[-106.37316,40.67756],[-106.37325,40.67759],[-106.3732,40.67763],[-106.37316,40.67756]]]},"properties":{"fire_id":"ufid:2022-COKRD-000225","source_collection":"history-2022","source_objectid":3440,"incident_name":"MM 28","mapped_acres":0.0065924162774325,"mapped_acres_source":"poly_Acres_AutoCalc_fallback","gis_acres":null,"auto_acres":0.0065924162774325,"reported_acres":0.1,"percent_contained":null,"state":"CO","state_wfigs":"US-CO","county":"Jackson","discovery_time_utc":"2022-09-11T18:41:00Z","perimeter_time_utc":null,"perimeter_edit_time_utc":"2022-09-19T20:50:57Z","incident_modified_time_utc":"2022-09-14T22:23:05Z","containment_time_utc":"2022-09-11T19:05:00Z","control_time_utc":"2022-09-11T19:05:00Z","fire_out_time_utc":"2022-09-11T19:19:00Z","fire_cause":"Human","fire_cause_general":null,"map_method":"Mixed Methods","source_dataset":"2022 NIFS","unique_fire_identifier":"2022-COKRD-000225","irwin_id":"{20B500E3-0472-4D4A-8D83-57D85D507CA4}","global_id":"fda842c3-3b2f-4c13-80cd-089be42253db"}},{"type":"Feature","geometry":{"type":"Polygon","coordinates":[[[-105.7465,40.90955],[-105.74571,40.90903],[-105.74634,40.90898],[-105.74637,40.90924],[-105.74655,40.90934],[-105.74686,40.90922],[-105.74694,40.90944],[-105.7465,40.90955]]]},"properties":{"fire_id":"ufid:2022-COARF-000492","source_collection":"history-2022","source_objectid":5029,"incident_name":"Sheep Creek","mapped_acres":0.74,"mapped_acres_source":"poly_GISAcres","gis_acres":0.74,"auto_acres":0.7449317075091375,"reported_acres":0.7,"percent_contained":null,"state":"CO","state_wfigs":"US-CO","county":"Larimer","discovery_time_utc":"2022-07-21T21:27:28Z","perimeter_time_utc":"2022-09-10T17:10:30Z","perimeter_edit_time_utc":"2023-03-14T15:13:42Z","incident_modified_time_utc":"2022-08-03T18:48:31Z","containment_time_utc":"2022-07-23T17:45:00Z","control_time_utc":"2022-07-23T17:50:00Z","fire_out_time_utc":"2022-08-03T18:47:00Z","fire_cause":"Natural","fire_cause_general":"Natural","map_method":"Auto-generated","source_dataset":"FFP","unique_fire_identifier":"2022-COARF-000492","irwin_id":"{C7135A30-D2C9-4549-92FA-BF1B480A4E70}","global_id":"26823858-023f-4914-87d8-5dbd9a4d7bbe"}},{"type":"Feature","geometry":{"type":"Polygon","coordinates":[[[-105.40836,40.40007],[-105.4094,40.40023],[-105.40898,40.40087],[-105.40868,40.40081],[-105.40812,40.40116],[-105.40812,40.4013],[-105.40784,40.40132],[-105.4079,40.40173],[-105.40742,40.40238],[-105.40717,40.40228],[-105.40656,40.40261],[-105.4065,40.40251],[-105.40663,40.40238],[-105.4065,40.40215],[-105.40662,40.40185],[-105.40645,40.40151],[-105.40665,40.4015],[-105.40672,40.40133],[-105.40639,40.40115],[-105.40629,40.40059],[-105.40561,40.40043],[-105.40569,40.39986],[-105.40615,40.39963],[-105.40709,40.3999],[-105.40718,40.39973],[-105.40754,40.39977],[-105.40805,40.39954],[-105.40828,40.39962],[-105.40843,40.39986],[-105.40836,40.40007]]]},"properties":{"fire_id":"ufid:2022-COARF-000079","source_collection":"history-2022","source_objectid":6233,"incident_name":"Soul Shine","mapped_acres":12.9354169460902,"mapped_acres_source":"poly_Acres_AutoCalc_fallback","gis_acres":null,"auto_acres":12.9354169460902,"reported_acres":13.0,"percent_contained":null,"state":"CO","state_wfigs":"US-CO","county":"Larimer","discovery_time_utc":"2022-03-28T21:21:00Z","perimeter_time_utc":"2022-08-05T21:11:08Z","perimeter_edit_time_utc":"2023-03-03T16:25:47Z","incident_modified_time_utc":"2023-03-06T22:18:54Z","containment_time_utc":"2022-03-31T00:57:00Z","control_time_utc":"2022-04-01T20:30:00Z","fire_out_time_utc":"2022-04-06T18:17:00Z","fire_cause":"Undetermined","fire_cause_general":null,"map_method":"Mixed Methods","source_dataset":"Decertified","unique_fire_identifier":"2022-COARF-000079","irwin_id":"{0E350F23-610C-4B47-93CA-200B5767D86E}","global_id":"3dc2b6bc-6872-47c0-8db9-17450779a85e"}},{"type":"Feature","geometry":{"type":"MultiPolygon","coordinates":[[[[-105.3222,40.31271],[-105.32144,40.31296],[-105.32146,40.31334],[-105.32107,40.31319],[-105.32101,40.31309],[-105.32117,40.31305],[-105.32096,40.31307],[-105.32122,40.31279],[-105.32198,40.31264],[-105.3222,40.31271]]],[[[-105.32099,40.31309],[-105.32097,40.31308],[-105.32101,40.31309],[-105.32099,40.31309]]]]},"properties":{"fire_id":"ufid:2022-COARF-000367","source_collection":"history-2022","source_objectid":8172,"incident_name":"Pinwheel","mapped_acres":0.9,"mapped_acres_source":"poly_GISAcres","gis_acres":0.9,"auto_acres":0.7347678790345026,"reported_acres":1.0,"percent_contained":null,"state":"CO","state_wfigs":"US-CO","county":"Larimer","discovery_time_utc":"2022-06-30T15:04:20Z","perimeter_time_utc":"2022-07-14T16:36:40Z","perimeter_edit_time_utc":"2023-03-14T15:13:42Z","incident_modified_time_utc":"2022-07-02T00:12:48Z","containment_time_utc":"2022-06-30T22:30:00Z","control_time_utc":"2022-07-01T19:32:00Z","fire_out_time_utc":"2022-07-02T00:00:00Z","fire_cause":"Natural","fire_cause_general":"Natural","map_method":"Mixed Methods","source_dataset":"FFP","unique_fire_identifier":"2022-COARF-000367","irwin_id":"{01EA6F0D-ADF1-410C-8387-83BB8AE30F53}","global_id":"017e9d82-fab2-4d2f-b307-41454f8a1f21"}},{"type":"Feature","geometry":{"type":"Polygon","coordinates":[[[-105.58158,40.95187],[-105.58168,40.95196],[-105.58149,40.95206],[-105.58142,40.95228],[-105.58099,40.95214],[-105.58122,40.95193],[-105.58158,40.95187]]]},"properties":{"fire_id":"ufid:2022-COARF-000469","source_collection":"history-2022","source_objectid":9671,"incident_name":"Cherokee Park","mapped_acres":0.3904820675688924,"mapped_acres_source":"poly_Acres_AutoCalc_fallback","gis_acres":null,"auto_acres":0.3904820675688924,"reported_acres":0.36,"percent_contained":null,"state":"CO","state_wfigs":"US-CO","county":"Larimer","discovery_time_utc":"2022-07-18T15:20:00Z","perimeter_time_utc":"2022-07-29T21:08:26Z","perimeter_edit_time_utc":"2023-03-14T15:13:42Z","incident_modified_time_utc":"2022-07-21T18:53:36Z","containment_time_utc":"2022-07-18T20:00:00Z","control_time_utc":"2022-07-20T19:24:00Z","fire_out_time_utc":"2022-07-20T18:48:00Z","fire_cause":"Human","fire_cause_general":"Undetermined","map_method":"Mixed Methods","source_dataset":"FFP","unique_fire_identifier":"2022-COARF-000469","irwin_id":"{EFFF5F66-13C6-477D-A68A-C891C632027A}","global_id":"dc09bcf9-5b46-4bc8-8a0e-8c7c50cc3516"}},{"type":"Feature","geometry":{"type":"Polygon","coordinates":[[[-105.52727,40.70862],[-105.5278,40.70867],[-105.52753,40.70894],[-105.52779,40.70896],[-105.52779,40.70907],[-105.527,40.70919],[-105.52727,40.70862]]]},"properties":{"fire_id":"ufid:2022-COARF-000371","source_collection":"history-2022","source_objectid":10714,"incident_name":"North Rim","mapped_acres":0.7062971640089535,"mapped_acres_source":"poly_Acres_AutoCalc_fallback","gis_acres":null,"auto_acres":0.7062971640089535,"reported_acres":0.6,"percent_contained":null,"state":"CO","state_wfigs":"US-CO","county":"Larimer","discovery_time_utc":"2022-06-30T21:58:00Z","perimeter_time_utc":"2022-07-09T20:35:11Z","perimeter_edit_time_utc":"2023-03-14T15:13:42Z","incident_modified_time_utc":"2022-07-07T19:31:06Z","containment_time_utc":"2022-07-01T21:15:00Z","control_time_utc":"2022-07-02T19:30:00Z","fire_out_time_utc":"2022-07-04T17:52:00Z","fire_cause":"Natural","fire_cause_general":"Natural","map_method":"Mixed Methods","source_dataset":"FFP","unique_fire_identifier":"2022-COARF-000371","irwin_id":"{A701A943-7515-4745-B197-C70BA10C82DF}","global_id":"d58516b0-e0a3-4cf3-a35c-8bc49a991f4f"}},{"type":"Feature","geometry":{"type":"Polygon","coordinates":[[[-105.42644,40.16228],[-105.42589,40.16218],[-105.4258,40.16198],[-105.42595,40.16204],[-105.42618,40.1619],[-105.42636,40.16192],[-105.4263,40.16205],[-105.42647,40.16202],[-105.42644,40.16228]]]},"properties":{"fire_id":"ufid:2022-COARF-000440","source_collection":"history-2022","source_objectid":10890,"incident_name":"St Vrain Fire","mapped_acres":0.4415780859341136,"mapped_acres_source":"poly_Acres_AutoCalc_fallback","gis_acres":null,"auto_acres":0.4415780859341136,"reported_acres":0.44,"percent_contained":null,"state":"CO","state_wfigs":"US-CO","county":"Boulder","discovery_time_utc":"2022-07-14T21:42:00Z","perimeter_time_utc":"2022-07-23T00:03:16Z","perimeter_edit_time_utc":"2023-03-14T15:13:42Z","incident_modified_time_utc":"2022-07-22T17:10:52Z","containment_time_utc":"2022-07-15T01:34:00Z","control_time_utc":"2022-07-16T20:15:00Z","fire_out_time_utc":"2022-07-22T17:09:00Z","fire_cause":"Human","fire_cause_general":"Undetermined","map_method":"Mixed Methods","source_dataset":"FFP","unique_fire_identifier":"2022-COARF-000440","irwin_id":"{66FC88A6-6E8F-4A7B-9195-9C37C5E181A2}","global_id":"778755cc-93c2-4abb-9d63-379f9b7d63ce"}},{"type":"Feature","geometry":{"type":"Polygon","coordinates":[[[-108.39782,40.25486],[-108.39591,40.25421],[-108.3945,40.25396],[-108.39438,40.25425],[-108.39418,40.25408],[-108.39275,40.25421],[-108.39248,40.25362],[-108.39202,40.25344],[-108.39068,40.25342],[-108.39065,40.25329],[-108.39018,40.25323],[-108.38987,40.25338],[-108.38851,40.25342],[-108.38817,40.25309],[-108.387,40.25335],[-108.38623,40.25325],[-108.38599,40.25359],[-108.38561,40.2536],[-108.38535,40.25344],[-108.38496,40.25358],[-108.38455,40.25319],[-108.38357,40.25345],[-108.38342,40.2532],[-108.38306,40.25354],[-108.3828,40.25357],[-108.38222,40.25333],[-108.38172,40.25364],[-108.3813,40.25355],[-108.38123,40.25332],[-108.38076,40.25332],[-108.38048,40.25313],[-108.37995,40.25323],[-108.37866,40.25267],[-108.37829,40.25262],[-108.37713,40.25295],[-108.37688,40.25285],[-108.37705,40.2527],[-108.37669,40.25261],[-108.37474,40.25274],[-108.37458,40.25254],[-108.37528,40.2524],[-108.37473,40.25169],[-108.37499,40.2512],[-108.37518,40.25138],[-108.37521,40.25108],[-108.37639,40.25174],[-108.37664,40.25176],[-108.37643,40.25157],[-108.37803,40.25181],[-108.37883,40.25178],[-108.3794,40.25131],[-108.37983,40.25114],[-108.38035,40.25114],[-108.38138,40.25156],[-108.38165,40.25217],[-108.38222,40.25202],[-108.38203,40.25238],[-108.38254,40.25236],[-108.38264,40.25216],[-108.38385,40.25174],[-108.38398,40.25128],[-108.38354,40.25117],[-108.38337,40.25094],[-108.38399,40.25045],[-108.38422,40.25047],[-108.38439,40.25072],[-108.38453,40.25071],[-108.38478,40.25012],[-108.38436,40.24947],[-108.38459,40.24929],[-108.38424,40.24907],[-108.38433,40.24887],[-108.38524,40.24866],[-108.38557,40.24873],[-108.38578,40.24852],[-108.38557,40.24803],[-108.38622,40.24773],[-108.38642,40.2475],[-108.38656,40.24755],[-108.38632,40.24792],[-108.38646,40.24847],[-108.38701,40.24824],[-108.38732,40.24827],[-108.38723,40.24855],[-108.38759,40.2492],[-108.38756,40.24994],[-108.38786,40.25004],[-108.38808,40.24997],[-108.38833,40.24965],[-108.3889,40.24941],[-108.38905,40.24958],[-108.38867,40.25048],[-108.38903,40.25066],[-108.39022,40.24989],[-108.3904,40.24952],[-108.39141,40.24931],[-108.39144,40.24892],[-108.39202,40.24867],[-108.39233,40.24894],[-108.39261,40.24898],[-108.39243,40.24921],[-108.39179,40.24955],[-108.3916,40.24991],[-108.39186,40.25009],[-108.39263,40.24991],[-108.3922,40.25028],[-108.39126,40.25059],[-108.39133,40.25073],[-108.39164,40.2508],[-108.39007,40.25146],[-108.38991,40.25185],[-108.39042,40.25177],[-108.39058,40.25187],[-108.39009,40.25237],[-108.39053,40.25257],[-108.39349,40.25328],[-108.39368,40.25305],[-108.39353,40.25275],[-108.39291,40.2526],[-108.39245,40.25202],[-108.39287,40.25176],[-108.39301,40.25138],[-108.39289,40.25064],[-108.39351,40.25037],[-108.39396,40.24978],[-108.39405,40.24933],[-108.39339,40.24895],[-108.39341,40.24877],[-108.39414,40.24899],[-108.39499,40.24851],[-108.39546,40.24851],[-108.39565,40.24831],[-108.39649,40.24849],[-108.39841,40.24734],[-108.39925,40.24743],[-108.39906,40.24781],[-108.40021,40.24809],[-108.4,40.24847],[-108.40025,40.2489],[-108.40086,40.24896],[-108.40112,40.24863],[-108.40129,40.24866],[-108.40135,40.24886],[-108.40291,40.24912],[-108.40391,40.24897],[-108.40443,40.24909],[-108.4045,40.24944],[-108.40416,40.25012],[-108.40335,40.25039],[-108.40316,40.25067],[-108.4025,40.25111],[-108.40128,40.25152],[-108.40089,40.25181],[-108.40074,40.25199],[-108.40112,40.25237],[-108.4012,40.2528],[-108.40034,40.25348],[-108.39948,40.25372],[-108.39941,40.25422],[-108.39906,40.25433],[-108.39909,40.25411],[-108.39828,40.25372],[-108.39721,40.25422],[-108.39788,40.25459],[-108.39796,40.25471],[-108.39782,40.25486]]]},"properties":{"fire_id":"ufid:2022-COLSD-000212","source_collection":"history-2022","source_objectid":13066,"incident_name":"MCANDREWS","mapped_acres":10.0,"mapped_acres_source":"poly_GISAcres","gis_acres":10.0,"auto_acres":220.86269703848458,"reported_acres":220.0,"percent_contained":null,"state":"CO","state_wfigs":"US-CO","county":"Moffat","discovery_time_utc":"2022-08-31T23:29:00Z","perimeter_time_utc":"2022-12-05T18:01:52Z","perimeter_edit_time_utc":"2023-03-14T15:13:42Z","incident_modified_time_utc":"2022-09-22T20:01:55Z","containment_time_utc":"2022-09-02T00:00:00Z","control_time_utc":"2022-09-08T16:45:00Z","fire_out_time_utc":"2022-09-21T22:00:00Z","fire_cause":"Natural","fire_cause_general":"Natural","map_method":"Hand Sketch","source_dataset":"FFP","unique_fire_identifier":"2022-COLSD-000212","irwin_id":"{4599E5B7-AC40-4F22-8B2B-486F0F3812E2}","global_id":"d42cf957-8e52-49f3-851d-54397cb3f287"}},{"type":"Feature","geometry":{"type":"Polygon","coordinates":[[[-109.02533,40.5281],[-109.02568,40.52789],[-109.02583,40.52808],[-109.02586,40.52856],[-109.02544,40.52865],[-109.02547,40.52849],[-109.02527,40.52829],[-109.02533,40.5281]]]},"properties":{"fire_id":"ufid:2022-CODSP-000053","source_collection":"history-2022","source_objectid":16218,"incident_name":"HARPERS","mapped_acres":0.687829,"mapped_acres_source":"poly_GISAcres","gis_acres":0.687829,"auto_acres":0.6878263663400259,"reported_acres":1.0,"percent_contained":null,"state":"CO","state_wfigs":"US-CO","county":"Moffat","discovery_time_utc":"2022-06-19T21:05:00Z","perimeter_time_utc":"2023-04-20T23:21:37Z","perimeter_edit_time_utc":"2023-04-20T23:21:38Z","incident_modified_time_utc":"2023-01-03T17:06:57Z","containment_time_utc":"2022-09-16T19:00:00Z","control_time_utc":"2022-10-07T15:00:00Z","fire_out_time_utc":"2022-10-24T17:00:00Z","fire_cause":"Natural","fire_cause_general":"Natural","map_method":"Auto-generated","source_dataset":"FFP","unique_fire_identifier":"2022-CODSP-000053","irwin_id":"{E60EF6B2-BD79-46E2-AD96-EC9262AEE93D}","global_id":"c1d47d30-bdaf-4d77-b5ba-c7900960bacd"}},{"type":"Feature","geometry":{"type":"Polygon","coordinates":[[[-108.98342,40.48647],[-108.98345,40.48649],[-108.98338,40.4865],[-108.98342,40.48647]]]},"properties":{"fire_id":"ufid:2022-CODSP-000076","source_collection":"history-2022","source_objectid":16219,"incident_name":"SAND","mapped_acres":0.1,"mapped_acres_source":"poly_GISAcres","gis_acres":0.1,"auto_acres":0.003274256914513281,"reported_acres":0.1,"percent_contained":null,"state":"CO","state_wfigs":"US-CO","county":"Moffat","discovery_time_utc":"2022-06-30T00:43:00Z","perimeter_time_utc":"2023-04-20T23:20:14Z","perimeter_edit_time_utc":"2023-04-20T23:20:14Z","incident_modified_time_utc":"2023-01-05T15:02:56Z","containment_time_utc":"2022-06-30T19:23:00Z","control_time_utc":"2022-07-06T23:01:00Z","fire_out_time_utc":"2022-10-24T17:00:00Z","fire_cause":"Natural","fire_cause_general":"Natural","map_method":"Auto-generated","source_dataset":"FFP","unique_fire_identifier":"2022-CODSP-000076","irwin_id":"{EA3DC3C3-FDDE-4DE6-9718-4C4C3CFFFEF5}","global_id":"7ebb7e07-0a69-4e66-8153-d79697dd4343"}},{"type":"Feature","geometry":{"type":"MultiPolygon","coordinates":[[[[-108.51213,40.44259],[-108.51215,40.4426],[-108.51211,40.44266],[-108.51213,40.44259]]],[[[-108.51211,40.44254],[-108.51214,40.44257],[-108.51213,40.44259],[-108.51211,40.44254]]],[[[-108.51158,40.44238],[-108.51174,40.4426],[-108.51211,40.44258],[-108.51199,40.44278],[-108.51216,40.44293],[-108.51198,40.44305],[-108.51216,40.44327],[-108.51192,40.44335],[-108.51197,40.44357],[-108.51183,40.44366],[-108.51172,40.44326],[-108.5115,40.44312],[-108.51164,40.44301],[-108.5114,40.44293],[-108.51122,40.44266],[-108.51132,40.44244],[-108.51158,40.44238]]]]},"properties":{"fire_id":"ufid:2022-CODSP-000202","source_collection":"history-2022","source_objectid":16220,"incident_name":"CHRISTMAS","mapped_acres":1.3528298421015283,"mapped_acres_source":"poly_Acres_AutoCalc_fallback","gis_acres":null,"auto_acres":1.3528298421015283,"reported_acres":1.4,"percent_contained":null,"state":"CO","state_wfigs":"US-CO","county":"Moffat","discovery_time_utc":"2022-08-20T14:45:00Z","perimeter_time_utc":"2023-04-20T23:18:18Z","perimeter_edit_time_utc":"2023-04-20T23:18:18Z","incident_modified_time_utc":"2023-01-05T15:10:08Z","containment_time_utc":"2022-09-17T20:30:00Z","control_time_utc":"2022-10-07T20:00:00Z","fire_out_time_utc":"2022-10-24T17:00:00Z","fire_cause":"Natural","fire_cause_general":"Natural","map_method":"Mixed Methods","source_dataset":"FFP","unique_fire_identifier":"2022-CODSP-000202","irwin_id":"{CF10FA21-91FF-4279-8363-20843FA52ABD}","global_id":"47b7cfa9-fce5-4087-aba6-7c02fae5f1df"}},{"type":"Feature","geometry":{"type":"MultiPolygon","coordinates":[[[[-108.52616,40.34787],[-108.52623,40.34781],[-108.5262,40.34789],[-108.52616,40.34787]]],[[[-108.5261,40.34795],[-108.52607,40.34796],[-108.52605,40.34793],[-108.5261,40.34795]]]]},"properties":{"fire_id":"ufid:2022-COWRD-000162","source_collection":"history-2022","source_objectid":18955,"incident_name":"BAKING POWDER","mapped_acres":0.1,"mapped_acres_source":"poly_GISAcres","gis_acres":0.1,"auto_acres":0.0123676097286796,"reported_acres":0.1,"percent_contained":null,"state":"CO","state_wfigs":"US-CO","county":"Moffat","discovery_time_utc":"2022-08-11T13:26:00Z","perimeter_time_utc":"2023-08-02T23:08:29Z","perimeter_edit_time_utc":"2023-08-02T23:08:29Z","incident_modified_time_utc":"2022-08-25T17:27:23Z","containment_time_utc":"2022-08-11T19:10:00Z","control_time_utc":"2022-08-12T20:31:00Z","fire_out_time_utc":"2022-08-21T17:50:00Z","fire_cause":"Natural","fire_cause_general":"Natural","map_method":"Auto-generated","source_dataset":"FFP","unique_fire_identifier":"2022-COWRD-000162","irwin_id":"{810415DF-6BE8-4B68-A52F-3F0F413F7918}","global_id":"9de1fcf9-1a1c-4c56-a817-d919ae84e3f8"}},{"type":"Feature","geometry":{"type":"Polygon","coordinates":[[[-107.51832,40.93517],[-107.51941,40.93588],[-107.51924,40.93615],[-107.51937,40.93635],[-107.51992,40.93623],[-107.51971,40.93662],[-107.51934,40.93674],[-107.51918,40.93698],[-107.51913,40.9373],[-107.51888,40.93756],[-107.51896,40.93781],[-107.51869,40.93825],[-107.51851,40.93845],[-107.51765,40.93837],[-107.51753,40.93873],[-107.5169,40.93859],[-107.51665,40.93829],[-107.51631,40.9382],[-107.51622,40.93838],[-107.51587,40.93819],[-107.51601,40.938],[-107.51579,40.93787],[-107.51567,40.93736],[-107.51524,40.93738],[-107.51537,40.93687],[-107.51557,40.93674],[-107.51577,40.9363],[-107.51675,40.93559],[-107.51729,40.9355],[-107.51795,40.93511],[-107.51832,40.93517]]]},"properties":{"fire_id":"ufid:2022-COLSD-000119","source_collection":"history-2022","source_objectid":19079,"incident_name":"SERVICEBERRY","mapped_acres":23.37,"mapped_acres_source":"poly_GISAcres","gis_acres":23.37,"auto_acres":23.36570705034532,"reported_acres":25.0,"percent_contained":null,"state":"CO","state_wfigs":"US-CO","county":"Moffat","discovery_time_utc":"2022-07-17T20:24:00Z","perimeter_time_utc":"2023-08-07T14:15:59Z","perimeter_edit_time_utc":"2023-08-07T14:15:59Z","incident_modified_time_utc":"2022-08-17T18:03:52Z","containment_time_utc":"2022-07-19T18:39:00Z","control_time_utc":"2022-07-23T21:28:00Z","fire_out_time_utc":"2022-08-07T18:00:00Z","fire_cause":"Natural","fire_cause_general":"Natural","map_method":"Hand Sketch","source_dataset":"FFP","unique_fire_identifier":"2022-COLSD-000119","irwin_id":"{D664AEDF-AC6B-4C86-A742-1E05B1EAFA2D}","global_id":"d2ccbcd6-cdb1-47e4-aa8b-c4de70fa082b"}},{"type":"Feature","geometry":{"type":"Polygon","coordinates":[[[-109.0329,40.236],[-109.03402,40.23532],[-109.03413,40.23557],[-109.03371,40.23552],[-109.03382,40.2358],[-109.03351,40.23599],[-109.03416,40.23641],[-109.03417,40.23659],[-109.03394,40.23664],[-109.03365,40.23642],[-109.03379,40.23655],[-109.03343,40.23652],[-109.03308,40.23629],[-109.0329,40.236]]]},"properties":{"fire_id":"ufid:2022-COWRD-000161","source_collection":"history-2022","source_objectid":26158,"incident_name":"SILTY ROAD","mapped_acres":1.5,"mapped_acres_source":"poly_GISAcres","gis_acres":1.5,"auto_acres":1.6365116726630766,"reported_acres":1.5,"percent_contained":null,"state":"CO","state_wfigs":"US-CO","county":"Moffat","discovery_time_utc":"2022-08-11T01:52:00Z","perimeter_time_utc":"2024-05-09T17:43:44Z","perimeter_edit_time_utc":"2024-05-09T17:43:44Z","incident_modified_time_utc":"2023-08-02T23:16:57Z","containment_time_utc":"2022-08-11T04:41:00Z","control_time_utc":"2022-08-21T17:00:00Z","fire_out_time_utc":"2022-08-21T18:00:00Z","fire_cause":"Human","fire_cause_general":"Other causes","map_method":"Auto-generated","source_dataset":"FFP","unique_fire_identifier":"2022-COWRD-000161","irwin_id":"{A252C9A1-3507-4996-81D3-539E1E59BBEA}","global_id":"a2f9826f-b371-4189-81b7-662475af47a1"}},{"type":"Feature","geometry":{"type":"Polygon","coordinates":[[[-105.29211,40.13634],[-105.29843,40.15135],[-105.28023,40.1482],[-105.27508,40.13608],[-105.28463,40.13356],[-105.29211,40.13634]]]},"properties":{"fire_id":"ufid:2022-COBLX-000779","source_collection":"history-2022","source_objectid":48494,"incident_name":"Lake Ridge Trail","mapped_acres":590.03,"mapped_acres_source":"poly_GISAcres","gis_acres":590.03,"auto_acres":null,"reported_acres":20.0,"percent_contained":null,"state":"CO","state_wfigs":"US-CO","county":"Boulder","discovery_time_utc":"2022-10-20T20:26:00Z","perimeter_time_utc":"2022-10-21T22:09:00Z","perimeter_edit_time_utc":"2025-11-14T21:31:59Z","incident_modified_time_utc":"2022-10-25T22:59:26Z","containment_time_utc":"2022-10-21T22:09:00Z","control_time_utc":"2022-10-25T00:00:00Z","fire_out_time_utc":"2022-10-25T22:48:00Z","fire_cause":"Undetermined","fire_cause_general":null,"map_method":"Hand Sketch","source_dataset":"Inspector","unique_fire_identifier":"2022-COBLX-000779","irwin_id":"{A3E3BB14-A54D-47B8-AD1C-5705CDD255CE}","global_id":"cde02d77-0d90-4609-9b9b-8c3c5b36e147"}}]}
