{"type":"FeatureCollection","features":[{"type":"Feature","geometry":{"type":"Polygon","coordinates":[[[-85.49389,30.17895],[-85.49667,30.18012],[-85.497,30.18041],[-85.49674,30.18121],[-85.49595,30.18125],[-85.4959,30.18154],[-85.49562,30.18148],[-85.49555,30.18192],[-85.49334,30.18113],[-85.49318,30.18048],[-85.49365,30.18036],[-85.49355,30.17985],[-85.49395,30.17973],[-85.49402,30.17937],[-85.49389,30.17895]]]},"properties":{"fire_id":"ufid:2022-FLFLS-220200198","source_collection":"history-2022","source_objectid":1011,"incident_name":"Dogwood Way","mapped_acres":16.5547330870228,"mapped_acres_source":"poly_GISAcres","gis_acres":16.5547330870228,"auto_acres":16.5546249963336,"reported_acres":25.0,"percent_contained":100.0,"state":"FL","state_wfigs":"US-FL","county":"Bay","discovery_time_utc":"2022-03-02T20:45:00Z","perimeter_time_utc":null,"perimeter_edit_time_utc":"2022-03-07T19:55:29Z","incident_modified_time_utc":"2022-03-15T14:22:43Z","containment_time_utc":null,"control_time_utc":null,"fire_out_time_utc":null,"fire_cause":"Human","fire_cause_general":null,"map_method":"Mixed Methods","source_dataset":"2022 NIFS","unique_fire_identifier":"2022-FLFLS-220200198","irwin_id":"{AAD264E9-040F-4B2E-902C-C030262CE102}","global_id":"6baccf51-6198-4baa-a658-47853ffe2e1a"}},{"type":"Feature","geometry":{"type":"Polygon","coordinates":[[[-87.07515,30.47561],[-87.07443,30.47582],[-87.07452,30.47618],[-87.07437,30.47687],[-87.07343,30.47774],[-87.07246,30.47809],[-87.07141,30.47824],[-87.06969,30.47907],[-87.06952,30.47957],[-87.06906,30.48005],[-87.06786,30.48061],[-87.06713,30.4807],[-87.06661,30.48093],[-87.06612,30.48116],[-87.06584,30.48157],[-87.06513,30.4818],[-87.06255,30.48174],[-87.06164,30.4812],[-87.06071,30.48105],[-87.06057,30.48035],[-87.06038,30.4801],[-87.05987,30.48],[-87.05973,30.48027],[-87.05898,30.48029],[-87.06022,30.47861],[-87.061,30.47863],[-87.0614,30.47805],[-87.06192,30.47782],[-87.06243,30.47811],[-87.06219,30.47889],[-87.06342,30.47916],[-87.06366,30.47883],[-87.06299,30.47788],[-87.06321,30.47582],[-87.06285,30.47545],[-87.06289,30.47461],[-87.06256,30.47463],[-87.0629,30.47287],[-87.06334,30.47188],[-87.06787,30.47178],[-87.06793,30.47585],[-87.07515,30.47561]]]},"properties":{"fire_id":"ufid:2022-FLGIP-000002","source_collection":"history-2022","source_objectid":1233,"incident_name":"Oyster Bay","mapped_acres":196.028933041746,"mapped_acres_source":"poly_GISAcres","gis_acres":196.028933041746,"auto_acres":196.028089941005,"reported_acres":null,"percent_contained":null,"state":"FL","state_wfigs":"US-FL","county":"Santa Rosa","discovery_time_utc":"2022-04-08T19:05:00Z","perimeter_time_utc":"2022-04-09T00:00:00Z","perimeter_edit_time_utc":"2022-04-12T13:27:23Z","incident_modified_time_utc":"2022-04-11T15:04:55Z","containment_time_utc":null,"control_time_utc":null,"fire_out_time_utc":null,"fire_cause":null,"fire_cause_general":null,"map_method":"Mixed Methods","source_dataset":"2022 NIFS","unique_fire_identifier":"2022-FLGIP-000002","irwin_id":"{81F7C5FE-96C5-4749-9A80-8CE55158FF1C}","global_id":"808e207d-1796-425f-934d-bfcd9767aae8"}},{"type":"Feature","geometry":{"type":"Polygon","coordinates":[[[-85.59725,30.17946],[-85.59734,30.17825],[-85.59882,30.17844],[-85.59972,30.17913],[-85.59977,30.17938],[-85.59931,30.18078],[-85.59886,30.18321],[-85.59826,30.18388],[-85.59814,30.18519],[-85.59904,30.18629],[-85.59945,30.18634],[-85.59997,30.18814],[-85.60026,30.18866],[-85.60065,30.18894],[-85.60344,30.18892],[-85.6034,30.19361],[-85.60001,30.19434],[-85.59939,30.19436],[-85.59927,30.1946],[-85.5994,30.19641],[-85.59928,30.1965],[-85.59894,30.19914],[-85.59636,30.19929],[-85.59598,30.19918],[-85.59606,30.20088],[-85.59674,30.20086],[-85.597,30.20097],[-85.59741,30.20142],[-85.59797,30.20173],[-85.59845,30.2025],[-85.59845,30.20262],[-85.59768,30.20298],[-85.59678,30.20453],[-85.5963,30.20459],[-85.59533,30.20409],[-85.59442,30.20386],[-85.59096,30.204],[-85.59089,30.20467],[-85.59136,30.20491],[-85.59173,30.20588],[-85.59197,30.20741],[-85.59266,30.20871],[-85.59168,30.21013],[-85.58943,30.21008],[-85.58936,30.21041],[-85.58918,30.21043],[-85.58918,30.21118],[-85.58858,30.21123],[-85.58857,30.20897],[-85.58824,30.20868],[-85.58778,30.20854],[-85.58647,30.20856],[-85.58629,30.21118],[-85.58599,30.21113],[-85.58591,30.20786],[-85.58517,30.20618],[-85.58506,30.20468],[-85.58514,30.2043],[-85.58494,30.20333],[-85.58546,30.20137],[-85.58392,30.20122],[-85.58394,30.20083],[-85.58501,30.19921],[-85.5855,30.19623],[-85.58637,30.19567],[-85.58743,30.19526],[-85.58778,30.19487],[-85.58768,30.19435],[-85.58687,30.19281],[-85.58562,30.19228],[-85.58534,30.19164],[-85.58459,30.18839],[-85.58577,30.18864],[-85.58745,30.1883],[-85.58775,30.18814],[-85.58926,30.18839],[-85.59044,30.18834],[-85.59148,30.18735],[-85.593,30.187],[-85.59422,30.18571],[-85.59476,30.18552],[-85.59541,30.18484],[-85.59561,30.18443],[-85.59223,30.18347],[-85.5916,30.18279],[-85.58992,30.18017],[-85.58997,30.17986],[-85.59107,30.17845],[-85.5919,30.17835],[-85.59282,30.17845],[-85.59377,30.17774],[-85.59504,30.17851],[-85.59522,30.17937],[-85.59725,30.17946]]]},"properties":{"fire_id":"ufid:2022-FLFLS-2200200222","source_collection":"history-2022","source_objectid":3027,"incident_name":"Adkins Avenue","mapped_acres":872.731128769076,"mapped_acres_source":"poly_GISAcres","gis_acres":872.731128769076,"auto_acres":872.728107631838,"reported_acres":875.0,"percent_contained":100.0,"state":"FL","state_wfigs":"US-FL","county":"Bay","discovery_time_utc":"2022-03-04T17:45:00Z","perimeter_time_utc":null,"perimeter_edit_time_utc":"2022-03-08T21:23:32Z","incident_modified_time_utc":"2022-03-31T20:51:20Z","containment_time_utc":null,"control_time_utc":null,"fire_out_time_utc":null,"fire_cause":"Undetermined","fire_cause_general":null,"map_method":"Mixed Methods","source_dataset":"2022 NIFS","unique_fire_identifier":"2022-FLFLS-2200200222","irwin_id":"{56A189F7-D9CE-48EA-9506-C4F773643581}","global_id":"5b945ffb-97b3-4346-92de-19375a5660ad"}},{"type":"Feature","geometry":{"type":"MultiPolygon","coordinates":[[[[-85.5692,30.17304],[-85.57056,30.17263],[-85.57271,30.17718],[-85.57391,30.18071],[-85.57394,30.18357],[-85.57318,30.18718],[-85.57206,30.1884],[-85.57018,30.18841],[-85.56943,30.18565],[-85.56874,30.18389],[-85.56841,30.18086],[-85.5692,30.17304]]],[[[-85.57132,30.19261],[-85.57512,30.19276],[-85.57505,30.1964],[-85.57401,30.19701],[-85.57259,30.19641],[-85.57182,30.19461],[-85.57132,30.19261]]]]},"properties":{"fire_id":"ufid:2022-FLFLS-220200249","source_collection":"history-2022","source_objectid":3505,"incident_name":"Star Avenue","mapped_acres":197.448196808547,"mapped_acres_source":"poly_GISAcres","gis_acres":197.448196808547,"auto_acres":197.447260398794,"reported_acres":197.0,"percent_contained":100.0,"state":"FL","state_wfigs":"US-FL","county":"Bay","discovery_time_utc":"2022-03-06T19:30:00Z","perimeter_time_utc":null,"perimeter_edit_time_utc":"2022-03-21T18:49:41Z","incident_modified_time_utc":"2022-03-31T20:51:23Z","containment_time_utc":null,"control_time_utc":null,"fire_out_time_utc":null,"fire_cause":"Undetermined","fire_cause_general":null,"map_method":"Mixed Methods","source_dataset":"2022 NIFS","unique_fire_identifier":"2022-FLFLS-220200249","irwin_id":"{1E6776C4-B26A-4304-8DC9-2D0AA65C36EA}","global_id":"797c5715-1990-4c45-8a25-85f91ad3fa3d"}},{"type":"Feature","geometry":{"type":"Polygon","coordinates":[[[-85.33324,30.30363],[-85.32869,30.30396],[-85.32627,30.30757],[-85.32727,30.3099],[-85.32652,30.31033],[-85.32575,30.3104],[-85.32516,30.31008],[-85.32509,30.3096],[-85.32553,30.30911],[-85.32564,30.30773],[-85.32233,30.30841],[-85.32084,30.30723],[-85.32201,30.30265],[-85.31705,30.30128],[-85.31018,30.2974],[-85.30771,30.29769],[-85.30247,30.3006],[-85.30138,30.30051],[-85.30154,30.29956],[-85.30231,30.29789],[-85.30159,30.29492],[-85.30084,30.28944],[-85.29907,30.28529],[-85.29869,30.28224],[-85.29772,30.2811],[-85.29845,30.27855],[-85.29825,30.27746],[-85.29894,30.27624],[-85.2994,30.27407],[-85.30008,30.27242],[-85.30096,30.27109],[-85.30037,30.26936],[-85.29865,30.26771],[-85.29827,30.26667],[-85.29784,30.26442],[-85.30298,30.26209],[-85.30384,30.25994],[-85.30504,30.25796],[-85.30538,30.25568],[-85.30616,30.25384],[-85.30506,30.25202],[-85.30294,30.24994],[-85.29952,30.24857],[-85.29775,30.24751],[-85.29337,30.24334],[-85.28915,30.23414],[-85.29152,30.23226],[-85.2948,30.22863],[-85.29715,30.22492],[-85.30196,30.21894],[-85.30514,30.21594],[-85.30974,30.21014],[-85.31055,30.20797],[-85.3144,30.20084],[-85.3158,30.19586],[-85.3168,30.19279],[-85.31757,30.18829],[-85.32093,30.18259],[-85.32438,30.17608],[-85.3253,30.17499],[-85.3269,30.17345],[-85.32867,30.1721],[-85.33162,30.17098],[-85.33268,30.17125],[-85.33409,30.16563],[-85.33409,30.16267],[-85.33388,30.15916],[-85.33325,30.15626],[-85.33325,30.15486],[-85.33363,30.15249],[-85.33524,30.14898],[-85.339,30.15016],[-85.34265,30.15031],[-85.35152,30.15038],[-85.35165,30.15435],[-85.3535,30.16433],[-85.36457,30.17673],[-85.36468,30.17777],[-85.3654,30.18024],[-85.36627,30.18254],[-85.36792,30.18422],[-85.36852,30.18651],[-85.37017,30.18803],[-85.37291,30.18719],[-85.37481,30.18774],[-85.37572,30.19028],[-85.37907,30.19008],[-85.38197,30.19079],[-85.38438,30.1918],[-85.387,30.19306],[-85.38873,30.19429],[-85.40205,30.20008],[-85.40843,30.20352],[-85.41366,30.2068],[-85.41946,30.21304],[-85.42422,30.21974],[-85.42783,30.22565],[-85.42923,30.22869],[-85.42967,30.23121],[-85.43532,30.24141],[-85.43562,30.24239],[-85.42365,30.24234],[-85.4245,30.24361],[-85.42602,30.24542],[-85.42965,30.24904],[-85.43133,30.25118],[-85.43262,30.25612],[-85.43246,30.25874],[-85.43172,30.26082],[-85.4306,30.26325],[-85.42885,30.26519],[-85.42648,30.26605],[-85.42334,30.26596],[-85.42261,30.26688],[-85.42255,30.27282],[-85.41511,30.27859],[-85.41281,30.28006],[-85.412,30.27983],[-85.41028,30.2802],[-85.40966,30.28003],[-85.40713,30.28158],[-85.40001,30.28473],[-85.39415,30.28666],[-85.38691,30.29088],[-85.38588,30.29166],[-85.38134,30.2925],[-85.37907,30.29222],[-85.37832,30.29185],[-85.37634,30.2914],[-85.37489,30.29088],[-85.37316,30.29013],[-85.37181,30.28918],[-85.37119,30.28852],[-85.3709,30.28717],[-85.37016,30.28559],[-85.37008,30.28396],[-85.37028,30.28247],[-85.37213,30.27842],[-85.37272,30.27764],[-85.37299,30.27259],[-85.3733,30.27076],[-85.37451,30.26993],[-85.37576,30.26823],[-85.37766,30.26519],[-85.37858,30.26277],[-85.37929,30.26176],[-85.38022,30.26103],[-85.38696,30.2571],[-85.38916,30.25639],[-85.39269,30.24649],[-85.39503,30.24256],[-85.39291,30.24082],[-85.3902,30.2404],[-85.3867,30.24102],[-85.38556,30.24107],[-85.38302,30.24094],[-85.38053,30.2406],[-85.37673,30.24092],[-85.37384,30.24073],[-85.36942,30.25926],[-85.36872,30.26168],[-85.36701,30.26354],[-85.36463,30.26466],[-85.36347,30.26628],[-85.36492,30.26748],[-85.36336,30.26912],[-85.3635,30.27121],[-85.3649,30.27281],[-85.36399,30.2751],[-85.36177,30.27565],[-85.35936,30.27659],[-85.35559,30.27964],[-85.35432,30.28173],[-85.35246,30.28141],[-85.35066,30.28345],[-85.34904,30.28689],[-85.34644,30.287],[-85.34375,30.28653],[-85.34118,30.29012],[-85.33998,30.29256],[-85.33935,30.29935],[-85.33324,30.30363]]]},"properties":{"fire_id":"ufid:2022-FLFLS-220200220","source_collection":"history-2022","source_objectid":3572,"incident_name":"Bertha Swamp Road","mapped_acres":33131.4121081838,"mapped_acres_source":"poly_GISAcres","gis_acres":33131.4121081838,"auto_acres":33131.2859075406,"reported_acres":33131.0,"percent_contained":100.0,"state":"FL","state_wfigs":"US-FL","county":"Gulf","discovery_time_utc":"2022-03-04T16:30:00Z","perimeter_time_utc":null,"perimeter_edit_time_utc":"2022-03-09T18:02:34Z","incident_modified_time_utc":"2022-03-31T20:51:17Z","containment_time_utc":null,"control_time_utc":null,"fire_out_time_utc":null,"fire_cause":"Undetermined","fire_cause_general":null,"map_method":"Mixed Methods","source_dataset":"2022 NIFS","unique_fire_identifier":"2022-FLFLS-220200220","irwin_id":"{85607EE3-0834-4C66-BD23-F8EE8A1D8809}","global_id":"9366d709-40f1-4453-ba0e-09aa97da7fb0"}},{"type":"Feature","geometry":{"type":"Polygon","coordinates":[[[-85.01554,30.26274],[-85.01574,30.26285],[-85.01565,30.26297],[-85.01535,30.26288],[-85.01554,30.26274]]]},"properties":{"fire_id":"ufid:2022-FLFNF-000758","source_collection":"history-2022","source_objectid":7220,"incident_name":"Ray Keever Road","mapped_acres":0.1404046,"mapped_acres_source":"poly_GISAcres","gis_acres":0.1404046,"auto_acres":0.14040410144101872,"reported_acres":0.1,"percent_contained":null,"state":"FL","state_wfigs":"US-FL","county":"Liberty","discovery_time_utc":"2022-05-05T18:47:00Z","perimeter_time_utc":"2022-08-05T21:11:37Z","perimeter_edit_time_utc":"2023-03-14T15:13:42Z","incident_modified_time_utc":"2022-05-05T20:19:47Z","containment_time_utc":"2022-05-05T20:19:00Z","control_time_utc":null,"fire_out_time_utc":"2022-06-07T17:09:44Z","fire_cause":"Undetermined","fire_cause_general":"Undetermined","map_method":"GPS-Walked/Driven","source_dataset":"FFP","unique_fire_identifier":"2022-FLFNF-000758","irwin_id":"{34A21D17-F685-4CFE-A52A-97035A47FF46}","global_id":"4a0bd072-02c0-4eb8-b1d6-4f1caaf17dd6"}},{"type":"Feature","geometry":{"type":"Polygon","coordinates":[[[-85.01368,30.22341],[-85.01381,30.22422],[-85.0135,30.22469],[-85.01259,30.22384],[-85.01238,30.22343],[-85.01181,30.22301],[-85.01172,30.22153],[-85.01147,30.22106],[-85.01171,30.22058],[-85.01211,30.22057],[-85.01248,30.22101],[-85.01252,30.2215],[-85.01233,30.22187],[-85.0123,30.2223],[-85.01249,30.2226],[-85.01277,30.22257],[-85.01313,30.22209],[-85.01335,30.22202],[-85.01364,30.22214],[-85.01368,30.2223],[-85.01343,30.22249],[-85.01361,30.2229],[-85.01348,30.22314],[-85.01368,30.22341]]]},"properties":{"fire_id":"ufid:2022-FLFNF-000461","source_collection":"history-2022","source_objectid":7694,"incident_name":"Buttermilk Pond","mapped_acres":11.19032,"mapped_acres_source":"poly_GISAcres","gis_acres":11.19032,"auto_acres":11.19028280779009,"reported_acres":10.4,"percent_contained":null,"state":"FL","state_wfigs":"US-FL","county":"Liberty","discovery_time_utc":"2022-03-22T19:45:00Z","perimeter_time_utc":"2022-08-05T21:13:40Z","perimeter_edit_time_utc":"2023-03-14T15:13:42Z","incident_modified_time_utc":"2022-03-31T21:08:31Z","containment_time_utc":"2022-03-23T17:11:00Z","control_time_utc":null,"fire_out_time_utc":"2022-04-01T21:00:50Z","fire_cause":"Human","fire_cause_general":"Debris and open burning","map_method":"Digitized-Other","source_dataset":"FFP","unique_fire_identifier":"2022-FLFNF-000461","irwin_id":"{7E09B7C1-FBF6-4408-B8BC-0FBFBBFAF63C}","global_id":"5d200536-44eb-4924-9bab-a2cfe7062018"}},{"type":"Feature","geometry":{"type":"Polygon","coordinates":[[[-85.0167,30.16789],[-85.01636,30.16759],[-85.01616,30.16692],[-85.01592,30.16661],[-85.01603,30.16646],[-85.01694,30.16668],[-85.01683,30.16786],[-85.0167,30.16789]]]},"properties":{"fire_id":"ufid:2022-FLFNF-001206","source_collection":"history-2022","source_objectid":9650,"incident_name":"Borrow Pit 2","mapped_acres":4.0,"mapped_acres_source":"poly_GISAcres","gis_acres":4.0,"auto_acres":2.230677774705045,"reported_acres":2.23,"percent_contained":null,"state":"FL","state_wfigs":"US-FL","county":"Liberty","discovery_time_utc":"2022-06-21T12:44:06Z","perimeter_time_utc":"2022-07-14T19:18:36Z","perimeter_edit_time_utc":"2023-03-14T15:13:42Z","incident_modified_time_utc":"2022-06-23T15:28:05Z","containment_time_utc":null,"control_time_utc":null,"fire_out_time_utc":"2022-06-28T21:00:00Z","fire_cause":"Natural","fire_cause_general":"Natural","map_method":"GPS-Walked","source_dataset":"FFP","unique_fire_identifier":"2022-FLFNF-001206","irwin_id":"{8292D916-DAAC-4D71-AFBC-A25E8E6D6AAA}","global_id":"f6b4d6e6-550a-4391-84b4-1997b8946d32"}},{"type":"Feature","geometry":{"type":"Polygon","coordinates":[[[-85.06356,30.07307],[-85.06331,30.07188],[-85.06438,30.07155],[-85.0658,30.07201],[-85.06875,30.07414],[-85.06917,30.07466],[-85.06949,30.07544],[-85.0705,30.07613],[-85.07071,30.07672],[-85.06964,30.07651],[-85.06781,30.07498],[-85.0665,30.07414],[-85.06356,30.07307]]]},"properties":{"fire_id":"ufid:2022-FLFNF-000428","source_collection":"history-2022","source_objectid":10326,"incident_name":"Cotton Landing","mapped_acres":28.01225,"mapped_acres_source":"poly_GISAcres","gis_acres":28.01225,"auto_acres":28.012142220929444,"reported_acres":26.0,"percent_contained":null,"state":"FL","state_wfigs":"US-FL","county":"Liberty","discovery_time_utc":"2022-03-15T13:59:00Z","perimeter_time_utc":"2022-08-05T21:11:10Z","perimeter_edit_time_utc":"2023-03-14T15:13:42Z","incident_modified_time_utc":"2022-03-15T21:16:06Z","containment_time_utc":null,"control_time_utc":null,"fire_out_time_utc":"2022-03-25T16:00:00Z","fire_cause":"Human","fire_cause_general":null,"map_method":"GPS-Walked/Driven","source_dataset":"FFP","unique_fire_identifier":"2022-FLFNF-000428","irwin_id":"{12DAA4C8-B789-46F9-966C-F335C833DE7F}","global_id":"122eadbf-a6e5-4c17-bc02-d6a45b13b46d"}},{"type":"Feature","geometry":{"type":"Polygon","coordinates":[[[-86.7848,30.45431],[-86.78541,30.45456],[-86.7857,30.45493],[-86.78625,30.45485],[-86.78709,30.45507],[-86.78833,30.45478],[-86.78936,30.45508],[-86.78995,30.45549],[-86.79024,30.45588],[-86.79051,30.45728],[-86.79045,30.4576],[-86.79022,30.45788],[-86.78948,30.45815],[-86.7895,30.45826],[-86.79068,30.45896],[-86.7918,30.45925],[-86.79274,30.45921],[-86.793,30.45868],[-86.79356,30.45834],[-86.79448,30.4583],[-86.79501,30.45872],[-86.79567,30.46013],[-86.79602,30.46143],[-86.7947,30.46341],[-86.79472,30.46378],[-86.79501,30.46425],[-86.79481,30.46453],[-86.79485,30.46484],[-86.79467,30.46501],[-86.79442,30.46497],[-86.79427,30.46481],[-86.79421,30.46444],[-86.79404,30.46454],[-86.79399,30.46481],[-86.79413,30.4651],[-86.79507,30.46549],[-86.79521,30.46603],[-86.79223,30.46668],[-86.79208,30.46659],[-86.79233,30.46631],[-86.79235,30.46607],[-86.79192,30.46593],[-86.79175,30.46566],[-86.79165,30.46569],[-86.7916,30.46601],[-86.79144,30.46607],[-86.79054,30.46562],[-86.79024,30.46566],[-86.79037,30.46583],[-86.79158,30.46643],[-86.79152,30.46664],[-86.79096,30.46698],[-86.79112,30.46735],[-86.79194,30.46761],[-86.79269,30.46747],[-86.79282,30.46769],[-86.79334,30.46773],[-86.79229,30.46818],[-86.79203,30.46848],[-86.79206,30.46881],[-86.79238,30.46903],[-86.79267,30.46898],[-86.79303,30.4687],[-86.79323,30.46876],[-86.79331,30.46895],[-86.79309,30.46924],[-86.79248,30.46939],[-86.79122,30.46928],[-86.79077,30.46903],[-86.79056,30.46904],[-86.79001,30.46931],[-86.78993,30.4695],[-86.79079,30.46971],[-86.79097,30.46996],[-86.79023,30.46995],[-86.78984,30.47022],[-86.79175,30.47133],[-86.79178,30.47154],[-86.79127,30.47195],[-86.79135,30.47212],[-86.79193,30.47223],[-86.79239,30.47172],[-86.79274,30.47176],[-86.79247,30.47263],[-86.79299,30.47377],[-86.7928,30.47421],[-86.79342,30.47466],[-86.79368,30.47517],[-86.79376,30.47629],[-86.79351,30.47652],[-86.79276,30.47645],[-86.7922,30.47601],[-86.79205,30.47636],[-86.79129,30.47699],[-86.78996,30.47653],[-86.78911,30.47668],[-86.78758,30.47593],[-86.78723,30.47551],[-86.7864,30.47393],[-86.78594,30.47246],[-86.78537,30.47148],[-86.78548,30.46997],[-86.78574,30.46902],[-86.78566,30.46864],[-86.78458,30.47007],[-86.78395,30.47057],[-86.78339,30.47068],[-86.78143,30.47175],[-86.77979,30.47221],[-86.77917,30.47271],[-86.77783,30.4732],[-86.77715,30.47363],[-86.77621,30.4737],[-86.7756,30.47403],[-86.77525,30.47399],[-86.77687,30.47127],[-86.77678,30.47106],[-86.77628,30.47067],[-86.77549,30.47061],[-86.77559,30.47032],[-86.77602,30.47],[-86.77554,30.46893],[-86.7756,30.46789],[-86.77642,30.4667],[-86.7768,30.46575],[-86.77766,30.4649],[-86.77767,30.46444],[-86.77855,30.46419],[-86.77873,30.46392],[-86.77898,30.46381],[-86.78004,30.4637],[-86.78103,30.46332],[-86.78228,30.4632],[-86.78228,30.46294],[-86.78186,30.46227],[-86.78166,30.46049],[-86.78065,30.45935],[-86.78041,30.45885],[-86.78061,30.45855],[-86.78082,30.45848],[-86.78179,30.45893],[-86.78253,30.45888],[-86.78253,30.45875],[-86.78184,30.4582],[-86.78173,30.45797],[-86.782,30.45765],[-86.78255,30.45744],[-86.78262,30.45725],[-86.78254,30.45707],[-86.78181,30.45671],[-86.78161,30.45647],[-86.7821,30.45522],[-86.78234,30.45498],[-86.78334,30.45501],[-86.78385,30.45473],[-86.78456,30.45474],[-86.7848,30.45431]]]},"properties":{"fire_id":"ufid:2022-FLEAQ-000036","source_collection":"history-2022","source_objectid":13517,"incident_name":"Panther WF","mapped_acres":687.192802229579,"mapped_acres_source":"poly_Acres_AutoCalc_fallback","gis_acres":null,"auto_acres":687.192802229579,"reported_acres":3670.0,"percent_contained":100.0,"state":"FL","state_wfigs":"US-FL","county":"Okaloosa","discovery_time_utc":"2022-03-03T18:00:00Z","perimeter_time_utc":null,"perimeter_edit_time_utc":"2022-03-17T16:41:36Z","incident_modified_time_utc":"2022-03-09T19:30:02Z","containment_time_utc":null,"control_time_utc":null,"fire_out_time_utc":null,"fire_cause":"Human","fire_cause_general":null,"map_method":"Image Interpretation","source_dataset":"2022 NIFS","unique_fire_identifier":"2022-FLEAQ-000036","irwin_id":"{D64563A2-2D01-407D-ADCC-9DA4BD84AB0D}","global_id":"cd34c7a1-1407-46b1-9ab4-284eacbf6167"}},{"type":"Feature","geometry":{"type":"Polygon","coordinates":[[[-86.23018,30.66109],[-86.22974,30.66094],[-86.22932,30.66007],[-86.22929,30.65968],[-86.22947,30.65896],[-86.22939,30.65876],[-86.22911,30.6588],[-86.22843,30.65923],[-86.22821,30.6602],[-86.2281,30.66031],[-86.22797,30.66024],[-86.22783,30.65902],[-86.22832,30.65824],[-86.22822,30.65803],[-86.22788,30.65789],[-86.22675,30.65856],[-86.22706,30.65921],[-86.22697,30.65943],[-86.22671,30.65948],[-86.22597,30.65912],[-86.22571,30.65919],[-86.22551,30.66077],[-86.22523,30.66079],[-86.22491,30.66043],[-86.22476,30.65997],[-86.22478,30.65953],[-86.22561,30.65785],[-86.22523,30.6572],[-86.22548,30.65679],[-86.2249,30.6562],[-86.22422,30.65597],[-86.22398,30.65544],[-86.22457,30.65462],[-86.22564,30.65365],[-86.22634,30.65358],[-86.22621,30.65333],[-86.2253,30.65266],[-86.22471,30.65245],[-86.22324,30.65263],[-86.2224,30.65252],[-86.22214,30.65235],[-86.22201,30.65202],[-86.22228,30.65136],[-86.22195,30.65132],[-86.22159,30.65166],[-86.22142,30.65265],[-86.22129,30.6528],[-86.2206,30.65287],[-86.21945,30.65233],[-86.21907,30.65229],[-86.21857,30.65286],[-86.21851,30.65345],[-86.21832,30.65386],[-86.21788,30.65423],[-86.21766,30.65426],[-86.21758,30.65415],[-86.21769,30.65369],[-86.21865,30.65167],[-86.21904,30.65142],[-86.21964,30.65143],[-86.22046,30.65117],[-86.22094,30.65011],[-86.22167,30.64985],[-86.22244,30.64932],[-86.22229,30.64922],[-86.22137,30.64936],[-86.22107,30.64908],[-86.21984,30.64894],[-86.21967,30.64878],[-86.22041,30.64875],[-86.22076,30.6483],[-86.2221,30.64721],[-86.22234,30.64666],[-86.22211,30.6463],[-86.22215,30.64613],[-86.22415,30.64403],[-86.22394,30.64371],[-86.22396,30.6431],[-86.22274,30.64336],[-86.22192,30.64324],[-86.22049,30.64283],[-86.22004,30.64228],[-86.21962,30.64214],[-86.21957,30.64201],[-86.22131,30.64157],[-86.22295,30.64193],[-86.22383,30.64145],[-86.22513,30.64119],[-86.22657,30.64057],[-86.22728,30.64045],[-86.22738,30.64028],[-86.22686,30.63946],[-86.22692,30.63922],[-86.22818,30.63961],[-86.22926,30.64032],[-86.22933,30.64016],[-86.22911,30.63862],[-86.22922,30.63837],[-86.22956,30.63818],[-86.23058,30.63888],[-86.23072,30.63931],[-86.23059,30.63973],[-86.23002,30.64014],[-86.22981,30.64061],[-86.23008,30.64134],[-86.23068,30.64198],[-86.23037,30.64201],[-86.22974,30.64161],[-86.22928,30.64158],[-86.22977,30.64325],[-86.23151,30.64446],[-86.23239,30.64474],[-86.23438,30.64575],[-86.23372,30.64584],[-86.23349,30.6461],[-86.23353,30.64685],[-86.2334,30.64778],[-86.23365,30.64852],[-86.23415,30.64917],[-86.23382,30.64975],[-86.23345,30.64991],[-86.23114,30.64927],[-86.22985,30.64932],[-86.22974,30.64954],[-86.23,30.65029],[-86.2299,30.65136],[-86.22884,30.6522],[-86.22925,30.65313],[-86.23043,30.6544],[-86.2304,30.65457],[-86.23008,30.65473],[-86.23017,30.65542],[-86.23001,30.65603],[-86.22963,30.65619],[-86.22901,30.65619],[-86.22917,30.65644],[-86.22917,30.65673],[-86.22989,30.65714],[-86.2301,30.65748],[-86.2301,30.65932],[-86.23061,30.66032],[-86.2305,30.66089],[-86.23018,30.66109]]]},"properties":{"fire_id":"ufid:2022-FLEAQ-000027","source_collection":"history-2022","source_objectid":13570,"incident_name":"Spring Day","mapped_acres":404.651668956584,"mapped_acres_source":"poly_Acres_AutoCalc_fallback","gis_acres":null,"auto_acres":404.651668956584,"reported_acres":2200.0,"percent_contained":100.0,"state":"FL","state_wfigs":"US-FL","county":"Walton","discovery_time_utc":"2022-02-22T17:15:00Z","perimeter_time_utc":null,"perimeter_edit_time_utc":"2022-02-28T20:32:48Z","incident_modified_time_utc":"2022-02-23T21:56:37Z","containment_time_utc":null,"control_time_utc":null,"fire_out_time_utc":null,"fire_cause":"Human","fire_cause_general":null,"map_method":"Image Interpretation","source_dataset":"2022 NIFS","unique_fire_identifier":"2022-FLEAQ-000027","irwin_id":"{C20862EF-A313-4271-A25E-5BD070C96A4F}","global_id":"c22e450f-2531-4b31-b3a1-1fdc6f7c4440"}},{"type":"Feature","geometry":{"type":"Polygon","coordinates":[[[-86.74747,30.53929],[-86.747,30.53896],[-86.74704,30.53878],[-86.74674,30.53854],[-86.74665,30.53819],[-86.74587,30.53744],[-86.74512,30.53644],[-86.74687,30.53532],[-86.74673,30.53482],[-86.74642,30.53475],[-86.74434,30.53563],[-86.74328,30.53455],[-86.7426,30.53406],[-86.74201,30.53312],[-86.73819,30.52934],[-86.73791,30.52889],[-86.73746,30.52862],[-86.73726,30.52826],[-86.73592,30.52701],[-86.73578,30.52665],[-86.73525,30.52605],[-86.73475,30.52575],[-86.73468,30.52551],[-86.73537,30.52561],[-86.7378,30.52404],[-86.74795,30.51837],[-86.74944,30.51727],[-86.75019,30.51707],[-86.76026,30.51138],[-86.76201,30.51034],[-86.76223,30.51007],[-86.7625,30.51021],[-86.76457,30.50887],[-86.76966,30.50605],[-86.77104,30.50541],[-86.77124,30.50551],[-86.7714,30.50596],[-86.77161,30.50598],[-86.77181,30.50572],[-86.77132,30.50545],[-86.7714,30.50511],[-86.77197,30.50486],[-86.77203,30.50464],[-86.77238,30.50442],[-86.77257,30.50445],[-86.77292,30.50486],[-86.77295,30.50452],[-86.77276,30.50435],[-86.77283,30.50409],[-86.77394,30.50428],[-86.77406,30.50466],[-86.77487,30.505],[-86.77439,30.50518],[-86.77446,30.50527],[-86.7759,30.50554],[-86.77581,30.50563],[-86.77468,30.5055],[-86.77459,30.50586],[-86.77418,30.50585],[-86.77418,30.50636],[-86.77389,30.50619],[-86.77358,30.50563],[-86.77301,30.50512],[-86.77274,30.50507],[-86.77267,30.50518],[-86.77282,30.50572],[-86.7733,30.50659],[-86.77415,30.50772],[-86.7745,30.50791],[-86.77544,30.50938],[-86.77559,30.50994],[-86.77625,30.51059],[-86.77721,30.51203],[-86.77795,30.51289],[-86.77845,30.51384],[-86.77913,30.51443],[-86.78029,30.51641],[-86.78142,30.51784],[-86.78164,30.51838],[-86.78128,30.51898],[-86.78095,30.51904],[-86.78038,30.5196],[-86.77973,30.5198],[-86.77922,30.52036],[-86.7776,30.52124],[-86.77706,30.52148],[-86.7767,30.52132],[-86.77625,30.52154],[-86.77582,30.52216],[-86.77508,30.5227],[-86.77485,30.5227],[-86.77504,30.52257],[-86.77526,30.52211],[-86.77436,30.52209],[-86.77385,30.52225],[-86.77373,30.52234],[-86.77373,30.52265],[-86.77342,30.52287],[-86.77333,30.52319],[-86.77264,30.52331],[-86.77235,30.52395],[-86.77255,30.52413],[-86.77228,30.5244],[-86.77108,30.52489],[-86.77082,30.52517],[-86.77077,30.52542],[-86.77014,30.52544],[-86.76975,30.52569],[-86.7696,30.52537],[-86.76941,30.52593],[-86.76847,30.52665],[-86.76787,30.52672],[-86.76475,30.52871],[-86.76422,30.52882],[-86.76351,30.52927],[-86.76331,30.52955],[-86.76155,30.53028],[-86.76079,30.53086],[-86.75999,30.53104],[-86.75986,30.53132],[-86.75826,30.53222],[-86.75819,30.53249],[-86.75848,30.53283],[-86.75863,30.5333],[-86.75856,30.53358],[-86.75837,30.53374],[-86.75819,30.53375],[-86.75801,30.53356],[-86.75805,30.53294],[-86.75782,30.53286],[-86.75773,30.53268],[-86.75747,30.53265],[-86.75669,30.53303],[-86.75657,30.53321],[-86.75639,30.53312],[-86.75639,30.53325],[-86.75714,30.53348],[-86.7569,30.53384],[-86.75702,30.53415],[-86.75637,30.53375],[-86.75639,30.53339],[-86.75442,30.53425],[-86.75398,30.53411],[-86.75336,30.53485],[-86.75262,30.53536],[-86.75073,30.53641],[-86.75005,30.53653],[-86.7498,30.53671],[-86.7497,30.53698],[-86.748,30.53797],[-86.74714,30.53824],[-86.74714,30.53869],[-86.74744,30.53901],[-86.74747,30.53929]]]},"properties":{"fire_id":"ufid:2022-FLEAQ-000086","source_collection":"history-2022","source_objectid":14100,"incident_name":"713 WF","mapped_acres":1845.0,"mapped_acres_source":"poly_GISAcres","gis_acres":1845.0,"auto_acres":1865.28426436178,"reported_acres":1845.0,"percent_contained":100.0,"state":"FL","state_wfigs":"US-FL","county":"Okaloosa","discovery_time_utc":"2022-10-05T16:15:00Z","perimeter_time_utc":"2022-10-05T21:15:00Z","perimeter_edit_time_utc":"2022-12-15T19:24:56Z","incident_modified_time_utc":"2022-10-06T19:27:50Z","containment_time_utc":null,"control_time_utc":null,"fire_out_time_utc":null,"fire_cause":"Human","fire_cause_general":null,"map_method":"Image Interpretation","source_dataset":"2022 NIFS","unique_fire_identifier":"2022-FLEAQ-000086","irwin_id":"{C42E6BCA-4497-4948-A839-4953127C90AE}","global_id":"edacf639-283a-4554-8167-55ff7de639ee"}},{"type":"Feature","geometry":{"type":"Polygon","coordinates":[[[-86.83126,30.51645],[-86.83097,30.5163],[-86.83111,30.51603],[-86.83099,30.5159],[-86.83019,30.51595],[-86.83019,30.51616],[-86.83047,30.51627],[-86.83037,30.51638],[-86.8297,30.51622],[-86.82963,30.51608],[-86.82989,30.51591],[-86.82935,30.51576],[-86.8292,30.51532],[-86.82902,30.51539],[-86.82887,30.51568],[-86.8283,30.5156],[-86.82825,30.51596],[-86.82798,30.51587],[-86.82795,30.51573],[-86.82843,30.51479],[-86.82857,30.51469],[-86.82878,30.51475],[-86.82878,30.51424],[-86.82902,30.51367],[-86.82905,30.51316],[-86.8294,30.51268],[-86.8295,30.51208],[-86.82966,30.51196],[-86.83012,30.5107],[-86.82988,30.51046],[-86.82989,30.51013],[-86.83001,30.50995],[-86.83019,30.51007],[-86.83037,30.50994],[-86.83051,30.50914],[-86.83073,30.50881],[-86.83093,30.50686],[-86.83111,30.50621],[-86.83103,30.50585],[-86.83121,30.50351],[-86.83153,30.50162],[-86.83143,30.50117],[-86.83165,30.50036],[-86.83157,30.50004],[-86.83174,30.49944],[-86.83173,30.49832],[-86.83202,30.49767],[-86.83185,30.49762],[-86.83183,30.49749],[-86.83195,30.49692],[-86.83228,30.49668],[-86.83216,30.49664],[-86.83189,30.49683],[-86.83174,30.49666],[-86.8319,30.49614],[-86.83175,30.49569],[-86.83191,30.49533],[-86.83186,30.4947],[-86.83199,30.49443],[-86.83185,30.49398],[-86.83199,30.49372],[-86.83202,30.49096],[-86.83223,30.49054],[-86.83256,30.49056],[-86.8329,30.49023],[-86.83342,30.49003],[-86.83376,30.48964],[-86.83423,30.48968],[-86.83456,30.4894],[-86.83414,30.48922],[-86.83378,30.48933],[-86.8336,30.48924],[-86.83279,30.48966],[-86.83218,30.4894],[-86.83211,30.48796],[-86.83224,30.48562],[-86.83215,30.48544],[-86.83235,30.48454],[-86.83222,30.48424],[-86.83246,30.48349],[-86.83303,30.48298],[-86.83405,30.48248],[-86.83428,30.48216],[-86.83468,30.48215],[-86.83549,30.48182],[-86.83657,30.48192],[-86.83684,30.48181],[-86.83754,30.48186],[-86.83801,30.48215],[-86.83805,30.48198],[-86.83789,30.48167],[-86.83756,30.48151],[-86.8372,30.48161],[-86.83651,30.48145],[-86.83635,30.48095],[-86.83657,30.48075],[-86.83747,30.48077],[-86.83742,30.4805],[-86.83721,30.4803],[-86.83732,30.47999],[-86.8378,30.48008],[-86.83774,30.48053],[-86.83819,30.48051],[-86.8383,30.48041],[-86.83819,30.48005],[-86.83846,30.47971],[-86.83899,30.48023],[-86.83943,30.48024],[-86.8398,30.48075],[-86.84014,30.48079],[-86.84042,30.48114],[-86.84034,30.48185],[-86.84097,30.48188],[-86.84112,30.48215],[-86.84133,30.48205],[-86.84182,30.48235],[-86.84191,30.48256],[-86.84174,30.48328],[-86.84187,30.48346],[-86.84221,30.48339],[-86.84267,30.48366],[-86.84311,30.48436],[-86.8434,30.48455],[-86.84358,30.48427],[-86.84394,30.48437],[-86.84421,30.4843],[-86.84479,30.48459],[-86.84502,30.48495],[-86.84529,30.48486],[-86.84549,30.48497],[-86.84576,30.48526],[-86.84587,30.48562],[-86.84584,30.48616],[-86.8472,30.4864],[-86.84724,30.48658],[-86.847,30.48674],[-86.84655,30.48643],[-86.84643,30.48649],[-86.8466,30.48679],[-86.84649,30.48706],[-86.84667,30.48724],[-86.84643,30.48742],[-86.84635,30.48778],[-86.84646,30.48787],[-86.8468,30.48776],[-86.84682,30.48724],[-86.84718,30.48716],[-86.84762,30.48733],[-86.84789,30.48706],[-86.84771,30.4867],[-86.84815,30.48642],[-86.84906,30.48628],[-86.84948,30.48638],[-86.84937,30.48715],[-86.84948,30.48832],[-86.84911,30.48899],[-86.84879,30.48911],[-86.84834,30.48904],[-86.84798,30.48919],[-86.8478,30.4882],[-86.84747,30.48816],[-86.84736,30.4885],[-86.84755,30.48893],[-86.84737,30.4894],[-86.84744,30.48954],[-86.84762,30.48958],[-86.8478,30.48943],[-86.84839,30.48967],[-86.84864,30.48964],[-86.84879,30.49004],[-86.84927,30.49038],[-86.8492,30.49142],[-86.84904,30.49149],[-86.84885,30.49137],[-86.84886,30.49092],[-86.84861,30.49038],[-86.84843,30.49035],[-86.84823,30.49083],[-86.84866,30.49137],[-86.84801,30.49155],[-86.84778,30.49191],[-86.84836,30.49252],[-86.84841,30.49281],[-86.84813,30.49326],[-86.84822,30.49394],[-86.84768,30.49431],[-86.84714,30.49443],[-86.84728,30.49469],[-86.84725,30.49506],[-86.8477,30.49578],[-86.84718,30.49601],[-86.84676,30.49593],[-86.84641,30.49574],[-86.84628,30.49539],[-86.84596,30.49529],[-86.84551,30.49488],[-86.84527,30.49486],[-86.84538,30.49506],[-86.84516,30.49596],[-86.84529,30.49623],[-86.84571,30.49617],[-86.84601,30.49656],[-86.84638,30.49615],[-86.84695,30.49628],[-86.84678,30.49673],[-86.84626,30.49684],[-86.84648,30.49692],[-86.84655,30.49716],[-86.8461,30.49729],[-86.84583,30.4972],[-86.84522,30.49728],[-86.84509,30.49722],[-86.8452,30.49695],[-86.84559,30.49704],[-86.84541,30.49674],[-86.84474,30.49669],[-86.84448,30.49652],[-86.84416,30.49671],[-86.84365,30.4967],[-86.84351,30.49596],[-86.84371,30.49578],[-86.84376,30.49497],[-86.84337,30.49491],[-86.84299,30.49448],[-86.8426,30.49442],[-86.84237,30.49398],[-86.843,30.49393],[-86.84337,30.49464],[-86.84367,30.49472],[-86.84399,30.49425],[-86.84259,30.49335],[-86.84191,30.49371],[-86.84205,30.49434],[-86.84243,30.49479],[-86.84247,30.49509],[-86.84268,30.49524],[-86.84246,30.49538],[-86.8425,30.49555],[-86.84178,30.49587],[-86.84158,30.49638],[-86.8413,30.49647],[-86.84131,30.49668],[-86.84115,30.49686],[-86.84172,30.49719],[-86.84139,30.4974],[-86.84166,30.49815],[-86.84266,30.49823],[-86.84295,30.49844],[-86.84338,30.4983],[-86.84337,30.49803],[-86.84369,30.49767],[-86.84385,30.49713],[-86.8447,30.49709],[-86.84482,30.49794],[-86.84502,30.49803],[-86.84487,30.49833],[-86.84466,30.49826],[-86.84466,30.49847],[-86.84444,30.49865],[-86.84484,30.49858],[-86.84523,30.49901],[-86.84469,30.49946],[-86.84577,30.50006],[-86.84592,30.50036],[-86.84628,30.50065],[-86.84637,30.50023],[-86.84628,30.50006],[-86.84604,30.50006],[-86.84587,30.49964],[-86.84595,30.49919],[-86.84565,30.49901],[-86.84576,30.49865],[-86.84567,30.49803],[-86.8458,30.49764],[-86.8461,30.49776],[-86.84765,30.49773],[-86.84762,30.4983],[-86.84687,30.49883],[-86.84699,30.49893],[-86.84734,30.49883],[-86.84753,30.49859],[-86.84789,30.4986],[-86.84853,30.4983],[-86.84805,30.49778],[-86.84816,30.49742],[-86.84786,30.49722],[-86.84826,30.49704],[-86.84774,30.4965],[-86.84775,30.49626],[-86.84798,30.49607],[-86.84832,30.49616],[-86.84896,30.49669],[-86.84915,30.49722],[-86.84946,30.49745],[-86.84938,30.49798],[-86.84902,30.49847],[-86.84913,30.49892],[-86.84895,30.49946],[-86.84906,30.49973],[-86.84896,30.50036],[-86.84911,30.50063],[-86.84895,30.50088],[-86.84903,30.50171],[-86.84892,30.50292],[-86.84877,30.50326],[-86.84886,30.5045],[-86.84877,30.50506],[-86.84892,30.50531],[-86.84877,30.5056],[-86.84891,30.50594],[-86.84878,30.50639],[-86.84897,30.50818],[-86.84886,30.5107],[-86.84894,30.51124],[-86.84883,30.51268],[-86.84858,30.51376],[-86.84868,30.51403],[-86.84851,30.5143],[-86.84877,30.51457],[-86.84538,30.51483],[-86.84502,30.51498],[-86.84394,30.51492],[-86.84295,30.51517],[-86.84178,30.51519],[-86.84151,30.51534],[-86.84124,30.51527],[-86.84094,30.51543],[-86.83971,30.51537],[-86.83852,30.51555],[-86.83825,30.5157],[-86.83774,30.51559],[-86.83693,30.51588],[-86.83567,30.51587],[-86.8354,30.51598],[-86.83494,30.5159],[-86.83414,30.5162],[-86.83369,30.51607],[-86.83342,30.51624],[-86.83288,30.51616],[-86.83207,30.51638],[-86.83153,30.51629],[-86.83126,30.51645]]]},"properties":{"fire_id":"ufid:2022-FLEAQ-000089","source_collection":"history-2022","source_objectid":14143,"incident_name":"Thursday WF","mapped_acres":531.0,"mapped_acres_source":"poly_GISAcres","gis_acres":531.0,"auto_acres":1441.29347184395,"reported_acres":531.0,"percent_contained":100.0,"state":"FL","state_wfigs":"US-FL","county":"Santa Rosa","discovery_time_utc":"2022-10-06T16:30:00Z","perimeter_time_utc":"2022-10-06T21:30:00Z","perimeter_edit_time_utc":"2022-12-15T19:08:26Z","incident_modified_time_utc":"2022-10-13T15:47:45Z","containment_time_utc":null,"control_time_utc":null,"fire_out_time_utc":null,"fire_cause":"Human","fire_cause_general":null,"map_method":"Image Interpretation","source_dataset":"2022 NIFS","unique_fire_identifier":"2022-FLEAQ-000089","irwin_id":"{622212A7-6D88-494B-B883-A167A8885E20}","global_id":"9ec3d05f-ba0e-4a41-b5fe-c1e7e8750138"}}]}
