{"type":"FeatureCollection","features":[{"type":"Feature","geometry":{"type":"MultiPolygon","coordinates":[[[[-81.17022,31.61147],[-81.17108,31.61094],[-81.17139,31.61095],[-81.17154,31.61074],[-81.17204,31.61081],[-81.17232,31.61026],[-81.17358,31.60963],[-81.17429,31.60974],[-81.17506,31.60954],[-81.17538,31.6093],[-81.17583,31.60927],[-81.17609,31.60931],[-81.1766,31.6097],[-81.17667,31.61027],[-81.17639,31.6106],[-81.17633,31.61119],[-81.17548,31.61212],[-81.17465,31.61221],[-81.17485,31.61246],[-81.1746,31.61293],[-81.17387,31.61329],[-81.17394,31.61371],[-81.1734,31.61393],[-81.17311,31.61445],[-81.1751,31.61367],[-81.17622,31.61437],[-81.17649,31.61505],[-81.17594,31.6157],[-81.17513,31.6162],[-81.17498,31.61651],[-81.17421,31.61629],[-81.17291,31.61728],[-81.17277,31.61757],[-81.17313,31.61785],[-81.17301,31.61827],[-81.17269,31.61839],[-81.1723,31.61817],[-81.17205,31.61831],[-81.17205,31.61865],[-81.1727,31.619],[-81.17293,31.61937],[-81.1727,31.6198],[-81.17264,31.62073],[-81.17229,31.62084],[-81.17214,31.62104],[-81.17232,31.62182],[-81.17297,31.62223],[-81.17229,31.62269],[-81.17228,31.62355],[-81.17266,31.62393],[-81.1729,31.62453],[-81.17346,31.62429],[-81.17394,31.62433],[-81.17492,31.62611],[-81.17574,31.62708],[-81.17653,31.62743],[-81.17772,31.62842],[-81.17766,31.62888],[-81.17853,31.63045],[-81.18016,31.63195],[-81.18112,31.63311],[-81.18216,31.63401],[-81.18252,31.63414],[-81.18308,31.63517],[-81.18309,31.63574],[-81.18289,31.63581],[-81.18235,31.63523],[-81.18191,31.63546],[-81.18189,31.63574],[-81.18243,31.63599],[-81.18236,31.63625],[-81.18256,31.63674],[-81.18256,31.63712],[-81.18227,31.63744],[-81.18164,31.63737],[-81.18152,31.6375],[-81.18221,31.63774],[-81.18299,31.63753],[-81.18335,31.63687],[-81.1834,31.63645],[-81.18364,31.63639],[-81.18392,31.63661],[-81.18412,31.63733],[-81.18374,31.63712],[-81.18349,31.63732],[-81.18338,31.63761],[-81.18433,31.63821],[-81.18448,31.6385],[-81.18446,31.63902],[-81.18427,31.63921],[-81.18383,31.63838],[-81.18336,31.63835],[-81.18296,31.63861],[-81.18267,31.63892],[-81.18297,31.63918],[-81.18213,31.63971],[-81.18203,31.6401],[-81.18227,31.64042],[-81.18135,31.64175],[-81.18091,31.64203],[-81.18043,31.64207],[-81.17996,31.64185],[-81.17963,31.64245],[-81.1794,31.6425],[-81.17899,31.64225],[-81.1789,31.64186],[-81.17927,31.64145],[-81.17875,31.64143],[-81.1785,31.64198],[-81.17922,31.64292],[-81.17784,31.643],[-81.17771,31.64313],[-81.17808,31.64356],[-81.17807,31.64398],[-81.1784,31.64451],[-81.17831,31.64489],[-81.17864,31.64509],[-81.1787,31.64541],[-81.17837,31.64559],[-81.17778,31.64563],[-81.17785,31.64519],[-81.17775,31.64487],[-81.17695,31.64586],[-81.17697,31.6461],[-81.17731,31.6464],[-81.17662,31.64688],[-81.1758,31.64644],[-81.17557,31.64586],[-81.17516,31.64567],[-81.17501,31.64531],[-81.17446,31.6456],[-81.17416,31.64506],[-81.17364,31.64548],[-81.1728,31.6455],[-81.17191,31.64516],[-81.17138,31.64546],[-81.17124,31.64524],[-81.17149,31.64474],[-81.17143,31.64462],[-81.1712,31.6446],[-81.17071,31.64485],[-81.17026,31.64473],[-81.17,31.64449],[-81.16962,31.64345],[-81.16877,31.64331],[-81.16821,31.643],[-81.16817,31.64225],[-81.16845,31.64205],[-81.1682,31.64181],[-81.16845,31.64112],[-81.16777,31.64064],[-81.16762,31.64075],[-81.16714,31.64056],[-81.16697,31.64018],[-81.16614,31.63967],[-81.16642,31.63939],[-81.16632,31.63912],[-81.16694,31.63922],[-81.16712,31.63914],[-81.16664,31.63886],[-81.16648,31.63862],[-81.16655,31.63836],[-81.16685,31.6381],[-81.16677,31.63762],[-81.1664,31.637],[-81.16581,31.63651],[-81.16616,31.63558],[-81.16651,31.63534],[-81.16676,31.63549],[-81.16678,31.6353],[-81.16654,31.63519],[-81.16574,31.63541],[-81.16548,31.63513],[-81.16563,31.63485],[-81.16548,31.6347],[-81.16602,31.63451],[-81.16674,31.63331],[-81.16652,31.63278],[-81.166,31.6322],[-81.16591,31.63186],[-81.1654,31.63159],[-81.16548,31.63128],[-81.16585,31.63087],[-81.16622,31.62972],[-81.16563,31.62912],[-81.1653,31.62923],[-81.16494,31.62911],[-81.16459,31.62917],[-81.1636,31.6296],[-81.1631,31.62944],[-81.16281,31.6287],[-81.16294,31.62827],[-81.16252,31.62798],[-81.16242,31.62762],[-81.16258,31.62744],[-81.16294,31.62761],[-81.1629,31.62725],[-81.16257,31.62717],[-81.16252,31.6269],[-81.16237,31.62681],[-81.16176,31.62679],[-81.16132,31.62652],[-81.16054,31.62649],[-81.16054,31.6263],[-81.16085,31.62617],[-81.16095,31.62586],[-81.16126,31.62567],[-81.16126,31.62544],[-81.16105,31.62529],[-81.16112,31.6252],[-81.16002,31.62456],[-81.15986,31.62468],[-81.15986,31.62487],[-81.15976,31.62485],[-81.15945,31.6246],[-81.15928,31.62415],[-81.15885,31.62392],[-81.15947,31.62367],[-81.16093,31.6237],[-81.16141,31.62322],[-81.16245,31.6231],[-81.16251,31.6228],[-81.16231,31.62242],[-81.16299,31.62258],[-81.16265,31.62223],[-81.16355,31.62206],[-81.16449,31.62225],[-81.16463,31.62197],[-81.16489,31.62183],[-81.1647,31.62087],[-81.1639,31.62041],[-81.16344,31.62068],[-81.16327,31.6203],[-81.16338,31.61969],[-81.16307,31.61906],[-81.16342,31.61879],[-81.16363,31.61893],[-81.16374,31.61943],[-81.16416,31.61947],[-81.16448,31.61932],[-81.16499,31.61868],[-81.16466,31.61861],[-81.16436,31.61836],[-81.16391,31.6183],[-81.16405,31.61741],[-81.16444,31.61751],[-81.16454,31.61721],[-81.16503,31.61738],[-81.16605,31.61713],[-81.1656,31.61694],[-81.16454,31.6168],[-81.1642,31.61654],[-81.16389,31.61654],[-81.16375,31.61568],[-81.1638,31.61551],[-81.16429,31.61568],[-81.16452,31.61551],[-81.16399,31.61482],[-81.1639,31.61357],[-81.16493,31.61296],[-81.16536,31.61224],[-81.16566,31.61124],[-81.16623,31.61095],[-81.16693,31.61115],[-81.16693,31.61166],[-81.16649,31.61224],[-81.16666,31.61283],[-81.16759,31.61257],[-81.1677,31.61203],[-81.16843,31.61166],[-81.16801,31.61107],[-81.16836,31.61085],[-81.16827,31.61048],[-81.16849,31.61024],[-81.16858,31.60988],[-81.16901,31.61028],[-81.16975,31.61022],[-81.16963,31.61046],[-81.17039,31.61064],[-81.17048,31.61082],[-81.16992,31.61121],[-81.17022,31.61147]]],[[[-81.15404,31.65088],[-81.15411,31.65081],[-81.15411,31.65088],[-81.15404,31.65088]]],[[[-81.15404,31.65088],[-81.1551,31.65139],[-81.15587,31.65121],[-81.15678,31.65143],[-81.15765,31.65131],[-81.1577,31.65171],[-81.15805,31.6517],[-81.15864,31.65195],[-81.15863,31.65234],[-81.15826,31.65267],[-81.15834,31.65292],[-81.15824,31.65329],[-81.15938,31.65457],[-81.15945,31.65524],[-81.1598,31.6559],[-81.15983,31.65621],[-81.16011,31.65639],[-81.15979,31.65652],[-81.15972,31.6567],[-81.15975,31.65825],[-81.16009,31.65874],[-81.15952,31.65902],[-81.1598,31.65945],[-81.15988,31.66002],[-81.15978,31.6606],[-81.15953,31.66082],[-81.15964,31.66119],[-81.15933,31.66119],[-81.15935,31.66159],[-81.15915,31.66198],[-81.15916,31.66224],[-81.15795,31.66401],[-81.15799,31.66426],[-81.15765,31.66442],[-81.15809,31.66605],[-81.15764,31.66661],[-81.15771,31.66696],[-81.15686,31.66727],[-81.15728,31.66752],[-81.15724,31.66796],[-81.15706,31.66809],[-81.15673,31.66807],[-81.15625,31.66763],[-81.15603,31.66765],[-81.15625,31.6681],[-81.15667,31.66842],[-81.15665,31.66897],[-81.15619,31.66928],[-81.15589,31.66918],[-81.15612,31.66889],[-81.15609,31.66876],[-81.15538,31.66897],[-81.15486,31.66881],[-81.15448,31.66851],[-81.15332,31.66833],[-81.15047,31.66734],[-81.14964,31.66636],[-81.14941,31.6652],[-81.14956,31.66458],[-81.14943,31.66422],[-81.14945,31.66373],[-81.14874,31.66316],[-81.14799,31.6634],[-81.14761,31.66326],[-81.14734,31.66244],[-81.14731,31.66158],[-81.1478,31.66077],[-81.14828,31.66075],[-81.14815,31.66042],[-81.14859,31.65997],[-81.14964,31.65968],[-81.15046,31.65873],[-81.15108,31.65848],[-81.15141,31.65752],[-81.1515,31.65683],[-81.1523,31.65573],[-81.15231,31.65552],[-81.15201,31.65502],[-81.15209,31.65452],[-81.15195,31.65406],[-81.15208,31.6537],[-81.15191,31.65342],[-81.15216,31.65274],[-81.15197,31.65212],[-81.15224,31.65129],[-81.15321,31.65081],[-81.15347,31.65093],[-81.15404,31.65088]]],[[[-81.13487,31.68283],[-81.13649,31.67985],[-81.13673,31.67895],[-81.1368,31.67803],[-81.1378,31.67564],[-81.13809,31.67537],[-81.13854,31.67532],[-81.13893,31.67509],[-81.13934,31.67454],[-81.13956,31.67445],[-81.13993,31.67449],[-81.1403,31.67494],[-81.14106,31.67504],[-81.14151,31.67558],[-81.14045,31.67541],[-81.1406,31.67574],[-81.14017,31.67622],[-81.14012,31.67705],[-81.13977,31.67765],[-81.13988,31.67867],[-81.14054,31.67855],[-81.1413,31.67793],[-81.14173,31.6779],[-81.14378,31.67837],[-81.14471,31.67876],[-81.14596,31.67866],[-81.14713,31.67961],[-81.14696,31.67992],[-81.14754,31.67996],[-81.14755,31.6805],[-81.14796,31.68045],[-81.14783,31.68069],[-81.14714,31.68094],[-81.14686,31.68142],[-81.14653,31.68154],[-81.14617,31.68203],[-81.14522,31.68264],[-81.14413,31.68282],[-81.14377,31.68322],[-81.14421,31.6835],[-81.14539,31.68326],[-81.14585,31.68444],[-81.14673,31.68495],[-81.14677,31.68549],[-81.14657,31.68574],[-81.14719,31.68604],[-81.14734,31.68625],[-81.14776,31.68635],[-81.14827,31.68725],[-81.14832,31.68807],[-81.14821,31.68837],[-81.14743,31.68838],[-81.14697,31.68825],[-81.14674,31.68844],[-81.1468,31.68901],[-81.14759,31.68917],[-81.14825,31.68953],[-81.14767,31.69002],[-81.14801,31.69088],[-81.14773,31.69101],[-81.14739,31.69151],[-81.1468,31.69174],[-81.14669,31.69213],[-81.14678,31.69249],[-81.14775,31.6926],[-81.14817,31.69281],[-81.14884,31.69278],[-81.14928,31.69252],[-81.14993,31.69267],[-81.15024,31.69293],[-81.15013,31.69314],[-81.14977,31.69316],[-81.14932,31.6929],[-81.14915,31.69294],[-81.14915,31.69308],[-81.14962,31.69344],[-81.15038,31.69372],[-81.15072,31.69364],[-81.15075,31.69333],[-81.15136,31.69296],[-81.15216,31.69191],[-81.15248,31.69192],[-81.15225,31.69253],[-81.15248,31.69289],[-81.1533,31.69253],[-81.15354,31.6926],[-81.1534,31.695],[-81.15241,31.69656],[-81.15155,31.69705],[-81.1483,31.69799],[-81.14587,31.69834],[-81.1448,31.69868],[-81.14239,31.69877],[-81.13975,31.69825],[-81.13725,31.69797],[-81.13009,31.69461],[-81.12926,31.69272],[-81.1292,31.69158],[-81.12947,31.69021],[-81.13036,31.688],[-81.1335,31.68475],[-81.13487,31.68283]]]]},"properties":{"fire_id":"ufid:2022-GAGAS-082202","source_collection":"history-2022","source_objectid":209,"incident_name":"St. Catherines Island","mapped_acres":2213.0,"mapped_acres_source":"poly_GISAcres","gis_acres":2213.0,"auto_acres":2343.57566082723,"reported_acres":2213.0,"percent_contained":100.0,"state":"GA","state_wfigs":"US-GA","county":"Liberty","discovery_time_utc":"2022-06-11T19:30:00Z","perimeter_time_utc":"2022-06-12T00:30:00Z","perimeter_edit_time_utc":"2022-08-03T16:00:14Z","incident_modified_time_utc":"2022-07-05T14:32:17Z","containment_time_utc":null,"control_time_utc":null,"fire_out_time_utc":null,"fire_cause":"Natural","fire_cause_general":null,"map_method":"Image Interpretation","source_dataset":"2022 NIFS","unique_fire_identifier":"2022-GAGAS-082202","irwin_id":"{0DB666B2-65A1-4F12-8C29-77B0F95B73A8}","global_id":"62cc1b10-39ea-4db5-9b07-f513f36baf24"}},{"type":"Feature","geometry":{"type":"MultiPolygon","coordinates":[[[[-81.35073,32.12229],[-81.35055,32.12142],[-81.35069,32.12105],[-81.35106,32.12107],[-81.35137,32.12008],[-81.35167,32.12],[-81.35214,32.12021],[-81.35246,32.12057],[-81.3526,32.12098],[-81.35234,32.12131],[-81.35229,32.12194],[-81.35164,32.12224],[-81.35073,32.12229]]],[[[-81.3621,32.123],[-81.36181,32.12277],[-81.36182,32.12233],[-81.36148,32.1221],[-81.36127,32.1209],[-81.36108,32.12067],[-81.36075,32.1207],[-81.36075,32.12135],[-81.36062,32.12164],[-81.3595,32.12223],[-81.35798,32.12068],[-81.35796,32.12031],[-81.35847,32.11944],[-81.35981,32.11917],[-81.3605,32.11865],[-81.36044,32.11843],[-81.35987,32.11842],[-81.35943,32.11817],[-81.35926,32.11763],[-81.35836,32.11773],[-81.35727,32.1182],[-81.35667,32.11874],[-81.35432,32.12034],[-81.35389,32.12044],[-81.35354,32.12035],[-81.35343,32.1201],[-81.35372,32.11875],[-81.3534,32.11886],[-81.35296,32.1198],[-81.35264,32.11986],[-81.35195,32.11924],[-81.35182,32.11847],[-81.35098,32.1179],[-81.35088,32.11758],[-81.35117,32.11734],[-81.35277,32.11681],[-81.35315,32.11692],[-81.35369,32.11746],[-81.35398,32.11729],[-81.35435,32.11753],[-81.35451,32.11739],[-81.35443,32.11719],[-81.35525,32.11683],[-81.3554,32.1163],[-81.35562,32.11601],[-81.35686,32.11547],[-81.35732,32.11606],[-81.35776,32.11616],[-81.35797,32.11655],[-81.35884,32.11639],[-81.35895,32.11624],[-81.35867,32.11578],[-81.35867,32.11518],[-81.35889,32.11512],[-81.35983,32.11535],[-81.36012,32.11521],[-81.36049,32.11452],[-81.36043,32.1139],[-81.36075,32.11354],[-81.36217,32.11395],[-81.36256,32.11423],[-81.36322,32.11434],[-81.3635,32.11471],[-81.36453,32.11527],[-81.36473,32.11577],[-81.36449,32.11635],[-81.36481,32.11633],[-81.36485,32.1168],[-81.36474,32.11697],[-81.36432,32.11705],[-81.36385,32.11733],[-81.36298,32.11747],[-81.36274,32.11766],[-81.36298,32.11799],[-81.36316,32.11887],[-81.36286,32.11924],[-81.36234,32.11956],[-81.36243,32.12063],[-81.36277,32.121],[-81.3627,32.12155],[-81.3628,32.1218],[-81.36299,32.12193],[-81.36361,32.12198],[-81.3638,32.12229],[-81.3636,32.12242],[-81.36325,32.12213],[-81.3625,32.12297],[-81.3621,32.123]]]]},"properties":{"fire_id":"ufid:2022-GAGAS-082201","source_collection":"history-2022","source_objectid":638,"incident_name":"Chatham Osteen","mapped_acres":258.0,"mapped_acres_source":"poly_GISAcres","gis_acres":258.0,"auto_acres":146.956995638167,"reported_acres":258.0,"percent_contained":97.0,"state":"GA","state_wfigs":"US-GA","county":"Chatham","discovery_time_utc":"2022-03-07T20:15:00Z","perimeter_time_utc":null,"perimeter_edit_time_utc":"2022-08-03T16:59:10Z","incident_modified_time_utc":"2022-03-15T13:28:07Z","containment_time_utc":null,"control_time_utc":null,"fire_out_time_utc":null,"fire_cause":"Human","fire_cause_general":null,"map_method":"Image Interpretation","source_dataset":"2022 NIFS","unique_fire_identifier":"2022-GAGAS-082201","irwin_id":"{AEFEEAA9-3241-4F9C-B7ED-C66D416D44AC}","global_id":"f7d31498-43e4-4ac2-ac1d-703ea9c78785"}},{"type":"Feature","geometry":{"type":"Polygon","coordinates":[[[-83.37772,34.55372],[-83.37976,34.55408],[-83.38122,34.55461],[-83.38215,34.55513],[-83.38162,34.55537],[-83.38051,34.5554],[-83.37993,34.55564],[-83.37909,34.5556],[-83.37829,34.55528],[-83.37782,34.55488],[-83.37772,34.55372]]]},"properties":{"fire_id":"ufid:2022-GACHF-220114","source_collection":"history-2022","source_objectid":4034,"incident_name":"Highway 17","mapped_acres":7.22,"mapped_acres_source":"poly_GISAcres","gis_acres":7.22,"auto_acres":12.6314754325012,"reported_acres":7.22,"percent_contained":null,"state":"GA","state_wfigs":"US-GA","county":"Stephens","discovery_time_utc":"2022-12-01T15:35:00Z","perimeter_time_utc":"2022-12-01T21:35:00Z","perimeter_edit_time_utc":"2022-12-06T20:56:21Z","incident_modified_time_utc":"2022-12-06T20:30:58Z","containment_time_utc":"2022-12-01T21:29:00Z","control_time_utc":"2022-12-03T16:20:00Z","fire_out_time_utc":"2022-12-06T15:20:00Z","fire_cause":"Undetermined","fire_cause_general":null,"map_method":"Hand Sketch","source_dataset":"2022 NIFS","unique_fire_identifier":"2022-GACHF-220114","irwin_id":"{019902E2-FE53-4EF8-BAE6-496F11983F46}","global_id":"576f5914-8ae5-4e8c-aff9-9723a9da8688"}},{"type":"Feature","geometry":{"type":"Polygon","coordinates":[[[-83.37532,34.52986],[-83.37554,34.52993],[-83.3754,34.52999],[-83.37532,34.52986]]]},"properties":{"fire_id":"ufid:2022-GACHF-220089","source_collection":"history-2022","source_objectid":4207,"incident_name":"Currahee Fire","mapped_acres":6.0,"mapped_acres_source":"poly_GISAcres","gis_acres":6.0,"auto_acres":0.05639086246162172,"reported_acres":0.1,"percent_contained":null,"state":"GA","state_wfigs":"US-GA","county":"Stephens","discovery_time_utc":"2022-09-23T03:00:00Z","perimeter_time_utc":"2022-11-17T13:50:27Z","perimeter_edit_time_utc":"2023-03-14T15:13:42Z","incident_modified_time_utc":"2022-10-05T14:27:46Z","containment_time_utc":null,"control_time_utc":"2022-09-23T12:45:00Z","fire_out_time_utc":"2022-09-23T12:45:00Z","fire_cause":"Human","fire_cause_general":"Undetermined","map_method":"Hand Sketch","source_dataset":"FFP","unique_fire_identifier":"2022-GACHF-220089","irwin_id":"{F837D64C-DDA5-43B1-9143-EB864D381131}","global_id":"fdbfc7c8-bf2d-4438-ae84-7cab265cff4c"}},{"type":"Feature","geometry":{"type":"Polygon","coordinates":[[[-83.72205,33.28053],[-83.72149,33.27993],[-83.72161,33.2797],[-83.72315,33.27898],[-83.72336,33.27858],[-83.72346,33.27768],[-83.72422,33.27736],[-83.72554,33.2779],[-83.72725,33.27904],[-83.72683,33.28026],[-83.72606,33.2819],[-83.72472,33.28296],[-83.7231,33.28218],[-83.72344,33.28083],[-83.72332,33.28055],[-83.72205,33.28053]]]},"properties":{"fire_id":"ufid:2022-GACHF-220110","source_collection":"history-2022","source_objectid":5165,"incident_name":"1111A","mapped_acres":40.0,"mapped_acres_source":"poly_GISAcres","gis_acres":40.0,"auto_acres":45.30924478576826,"reported_acres":40.4,"percent_contained":null,"state":"GA","state_wfigs":"US-GA","county":"Jasper","discovery_time_utc":"2022-11-24T18:10:00Z","perimeter_time_utc":"2022-12-07T14:49:52Z","perimeter_edit_time_utc":"2023-03-14T15:13:42Z","incident_modified_time_utc":"2022-11-29T20:20:37Z","containment_time_utc":"2022-11-25T08:00:00Z","control_time_utc":"2022-11-28T22:00:00Z","fire_out_time_utc":"2022-11-30T22:00:00Z","fire_cause":"Human","fire_cause_general":"Arson","map_method":"Hand Sketch","source_dataset":"FFP","unique_fire_identifier":"2022-GACHF-220110","irwin_id":"{0CFEFECE-A24E-44E0-A3DA-B28837FBBCAF}","global_id":"9aa0653f-e70b-4a7a-8a6d-52b17d5a46e5"}},{"type":"Feature","geometry":{"type":"Polygon","coordinates":[[[-83.18503,34.9856],[-83.18508,34.98474],[-83.18547,34.98522],[-83.18593,34.98544],[-83.186,34.98665],[-83.18556,34.98633],[-83.18503,34.9856]]]},"properties":{"fire_id":"ufid:2022-GACHF-220076","source_collection":"history-2022","source_objectid":7392,"incident_name":"Walkiung Stick","mapped_acres":2.0,"mapped_acres_source":"poly_GISAcres","gis_acres":2.0,"auto_acres":2.304148737532805,"reported_acres":2.3,"percent_contained":null,"state":"GA","state_wfigs":"US-GA","county":"Rabun","discovery_time_utc":"2022-05-02T21:30:00Z","perimeter_time_utc":"2022-06-15T17:15:54Z","perimeter_edit_time_utc":"2023-03-14T15:13:42Z","incident_modified_time_utc":"2022-05-12T18:12:24Z","containment_time_utc":"2022-05-03T01:30:00Z","control_time_utc":"2022-05-03T16:30:00Z","fire_out_time_utc":"2022-05-09T17:30:00Z","fire_cause":"Human","fire_cause_general":"Other causes","map_method":"Hand Sketch","source_dataset":"FFP","unique_fire_identifier":"2022-GACHF-220076","irwin_id":"{48489CF3-8478-46E0-9566-D7B4D5EAB8FB}","global_id":"6ba8098e-0d14-4c6c-bf0b-dc9389b35bbd"}},{"type":"Feature","geometry":{"type":"Polygon","coordinates":[[[-83.72374,33.27439],[-83.72276,33.27351],[-83.72245,33.27268],[-83.72182,33.27216],[-83.7207,33.27057],[-83.72267,33.27011],[-83.72517,33.27029],[-83.72587,33.26984],[-83.7258,33.2695],[-83.72729,33.27117],[-83.72799,33.27145],[-83.72837,33.27219],[-83.72755,33.27259],[-83.72686,33.27331],[-83.72604,33.27385],[-83.72541,33.27503],[-83.72488,33.27503],[-83.72374,33.27439]]]},"properties":{"fire_id":"ufid:2022-GACHF-220109","source_collection":"history-2022","source_objectid":8597,"incident_name":"11/ 11  Fire","mapped_acres":50.0,"mapped_acres_source":"poly_GISAcres","gis_acres":50.0,"auto_acres":56.58525354982212,"reported_acres":70.0,"percent_contained":null,"state":"GA","state_wfigs":"US-GA","county":"Jasper","discovery_time_utc":"2022-11-24T01:00:41Z","perimeter_time_utc":"2022-12-07T14:52:36Z","perimeter_edit_time_utc":"2023-03-14T15:13:42Z","incident_modified_time_utc":"2022-11-29T20:20:59Z","containment_time_utc":"2022-11-24T07:30:00Z","control_time_utc":"2022-11-25T22:00:00Z","fire_out_time_utc":"2022-11-26T22:00:00Z","fire_cause":"Human","fire_cause_general":"Arson","map_method":"Hand Sketch","source_dataset":"FFP","unique_fire_identifier":"2022-GACHF-220109","irwin_id":"{9AC9D846-6D9C-4FB8-A376-CD606AD42870}","global_id":"583cd67e-355b-4453-92e0-566589449b64"}},{"type":"Feature","geometry":{"type":"Polygon","coordinates":[[[-84.66587,34.89004],[-84.66541,34.88942],[-84.66613,34.88927],[-84.66705,34.88939],[-84.66883,34.89051],[-84.66812,34.89075],[-84.66686,34.89056],[-84.66587,34.89004]]]},"properties":{"fire_id":"ufid:2022-GACHF-220082","source_collection":"history-2022","source_objectid":9149,"incident_name":"630 Alpha Road","mapped_acres":2.0,"mapped_acres_source":"poly_GISAcres","gis_acres":2.0,"auto_acres":6.558334423878964,"reported_acres":6.46,"percent_contained":null,"state":"GA","state_wfigs":"US-GA","county":"Murray","discovery_time_utc":"2022-06-16T21:11:00Z","perimeter_time_utc":"2022-11-17T13:54:09Z","perimeter_edit_time_utc":"2023-03-14T15:13:42Z","incident_modified_time_utc":"2022-06-19T15:31:20Z","containment_time_utc":"2022-06-17T02:30:00Z","control_time_utc":"2022-06-17T19:00:00Z","fire_out_time_utc":"2022-06-26T12:00:00Z","fire_cause":"Undetermined","fire_cause_general":"Undetermined","map_method":"Hand Sketch","source_dataset":"FFP","unique_fire_identifier":"2022-GACHF-220082","irwin_id":"{80ECAF1B-9BD4-4CB8-9714-13B119FF50A5}","global_id":"4b53e151-3805-4424-ba08-1dd2db202c6c"}},{"type":"Feature","geometry":{"type":"Polygon","coordinates":[[[-83.26478,34.88305],[-83.26467,34.88316],[-83.26426,34.88317],[-83.26405,34.88298],[-83.26408,34.88284],[-83.26445,34.88278],[-83.26478,34.88305]]]},"properties":{"fire_id":"ufid:2022-GACHF-220059","source_collection":"history-2022","source_objectid":10376,"incident_name":"Hollow Creek","mapped_acres":0.56,"mapped_acres_source":"poly_GISAcres","gis_acres":0.56,"auto_acres":0.5329832222673903,"reported_acres":0.53,"percent_contained":null,"state":"GA","state_wfigs":"US-GA","county":"Rabun","discovery_time_utc":"2022-03-28T23:15:00Z","perimeter_time_utc":"2022-06-15T17:17:52Z","perimeter_edit_time_utc":"2023-03-14T15:13:42Z","incident_modified_time_utc":"2022-04-04T16:31:31Z","containment_time_utc":"2022-03-29T01:21:00Z","control_time_utc":"2022-03-29T01:21:00Z","fire_out_time_utc":"2022-03-29T14:40:00Z","fire_cause":"Human","fire_cause_general":"Debris and open burning","map_method":"Hand Sketch","source_dataset":"FFP","unique_fire_identifier":"2022-GACHF-220059","irwin_id":"{7D2FA500-8DCC-4E94-8B11-E7651F1F5919}","global_id":"a2138d5f-0d01-42a6-b6b3-65bd4f464423"}},{"type":"Feature","geometry":{"type":"Polygon","coordinates":[[[-83.64761,33.06344],[-83.6484,33.0624],[-83.64834,33.06065],[-83.65087,33.0611],[-83.65429,33.06128],[-83.65703,33.06077],[-83.65821,33.06113],[-83.65894,33.06192],[-83.65997,33.06249],[-83.66109,33.06211],[-83.66281,33.06036],[-83.6635,33.05894],[-83.66369,33.05768],[-83.66553,33.05674],[-83.66706,33.05686],[-83.66824,33.05748],[-83.66863,33.05867],[-83.66833,33.05997],[-83.66778,33.06124],[-83.66839,33.06183],[-83.67069,33.06165],[-83.67126,33.06249],[-83.67253,33.06389],[-83.67429,33.06447],[-83.67704,33.06677],[-83.678,33.06914],[-83.67439,33.06824],[-83.67139,33.06894],[-83.66911,33.07093],[-83.66653,33.07125],[-83.66463,33.07045],[-83.66387,33.07309],[-83.66461,33.07561],[-83.66054,33.07558],[-83.66021,33.07724],[-83.65896,33.07561],[-83.6529,33.07253],[-83.65318,33.07146],[-83.6519,33.06803],[-83.64735,33.06459],[-83.64761,33.06344]]]},"properties":{"fire_id":"ufid:2022-GAPDR-000002","source_collection":"history-2022","source_objectid":11585,"incident_name":"902","mapped_acres":1.0,"mapped_acres_source":"poly_GISAcres","gis_acres":1.0,"auto_acres":748.9036103554224,"reported_acres":687.0,"percent_contained":null,"state":"GA","state_wfigs":"US-GA","county":"Jones","discovery_time_utc":"2022-11-09T20:30:00Z","perimeter_time_utc":"2022-12-02T13:59:28Z","perimeter_edit_time_utc":"2023-03-14T15:13:42Z","incident_modified_time_utc":"2022-11-15T18:32:16Z","containment_time_utc":"2022-11-10T09:00:00Z","control_time_utc":"2022-11-15T22:00:00Z","fire_out_time_utc":"2022-11-17T22:00:00Z","fire_cause":"Human","fire_cause_general":"Arson","map_method":"Hand Sketch","source_dataset":"FFP","unique_fire_identifier":"2022-GAPDR-000002","irwin_id":"{6F77E7E0-0973-44FF-BD1A-386BEAF1EE2C}","global_id":"82d01337-dbc9-4eef-ae35-f9010135c772"}},{"type":"Feature","geometry":{"type":"Polygon","coordinates":[[[-83.71085,34.73546],[-83.71002,34.73459],[-83.71001,34.73428],[-83.71021,34.73393],[-83.70975,34.73333],[-83.70997,34.73204],[-83.70991,34.7317],[-83.7096,34.73167],[-83.70914,34.732],[-83.70837,34.73208],[-83.7081,34.73185],[-83.70727,34.73175],[-83.70672,34.7315],[-83.70618,34.73084],[-83.70625,34.73068],[-83.70588,34.73033],[-83.70538,34.73022],[-83.70522,34.73008],[-83.70526,34.72996],[-83.70552,34.72954],[-83.70564,34.72963],[-83.70625,34.72922],[-83.70608,34.72916],[-83.70592,34.72883],[-83.70593,34.72829],[-83.70638,34.72816],[-83.70684,34.72784],[-83.70709,34.7274],[-83.70756,34.72701],[-83.70798,34.72706],[-83.70827,34.72676],[-83.70911,34.72667],[-83.70948,34.72631],[-83.70958,34.72542],[-83.7102,34.72519],[-83.71059,34.72521],[-83.71136,34.7257],[-83.71212,34.72578],[-83.71318,34.72529],[-83.714,34.72539],[-83.71427,34.72571],[-83.71525,34.72595],[-83.71581,34.7265],[-83.71594,34.72668],[-83.71549,34.7273],[-83.71584,34.7274],[-83.71594,34.72773],[-83.71667,34.72826],[-83.71668,34.72839],[-83.7163,34.72859],[-83.7169,34.72894],[-83.71671,34.72924],[-83.71714,34.72956],[-83.71713,34.72976],[-83.71574,34.73056],[-83.71684,34.73108],[-83.71683,34.73126],[-83.71647,34.7316],[-83.71667,34.73195],[-83.71644,34.73217],[-83.71651,34.73233],[-83.71546,34.7331],[-83.71531,34.73355],[-83.71509,34.73374],[-83.71465,34.73387],[-83.71365,34.7335],[-83.71379,34.73395],[-83.71328,34.73425],[-83.71288,34.73397],[-83.71217,34.73384],[-83.71236,34.73416],[-83.71202,34.73482],[-83.71085,34.73546]]]},"properties":{"fire_id":"ufid:2022-GACHF-220019","source_collection":"history-2022","source_objectid":11946,"incident_name":"Unicoi","mapped_acres":184.28109174986434,"mapped_acres_source":"poly_Acres_AutoCalc_fallback","gis_acres":null,"auto_acres":184.28109174986434,"reported_acres":180.0,"percent_contained":null,"state":"GA","state_wfigs":"US-GA","county":"White","discovery_time_utc":"2022-02-12T19:44:00Z","perimeter_time_utc":null,"perimeter_edit_time_utc":"2023-03-14T15:13:42Z","incident_modified_time_utc":"2022-03-17T11:41:37Z","containment_time_utc":"2022-02-17T23:00:00Z","control_time_utc":"2022-02-18T23:00:00Z","fire_out_time_utc":"2022-02-22T13:00:00Z","fire_cause":"Human","fire_cause_general":"Debris and open burning","map_method":"Hand Sketch","source_dataset":"FFP","unique_fire_identifier":"2022-GACHF-220019","irwin_id":"{0921EBF6-C8BE-4EC0-B8A1-E13A8BEC7062}","global_id":"fb4cd624-4c67-4a40-a56e-7a33e1ded860"}},{"type":"Feature","geometry":{"type":"Polygon","coordinates":[[[-83.73896,33.27303],[-83.74127,33.27065],[-83.74285,33.27009],[-83.74391,33.27073],[-83.74468,33.27083],[-83.74544,33.27062],[-83.74618,33.27021],[-83.7482,33.2723],[-83.74921,33.27279],[-83.7498,33.27274],[-83.75012,33.27303],[-83.74995,33.27348],[-83.7458,33.27298],[-83.74497,33.27318],[-83.74438,33.27367],[-83.74357,33.27388],[-83.7427,33.27442],[-83.74204,33.27506],[-83.7405,33.27422],[-83.73896,33.27303]]]},"properties":{"fire_id":"ufid:2022-GACHF-220113","source_collection":"history-2022","source_objectid":12429,"incident_name":"1111B","mapped_acres":64.9,"mapped_acres_source":"poly_GISAcres","gis_acres":64.9,"auto_acres":67.94335117463082,"reported_acres":64.9,"percent_contained":null,"state":"GA","state_wfigs":"US-GA","county":"Jasper","discovery_time_utc":"2022-11-28T13:29:00Z","perimeter_time_utc":"2022-12-07T14:46:35Z","perimeter_edit_time_utc":"2023-03-14T15:13:42Z","incident_modified_time_utc":"2022-11-29T20:19:53Z","containment_time_utc":"2022-11-28T18:33:00Z","control_time_utc":"2022-11-28T22:00:00Z","fire_out_time_utc":"2022-11-30T22:00:00Z","fire_cause":"Human","fire_cause_general":"Arson","map_method":"Hand Sketch","source_dataset":"FFP","unique_fire_identifier":"2022-GACHF-220113","irwin_id":"{6F6C9ADF-1BD9-4686-AE50-D8C328753774}","global_id":"8dcfac90-97f9-4a31-9875-66723615cca6"}},{"type":"Feature","geometry":{"type":"Polygon","coordinates":[[[-83.71925,33.03412],[-83.71975,33.03418],[-83.72309,33.03197],[-83.72221,33.02991],[-83.72315,33.02712],[-83.72509,33.03284],[-83.72917,33.03676],[-83.72848,33.03729],[-83.7274,33.03719],[-83.72607,33.03827],[-83.72501,33.0395],[-83.72361,33.03993],[-83.72217,33.03996],[-83.72106,33.03733],[-83.71925,33.03412]]]},"properties":{"fire_id":"ufid:2022-GACHF-220103","source_collection":"history-2022","source_objectid":13170,"incident_name":"Ocmulgee Bluffs","mapped_acres":100.0,"mapped_acres_source":"poly_GISAcres","gis_acres":100.0,"auto_acres":129.0116726009095,"reported_acres":143.0,"percent_contained":null,"state":"GA","state_wfigs":"US-GA","county":"Jones","discovery_time_utc":"2022-11-09T18:30:00Z","perimeter_time_utc":"2022-12-02T14:00:40Z","perimeter_edit_time_utc":"2023-03-14T15:13:42Z","incident_modified_time_utc":"2022-11-19T15:39:12Z","containment_time_utc":"2022-11-10T22:00:00Z","control_time_utc":"2022-11-16T22:00:00Z","fire_out_time_utc":"2022-11-18T22:00:00Z","fire_cause":"Human","fire_cause_general":"Arson","map_method":"Hand Sketch","source_dataset":"FFP","unique_fire_identifier":"2022-GACHF-220103","irwin_id":"{6A18E672-4A6C-4A4B-8BD3-84704366D743}","global_id":"edf39aaf-007f-4949-89b9-5ca3e19f783c"}},{"type":"Feature","geometry":{"type":"Polygon","coordinates":[[[-84.04829,34.6345],[-84.0516,34.63452],[-84.05113,34.63598],[-84.0499,34.63766],[-84.0488,34.63615],[-84.04829,34.6345]]]},"properties":{"fire_id":"ufid:2022-GACHF-220065","source_collection":"history-2022","source_objectid":13289,"incident_name":"Black Mountain Road","mapped_acres":5.0,"mapped_acres_source":"poly_GISAcres","gis_acres":5.0,"auto_acres":15.660380173328367,"reported_acres":15.0,"percent_contained":null,"state":"GA","state_wfigs":"US-GA","county":"Lumpkin","discovery_time_utc":"2022-04-15T19:39:00Z","perimeter_time_utc":"2022-06-15T17:23:28Z","perimeter_edit_time_utc":"2023-03-14T15:13:42Z","incident_modified_time_utc":"2022-04-16T14:54:24Z","containment_time_utc":"2022-04-16T00:28:00Z","control_time_utc":null,"fire_out_time_utc":"2022-04-18T21:00:00Z","fire_cause":"Undetermined","fire_cause_general":"Undetermined","map_method":"Phone/Tablet","source_dataset":"FFP","unique_fire_identifier":"2022-GACHF-220065","irwin_id":"{790686D2-BA63-47D0-AF34-068FC38DEBB4}","global_id":"fc56ed0e-7eea-44fc-8a72-801c7d34efe3"}},{"type":"Feature","geometry":{"type":"Polygon","coordinates":[[[-83.90415,34.69364],[-83.9038,34.6932],[-83.90393,34.69277],[-83.90373,34.69231],[-83.90385,34.69153],[-83.9037,34.69123],[-83.90383,34.69094],[-83.90365,34.69089],[-83.90367,34.69062],[-83.90389,34.69036],[-83.9038,34.69004],[-83.90396,34.68968],[-83.90416,34.68959],[-83.90435,34.68973],[-83.90476,34.68932],[-83.90547,34.68919],[-83.90572,34.68887],[-83.9056,34.68853],[-83.90615,34.68838],[-83.9065,34.68882],[-83.90687,34.68888],[-83.90721,34.68917],[-83.90757,34.68914],[-83.90815,34.68944],[-83.90832,34.68942],[-83.90837,34.68919],[-83.90849,34.68921],[-83.90867,34.68958],[-83.90863,34.68999],[-83.90891,34.69031],[-83.9087,34.69067],[-83.90826,34.69071],[-83.90785,34.69111],[-83.90774,34.69099],[-83.9076,34.69123],[-83.90702,34.69126],[-83.90708,34.69228],[-83.90698,34.69247],[-83.90558,34.69283],[-83.90527,34.69274],[-83.90495,34.69281],[-83.90462,34.69304],[-83.90456,34.69335],[-83.90415,34.69364]]]},"properties":{"fire_id":"ufid:2022-GAGAS-220056","source_collection":"history-2022","source_objectid":13352,"incident_name":"Hester Gap","mapped_acres":38.19,"mapped_acres_source":"poly_GISAcres","gis_acres":38.19,"auto_acres":38.19453632992209,"reported_acres":38.0,"percent_contained":null,"state":"GA","state_wfigs":"US-GA","county":"Lumpkin","discovery_time_utc":"2022-03-26T18:53:25Z","perimeter_time_utc":"2022-11-17T13:51:58Z","perimeter_edit_time_utc":"2023-03-14T15:13:42Z","incident_modified_time_utc":"2022-04-05T14:48:56Z","containment_time_utc":null,"control_time_utc":"2022-03-31T19:39:00Z","fire_out_time_utc":"2022-04-05T21:00:00Z","fire_cause":"Undetermined","fire_cause_general":"Undetermined","map_method":"Hand Sketch","source_dataset":"FFP","unique_fire_identifier":"2022-GAGAS-220056","irwin_id":"{5D1FF46B-1541-4267-A699-640DAD2D44D0}","global_id":"12b8a5c2-72ab-4579-8877-99b39595d6da"}},{"type":"Feature","geometry":{"type":"MultiPolygon","coordinates":[[[[-82.73762,32.41236],[-82.73707,32.41197],[-82.73695,32.41174],[-82.73704,32.41155],[-82.73757,32.4114],[-82.73797,32.41154],[-82.738,32.41179],[-82.73778,32.41229],[-82.73762,32.41236]]],[[[-82.73646,32.41769],[-82.73616,32.4176],[-82.73628,32.41724],[-82.73573,32.41687],[-82.73548,32.41644],[-82.73505,32.41607],[-82.7344,32.4162],[-82.73369,32.41599],[-82.73311,32.41562],[-82.73239,32.41489],[-82.7313,32.41439],[-82.73073,32.41363],[-82.72956,32.41294],[-82.72949,32.41278],[-82.72991,32.41274],[-82.73001,32.41255],[-82.72969,32.41186],[-82.72926,32.4113],[-82.72866,32.41109],[-82.72845,32.41068],[-82.72801,32.41036],[-82.7281,32.41024],[-82.72884,32.41009],[-82.72903,32.40976],[-82.72855,32.40972],[-82.72819,32.40999],[-82.72817,32.40932],[-82.72801,32.4092],[-82.72764,32.40922],[-82.72806,32.40879],[-82.72785,32.40782],[-82.72802,32.40769],[-82.72831,32.40781],[-82.72848,32.40775],[-82.72862,32.40723],[-82.72791,32.40608],[-82.72775,32.40484],[-82.7273,32.40451],[-82.72701,32.40397],[-82.72721,32.40342],[-82.72718,32.40236],[-82.72673,32.40152],[-82.72674,32.40075],[-82.72709,32.39996],[-82.72693,32.39916],[-82.72745,32.39807],[-82.7277,32.39791],[-82.72829,32.39784],[-82.72919,32.39696],[-82.72916,32.39673],[-82.72882,32.39642],[-82.72874,32.39616],[-82.72947,32.39575],[-82.72898,32.39515],[-82.72873,32.39522],[-82.72885,32.39546],[-82.72878,32.39558],[-82.72845,32.39524],[-82.72863,32.39497],[-82.72864,32.39456],[-82.7292,32.39424],[-82.73019,32.39461],[-82.73085,32.39504],[-82.73158,32.39517],[-82.73172,32.39562],[-82.73166,32.39604],[-82.73202,32.3962],[-82.73216,32.39643],[-82.73201,32.39666],[-82.73224,32.39745],[-82.7319,32.39782],[-82.73189,32.39801],[-82.73256,32.39854],[-82.73399,32.4003],[-82.73447,32.40125],[-82.73474,32.40215],[-82.73535,32.4032],[-82.73538,32.40369],[-82.73515,32.40412],[-82.73527,32.40505],[-82.73568,32.40564],[-82.73779,32.40783],[-82.73811,32.40841],[-82.73906,32.40933],[-82.73894,32.40946],[-82.73851,32.4093],[-82.7382,32.41003],[-82.73821,32.41031],[-82.73804,32.41043],[-82.7375,32.4104],[-82.73707,32.40989],[-82.73692,32.40994],[-82.73657,32.41054],[-82.73666,32.41123],[-82.7365,32.41146],[-82.73626,32.41145],[-82.73585,32.41112],[-82.73556,32.4112],[-82.73492,32.41084],[-82.73424,32.41091],[-82.73449,32.41128],[-82.73512,32.41163],[-82.73543,32.412],[-82.73592,32.41338],[-82.73571,32.41442],[-82.7363,32.41484],[-82.73623,32.41534],[-82.73649,32.41534],[-82.73667,32.41581],[-82.73734,32.41648],[-82.73735,32.4168],[-82.73717,32.41723],[-82.73646,32.41769]]]]},"properties":{"fire_id":"ufid:2022-GAGAS-072204","source_collection":"history-2022","source_objectid":13472,"incident_name":"Hwy. 199","mapped_acres":445.0,"mapped_acres_source":"poly_GISAcres","gis_acres":445.0,"auto_acres":369.148666568608,"reported_acres":445.0,"percent_contained":100.0,"state":"GA","state_wfigs":"US-GA","county":"Laurens","discovery_time_utc":"2022-03-30T19:15:00Z","perimeter_time_utc":null,"perimeter_edit_time_utc":"2022-08-03T16:42:44Z","incident_modified_time_utc":"2022-04-02T20:22:07Z","containment_time_utc":null,"control_time_utc":null,"fire_out_time_utc":null,"fire_cause":"Human","fire_cause_general":null,"map_method":"Image Interpretation","source_dataset":"2022 NIFS","unique_fire_identifier":"2022-GAGAS-072204","irwin_id":"{56DBD608-CDD9-4522-8491-6CC50C37300A}","global_id":"0c664a25-1d93-406b-a310-dd011218f628"}},{"type":"Feature","geometry":{"type":"MultiPolygon","coordinates":[[[[-83.49179,32.69761],[-83.49159,32.69746],[-83.49147,32.697],[-83.49115,32.69708],[-83.49089,32.69743],[-83.49048,32.69736],[-83.49044,32.69716],[-83.49087,32.69668],[-83.49125,32.69653],[-83.49168,32.69654],[-83.49239,32.69721],[-83.49219,32.69748],[-83.49179,32.69761]]],[[[-83.49686,32.7006],[-83.49684,32.70046],[-83.49716,32.7002],[-83.4976,32.70022],[-83.49718,32.70061],[-83.49686,32.7006]]],[[[-83.49742,32.70918],[-83.49717,32.70885],[-83.49712,32.70808],[-83.49614,32.70759],[-83.49473,32.70779],[-83.49354,32.70857],[-83.49306,32.70797],[-83.49242,32.70778],[-83.49175,32.70701],[-83.49046,32.70607],[-83.49024,32.70563],[-83.49078,32.70493],[-83.49075,32.70471],[-83.49052,32.70446],[-83.49006,32.70453],[-83.48877,32.70397],[-83.48832,32.70344],[-83.48797,32.7026],[-83.48725,32.7018],[-83.48733,32.70152],[-83.48833,32.70088],[-83.48897,32.70077],[-83.48902,32.70062],[-83.48878,32.70049],[-83.48852,32.70008],[-83.48798,32.6998],[-83.48742,32.70001],[-83.4875,32.70021],[-83.48732,32.70029],[-83.48632,32.70028],[-83.48596,32.70005],[-83.48586,32.69748],[-83.48649,32.69644],[-83.48677,32.69632],[-83.48781,32.69653],[-83.48808,32.69683],[-83.48812,32.69736],[-83.48907,32.69742],[-83.48962,32.69821],[-83.49039,32.69862],[-83.49073,32.69941],[-83.49177,32.69985],[-83.49208,32.6996],[-83.49244,32.69954],[-83.49276,32.69975],[-83.49298,32.7002],[-83.49407,32.7008],[-83.49442,32.70124],[-83.49567,32.70123],[-83.49618,32.70103],[-83.49676,32.70118],[-83.49745,32.70108],[-83.49797,32.70055],[-83.4981,32.70006],[-83.49883,32.7005],[-83.49954,32.7007],[-83.50058,32.70166],[-83.50064,32.70202],[-83.50102,32.7022],[-83.50118,32.70286],[-83.50074,32.70374],[-83.50044,32.70375],[-83.49971,32.70345],[-83.49925,32.70357],[-83.49859,32.70333],[-83.49836,32.70355],[-83.49808,32.70425],[-83.49701,32.70392],[-83.49624,32.70404],[-83.49572,32.70472],[-83.49572,32.70497],[-83.49642,32.70518],[-83.49687,32.70466],[-83.49737,32.70468],[-83.49839,32.70586],[-83.49865,32.70637],[-83.499,32.7067],[-83.49936,32.70673],[-83.49956,32.70695],[-83.4993,32.70736],[-83.49929,32.70798],[-83.49885,32.70891],[-83.49828,32.70922],[-83.49742,32.70918]]]]},"properties":{"fire_id":"ufid:2022-GAGAS-042202","source_collection":"history-2022","source_objectid":13514,"incident_name":"White Springs Church","mapped_acres":280.0,"mapped_acres_source":"poly_GISAcres","gis_acres":280.0,"auto_acres":228.523100324012,"reported_acres":280.0,"percent_contained":100.0,"state":"GA","state_wfigs":"US-GA","county":"Twiggs","discovery_time_utc":"2022-03-29T15:00:00Z","perimeter_time_utc":"2022-08-03T15:35:00Z","perimeter_edit_time_utc":"2022-08-03T15:35:43Z","incident_modified_time_utc":"2022-04-01T16:08:32Z","containment_time_utc":null,"control_time_utc":null,"fire_out_time_utc":null,"fire_cause":"Human","fire_cause_general":null,"map_method":"Image Interpretation","source_dataset":"2022 NIFS","unique_fire_identifier":"2022-GAGAS-042202","irwin_id":"{F067DB87-E0D9-49F8-ADB0-E038D634F403}","global_id":"a3cdf3f8-fd16-4cdc-b824-2ab107f9f467"}},{"type":"Feature","geometry":{"type":"Polygon","coordinates":[[[-82.90621,31.05764],[-82.90587,31.05803],[-82.90549,31.05817],[-82.90484,31.0582],[-82.9048,31.0578],[-82.90444,31.05734],[-82.90447,31.05705],[-82.90415,31.05596],[-82.904,31.05582],[-82.90342,31.05575],[-82.90321,31.05547],[-82.90326,31.05522],[-82.90358,31.05491],[-82.90373,31.05493],[-82.90394,31.05523],[-82.9053,31.05511],[-82.9051,31.05461],[-82.90467,31.0543],[-82.9035,31.05431],[-82.90294,31.05487],[-82.90215,31.05476],[-82.90173,31.05444],[-82.90105,31.05352],[-82.90113,31.05303],[-82.90037,31.05255],[-82.90041,31.05229],[-82.90115,31.05202],[-82.90176,31.05199],[-82.90302,31.05124],[-82.90398,31.05117],[-82.90569,31.05179],[-82.90659,31.05167],[-82.90654,31.05184],[-82.90721,31.05244],[-82.90887,31.05243],[-82.90898,31.05263],[-82.90853,31.05324],[-82.90897,31.0539],[-82.90929,31.0539],[-82.90959,31.05369],[-82.9098,31.05311],[-82.90976,31.05263],[-82.91032,31.0525],[-82.91093,31.05269],[-82.91157,31.05271],[-82.91168,31.0529],[-82.9116,31.05356],[-82.91193,31.05342],[-82.91217,31.05307],[-82.91238,31.05305],[-82.91264,31.05345],[-82.91281,31.05327],[-82.9132,31.05325],[-82.91348,31.05349],[-82.91394,31.05354],[-82.91421,31.05404],[-82.91418,31.05494],[-82.91403,31.05512],[-82.91329,31.05505],[-82.91301,31.05527],[-82.91298,31.05555],[-82.91235,31.05609],[-82.91174,31.05642],[-82.91068,31.05662],[-82.91041,31.05688],[-82.91032,31.0573],[-82.90984,31.05757],[-82.90957,31.05738],[-82.90948,31.05703],[-82.90973,31.05677],[-82.91003,31.05669],[-82.91008,31.05646],[-82.90932,31.05594],[-82.90956,31.05541],[-82.90901,31.05521],[-82.91007,31.05503],[-82.91016,31.0549],[-82.91001,31.05471],[-82.90899,31.05437],[-82.9087,31.05452],[-82.90867,31.0551],[-82.90811,31.05537],[-82.90753,31.05534],[-82.90703,31.05488],[-82.90645,31.05541],[-82.90584,31.05526],[-82.90573,31.05558],[-82.906,31.05594],[-82.90574,31.0561],[-82.90574,31.05646],[-82.9062,31.05726],[-82.90621,31.05764]]]},"properties":{"fire_id":"ufid:2022-GAGAS-102301","source_collection":"history-2022","source_objectid":13533,"incident_name":"LDT road fire","mapped_acres":198.0,"mapped_acres_source":"poly_GISAcres","gis_acres":198.0,"auto_acres":114.02321778858,"reported_acres":198.0,"percent_contained":100.0,"state":"GA","state_wfigs":"US-GA","county":"Clinch","discovery_time_utc":"2022-07-25T20:00:00Z","perimeter_time_utc":"2022-07-26T01:00:00Z","perimeter_edit_time_utc":"2022-12-16T17:49:05Z","incident_modified_time_utc":"2022-08-10T23:35:03Z","containment_time_utc":null,"control_time_utc":null,"fire_out_time_utc":null,"fire_cause":"Natural","fire_cause_general":null,"map_method":"Image Interpretation","source_dataset":"2022 NIFS","unique_fire_identifier":"2022-GAGAS-102301","irwin_id":"{C342D4E7-3B7C-4EAA-970F-CAAFBADA351F}","global_id":"84e1c59b-e53f-479f-9b37-030907e9339f"}},{"type":"Feature","geometry":{"type":"Polygon","coordinates":[[[-82.53855,31.38214],[-82.53808,31.38194],[-82.53755,31.38103],[-82.53749,31.38063],[-82.53768,31.38018],[-82.53727,31.38005],[-82.53695,31.37951],[-82.53677,31.37968],[-82.53659,31.37917],[-82.53596,31.37916],[-82.53575,31.37935],[-82.53542,31.37936],[-82.53477,31.37886],[-82.53479,31.37856],[-82.53414,31.37841],[-82.53367,31.37799],[-82.53366,31.37771],[-82.534,31.37733],[-82.53403,31.37713],[-82.53376,31.37659],[-82.5334,31.37637],[-82.53324,31.37515],[-82.53284,31.37434],[-82.53303,31.37317],[-82.53285,31.37272],[-82.53308,31.37239],[-82.53299,31.37227],[-82.5329,31.37254],[-82.53276,31.37251],[-82.5328,31.37218],[-82.53249,31.37182],[-82.53261,31.37137],[-82.53235,31.37112],[-82.5324,31.37093],[-82.53225,31.37077],[-82.5322,31.37037],[-82.53235,31.36992],[-82.5326,31.36985],[-82.5325,31.36895],[-82.53276,31.3685],[-82.53261,31.36832],[-82.53258,31.36778],[-82.53244,31.36769],[-82.53249,31.36736],[-82.53265,31.36726],[-82.5329,31.36661],[-82.53371,31.36643],[-82.5335,31.36638],[-82.53347,31.36607],[-82.53362,31.36594],[-82.53386,31.36598],[-82.53382,31.36571],[-82.53401,31.36556],[-82.53468,31.36555],[-82.53508,31.36579],[-82.53529,31.36607],[-82.53524,31.36625],[-82.53549,31.36643],[-82.53546,31.36661],[-82.53571,31.36668],[-82.53593,31.36697],[-82.53638,31.36709],[-82.53673,31.36751],[-82.5383,31.36753],[-82.53913,31.3683],[-82.53911,31.36879],[-82.53866,31.36895],[-82.53803,31.36886],[-82.53825,31.36918],[-82.53833,31.37021],[-82.53884,31.37034],[-82.53911,31.36979],[-82.53931,31.37012],[-82.53996,31.37017],[-82.54056,31.37046],[-82.54091,31.37093],[-82.5407,31.37128],[-82.54111,31.37171],[-82.54112,31.37204],[-82.54082,31.37234],[-82.54037,31.37185],[-82.54001,31.372],[-82.54019,31.3723],[-82.54065,31.37262],[-82.54064,31.37296],[-82.54091,31.37289],[-82.541,31.37271],[-82.54178,31.37329],[-82.54165,31.37389],[-82.54175,31.37438],[-82.54157,31.37465],[-82.54109,31.37452],[-82.54104,31.3742],[-82.54064,31.37409],[-82.54049,31.37437],[-82.54021,31.37443],[-82.54081,31.37489],[-82.54085,31.37518],[-82.54024,31.37542],[-82.54002,31.37579],[-82.53929,31.37578],[-82.53924,31.37587],[-82.53934,31.3765],[-82.53916,31.37686],[-82.53928,31.37705],[-82.54014,31.37686],[-82.54004,31.37636],[-82.54077,31.37628],[-82.54074,31.37669],[-82.54049,31.37689],[-82.5404,31.37725],[-82.53857,31.37726],[-82.53812,31.37742],[-82.53776,31.37773],[-82.53731,31.37764],[-82.53722,31.37776],[-82.53812,31.37811],[-82.53884,31.37809],[-82.53905,31.37884],[-82.53934,31.3792],[-82.53905,31.37947],[-82.53893,31.38199],[-82.53884,31.38212],[-82.53855,31.38214]]]},"properties":{"fire_id":"ufid:2022-GAGAS-102302","source_collection":"history-2022","source_objectid":13540,"incident_name":"Bickley Hwy","mapped_acres":235.0,"mapped_acres_source":"poly_GISAcres","gis_acres":235.0,"auto_acres":230.113767716159,"reported_acres":235.0,"percent_contained":100.0,"state":"GA","state_wfigs":"US-GA","county":"Ware","discovery_time_utc":"2022-08-04T08:15:00Z","perimeter_time_utc":"2022-08-04T13:15:00Z","perimeter_edit_time_utc":"2022-12-16T18:31:25Z","incident_modified_time_utc":"2022-08-16T20:38:16Z","containment_time_utc":null,"control_time_utc":null,"fire_out_time_utc":null,"fire_cause":"Natural","fire_cause_general":null,"map_method":"Image Interpretation","source_dataset":"2022 NIFS","unique_fire_identifier":"2022-GAGAS-102302","irwin_id":"{EF371613-F5EB-482B-93D8-DB5758493780}","global_id":"4e6d909c-09a8-4ce6-8c9b-8f16ebdb4f91"}},{"type":"Feature","geometry":{"type":"Polygon","coordinates":[[[-84.66094,30.90624],[-84.6612,30.90671],[-84.66153,30.90682],[-84.66309,30.90671],[-84.66819,30.90732],[-84.66993,30.90714],[-84.67005,30.90698],[-84.67,30.90656],[-84.67026,30.9064],[-84.67082,30.90633],[-84.67302,30.9065],[-84.67402,30.90716],[-84.67471,30.90732],[-84.67531,30.90767],[-84.67628,30.90783],[-84.67677,30.90822],[-84.67722,30.90889],[-84.67769,30.90923],[-84.67903,30.90966],[-84.67967,30.91038],[-84.67998,30.91124],[-84.6808,30.91243],[-84.68075,30.91264],[-84.68042,30.91279],[-84.68064,30.91321],[-84.68061,30.91348],[-84.67979,30.91405],[-84.67882,30.91536],[-84.67953,30.91548],[-84.67955,30.9158],[-84.68035,30.91605],[-84.68065,30.91646],[-84.68077,30.9172],[-84.68042,30.91769],[-84.68034,30.91804],[-84.68063,30.91847],[-84.68073,30.91902],[-84.6806,30.9209],[-84.68041,30.92142],[-84.68013,30.92159],[-84.67907,30.92177],[-84.67817,30.92168],[-84.67785,30.9215],[-84.67726,30.92165],[-84.67611,30.9216],[-84.67517,30.92134],[-84.6733,30.92162],[-84.66949,30.92164],[-84.66864,30.92149],[-84.66786,30.92152],[-84.66741,30.92128],[-84.66722,30.92101],[-84.66769,30.92016],[-84.66762,30.91845],[-84.66772,30.91761],[-84.66705,30.91616],[-84.66682,30.91594],[-84.6663,30.9159],[-84.66573,30.91481],[-84.66613,30.9135],[-84.66587,30.91262],[-84.6661,30.91182],[-84.66515,30.91196],[-84.66361,30.91186],[-84.66178,30.91111],[-84.66129,30.91076],[-84.66101,30.91027],[-84.66016,30.90942],[-84.66029,30.90901],[-84.66016,30.90865],[-84.66015,30.90725],[-84.66066,30.90677],[-84.66094,30.90624]]]},"properties":{"fire_id":"ufid:2022-GAGAS-092201","source_collection":"history-2022","source_objectid":13639,"incident_name":"John Rich Rd","mapped_acres":468.0,"mapped_acres_source":"poly_GISAcres","gis_acres":468.0,"auto_acres":567.273356681661,"reported_acres":468.0,"percent_contained":100.0,"state":"GA","state_wfigs":"US-GA","county":"Decatur","discovery_time_utc":"2022-03-14T19:30:00Z","perimeter_time_utc":null,"perimeter_edit_time_utc":"2022-08-03T16:27:46Z","incident_modified_time_utc":"2022-03-15T22:29:05Z","containment_time_utc":null,"control_time_utc":null,"fire_out_time_utc":null,"fire_cause":"Human","fire_cause_general":null,"map_method":"Image Interpretation","source_dataset":"2022 NIFS","unique_fire_identifier":"2022-GAGAS-092201","irwin_id":"{2C46E0BB-1E5A-4BA5-83F1-B9E427C727C8}","global_id":"ea015238-a8d1-4a95-8d55-024190dbcf21"}},{"type":"Feature","geometry":{"type":"Polygon","coordinates":[[[-84.30825,34.81122],[-84.3081,34.8099],[-84.30792,34.80964],[-84.30756,34.80946],[-84.30755,34.80924],[-84.30705,34.80882],[-84.30662,34.80781],[-84.30687,34.80701],[-84.3073,34.80677],[-84.30746,34.80633],[-84.3082,34.80588],[-84.3082,34.80566],[-84.30861,34.80559],[-84.30874,34.80541],[-84.30905,34.80535],[-84.30904,34.80523],[-84.30937,34.80525],[-84.30952,34.80509],[-84.30998,34.80498],[-84.31083,34.80505],[-84.311,34.80527],[-84.31122,34.8051],[-84.31149,34.80512],[-84.31177,34.80489],[-84.31208,34.80496],[-84.31223,34.80484],[-84.31264,34.8051],[-84.31327,34.80521],[-84.31315,34.8055],[-84.3134,34.80567],[-84.31626,34.80717],[-84.31601,34.80767],[-84.31542,34.80794],[-84.31526,34.80833],[-84.3149,34.80865],[-84.31418,34.80873],[-84.31372,34.80926],[-84.3132,34.80907],[-84.31288,34.80926],[-84.31276,34.80949],[-84.31296,34.80984],[-84.3128,34.80999],[-84.31192,34.80971],[-84.3118,34.80934],[-84.3116,34.80943],[-84.31139,34.80932],[-84.31121,34.80966],[-84.31123,34.8099],[-84.31055,34.81003],[-84.31053,34.81028],[-84.30995,34.81068],[-84.30995,34.81094],[-84.30955,34.81104],[-84.30929,34.81086],[-84.30874,34.81081],[-84.30839,34.81091],[-84.30825,34.81122]]]},"properties":{"fire_id":"ufid:2022-GACHF-220098","source_collection":"history-2022","source_objectid":14059,"incident_name":"Flat Creek","mapped_acres":90.45,"mapped_acres_source":"poly_GISAcres","gis_acres":90.45,"auto_acres":90.44779268723852,"reported_acres":90.4,"percent_contained":null,"state":"GA","state_wfigs":"US-GA","county":"Fannin","discovery_time_utc":"2022-11-09T14:22:00Z","perimeter_time_utc":"2023-01-13T16:27:12Z","perimeter_edit_time_utc":"2023-03-14T15:13:42Z","incident_modified_time_utc":"2023-01-10T20:02:37Z","containment_time_utc":"2022-11-10T21:13:00Z","control_time_utc":"2023-01-10T20:00:00Z","fire_out_time_utc":"2023-01-10T20:00:00Z","fire_cause":"Human","fire_cause_general":"Debris and open burning","map_method":"Hand Sketch","source_dataset":"FFP","unique_fire_identifier":"2022-GACHF-220098","irwin_id":"{CDFB2E14-8EA0-4FF5-9D4C-59BC6CF5757B}","global_id":"bfd567f7-2b34-4529-9466-3c4d1a1c167b"}},{"type":"Feature","geometry":{"type":"Polygon","coordinates":[[[-82.29162,31.51732],[-82.29075,31.51661],[-82.29068,31.51468],[-82.2894,31.51234],[-82.28945,31.51212],[-82.28962,31.51213],[-82.29013,31.51304],[-82.29033,31.5127],[-82.29004,31.51216],[-82.29067,31.51234],[-82.2915,31.51306],[-82.29166,31.51306],[-82.29182,31.51279],[-82.29072,31.51148],[-82.2904,31.51063],[-82.28963,31.51153],[-82.28963,31.51193],[-82.28941,31.51206],[-82.28902,31.51171],[-82.28905,31.51156],[-82.28998,31.51075],[-82.28996,31.51053],[-82.28965,31.51021],[-82.28983,31.50962],[-82.29031,31.50941],[-82.29067,31.5095],[-82.2909,31.50907],[-82.29148,31.5088],[-82.29177,31.5089],[-82.29211,31.50949],[-82.29377,31.5091],[-82.29384,31.50881],[-82.2934,31.5082],[-82.29343,31.508],[-82.29373,31.50771],[-82.29373,31.50748],[-82.29278,31.50681],[-82.29261,31.50659],[-82.29265,31.50641],[-82.29283,31.50635],[-82.2931,31.50661],[-82.29328,31.50626],[-82.29346,31.50668],[-82.294,31.50663],[-82.29445,31.50701],[-82.29489,31.50703],[-82.29418,31.50608],[-82.29454,31.50607],[-82.295,31.50633],[-82.29489,31.50583],[-82.296,31.50566],[-82.29627,31.50596],[-82.29635,31.5065],[-82.29624,31.50676],[-82.29579,31.50707],[-82.29591,31.50739],[-82.29574,31.50802],[-82.29622,31.50838],[-82.29685,31.50841],[-82.29696,31.5087],[-82.29763,31.50928],[-82.29754,31.50959],[-82.29714,31.50987],[-82.29615,31.51016],[-82.29598,31.51072],[-82.29598,31.51171],[-82.29659,31.51189],[-82.29666,31.51243],[-82.29687,31.51272],[-82.29714,31.51251],[-82.2975,31.5125],[-82.29788,31.51277],[-82.29806,31.51324],[-82.29789,31.51363],[-82.29766,31.51378],[-82.29819,31.51414],[-82.29807,31.51471],[-82.29776,31.51505],[-82.2984,31.51529],[-82.29902,31.51484],[-82.29947,31.51469],[-82.29959,31.51477],[-82.29933,31.51507],[-82.29885,31.51531],[-82.2984,31.51594],[-82.29853,31.51657],[-82.29844,31.51693],[-82.29889,31.51725],[-82.29897,31.51747],[-82.29887,31.51766],[-82.29867,31.51771],[-82.29856,31.51816],[-82.29831,31.51825],[-82.29831,31.51838],[-82.29912,31.51868],[-82.2993,31.51848],[-82.29981,31.51843],[-82.30203,31.51852],[-82.30218,31.51882],[-82.30208,31.51945],[-82.30231,31.52008],[-82.3022,31.5207],[-82.30284,31.52122],[-82.30296,31.52205],[-82.30371,31.52295],[-82.30458,31.52334],[-82.30481,31.52385],[-82.30552,31.52411],[-82.30547,31.52445],[-82.30514,31.52465],[-82.30389,31.52485],[-82.30338,31.52473],[-82.30299,31.52442],[-82.30202,31.52428],[-82.30173,31.52411],[-82.30128,31.52431],[-82.30124,31.52443],[-82.30173,31.52461],[-82.30177,31.52475],[-82.30159,31.52506],[-82.30108,31.52501],[-82.30092,31.5252],[-82.30223,31.52502],[-82.30201,31.52557],[-82.30164,31.52592],[-82.30161,31.52616],[-82.30127,31.52627],[-82.30134,31.52673],[-82.30146,31.52679],[-82.30194,31.52646],[-82.30184,31.52689],[-82.30193,31.52727],[-82.30173,31.5277],[-82.30155,31.52741],[-82.30131,31.52742],[-82.30119,31.52694],[-82.30074,31.52722],[-82.30047,31.52697],[-82.30011,31.52708],[-82.29992,31.52692],[-82.30002,31.52668],[-82.30038,31.52687],[-82.30053,31.52679],[-82.30036,31.52637],[-82.30057,31.5261],[-82.2999,31.52541],[-82.29912,31.52517],[-82.2989,31.52529],[-82.29899,31.52547],[-82.29888,31.52586],[-82.29867,31.52604],[-82.29846,31.52587],[-82.2984,31.52557],[-82.29687,31.52561],[-82.29675,31.52547],[-82.29688,31.52529],[-82.29655,31.52493],[-82.29674,31.52457],[-82.29642,31.52439],[-82.29624,31.52379],[-82.29539,31.52327],[-82.29534,31.5227],[-82.29492,31.52241],[-82.29443,31.52234],[-82.29386,31.52192],[-82.29367,31.5216],[-82.29395,31.52088],[-82.29364,31.52044],[-82.29393,31.52035],[-82.29373,31.52017],[-82.29381,31.51989],[-82.294,31.5199],[-82.29409,31.52022],[-82.29434,31.51988],[-82.29489,31.52008],[-82.29537,31.52001],[-82.29564,31.51972],[-82.29561,31.51954],[-82.29523,31.51947],[-82.29504,31.5193],[-82.29518,31.51862],[-82.29489,31.51869],[-82.29463,31.51896],[-82.29341,31.51859],[-82.29305,31.51841],[-82.29275,31.51792],[-82.29162,31.51732]]]},"properties":{"fire_id":"ufid:2022-GAGAS-102202","source_collection":"history-2022","source_objectid":14152,"incident_name":"Coffee Hwy","mapped_acres":350.0,"mapped_acres_source":"poly_GISAcres","gis_acres":350.0,"auto_acres":342.878870548801,"reported_acres":163.0,"percent_contained":100.0,"state":"GA","state_wfigs":"US-GA","county":"Bacon","discovery_time_utc":"2022-06-23T15:00:00Z","perimeter_time_utc":"2022-06-23T20:00:00Z","perimeter_edit_time_utc":"2022-12-16T22:15:20Z","incident_modified_time_utc":"2022-06-28T18:23:39Z","containment_time_utc":null,"control_time_utc":null,"fire_out_time_utc":null,"fire_cause":"Human","fire_cause_general":null,"map_method":"Image Interpretation","source_dataset":"2022 NIFS","unique_fire_identifier":"2022-GAGAS-102202","irwin_id":"{7D229A00-7ADB-4EB8-899E-44AA18ABC4D5}","global_id":"99ef63bb-5a8b-4b8f-9bb3-5c251fd7f829"}},{"type":"Feature","geometry":{"type":"Polygon","coordinates":[[[-82.91197,31.28921],[-82.91166,31.28914],[-82.91167,31.28893],[-82.91213,31.28879],[-82.91238,31.28884],[-82.91241,31.28875],[-82.91221,31.28821],[-82.91208,31.28824],[-82.91201,31.28862],[-82.9116,31.28852],[-82.91193,31.28836],[-82.91212,31.2879],[-82.912,31.28775],[-82.91205,31.28756],[-82.91175,31.28767],[-82.91151,31.28752],[-82.91165,31.28737],[-82.91156,31.28663],[-82.91144,31.28668],[-82.91136,31.28723],[-82.91123,31.28721],[-82.91105,31.28686],[-82.91077,31.28731],[-82.91054,31.28735],[-82.91022,31.28682],[-82.9097,31.28668],[-82.90937,31.28636],[-82.90907,31.28643],[-82.90892,31.28629],[-82.90901,31.28611],[-82.90879,31.2861],[-82.90875,31.28568],[-82.90898,31.28549],[-82.90901,31.28519],[-82.90816,31.28361],[-82.90751,31.28299],[-82.90691,31.28069],[-82.90702,31.28027],[-82.90687,31.27969],[-82.90743,31.27823],[-82.9074,31.27785],[-82.90775,31.27757],[-82.90791,31.27717],[-82.9082,31.27701],[-82.90826,31.27667],[-82.90848,31.27647],[-82.90852,31.27439],[-82.90892,31.27426],[-82.90908,31.27394],[-82.90955,31.27389],[-82.90971,31.27344],[-82.91034,31.27307],[-82.91144,31.27319],[-82.9118,31.27308],[-82.91236,31.2732],[-82.91343,31.27311],[-82.91392,31.27332],[-82.91382,31.27363],[-82.91458,31.2738],[-82.91494,31.2736],[-82.91528,31.27362],[-82.91534,31.27386],[-82.91581,31.27392],[-82.91594,31.27417],[-82.91627,31.27419],[-82.91689,31.2747],[-82.91783,31.27476],[-82.91796,31.27501],[-82.91772,31.27532],[-82.91798,31.27578],[-82.91819,31.27587],[-82.91881,31.2757],[-82.91898,31.27598],[-82.91934,31.27602],[-82.91976,31.27632],[-82.9198,31.27662],[-82.91945,31.27658],[-82.91951,31.27685],[-82.91937,31.27696],[-82.91888,31.27662],[-82.91865,31.27683],[-82.91842,31.27667],[-82.91838,31.27685],[-82.91863,31.27724],[-82.91911,31.27759],[-82.91944,31.27739],[-82.91944,31.27702],[-82.92011,31.27693],[-82.92023,31.27716],[-82.92009,31.27749],[-82.92044,31.2776],[-82.92053,31.279],[-82.92042,31.27912],[-82.92014,31.27896],[-82.92012,31.27931],[-82.9206,31.27939],[-82.9205,31.27955],[-82.91994,31.27969],[-82.9206,31.27981],[-82.92088,31.28],[-82.92118,31.27986],[-82.92303,31.28014],[-82.9229,31.28069],[-82.92338,31.28107],[-82.92317,31.28169],[-82.92324,31.28253],[-82.92366,31.28261],[-82.92356,31.28278],[-82.92306,31.28295],[-82.92266,31.28354],[-82.9221,31.28366],[-82.92125,31.28437],[-82.92117,31.28491],[-82.92103,31.28506],[-82.9206,31.28519],[-82.91896,31.28447],[-82.91834,31.28494],[-82.91776,31.28632],[-82.91703,31.28637],[-82.91685,31.28718],[-82.9148,31.28783],[-82.91393,31.28871],[-82.91341,31.28875],[-82.9132,31.28889],[-82.91297,31.28863],[-82.91282,31.28866],[-82.91273,31.28873],[-82.91282,31.289],[-82.91256,31.28895],[-82.91241,31.28911],[-82.91197,31.28921]]]},"properties":{"fire_id":"ufid:2022-GAGAS-102201","source_collection":"history-2022","source_objectid":14160,"incident_name":"Kirkland Pond Fire","mapped_acres":442.0,"mapped_acres_source":"poly_GISAcres","gis_acres":442.0,"auto_acres":442.204277584778,"reported_acres":442.0,"percent_contained":100.0,"state":"GA","state_wfigs":"US-GA","county":"Atkinson","discovery_time_utc":"2022-02-01T19:30:00Z","perimeter_time_utc":null,"perimeter_edit_time_utc":"2022-12-16T18:24:48Z","incident_modified_time_utc":"2022-02-03T20:19:06Z","containment_time_utc":null,"control_time_utc":null,"fire_out_time_utc":null,"fire_cause":"Human","fire_cause_general":null,"map_method":"Image Interpretation","source_dataset":"2022 NIFS","unique_fire_identifier":"2022-GAGAS-102201","irwin_id":"{0B2E57E2-9A45-4B45-AC14-43D8E50DA7D5}","global_id":"9d1f6729-bdc9-4e02-bd17-b2d41291fe4e"}},{"type":"Feature","geometry":{"type":"Polygon","coordinates":[[[-84.65662,34.98526],[-84.65716,34.98386],[-84.6582,34.98355],[-84.6584,34.9842],[-84.6588,34.98469],[-84.65923,34.9847],[-84.65883,34.98417],[-84.65902,34.98368],[-84.65936,34.9835],[-84.65979,34.98292],[-84.66033,34.98309],[-84.66069,34.98255],[-84.66123,34.98208],[-84.6614,34.98166],[-84.66201,34.98149],[-84.663,34.98131],[-84.66326,34.98177],[-84.66318,34.98226],[-84.66363,34.98252],[-84.66434,34.98237],[-84.66516,34.98197],[-84.66557,34.98198],[-84.66732,34.98311],[-84.66726,34.98361],[-84.66668,34.98438],[-84.66555,34.98438],[-84.66457,34.98464],[-84.6641,34.98438],[-84.66426,34.98575],[-84.6633,34.98556],[-84.66321,34.98595],[-84.66337,34.98649],[-84.6625,34.98673],[-84.66212,34.98759],[-84.66135,34.98825],[-84.65993,34.98868],[-84.65961,34.98831],[-84.66016,34.98804],[-84.65963,34.98741],[-84.65902,34.98716],[-84.65852,34.98629],[-84.65807,34.9863],[-84.65775,34.98591],[-84.65662,34.98526]]]},"properties":{"fire_id":"ufid:2022-GACHF-220087","source_collection":"history-2022","source_objectid":15777,"incident_name":"Iron Mountain","mapped_acres":92.313,"mapped_acres_source":"poly_GISAcres","gis_acres":92.313,"auto_acres":92.31299545097869,"reported_acres":89.0,"percent_contained":null,"state":"GA","state_wfigs":"US-GA","county":"Murray","discovery_time_utc":"2022-07-13T13:15:00Z","perimeter_time_utc":"2023-03-30T17:14:08Z","perimeter_edit_time_utc":"2023-03-30T17:14:08Z","incident_modified_time_utc":"2022-08-02T15:36:22Z","containment_time_utc":"2022-07-26T22:00:00Z","control_time_utc":"2022-07-27T21:00:00Z","fire_out_time_utc":"2022-08-01T16:00:00Z","fire_cause":"Natural","fire_cause_general":"Natural","map_method":"Auto-generated","source_dataset":"FFP","unique_fire_identifier":"2022-GACHF-220087","irwin_id":"{3060AC2A-D324-4FC7-8DC5-153A53829557}","global_id":"512a975d-c360-46c9-bb18-7ebf425a52ee"}}]}
