{"type":"FeatureCollection","features":[{"type":"Feature","geometry":{"type":"Polygon","coordinates":[[[-92.61577,41.96149],[-92.61572,41.96256],[-92.61515,41.96359],[-92.6095,41.96362],[-92.60805,41.96323],[-92.60572,41.96231],[-92.60318,41.96057],[-92.6013,41.95961],[-92.59816,41.95927],[-92.59576,41.95875],[-92.59418,41.95791],[-92.59389,41.9575],[-92.59389,41.95707],[-92.59428,41.95662],[-92.59473,41.95654],[-92.59576,41.95687],[-92.59984,41.95889],[-92.60097,41.95908],[-92.6013,41.95894],[-92.60337,41.959],[-92.60936,41.95974],[-92.61148,41.96012],[-92.61454,41.96089],[-92.61577,41.96149]]]},"properties":{"fire_id":"ufid:2022-IASFA-F512208","source_collection":"history-2022","source_objectid":7055,"incident_name":"Squires","mapped_acres":113.0,"mapped_acres_source":"poly_GISAcres","gis_acres":113.0,"auto_acres":112.64773781106622,"reported_acres":113.0,"percent_contained":null,"state":"IA","state_wfigs":"US-IA","county":"Tama","discovery_time_utc":"2022-12-03T03:57:53Z","perimeter_time_utc":"2022-12-13T14:56:47Z","perimeter_edit_time_utc":"2023-03-14T15:13:42Z","incident_modified_time_utc":"2022-12-13T13:59:16Z","containment_time_utc":null,"control_time_utc":null,"fire_out_time_utc":"2022-12-03T23:00:00Z","fire_cause":"Human","fire_cause_general":"Other causes","map_method":"Mixed Methods","source_dataset":"FFP","unique_fire_identifier":"2022-IASFA-F512208","irwin_id":"{22C5111A-9A42-479A-B856-5679AB254385}","global_id":"cd8e5633-eb00-404f-bb36-b92ecc398e60"}},{"type":"Feature","geometry":{"type":"Polygon","coordinates":[[[-92.69607,41.99899],[-92.69548,41.99886],[-92.696,41.99876],[-92.69612,41.99886],[-92.69607,41.99899]]]},"properties":{"fire_id":"ufid:2022-IASFA-F512202","source_collection":"history-2022","source_objectid":7700,"incident_name":"3053 E. Ave","mapped_acres":0.20148348287722195,"mapped_acres_source":"poly_Acres_AutoCalc_fallback","gis_acres":null,"auto_acres":0.20148348287722195,"reported_acres":0.2,"percent_contained":null,"state":"IA","state_wfigs":"US-IA","county":"Tama","discovery_time_utc":"2022-03-16T21:25:32Z","perimeter_time_utc":"2022-08-05T21:10:20Z","perimeter_edit_time_utc":"2023-03-14T15:13:42Z","incident_modified_time_utc":"2022-03-18T18:01:48Z","containment_time_utc":null,"control_time_utc":null,"fire_out_time_utc":"2022-03-16T22:30:00Z","fire_cause":"Human","fire_cause_general":"Debris and open burning","map_method":"Mixed Methods","source_dataset":"FFP","unique_fire_identifier":"2022-IASFA-F512202","irwin_id":"{ED5EBC06-3976-414E-B495-A3AC7F489B32}","global_id":"ebd12856-c419-4d03-94d2-ad4a62bb6093"}},{"type":"Feature","geometry":{"type":"Polygon","coordinates":[[[-92.60123,41.96087],[-92.60124,41.96075],[-92.60094,41.96063],[-92.59984,41.95951],[-92.59958,41.95875],[-92.59924,41.95835],[-92.59894,41.95659],[-92.60127,41.95669],[-92.60133,41.95656],[-92.60105,41.95575],[-92.60132,41.95545],[-92.60199,41.95558],[-92.60215,41.95606],[-92.60234,41.9579],[-92.60177,41.95894],[-92.60236,41.95957],[-92.60192,41.96042],[-92.60146,41.9606],[-92.60136,41.96087],[-92.60123,41.96087]]]},"properties":{"fire_id":"ufid:2022-IASFA-F512204","source_collection":"history-2022","source_objectid":8958,"incident_name":"H. Ave","mapped_acres":25.62,"mapped_acres_source":"poly_GISAcres","gis_acres":25.62,"auto_acres":25.620241714970064,"reported_acres":25.62,"percent_contained":null,"state":"IA","state_wfigs":"US-IA","county":"Tama","discovery_time_utc":"2022-03-27T22:30:05Z","perimeter_time_utc":"2022-08-05T21:13:47Z","perimeter_edit_time_utc":"2023-03-14T15:13:42Z","incident_modified_time_utc":"2022-03-30T15:03:00Z","containment_time_utc":null,"control_time_utc":"2022-03-28T01:30:00Z","fire_out_time_utc":"2022-03-28T02:00:00Z","fire_cause":"Human","fire_cause_general":"Undetermined","map_method":"Mixed Methods","source_dataset":"FFP","unique_fire_identifier":"2022-IASFA-F512204","irwin_id":"{9C77926A-A1B1-4B5F-A90F-E8EC0B202FA8}","global_id":"7a7c02ec-8140-448c-b32d-d56b48514056"}},{"type":"Feature","geometry":{"type":"Polygon","coordinates":[[[-92.62862,41.98572],[-92.62814,41.98565],[-92.62808,41.98511],[-92.62829,41.98512],[-92.62843,41.98559],[-92.62862,41.98572]]]},"properties":{"fire_id":"ufid:2022-IASFA-F512201","source_collection":"history-2022","source_objectid":9148,"incident_name":"3140 H. Ave","mapped_acres":0.3478274267420248,"mapped_acres_source":"poly_Acres_AutoCalc_fallback","gis_acres":null,"auto_acres":0.3478274267420248,"reported_acres":0.4,"percent_contained":null,"state":"IA","state_wfigs":"US-IA","county":"Tama","discovery_time_utc":"2022-03-13T18:34:09Z","perimeter_time_utc":"2022-08-05T21:10:01Z","perimeter_edit_time_utc":"2023-03-14T15:13:42Z","incident_modified_time_utc":"2022-03-18T18:00:21Z","containment_time_utc":null,"control_time_utc":null,"fire_out_time_utc":"2022-03-13T19:45:00Z","fire_cause":"Human","fire_cause_general":"Debris and open burning","map_method":"Mixed Methods","source_dataset":"FFP","unique_fire_identifier":"2022-IASFA-F512201","irwin_id":"{B6372C88-630B-4853-8F9B-21BCAA151A64}","global_id":"744fc11b-7bd9-41b5-84b7-5c9cdfec0cb9"}},{"type":"Feature","geometry":{"type":"Polygon","coordinates":[[[-92.62732,41.96027],[-92.62734,41.95971],[-92.62751,41.9595],[-92.62803,41.95962],[-92.62892,41.96069],[-92.62911,41.96118],[-92.62851,41.96116],[-92.62787,41.96088],[-92.62762,41.96046],[-92.62732,41.96027]]]},"properties":{"fire_id":"ufid:2022-IASFA-F512205","source_collection":"history-2022","source_objectid":9313,"incident_name":"E-49","mapped_acres":0.5,"mapped_acres_source":"poly_GISAcres","gis_acres":0.5,"auto_acres":3.7469927404518804,"reported_acres":3.8,"percent_contained":null,"state":"IA","state_wfigs":"US-IA","county":"Tama","discovery_time_utc":"2022-04-11T00:02:11Z","perimeter_time_utc":"2022-06-22T19:28:52Z","perimeter_edit_time_utc":"2023-03-14T15:13:42Z","incident_modified_time_utc":"2022-04-12T13:12:52Z","containment_time_utc":null,"control_time_utc":null,"fire_out_time_utc":"2022-04-11T02:00:00Z","fire_cause":"Human","fire_cause_general":"Undetermined","map_method":"Mixed Methods","source_dataset":"FFP","unique_fire_identifier":"2022-IASFA-F512205","irwin_id":"{AF4DC90B-8D73-4342-A9DE-A66E5F765E31}","global_id":"3b2f547f-dbc2-421c-b5ea-5959f803b524"}},{"type":"Feature","geometry":{"type":"Polygon","coordinates":[[[-92.6445,41.99889],[-92.64472,41.99896],[-92.64477,41.99917],[-92.64456,41.99925],[-92.64442,41.99902],[-92.6445,41.99889]]]},"properties":{"fire_id":"ufid:2022-IASFA-F512206","source_collection":"history-2022","source_objectid":10212,"incident_name":"1639 Highway 30","mapped_acres":0.4,"mapped_acres_source":"poly_GISAcres","gis_acres":0.4,"auto_acres":0.20584920587227395,"reported_acres":0.4,"percent_contained":null,"state":"IA","state_wfigs":"US-IA","county":"Tama","discovery_time_utc":"2022-04-12T23:36:30Z","perimeter_time_utc":"2022-06-22T19:29:59Z","perimeter_edit_time_utc":"2023-03-14T15:13:42Z","incident_modified_time_utc":"2022-04-14T12:49:23Z","containment_time_utc":null,"control_time_utc":null,"fire_out_time_utc":"2022-04-13T00:45:00Z","fire_cause":"Human","fire_cause_general":"Debris and open burning","map_method":"Mixed Methods","source_dataset":"FFP","unique_fire_identifier":"2022-IASFA-F512206","irwin_id":"{90B22D4C-22AE-4246-B146-B5CFF87E06C4}","global_id":"a43147f4-5a36-4482-9aa6-16868dbc9b35"}},{"type":"Feature","geometry":{"type":"Polygon","coordinates":[[[-92.64568,42.00873],[-92.64599,42.00896],[-92.64593,42.00955],[-92.64549,42.01099],[-92.64531,42.01099],[-92.64529,42.01078],[-92.64482,42.0108],[-92.6448,42.01005],[-92.64501,42.0097],[-92.64537,42.00965],[-92.64535,42.00946],[-92.64513,42.00939],[-92.64462,42.00977],[-92.64422,42.00975],[-92.64483,42.00886],[-92.64568,42.00873]]]},"properties":{"fire_id":"ufid:2022-IASFA-F512203","source_collection":"history-2022","source_objectid":11008,"incident_name":"Circle Ridge Drive","mapped_acres":5.08,"mapped_acres_source":"poly_GISAcres","gis_acres":5.08,"auto_acres":5.084033680431767,"reported_acres":5.1,"percent_contained":null,"state":"IA","state_wfigs":"US-IA","county":"Tama","discovery_time_utc":"2022-03-21T21:57:57Z","perimeter_time_utc":"2022-08-05T21:13:43Z","perimeter_edit_time_utc":"2023-03-14T15:13:42Z","incident_modified_time_utc":"2022-03-24T14:47:35Z","containment_time_utc":null,"control_time_utc":null,"fire_out_time_utc":"2022-03-21T23:30:00Z","fire_cause":"Human","fire_cause_general":"Debris and open burning","map_method":"Mixed Methods","source_dataset":"FFP","unique_fire_identifier":"2022-IASFA-F512203","irwin_id":"{83C07950-11F4-4F51-A329-674C5D84FC0F}","global_id":"862569ee-ab2b-4f17-8430-71a42f41ef28"}},{"type":"Feature","geometry":{"type":"Polygon","coordinates":[[[-92.64256,41.99977],[-92.64203,41.99991],[-92.64203,41.99965],[-92.64232,41.99957],[-92.6426,41.99966],[-92.64256,41.99977]]]},"properties":{"fire_id":"ufid:2022-IASFA-F512207","source_collection":"history-2022","source_objectid":12961,"incident_name":"1639 Hwy 30-2","mapped_acres":0.3,"mapped_acres_source":"poly_GISAcres","gis_acres":0.3,"auto_acres":0.2972513141801434,"reported_acres":0.3,"percent_contained":null,"state":"IA","state_wfigs":"US-IA","county":"Tama","discovery_time_utc":"2022-11-09T18:29:10Z","perimeter_time_utc":"2022-11-15T15:28:41Z","perimeter_edit_time_utc":"2023-03-14T15:13:42Z","incident_modified_time_utc":"2022-11-15T15:01:05Z","containment_time_utc":null,"control_time_utc":null,"fire_out_time_utc":"2022-11-09T20:00:00Z","fire_cause":"Human","fire_cause_general":"Smoking","map_method":"Mixed Methods","source_dataset":"FFP","unique_fire_identifier":"2022-IASFA-F512207","irwin_id":"{FE752F43-6434-4389-A3DF-860C88595A68}","global_id":"f9a5cd8f-2225-4b5f-9028-e7d5a638ef89"}}]}
