{"type":"FeatureCollection","features":[{"type":"Feature","geometry":{"type":"Polygon","coordinates":[[[-85.19039,37.56201],[-85.18938,37.56155],[-85.18967,37.56105],[-85.1901,37.56073],[-85.19004,37.5601],[-85.18985,37.55969],[-85.18904,37.55974],[-85.18897,37.55994],[-85.18775,37.56015],[-85.18772,37.56028],[-85.18831,37.56073],[-85.18819,37.56103],[-85.18788,37.56119],[-85.18725,37.5609],[-85.18696,37.56093],[-85.18622,37.56068],[-85.18568,37.56023],[-85.1857,37.55977],[-85.18519,37.55961],[-85.18474,37.55963],[-85.1844,37.56021],[-85.1842,37.56032],[-85.1838,37.56023],[-85.18383,37.56001],[-85.18373,37.55995],[-85.18313,37.55999],[-85.18288,37.55989],[-85.18282,37.5597],[-85.18306,37.55949],[-85.18325,37.55906],[-85.18411,37.55866],[-85.18483,37.55813],[-85.18466,37.55777],[-85.18469,37.55741],[-85.18434,37.55732],[-85.18436,37.55687],[-85.18345,37.55579],[-85.18338,37.55508],[-85.18308,37.55463],[-85.18325,37.55409],[-85.18293,37.55339],[-85.18293,37.55291],[-85.18357,37.55274],[-85.1842,37.55328],[-85.18438,37.55362],[-85.18506,37.5535],[-85.18667,37.55405],[-85.18696,37.55445],[-85.1868,37.55493],[-85.18712,37.55508],[-85.18734,37.55573],[-85.18797,37.55615],[-85.18896,37.55641],[-85.18906,37.55662],[-85.18899,37.55687],[-85.18943,37.55729],[-85.1896,37.55777],[-85.18996,37.55795],[-85.18996,37.55831],[-85.19019,37.55866],[-85.19096,37.55935],[-85.19122,37.55974],[-85.19284,37.56064],[-85.19292,37.56108],[-85.19263,37.56123],[-85.1926,37.56144],[-85.19239,37.56162],[-85.192,37.56157],[-85.19165,37.5617],[-85.19128,37.56146],[-85.19079,37.56171],[-85.19065,37.56197],[-85.19039,37.56201]]]},"properties":{"fire_id":"ufid:2022-KYKYS-221550453","source_collection":"history-2022","source_objectid":14973,"incident_name":"Helms Schoolhouse","mapped_acres":230.0,"mapped_acres_source":"poly_GISAcres","gis_acres":230.0,"auto_acres":95.2455292181324,"reported_acres":230.0,"percent_contained":100.0,"state":"KY","state_wfigs":"US-KY","county":"Marion","discovery_time_utc":"2022-03-22T19:00:00Z","perimeter_time_utc":null,"perimeter_edit_time_utc":"2022-12-20T21:18:02Z","incident_modified_time_utc":"2022-03-24T22:28:41Z","containment_time_utc":null,"control_time_utc":null,"fire_out_time_utc":null,"fire_cause":"Human","fire_cause_general":null,"map_method":"Image Interpretation","source_dataset":"2022 NIFS","unique_fire_identifier":"2022-KYKYS-221550453","irwin_id":"{BAD411C9-76B4-4810-BA3B-789BE516F8C7}","global_id":"82eef62c-8a3e-462c-8e77-c35a9377aa87"}},{"type":"Feature","geometry":{"type":"Polygon","coordinates":[[[-87.03752,37.24813],[-87.03751,37.24824],[-87.0383,37.24877],[-87.03866,37.24931],[-87.03849,37.24969],[-87.03793,37.24996],[-87.03804,37.25027],[-87.0369,37.2505],[-87.03669,37.25024],[-87.0368,37.24996],[-87.03661,37.24989],[-87.03597,37.25031],[-87.03524,37.25046],[-87.03503,37.25047],[-87.0349,37.25019],[-87.03468,37.25053],[-87.03447,37.25061],[-87.0339,37.25059],[-87.03354,37.25031],[-87.03304,37.25044],[-87.03309,37.25096],[-87.03375,37.25085],[-87.03398,37.25096],[-87.03405,37.2511],[-87.03368,37.25146],[-87.0339,37.25206],[-87.03409,37.25208],[-87.03453,37.25182],[-87.03458,37.25164],[-87.03512,37.25146],[-87.03452,37.25122],[-87.03495,37.25123],[-87.03547,37.25093],[-87.03597,37.25083],[-87.0364,37.25095],[-87.03733,37.25073],[-87.03811,37.25078],[-87.03908,37.25035],[-87.03954,37.25039],[-87.0389,37.25064],[-87.03868,37.25087],[-87.03801,37.25107],[-87.0374,37.25118],[-87.03685,37.25108],[-87.03564,37.25135],[-87.0362,37.25167],[-87.03636,37.25196],[-87.03604,37.25291],[-87.03547,37.2531],[-87.03571,37.25322],[-87.03568,37.25348],[-87.03511,37.25328],[-87.03454,37.25339],[-87.03459,37.25389],[-87.03404,37.25391],[-87.03389,37.2541],[-87.03392,37.25434],[-87.03368,37.25453],[-87.03382,37.25482],[-87.03376,37.25511],[-87.0332,37.25517],[-87.03304,37.25533],[-87.03302,37.2551],[-87.03282,37.25499],[-87.03243,37.25532],[-87.03223,37.25532],[-87.03181,37.25496],[-87.03175,37.25453],[-87.03147,37.25417],[-87.03074,37.25411],[-87.03074,37.2538],[-87.03127,37.25347],[-87.0315,37.25296],[-87.03214,37.25228],[-87.03148,37.25202],[-87.03097,37.25206],[-87.03039,37.25191],[-87.03005,37.25167],[-87.03075,37.25167],[-87.03097,37.25112],[-87.03147,37.25095],[-87.03177,37.2506],[-87.03179,37.25021],[-87.03224,37.24982],[-87.03243,37.24921],[-87.03312,37.24875],[-87.03375,37.24863],[-87.03406,37.24828],[-87.03752,37.24813]]]},"properties":{"fire_id":"ufid:2022-KYKYS-221770912","source_collection":"history-2022","source_objectid":14975,"incident_name":"Kentucky 176","mapped_acres":230.0,"mapped_acres_source":"poly_GISAcres","gis_acres":230.0,"auto_acres":71.2202804711834,"reported_acres":230.0,"percent_contained":100.0,"state":"KY","state_wfigs":"US-KY","county":"Muhlenberg","discovery_time_utc":"2022-10-21T19:00:00Z","perimeter_time_utc":"2022-10-22T00:00:00Z","perimeter_edit_time_utc":"2022-12-20T17:53:27Z","incident_modified_time_utc":"2022-10-25T01:17:01Z","containment_time_utc":null,"control_time_utc":null,"fire_out_time_utc":null,"fire_cause":"Human","fire_cause_general":null,"map_method":"Image Interpretation","source_dataset":"2022 NIFS","unique_fire_identifier":"2022-KYKYS-221770912","irwin_id":"{5E55FF98-638A-4DD7-AD33-5AAE3B7D47A1}","global_id":"18a7dd22-7837-492a-84ef-f6832791a10a"}},{"type":"Feature","geometry":{"type":"Polygon","coordinates":[[[-85.68083,37.70881],[-85.68019,37.70845],[-85.67921,37.70738],[-85.67839,37.70706],[-85.67803,37.70677],[-85.6775,37.70667],[-85.67724,37.70694],[-85.6769,37.707],[-85.67579,37.70568],[-85.67551,37.70479],[-85.67517,37.70458],[-85.67463,37.70452],[-85.67415,37.704],[-85.67243,37.70321],[-85.67227,37.70279],[-85.67265,37.70255],[-85.67301,37.70253],[-85.67352,37.70284],[-85.67373,37.70317],[-85.67416,37.7031],[-85.67394,37.70335],[-85.67422,37.7034],[-85.67427,37.70353],[-85.67427,37.70305],[-85.6737,37.70266],[-85.67422,37.70245],[-85.67424,37.70192],[-85.67409,37.70151],[-85.67439,37.70144],[-85.67468,37.70156],[-85.67429,37.70192],[-85.67439,37.70215],[-85.67463,37.70228],[-85.67439,37.70245],[-85.67481,37.7026],[-85.67542,37.70253],[-85.67558,37.70245],[-85.67552,37.70205],[-85.67727,37.70138],[-85.67879,37.70105],[-85.67983,37.70062],[-85.68037,37.70059],[-85.68109,37.70076],[-85.68162,37.70121],[-85.68198,37.70121],[-85.6827,37.70154],[-85.68324,37.70162],[-85.68376,37.70192],[-85.68363,37.70263],[-85.68396,37.70325],[-85.68431,37.70324],[-85.68449,37.70297],[-85.68513,37.70344],[-85.68611,37.70359],[-85.68647,37.70384],[-85.68701,37.70373],[-85.68767,37.70407],[-85.68772,37.70425],[-85.6881,37.70423],[-85.68824,37.70479],[-85.68808,37.70497],[-85.68683,37.70503],[-85.68579,37.70554],[-85.68503,37.70561],[-85.68467,37.70593],[-85.68414,37.70575],[-85.68378,37.70579],[-85.68301,37.70636],[-85.68209,37.70759],[-85.68083,37.70881]]]},"properties":{"fire_id":"ufid:2022-KYKYS-221231262","source_collection":"history-2022","source_objectid":14980,"incident_name":"Edlin Hill","mapped_acres":160.0,"mapped_acres_source":"poly_GISAcres","gis_acres":160.0,"auto_acres":147.816512741625,"reported_acres":160.0,"percent_contained":100.0,"state":"KY","state_wfigs":"US-KY","county":"Larue","discovery_time_utc":"2022-11-10T05:00:00Z","perimeter_time_utc":"2022-11-10T11:00:00Z","perimeter_edit_time_utc":"2022-12-20T21:02:20Z","incident_modified_time_utc":"2022-11-13T00:30:34Z","containment_time_utc":null,"control_time_utc":null,"fire_out_time_utc":null,"fire_cause":"Undetermined","fire_cause_general":null,"map_method":"Image Interpretation","source_dataset":"2022 NIFS","unique_fire_identifier":"2022-KYKYS-221231262","irwin_id":"{60B9A1FE-FF1D-41AF-A2EB-124590AABDBB}","global_id":"97f02664-9722-40c3-b037-d08e1110cb4d"}},{"type":"Feature","geometry":{"type":"Polygon","coordinates":[[[-88.04875,36.78151],[-88.04873,36.78151],[-88.04873,36.78148],[-88.04875,36.78151]]]},"properties":{"fire_id":"ufid:2022-KYLBF-000232","source_collection":"history-2022","source_objectid":15813,"incident_name":"Turkey","mapped_acres":0.01,"mapped_acres_source":"poly_GISAcres","gis_acres":0.01,"auto_acres":0.0008431097373328712,"reported_acres":0.1,"percent_contained":null,"state":"KY","state_wfigs":"US-KY","county":"Trigg","discovery_time_utc":"2022-11-24T17:51:00Z","perimeter_time_utc":"2023-04-03T16:22:56Z","perimeter_edit_time_utc":"2023-04-03T16:22:56Z","incident_modified_time_utc":"2022-11-28T19:59:18Z","containment_time_utc":"2022-11-24T18:30:00Z","control_time_utc":"2022-11-28T19:30:00Z","fire_out_time_utc":"2022-11-28T19:30:00Z","fire_cause":"Human","fire_cause_general":"Equipment and vehicle use","map_method":"Hand Sketch","source_dataset":"FFP","unique_fire_identifier":"2022-KYLBF-000232","irwin_id":"{B610C7D1-7973-4C59-B80C-F431C0DABD97}","global_id":"96c3b881-9014-45b3-a743-a4d58a0af636"}},{"type":"Feature","geometry":{"type":"Polygon","coordinates":[[[-87.92469,36.67427],[-87.92469,36.67416],[-87.92472,36.67418],[-87.92469,36.67427]]]},"properties":{"fire_id":"ufid:2022-KYLBF-000147","source_collection":"history-2022","source_objectid":15814,"incident_name":"Hamilton","mapped_acres":0.01,"mapped_acres_source":"poly_GISAcres","gis_acres":0.01,"auto_acres":0.006720217923392953,"reported_acres":0.1,"percent_contained":null,"state":"KY","state_wfigs":"US-KY","county":"Trigg","discovery_time_utc":"2022-10-23T16:19:00Z","perimeter_time_utc":"2023-04-03T16:03:33Z","perimeter_edit_time_utc":"2023-04-03T16:03:34Z","incident_modified_time_utc":"2022-10-24T10:58:32Z","containment_time_utc":"2022-10-23T17:35:00Z","control_time_utc":"2022-10-23T17:35:00Z","fire_out_time_utc":"2022-10-26T15:45:00Z","fire_cause":"Undetermined","fire_cause_general":"Undetermined","map_method":"Hand Sketch","source_dataset":"FFP","unique_fire_identifier":"2022-KYLBF-000147","irwin_id":"{76103412-B681-4FF1-AC18-E6750D8B713E}","global_id":"79f59d02-ef15-426a-8009-6b022991882f"}},{"type":"Feature","geometry":{"type":"Polygon","coordinates":[[[-88.08709,36.7444],[-88.08702,36.74439],[-88.08714,36.74438],[-88.08709,36.7444]]]},"properties":{"fire_id":"ufid:2022-KYLBF-000135","source_collection":"history-2022","source_objectid":15815,"incident_name":"Turkey Bay","mapped_acres":0.01,"mapped_acres_source":"poly_GISAcres","gis_acres":0.01,"auto_acres":0.007032607222262717,"reported_acres":0.1,"percent_contained":null,"state":"KY","state_wfigs":"US-KY","county":"Trigg","discovery_time_utc":"2022-10-09T19:16:00Z","perimeter_time_utc":"2023-04-03T16:15:10Z","perimeter_edit_time_utc":"2023-04-03T16:15:10Z","incident_modified_time_utc":"2022-10-09T21:02:47Z","containment_time_utc":"2022-10-09T20:01:00Z","control_time_utc":"2022-10-14T16:10:00Z","fire_out_time_utc":"2022-10-14T16:10:00Z","fire_cause":"Undetermined","fire_cause_general":"Undetermined","map_method":"Hand Sketch","source_dataset":"FFP","unique_fire_identifier":"2022-KYLBF-000135","irwin_id":"{7BAD7527-85C9-46A2-9FC9-69B079EB053B}","global_id":"b00aea62-e4a4-4e58-bf57-aa932b7be0f8"}}]}
