{"type":"FeatureCollection","features":[{"type":"Feature","geometry":{"type":"Polygon","coordinates":[[[-75.9545,38.39251],[-75.95384,38.39225],[-75.95431,38.39187],[-75.9542,38.39152],[-75.95396,38.39148],[-75.9538,38.39167],[-75.95319,38.39176],[-75.95343,38.39123],[-75.9538,38.39106],[-75.95377,38.39082],[-75.95297,38.39079],[-75.95278,38.39026],[-75.95234,38.39031],[-75.95199,38.39014],[-75.95234,38.39013],[-75.95248,38.38993],[-75.9519,38.38988],[-75.95162,38.38971],[-75.95133,38.38981],[-75.95133,38.3897],[-75.95156,38.38965],[-75.95135,38.38918],[-75.9503,38.38885],[-75.95,38.38889],[-75.94973,38.38863],[-75.9495,38.38866],[-75.94943,38.38892],[-75.94931,38.38894],[-75.94906,38.38878],[-75.94906,38.38852],[-75.94875,38.38838],[-75.94861,38.38814],[-75.94848,38.38817],[-75.94859,38.38831],[-75.94838,38.38845],[-75.9484,38.38873],[-75.94807,38.38902],[-75.94804,38.3893],[-75.94776,38.38918],[-75.94748,38.38937],[-75.94782,38.38958],[-75.94765,38.38979],[-75.948,38.38997],[-75.94805,38.39027],[-75.94828,38.39047],[-75.94791,38.39107],[-75.94786,38.39144],[-75.94713,38.39176],[-75.94682,38.39174],[-75.94664,38.39201],[-75.94616,38.39092],[-75.94645,38.3907],[-75.94659,38.39014],[-75.94644,38.38993],[-75.946,38.39],[-75.94558,38.39049],[-75.94507,38.39069],[-75.94539,38.39092],[-75.94502,38.39097],[-75.94445,38.39078],[-75.94438,38.39035],[-75.94385,38.39074],[-75.94393,38.39092],[-75.9444,38.39106],[-75.94417,38.3913],[-75.94481,38.39158],[-75.94394,38.39174],[-75.94402,38.39192],[-75.9446,38.3919],[-75.94459,38.39204],[-75.94438,38.39206],[-75.94389,38.39197],[-75.94385,38.39162],[-75.94319,38.39138],[-75.94297,38.39143],[-75.94276,38.39115],[-75.94255,38.39123],[-75.94227,38.39113],[-75.94199,38.39127],[-75.94173,38.39113],[-75.94171,38.39085],[-75.94136,38.391],[-75.94107,38.39078],[-75.94109,38.39058],[-75.94165,38.39036],[-75.94173,38.38986],[-75.94157,38.3896],[-75.94114,38.38953],[-75.94082,38.39009],[-75.94065,38.39015],[-75.94042,38.39009],[-75.9403,38.38988],[-75.93989,38.38977],[-75.93971,38.38951],[-75.93984,38.3893],[-75.93963,38.38909],[-75.93981,38.38873],[-75.94006,38.38863],[-75.94025,38.38838],[-75.94021,38.38824],[-75.9406,38.38803],[-75.9405,38.38788],[-75.94136,38.38746],[-75.9415,38.38726],[-75.94136,38.38711],[-75.94185,38.38708],[-75.94248,38.3873],[-75.9429,38.38695],[-75.94298,38.38675],[-75.94259,38.38578],[-75.94276,38.38549],[-75.94272,38.38507],[-75.94289,38.38491],[-75.9434,38.38466],[-75.9437,38.38491],[-75.94379,38.38545],[-75.9441,38.38571],[-75.94452,38.38566],[-75.9447,38.38531],[-75.94537,38.38496],[-75.94589,38.38503],[-75.94614,38.3849],[-75.94628,38.38502],[-75.94676,38.38472],[-75.94623,38.38442],[-75.94595,38.38381],[-75.94635,38.38335],[-75.94679,38.38337],[-75.94699,38.38373],[-75.94752,38.38373],[-75.94753,38.38345],[-75.9472,38.38317],[-75.94736,38.3831],[-75.94744,38.38278],[-75.9479,38.38283],[-75.94824,38.38268],[-75.94803,38.38219],[-75.9481,38.38189],[-75.94833,38.38181],[-75.9484,38.38162],[-75.94818,38.38148],[-75.94865,38.38134],[-75.94811,38.38123],[-75.94783,38.38138],[-75.94743,38.38113],[-75.94705,38.38114],[-75.947,38.38076],[-75.94642,38.38032],[-75.94558,38.38037],[-75.94537,38.38054],[-75.94531,38.38036],[-75.94544,38.38006],[-75.94579,38.37995],[-75.947,38.37995],[-75.94719,38.37978],[-75.94769,38.37977],[-75.94781,38.37949],[-75.94805,38.37937],[-75.94799,38.37916],[-75.94809,38.37909],[-75.94888,38.37922],[-75.94917,38.379],[-75.94936,38.37831],[-75.94917,38.37828],[-75.94916,38.37845],[-75.94899,38.3785],[-75.94888,38.37789],[-75.94902,38.37768],[-75.94872,38.37754],[-75.94804,38.37782],[-75.94793,38.37751],[-75.94777,38.37748],[-75.94772,38.37778],[-75.94748,38.378],[-75.94725,38.37791],[-75.94727,38.37775],[-75.94692,38.37791],[-75.94628,38.37757],[-75.9456,38.3781],[-75.9453,38.37804],[-75.94519,38.37842],[-75.94487,38.37873],[-75.94396,38.37888],[-75.94382,38.37926],[-75.94326,38.37933],[-75.94336,38.37958],[-75.9429,38.37976],[-75.94285,38.37951],[-75.9431,38.37923],[-75.94314,38.37876],[-75.94332,38.37867],[-75.94308,38.37845],[-75.94328,38.37817],[-75.9433,38.37759],[-75.94396,38.37701],[-75.94394,38.37679],[-75.94116,38.37626],[-75.94071,38.376],[-75.94045,38.37564],[-75.94053,38.37541],[-75.94035,38.37508],[-75.94054,38.37479],[-75.94038,38.37438],[-75.9404,38.37353],[-75.94051,38.37331],[-75.94063,38.37348],[-75.94072,38.37342],[-75.94087,38.37283],[-75.94114,38.37285],[-75.94157,38.37215],[-75.94178,38.37227],[-75.94185,38.37177],[-75.94216,38.37159],[-75.94382,38.37175],[-75.94452,38.37198],[-75.94503,38.37191],[-75.94546,38.37137],[-75.94626,38.37099],[-75.94635,38.37048],[-75.94662,38.37064],[-75.94655,38.36944],[-75.9468,38.36909],[-75.9465,38.36873],[-75.94544,38.36816],[-75.94382,38.36796],[-75.94262,38.36801],[-75.94164,38.36769],[-75.94136,38.36785],[-75.94053,38.36883],[-75.93993,38.36914],[-75.93968,38.36952],[-75.93903,38.36981],[-75.93812,38.36941],[-75.93791,38.36916],[-75.93685,38.36892],[-75.93641,38.36904],[-75.9362,38.36881],[-75.93576,38.36867],[-75.93572,38.36829],[-75.93537,38.36844],[-75.93495,38.3682],[-75.93467,38.36821],[-75.93409,38.36784],[-75.93405,38.36766],[-75.93373,38.36754],[-75.93401,38.36705],[-75.93389,38.36649],[-75.93399,38.36637],[-75.9351,38.36633],[-75.93558,38.36726],[-75.93572,38.36642],[-75.93589,38.36628],[-75.93551,38.36592],[-75.93555,38.36536],[-75.93532,38.36522],[-75.93529,38.3646],[-75.93506,38.36452],[-75.93531,38.3641],[-75.93504,38.36395],[-75.93531,38.3633],[-75.93477,38.36353],[-75.93533,38.36258],[-75.93572,38.36137],[-75.93593,38.36147],[-75.93633,38.36071],[-75.93636,38.36027],[-75.93664,38.3604],[-75.9369,38.36008],[-75.93695,38.35956],[-75.93676,38.35946],[-75.93685,38.35916],[-75.93706,38.35942],[-75.9372,38.35905],[-75.93785,38.35915],[-75.93827,38.35945],[-75.93826,38.35963],[-75.9384,38.3596],[-75.93889,38.35993],[-75.93957,38.36004],[-75.94009,38.35974],[-75.94136,38.35984],[-75.94204,38.35973],[-75.94241,38.35945],[-75.94251,38.35881],[-75.94269,38.35874],[-75.94278,38.35825],[-75.94267,38.35823],[-75.94265,38.35842],[-75.94251,38.35832],[-75.9426,38.35797],[-75.94253,38.35705],[-75.94234,38.35686],[-75.942,38.35684],[-75.94216,38.3567],[-75.94204,38.35656],[-75.94181,38.35649],[-75.94185,38.3567],[-75.94164,38.35671],[-75.94119,38.35649],[-75.94084,38.35647],[-75.94074,38.35656],[-75.94086,38.35673],[-75.94023,38.35651],[-75.94005,38.35656],[-75.94002,38.35676],[-75.93905,38.35669],[-75.93815,38.35614],[-75.93827,38.35601],[-75.93816,38.35508],[-75.93828,38.35473],[-75.93816,38.35431],[-75.93886,38.35325],[-75.93891,38.3529],[-75.93878,38.35269],[-75.93899,38.35241],[-75.94016,38.35252],[-75.941,38.35274],[-75.94126,38.35259],[-75.94227,38.35256],[-75.94248,38.35242],[-75.94285,38.35257],[-75.94383,38.35221],[-75.94481,38.35214],[-75.94489,38.35199],[-75.94521,38.35197],[-75.94593,38.35132],[-75.946,38.351],[-75.9465,38.3508],[-75.94706,38.35092],[-75.94748,38.3508],[-75.94847,38.35097],[-75.94821,38.35121],[-75.94829,38.35156],[-75.94797,38.35154],[-75.94766,38.3517],[-75.94827,38.35191],[-75.94804,38.35212],[-75.94833,38.35227],[-75.94829,38.35244],[-75.94771,38.35283],[-75.9481,38.35318],[-75.94809,38.35339],[-75.94847,38.35374],[-75.94878,38.35364],[-75.94878,38.35396],[-75.94966,38.35406],[-75.94966,38.35464],[-75.94994,38.35431],[-75.95023,38.35438],[-75.95016,38.35466],[-75.94991,38.3548],[-75.9504,38.35501],[-75.95009,38.35515],[-75.95067,38.35517],[-75.95064,38.35493],[-75.95095,38.35492],[-75.95121,38.35522],[-75.95087,38.35524],[-75.9509,38.35539],[-75.95136,38.35551],[-75.9517,38.35533],[-75.95271,38.35563],[-75.95279,38.35589],[-75.95346,38.35597],[-75.95375,38.35629],[-75.95417,38.35621],[-75.95419,38.3563],[-75.95393,38.35632],[-75.95396,38.3566],[-75.95425,38.35636],[-75.95467,38.35641],[-75.95535,38.35698],[-75.95603,38.35726],[-75.95603,38.35748],[-75.95666,38.35787],[-75.95672,38.35804],[-75.9572,38.35832],[-75.95758,38.35822],[-75.95744,38.35853],[-75.95768,38.35896],[-75.95804,38.35909],[-75.95798,38.35924],[-75.95812,38.35945],[-75.95788,38.35959],[-75.95817,38.3598],[-75.95811,38.35994],[-75.95762,38.35995],[-75.95757,38.36006],[-75.95773,38.36019],[-75.95744,38.36018],[-75.95753,38.36071],[-75.95732,38.36084],[-75.95746,38.36121],[-75.95769,38.36121],[-75.95762,38.36107],[-75.95806,38.36118],[-75.95817,38.36142],[-75.95862,38.36156],[-75.95869,38.36177],[-75.95889,38.36186],[-75.9591,38.36179],[-75.95919,38.36191],[-75.95913,38.36212],[-75.95875,38.36212],[-75.95896,38.36226],[-75.95889,38.36254],[-75.95927,38.36261],[-75.95903,38.36271],[-75.95896,38.36297],[-75.95814,38.36328],[-75.95804,38.3636],[-75.95752,38.36299],[-75.95677,38.36309],[-75.95645,38.36254],[-75.95651,38.36226],[-75.95623,38.36217],[-75.95623,38.3619],[-75.95607,38.36188],[-75.95612,38.36254],[-75.95644,38.36309],[-75.95645,38.36339],[-75.95618,38.3636],[-75.95544,38.36358],[-75.95507,38.36452],[-75.9547,38.36487],[-75.9548,38.3654],[-75.95528,38.36551],[-75.95532,38.36592],[-75.95517,38.36628],[-75.95551,38.36649],[-75.95534,38.36703],[-75.95501,38.36697],[-75.95478,38.36726],[-75.95552,38.36733],[-75.95543,38.36754],[-75.95566,38.36768],[-75.95572,38.36789],[-75.95544,38.36811],[-75.95558,38.36832],[-75.95492,38.36893],[-75.95445,38.36895],[-75.95422,38.36929],[-75.95399,38.36927],[-75.95417,38.36902],[-75.95389,38.36883],[-75.95368,38.36911],[-75.95344,38.36811],[-75.95366,38.36789],[-75.95341,38.36775],[-75.95359,38.36754],[-75.95354,38.36719],[-75.95364,38.36705],[-75.95318,38.36704],[-75.95264,38.36775],[-75.95285,38.36809],[-75.95281,38.36822],[-75.95269,38.36827],[-75.95255,38.36811],[-75.95238,38.36836],[-75.95202,38.36846],[-75.95216,38.36902],[-75.95203,38.36916],[-75.95199,38.36958],[-75.95214,38.37008],[-75.95192,38.37029],[-75.95207,38.37079],[-75.95154,38.37125],[-75.95142,38.3716],[-75.95047,38.37212],[-75.95058,38.37231],[-75.95072,38.37207],[-75.95079,38.37212],[-75.95068,38.37247],[-75.95094,38.37268],[-75.95191,38.37304],[-75.95278,38.3736],[-75.95335,38.37367],[-75.95334,38.37393],[-75.95375,38.37402],[-75.95395,38.37431],[-75.95425,38.37415],[-75.95429,38.37423],[-75.95407,38.37434],[-75.95419,38.37457],[-75.95498,38.37448],[-75.95558,38.37395],[-75.95583,38.37451],[-75.95563,38.37479],[-75.95582,38.37504],[-75.95612,38.37495],[-75.95597,38.3755],[-75.95623,38.37569],[-75.95647,38.37615],[-75.95659,38.37673],[-75.95728,38.37703],[-75.95774,38.37742],[-75.95818,38.37817],[-75.95845,38.37817],[-75.95823,38.3783],[-75.95839,38.37845],[-75.95924,38.37892],[-75.9596,38.37887],[-75.95998,38.37933],[-75.96027,38.37933],[-75.96072,38.37958],[-75.96022,38.38007],[-75.96001,38.38008],[-75.95997,38.38029],[-75.96007,38.38058],[-75.96066,38.3812],[-75.9605,38.38148],[-75.96067,38.38167],[-75.96068,38.38187],[-75.96058,38.3819],[-75.96102,38.38195],[-75.96109,38.38226],[-75.9605,38.38243],[-75.96028,38.38303],[-75.96056,38.38317],[-75.96086,38.38359],[-75.96117,38.38364],[-75.96121,38.38378],[-75.96224,38.38404],[-75.96279,38.38465],[-75.96212,38.38479],[-75.96208,38.385],[-75.96222,38.38521],[-75.96186,38.3853],[-75.9615,38.38558],[-75.96107,38.38552],[-75.96113,38.38598],[-75.96079,38.38601],[-75.96065,38.38642],[-75.96028,38.38654],[-75.96015,38.38673],[-75.95969,38.38672],[-75.95969,38.38688],[-75.96001,38.38697],[-75.96022,38.38711],[-75.96015,38.38718],[-75.95945,38.38692],[-75.95874,38.38708],[-75.95871,38.38697],[-75.95932,38.38634],[-75.95911,38.38598],[-75.95916,38.38557],[-75.95937,38.38486],[-75.95975,38.38453],[-75.95947,38.38395],[-75.95951,38.38359],[-75.95971,38.38338],[-75.95963,38.38306],[-75.95917,38.38277],[-75.95913,38.38306],[-75.95867,38.38331],[-75.95813,38.38315],[-75.95783,38.38279],[-75.95769,38.38279],[-75.95752,38.38296],[-75.95752,38.38345],[-75.95684,38.38404],[-75.95663,38.38391],[-75.95635,38.38395],[-75.95625,38.38373],[-75.95646,38.38359],[-75.9561,38.38356],[-75.95589,38.38314],[-75.95598,38.38282],[-75.95584,38.38249],[-75.95618,38.38219],[-75.95607,38.38204],[-75.95579,38.38198],[-75.95501,38.38231],[-75.95416,38.38219],[-75.95406,38.38247],[-75.95427,38.38265],[-75.95433,38.38303],[-75.95471,38.38319],[-75.9547,38.38345],[-75.95508,38.38366],[-75.95485,38.38373],[-75.9551,38.38416],[-75.95494,38.38445],[-75.95515,38.38472],[-75.95469,38.38482],[-75.95473,38.385],[-75.95503,38.385],[-75.95477,38.3856],[-75.95501,38.38574],[-75.95555,38.38571],[-75.95508,38.38592],[-75.95558,38.38613],[-75.95526,38.38634],[-75.95537,38.38704],[-75.95519,38.38726],[-75.9556,38.38772],[-75.95569,38.38831],[-75.95629,38.38907],[-75.95658,38.38991],[-75.95694,38.39014],[-75.95705,38.39036],[-75.95727,38.3904],[-75.95818,38.3903],[-75.95863,38.38982],[-75.95883,38.38978],[-75.95898,38.39072],[-75.95853,38.39089],[-75.95762,38.39064],[-75.95748,38.39113],[-75.95718,38.39119],[-75.95715,38.39164],[-75.95643,38.39177],[-75.95596,38.39221],[-75.95537,38.39239],[-75.9549,38.39218],[-75.9548,38.39239],[-75.9545,38.39251]]]},"properties":{"fire_id":"ufid:2022-MDMDS-000215","source_collection":"history-2022","source_objectid":870,"incident_name":"Elliotts Island","mapped_acres":2000.0,"mapped_acres_source":"poly_GISAcres","gis_acres":2000.0,"auto_acres":1330.79801138746,"reported_acres":2000.0,"percent_contained":100.0,"state":"MD","state_wfigs":"US-MD","county":"Dorchester","discovery_time_utc":"2022-02-20T15:00:00Z","perimeter_time_utc":null,"perimeter_edit_time_utc":"2022-12-19T18:27:48Z","incident_modified_time_utc":"2022-02-28T19:04:14Z","containment_time_utc":null,"control_time_utc":null,"fire_out_time_utc":"2022-02-21T21:00:00Z","fire_cause":"Undetermined","fire_cause_general":null,"map_method":"Image Interpretation","source_dataset":"2022 NIFS","unique_fire_identifier":"2022-MDMDS-000215","irwin_id":"{046119BD-794A-42AF-A382-1F10862A283A}","global_id":"5d96845f-0499-4db1-800e-1b1740b57e0f"}},{"type":"Feature","geometry":{"type":"Polygon","coordinates":[[[-77.73149,39.45157],[-77.73085,39.4509],[-77.73042,39.45089],[-77.73059,39.45066],[-77.73076,39.45055],[-77.73118,39.45059],[-77.73172,39.45097],[-77.73173,39.45147],[-77.73149,39.45157]]]},"properties":{"fire_id":"ufid:2022-MDANP-220001","source_collection":"history-2022","source_objectid":10366,"incident_name":"Presidents Day Fire","mapped_acres":1.4869576014811459,"mapped_acres_source":"poly_Acres_AutoCalc_fallback","gis_acres":null,"auto_acres":1.4869576014811459,"reported_acres":1.0,"percent_contained":null,"state":"MD","state_wfigs":"US-MD","county":"Washington","discovery_time_utc":"2022-02-20T21:32:36Z","perimeter_time_utc":null,"perimeter_edit_time_utc":"2023-03-14T15:13:42Z","incident_modified_time_utc":"2022-02-22T20:48:06Z","containment_time_utc":null,"control_time_utc":null,"fire_out_time_utc":"2022-02-21T19:00:00Z","fire_cause":"Human","fire_cause_general":"Fireworks","map_method":"Hand Sketch","source_dataset":"FFP","unique_fire_identifier":"2022-MDANP-220001","irwin_id":"{12149035-3497-449C-82BF-7F702303E822}","global_id":"4ea737e0-e34f-434e-9dce-cb89f6ac9655"}},{"type":"Feature","geometry":{"type":"Polygon","coordinates":[[[-75.99578,38.38215],[-75.99561,38.38239],[-75.99596,38.38281],[-75.99635,38.38295],[-75.99639,38.38352],[-75.99602,38.38457],[-75.996,38.385],[-75.99554,38.38528],[-75.9954,38.38485],[-75.99491,38.38438],[-75.99394,38.3842],[-75.99328,38.38381],[-75.99264,38.38318],[-75.99255,38.38295],[-75.99265,38.38274],[-75.99251,38.38273],[-75.99246,38.3829],[-75.9923,38.38283],[-75.99224,38.38253],[-75.99258,38.38243],[-75.99275,38.38204],[-75.99251,38.38157],[-75.99237,38.38176],[-75.99188,38.38179],[-75.99156,38.38204],[-75.9916,38.38232],[-75.99146,38.38225],[-75.99133,38.38239],[-75.99153,38.38267],[-75.99188,38.38274],[-75.99125,38.38298],[-75.99087,38.38286],[-75.99037,38.38314],[-75.98967,38.38493],[-75.99,38.38732],[-75.98984,38.38793],[-75.98924,38.38816],[-75.98928,38.3883],[-75.98975,38.38837],[-75.9892,38.38852],[-75.98929,38.38874],[-75.98885,38.38908],[-75.98897,38.38933],[-75.98829,38.38961],[-75.98674,38.38973],[-75.9864,38.38992],[-75.98626,38.39022],[-75.98597,38.39016],[-75.98583,38.39033],[-75.98533,38.39026],[-75.98414,38.39045],[-75.98343,38.39028],[-75.98329,38.39049],[-75.9828,38.39017],[-75.98246,38.39065],[-75.98184,38.39059],[-75.98176,38.39093],[-75.98118,38.39093],[-75.98097,38.39117],[-75.98076,38.39082],[-75.98033,38.39105],[-75.97998,38.3909],[-75.97977,38.39098],[-75.97996,38.39112],[-75.97969,38.39154],[-75.97961,38.3919],[-75.9797,38.39204],[-75.97947,38.39239],[-75.9796,38.39313],[-75.9793,38.39344],[-75.97921,38.3938],[-75.97925,38.39443],[-75.97943,38.39457],[-75.97973,38.39567],[-75.97992,38.39584],[-75.9799,38.39612],[-75.97963,38.39626],[-75.97886,38.39612],[-75.9788,38.39619],[-75.97904,38.3964],[-75.97879,38.39668],[-75.97884,38.39689],[-75.97871,38.39696],[-75.97864,38.39678],[-75.97849,38.39689],[-75.97864,38.39732],[-75.97898,38.39746],[-75.97907,38.39767],[-75.97898,38.39843],[-75.97879,38.39874],[-75.979,38.39862],[-75.97963,38.39865],[-75.98,38.39899],[-75.98037,38.39908],[-75.98011,38.39916],[-75.97991,38.39901],[-75.97975,38.39908],[-75.98003,38.39943],[-75.97989,38.39978],[-75.9801,38.40013],[-75.97955,38.40013],[-75.9797,38.4002],[-75.98,38.40077],[-75.97971,38.4012],[-75.97921,38.40126],[-75.97911,38.401],[-75.97879,38.4009],[-75.97857,38.40033],[-75.97801,38.40077],[-75.97815,38.40105],[-75.97808,38.40112],[-75.97752,38.40131],[-75.97728,38.40112],[-75.97724,38.40054],[-75.97667,38.40038],[-75.97618,38.40097],[-75.9759,38.40098],[-75.97563,38.40127],[-75.97534,38.40131],[-75.97529,38.40156],[-75.97496,38.40161],[-75.97502,38.40186],[-75.9747,38.40196],[-75.97472,38.40217],[-75.9745,38.40238],[-75.9747,38.40258],[-75.97548,38.40227],[-75.9759,38.40231],[-75.97624,38.40265],[-75.97589,38.40288],[-75.97569,38.40362],[-75.97519,38.40365],[-75.97533,38.40379],[-75.97502,38.40397],[-75.97499,38.40436],[-75.97477,38.40457],[-75.97443,38.40464],[-75.97436,38.40486],[-75.9742,38.40458],[-75.97371,38.40437],[-75.97365,38.40413],[-75.97336,38.40425],[-75.97302,38.40399],[-75.9722,38.4039],[-75.97207,38.40326],[-75.97165,38.40325],[-75.97111,38.40273],[-75.97099,38.40281],[-75.9711,38.40337],[-75.97086,38.40375],[-75.97021,38.40371],[-75.96991,38.40337],[-75.96942,38.40327],[-75.969,38.40351],[-75.96858,38.40416],[-75.96766,38.40416],[-75.96752,38.4045],[-75.96726,38.40473],[-75.96667,38.40464],[-75.96686,38.40443],[-75.96685,38.40418],[-75.96776,38.40361],[-75.96822,38.4028],[-75.96858,38.40271],[-75.96928,38.40218],[-75.97006,38.40216],[-75.97104,38.4019],[-75.97105,38.40167],[-75.97094,38.40161],[-75.97149,38.4015],[-75.97157,38.40094],[-75.97303,38.4005],[-75.97328,38.40013],[-75.97545,38.39894],[-75.97555,38.39879],[-75.97548,38.39851],[-75.9757,38.39843],[-75.97583,38.39859],[-75.9758,38.39837],[-75.97674,38.39802],[-75.97653,38.39788],[-75.97674,38.39761],[-75.97685,38.39791],[-75.97706,38.39792],[-75.97722,38.39751],[-75.9781,38.39698],[-75.9787,38.3957],[-75.97848,38.39513],[-75.9786,38.39499],[-75.9785,38.39478],[-75.97808,38.39488],[-75.97748,38.3944],[-75.97674,38.39417],[-75.97651,38.39427],[-75.97661,38.39457],[-75.97653,38.39481],[-75.97632,38.39484],[-75.97604,38.39464],[-75.97576,38.39486],[-75.97555,38.39484],[-75.97559,38.39513],[-75.97534,38.3957],[-75.97537,38.39605],[-75.97491,38.39624],[-75.97475,38.39593],[-75.97491,38.39556],[-75.97466,38.3952],[-75.97476,38.39499],[-75.97465,38.39478],[-75.97477,38.39464],[-75.97463,38.39429],[-75.97293,38.39366],[-75.97243,38.39311],[-75.97207,38.39298],[-75.97167,38.3926],[-75.9716,38.39211],[-75.97118,38.39181],[-75.97064,38.39199],[-75.97021,38.39198],[-75.97013,38.3926],[-75.96975,38.39293],[-75.96984,38.39323],[-75.96952,38.39333],[-75.96948,38.39358],[-75.96907,38.39389],[-75.96872,38.39398],[-75.96854,38.39425],[-75.96801,38.39436],[-75.96806,38.39394],[-75.96788,38.39373],[-75.9683,38.39302],[-75.9682,38.39278],[-75.96847,38.39267],[-75.96844,38.39258],[-75.96815,38.39261],[-75.9681,38.39246],[-75.96831,38.39232],[-75.96786,38.39175],[-75.96811,38.39143],[-75.96843,38.39133],[-75.96824,38.39096],[-75.96834,38.39053],[-75.96865,38.39049],[-75.96898,38.39004],[-75.96896,38.3895],[-75.96949,38.38887],[-75.96948,38.38871],[-75.97034,38.38855],[-75.97136,38.38795],[-75.97156,38.38746],[-75.97144,38.38716],[-75.97183,38.38704],[-75.97162,38.3869],[-75.97224,38.38697],[-75.97266,38.38677],[-75.97336,38.38697],[-75.97352,38.38734],[-75.9731,38.38774],[-75.97379,38.38795],[-75.97386,38.38819],[-75.97414,38.38823],[-75.97375,38.38887],[-75.97421,38.38922],[-75.97456,38.38912],[-75.9747,38.38954],[-75.97491,38.38954],[-75.97548,38.3889],[-75.97585,38.38805],[-75.97618,38.38801],[-75.97648,38.38776],[-75.97703,38.38769],[-75.97752,38.3879],[-75.9777,38.38859],[-75.97815,38.38886],[-75.97857,38.38872],[-75.97956,38.38878],[-75.98038,38.38896],[-75.98049,38.38915],[-75.98104,38.38914],[-75.98153,38.38937],[-75.98209,38.38915],[-75.98324,38.38934],[-75.98473,38.3894],[-75.98519,38.38956],[-75.98589,38.38943],[-75.98616,38.38899],[-75.98667,38.38886],[-75.98724,38.38895],[-75.9873,38.38868],[-75.98754,38.38868],[-75.98744,38.38822],[-75.98723,38.38813],[-75.98697,38.38846],[-75.98668,38.3885],[-75.9863,38.38818],[-75.98639,38.38778],[-75.98667,38.38802],[-75.98703,38.38732],[-75.98729,38.38711],[-75.98718,38.3864],[-75.98695,38.38598],[-75.9866,38.38575],[-75.98604,38.3857],[-75.98655,38.38556],[-75.98625,38.38535],[-75.98637,38.38478],[-75.9859,38.38426],[-75.98531,38.38417],[-75.98477,38.38389],[-75.98365,38.38402],[-75.98331,38.38394],[-75.98323,38.38338],[-75.98294,38.38295],[-75.983,38.38267],[-75.98262,38.38215],[-75.98239,38.38149],[-75.98243,38.38096],[-75.9829,38.38105],[-75.98322,38.38064],[-75.98315,38.38019],[-75.98287,38.38035],[-75.98284,38.38011],[-75.98301,38.37986],[-75.98291,38.37943],[-75.98351,38.3793],[-75.98378,38.37944],[-75.984,38.3793],[-75.98428,38.37932],[-75.98398,38.37857],[-75.98446,38.37844],[-75.98468,38.37788],[-75.9865,38.37657],[-75.98714,38.37657],[-75.98731,38.37681],[-75.98764,38.37806],[-75.99029,38.37952],[-75.99188,38.381],[-75.99246,38.38107],[-75.99316,38.38085],[-75.99329,38.38065],[-75.99364,38.38052],[-75.99425,38.38053],[-75.99449,38.38077],[-75.99458,38.38137],[-75.9948,38.38173],[-75.99558,38.38148],[-75.99578,38.38215]]]},"properties":{"fire_id":"ufid:2022-MDMDS-000216","source_collection":"history-2022","source_objectid":14145,"incident_name":"Bestpitch 1","mapped_acres":450.0,"mapped_acres_source":"poly_GISAcres","gis_acres":450.0,"auto_acres":441.041705960833,"reported_acres":450.0,"percent_contained":100.0,"state":"MD","state_wfigs":"US-MD","county":"Dorchester","discovery_time_utc":"2022-02-22T16:00:00Z","perimeter_time_utc":null,"perimeter_edit_time_utc":"2022-12-19T20:53:47Z","incident_modified_time_utc":"2022-02-28T19:04:24Z","containment_time_utc":null,"control_time_utc":null,"fire_out_time_utc":"2022-02-23T14:00:00Z","fire_cause":"Undetermined","fire_cause_general":null,"map_method":"Image Interpretation","source_dataset":"2022 NIFS","unique_fire_identifier":"2022-MDMDS-000216","irwin_id":"{09FDB8C2-DC50-4BB1-ADA5-6A5A00BFF4A1}","global_id":"95975ad9-56a4-48cf-8e53-cb2f81b60598"}}]}
