{"type":"FeatureCollection","features":[{"type":"Feature","geometry":{"type":"Polygon","coordinates":[[[-70.52135,44.51844],[-70.52183,44.51854],[-70.52199,44.51884],[-70.52162,44.51915],[-70.52136,44.51909],[-70.52115,44.51864],[-70.52135,44.51844]]]},"properties":{"fire_id":"ufid:2022-MEMES-22001649","source_collection":"history-2022","source_objectid":230,"incident_name":"Wyman Hill Fire","mapped_acres":1.0,"mapped_acres_source":"poly_GISAcres","gis_acres":1.0,"auto_acres":0.899408486869873,"reported_acres":null,"percent_contained":null,"state":"ME","state_wfigs":"US-ME","county":"Oxford","discovery_time_utc":"2022-04-23T21:00:00Z","perimeter_time_utc":"2022-11-23T20:00:11Z","perimeter_edit_time_utc":"2022-11-23T20:01:20Z","incident_modified_time_utc":"2022-04-23T23:09:24Z","containment_time_utc":"2022-04-23T22:30:00Z","control_time_utc":"2022-04-23T22:30:00Z","fire_out_time_utc":"2022-04-23T23:00:00Z","fire_cause":"Human","fire_cause_general":"Other causes","map_method":"Auto-generated","source_dataset":"2022 NIFS","unique_fire_identifier":"2022-MEMES-22001649","irwin_id":"{EE429EF1-1237-4118-B8F8-0CABB1743F37}","global_id":"de7c25b0-2296-4fe4-be94-fddcdcfd4546"}},{"type":"Feature","geometry":{"type":"Polygon","coordinates":[[[-70.33062,43.81287],[-70.33059,43.81281],[-70.33065,43.81284],[-70.33062,43.81287]]]},"properties":{"fire_id":"ufid:2022-MEMES-22003236.4","source_collection":"history-2022","source_objectid":2497,"incident_name":"Cumberland Pit Fire","mapped_acres":0.1,"mapped_acres_source":"poly_GISAcres","gis_acres":0.1,"auto_acres":0.00549670111673312,"reported_acres":0.1,"percent_contained":null,"state":"ME","state_wfigs":"US-ME","county":"Cumberland","discovery_time_utc":"2022-07-04T23:55:00Z","perimeter_time_utc":"2022-07-05T04:55:00Z","perimeter_edit_time_utc":"2022-07-07T17:58:36Z","incident_modified_time_utc":"2022-07-07T17:57:18Z","containment_time_utc":null,"control_time_utc":null,"fire_out_time_utc":null,"fire_cause":"Human","fire_cause_general":"Fireworks","map_method":"Auto-generated","source_dataset":"2022 NIFS","unique_fire_identifier":"2022-MEMES-22003236.4","irwin_id":"{444A0905-36AD-48EF-BCD3-4F86B24D7A98}","global_id":"62093960-7fc7-4c53-8636-92f915998bf2"}},{"type":"Feature","geometry":{"type":"MultiPolygon","coordinates":[[[[-70.23786,44.18639],[-70.23786,44.18637],[-70.23788,44.18636],[-70.23786,44.18639]]],[[[-70.23788,44.18622],[-70.23786,44.18637],[-70.23762,44.18645],[-70.23755,44.1867],[-70.23735,44.18671],[-70.23736,44.18619],[-70.23788,44.18622]]]]},"properties":{"fire_id":"ufid:2022-MEMES-22001679","source_collection":"history-2022","source_objectid":3657,"incident_name":"Around the Tiny House Fire","mapped_acres":1.0,"mapped_acres_source":"poly_GISAcres","gis_acres":1.0,"auto_acres":0.442091046524507,"reported_acres":null,"percent_contained":null,"state":"ME","state_wfigs":"US-ME","county":"Androscoggin","discovery_time_utc":"2022-04-24T18:50:00Z","perimeter_time_utc":"2022-04-24T23:50:00Z","perimeter_edit_time_utc":"2022-04-26T23:48:47Z","incident_modified_time_utc":"2022-04-27T19:47:29Z","containment_time_utc":"2022-04-24T19:30:00Z","control_time_utc":null,"fire_out_time_utc":"2022-04-24T21:02:00Z","fire_cause":"Undetermined","fire_cause_general":"Undetermined (remarks required)","map_method":"Hand Sketch","source_dataset":"2022 NIFS","unique_fire_identifier":"2022-MEMES-22001679","irwin_id":"{9FEC0D55-81D8-40BE-B42B-465FFF05A696}","global_id":"73d1e254-401d-4285-a8d4-e0e141263ff4"}},{"type":"Feature","geometry":{"type":"Polygon","coordinates":[[[-70.87622,43.58421],[-70.87589,43.58417],[-70.87594,43.58427],[-70.87574,43.58439],[-70.87531,43.58443],[-70.87439,43.58424],[-70.87381,43.58375],[-70.87382,43.58345],[-70.87365,43.58337],[-70.87367,43.58325],[-70.87398,43.5832],[-70.87424,43.58289],[-70.87501,43.58278],[-70.87601,43.58346],[-70.87609,43.58386],[-70.87593,43.58402],[-70.87622,43.58421]]]},"properties":{"fire_id":"ufid:2022-MEMES-22001608","source_collection":"history-2022","source_objectid":4284,"incident_name":"8 Day Fire","mapped_acres":1.0,"mapped_acres_source":"poly_GISAcres","gis_acres":1.0,"auto_acres":6.176225871193199,"reported_acres":6.4,"percent_contained":null,"state":"ME","state_wfigs":"US-ME","county":"York","discovery_time_utc":"2022-04-22T17:15:00Z","perimeter_time_utc":"2022-08-05T20:46:18Z","perimeter_edit_time_utc":"2023-03-14T15:13:42Z","incident_modified_time_utc":"2022-04-23T22:33:27Z","containment_time_utc":"2022-04-22T18:45:00Z","control_time_utc":"2022-04-22T19:00:00Z","fire_out_time_utc":"2022-04-22T19:30:00Z","fire_cause":"Human","fire_cause_general":"Debris and open burning","map_method":"Auto-generated","source_dataset":"FFP","unique_fire_identifier":"2022-MEMES-22001608","irwin_id":"{59BDD48B-07A4-4CF1-94E5-0380836F7046}","global_id":"f62b5ee7-1c80-4608-8858-522f1d5550df"}},{"type":"Feature","geometry":{"type":"Polygon","coordinates":[[[-70.41184,44.13482],[-70.41213,44.13521],[-70.41201,44.13534],[-70.41162,44.13531],[-70.41149,44.1352],[-70.41158,44.13516],[-70.4115,44.13484],[-70.41184,44.13482]]]},"properties":{"fire_id":"ufid:2022-MEMES-22001784","source_collection":"history-2022","source_objectid":4413,"incident_name":"Lizotte Fire","mapped_acres":1.0,"mapped_acres_source":"poly_GISAcres","gis_acres":1.0,"auto_acres":0.5149684091553473,"reported_acres":0.5,"percent_contained":null,"state":"ME","state_wfigs":"US-ME","county":"Oxford","discovery_time_utc":"2022-04-30T15:20:00Z","perimeter_time_utc":"2022-08-05T20:44:47Z","perimeter_edit_time_utc":"2023-03-14T15:13:42Z","incident_modified_time_utc":"2022-04-30T16:42:02Z","containment_time_utc":"2022-04-30T16:00:00Z","control_time_utc":null,"fire_out_time_utc":"2022-04-30T16:38:19Z","fire_cause":"Human","fire_cause_general":"Power generation / transmission / distribution","map_method":"Hand Sketch","source_dataset":"FFP","unique_fire_identifier":"2022-MEMES-22001784","irwin_id":"{8E8AD809-BAC5-4191-8405-A535E4049ABC}","global_id":"de309e0d-cce8-41c0-a080-38b898d67e68"}},{"type":"Feature","geometry":{"type":"MultiPolygon","coordinates":[[[[-70.88642,43.43567],[-70.88676,43.43578],[-70.88621,43.43644],[-70.887,43.43592],[-70.88739,43.43619],[-70.88673,43.43692],[-70.88621,43.43703],[-70.88608,43.4367],[-70.88618,43.43638],[-70.88607,43.43636],[-70.8865,43.43602],[-70.88624,43.4359],[-70.88642,43.43567]]],[[[-70.88608,43.4367],[-70.886,43.43692],[-70.88564,43.43686],[-70.88572,43.43662],[-70.88589,43.43661],[-70.88586,43.43688],[-70.88608,43.4367]]]]},"properties":{"fire_id":"ufid:2022-MEMES-22001659","source_collection":"history-2022","source_objectid":4810,"incident_name":"Old Ricker Farm Fire","mapped_acres":1.0,"mapped_acres_source":"poly_GISAcres","gis_acres":1.0,"auto_acres":2.223107055101863,"reported_acres":1.2,"percent_contained":null,"state":"ME","state_wfigs":"US-ME","county":"York","discovery_time_utc":"2022-04-23T19:25:00Z","perimeter_time_utc":"2022-08-05T20:43:07Z","perimeter_edit_time_utc":"2023-03-14T15:13:42Z","incident_modified_time_utc":"2022-05-04T19:38:38Z","containment_time_utc":"2022-04-23T20:53:00Z","control_time_utc":"2022-04-23T20:53:00Z","fire_out_time_utc":"2022-04-24T15:23:00Z","fire_cause":"Human","fire_cause_general":"Other causes","map_method":"Auto-generated","source_dataset":"FFP","unique_fire_identifier":"2022-MEMES-22001659","irwin_id":"{5E1611AB-052C-41D2-B6E6-94AA486ECB87}","global_id":"a76b5659-85dc-48b9-854a-6bf916c0fb00"}},{"type":"Feature","geometry":{"type":"MultiPolygon","coordinates":[[[[-70.9097,43.47557],[-70.91041,43.4758],[-70.91014,43.47573],[-70.90994,43.47586],[-70.9097,43.47557]]],[[[-70.9097,43.47556],[-70.9096,43.47555],[-70.90969,43.47553],[-70.9097,43.47556]]]]},"properties":{"fire_id":"ufid:2022-MEMES-22005052.3","source_collection":"history-2022","source_objectid":4876,"incident_name":"Goding Road Fire 3","mapped_acres":0.2,"mapped_acres_source":"poly_GISAcres","gis_acres":0.2,"auto_acres":0.1927973648527713,"reported_acres":0.2,"percent_contained":null,"state":"ME","state_wfigs":"US-ME","county":"York","discovery_time_utc":"2022-11-04T19:20:00Z","perimeter_time_utc":"2022-11-22T15:11:06Z","perimeter_edit_time_utc":"2023-03-14T15:13:42Z","incident_modified_time_utc":"2022-11-05T16:22:14Z","containment_time_utc":"2022-11-04T22:00:00Z","control_time_utc":"2022-11-04T22:00:00Z","fire_out_time_utc":"2022-11-04T22:00:00Z","fire_cause":"Human","fire_cause_general":"Equipment and vehicle use","map_method":"Hand Sketch","source_dataset":"FFP","unique_fire_identifier":"2022-MEMES-22005052.3","irwin_id":"{69D50663-6E9A-48C8-917F-76677FE01F29}","global_id":"5c74ed6a-8d39-4412-a3b6-abcf246939a4"}},{"type":"Feature","geometry":{"type":"Polygon","coordinates":[[[-70.4039,44.02152],[-70.40415,44.02164],[-70.40381,44.02163],[-70.4039,44.02152]]]},"properties":{"fire_id":"ufid:2022-MEMES-21002561","source_collection":"history-2022","source_objectid":5025,"incident_name":"Bragdon Hill Fire","mapped_acres":0.2,"mapped_acres_source":"poly_GISAcres","gis_acres":0.2,"auto_acres":0.0788606607394929,"reported_acres":0.2,"percent_contained":null,"state":"ME","state_wfigs":"US-ME","county":"Androscoggin","discovery_time_utc":"2022-05-30T02:30:00Z","perimeter_time_utc":"2022-08-05T21:14:14Z","perimeter_edit_time_utc":"2022-08-05T21:14:14Z","incident_modified_time_utc":"2022-05-30T14:58:43Z","containment_time_utc":"2022-05-30T04:00:00Z","control_time_utc":"2022-05-30T04:00:00Z","fire_out_time_utc":"2022-05-30T14:41:00Z","fire_cause":"Human","fire_cause_general":"Fireworks","map_method":"Auto-generated","source_dataset":"Decertified","unique_fire_identifier":"2022-MEMES-21002561","irwin_id":"{D676EA10-C1A3-488A-A2B0-C6BE15555F51}","global_id":"67db0b46-2b99-43e2-8bd3-b59704afce16"}},{"type":"Feature","geometry":{"type":"Polygon","coordinates":[[[-70.85308,44.08479],[-70.85363,44.08488],[-70.8536,44.08507],[-70.85342,44.08522],[-70.85299,44.08518],[-70.8528,44.0853],[-70.85277,44.08567],[-70.85248,44.08586],[-70.85231,44.08581],[-70.85231,44.08596],[-70.85207,44.08612],[-70.85152,44.08611],[-70.85172,44.08585],[-70.85113,44.08586],[-70.85106,44.08564],[-70.85076,44.0858],[-70.85069,44.08569],[-70.85089,44.08552],[-70.85055,44.0853],[-70.8507,44.08526],[-70.85061,44.08512],[-70.85083,44.08495],[-70.85114,44.08501],[-70.85093,44.0848],[-70.85118,44.0848],[-70.85153,44.08439],[-70.85203,44.08423],[-70.85311,44.08424],[-70.85323,44.08437],[-70.85308,44.08479]]]},"properties":{"fire_id":"ufid:2022-MEMES-22001221","source_collection":"history-2022","source_objectid":5124,"incident_name":"Ice Breaker Fire","mapped_acres":1.0,"mapped_acres_source":"poly_GISAcres","gis_acres":1.0,"auto_acres":7.695464140360403,"reported_acres":8.0,"percent_contained":null,"state":"ME","state_wfigs":"US-ME","county":"Cumberland","discovery_time_utc":"2022-04-06T20:45:00Z","perimeter_time_utc":"2022-08-05T20:45:21Z","perimeter_edit_time_utc":"2023-03-14T15:13:42Z","incident_modified_time_utc":"2022-04-07T02:55:54Z","containment_time_utc":"2022-04-07T02:00:00Z","control_time_utc":"2022-04-07T02:00:00Z","fire_out_time_utc":"2022-04-07T02:55:00Z","fire_cause":"Human","fire_cause_general":"Equipment and vehicle use","map_method":"Auto-generated","source_dataset":"FFP","unique_fire_identifier":"2022-MEMES-22001221","irwin_id":"{E99A25F7-2B51-4B68-9C77-6BB576185C1A}","global_id":"85df3313-dbbd-425d-9a6f-bc39ecbe247d"}},{"type":"Feature","geometry":{"type":"Polygon","coordinates":[[[-70.30524,43.67927],[-70.30573,43.67953],[-70.30561,43.67958],[-70.30568,43.67971],[-70.30545,43.67983],[-70.30524,43.67978],[-70.30531,43.67958],[-70.30512,43.67937],[-70.30524,43.67927]]]},"properties":{"fire_id":"ufid:2022-MEMES-22003806","source_collection":"history-2022","source_objectid":5293,"incident_name":"Evergreen Cemetery Fire","mapped_acres":0.2,"mapped_acres_source":"poly_GISAcres","gis_acres":0.2,"auto_acres":0.41904410473814513,"reported_acres":0.4,"percent_contained":null,"state":"ME","state_wfigs":"US-ME","county":"Cumberland","discovery_time_utc":"2022-08-04T19:30:00Z","perimeter_time_utc":"2022-10-15T16:06:05Z","perimeter_edit_time_utc":"2023-03-14T15:13:42Z","incident_modified_time_utc":"2022-08-04T22:14:29Z","containment_time_utc":"2022-08-04T19:54:00Z","control_time_utc":"2022-08-04T19:54:00Z","fire_out_time_utc":"2022-08-05T23:00:00Z","fire_cause":"Human","fire_cause_general":"Recreation and ceremony","map_method":"Auto-generated","source_dataset":"FFP","unique_fire_identifier":"2022-MEMES-22003806","irwin_id":"{C52E9409-E28E-4E82-AF49-CF868F441221}","global_id":"6b1c5915-d892-4308-a24e-47501d4ebb4d"}},{"type":"Feature","geometry":{"type":"Polygon","coordinates":[[[-70.33058,43.81289],[-70.33045,43.81311],[-70.33022,43.81288],[-70.33058,43.81289]]]},"properties":{"fire_id":"ufid:2022-MEMES-22003236","source_collection":"history-2022","source_objectid":5513,"incident_name":"Cumberland Pit Fire","mapped_acres":0.4,"mapped_acres_source":"poly_GISAcres","gis_acres":0.4,"auto_acres":0.12788417505626418,"reported_acres":0.4,"percent_contained":null,"state":"ME","state_wfigs":"US-ME","county":"Cumberland","discovery_time_utc":"2022-07-04T23:39:00Z","perimeter_time_utc":"2022-08-30T16:34:19Z","perimeter_edit_time_utc":"2023-03-14T15:13:42Z","incident_modified_time_utc":"2022-07-07T17:43:21Z","containment_time_utc":"2022-07-05T00:01:00Z","control_time_utc":"2022-07-05T00:07:00Z","fire_out_time_utc":"2022-07-07T17:45:00Z","fire_cause":"Human","fire_cause_general":"Fireworks","map_method":"Auto-generated","source_dataset":"FFP","unique_fire_identifier":"2022-MEMES-22003236","irwin_id":"{D4401FA5-1C18-4045-8DA1-22AB2F35576D}","global_id":"c4d34ddc-4857-4320-b600-8061e7b2dc8e"}},{"type":"Feature","geometry":{"type":"Polygon","coordinates":[[[-70.62273,43.40175],[-70.6237,43.40219],[-70.62416,43.40218],[-70.62415,43.40233],[-70.62111,43.40302],[-70.61953,43.40277],[-70.61977,43.40253],[-70.62014,43.4025],[-70.61996,43.40208],[-70.62038,43.40198],[-70.62041,43.40166],[-70.6207,43.4013],[-70.62207,43.40196],[-70.62273,43.40175]]]},"properties":{"fire_id":"ufid:2022-MEMES-22001425","source_collection":"history-2022","source_objectid":6058,"incident_name":"99 Wind Fire","mapped_acres":1.0,"mapped_acres_source":"poly_GISAcres","gis_acres":1.0,"auto_acres":8.796923546953199,"reported_acres":9.2,"percent_contained":null,"state":"ME","state_wfigs":"US-ME","county":"York","discovery_time_utc":"2022-04-15T19:59:00Z","perimeter_time_utc":"2022-08-05T20:46:15Z","perimeter_edit_time_utc":"2023-03-14T15:13:42Z","incident_modified_time_utc":"2022-04-15T22:34:25Z","containment_time_utc":"2022-04-15T21:13:00Z","control_time_utc":"2022-04-15T22:34:00Z","fire_out_time_utc":"2022-04-16T14:04:00Z","fire_cause":"Human","fire_cause_general":"Equipment and vehicle use","map_method":"Hand Sketch","source_dataset":"FFP","unique_fire_identifier":"2022-MEMES-22001425","irwin_id":"{55E397B2-37EA-4DC3-BF35-FA0091F302B2}","global_id":"8ab4a7ae-b5ea-46d3-8de1-a228aaf14b5c"}},{"type":"Feature","geometry":{"type":"Polygon","coordinates":[[[-70.3309,43.81305],[-70.33076,43.81313],[-70.33068,43.81302],[-70.3309,43.81305]]]},"properties":{"fire_id":"ufid:2022-MEMES-22003236.2","source_collection":"history-2022","source_objectid":6591,"incident_name":"Cumberland Pit Fire","mapped_acres":0.1,"mapped_acres_source":"poly_GISAcres","gis_acres":0.1,"auto_acres":0.046850137583240144,"reported_acres":0.1,"percent_contained":null,"state":"ME","state_wfigs":"US-ME","county":"Cumberland","discovery_time_utc":"2022-07-04T23:39:00Z","perimeter_time_utc":"2022-08-30T16:36:12Z","perimeter_edit_time_utc":"2023-03-14T15:13:42Z","incident_modified_time_utc":"2022-07-07T17:50:00Z","containment_time_utc":"2022-07-05T00:01:00Z","control_time_utc":"2022-07-05T00:07:00Z","fire_out_time_utc":"2022-07-07T17:45:00Z","fire_cause":"Human","fire_cause_general":"Fireworks","map_method":"Auto-generated","source_dataset":"FFP","unique_fire_identifier":"2022-MEMES-22003236.2","irwin_id":"{B701C90D-EED3-43E3-870C-0FBBD56B8183}","global_id":"901f1523-e43b-42f6-9220-1e86ad457951"}},{"type":"Feature","geometry":{"type":"Polygon","coordinates":[[[-70.89985,43.46761],[-70.90007,43.4679],[-70.8998,43.46785],[-70.89985,43.46761]]]},"properties":{"fire_id":"ufid:2022-MEMES-22005052.6","source_collection":"history-2022","source_objectid":7030,"incident_name":"Goding Road Fire 6","mapped_acres":0.1,"mapped_acres_source":"poly_GISAcres","gis_acres":0.1,"auto_acres":0.10537324014819187,"reported_acres":0.1,"percent_contained":null,"state":"ME","state_wfigs":"US-ME","county":"York","discovery_time_utc":"2022-11-04T19:20:00Z","perimeter_time_utc":"2022-11-22T15:12:56Z","perimeter_edit_time_utc":"2023-03-14T15:13:42Z","incident_modified_time_utc":"2022-11-05T20:11:18Z","containment_time_utc":"2022-11-04T22:10:00Z","control_time_utc":"2022-11-04T22:10:00Z","fire_out_time_utc":"2022-11-04T22:11:00Z","fire_cause":"Human","fire_cause_general":"Equipment and vehicle use","map_method":"Hand Sketch","source_dataset":"FFP","unique_fire_identifier":"2022-MEMES-22005052.6","irwin_id":"{AEE1B9B9-CC77-4AA6-80CE-09D781554BF4}","global_id":"e4b93646-6fd5-4fb5-8333-543fb6e553f2"}},{"type":"Feature","geometry":{"type":"Polygon","coordinates":[[[-70.67453,43.47291],[-70.67502,43.47296],[-70.67531,43.47266],[-70.6755,43.47296],[-70.67544,43.47312],[-70.67517,43.47311],[-70.67509,43.47332],[-70.67491,43.47301],[-70.67467,43.47311],[-70.67451,43.47297],[-70.67456,43.47313],[-70.67354,43.4729],[-70.67404,43.47255],[-70.67453,43.47291]]]},"properties":{"fire_id":"ufid:2022-MEMES-22003560","source_collection":"history-2022","source_objectid":7039,"incident_name":"Walker Road Fire","mapped_acres":0.1,"mapped_acres_source":"poly_GISAcres","gis_acres":0.1,"auto_acres":1.279905817812187,"reported_acres":1.3,"percent_contained":null,"state":"ME","state_wfigs":"US-ME","county":"York","discovery_time_utc":"2022-07-23T09:25:00Z","perimeter_time_utc":"2022-10-15T16:27:45Z","perimeter_edit_time_utc":"2023-03-14T15:13:42Z","incident_modified_time_utc":"2022-08-24T17:27:24Z","containment_time_utc":"2022-08-01T15:00:00Z","control_time_utc":null,"fire_out_time_utc":"2022-08-02T16:21:00Z","fire_cause":"Natural","fire_cause_general":"Natural","map_method":"Auto-generated","source_dataset":"FFP","unique_fire_identifier":"2022-MEMES-22003560","irwin_id":"{9769D52D-0E23-4679-8BB3-35625C437E53}","global_id":"6f1b4230-19a7-4e87-906f-0ee7dd560357"}},{"type":"Feature","geometry":{"type":"Polygon","coordinates":[[[-70.27751,44.52171],[-70.27737,44.52197],[-70.27747,44.52221],[-70.27736,44.52241],[-70.27688,44.52253],[-70.27697,44.52237],[-70.27682,44.52226],[-70.27694,44.52217],[-70.27662,44.52211],[-70.27671,44.52198],[-70.27711,44.52194],[-70.27751,44.52171]]]},"properties":{"fire_id":"ufid:2022-MEMES-22003835","source_collection":"history-2022","source_objectid":7298,"incident_name":"Canton Mountain Fire","mapped_acres":0.8,"mapped_acres_source":"poly_GISAcres","gis_acres":0.8,"auto_acres":0.805622996135022,"reported_acres":0.8,"percent_contained":null,"state":"ME","state_wfigs":"US-ME","county":"Franklin","discovery_time_utc":"2022-08-06T17:30:00Z","perimeter_time_utc":"2022-09-20T17:21:22Z","perimeter_edit_time_utc":"2023-03-14T15:13:42Z","incident_modified_time_utc":"2022-08-08T17:41:46Z","containment_time_utc":"2022-08-06T23:30:00Z","control_time_utc":null,"fire_out_time_utc":"2022-08-07T15:30:00Z","fire_cause":"Natural","fire_cause_general":"Natural","map_method":"Hand Sketch","source_dataset":"FFP","unique_fire_identifier":"2022-MEMES-22003835","irwin_id":"{11444305-17E3-4B76-8EE5-F9DFB17E51E6}","global_id":"675990b8-0314-4808-ab52-efe769813367"}},{"type":"Feature","geometry":{"type":"Polygon","coordinates":[[[-70.90145,43.47083],[-70.9013,43.47043],[-70.90098,43.47015],[-70.90107,43.47005],[-70.90084,43.46966],[-70.90105,43.46957],[-70.90122,43.46972],[-70.90109,43.46951],[-70.90079,43.46941],[-70.90083,43.46903],[-70.90094,43.46901],[-70.90119,43.46935],[-70.90144,43.47048],[-70.90175,43.47097],[-70.90145,43.47083]]]},"properties":{"fire_id":"ufid:2022-MEMES-22005052.5","source_collection":"history-2022","source_objectid":7879,"incident_name":"Goding Road Fire 5","mapped_acres":1.2,"mapped_acres_source":"poly_GISAcres","gis_acres":1.2,"auto_acres":1.1583338970698662,"reported_acres":1.2,"percent_contained":null,"state":"ME","state_wfigs":"US-ME","county":"York","discovery_time_utc":"2022-11-04T19:20:00Z","perimeter_time_utc":"2022-11-22T15:10:32Z","perimeter_edit_time_utc":"2023-03-14T15:13:42Z","incident_modified_time_utc":"2022-11-05T20:01:01Z","containment_time_utc":"2022-11-04T22:00:00Z","control_time_utc":"2022-11-04T22:00:00Z","fire_out_time_utc":"2022-11-04T22:00:00Z","fire_cause":"Human","fire_cause_general":"Equipment and vehicle use","map_method":"Hand Sketch","source_dataset":"FFP","unique_fire_identifier":"2022-MEMES-22005052.5","irwin_id":"{5E8D6760-E9A5-44E6-85BF-62F30069A562}","global_id":"6147b4e9-a025-4f69-8728-d61ee8162209"}},{"type":"Feature","geometry":{"type":"Polygon","coordinates":[[[-70.78464,44.49131],[-70.7845,44.49229],[-70.78464,44.49233],[-70.78436,44.49294],[-70.78378,44.49277],[-70.78353,44.49245],[-70.78359,44.49238],[-70.78339,44.49235],[-70.78352,44.49222],[-70.7834,44.49177],[-70.78357,44.49171],[-70.78363,44.49125],[-70.78374,44.49115],[-70.78408,44.49119],[-70.78413,44.49094],[-70.78464,44.49131]]]},"properties":{"fire_id":"ufid:2022-MEMES-22001957","source_collection":"history-2022","source_objectid":7895,"incident_name":"Stoney Brook Fire","mapped_acres":1.0,"mapped_acres_source":"poly_GISAcres","gis_acres":1.0,"auto_acres":3.7671413746595137,"reported_acres":3.8,"percent_contained":null,"state":"ME","state_wfigs":"US-ME","county":"Oxford","discovery_time_utc":"2022-05-05T17:40:00Z","perimeter_time_utc":"2022-08-05T20:43:17Z","perimeter_edit_time_utc":"2023-03-14T15:13:42Z","incident_modified_time_utc":"2022-05-05T22:58:04Z","containment_time_utc":"2022-05-08T21:00:00Z","control_time_utc":null,"fire_out_time_utc":"2022-05-09T20:00:00Z","fire_cause":"Human","fire_cause_general":"Recreation and ceremony","map_method":"Hand Sketch","source_dataset":"FFP","unique_fire_identifier":"2022-MEMES-22001957","irwin_id":"{9AEA4839-DEDF-4196-9BBD-8BB04FB20EC8}","global_id":"d5b98273-f296-4934-b1c4-3b825fe9669f"}},{"type":"Feature","geometry":{"type":"Polygon","coordinates":[[[-70.39307,43.67102],[-70.39317,43.67096],[-70.39328,43.67132],[-70.39307,43.67102]]]},"properties":{"fire_id":"ufid:2022-MEMES-22005274","source_collection":"history-2022","source_objectid":7947,"incident_name":"Ash Trash Fire","mapped_acres":0.1,"mapped_acres_source":"poly_GISAcres","gis_acres":0.1,"auto_acres":0.04538195532265224,"reported_acres":0.1,"percent_contained":null,"state":"ME","state_wfigs":"US-ME","county":"Cumberland","discovery_time_utc":"2022-11-20T18:25:00Z","perimeter_time_utc":"2022-11-22T17:28:17Z","perimeter_edit_time_utc":"2023-03-14T15:13:42Z","incident_modified_time_utc":"2022-11-20T22:08:29Z","containment_time_utc":"2022-11-20T18:56:00Z","control_time_utc":null,"fire_out_time_utc":"2022-11-20T19:38:00Z","fire_cause":"Human","fire_cause_general":"Other causes","map_method":"Hand Sketch","source_dataset":"FFP","unique_fire_identifier":"2022-MEMES-22005274","irwin_id":"{53DDE8A4-DF8D-4CDC-B830-EC054B5B5E25}","global_id":"8c43e2ff-bb78-47d2-8885-abcfffe94a13"}},{"type":"Feature","geometry":{"type":"Polygon","coordinates":[[[-70.91203,43.47614],[-70.91293,43.47648],[-70.91219,43.47717],[-70.91186,43.47696],[-70.91178,43.47672],[-70.91195,43.47657],[-70.91183,43.47625],[-70.91203,43.47614]]]},"properties":{"fire_id":"ufid:2022-MEMES-22005052.1","source_collection":"history-2022","source_objectid":8636,"incident_name":"Goding Road Fire 1","mapped_acres":1.5,"mapped_acres_source":"poly_GISAcres","gis_acres":1.5,"auto_acres":1.4751038991253658,"reported_acres":1.5,"percent_contained":null,"state":"ME","state_wfigs":"US-ME","county":"York","discovery_time_utc":"2022-11-04T19:20:00Z","perimeter_time_utc":"2022-11-22T15:08:14Z","perimeter_edit_time_utc":"2023-03-14T15:13:42Z","incident_modified_time_utc":"2022-11-05T15:35:13Z","containment_time_utc":"2022-11-04T22:25:00Z","control_time_utc":"2022-11-04T22:26:00Z","fire_out_time_utc":"2022-11-04T22:26:00Z","fire_cause":"Human","fire_cause_general":"Equipment and vehicle use","map_method":"Hand Sketch","source_dataset":"FFP","unique_fire_identifier":"2022-MEMES-22005052.1","irwin_id":"{273ECCF3-B0D1-4669-8456-0C70334E68F1}","global_id":"c5b99214-498d-439b-9e8b-69a6c56e737e"}},{"type":"Feature","geometry":{"type":"Polygon","coordinates":[[[-70.29323,44.11345],[-70.29263,44.11352],[-70.29221,44.11331],[-70.29137,44.11335],[-70.29118,44.11297],[-70.29157,44.11293],[-70.29172,44.11307],[-70.29181,44.11294],[-70.29254,44.11328],[-70.29331,44.11334],[-70.29323,44.11345]]]},"properties":{"fire_id":"ufid:2022-MEMES-22002323","source_collection":"history-2022","source_objectid":9618,"incident_name":"F Street Fire","mapped_acres":1.0,"mapped_acres_source":"poly_GISAcres","gis_acres":1.0,"auto_acres":1.072328963766677,"reported_acres":1.1,"percent_contained":null,"state":"ME","state_wfigs":"US-ME","county":"Androscoggin","discovery_time_utc":"2022-05-18T15:40:00Z","perimeter_time_utc":"2022-08-05T21:13:13Z","perimeter_edit_time_utc":"2023-03-14T15:13:42Z","incident_modified_time_utc":"2022-05-18T18:12:07Z","containment_time_utc":"2022-05-18T16:45:00Z","control_time_utc":null,"fire_out_time_utc":null,"fire_cause":"Human","fire_cause_general":"Power generation / transmission / distribution","map_method":"Hand Sketch","source_dataset":"FFP","unique_fire_identifier":"2022-MEMES-22002323","irwin_id":"{90768DE2-0775-4218-9A9A-D10CCDDC2C96}","global_id":"755f4c40-99b6-4c39-8ffa-804e05facaea"}},{"type":"Feature","geometry":{"type":"Polygon","coordinates":[[[-70.03815,44.38484],[-70.03784,44.38499],[-70.03756,44.38491],[-70.03792,44.3848],[-70.03773,44.38478],[-70.03783,44.38466],[-70.03815,44.38484]]]},"properties":{"fire_id":"ufid:2022-MEMES-22003937","source_collection":"history-2022","source_objectid":9812,"incident_name":"Granite Start Fire","mapped_acres":0.2,"mapped_acres_source":"poly_GISAcres","gis_acres":0.2,"auto_acres":0.20951457387886094,"reported_acres":0.2,"percent_contained":null,"state":"ME","state_wfigs":"US-ME","county":"Kennebec","discovery_time_utc":"2022-08-14T19:44:00Z","perimeter_time_utc":"2022-08-29T19:43:12Z","perimeter_edit_time_utc":"2023-03-14T15:13:42Z","incident_modified_time_utc":"2022-08-14T22:51:06Z","containment_time_utc":"2022-08-14T20:30:00Z","control_time_utc":null,"fire_out_time_utc":"2022-08-29T19:41:35Z","fire_cause":"Natural","fire_cause_general":"Natural","map_method":"Auto-generated","source_dataset":"FFP","unique_fire_identifier":"2022-MEMES-22003937","irwin_id":"{7A11B142-1399-45ED-9576-9448B2830264}","global_id":"2bcb4ea7-b5fe-45f0-8220-d272d47494b6"}},{"type":"Feature","geometry":{"type":"Polygon","coordinates":[[[-70.59395,43.69445],[-70.59357,43.69439],[-70.59355,43.6942],[-70.5939,43.69415],[-70.59395,43.69445]]]},"properties":{"fire_id":"ufid:2022-MEMES-22001375","source_collection":"history-2022","source_objectid":9970,"incident_name":"Mullen Fire","mapped_acres":1.0,"mapped_acres_source":"poly_GISAcres","gis_acres":1.0,"auto_acres":0.224615283703794,"reported_acres":null,"percent_contained":null,"state":"ME","state_wfigs":"US-ME","county":"York","discovery_time_utc":"2022-04-11T18:11:00Z","perimeter_time_utc":"2022-08-05T20:44:57Z","perimeter_edit_time_utc":"2022-08-05T20:44:58Z","incident_modified_time_utc":"2022-04-13T15:05:15Z","containment_time_utc":"2022-04-11T18:31:00Z","control_time_utc":"2022-04-11T18:31:00Z","fire_out_time_utc":"2022-04-11T18:31:00Z","fire_cause":"Human","fire_cause_general":"Recreation and ceremony","map_method":"Auto-generated","source_dataset":"Decertified","unique_fire_identifier":"2022-MEMES-22001375","irwin_id":"{B580BC1D-9CB0-4EC7-A61C-F8ED80A865A7}","global_id":"31e64f19-60d0-4185-ac67-80ccbd2ddce9"}},{"type":"Feature","geometry":{"type":"Polygon","coordinates":[[[-70.33084,43.81293],[-70.33073,43.81298],[-70.33068,43.81292],[-70.33084,43.81293]]]},"properties":{"fire_id":"ufid:2022-MEMES-22003236.3","source_collection":"history-2022","source_objectid":10000,"incident_name":"Cumberland Pit Fire","mapped_acres":0.1,"mapped_acres_source":"poly_GISAcres","gis_acres":0.1,"auto_acres":0.02124109618950602,"reported_acres":0.1,"percent_contained":null,"state":"ME","state_wfigs":"US-ME","county":"Cumberland","discovery_time_utc":"2022-07-04T23:39:00Z","perimeter_time_utc":"2022-08-30T16:37:44Z","perimeter_edit_time_utc":"2023-03-14T15:13:42Z","incident_modified_time_utc":"2022-07-07T17:53:25Z","containment_time_utc":"2022-07-05T00:01:00Z","control_time_utc":"2022-07-05T00:07:00Z","fire_out_time_utc":"2022-07-07T17:45:00Z","fire_cause":"Human","fire_cause_general":"Fireworks","map_method":"Auto-generated","source_dataset":"FFP","unique_fire_identifier":"2022-MEMES-22003236.3","irwin_id":"{AF9518FA-5942-46FC-994F-B9D51AF359EC}","global_id":"b78b9eae-d1b8-4a7f-91ca-c1bef7eecd77"}},{"type":"Feature","geometry":{"type":"Polygon","coordinates":[[[-70.43418,44.42306],[-70.43456,44.42352],[-70.4346,44.42396],[-70.43429,44.42411],[-70.43438,44.42425],[-70.43427,44.42462],[-70.43454,44.42474],[-70.43473,44.42538],[-70.43453,44.42535],[-70.43464,44.42547],[-70.43449,44.42575],[-70.43421,44.42548],[-70.43345,44.42537],[-70.43335,44.42524],[-70.43335,44.42535],[-70.43295,44.42541],[-70.43197,44.42506],[-70.4319,44.42494],[-70.43207,44.42489],[-70.43207,44.42469],[-70.4323,44.42457],[-70.43236,44.42438],[-70.43223,44.42423],[-70.43198,44.42448],[-70.43171,44.42442],[-70.43182,44.42429],[-70.43161,44.42411],[-70.4321,44.42365],[-70.43191,44.42328],[-70.43245,44.4232],[-70.43271,44.42291],[-70.43313,44.4229],[-70.43318,44.42312],[-70.43333,44.42293],[-70.43357,44.42288],[-70.43345,44.42302],[-70.43353,44.4232],[-70.43398,44.42302],[-70.43418,44.42306]]]},"properties":{"fire_id":"ufid:2022-MEMES-22001734","source_collection":"history-2022","source_objectid":10055,"incident_name":"Allen Mtn Fire","mapped_acres":1.0,"mapped_acres_source":"poly_GISAcres","gis_acres":1.0,"auto_acres":12.559600699468815,"reported_acres":12.5,"percent_contained":null,"state":"ME","state_wfigs":"US-ME","county":"Oxford","discovery_time_utc":"2022-04-26T17:30:00Z","perimeter_time_utc":"2022-08-05T20:44:18Z","perimeter_edit_time_utc":"2023-03-14T15:13:42Z","incident_modified_time_utc":"2022-04-26T21:37:34Z","containment_time_utc":"2022-04-26T20:24:00Z","control_time_utc":null,"fire_out_time_utc":"2022-04-30T14:53:00Z","fire_cause":"Human","fire_cause_general":"Equipment and vehicle use","map_method":"Phone/Tablet","source_dataset":"FFP","unique_fire_identifier":"2022-MEMES-22001734","irwin_id":"{23743CF5-B5FE-4463-B45B-7C37BD968129}","global_id":"ef05dad6-9e2c-4548-9b3b-2e014cd0b57e"}},{"type":"Feature","geometry":{"type":"Polygon","coordinates":[[[-70.73892,43.43567],[-70.73919,43.43574],[-70.73907,43.43582],[-70.73892,43.43567]]]},"properties":{"fire_id":"ufid:2022-MEMES-22001460","source_collection":"history-2022","source_objectid":10083,"incident_name":"High Street Shed Fire","mapped_acres":1.0,"mapped_acres_source":"poly_GISAcres","gis_acres":1.0,"auto_acres":0.060571528168605386,"reported_acres":0.1,"percent_contained":null,"state":"ME","state_wfigs":"US-ME","county":"York","discovery_time_utc":"2022-04-16T17:04:00Z","perimeter_time_utc":"2022-08-05T20:45:02Z","perimeter_edit_time_utc":"2023-03-14T15:13:42Z","incident_modified_time_utc":"2022-04-16T19:13:30Z","containment_time_utc":"2022-04-16T17:44:00Z","control_time_utc":"2022-04-16T17:44:00Z","fire_out_time_utc":"2022-04-16T19:12:00Z","fire_cause":"Human","fire_cause_general":"Debris and open burning","map_method":"Hand Sketch","source_dataset":"FFP","unique_fire_identifier":"2022-MEMES-22001460","irwin_id":"{B8F8AC25-4E5F-48D9-98E9-4C8CDC12D9FB}","global_id":"2e623cf9-9649-4221-9d35-09c28870d227"}},{"type":"Feature","geometry":{"type":"Polygon","coordinates":[[[-70.91064,43.47587],[-70.91068,43.47597],[-70.91176,43.47614],[-70.91111,43.47664],[-70.9108,43.47668],[-70.91084,43.47683],[-70.91061,43.47685],[-70.91081,43.47667],[-70.91073,43.47664],[-70.91008,43.47682],[-70.9099,43.47666],[-70.9106,43.47616],[-70.91051,43.47599],[-70.91064,43.47587]]]},"properties":{"fire_id":"ufid:2022-MEMES-22005052.2","source_collection":"history-2022","source_objectid":10625,"incident_name":"Goding Road Fire 2","mapped_acres":1.8,"mapped_acres_source":"poly_GISAcres","gis_acres":1.8,"auto_acres":1.8253179236164572,"reported_acres":1.8,"percent_contained":null,"state":"ME","state_wfigs":"US-ME","county":"York","discovery_time_utc":"2022-11-04T19:20:00Z","perimeter_time_utc":"2022-11-22T15:08:42Z","perimeter_edit_time_utc":"2023-03-14T15:13:42Z","incident_modified_time_utc":"2022-11-05T15:34:40Z","containment_time_utc":"2022-11-04T22:34:00Z","control_time_utc":"2022-11-04T22:34:00Z","fire_out_time_utc":"2022-11-04T22:34:00Z","fire_cause":"Human","fire_cause_general":"Equipment and vehicle use","map_method":"Hand Sketch","source_dataset":"FFP","unique_fire_identifier":"2022-MEMES-22005052.2","irwin_id":"{F2EC867A-3689-40AB-AD6F-F97FD8B55FE2}","global_id":"774417d0-f3a3-4e09-aaa5-b94e89c9d80b"}},{"type":"Feature","geometry":{"type":"Polygon","coordinates":[[[-70.90399,43.47266],[-70.90443,43.47283],[-70.90519,43.47354],[-70.90511,43.47366],[-70.90481,43.47362],[-70.90496,43.47383],[-70.90457,43.47381],[-70.90396,43.47332],[-70.90383,43.47301],[-70.90428,43.47299],[-70.90406,43.47288],[-70.90399,43.47266]]]},"properties":{"fire_id":"ufid:2022-MEMES-22005052.4","source_collection":"history-2022","source_objectid":10782,"incident_name":"Goding Road Fire 4","mapped_acres":1.7,"mapped_acres_source":"poly_GISAcres","gis_acres":1.7,"auto_acres":1.7085752276579071,"reported_acres":1.7,"percent_contained":null,"state":"ME","state_wfigs":"US-ME","county":"York","discovery_time_utc":"2022-11-04T19:20:00Z","perimeter_time_utc":"2022-11-22T15:11:30Z","perimeter_edit_time_utc":"2023-03-14T15:13:42Z","incident_modified_time_utc":"2022-11-05T18:19:43Z","containment_time_utc":"2022-11-04T22:18:00Z","control_time_utc":"2022-11-04T22:18:00Z","fire_out_time_utc":"2022-11-04T22:18:00Z","fire_cause":"Human","fire_cause_general":"Equipment and vehicle use","map_method":"Hand Sketch","source_dataset":"FFP","unique_fire_identifier":"2022-MEMES-22005052.4","irwin_id":"{01ED8224-A56A-4335-AC92-134D7E80B683}","global_id":"50de585a-b0e7-4376-a9fd-152d198c835a"}},{"type":"Feature","geometry":{"type":"Polygon","coordinates":[[[-70.92169,43.49859],[-70.9221,43.49848],[-70.92251,43.49862],[-70.92232,43.49897],[-70.92209,43.49905],[-70.92164,43.49886],[-70.92169,43.49859]]]},"properties":{"fire_id":"ufid:2022-MEMES-22002030","source_collection":"history-2022","source_objectid":10918,"incident_name":"Apple Tree Campfire","mapped_acres":0.815,"mapped_acres_source":"poly_GISAcres","gis_acres":0.815,"auto_acres":0.815254086403337,"reported_acres":0.8,"percent_contained":null,"state":"ME","state_wfigs":"US-ME","county":"York","discovery_time_utc":"2022-05-08T17:42:00Z","perimeter_time_utc":"2022-11-23T19:52:09Z","perimeter_edit_time_utc":"2023-03-14T15:13:42Z","incident_modified_time_utc":"2022-05-09T15:35:19Z","containment_time_utc":"2022-05-08T19:36:00Z","control_time_utc":"2022-05-08T19:36:00Z","fire_out_time_utc":"2022-05-08T21:45:00Z","fire_cause":"Human","fire_cause_general":"Recreation and ceremony","map_method":"Mixed Methods","source_dataset":"FFP","unique_fire_identifier":"2022-MEMES-22002030","irwin_id":"{55757790-E05E-4F07-AFD1-0A688967AB52}","global_id":"1530676c-43d3-4c27-82a4-459e6ef27491"}},{"type":"Feature","geometry":{"type":"Polygon","coordinates":[[[-70.56887,44.00894],[-70.56858,44.00975],[-70.56834,44.00983],[-70.56822,44.00971],[-70.56757,44.01048],[-70.56697,44.01084],[-70.5666,44.01063],[-70.56606,44.01],[-70.56634,44.00952],[-70.56683,44.0093],[-70.56706,44.00871],[-70.56738,44.00848],[-70.56821,44.0085],[-70.5684,44.00894],[-70.56887,44.00894]]]},"properties":{"fire_id":"ufid:2022-MEMES-22003198","source_collection":"history-2022","source_objectid":11729,"incident_name":"Got Duff Fire","mapped_acres":25.0,"mapped_acres_source":"poly_GISAcres","gis_acres":25.0,"auto_acres":8.042391638742114,"reported_acres":8.0,"percent_contained":null,"state":"ME","state_wfigs":"US-ME","county":"Cumberland","discovery_time_utc":"2022-07-03T12:00:00Z","perimeter_time_utc":"2022-10-17T16:27:22Z","perimeter_edit_time_utc":"2023-03-14T15:13:42Z","incident_modified_time_utc":"2022-10-15T22:55:24Z","containment_time_utc":"2022-07-04T00:56:00Z","control_time_utc":null,"fire_out_time_utc":"2022-07-20T14:34:00Z","fire_cause":"Human","fire_cause_general":"Firearms and explosives use","map_method":"GPS-Walked","source_dataset":"FFP","unique_fire_identifier":"2022-MEMES-22003198","irwin_id":"{9C0D9BD3-84D9-4913-80F0-229DA26CC27A}","global_id":"e711f356-9e3d-4e72-b0ef-931fd5e4fcec"}},{"type":"Feature","geometry":{"type":"MultiPolygon","coordinates":[[[[-70.37692,44.83075],[-70.3772,44.83078],[-70.37707,44.83088],[-70.37692,44.83075]]],[[[-70.37707,44.83088],[-70.3771,44.83089],[-70.37709,44.83091],[-70.37707,44.83088]]]]},"properties":{"fire_id":"ufid:2022-MEMES-22002362","source_collection":"history-2022","source_objectid":11783,"incident_name":"Gontran Fire","mapped_acres":0.05,"mapped_acres_source":"poly_GISAcres","gis_acres":0.05,"auto_acres":0.0564861856394362,"reported_acres":null,"percent_contained":null,"state":"ME","state_wfigs":"US-ME","county":"Franklin","discovery_time_utc":"2022-05-11T15:25:00Z","perimeter_time_utc":"2022-11-23T20:50:54Z","perimeter_edit_time_utc":"2022-11-23T20:50:54Z","incident_modified_time_utc":"2022-05-20T19:33:05Z","containment_time_utc":null,"control_time_utc":null,"fire_out_time_utc":null,"fire_cause":"Human","fire_cause_general":"Debris and open burning","map_method":"Mixed Methods","source_dataset":"Decertified","unique_fire_identifier":"2022-MEMES-22002362","irwin_id":"{4D1DC01F-5873-4F74-AE92-19C28D3CF7E7}","global_id":"a1c72fe0-4301-489d-8aff-e961be1a1c69"}},{"type":"Feature","geometry":{"type":"Polygon","coordinates":[[[-70.21509,44.62392],[-70.21532,44.62399],[-70.21505,44.6242],[-70.21543,44.62421],[-70.2157,44.62454],[-70.21559,44.62468],[-70.21515,44.62481],[-70.21492,44.62432],[-70.21462,44.62427],[-70.21509,44.62392]]]},"properties":{"fire_id":"ufid:2022-MEMES-22002163","source_collection":"history-2022","source_objectid":11790,"incident_name":"Stanhope Fire","mapped_acres":1.0,"mapped_acres_source":"poly_GISAcres","gis_acres":1.0,"auto_acres":0.9585743266396443,"reported_acres":1.0,"percent_contained":null,"state":"ME","state_wfigs":"US-ME","county":"Franklin","discovery_time_utc":"2022-05-11T23:04:00Z","perimeter_time_utc":"2022-11-23T20:30:57Z","perimeter_edit_time_utc":"2023-03-14T15:13:42Z","incident_modified_time_utc":"2022-05-12T02:12:05Z","containment_time_utc":"2022-05-11T23:55:00Z","control_time_utc":null,"fire_out_time_utc":"2022-05-12T02:11:00Z","fire_cause":"Human","fire_cause_general":"Debris and open burning","map_method":"Hand Sketch","source_dataset":"FFP","unique_fire_identifier":"2022-MEMES-22002163","irwin_id":"{1DFCDFE0-873E-4C44-84C5-308559203058}","global_id":"7039bb95-7bda-4177-8e4c-6c25e248adb7"}},{"type":"Feature","geometry":{"type":"Polygon","coordinates":[[[-70.44201,43.51525],[-70.4417,43.51492],[-70.44213,43.51479],[-70.4424,43.51453],[-70.44318,43.51467],[-70.44343,43.5151],[-70.44332,43.51531],[-70.44304,43.51539],[-70.4424,43.5154],[-70.44201,43.51525]]]},"properties":{"fire_id":"ufid:2022-MEMES-22002115","source_collection":"history-2022","source_objectid":12326,"incident_name":"Coastrail Fire","mapped_acres":1.0,"mapped_acres_source":"poly_GISAcres","gis_acres":1.0,"auto_acres":2.3211084821241093,"reported_acres":2.3,"percent_contained":null,"state":"ME","state_wfigs":"US-ME","county":"York","discovery_time_utc":"2022-05-09T20:54:00Z","perimeter_time_utc":"2022-08-05T20:42:41Z","perimeter_edit_time_utc":"2023-03-14T15:13:42Z","incident_modified_time_utc":"2022-05-10T18:16:38Z","containment_time_utc":"2022-05-09T21:45:00Z","control_time_utc":"2022-05-09T21:45:00Z","fire_out_time_utc":"2022-05-09T21:45:00Z","fire_cause":"Human","fire_cause_general":"Recreation and ceremony","map_method":"Auto-generated","source_dataset":"FFP","unique_fire_identifier":"2022-MEMES-22002115","irwin_id":"{287294E0-8353-478F-9828-468D189AB278}","global_id":"5d767abe-193d-4f0b-a9f5-86e881f13919"}},{"type":"Feature","geometry":{"type":"Polygon","coordinates":[[[-70.39301,44.05906],[-70.39282,44.05932],[-70.3928,44.05906],[-70.39301,44.05906]]]},"properties":{"fire_id":"ufid:2022-MEMES-22003234","source_collection":"history-2022","source_objectid":12464,"incident_name":"Oak Hill Fire","mapped_acres":0.2,"mapped_acres_source":"poly_GISAcres","gis_acres":0.2,"auto_acres":0.112811792560668,"reported_acres":0.2,"percent_contained":null,"state":"ME","state_wfigs":"US-ME","county":"Androscoggin","discovery_time_utc":"2022-07-04T23:30:00Z","perimeter_time_utc":"2022-10-15T17:31:16Z","perimeter_edit_time_utc":"2023-03-14T15:13:42Z","incident_modified_time_utc":"2022-07-05T15:05:43Z","containment_time_utc":"2022-07-04T23:45:00Z","control_time_utc":"2022-07-04T23:45:00Z","fire_out_time_utc":"2022-07-05T15:03:40Z","fire_cause":"Human","fire_cause_general":"Misuse of fire by a minor","map_method":"Auto-generated","source_dataset":"FFP","unique_fire_identifier":"2022-MEMES-22003234","irwin_id":"{24BE44CF-1249-4B56-8FD3-D4901BEFF10D}","global_id":"59e448fc-f790-4ddf-87e4-1c41d7f256c9"}},{"type":"Feature","geometry":{"type":"Polygon","coordinates":[[[-70.84599,43.50208],[-70.84637,43.50192],[-70.84658,43.50216],[-70.84658,43.5025],[-70.84618,43.50263],[-70.84601,43.50242],[-70.84609,43.50231],[-70.84599,43.50208]]]},"properties":{"fire_id":"ufid:2022-MEMES-22001653","source_collection":"history-2022","source_objectid":13179,"incident_name":"Waterfall Fire","mapped_acres":1.0,"mapped_acres_source":"poly_GISAcres","gis_acres":1.0,"auto_acres":0.694192196570387,"reported_acres":null,"percent_contained":null,"state":"ME","state_wfigs":"US-ME","county":"York","discovery_time_utc":"2022-04-23T21:05:00Z","perimeter_time_utc":"2022-08-05T20:45:06Z","perimeter_edit_time_utc":"2022-08-05T20:45:09Z","incident_modified_time_utc":"2022-05-04T19:38:15Z","containment_time_utc":"2022-04-23T22:38:00Z","control_time_utc":"2022-04-23T22:38:00Z","fire_out_time_utc":"2022-04-23T22:38:00Z","fire_cause":"Human","fire_cause_general":"Recreation and ceremony","map_method":"Auto-generated","source_dataset":"Decertified","unique_fire_identifier":"2022-MEMES-22001653","irwin_id":"{CDBD4F9E-3388-4CAE-8200-9DC6301AD77E}","global_id":"bedc8504-19ed-43a8-8e9a-18f0b7a678a3"}},{"type":"Feature","geometry":{"type":"Polygon","coordinates":[[[-70.84645,43.70854],[-70.84652,43.70875],[-70.84637,43.70896],[-70.8465,43.70928],[-70.84633,43.70953],[-70.84623,43.70947],[-70.84618,43.70878],[-70.84617,43.70939],[-70.84604,43.70957],[-70.84569,43.70958],[-70.8454,43.70984],[-70.84467,43.70973],[-70.84479,43.70946],[-70.84541,43.70885],[-70.84584,43.7087],[-70.84618,43.70877],[-70.84645,43.70854]]]},"properties":{"fire_id":"ufid:2022-MEMES-22005068","source_collection":"history-2022","source_objectid":13221,"incident_name":"Piper Run Fire","mapped_acres":2.7,"mapped_acres_source":"poly_GISAcres","gis_acres":2.7,"auto_acres":2.832042063551826,"reported_acres":2.8,"percent_contained":null,"state":"ME","state_wfigs":"US-ME","county":"York","discovery_time_utc":"2022-11-05T19:30:00Z","perimeter_time_utc":"2022-12-21T23:23:01Z","perimeter_edit_time_utc":"2023-03-14T15:13:42Z","incident_modified_time_utc":"2022-11-05T22:10:25Z","containment_time_utc":"2022-11-05T21:08:00Z","control_time_utc":"2022-11-05T21:09:00Z","fire_out_time_utc":"2022-11-05T22:09:00Z","fire_cause":"Human","fire_cause_general":"Firearms and explosives use","map_method":"Hand Sketch","source_dataset":"FFP","unique_fire_identifier":"2022-MEMES-22005068","irwin_id":"{671CFBA9-F1AB-4CB1-8206-632DDE68E591}","global_id":"ce7b4d21-25f4-476e-a7e2-5b2c9e2f3aca"}},{"type":"Feature","geometry":{"type":"Polygon","coordinates":[[[-70.64426,44.36358],[-70.64357,44.36344],[-70.6436,44.36317],[-70.64334,44.36295],[-70.64276,44.36316],[-70.64229,44.36313],[-70.64244,44.36258],[-70.64291,44.36249],[-70.64262,44.36247],[-70.64257,44.36232],[-70.64293,44.36204],[-70.64302,44.36215],[-70.64339,44.36213],[-70.64329,44.36178],[-70.6434,44.36154],[-70.64392,44.36151],[-70.64379,44.36092],[-70.64295,44.36013],[-70.64371,44.35968],[-70.64403,44.35985],[-70.64426,44.35973],[-70.64468,44.35976],[-70.64455,44.35995],[-70.645,44.36009],[-70.64528,44.36034],[-70.64503,44.3606],[-70.64526,44.36086],[-70.64515,44.36096],[-70.64528,44.36118],[-70.64515,44.36124],[-70.64533,44.36164],[-70.64482,44.36197],[-70.64495,44.36205],[-70.64486,44.36211],[-70.64499,44.36242],[-70.64468,44.36241],[-70.64493,44.36244],[-70.64496,44.36259],[-70.64526,44.36253],[-70.64544,44.36275],[-70.64511,44.36289],[-70.645,44.36281],[-70.64508,44.3632],[-70.64491,44.36335],[-70.64458,44.3633],[-70.64467,44.36303],[-70.64424,44.36324],[-70.64441,44.36342],[-70.64426,44.36358]]]},"properties":{"fire_id":"ufid:2022-MEMES-22005032","source_collection":"history-2022","source_objectid":15163,"incident_name":"Rowe Hill Fire","mapped_acres":7.0,"mapped_acres_source":"poly_GISAcres","gis_acres":7.0,"auto_acres":14.860680890680005,"reported_acres":14.9,"percent_contained":null,"state":"ME","state_wfigs":"US-ME","county":"Oxford","discovery_time_utc":"2022-11-03T18:35:00Z","perimeter_time_utc":"2023-01-27T18:14:53Z","perimeter_edit_time_utc":"2023-03-14T15:13:42Z","incident_modified_time_utc":"2022-11-03T21:02:11Z","containment_time_utc":"2022-11-03T20:50:00Z","control_time_utc":null,"fire_out_time_utc":"2022-11-06T18:00:00Z","fire_cause":"Human","fire_cause_general":"Arson","map_method":null,"source_dataset":"FFP","unique_fire_identifier":"2022-MEMES-22005032","irwin_id":"{B33D1106-8A07-45A0-B303-28F3CE8C646A}","global_id":"87aaa51c-02d3-42ad-b421-30ac8c77eb2d"}},{"type":"Feature","geometry":{"type":"Polygon","coordinates":[[[-70.88179,43.83191],[-70.88146,43.83183],[-70.88143,43.8317],[-70.88206,43.83166],[-70.88213,43.83178],[-70.88179,43.83191]]]},"properties":{"fire_id":"ufid:2022-MEMES-22005159","source_collection":"history-2022","source_objectid":15253,"incident_name":"Campground Fire","mapped_acres":0.3,"mapped_acres_source":"poly_GISAcres","gis_acres":0.3,"auto_acres":0.33293248530447905,"reported_acres":0.3,"percent_contained":null,"state":"ME","state_wfigs":"US-ME","county":"Oxford","discovery_time_utc":"2022-11-10T22:00:00Z","perimeter_time_utc":"2023-01-27T18:30:47Z","perimeter_edit_time_utc":"2023-03-14T15:13:42Z","incident_modified_time_utc":"2022-11-11T15:22:58Z","containment_time_utc":"2022-11-10T23:10:00Z","control_time_utc":null,"fire_out_time_utc":"2022-11-10T23:45:00Z","fire_cause":"Human","fire_cause_general":"Debris and open burning","map_method":"Auto-generated","source_dataset":"FFP","unique_fire_identifier":"2022-MEMES-22005159","irwin_id":"{05431D39-B021-449A-B48D-231B41B0BE10}","global_id":"a0929ee6-1ab2-4098-b20a-7a76af438faa"}},{"type":"Feature","geometry":{"type":"Polygon","coordinates":[[[-70.49605,43.70002],[-70.4957,43.70032],[-70.49514,43.70044],[-70.49492,43.70021],[-70.49493,43.70009],[-70.4952,43.70009],[-70.49551,43.6998],[-70.49564,43.69989],[-70.49599,43.69977],[-70.49605,43.70002]]]},"properties":{"fire_id":"ufid:2022-MEMES-22005093","source_collection":"history-2022","source_objectid":15262,"incident_name":"Gotham Fire","mapped_acres":1.0,"mapped_acres_source":"poly_GISAcres","gis_acres":1.0,"auto_acres":0.941164538174108,"reported_acres":1.0,"percent_contained":null,"state":"ME","state_wfigs":"US-ME","county":"Cumberland","discovery_time_utc":"2022-11-07T19:41:00Z","perimeter_time_utc":"2023-01-27T17:23:09Z","perimeter_edit_time_utc":"2023-03-14T15:13:42Z","incident_modified_time_utc":"2022-11-07T21:52:27Z","containment_time_utc":"2022-11-07T20:06:00Z","control_time_utc":"2022-11-07T20:30:00Z","fire_out_time_utc":"2022-11-07T21:30:00Z","fire_cause":"Human","fire_cause_general":"Equipment and vehicle use","map_method":"GPS-Walked","source_dataset":"FFP","unique_fire_identifier":"2022-MEMES-22005093","irwin_id":"{1FEF2593-3634-4D1A-A312-574FDBC93AEA}","global_id":"0342436b-83df-4797-8302-760d858f6873"}}]}
