{"type":"FeatureCollection","features":[{"type":"Feature","geometry":{"type":"Polygon","coordinates":[[[-70.3032,45.20882],[-70.30361,45.20907],[-70.30362,45.20931],[-70.30395,45.20942],[-70.30483,45.20931],[-70.3047,45.20952],[-70.30476,45.20986],[-70.3051,45.20998],[-70.30484,45.21016],[-70.30456,45.21009],[-70.30441,45.20979],[-70.30405,45.20962],[-70.3032,45.2098],[-70.30278,45.20975],[-70.30325,45.2095],[-70.30289,45.20932],[-70.3025,45.20939],[-70.30251,45.2091],[-70.3032,45.20882]]]},"properties":{"fire_id":"ufid:2022-MEMES-22003031","source_collection":"history-2022","source_objectid":4366,"incident_name":"Spark Plug Fire","mapped_acres":2.66,"mapped_acres_source":"poly_GISAcres","gis_acres":2.66,"auto_acres":2.64546512321963,"reported_acres":2.66,"percent_contained":null,"state":"ME","state_wfigs":"US-ME","county":"Somerset","discovery_time_utc":"2022-06-24T20:30:00Z","perimeter_time_utc":"2022-11-23T20:32:54Z","perimeter_edit_time_utc":"2022-11-23T20:32:54Z","incident_modified_time_utc":"2022-07-11T15:03:04Z","containment_time_utc":"2022-06-26T21:00:00Z","control_time_utc":"2022-06-26T21:00:00Z","fire_out_time_utc":"2022-07-01T21:00:00Z","fire_cause":"Human","fire_cause_general":"Other causes","map_method":"Auto-generated","source_dataset":"Decertified","unique_fire_identifier":"2022-MEMES-22003031","irwin_id":"{496CC6DD-641C-4ABB-BB3C-B3C48D2C5A32}","global_id":"66360260-f095-4548-b985-2012fbbd609d"}}]}
