{"type":"FeatureCollection","features":[{"type":"Feature","geometry":{"type":"Polygon","coordinates":[[[-95.58585,47.32371],[-95.58558,47.32372],[-95.58564,47.32347],[-95.58584,47.32346],[-95.58585,47.32371]]]},"properties":{"fire_id":"ufid:2022-MNMNS-111001","source_collection":"history-2022","source_objectid":778,"incident_name":"Skirt","mapped_acres":1.0,"mapped_acres_source":"poly_GISAcres","gis_acres":1.0,"auto_acres":0.120587706411594,"reported_acres":null,"percent_contained":null,"state":"MN","state_wfigs":"US-MN","county":"Mahnomen","discovery_time_utc":"2022-04-28T01:50:00Z","perimeter_time_utc":"2022-04-28T06:50:00Z","perimeter_edit_time_utc":"2022-04-29T20:13:21Z","incident_modified_time_utc":"2022-07-28T16:50:45Z","containment_time_utc":"2022-04-28T02:15:00Z","control_time_utc":null,"fire_out_time_utc":null,"fire_cause":"Human","fire_cause_general":"Debris and open burning","map_method":"Hand Sketch","source_dataset":"2022 NIFS","unique_fire_identifier":"2022-MNMNS-111001","irwin_id":"{446C96E5-73F2-421F-A6C2-D1AAF8179963}","global_id":"42e10148-b145-49e8-8f4a-a0aa1c408d96"}},{"type":"Feature","geometry":{"type":"Polygon","coordinates":[[[-95.34244,47.70862],[-95.3415,47.70781],[-95.34317,47.70777],[-95.34244,47.70862]]]},"properties":{"fire_id":"ufid:2022-MNMNS-111005","source_collection":"history-2022","source_objectid":912,"incident_name":"Birch Fire","mapped_acres":1.0,"mapped_acres_source":"poly_GISAcres","gis_acres":1.0,"auto_acres":1.50247485833421,"reported_acres":1.0,"percent_contained":null,"state":"MN","state_wfigs":"US-MN","county":"Polk","discovery_time_utc":"2022-05-07T20:03:13Z","perimeter_time_utc":"2022-05-08T01:03:13Z","perimeter_edit_time_utc":"2022-05-10T21:48:58Z","incident_modified_time_utc":"2022-05-07T23:14:32Z","containment_time_utc":null,"control_time_utc":null,"fire_out_time_utc":null,"fire_cause":null,"fire_cause_general":null,"map_method":"Hand Sketch","source_dataset":"2022 NIFS","unique_fire_identifier":"2022-MNMNS-111005","irwin_id":"{13A2CF21-C64C-4F3E-B43A-FE961116082C}","global_id":"7b70e44d-3c6e-4516-a0bc-8bf78b3ec09e"}},{"type":"Feature","geometry":{"type":"Polygon","coordinates":[[[-95.68035,47.75827],[-95.68154,47.75842],[-95.68137,47.75858],[-95.68045,47.75851],[-95.68035,47.75827]]]},"properties":{"fire_id":"ufid:2022-MNMNS-111006","source_collection":"history-2022","source_objectid":1107,"incident_name":"Hilltop Fire","mapped_acres":0.25,"mapped_acres_source":"poly_GISAcres","gis_acres":0.25,"auto_acres":0.401586189814469,"reported_acres":0.25,"percent_contained":null,"state":"MN","state_wfigs":"US-MN","county":"Polk","discovery_time_utc":"2022-05-07T21:49:59Z","perimeter_time_utc":"2022-05-08T02:49:59Z","perimeter_edit_time_utc":"2022-05-12T19:28:05Z","incident_modified_time_utc":"2022-05-07T23:30:50Z","containment_time_utc":null,"control_time_utc":null,"fire_out_time_utc":null,"fire_cause":null,"fire_cause_general":null,"map_method":"Hand Sketch","source_dataset":"2022 NIFS","unique_fire_identifier":"2022-MNMNS-111006","irwin_id":"{B32DB246-2E75-4E54-9BE4-5BB2BE3978A9}","global_id":"6de106c6-ec34-4296-8d29-ca639086d568"}},{"type":"Feature","geometry":{"type":"Polygon","coordinates":[[[-95.40424,47.81703],[-95.40441,47.81717],[-95.40424,47.81732],[-95.40405,47.81729],[-95.40424,47.81703]]]},"properties":{"fire_id":"ufid:2022-MNMNS-111010","source_collection":"history-2022","source_objectid":1971,"incident_name":"Line","mapped_acres":0.1,"mapped_acres_source":"poly_GISAcres","gis_acres":0.1,"auto_acres":0.126227975976669,"reported_acres":0.1,"percent_contained":null,"state":"MN","state_wfigs":"US-MN","county":"Clearwater","discovery_time_utc":"2022-05-18T18:58:17Z","perimeter_time_utc":"2022-05-18T23:58:17Z","perimeter_edit_time_utc":"2022-05-31T18:30:46Z","incident_modified_time_utc":"2022-05-18T20:25:13Z","containment_time_utc":null,"control_time_utc":null,"fire_out_time_utc":null,"fire_cause":null,"fire_cause_general":null,"map_method":"Hand Sketch","source_dataset":"2022 NIFS","unique_fire_identifier":"2022-MNMNS-111010","irwin_id":"{1CA8A43F-4A60-4B08-B82B-1EFB7FE03353}","global_id":"80c9bd9c-7f22-4c39-8a75-ee85e2d430e9"}},{"type":"Feature","geometry":{"type":"Polygon","coordinates":[[[-95.3851,47.41256],[-95.38541,47.41257],[-95.38526,47.41291],[-95.38505,47.41267],[-95.3851,47.41256]]]},"properties":{"fire_id":"ufid:2022-MNMNS-111020","source_collection":"history-2022","source_objectid":2239,"incident_name":"Bullwhip","mapped_acres":0.25,"mapped_acres_source":"poly_GISAcres","gis_acres":0.25,"auto_acres":0.12306701325222,"reported_acres":0.25,"percent_contained":null,"state":"MN","state_wfigs":"US-MN","county":"Clearwater","discovery_time_utc":"2022-08-09T19:35:14Z","perimeter_time_utc":"2022-08-10T00:35:14Z","perimeter_edit_time_utc":"2022-08-16T20:20:02Z","incident_modified_time_utc":"2022-08-09T21:01:45Z","containment_time_utc":null,"control_time_utc":null,"fire_out_time_utc":null,"fire_cause":null,"fire_cause_general":null,"map_method":"Hand Sketch","source_dataset":"2022 NIFS","unique_fire_identifier":"2022-MNMNS-111020","irwin_id":"{0E19DCB8-4822-4684-A80C-0B1258E3E477}","global_id":"dab24ca4-13c6-4995-bbaa-3ec2b5c8164b"}},{"type":"Feature","geometry":{"type":"Polygon","coordinates":[[[-95.37779,47.32828],[-95.37762,47.32816],[-95.37777,47.32816],[-95.37779,47.32828]]]},"properties":{"fire_id":"ufid:2022-MNMNS-111017","source_collection":"history-2022","source_objectid":2305,"incident_name":"Salvage","mapped_acres":0.1,"mapped_acres_source":"poly_GISAcres","gis_acres":0.1,"auto_acres":0.0314906004990149,"reported_acres":0.1,"percent_contained":null,"state":"MN","state_wfigs":"US-MN","county":"Clearwater","discovery_time_utc":"2022-06-08T13:45:53Z","perimeter_time_utc":"2022-06-08T18:45:53Z","perimeter_edit_time_utc":"2022-06-23T20:11:28Z","incident_modified_time_utc":"2022-06-08T16:11:36Z","containment_time_utc":null,"control_time_utc":null,"fire_out_time_utc":null,"fire_cause":null,"fire_cause_general":null,"map_method":"Hand Sketch","source_dataset":"2022 NIFS","unique_fire_identifier":"2022-MNMNS-111017","irwin_id":"{8D8608EA-14C1-457C-BF79-0CA430AAB1D6}","global_id":"42e6fb84-ee80-4cd8-b3c5-41c73a14ff94"}},{"type":"Feature","geometry":{"type":"Polygon","coordinates":[[[-96.41789,47.76936],[-96.41884,47.769],[-96.41935,47.76903],[-96.41939,47.76926],[-96.41918,47.76976],[-96.41876,47.76994],[-96.41863,47.77035],[-96.41804,47.77043],[-96.41777,47.77017],[-96.41766,47.76974],[-96.41789,47.76936]]]},"properties":{"fire_id":"ufid:2022-MNMNS-111013","source_collection":"history-2022","source_objectid":2987,"incident_name":"Crayola","mapped_acres":2.0,"mapped_acres_source":"poly_GISAcres","gis_acres":2.0,"auto_acres":3.20083685531912,"reported_acres":2.0,"percent_contained":null,"state":"MN","state_wfigs":"US-MN","county":"Polk","discovery_time_utc":"2022-05-28T22:53:10Z","perimeter_time_utc":"2022-05-29T03:53:10Z","perimeter_edit_time_utc":"2022-06-22T21:08:06Z","incident_modified_time_utc":"2022-05-31T14:20:20Z","containment_time_utc":null,"control_time_utc":null,"fire_out_time_utc":null,"fire_cause":null,"fire_cause_general":null,"map_method":"Hand Sketch","source_dataset":"2022 NIFS","unique_fire_identifier":"2022-MNMNS-111013","irwin_id":"{96C0D570-7907-491D-9E12-E903A52A8ED9}","global_id":"4a213834-674e-4923-8b57-61ec53bd38a2"}},{"type":"Feature","geometry":{"type":"Polygon","coordinates":[[[-95.7014,47.16611],[-95.70273,47.16626],[-95.70239,47.16658],[-95.70215,47.16637],[-95.70132,47.16662],[-95.70122,47.16653],[-95.7014,47.16611]]]},"properties":{"fire_id":"ufid:2022-MNMNS-111026","source_collection":"history-2022","source_objectid":3217,"incident_name":"Bow Wow","mapped_acres":2.0,"mapped_acres_source":"poly_GISAcres","gis_acres":2.0,"auto_acres":0.9047061888182,"reported_acres":2.0,"percent_contained":null,"state":"MN","state_wfigs":"US-MN","county":"Mahnomen","discovery_time_utc":"2022-11-02T23:32:33Z","perimeter_time_utc":"2022-11-03T04:32:33Z","perimeter_edit_time_utc":"2022-11-09T18:24:48Z","incident_modified_time_utc":"2022-11-03T00:41:52Z","containment_time_utc":null,"control_time_utc":null,"fire_out_time_utc":null,"fire_cause":null,"fire_cause_general":null,"map_method":"Hand Sketch","source_dataset":"2022 NIFS","unique_fire_identifier":"2022-MNMNS-111026","irwin_id":"{F48754CE-4928-4FDC-BEA8-B43B3FBC9C7E}","global_id":"b78c4bed-e7bd-41f8-99c3-2ee2d93579d6"}},{"type":"Feature","geometry":{"type":"Polygon","coordinates":[[[-95.58221,47.32475],[-95.58276,47.32476],[-95.58223,47.32484],[-95.58221,47.32475]]]},"properties":{"fire_id":"ufid:2022-MNMNS-111018","source_collection":"history-2022","source_objectid":3838,"incident_name":"Gravel Pit","mapped_acres":0.5,"mapped_acres_source":"poly_GISAcres","gis_acres":0.5,"auto_acres":0.0825123472227846,"reported_acres":0.5,"percent_contained":null,"state":"MN","state_wfigs":"US-MN","county":"Mahnomen","discovery_time_utc":"2022-06-08T18:45:43Z","perimeter_time_utc":"2022-10-06T19:49:10Z","perimeter_edit_time_utc":"2022-10-06T19:49:42Z","incident_modified_time_utc":"2022-06-08T19:51:56Z","containment_time_utc":null,"control_time_utc":null,"fire_out_time_utc":null,"fire_cause":null,"fire_cause_general":null,"map_method":"Hand Sketch","source_dataset":"2022 NIFS","unique_fire_identifier":"2022-MNMNS-111018","irwin_id":"{36EB76AA-98FF-467B-9085-8BD32D8DAAF2}","global_id":"ccba9793-8593-494d-9f17-08111b5fcc0d"}},{"type":"Feature","geometry":{"type":"Polygon","coordinates":[[[-95.16197,47.08498],[-95.16257,47.08498],[-95.16258,47.08522],[-95.1621,47.08529],[-95.16197,47.08498]]]},"properties":{"fire_id":"ufid:2022-MNMNS-161001","source_collection":"history-2022","source_objectid":4119,"incident_name":"161001","mapped_acres":0.2,"mapped_acres_source":"poly_GISAcres","gis_acres":0.2,"auto_acres":0.3415170395218321,"reported_acres":0.34,"percent_contained":null,"state":"MN","state_wfigs":"US-MN","county":"Hubbard","discovery_time_utc":"2022-05-03T20:29:41Z","perimeter_time_utc":"2022-12-14T21:41:23Z","perimeter_edit_time_utc":"2023-03-14T15:13:42Z","incident_modified_time_utc":"2022-05-05T17:40:40Z","containment_time_utc":"2022-05-03T20:55:00Z","control_time_utc":"2022-05-03T20:55:00Z","fire_out_time_utc":"2022-05-03T21:15:00Z","fire_cause":"Human","fire_cause_general":"Equipment and vehicle use","map_method":"Hand Sketch","source_dataset":"FFP","unique_fire_identifier":"2022-MNMNS-161001","irwin_id":"{9E4174D7-6F61-4E3E-916F-60B54FF5AA64}","global_id":"959ffd1a-ee2f-4526-90f1-ec0e5ba84116"}},{"type":"Feature","geometry":{"type":"Polygon","coordinates":[[[-96.24359,48.66915],[-96.24456,48.66924],[-96.24476,48.66947],[-96.24457,48.66951],[-96.2447,48.66961],[-96.24457,48.66974],[-96.24413,48.66969],[-96.24344,48.67],[-96.24352,48.66988],[-96.24335,48.66996],[-96.24334,48.66981],[-96.24245,48.66976],[-96.24236,48.66966],[-96.24217,48.66973],[-96.24207,48.66961],[-96.24231,48.6695],[-96.24207,48.66941],[-96.24232,48.66931],[-96.24299,48.66927],[-96.24344,48.66938],[-96.24359,48.66915]]]},"properties":{"fire_id":"ufid:2022-MNMNS-121018","source_collection":"history-2022","source_objectid":4802,"incident_name":"Corn Pile Fire","mapped_acres":2.0,"mapped_acres_source":"poly_GISAcres","gis_acres":2.0,"auto_acres":2.523554634431885,"reported_acres":2.53,"percent_contained":null,"state":"MN","state_wfigs":"US-MN","county":"Roseau","discovery_time_utc":"2022-10-21T17:11:46Z","perimeter_time_utc":"2022-12-14T23:05:01Z","perimeter_edit_time_utc":"2023-03-14T15:13:42Z","incident_modified_time_utc":"2022-10-21T20:40:46Z","containment_time_utc":"2022-10-21T18:21:59Z","control_time_utc":"2022-10-21T18:46:59Z","fire_out_time_utc":"2022-10-21T19:13:19Z","fire_cause":"Human","fire_cause_general":"Debris and open burning","map_method":"Hand Sketch","source_dataset":"FFP","unique_fire_identifier":"2022-MNMNS-121018","irwin_id":"{6F9E7452-5669-4058-81C8-2EDA356ABC04}","global_id":"e5b75714-412e-4cf9-aa06-9f883b23a41f"}},{"type":"Feature","geometry":{"type":"Polygon","coordinates":[[[-95.43728,46.51139],[-95.43789,46.5111],[-95.43862,46.51165],[-95.43995,46.51132],[-95.44059,46.51301],[-95.4405,46.51437],[-95.43967,46.51456],[-95.44038,46.51534],[-95.43937,46.51538],[-95.43898,46.5161],[-95.4371,46.51554],[-95.4369,46.51459],[-95.43644,46.51443],[-95.43724,46.51347],[-95.43678,46.5125],[-95.43728,46.51139]]]},"properties":{"fire_id":"ufid:2022-MNMNS-161005","source_collection":"history-2022","source_objectid":5315,"incident_name":"New York Mills Fire","mapped_acres":1.0,"mapped_acres_source":"poly_GISAcres","gis_acres":1.0,"auto_acres":30.195919354377544,"reported_acres":30.0,"percent_contained":null,"state":"MN","state_wfigs":"US-MN","county":"Otter Tail","discovery_time_utc":"2022-05-07T18:35:00Z","perimeter_time_utc":"2022-12-14T21:52:45Z","perimeter_edit_time_utc":"2023-03-14T15:13:42Z","incident_modified_time_utc":"2022-05-09T21:02:48Z","containment_time_utc":"2022-05-07T22:40:00Z","control_time_utc":"2022-05-08T00:40:00Z","fire_out_time_utc":"2022-05-09T19:32:00Z","fire_cause":"Human","fire_cause_general":"Debris and open burning","map_method":"Auto-generated","source_dataset":"FFP","unique_fire_identifier":"2022-MNMNS-161005","irwin_id":"{FC2B7F7A-B35F-4FDB-A3C7-9AB510ECE5EE}","global_id":"c560fd1e-739f-4a29-8a0a-fce0a80eabd4"}},{"type":"Feature","geometry":{"type":"Polygon","coordinates":[[[-95.09336,45.82824],[-95.09447,45.82814],[-95.09435,45.82831],[-95.09386,45.82843],[-95.09386,45.8283],[-95.09336,45.82824]]]},"properties":{"fire_id":"ufid:2022-MNMNS-2022312063","source_collection":"history-2022","source_objectid":5755,"incident_name":"2022312063","mapped_acres":0.3,"mapped_acres_source":"poly_GISAcres","gis_acres":0.3,"auto_acres":0.2963988440236175,"reported_acres":0.3,"percent_contained":null,"state":"MN","state_wfigs":"US-MN","county":"Todd","discovery_time_utc":"2022-06-16T08:40:42Z","perimeter_time_utc":"2022-12-14T22:13:38Z","perimeter_edit_time_utc":"2023-03-14T15:13:42Z","incident_modified_time_utc":"2022-06-16T19:42:13Z","containment_time_utc":null,"control_time_utc":"2022-06-16T09:00:05Z","fire_out_time_utc":"2022-06-16T15:30:05Z","fire_cause":"Human","fire_cause_general":"Undetermined","map_method":"Hand Sketch","source_dataset":"FFP","unique_fire_identifier":"2022-MNMNS-2022312063","irwin_id":"{649F50E8-EBF6-40EC-8F68-F8C2954CC562}","global_id":"5539c618-3270-4947-8b29-ca62908c1e19"}},{"type":"Feature","geometry":{"type":"Polygon","coordinates":[[[-95.15184,48.83181],[-95.15179,48.83213],[-95.15147,48.8322],[-95.15179,48.83227],[-95.15168,48.83255],[-95.1509,48.83253],[-95.15069,48.83264],[-95.15067,48.83243],[-95.15008,48.83255],[-95.14994,48.83251],[-95.14995,48.83233],[-95.15021,48.83227],[-95.15014,48.83219],[-95.14945,48.83209],[-95.14959,48.83194],[-95.14998,48.83193],[-95.15003,48.83163],[-95.15112,48.83136],[-95.15184,48.83181]]]},"properties":{"fire_id":"ufid:2022-MNMNS-121003","source_collection":"history-2022","source_objectid":6132,"incident_name":"Treehouse","mapped_acres":10.0,"mapped_acres_source":"poly_GISAcres","gis_acres":10.0,"auto_acres":3.8089839556867044,"reported_acres":4.0,"percent_contained":null,"state":"MN","state_wfigs":"US-MN","county":"Roseau","discovery_time_utc":"2022-05-04T21:15:50Z","perimeter_time_utc":"2022-12-14T22:58:45Z","perimeter_edit_time_utc":"2023-03-14T15:13:42Z","incident_modified_time_utc":"2022-05-04T22:00:57Z","containment_time_utc":"2022-05-04T21:59:00Z","control_time_utc":"2022-05-04T22:00:00Z","fire_out_time_utc":"2022-05-20T17:00:00Z","fire_cause":"Human","fire_cause_general":"Debris and open burning","map_method":"Hand Sketch","source_dataset":"FFP","unique_fire_identifier":"2022-MNMNS-121003","irwin_id":"{56B300B1-879E-4FB1-A1DB-DD48C8447F4A}","global_id":"b4ba9136-16b0-42e0-bfa3-ddc7bb07a9f6"}},{"type":"Feature","geometry":{"type":"Polygon","coordinates":[[[-96.32214,45.13865],[-96.31893,45.13845],[-96.31831,45.13821],[-96.31821,45.13686],[-96.31779,45.13685],[-96.31749,45.13571],[-96.31747,45.13458],[-96.3185,45.13499],[-96.31844,45.13612],[-96.31975,45.1374],[-96.31998,45.13749],[-96.32072,45.13848],[-96.32214,45.13854],[-96.32214,45.13865]]]},"properties":{"fire_id":"ufid:2022-MNMNS-343002","source_collection":"history-2022","source_objectid":8488,"incident_name":"Kibler WMA","mapped_acres":10.94,"mapped_acres_source":"poly_GISAcres","gis_acres":10.94,"auto_acres":10.944609360573752,"reported_acres":11.0,"percent_contained":null,"state":"MN","state_wfigs":"US-MN","county":"Lac qui Parle","discovery_time_utc":"2022-04-16T11:55:00Z","perimeter_time_utc":"2022-12-14T22:25:31Z","perimeter_edit_time_utc":"2023-03-14T15:13:42Z","incident_modified_time_utc":"2022-04-18T14:01:25Z","containment_time_utc":"2022-04-16T12:30:00Z","control_time_utc":"2022-04-16T12:35:00Z","fire_out_time_utc":"2022-04-16T12:40:00Z","fire_cause":"Human","fire_cause_general":"Arson","map_method":"Hand Sketch","source_dataset":"FFP","unique_fire_identifier":"2022-MNMNS-343002","irwin_id":"{583A2396-F20E-467A-99F3-5EE3D4010CC7}","global_id":"45b0c51f-c6f2-43ff-b44a-7c14e918c3bd"}},{"type":"Feature","geometry":{"type":"Polygon","coordinates":[[[-95.29309,46.85216],[-95.29421,46.85133],[-95.29413,46.85105],[-95.29434,46.85077],[-95.29531,46.85065],[-95.29551,46.85038],[-95.29612,46.85039],[-95.29726,46.85108],[-95.29778,46.85153],[-95.29801,46.85216],[-95.29781,46.85239],[-95.29745,46.85251],[-95.29675,46.85471],[-95.29712,46.85532],[-95.29693,46.85572],[-95.29553,46.85668],[-95.29501,46.8573],[-95.29443,46.85769],[-95.29373,46.85755],[-95.29336,46.85771],[-95.29241,46.85749],[-95.29196,46.8571],[-95.29279,46.8568],[-95.29313,46.85651],[-95.29281,46.85592],[-95.29159,46.85596],[-95.29156,46.85576],[-95.29197,46.85521],[-95.29279,46.85438],[-95.29309,46.85216]]]},"properties":{"fire_id":"ufid:2022-MNMNS-161028","source_collection":"history-2022","source_objectid":8538,"incident_name":"Cliff Lake Fire","mapped_acres":15.0,"mapped_acres_source":"poly_GISAcres","gis_acres":15.0,"auto_acres":57.95698276967137,"reported_acres":43.0,"percent_contained":null,"state":"MN","state_wfigs":"US-MN","county":"Becker","discovery_time_utc":"2022-10-20T20:20:43Z","perimeter_time_utc":"2022-12-14T22:00:35Z","perimeter_edit_time_utc":"2023-03-14T15:13:42Z","incident_modified_time_utc":"2022-10-21T02:36:56Z","containment_time_utc":"2022-10-21T18:00:00Z","control_time_utc":"2022-10-24T17:15:00Z","fire_out_time_utc":"2022-11-15T18:00:25Z","fire_cause":"Undetermined","fire_cause_general":"Undetermined","map_method":"Hand Sketch","source_dataset":"FFP","unique_fire_identifier":"2022-MNMNS-161028","irwin_id":"{5FDF79D2-C247-4355-A8EA-579C061C1DEF}","global_id":"4cf57c3b-8ee8-4a0c-ba91-9cbd4604d8cc"}},{"type":"Feature","geometry":{"type":"Polygon","coordinates":[[[-95.34219,46.93535],[-95.34399,46.93535],[-95.34351,46.93805],[-95.34216,46.93875],[-95.34184,46.94004],[-95.34077,46.94011],[-95.34191,46.93773],[-95.34219,46.93535]]]},"properties":{"fire_id":"ufid:2022-MNMNS-2022161029","source_collection":"history-2022","source_objectid":10569,"incident_name":"Elbow Lake Fire","mapped_acres":2.0,"mapped_acres_source":"poly_GISAcres","gis_acres":2.0,"auto_acres":14.07971852733831,"reported_acres":10.2,"percent_contained":null,"state":"MN","state_wfigs":"US-MN","county":"Becker","discovery_time_utc":"2022-10-23T14:50:56Z","perimeter_time_utc":"2022-12-14T22:01:09Z","perimeter_edit_time_utc":"2023-03-14T15:13:42Z","incident_modified_time_utc":"2022-10-23T15:29:29Z","containment_time_utc":"2022-10-24T01:00:00Z","control_time_utc":"2022-10-24T01:00:00Z","fire_out_time_utc":"2022-11-04T14:55:00Z","fire_cause":"Undetermined","fire_cause_general":"Undetermined","map_method":"Auto-generated","source_dataset":"FFP","unique_fire_identifier":"2022-MNMNS-2022161029","irwin_id":"{14E7893A-CDEE-4795-8F13-175412A70105}","global_id":"0f1d65a5-32eb-4fe6-bb55-5e390b55260f"}},{"type":"Feature","geometry":{"type":"Polygon","coordinates":[[[-95.3678,46.98796],[-95.36837,46.98763],[-95.36836,46.98739],[-95.3691,46.98738],[-95.371,46.98691],[-95.37105,46.98964],[-95.3703,46.98943],[-95.36985,46.98946],[-95.36934,46.98919],[-95.36878,46.98917],[-95.36789,46.98866],[-95.36751,46.98861],[-95.3678,46.98796]]]},"properties":{"fire_id":"ufid:2022-MNMNA-000015","source_collection":"history-2022","source_objectid":10752,"incident_name":"129","mapped_acres":1.0,"mapped_acres_source":"poly_GISAcres","gis_acres":1.0,"auto_acres":13.282682877242369,"reported_acres":13.2,"percent_contained":null,"state":"MN","state_wfigs":"US-MN","county":"Becker","discovery_time_utc":"2022-05-11T16:11:00Z","perimeter_time_utc":"2022-10-05T18:07:01Z","perimeter_edit_time_utc":"2023-03-14T15:13:42Z","incident_modified_time_utc":"2022-05-12T13:51:17Z","containment_time_utc":"2022-05-12T06:00:00Z","control_time_utc":"2022-05-12T06:00:00Z","fire_out_time_utc":"2022-05-14T15:00:00Z","fire_cause":"Human","fire_cause_general":"Undetermined","map_method":"Hand Sketch","source_dataset":"FFP","unique_fire_identifier":"2022-MNMNA-000015","irwin_id":"{039894AF-9653-4B05-B2F0-DC1A1E25B238}","global_id":"52157bc7-8793-404e-b722-2f17a265d6c3"}},{"type":"Feature","geometry":{"type":"Polygon","coordinates":[[[-96.00965,46.33502],[-96.0091,46.3352],[-96.00911,46.33437],[-96.00935,46.33446],[-96.00952,46.33485],[-96.00995,46.33488],[-96.00972,46.33458],[-96.00986,46.33445],[-96.0101,46.33469],[-96.01045,46.33467],[-96.01043,46.33489],[-96.01025,46.33495],[-96.01054,46.33495],[-96.01063,46.33479],[-96.01076,46.33498],[-96.01071,46.33511],[-96.01043,46.33511],[-96.0105,46.33524],[-96.01023,46.33528],[-96.00965,46.33527],[-96.00965,46.33502]]]},"properties":{"fire_id":"ufid:2022-MNMNS-161010","source_collection":"history-2022","source_objectid":10777,"incident_name":"230th fire","mapped_acres":1.0,"mapped_acres_source":"poly_GISAcres","gis_acres":1.0,"auto_acres":1.7363155354977815,"reported_acres":1.74,"percent_contained":null,"state":"MN","state_wfigs":"US-MN","county":"Otter Tail","discovery_time_utc":"2022-05-10T21:45:00Z","perimeter_time_utc":"2022-12-14T21:54:06Z","perimeter_edit_time_utc":"2023-03-14T15:13:42Z","incident_modified_time_utc":"2022-07-28T15:34:16Z","containment_time_utc":"2022-05-10T22:39:00Z","control_time_utc":"2022-05-10T22:55:00Z","fire_out_time_utc":"2022-05-16T20:33:11Z","fire_cause":"Human","fire_cause_general":"Debris and open burning","map_method":"Auto-generated","source_dataset":"FFP","unique_fire_identifier":"2022-MNMNS-161010","irwin_id":"{7BFE9FDF-237A-42EC-8F89-4335C7D713EA}","global_id":"7340269a-45fd-40fc-96f4-cc86b7b878f4"}},{"type":"Feature","geometry":{"type":"Polygon","coordinates":[[[-95.60356,48.62644],[-95.60355,48.62587],[-95.60359,48.62643],[-95.60356,48.62644]]]},"properties":{"fire_id":"ufid:2022-MNMNS-121016","source_collection":"history-2022","source_objectid":10848,"incident_name":"Hotdog","mapped_acres":0.02,"mapped_acres_source":"poly_GISAcres","gis_acres":0.02,"auto_acres":0.028585628591186185,"reported_acres":0.02,"percent_contained":null,"state":"MN","state_wfigs":"US-MN","county":"Roseau","discovery_time_utc":"2022-09-14T19:30:26Z","perimeter_time_utc":"2022-12-14T23:04:32Z","perimeter_edit_time_utc":"2023-03-14T15:13:42Z","incident_modified_time_utc":"2022-09-14T21:12:37Z","containment_time_utc":"2022-09-14T19:52:00Z","control_time_utc":"2022-09-14T19:55:00Z","fire_out_time_utc":"2022-09-14T20:00:00Z","fire_cause":"Human","fire_cause_general":"Debris and open burning","map_method":"Hand Sketch","source_dataset":"FFP","unique_fire_identifier":"2022-MNMNS-121016","irwin_id":"{F1769C17-9DCB-4AA9-BF0C-CCA9E1B8AC0C}","global_id":"48767f10-1a75-444a-aaaf-ad42cca55ae9"}},{"type":"Feature","geometry":{"type":"Polygon","coordinates":[[[-95.85103,47.08669],[-95.8511,47.086],[-95.85187,47.08598],[-95.8519,47.08623],[-95.85175,47.08648],[-95.85231,47.08692],[-95.85326,47.08714],[-95.85372,47.08706],[-95.85372,47.08688],[-95.85397,47.0867],[-95.85385,47.08635],[-95.85396,47.08572],[-95.85491,47.08577],[-95.85552,47.0859],[-95.8554,47.08635],[-95.85551,47.08682],[-95.85583,47.08692],[-95.8564,47.08682],[-95.8569,47.08719],[-95.85467,47.0889],[-95.85289,47.08946],[-95.85269,47.08935],[-95.85009,47.09016],[-95.84926,47.09027],[-95.8484,47.09005],[-95.84848,47.08973],[-95.84889,47.08978],[-95.84903,47.08965],[-95.84949,47.0888],[-95.84963,47.0878],[-95.85005,47.08742],[-95.85072,47.08715],[-95.85103,47.08669]]]},"properties":{"fire_id":"ufid:2022-MNMNA-000003","source_collection":"history-2022","source_objectid":11147,"incident_name":"Dove","mapped_acres":1.0,"mapped_acres_source":"poly_GISAcres","gis_acres":1.0,"auto_acres":39.23310240594048,"reported_acres":39.2,"percent_contained":null,"state":"MN","state_wfigs":"US-MN","county":"Becker","discovery_time_utc":"2022-04-04T18:10:00Z","perimeter_time_utc":"2022-08-05T21:09:48Z","perimeter_edit_time_utc":"2023-03-14T15:13:42Z","incident_modified_time_utc":"2022-04-04T21:17:09Z","containment_time_utc":"2022-04-04T20:15:00Z","control_time_utc":"2022-04-04T21:15:00Z","fire_out_time_utc":"2022-04-05T14:00:00Z","fire_cause":"Human","fire_cause_general":"Undetermined","map_method":"Hand Sketch","source_dataset":"FFP","unique_fire_identifier":"2022-MNMNA-000003","irwin_id":"{7F2B47C6-DC02-4A3D-BD42-8369B3249A89}","global_id":"b19397ef-6873-4832-9b4a-af2c7cfbc547"}},{"type":"Feature","geometry":{"type":"Polygon","coordinates":[[[-95.27181,47.9646],[-95.2715,47.96571],[-95.27224,47.96609],[-95.27114,47.96726],[-95.27024,47.96864],[-95.26721,47.97436],[-95.26067,47.98509],[-95.25951,47.98818],[-95.25399,47.99594],[-95.25301,47.99571],[-95.25296,47.99539],[-95.2557,47.99146],[-95.25758,47.98766],[-95.26547,47.97346],[-95.26987,47.96521],[-95.27079,47.9639],[-95.27341,47.95941],[-95.27374,47.96007],[-95.27364,47.96051],[-95.27181,47.9646]]]},"properties":{"fire_id":"ufid:2022-MNRLA-000011","source_collection":"history-2022","source_objectid":13288,"incident_name":"16","mapped_acres":0.1,"mapped_acres_source":"poly_GISAcres","gis_acres":0.1,"auto_acres":136.61327928379373,"reported_acres":160.0,"percent_contained":null,"state":"MN","state_wfigs":"US-MN","county":"Clearwater","discovery_time_utc":"2022-04-11T20:39:00Z","perimeter_time_utc":"2022-08-05T20:44:51Z","perimeter_edit_time_utc":"2023-03-14T15:13:42Z","incident_modified_time_utc":"2022-04-20T15:15:45Z","containment_time_utc":"2022-04-11T20:49:00Z","control_time_utc":"2022-04-11T23:30:00Z","fire_out_time_utc":"2022-04-12T17:00:00Z","fire_cause":"Human","fire_cause_general":"Arson","map_method":"Hand Sketch","source_dataset":"FFP","unique_fire_identifier":"2022-MNRLA-000011","irwin_id":"{93D04F89-ECB6-4636-B7D2-40AD7E87EC29}","global_id":"a8b2ee5e-bba8-46cf-8fa5-c1a27c2e7fbe"}}]}
