{"type":"FeatureCollection","features":[{"type":"Feature","geometry":{"type":"MultiPolygon","coordinates":[[[[-115.95579,48.11224],[-115.95454,48.11218],[-115.95309,48.11164],[-115.95204,48.11157],[-115.95148,48.11133],[-115.95142,48.11114],[-115.95093,48.11099],[-115.95076,48.111],[-115.95061,48.11124],[-115.95003,48.11138],[-115.95001,48.11179],[-115.94977,48.11185],[-115.9489,48.11176],[-115.94908,48.11146],[-115.94842,48.1113],[-115.9483,48.1116],[-115.94797,48.11187],[-115.94655,48.11172],[-115.94637,48.11141],[-115.94662,48.11128],[-115.94662,48.11106],[-115.94635,48.11097],[-115.94622,48.11063],[-115.94691,48.11074],[-115.94733,48.11054],[-115.94683,48.10937],[-115.94646,48.10936],[-115.94587,48.10883],[-115.94531,48.10899],[-115.94495,48.10874],[-115.94382,48.10909],[-115.9437,48.10939],[-115.94348,48.10931],[-115.94348,48.10801],[-115.94313,48.10759],[-115.94348,48.10709],[-115.94425,48.10691],[-115.94405,48.10662],[-115.9432,48.10672],[-115.94233,48.10636],[-115.94182,48.10584],[-115.94154,48.10572],[-115.94105,48.10586],[-115.9406,48.10563],[-115.94069,48.10549],[-115.94129,48.1053],[-115.9419,48.1053],[-115.94171,48.10484],[-115.9419,48.10444],[-115.94132,48.10431],[-115.93959,48.10429],[-115.93794,48.10474],[-115.93772,48.10464],[-115.93768,48.1041],[-115.93632,48.10454],[-115.93611,48.10443],[-115.9356,48.10361],[-115.93551,48.10334],[-115.93563,48.10298],[-115.93609,48.10283],[-115.93703,48.10283],[-115.93727,48.10294],[-115.93751,48.1027],[-115.93958,48.10174],[-115.94033,48.10176],[-115.94217,48.10186],[-115.94287,48.10235],[-115.94284,48.1028],[-115.94214,48.10343],[-115.9426,48.1035],[-115.94312,48.10382],[-115.9434,48.10364],[-115.94454,48.10361],[-115.94509,48.10378],[-115.94556,48.10424],[-115.94588,48.10418],[-115.94601,48.10368],[-115.94658,48.10361],[-115.94655,48.10345],[-115.94687,48.10332],[-115.9481,48.10397],[-115.94812,48.10438],[-115.94884,48.10402],[-115.94944,48.10412],[-115.95061,48.10351],[-115.95138,48.1035],[-115.95291,48.10292],[-115.95379,48.10293],[-115.95449,48.10322],[-115.95474,48.10347],[-115.95538,48.10361],[-115.95564,48.10395],[-115.95554,48.10483],[-115.95593,48.10485],[-115.95628,48.10505],[-115.95633,48.10543],[-115.95604,48.10575],[-115.95556,48.10583],[-115.95479,48.10631],[-115.95389,48.10637],[-115.95466,48.1066],[-115.95543,48.10708],[-115.95537,48.10739],[-115.95491,48.10756],[-115.95496,48.10767],[-115.95558,48.10774],[-115.9558,48.10795],[-115.95569,48.10831],[-115.95578,48.10856],[-115.95793,48.10854],[-115.9583,48.10885],[-115.95783,48.1102],[-115.95711,48.11032],[-115.9566,48.11017],[-115.95647,48.11027],[-115.95693,48.11062],[-115.95697,48.11096],[-115.95651,48.11117],[-115.95577,48.11109],[-115.95575,48.11126],[-115.95686,48.11145],[-115.95711,48.11172],[-115.95712,48.11227],[-115.95613,48.11236],[-115.95579,48.11224]]],[[[-115.939,48.10476],[-115.93937,48.1044],[-115.9396,48.10455],[-115.93913,48.10488],[-115.939,48.10476]]],[[[-115.9384,48.10566],[-115.9385,48.10549],[-115.9389,48.10565],[-115.93891,48.1058],[-115.9384,48.10566]]],[[[-115.9404,48.10507],[-115.94092,48.10456],[-115.94112,48.10464],[-115.94023,48.1056],[-115.94005,48.10597],[-115.93971,48.10607],[-115.9404,48.10507]]],[[[-115.93685,48.10501],[-115.93727,48.10436],[-115.93741,48.10462],[-115.93707,48.1049],[-115.93728,48.10548],[-115.93663,48.10605],[-115.93651,48.1059],[-115.93693,48.10563],[-115.93685,48.10501]]],[[[-115.93674,48.10676],[-115.93674,48.10661],[-115.93702,48.10665],[-115.93706,48.10678],[-115.93674,48.10676]]],[[[-115.94168,48.10923],[-115.94187,48.10914],[-115.942,48.10932],[-115.94176,48.10935],[-115.94168,48.10923]]],[[[-115.94484,48.10938],[-115.94505,48.10932],[-115.94502,48.10952],[-115.94484,48.10938]]],[[[-115.94543,48.11014],[-115.9461,48.10977],[-115.94629,48.10988],[-115.94553,48.11021],[-115.94543,48.11014]]],[[[-115.94517,48.11119],[-115.94538,48.11117],[-115.94535,48.11131],[-115.94517,48.11119]]],[[[-115.94562,48.11186],[-115.94572,48.11151],[-115.94588,48.11156],[-115.94593,48.11183],[-115.94562,48.11186]]],[[[-115.94514,48.11203],[-115.94525,48.11199],[-115.94535,48.11208],[-115.94514,48.11203]]],[[[-115.9456,48.11223],[-115.9458,48.11215],[-115.94574,48.11229],[-115.9456,48.11223]]],[[[-115.9469,48.11236],[-115.94677,48.11218],[-115.94692,48.1122],[-115.9469,48.11236]]],[[[-115.94426,48.11227],[-115.94462,48.11227],[-115.94468,48.11243],[-115.9443,48.11251],[-115.94419,48.11242],[-115.94426,48.11227]]]]},"properties":{"fire_id":"ufid:2022-MTKNF-000233","source_collection":"history-2022","source_objectid":1163,"incident_name":"North Star","mapped_acres":238.974221233878,"mapped_acres_source":"poly_GISAcres","gis_acres":238.974221233878,"auto_acres":238.973303375014,"reported_acres":1.0,"percent_contained":100.0,"state":"MT","state_wfigs":"US-MT","county":"Sanders","discovery_time_utc":"2022-09-01T04:16:23Z","perimeter_time_utc":null,"perimeter_edit_time_utc":"2022-09-05T11:44:06Z","incident_modified_time_utc":"2022-11-17T21:56:24Z","containment_time_utc":"2022-09-05T18:00:00Z","control_time_utc":"2022-09-05T18:00:00Z","fire_out_time_utc":"2022-09-05T18:00:00Z","fire_cause":"Natural","fire_cause_general":null,"map_method":"IR Image Interpretation","source_dataset":"2022 NIFS","unique_fire_identifier":"2022-MTKNF-000233","irwin_id":"{E64BC0AD-C8D3-4179-A112-6C2A51835E05}","global_id":"09ad311e-0723-449d-bbfb-38021e52629c"}},{"type":"Feature","geometry":{"type":"Polygon","coordinates":[[[-115.01296,48.17839],[-115.01275,48.1782],[-115.01275,48.17803],[-115.0131,48.17793],[-115.01313,48.17822],[-115.01296,48.17839]]]},"properties":{"fire_id":"ufid:2022-MTNWS-000588","source_collection":"history-2022","source_objectid":2442,"incident_name":"Lynch Lake","mapped_acres":0.263178962787907,"mapped_acres_source":"poly_Acres_AutoCalc_fallback","gis_acres":null,"auto_acres":0.263178962787907,"reported_acres":0.1,"percent_contained":null,"state":"MT","state_wfigs":"US-MT","county":"Flathead","discovery_time_utc":"2022-08-24T23:15:11Z","perimeter_time_utc":null,"perimeter_edit_time_utc":"2022-09-14T23:01:37Z","incident_modified_time_utc":"2022-09-08T00:48:39Z","containment_time_utc":"2022-08-25T01:00:00Z","control_time_utc":"2022-08-25T02:54:00Z","fire_out_time_utc":"2022-09-08T00:48:00Z","fire_cause":"Natural","fire_cause_general":null,"map_method":"GPS-Walked","source_dataset":"2022 NIFS","unique_fire_identifier":"2022-MTNWS-000588","irwin_id":"{CD856A60-8217-4DCD-A34A-4B9B7B151515}","global_id":"4c8e5594-7119-45d9-b52f-9c16b5ea4b33"}},{"type":"Feature","geometry":{"type":"Polygon","coordinates":[[[-115.04033,48.12499],[-115.04045,48.12487],[-115.04069,48.12498],[-115.04118,48.12558],[-115.04072,48.12572],[-115.04023,48.12562],[-115.0402,48.12545],[-115.04042,48.12521],[-115.04033,48.12499]]]},"properties":{"fire_id":"ufid:2022-MTNWS-000543","source_collection":"history-2022","source_objectid":4580,"incident_name":"Barnum","mapped_acres":0.9398447906366326,"mapped_acres_source":"poly_Acres_AutoCalc_fallback","gis_acres":null,"auto_acres":0.9398447906366326,"reported_acres":1.0,"percent_contained":null,"state":"MT","state_wfigs":"US-MT","county":"Lincoln","discovery_time_utc":"2022-08-21T17:18:00Z","perimeter_time_utc":"2022-11-01T19:36:31Z","perimeter_edit_time_utc":"2023-03-14T15:13:42Z","incident_modified_time_utc":"2022-09-09T20:36:14Z","containment_time_utc":"2022-08-22T17:48:00Z","control_time_utc":"2022-08-27T21:35:00Z","fire_out_time_utc":"2022-09-09T20:35:00Z","fire_cause":"Natural","fire_cause_general":"Natural","map_method":"Mixed Methods","source_dataset":"FFP","unique_fire_identifier":"2022-MTNWS-000543","irwin_id":"{41609EC9-2601-4825-872C-00FB2AA56F7C}","global_id":"3b8f84cc-e54c-4011-9735-78b77592af57"}},{"type":"Feature","geometry":{"type":"Polygon","coordinates":[[[-115.67818,48.0371],[-115.67817,48.03783],[-115.67783,48.03799],[-115.67699,48.03804],[-115.67693,48.03791],[-115.67643,48.0378],[-115.67639,48.03765],[-115.67565,48.0376],[-115.67534,48.03737],[-115.67477,48.03726],[-115.674,48.03686],[-115.67481,48.03685],[-115.67506,48.03665],[-115.67593,48.03677],[-115.67697,48.03669],[-115.67818,48.0371]]]},"properties":{"fire_id":"ufid:2022-MTKNF-000274","source_collection":"history-2022","source_objectid":8366,"incident_name":"Rock Lake","mapped_acres":1.0,"mapped_acres_source":"poly_GISAcres","gis_acres":1.0,"auto_acres":6.937712963163836,"reported_acres":7.0,"percent_contained":null,"state":"MT","state_wfigs":"US-MT","county":"Sanders","discovery_time_utc":"2022-09-08T15:36:15Z","perimeter_time_utc":"2022-11-15T18:45:03Z","perimeter_edit_time_utc":"2023-03-14T15:13:42Z","incident_modified_time_utc":"2022-10-04T23:15:08Z","containment_time_utc":"2022-09-13T02:00:00Z","control_time_utc":"2022-09-14T15:00:00Z","fire_out_time_utc":"2022-10-04T23:15:00Z","fire_cause":"Natural","fire_cause_general":"Natural","map_method":"Auto-generated","source_dataset":"FFP","unique_fire_identifier":"2022-MTKNF-000274","irwin_id":"{762C7DA3-6E2E-4489-927B-80913CBA1421}","global_id":"3f93a953-eddc-4355-b7c1-d857bae76770"}},{"type":"Feature","geometry":{"type":"Polygon","coordinates":[[[-115.03854,48.1019],[-115.03867,48.10218],[-115.03824,48.10227],[-115.03805,48.10169],[-115.03821,48.10165],[-115.03854,48.1019]]]},"properties":{"fire_id":"ufid:2022-MTNWS-000757","source_collection":"history-2022","source_objectid":9807,"incident_name":"Barnum Creek","mapped_acres":0.5,"mapped_acres_source":"poly_GISAcres","gis_acres":0.5,"auto_acres":0.44751574192405,"reported_acres":0.25,"percent_contained":null,"state":"MT","state_wfigs":"US-MT","county":"Lincoln","discovery_time_utc":"2022-10-01T19:52:18Z","perimeter_time_utc":"2022-12-13T17:06:31Z","perimeter_edit_time_utc":"2023-03-14T15:13:42Z","incident_modified_time_utc":"2022-11-30T15:41:32Z","containment_time_utc":"2022-10-03T21:51:00Z","control_time_utc":"2022-10-03T23:00:00Z","fire_out_time_utc":"2022-11-30T15:30:00Z","fire_cause":"Natural","fire_cause_general":"Natural","map_method":"Hand Sketch","source_dataset":"FFP","unique_fire_identifier":"2022-MTNWS-000757","irwin_id":"{FA4C7729-9267-4739-A26B-0679B01EED9B}","global_id":"04a06fd0-4a3b-44f6-a604-7b6fb297d5d8"}},{"type":"Feature","geometry":{"type":"Polygon","coordinates":[[[-115.64128,47.96998],[-115.64061,47.96994],[-115.6405,47.96978],[-115.64066,47.96975],[-115.64058,47.96953],[-115.64099,47.9695],[-115.64098,47.96964],[-115.6412,47.96976],[-115.64128,47.96998]]]},"properties":{"fire_id":"ufid:2022-MTKNF-000288","source_collection":"history-2022","source_objectid":12886,"incident_name":"Wanless Trail","mapped_acres":0.5575783,"mapped_acres_source":"poly_GISAcres","gis_acres":0.5575783,"auto_acres":0.558333129370931,"reported_acres":0.6,"percent_contained":null,"state":"MT","state_wfigs":"US-MT","county":"Sanders","discovery_time_utc":"2022-09-21T15:13:00Z","perimeter_time_utc":"2022-12-14T17:43:13Z","perimeter_edit_time_utc":"2023-03-14T15:13:42Z","incident_modified_time_utc":"2022-09-24T23:32:27Z","containment_time_utc":"2022-09-22T00:54:00Z","control_time_utc":"2022-09-22T00:54:00Z","fire_out_time_utc":"2022-09-24T23:30:00Z","fire_cause":"Human","fire_cause_general":"Undetermined","map_method":"Mixed Methods","source_dataset":"FFP","unique_fire_identifier":"2022-MTKNF-000288","irwin_id":"{9BDFF353-3CCA-495E-B6C4-0D2A5D1BC660}","global_id":"6b58d95a-c325-412d-ac0b-ef45f8c32e57"}},{"type":"Feature","geometry":{"type":"MultiPolygon","coordinates":[[[[-115.14605,48.68852],[-115.14611,48.68803],[-115.1463,48.68777],[-115.14703,48.68766],[-115.14689,48.68743],[-115.14699,48.68729],[-115.14668,48.68703],[-115.14717,48.68632],[-115.14796,48.68582],[-115.14841,48.68574],[-115.14878,48.68599],[-115.1491,48.68593],[-115.14955,48.68509],[-115.15023,48.68477],[-115.1506,48.68441],[-115.15025,48.68377],[-115.15055,48.68359],[-115.15173,48.68338],[-115.15187,48.68308],[-115.15233,48.68264],[-115.1532,48.68217],[-115.15339,48.68144],[-115.15395,48.68045],[-115.15422,48.68039],[-115.15421,48.68004],[-115.15499,48.67992],[-115.15509,48.67974],[-115.15496,48.67924],[-115.15524,48.67929],[-115.15524,48.67916],[-115.15562,48.679],[-115.15599,48.67854],[-115.15605,48.67828],[-115.15568,48.67776],[-115.15565,48.67732],[-115.15581,48.67697],[-115.15657,48.67693],[-115.15722,48.67721],[-115.15768,48.67762],[-115.15804,48.67844],[-115.15829,48.67856],[-115.15852,48.67906],[-115.15838,48.67965],[-115.15815,48.67974],[-115.158,48.68011],[-115.15752,48.68022],[-115.15699,48.6812],[-115.15673,48.68131],[-115.1567,48.68222],[-115.15615,48.6833],[-115.15567,48.68374],[-115.15487,48.68483],[-115.15434,48.68506],[-115.15314,48.68645],[-115.15298,48.68707],[-115.15263,48.68757],[-115.15275,48.68864],[-115.15234,48.68862],[-115.15172,48.68821],[-115.15069,48.68798],[-115.1506,48.68853],[-115.14942,48.68912],[-115.14882,48.6891],[-115.14867,48.68916],[-115.14858,48.68941],[-115.14716,48.68942],[-115.14676,48.68952],[-115.14676,48.68967],[-115.14638,48.68984],[-115.14551,48.68951],[-115.14541,48.68923],[-115.14542,48.68878],[-115.14605,48.68852]]],[[[-115.15826,48.67807],[-115.15843,48.67787],[-115.15852,48.678],[-115.15843,48.67817],[-115.15826,48.67807]]],[[[-115.14535,48.68617],[-115.14538,48.68607],[-115.14556,48.68608],[-115.1455,48.68622],[-115.14535,48.68617]]],[[[-115.1519,48.68892],[-115.15204,48.68878],[-115.15213,48.68889],[-115.15202,48.68903],[-115.1519,48.68892]]],[[[-115.15081,48.68887],[-115.15097,48.68883],[-115.15099,48.68901],[-115.15083,48.68905],[-115.15081,48.68887]]],[[[-115.14463,48.68906],[-115.14445,48.68933],[-115.14415,48.68928],[-115.14416,48.68896],[-115.14454,48.68892],[-115.14463,48.68906]]],[[[-115.14212,48.68949],[-115.14225,48.68925],[-115.1424,48.68936],[-115.14233,48.68953],[-115.14212,48.68949]]],[[[-115.14798,48.68969],[-115.14823,48.68969],[-115.14821,48.68997],[-115.14796,48.68981],[-115.14798,48.68969]]],[[[-115.14085,48.68978],[-115.14097,48.68954],[-115.14112,48.68966],[-115.14105,48.68985],[-115.14085,48.68978]]],[[[-115.13624,48.69016],[-115.13687,48.69019],[-115.1371,48.69045],[-115.13744,48.69051],[-115.13739,48.69095],[-115.13684,48.69168],[-115.13643,48.69159],[-115.13616,48.69117],[-115.13626,48.69079],[-115.13606,48.6904],[-115.13624,48.69016]]],[[[-115.14476,48.69197],[-115.14474,48.6917],[-115.14492,48.69179],[-115.14476,48.69197]]]]},"properties":{"fire_id":"ufid:2022-MTKNF-000176","source_collection":"history-2022","source_objectid":13092,"incident_name":"Sutton","mapped_acres":107.9183,"mapped_acres_source":"poly_GISAcres","gis_acres":107.9183,"auto_acres":107.91785855138914,"reported_acres":108.0,"percent_contained":null,"state":"MT","state_wfigs":"US-MT","county":"Lincoln","discovery_time_utc":"2022-08-14T19:22:00Z","perimeter_time_utc":"2022-12-14T19:01:21Z","perimeter_edit_time_utc":"2023-03-14T15:13:42Z","incident_modified_time_utc":"2022-11-03T16:19:53Z","containment_time_utc":"2022-09-08T21:00:00Z","control_time_utc":"2022-10-28T21:00:00Z","fire_out_time_utc":"2022-11-03T15:00:00Z","fire_cause":"Natural","fire_cause_general":"Natural","map_method":"Mixed Methods","source_dataset":"FFP","unique_fire_identifier":"2022-MTKNF-000176","irwin_id":"{2A09492F-F607-44D6-A6B9-11F2EF19C0F6}","global_id":"991da6e4-b43d-492d-be52-9c0a0338986b"}},{"type":"Feature","geometry":{"type":"MultiPolygon","coordinates":[[[[-115.94518,48.10953],[-115.9452,48.10937],[-115.9454,48.10937],[-115.94518,48.10953]]],[[[-115.94606,48.10957],[-115.94596,48.10969],[-115.94583,48.10961],[-115.94606,48.10957]]],[[[-115.94543,48.11014],[-115.9461,48.10977],[-115.94629,48.10988],[-115.94604,48.11001],[-115.94617,48.11018],[-115.94543,48.11014]]],[[[-115.94577,48.11121],[-115.94558,48.11135],[-115.94559,48.11121],[-115.94577,48.11121]]],[[[-115.94618,48.1121],[-115.94633,48.11212],[-115.94603,48.11224],[-115.94588,48.11198],[-115.94562,48.11186],[-115.94572,48.11151],[-115.94608,48.11182],[-115.94618,48.1121]]],[[[-115.95756,48.13002],[-115.95656,48.12967],[-115.9565,48.1295],[-115.95672,48.12914],[-115.95655,48.12902],[-115.95612,48.12938],[-115.95544,48.1294],[-115.95477,48.12966],[-115.95432,48.12963],[-115.9538,48.12936],[-115.95374,48.12873],[-115.95404,48.12829],[-115.95443,48.12804],[-115.95479,48.12805],[-115.95496,48.12818],[-115.95564,48.12813],[-115.95643,48.12788],[-115.95656,48.12762],[-115.95604,48.12718],[-115.95561,48.12754],[-115.95529,48.12762],[-115.95546,48.12681],[-115.95799,48.1269],[-115.95847,48.1265],[-115.9586,48.12617],[-115.95852,48.12575],[-115.95818,48.12583],[-115.95723,48.12552],[-115.9569,48.12486],[-115.9567,48.12474],[-115.95635,48.12481],[-115.9555,48.12441],[-115.9554,48.12445],[-115.95545,48.12457],[-115.95476,48.12455],[-115.95469,48.12416],[-115.95447,48.12392],[-115.95446,48.1238],[-115.95486,48.12359],[-115.95529,48.12372],[-115.95537,48.12359],[-115.95561,48.12365],[-115.95585,48.12317],[-115.9561,48.12314],[-115.95646,48.12248],[-115.95699,48.12228],[-115.95697,48.12208],[-115.9568,48.1222],[-115.95679,48.1221],[-115.95589,48.12172],[-115.9553,48.12204],[-115.9549,48.12193],[-115.95484,48.12206],[-115.95464,48.12208],[-115.95438,48.12185],[-115.95443,48.12146],[-115.95483,48.12124],[-115.95425,48.12121],[-115.95411,48.1215],[-115.95416,48.12174],[-115.95322,48.1218],[-115.95291,48.12206],[-115.95291,48.12221],[-115.95263,48.12227],[-115.95262,48.12237],[-115.95315,48.12265],[-115.95295,48.12274],[-115.95275,48.12325],[-115.95295,48.1238],[-115.95264,48.12394],[-115.95325,48.12429],[-115.95329,48.12444],[-115.95238,48.1251],[-115.95239,48.1253],[-115.95198,48.12534],[-115.9517,48.12497],[-115.95085,48.12497],[-115.95056,48.12539],[-115.95008,48.12545],[-115.95019,48.12565],[-115.95008,48.12587],[-115.94899,48.12592],[-115.9485,48.12603],[-115.94819,48.12629],[-115.94777,48.12629],[-115.94671,48.126],[-115.94681,48.12577],[-115.94664,48.12571],[-115.94648,48.12498],[-115.9468,48.12485],[-115.94859,48.12486],[-115.94897,48.12459],[-115.94841,48.12429],[-115.94876,48.12415],[-115.94835,48.12406],[-115.94835,48.12388],[-115.94874,48.12377],[-115.94921,48.12342],[-115.94958,48.12337],[-115.94955,48.12325],[-115.94896,48.12318],[-115.94912,48.1226],[-115.94955,48.1226],[-115.94961,48.12244],[-115.94995,48.12228],[-115.9504,48.12232],[-115.95104,48.12209],[-115.95148,48.1217],[-115.95019,48.12148],[-115.95014,48.12122],[-115.94994,48.12122],[-115.94982,48.12142],[-115.94948,48.12148],[-115.94925,48.12167],[-115.94944,48.12217],[-115.94893,48.12223],[-115.94878,48.12203],[-115.94851,48.12221],[-115.94842,48.12255],[-115.94789,48.12266],[-115.9477,48.12251],[-115.94758,48.12206],[-115.94795,48.12194],[-115.94815,48.12218],[-115.94834,48.12208],[-115.94833,48.12156],[-115.94813,48.12147],[-115.94833,48.12125],[-115.94804,48.12129],[-115.94794,48.12096],[-115.94876,48.11981],[-115.94865,48.11974],[-115.94805,48.11994],[-115.94776,48.11984],[-115.94762,48.11971],[-115.94795,48.11914],[-115.94727,48.11917],[-115.94651,48.12033],[-115.94616,48.1201],[-115.94555,48.12027],[-115.94463,48.12018],[-115.94256,48.12044],[-115.94193,48.12035],[-115.94182,48.1199],[-115.94322,48.11945],[-115.94322,48.11914],[-115.94338,48.11898],[-115.94411,48.11889],[-115.94419,48.11862],[-115.94453,48.1185],[-115.9449,48.11855],[-115.94483,48.11876],[-115.94434,48.11883],[-115.94452,48.11935],[-115.94509,48.11948],[-115.94538,48.11941],[-115.94739,48.11805],[-115.94696,48.11796],[-115.94685,48.11815],[-115.94571,48.11841],[-115.94562,48.11872],[-115.94538,48.11868],[-115.94536,48.11854],[-115.94558,48.11837],[-115.94542,48.11824],[-115.94638,48.11798],[-115.94626,48.11785],[-115.94556,48.11786],[-115.94494,48.11809],[-115.94482,48.1179],[-115.94425,48.11788],[-115.94403,48.11813],[-115.94274,48.11822],[-115.94279,48.11811],[-115.94332,48.11805],[-115.9433,48.11792],[-115.94294,48.11774],[-115.94298,48.11762],[-115.94417,48.11757],[-115.94431,48.11773],[-115.94447,48.11771],[-115.94447,48.11752],[-115.94469,48.11738],[-115.94535,48.11742],[-115.94578,48.11684],[-115.94657,48.11671],[-115.94698,48.11692],[-115.94686,48.11658],[-115.94695,48.11645],[-115.94857,48.1165],[-115.94883,48.1164],[-115.94882,48.1165],[-115.94937,48.11615],[-115.94975,48.11624],[-115.94991,48.11646],[-115.95031,48.11598],[-115.9505,48.11595],[-115.95067,48.11539],[-115.95085,48.11528],[-115.95179,48.11533],[-115.95176,48.11518],[-115.95248,48.11487],[-115.95246,48.11475],[-115.95305,48.11434],[-115.95349,48.11438],[-115.95432,48.11391],[-115.95604,48.11335],[-115.95781,48.11296],[-115.95908,48.11296],[-115.96019,48.11276],[-115.96018,48.11247],[-115.96006,48.11239],[-115.95834,48.11263],[-115.95789,48.11256],[-115.95738,48.11264],[-115.95737,48.11276],[-115.9571,48.11265],[-115.95619,48.11287],[-115.95575,48.11274],[-115.95563,48.11289],[-115.95514,48.11287],[-115.95468,48.11306],[-115.95464,48.11318],[-115.95371,48.1129],[-115.95351,48.11304],[-115.95275,48.11257],[-115.9523,48.11272],[-115.95179,48.11194],[-115.95085,48.11226],[-115.95049,48.11205],[-115.95016,48.11207],[-115.94913,48.11242],[-115.94885,48.11236],[-115.94837,48.11252],[-115.94835,48.11265],[-115.94751,48.11252],[-115.94772,48.11298],[-115.94764,48.11308],[-115.94744,48.11301],[-115.94737,48.11282],[-115.94698,48.1128],[-115.94683,48.1126],[-115.94695,48.11257],[-115.94692,48.11241],[-115.94718,48.11234],[-115.94721,48.11208],[-115.94702,48.11208],[-115.94702,48.11184],[-115.94655,48.11172],[-115.94637,48.11141],[-115.94662,48.11128],[-115.94662,48.11106],[-115.94635,48.11097],[-115.94622,48.11063],[-115.94691,48.11074],[-115.94733,48.11054],[-115.94683,48.10937],[-115.94646,48.10936],[-115.94599,48.10895],[-115.94558,48.10885],[-115.94531,48.10899],[-115.94495,48.10874],[-115.94382,48.10909],[-115.9437,48.10939],[-115.94348,48.10931],[-115.94346,48.10887],[-115.94307,48.10888],[-115.94307,48.10875],[-115.94345,48.10872],[-115.94348,48.10801],[-115.94313,48.10759],[-115.94348,48.10709],[-115.94425,48.10691],[-115.94405,48.10662],[-115.9432,48.10672],[-115.94233,48.10636],[-115.94196,48.10603],[-115.94156,48.10607],[-115.94153,48.10595],[-115.94185,48.10588],[-115.94154,48.10572],[-115.94105,48.10586],[-115.94052,48.10571],[-115.94069,48.10549],[-115.94129,48.1053],[-115.9419,48.1053],[-115.94171,48.10484],[-115.9419,48.10444],[-115.94132,48.10431],[-115.9391,48.10437],[-115.93817,48.10511],[-115.93768,48.10512],[-115.938,48.10499],[-115.93794,48.10474],[-115.93772,48.10464],[-115.93768,48.1041],[-115.93632,48.10454],[-115.93611,48.10443],[-115.93582,48.10395],[-115.93551,48.104],[-115.93572,48.1038],[-115.93552,48.10332],[-115.93497,48.10358],[-115.9348,48.10354],[-115.93478,48.1034],[-115.93556,48.10319],[-115.93563,48.10298],[-115.93595,48.10288],[-115.93595,48.10274],[-115.93643,48.10245],[-115.93717,48.10263],[-115.93716,48.10289],[-115.93727,48.10294],[-115.93751,48.1027],[-115.93905,48.10196],[-115.93876,48.1018],[-115.93839,48.10197],[-115.93839,48.10176],[-115.93788,48.10153],[-115.93785,48.10141],[-115.93801,48.10141],[-115.93809,48.10122],[-115.93862,48.10109],[-115.93907,48.10037],[-115.93888,48.10032],[-115.93858,48.10075],[-115.93791,48.10118],[-115.93789,48.10132],[-115.93717,48.10118],[-115.93693,48.10142],[-115.93635,48.10166],[-115.93599,48.10151],[-115.93532,48.10084],[-115.93527,48.10064],[-115.93432,48.10062],[-115.93404,48.10036],[-115.93407,48.1002],[-115.93359,48.10006],[-115.93357,48.09986],[-115.9339,48.09971],[-115.93372,48.09951],[-115.93389,48.09937],[-115.93387,48.0992],[-115.93427,48.0993],[-115.9345,48.09967],[-115.93462,48.09952],[-115.93504,48.09949],[-115.93535,48.099],[-115.935,48.09921],[-115.93473,48.09911],[-115.93498,48.09893],[-115.93482,48.09874],[-115.93506,48.09856],[-115.93534,48.09861],[-115.9354,48.09829],[-115.93512,48.09818],[-115.93494,48.09843],[-115.93446,48.09845],[-115.93439,48.09861],[-115.93369,48.09858],[-115.93298,48.09788],[-115.93275,48.09789],[-115.93262,48.09815],[-115.93235,48.09806],[-115.93186,48.09823],[-115.93171,48.09821],[-115.93149,48.09791],[-115.93161,48.09777],[-115.93217,48.09785],[-115.93224,48.09736],[-115.93255,48.09742],[-115.93268,48.09712],[-115.93356,48.09706],[-115.93417,48.09683],[-115.93449,48.09698],[-115.93483,48.09677],[-115.93598,48.09667],[-115.93625,48.09685],[-115.93592,48.09743],[-115.93642,48.09719],[-115.93655,48.09685],[-115.93696,48.09682],[-115.93709,48.09693],[-115.93702,48.09722],[-115.93749,48.09672],[-115.93799,48.09659],[-115.93882,48.0966],[-115.93902,48.09697],[-115.93946,48.09716],[-115.93965,48.09708],[-115.93962,48.09699],[-115.94049,48.09684],[-115.9401,48.09666],[-115.94006,48.09652],[-115.9407,48.0963],[-115.94162,48.09646],[-115.94175,48.09671],[-115.94227,48.09699],[-115.9424,48.09723],[-115.94306,48.09735],[-115.94328,48.09716],[-115.94341,48.09728],[-115.94325,48.09755],[-115.94333,48.09787],[-115.94312,48.09799],[-115.94268,48.09791],[-115.94248,48.09813],[-115.94268,48.09858],[-115.94317,48.09837],[-115.94347,48.09848],[-115.94357,48.09867],[-115.9439,48.09843],[-115.9439,48.09814],[-115.94411,48.09793],[-115.94503,48.09774],[-115.94535,48.09787],[-115.94569,48.09834],[-115.94603,48.09822],[-115.94604,48.09894],[-115.94615,48.09894],[-115.946,48.09925],[-115.94557,48.09932],[-115.94564,48.10024],[-115.94605,48.10035],[-115.94622,48.1],[-115.94663,48.09986],[-115.94662,48.09995],[-115.94697,48.09995],[-115.94693,48.1002],[-115.94729,48.10024],[-115.9474,48.10016],[-115.94729,48.09965],[-115.94772,48.09941],[-115.94774,48.09923],[-115.94831,48.0992],[-115.9483,48.09941],[-115.94916,48.09917],[-115.9494,48.09926],[-115.94956,48.09953],[-115.94945,48.09995],[-115.94956,48.10006],[-115.94991,48.09998],[-115.95029,48.10035],[-115.95103,48.10036],[-115.95113,48.10026],[-115.9509,48.09931],[-115.95206,48.09931],[-115.95196,48.09944],[-115.952,48.09983],[-115.95239,48.09967],[-115.95243,48.09935],[-115.9526,48.09928],[-115.95376,48.09912],[-115.95486,48.09843],[-115.95504,48.09786],[-115.9554,48.09751],[-115.95669,48.09688],[-115.95697,48.09656],[-115.95794,48.09602],[-115.95805,48.09589],[-115.95711,48.09494],[-115.95717,48.09454],[-115.95858,48.09375],[-115.95909,48.09403],[-115.95875,48.09456],[-115.95894,48.09467],[-115.95935,48.09468],[-115.95991,48.09428],[-115.96329,48.09565],[-115.96458,48.09637],[-115.96476,48.09717],[-115.96476,48.09796],[-115.96458,48.09817],[-115.96461,48.09881],[-115.96494,48.09857],[-115.9652,48.09857],[-115.96574,48.09879],[-115.96609,48.09874],[-115.96655,48.09894],[-115.96655,48.09904],[-115.96597,48.0998],[-115.96611,48.09997],[-115.96603,48.10007],[-115.96555,48.10018],[-115.96581,48.10024],[-115.96604,48.1005],[-115.96569,48.10059],[-115.96555,48.10083],[-115.96571,48.10093],[-115.96569,48.10107],[-115.9655,48.10133],[-115.96609,48.10139],[-115.96609,48.10163],[-115.96585,48.10191],[-115.9656,48.10182],[-115.96549,48.10212],[-115.96557,48.10234],[-115.96537,48.10271],[-115.96487,48.10285],[-115.96484,48.10305],[-115.96432,48.10329],[-115.96443,48.10343],[-115.9641,48.10352],[-115.96416,48.10363],[-115.96449,48.10357],[-115.96479,48.10369],[-115.96515,48.10353],[-115.96528,48.10407],[-115.96562,48.10415],[-115.96604,48.10378],[-115.96642,48.10367],[-115.96679,48.10382],[-115.96688,48.10365],[-115.9672,48.10361],[-115.96726,48.10428],[-115.96715,48.10462],[-115.96735,48.10461],[-115.96729,48.10476],[-115.96587,48.10548],[-115.96621,48.10619],[-115.96707,48.10733],[-115.96809,48.10831],[-115.96899,48.1086],[-115.96938,48.10916],[-115.96933,48.11007],[-115.96951,48.11038],[-115.96938,48.11089],[-115.96976,48.11137],[-115.96966,48.11172],[-115.97043,48.11208],[-115.9699,48.11228],[-115.96911,48.11331],[-115.9687,48.11341],[-115.96973,48.11455],[-115.96975,48.11467],[-115.96941,48.11496],[-115.96924,48.11494],[-115.96873,48.11529],[-115.96724,48.11525],[-115.9663,48.11559],[-115.96506,48.11555],[-115.96443,48.11535],[-115.9644,48.11547],[-115.96492,48.11582],[-115.96484,48.11662],[-115.96419,48.1168],[-115.96414,48.11652],[-115.96352,48.11613],[-115.96338,48.11641],[-115.96357,48.11663],[-115.96354,48.11679],[-115.96319,48.11696],[-115.9633,48.11701],[-115.96336,48.1175],[-115.9632,48.11805],[-115.96337,48.11883],[-115.96331,48.11993],[-115.96372,48.12017],[-115.96446,48.12033],[-115.96455,48.12054],[-115.96478,48.12063],[-115.96468,48.12085],[-115.96418,48.12123],[-115.9635,48.12145],[-115.96352,48.12173],[-115.9624,48.12268],[-115.962,48.12319],[-115.96168,48.12283],[-115.96153,48.12285],[-115.96141,48.12298],[-115.96158,48.1232],[-115.96121,48.12319],[-115.96088,48.12354],[-115.96043,48.12359],[-115.96025,48.12384],[-115.96016,48.12475],[-115.96028,48.12495],[-115.96128,48.12555],[-115.9614,48.12577],[-115.96128,48.12672],[-115.96135,48.1273],[-115.96103,48.12761],[-115.96115,48.1281],[-115.96154,48.12814],[-115.96168,48.12835],[-115.9614,48.12868],[-115.9612,48.12963],[-115.95993,48.12982],[-115.95934,48.13007],[-115.95899,48.12994],[-115.95836,48.13],[-115.95811,48.12975],[-115.95756,48.13002]]],[[[-115.94645,48.11198],[-115.94627,48.11185],[-115.94646,48.11186],[-115.94645,48.11198]]],[[[-115.94548,48.11244],[-115.94548,48.1121],[-115.9458,48.11215],[-115.94564,48.11243],[-115.94548,48.11244]]],[[[-115.94677,48.11218],[-115.94692,48.1122],[-115.9469,48.11236],[-115.94679,48.11232],[-115.94677,48.11218]]],[[[-115.94709,48.12076],[-115.94703,48.12066],[-115.94728,48.12021],[-115.94714,48.11996],[-115.94724,48.11989],[-115.94764,48.12026],[-115.9473,48.12069],[-115.94709,48.12076]]],[[[-115.94614,48.1259],[-115.94635,48.12589],[-115.94635,48.12601],[-115.94615,48.12605],[-115.94614,48.1259]]],[[[-115.9396,48.10455],[-115.93897,48.10488],[-115.93888,48.10471],[-115.93937,48.1044],[-115.9396,48.10455]]],[[[-115.94029,48.10523],[-115.94092,48.10456],[-115.94112,48.10464],[-115.94067,48.10508],[-115.94081,48.10522],[-115.94058,48.10519],[-115.94073,48.10536],[-115.94052,48.10526],[-115.94026,48.10556],[-115.94039,48.10566],[-115.94021,48.10564],[-115.94005,48.10597],[-115.93971,48.10607],[-115.93994,48.10572],[-115.93956,48.10574],[-115.93923,48.10542],[-115.94016,48.10511],[-115.94029,48.10523]]],[[[-115.9385,48.10549],[-115.9393,48.10582],[-115.93913,48.10589],[-115.93847,48.10572],[-115.9385,48.10549]]],[[[-115.93689,48.10658],[-115.93638,48.10644],[-115.93631,48.10616],[-115.9365,48.10613],[-115.93667,48.10571],[-115.93693,48.10563],[-115.93685,48.10501],[-115.93727,48.10436],[-115.93741,48.10462],[-115.9371,48.10499],[-115.93751,48.10499],[-115.9378,48.10557],[-115.93727,48.10601],[-115.93729,48.10626],[-115.9375,48.10627],[-115.93753,48.10638],[-115.93729,48.10639],[-115.93729,48.10649],[-115.93773,48.10658],[-115.93779,48.10685],[-115.93813,48.10689],[-115.93916,48.10754],[-115.93904,48.10765],[-115.93841,48.10739],[-115.93823,48.10753],[-115.93827,48.10766],[-115.93791,48.10762],[-115.93752,48.10726],[-115.93692,48.1071],[-115.93674,48.10676],[-115.93674,48.10661],[-115.93689,48.10658]]],[[[-115.94084,48.10902],[-115.94085,48.10918],[-115.94047,48.10932],[-115.9406,48.10903],[-115.94084,48.10902]]],[[[-115.94168,48.10923],[-115.94187,48.10914],[-115.942,48.10932],[-115.94176,48.10935],[-115.94168,48.10923]]],[[[-115.94502,48.10952],[-115.94484,48.10938],[-115.94505,48.10932],[-115.94502,48.10952]]],[[[-115.94535,48.11131],[-115.94517,48.11119],[-115.94538,48.11117],[-115.94535,48.11131]]],[[[-115.94535,48.11208],[-115.94514,48.11203],[-115.94525,48.11199],[-115.94535,48.11208]]],[[[-115.94508,48.11231],[-115.94486,48.11232],[-115.94491,48.11224],[-115.94508,48.11231]]],[[[-115.94426,48.11227],[-115.94462,48.11227],[-115.94468,48.11243],[-115.9443,48.11251],[-115.94419,48.11242],[-115.94426,48.11227]]],[[[-115.94318,48.11729],[-115.94339,48.11714],[-115.94374,48.11726],[-115.94325,48.1174],[-115.94318,48.11729]]]]},"properties":{"fire_id":"ufid:2022-MTKNF-000235","source_collection":"history-2022","source_objectid":13972,"incident_name":"Billiard","mapped_acres":1268.166,"mapped_acres_source":"poly_GISAcres","gis_acres":1268.166,"auto_acres":1268.1609921183335,"reported_acres":1268.0,"percent_contained":null,"state":"MT","state_wfigs":"US-MT","county":"Sanders","discovery_time_utc":"2022-09-01T04:44:19Z","perimeter_time_utc":"2022-11-17T19:38:38Z","perimeter_edit_time_utc":"2023-03-14T15:13:42Z","incident_modified_time_utc":"2022-11-17T19:21:52Z","containment_time_utc":"2022-10-25T16:00:00Z","control_time_utc":"2022-11-16T16:35:00Z","fire_out_time_utc":"2022-11-16T17:00:00Z","fire_cause":"Natural","fire_cause_general":"Natural","map_method":"Mixed Methods","source_dataset":"FFP","unique_fire_identifier":"2022-MTKNF-000235","irwin_id":"{30A49EB0-DF1B-44BB-839E-C9879747FDA9}","global_id":"85451fde-61d8-4151-959d-2aa6e7e4d66b"}},{"type":"Feature","geometry":{"type":"MultiPolygon","coordinates":[[[[-115.7146,47.99757],[-115.71456,47.99774],[-115.71392,47.99743],[-115.71446,47.9974],[-115.7146,47.99757]]],[[[-115.72772,48.04097],[-115.72742,48.04086],[-115.72662,48.04116],[-115.72613,48.04118],[-115.72601,48.04081],[-115.72612,48.04056],[-115.72592,48.04034],[-115.72538,48.0409],[-115.72504,48.04081],[-115.72482,48.04057],[-115.72464,48.04056],[-115.72452,48.04075],[-115.72416,48.0406],[-115.7244,48.04034],[-115.72446,48.03992],[-115.72509,48.03995],[-115.72556,48.03976],[-115.72613,48.03972],[-115.72619,48.03914],[-115.72666,48.03877],[-115.72616,48.03817],[-115.72569,48.03816],[-115.72572,48.038],[-115.72602,48.03792],[-115.72604,48.03778],[-115.72652,48.03769],[-115.72655,48.03755],[-115.72614,48.03742],[-115.72606,48.03716],[-115.72659,48.0371],[-115.7272,48.03672],[-115.7274,48.03645],[-115.72776,48.03644],[-115.72891,48.03711],[-115.72904,48.0374],[-115.72895,48.03748],[-115.72938,48.03761],[-115.72934,48.03825],[-115.72983,48.03832],[-115.73012,48.03823],[-115.73038,48.03796],[-115.73041,48.03774],[-115.72993,48.03775],[-115.72983,48.03744],[-115.7295,48.03745],[-115.72906,48.03685],[-115.72821,48.03644],[-115.72821,48.03589],[-115.72834,48.03559],[-115.72785,48.03526],[-115.728,48.03513],[-115.7284,48.03535],[-115.72845,48.03517],[-115.72823,48.03509],[-115.72825,48.03472],[-115.72807,48.03461],[-115.72801,48.03438],[-115.72808,48.03411],[-115.72858,48.0341],[-115.72862,48.03345],[-115.72894,48.03307],[-115.72856,48.03296],[-115.7287,48.03271],[-115.72846,48.03231],[-115.72867,48.03209],[-115.72817,48.03206],[-115.72781,48.0318],[-115.72813,48.03148],[-115.7281,48.03114],[-115.72775,48.03115],[-115.72762,48.0313],[-115.72766,48.03159],[-115.72687,48.0317],[-115.72612,48.03153],[-115.72537,48.0318],[-115.72515,48.03176],[-115.72489,48.03163],[-115.72493,48.03118],[-115.72453,48.03087],[-115.72493,48.03019],[-115.72471,48.0301],[-115.72463,48.02973],[-115.72413,48.02955],[-115.72399,48.02969],[-115.72416,48.02985],[-115.72415,48.03021],[-115.72375,48.03037],[-115.72341,48.03031],[-115.7234,48.03008],[-115.72283,48.02981],[-115.72237,48.02977],[-115.72178,48.03004],[-115.72169,48.03033],[-115.72185,48.03055],[-115.72144,48.03077],[-115.72082,48.03059],[-115.72066,48.03016],[-115.72023,48.03027],[-115.71998,48.03074],[-115.72028,48.03122],[-115.72018,48.03151],[-115.72027,48.03192],[-115.71973,48.03216],[-115.71808,48.03221],[-115.71793,48.0324],[-115.7177,48.03229],[-115.71726,48.03172],[-115.71699,48.03171],[-115.71644,48.03107],[-115.71615,48.03104],[-115.71499,48.03175],[-115.71451,48.03171],[-115.71428,48.03133],[-115.71204,48.03099],[-115.71158,48.03113],[-115.71054,48.03082],[-115.71026,48.03051],[-115.71039,48.03041],[-115.70994,48.0302],[-115.70975,48.02987],[-115.70988,48.02948],[-115.71056,48.02923],[-115.7103,48.02876],[-115.71038,48.02813],[-115.71096,48.02738],[-115.71103,48.02696],[-115.711,48.02659],[-115.7107,48.02635],[-115.70968,48.02613],[-115.70953,48.02593],[-115.70988,48.02579],[-115.71037,48.02589],[-115.71155,48.02574],[-115.7122,48.0255],[-115.71232,48.02504],[-115.71249,48.02486],[-115.71238,48.02447],[-115.71284,48.02403],[-115.7128,48.02359],[-115.71244,48.02321],[-115.71233,48.02266],[-115.71196,48.02242],[-115.71199,48.02228],[-115.71247,48.02252],[-115.71297,48.02214],[-115.71224,48.0216],[-115.7125,48.02146],[-115.71244,48.02085],[-115.71226,48.0206],[-115.71236,48.0203],[-115.71265,48.02022],[-115.7127,48.02005],[-115.71232,48.01979],[-115.71233,48.0196],[-115.71258,48.01946],[-115.71176,48.01892],[-115.71105,48.0188],[-115.71095,48.01861],[-115.71105,48.01747],[-115.71068,48.01709],[-115.71069,48.01638],[-115.71082,48.01608],[-115.71013,48.01508],[-115.71009,48.01469],[-115.70971,48.01425],[-115.70928,48.01428],[-115.7091,48.0136],[-115.70875,48.01343],[-115.70779,48.01219],[-115.70745,48.01207],[-115.70733,48.01192],[-115.70739,48.01173],[-115.70689,48.01154],[-115.70671,48.01099],[-115.70652,48.01107],[-115.70638,48.01095],[-115.70607,48.01015],[-115.7059,48.00907],[-115.70558,48.00901],[-115.70574,48.0089],[-115.7054,48.00873],[-115.70541,48.00847],[-115.70512,48.00815],[-115.70436,48.00797],[-115.70425,48.00772],[-115.7038,48.00762],[-115.70342,48.00776],[-115.70307,48.00761],[-115.70309,48.00729],[-115.70326,48.00713],[-115.70282,48.00655],[-115.7029,48.00622],[-115.70202,48.0057],[-115.70203,48.00475],[-115.70148,48.00436],[-115.70152,48.0041],[-115.70139,48.00402],[-115.70164,48.00339],[-115.70137,48.00326],[-115.70111,48.00285],[-115.70121,48.00225],[-115.70072,48.00194],[-115.70087,48.00155],[-115.70075,48.00135],[-115.7,48.0009],[-115.69997,48.00049],[-115.70015,48.00017],[-115.70242,47.9998],[-115.70209,47.9995],[-115.70165,47.99958],[-115.70139,47.9998],[-115.70044,47.99979],[-115.70009,47.99967],[-115.7001,47.99957],[-115.70117,47.99964],[-115.70179,47.99935],[-115.70149,47.99851],[-115.70181,47.99813],[-115.70245,47.99813],[-115.70251,47.99799],[-115.70289,47.99794],[-115.70301,47.99819],[-115.70333,47.99817],[-115.70326,47.99785],[-115.70365,47.99753],[-115.70363,47.99706],[-115.70406,47.99645],[-115.70541,47.99621],[-115.70674,47.99552],[-115.70798,47.99519],[-115.70957,47.99454],[-115.70976,47.99458],[-115.70996,47.99488],[-115.71095,47.99494],[-115.71249,47.9957],[-115.7125,47.99613],[-115.71335,47.99624],[-115.71346,47.99642],[-115.71242,47.9963],[-115.7124,47.9965],[-115.71269,47.99671],[-115.71287,47.99664],[-115.71307,47.99674],[-115.71368,47.99776],[-115.71413,47.99809],[-115.71413,47.99841],[-115.71583,47.99851],[-115.71589,47.99838],[-115.71698,47.99834],[-115.71712,47.99734],[-115.71761,47.99679],[-115.71874,47.99655],[-115.71913,47.9968],[-115.71989,47.99696],[-115.72022,47.99667],[-115.72083,47.99657],[-115.72102,47.99626],[-115.72081,47.99614],[-115.72094,47.99593],[-115.72174,47.99595],[-115.72173,47.9963],[-115.72189,47.99634],[-115.72224,47.99621],[-115.72284,47.99562],[-115.72384,47.99554],[-115.72393,47.9954],[-115.72469,47.99555],[-115.7247,47.99518],[-115.7252,47.99508],[-115.72578,47.99523],[-115.72633,47.99518],[-115.72663,47.99544],[-115.72667,47.99567],[-115.72712,47.99574],[-115.72731,47.99593],[-115.72708,47.99629],[-115.72746,47.9964],[-115.72757,47.99612],[-115.72793,47.99588],[-115.72848,47.9958],[-115.72955,47.99608],[-115.72959,47.99644],[-115.72923,47.99676],[-115.72918,47.99714],[-115.7295,47.99735],[-115.72963,47.99763],[-115.7295,47.99782],[-115.72891,47.99804],[-115.72884,47.99827],[-115.72842,47.99829],[-115.72684,47.99801],[-115.72665,47.99786],[-115.72697,47.99771],[-115.72676,47.99746],[-115.72586,47.99716],[-115.72584,47.99799],[-115.72597,47.99857],[-115.72568,47.9987],[-115.7258,47.99902],[-115.72569,47.99923],[-115.72598,47.99923],[-115.72694,47.9987],[-115.72793,47.99891],[-115.72845,47.9992],[-115.72989,47.99904],[-115.73065,47.99917],[-115.73094,47.99936],[-115.73205,47.99936],[-115.73317,47.99993],[-115.73394,48.00073],[-115.73422,48.00072],[-115.7343,48.00082],[-115.73421,48.00128],[-115.73401,48.00152],[-115.73452,48.00138],[-115.73512,48.0014],[-115.73563,48.00117],[-115.73605,48.0007],[-115.73722,48.00055],[-115.73729,48.00037],[-115.73682,48.00003],[-115.73695,47.99976],[-115.73678,47.999],[-115.73786,47.99883],[-115.73825,47.99835],[-115.73809,47.99825],[-115.7376,47.99832],[-115.73729,47.99811],[-115.73698,47.99766],[-115.73707,47.99746],[-115.73747,47.99726],[-115.73799,47.99738],[-115.73801,47.99718],[-115.7385,47.99696],[-115.73919,47.99715],[-115.73924,47.9969],[-115.73984,47.99636],[-115.74039,47.99648],[-115.74098,47.997],[-115.7414,47.99714],[-115.74155,47.99736],[-115.74187,47.99748],[-115.74194,47.99783],[-115.74219,47.99761],[-115.74231,47.99722],[-115.74225,47.99697],[-115.74272,47.99696],[-115.74313,47.99666],[-115.74441,47.99657],[-115.74484,47.99641],[-115.74589,47.99644],[-115.74612,47.99655],[-115.74628,47.99696],[-115.74701,47.99717],[-115.74687,47.99759],[-115.74634,47.99784],[-115.74673,47.99855],[-115.74663,47.99897],[-115.74607,47.99998],[-115.74565,48.00021],[-115.74537,48.00019],[-115.74488,47.99972],[-115.74487,47.99943],[-115.74449,47.99952],[-115.74456,47.99994],[-115.74422,48.00005],[-115.74404,47.99978],[-115.7439,47.99979],[-115.74397,48.0001],[-115.74427,48.00014],[-115.74425,48.00038],[-115.74407,48.00047],[-115.74443,48.00067],[-115.74436,48.00077],[-115.74392,48.00073],[-115.74376,48.00102],[-115.74412,48.0009],[-115.74458,48.00119],[-115.74461,48.00138],[-115.74402,48.00147],[-115.74408,48.00162],[-115.74397,48.00176],[-115.74463,48.0019],[-115.74481,48.00133],[-115.74563,48.00115],[-115.74617,48.00128],[-115.74641,48.0015],[-115.74758,48.00125],[-115.74786,48.00104],[-115.74833,48.00116],[-115.74788,48.00078],[-115.74827,48.00075],[-115.74912,48.00114],[-115.74875,48.00136],[-115.74915,48.00263],[-115.74961,48.00329],[-115.75033,48.00339],[-115.74968,48.00449],[-115.74992,48.00495],[-115.74954,48.00564],[-115.74966,48.00662],[-115.74867,48.00784],[-115.74828,48.0086],[-115.74801,48.00954],[-115.74767,48.00992],[-115.74589,48.01106],[-115.74568,48.01175],[-115.74561,48.01286],[-115.74579,48.01341],[-115.74551,48.01401],[-115.74526,48.01409],[-115.74594,48.01445],[-115.74548,48.01489],[-115.74535,48.01521],[-115.74522,48.01584],[-115.74539,48.01673],[-115.74478,48.01756],[-115.74421,48.01775],[-115.7443,48.01795],[-115.74404,48.01811],[-115.74397,48.01887],[-115.74301,48.01949],[-115.74277,48.01945],[-115.74247,48.01974],[-115.7426,48.01995],[-115.74216,48.02095],[-115.74233,48.02118],[-115.74224,48.02141],[-115.74165,48.0217],[-115.74146,48.02205],[-115.74153,48.02265],[-115.74138,48.02297],[-115.74151,48.02324],[-115.7407,48.02364],[-115.74059,48.02387],[-115.73988,48.02447],[-115.73971,48.02481],[-115.73976,48.02548],[-115.73965,48.02583],[-115.74005,48.02677],[-115.73998,48.02712],[-115.74111,48.02738],[-115.74139,48.0279],[-115.74142,48.02822],[-115.74208,48.02825],[-115.74273,48.02867],[-115.74298,48.02918],[-115.74357,48.0292],[-115.74436,48.02948],[-115.74439,48.03002],[-115.74413,48.03039],[-115.74445,48.03049],[-115.74508,48.03042],[-115.74483,48.03082],[-115.74532,48.03124],[-115.74535,48.03141],[-115.74517,48.03156],[-115.74535,48.03184],[-115.74504,48.03325],[-115.74407,48.03352],[-115.74321,48.03417],[-115.74285,48.03429],[-115.74227,48.03378],[-115.74196,48.03379],[-115.74174,48.03352],[-115.74146,48.03348],[-115.74131,48.0331],[-115.74056,48.03323],[-115.74065,48.03345],[-115.7405,48.03355],[-115.73944,48.03335],[-115.73956,48.0337],[-115.73942,48.0338],[-115.73947,48.03391],[-115.73971,48.03433],[-115.74009,48.03458],[-115.74015,48.035],[-115.73989,48.03521],[-115.73986,48.03548],[-115.7402,48.03579],[-115.73981,48.03688],[-115.73996,48.03693],[-115.74005,48.03725],[-115.73959,48.03794],[-115.73895,48.03815],[-115.73849,48.03802],[-115.73729,48.03819],[-115.73704,48.0386],[-115.73676,48.0388],[-115.73648,48.03871],[-115.73637,48.03848],[-115.73612,48.03846],[-115.73601,48.03892],[-115.73574,48.03927],[-115.73581,48.03941],[-115.73613,48.03938],[-115.73605,48.03954],[-115.73528,48.03954],[-115.7347,48.03925],[-115.73454,48.03929],[-115.73436,48.03959],[-115.73363,48.03983],[-115.73291,48.03961],[-115.73192,48.03987],[-115.73169,48.04],[-115.73151,48.04033],[-115.73183,48.04059],[-115.73178,48.04069],[-115.73153,48.04072],[-115.73109,48.04111],[-115.73064,48.04122],[-115.73047,48.04153],[-115.72988,48.04143],[-115.72959,48.0416],[-115.72905,48.04158],[-115.72864,48.04146],[-115.7284,48.04112],[-115.72773,48.04081],[-115.72772,48.04097]]],[[[-115.71245,48.02413],[-115.71229,48.02412],[-115.71223,48.02363],[-115.71248,48.02367],[-115.71245,48.02413]]]]},"properties":{"fire_id":"ufid:2022-MTKNF-000240","source_collection":"history-2022","source_objectid":14057,"incident_name":"Government","mapped_acres":2854.03,"mapped_acres_source":"poly_GISAcres","gis_acres":2854.03,"auto_acres":2854.019357048873,"reported_acres":2854.0,"percent_contained":null,"state":"MT","state_wfigs":"US-MT","county":"Sanders","discovery_time_utc":"2022-09-01T06:09:00Z","perimeter_time_utc":"2022-11-17T19:49:48Z","perimeter_edit_time_utc":"2023-03-14T15:13:42Z","incident_modified_time_utc":"2022-11-16T16:43:48Z","containment_time_utc":"2022-10-25T16:00:00Z","control_time_utc":"2022-11-16T16:35:00Z","fire_out_time_utc":"2022-11-16T17:00:00Z","fire_cause":"Natural","fire_cause_general":"Natural","map_method":"Mixed Methods","source_dataset":"FFP","unique_fire_identifier":"2022-MTKNF-000240","irwin_id":"{8D18504D-9FCE-4F95-8DD3-F5A07D7CA213}","global_id":"e174d900-8459-43b3-aac6-c6c06f37d415"}},{"type":"Feature","geometry":{"type":"MultiPolygon","coordinates":[[[[-115.67584,48.10772],[-115.67584,48.10793],[-115.67559,48.10795],[-115.67564,48.10821],[-115.67616,48.10826],[-115.67581,48.10843],[-115.67581,48.1087],[-115.67561,48.10865],[-115.67528,48.10887],[-115.67451,48.10875],[-115.67428,48.10885],[-115.67429,48.109],[-115.6739,48.10915],[-115.67325,48.10907],[-115.67275,48.10916],[-115.67193,48.10992],[-115.6712,48.11024],[-115.67076,48.11024],[-115.67033,48.11041],[-115.66982,48.11027],[-115.66973,48.11013],[-115.66922,48.11011],[-115.66906,48.10988],[-115.66789,48.10951],[-115.66783,48.10942],[-115.66797,48.10926],[-115.66758,48.10905],[-115.66628,48.10912],[-115.66606,48.10926],[-115.66579,48.10922],[-115.66575,48.10903],[-115.66544,48.10925],[-115.66531,48.1091],[-115.66489,48.10906],[-115.66472,48.10922],[-115.66385,48.10919],[-115.66371,48.10929],[-115.66361,48.10904],[-115.66344,48.10901],[-115.66344,48.10881],[-115.66299,48.10886],[-115.66277,48.10849],[-115.66236,48.10832],[-115.66212,48.10804],[-115.66149,48.10784],[-115.66016,48.10779],[-115.65994,48.10788],[-115.65994,48.10773],[-115.65969,48.10761],[-115.65887,48.10774],[-115.65863,48.1076],[-115.65864,48.10733],[-115.65812,48.107],[-115.65815,48.10686],[-115.65792,48.10667],[-115.65829,48.10646],[-115.65785,48.10605],[-115.65758,48.1062],[-115.65725,48.10617],[-115.65703,48.10598],[-115.65676,48.10611],[-115.65676,48.10644],[-115.6575,48.10657],[-115.65773,48.10674],[-115.65772,48.10689],[-115.65729,48.10722],[-115.65666,48.10706],[-115.65607,48.10674],[-115.65652,48.10664],[-115.65653,48.10622],[-115.65611,48.10646],[-115.65587,48.10635],[-115.65599,48.10551],[-115.65592,48.10526],[-115.65608,48.1052],[-115.65614,48.10538],[-115.65644,48.10529],[-115.65645,48.10507],[-115.6567,48.10508],[-115.65673,48.10524],[-115.65697,48.1049],[-115.6573,48.10497],[-115.6572,48.10474],[-115.65666,48.10418],[-115.6564,48.10419],[-115.65634,48.10399],[-115.65611,48.10415],[-115.65547,48.10413],[-115.65548,48.10393],[-115.65565,48.10387],[-115.65573,48.10366],[-115.65554,48.10366],[-115.65558,48.10345],[-115.656,48.10345],[-115.656,48.10334],[-115.65565,48.10322],[-115.65544,48.10336],[-115.65458,48.10328],[-115.65424,48.10298],[-115.65364,48.1029],[-115.65345,48.10267],[-115.65317,48.10268],[-115.65314,48.10252],[-115.65298,48.10268],[-115.65237,48.10267],[-115.65218,48.10278],[-115.65243,48.103],[-115.65218,48.1032],[-115.65162,48.10317],[-115.65113,48.10295],[-115.6513,48.10273],[-115.65124,48.10251],[-115.65153,48.10242],[-115.65161,48.10257],[-115.65177,48.10252],[-115.65179,48.10228],[-115.65161,48.10201],[-115.65141,48.10199],[-115.65157,48.10165],[-115.65117,48.10168],[-115.65098,48.1015],[-115.65079,48.10154],[-115.65053,48.10106],[-115.65117,48.10074],[-115.65122,48.10049],[-115.6509,48.10027],[-115.65093,48.10001],[-115.65121,48.09987],[-115.65068,48.09968],[-115.65061,48.0993],[-115.64991,48.09916],[-115.64981,48.09872],[-115.65061,48.09866],[-115.65056,48.09847],[-115.65018,48.09818],[-115.65054,48.09797],[-115.65112,48.09796],[-115.65095,48.09774],[-115.65061,48.09768],[-115.65071,48.09761],[-115.65138,48.09751],[-115.65197,48.09777],[-115.65264,48.09779],[-115.65269,48.0981],[-115.65296,48.09833],[-115.65295,48.09855],[-115.65243,48.09909],[-115.65215,48.0991],[-115.65218,48.09926],[-115.65295,48.09917],[-115.65317,48.09971],[-115.65406,48.09994],[-115.65422,48.10031],[-115.65452,48.10033],[-115.65479,48.10011],[-115.6555,48.10037],[-115.65571,48.1003],[-115.65571,48.10058],[-115.65541,48.10123],[-115.65541,48.10174],[-115.65497,48.10191],[-115.65523,48.10197],[-115.65566,48.10197],[-115.65568,48.10153],[-115.65613,48.10135],[-115.65596,48.10097],[-115.65603,48.10003],[-115.6564,48.09988],[-115.65702,48.10004],[-115.65696,48.10085],[-115.65729,48.10093],[-115.65767,48.10124],[-115.65781,48.10108],[-115.6591,48.101],[-115.66038,48.10134],[-115.66052,48.10126],[-115.66045,48.10106],[-115.66067,48.10076],[-115.6623,48.1005],[-115.66236,48.1004],[-115.66297,48.10054],[-115.66415,48.10008],[-115.66469,48.10014],[-115.66535,48.09993],[-115.66599,48.10051],[-115.66615,48.10039],[-115.66645,48.10044],[-115.6666,48.1003],[-115.66682,48.10077],[-115.66672,48.10106],[-115.66697,48.10144],[-115.66721,48.10148],[-115.66731,48.10129],[-115.66758,48.1012],[-115.66801,48.1016],[-115.66753,48.10197],[-115.66756,48.10211],[-115.66805,48.10214],[-115.66825,48.10232],[-115.6686,48.10237],[-115.66838,48.10262],[-115.66868,48.10287],[-115.66862,48.10312],[-115.66845,48.10322],[-115.66858,48.10337],[-115.66862,48.10381],[-115.66917,48.10412],[-115.66937,48.10412],[-115.66931,48.10398],[-115.66944,48.10393],[-115.67002,48.10402],[-115.66994,48.10421],[-115.67005,48.1043],[-115.67057,48.10408],[-115.67062,48.10436],[-115.67079,48.10437],[-115.6708,48.10451],[-115.67121,48.10458],[-115.67126,48.10493],[-115.67162,48.10501],[-115.67171,48.10519],[-115.67205,48.1053],[-115.67197,48.10535],[-115.6722,48.10556],[-115.67226,48.10589],[-115.6726,48.10589],[-115.67271,48.10573],[-115.67285,48.10581],[-115.67283,48.10572],[-115.67311,48.10598],[-115.67368,48.10613],[-115.67366,48.10626],[-115.67347,48.10615],[-115.67326,48.10624],[-115.67323,48.10646],[-115.67352,48.10678],[-115.67401,48.10681],[-115.67421,48.10693],[-115.67416,48.107],[-115.67457,48.10706],[-115.67477,48.10732],[-115.67493,48.10725],[-115.67483,48.10735],[-115.67513,48.1078],[-115.67538,48.1077],[-115.6752,48.10752],[-115.67539,48.10736],[-115.67607,48.10752],[-115.67608,48.10764],[-115.67584,48.10772]]],[[[-115.66891,48.10348],[-115.66903,48.10346],[-115.66903,48.10367],[-115.6689,48.10368],[-115.66891,48.10348]]]]},"properties":{"fire_id":"ufid:2022-MTKNF-000248","source_collection":"history-2022","source_objectid":14619,"incident_name":"Isabella Lake","mapped_acres":289.9792,"mapped_acres_source":"poly_GISAcres","gis_acres":289.9792,"auto_acres":289.9780556849064,"reported_acres":290.0,"percent_contained":null,"state":"MT","state_wfigs":"US-MT","county":"Sanders","discovery_time_utc":"2022-09-01T16:06:30Z","perimeter_time_utc":"2022-11-17T19:50:25Z","perimeter_edit_time_utc":"2023-03-14T15:13:42Z","incident_modified_time_utc":"2022-11-17T19:18:50Z","containment_time_utc":null,"control_time_utc":"2022-11-16T16:35:00Z","fire_out_time_utc":"2022-11-16T17:00:00Z","fire_cause":"Natural","fire_cause_general":"Natural","map_method":"Mixed Methods","source_dataset":"FFP","unique_fire_identifier":"2022-MTKNF-000248","irwin_id":"{E711B4CC-DBED-47C9-A3E7-8C793E37C1F7}","global_id":"846df85a-4f83-4c7f-a6c7-a29ec1a02cf5"}}]}
