{"type":"FeatureCollection","features":[{"type":"Feature","geometry":{"type":"Polygon","coordinates":[[[-104.95674,48.13692],[-104.95695,48.13656],[-104.95739,48.13619],[-104.9595,48.13485],[-104.96088,48.13476],[-104.96186,48.13497],[-104.95976,48.13573],[-104.95825,48.13656],[-104.95696,48.13698],[-104.95674,48.13692]]]},"properties":{"fire_id":"ufid:2022-MTFPA-000309","source_collection":"history-2022","source_objectid":298,"incident_name":"MM 23","mapped_acres":7.32306205566839,"mapped_acres_source":"poly_Acres_AutoCalc_fallback","gis_acres":null,"auto_acres":7.32306205566839,"reported_acres":7.2,"percent_contained":null,"state":"MT","state_wfigs":"US-MT","county":"Roosevelt","discovery_time_utc":"2022-08-24T21:04:00Z","perimeter_time_utc":null,"perimeter_edit_time_utc":"2022-09-02T16:07:53Z","incident_modified_time_utc":"2022-08-26T00:08:25Z","containment_time_utc":"2022-08-25T01:00:00Z","control_time_utc":null,"fire_out_time_utc":null,"fire_cause":"Undetermined","fire_cause_general":null,"map_method":"Mixed Methods","source_dataset":"2022 NIFS","unique_fire_identifier":"2022-MTFPA-000309","irwin_id":"{CEA19550-438A-4960-A924-DF3F23028E66}","global_id":"900bac77-edcf-4446-8287-24dc520d9c9b"}},{"type":"Feature","geometry":{"type":"Polygon","coordinates":[[[-104.4728,45.81681],[-104.47329,45.81712],[-104.4731,45.81719],[-104.47281,45.81707],[-104.4728,45.81681]]]},"properties":{"fire_id":"ufid:2022-MTMCD-000225","source_collection":"history-2022","source_objectid":868,"incident_name":"Rimrock","mapped_acres":0.173420713695925,"mapped_acres_source":"poly_Acres_AutoCalc_fallback","gis_acres":null,"auto_acres":0.173420713695925,"reported_acres":null,"percent_contained":null,"state":"MT","state_wfigs":"US-MT","county":"Carter","discovery_time_utc":"2022-08-17T21:40:00Z","perimeter_time_utc":null,"perimeter_edit_time_utc":"2022-09-01T19:39:17Z","incident_modified_time_utc":"2022-09-15T14:47:49Z","containment_time_utc":"2022-08-18T03:00:00Z","control_time_utc":"2022-08-18T21:00:00Z","fire_out_time_utc":"2022-09-15T14:00:00Z","fire_cause":"Natural","fire_cause_general":null,"map_method":"Mixed Methods","source_dataset":"2022 NIFS","unique_fire_identifier":"2022-MTMCD-000225","irwin_id":"{91D4037E-20F7-4FB9-87DC-92A71F819CC6}","global_id":"0c0ae688-d4cc-4552-9ca7-11dfeee690e4"}},{"type":"Feature","geometry":{"type":"Polygon","coordinates":[[[-104.23118,46.30376],[-104.23108,46.30377],[-104.23116,46.30356],[-104.23118,46.30376]]]},"properties":{"fire_id":"ufid:2022-MTLG39-000184","source_collection":"history-2022","source_objectid":1206,"incident_name":"Bracket Butte - Fallon","mapped_acres":0.1,"mapped_acres_source":"poly_GISAcres","gis_acres":0.1,"auto_acres":0.0482437835031698,"reported_acres":null,"percent_contained":null,"state":"MT","state_wfigs":"US-MT","county":"Fallon","discovery_time_utc":"2022-08-04T06:21:00Z","perimeter_time_utc":"2022-08-04T11:21:00Z","perimeter_edit_time_utc":"2022-08-04T13:39:31Z","incident_modified_time_utc":"2022-08-11T20:33:16Z","containment_time_utc":"2022-08-04T08:00:00Z","control_time_utc":"2022-08-04T08:00:00Z","fire_out_time_utc":"2022-08-04T08:00:00Z","fire_cause":"Human","fire_cause_general":null,"map_method":"Hand Sketch","source_dataset":"2022 NIFS","unique_fire_identifier":"2022-MTLG39-000184","irwin_id":"{000B8B34-7D7F-404D-9643-16AF31EBDEBD}","global_id":"60861a42-4e34-4cad-a68a-d9a0c67453d9"}},{"type":"Feature","geometry":{"type":"Polygon","coordinates":[[[-104.20441,46.84666],[-104.20461,46.84696],[-104.20458,46.84716],[-104.2049,46.84729],[-104.2049,46.84772],[-104.20443,46.84857],[-104.20423,46.84875],[-104.20384,46.84882],[-104.20349,46.8486],[-104.20321,46.84751],[-104.20337,46.84733],[-104.20387,46.84716],[-104.20402,46.84683],[-104.20441,46.84666]]]},"properties":{"fire_id":"ufid:2022-MTLG52-000144","source_collection":"history-2022","source_objectid":4281,"incident_name":"Horse Point - Wibaux","mapped_acres":4.9,"mapped_acres_source":"poly_GISAcres","gis_acres":4.9,"auto_acres":4.924543367766105,"reported_acres":4.9,"percent_contained":null,"state":"MT","state_wfigs":"US-MT","county":"Wibaux","discovery_time_utc":"2022-07-27T20:13:34Z","perimeter_time_utc":"2022-08-11T17:28:58Z","perimeter_edit_time_utc":"2023-03-14T15:13:42Z","incident_modified_time_utc":"2022-07-27T20:15:01Z","containment_time_utc":"2022-07-28T01:00:00Z","control_time_utc":"2022-07-28T01:00:00Z","fire_out_time_utc":"2022-07-28T01:00:00Z","fire_cause":"Human","fire_cause_general":"Equipment and vehicle use","map_method":"Hand Sketch","source_dataset":"FFP","unique_fire_identifier":"2022-MTLG52-000144","irwin_id":"{29236C49-36C7-4EC4-983C-33E56D0B7373}","global_id":"b6fb9c81-b23e-4eef-ab76-f7b510a5ef7b"}},{"type":"Feature","geometry":{"type":"Polygon","coordinates":[[[-104.85309,46.97614],[-104.85351,46.97597],[-104.85442,46.97629],[-104.855,46.976],[-104.85535,46.97604],[-104.85555,46.97631],[-104.85599,46.97635],[-104.8561,46.97647],[-104.85611,46.97677],[-104.85633,46.97711],[-104.85632,46.97749],[-104.85579,46.97816],[-104.85521,46.97824],[-104.85498,46.97802],[-104.85428,46.97776],[-104.8534,46.97675],[-104.85301,46.9765],[-104.85306,46.97631],[-104.85296,46.97624],[-104.85225,46.9763],[-104.85164,46.97592],[-104.85162,46.97575],[-104.85181,46.97563],[-104.85221,46.97564],[-104.85274,46.97608],[-104.85309,46.97614]]]},"properties":{"fire_id":"ufid:2022-MTLG16-000014","source_collection":"history-2022","source_objectid":5224,"incident_name":"Sleeping Deer - Dawson","mapped_acres":10.93,"mapped_acres_source":"poly_GISAcres","gis_acres":10.93,"auto_acres":10.933103333567802,"reported_acres":10.9,"percent_contained":null,"state":"MT","state_wfigs":"US-MT","county":"Dawson","discovery_time_utc":"2022-03-16T20:15:00Z","perimeter_time_utc":"2022-08-05T21:12:52Z","perimeter_edit_time_utc":"2023-03-14T15:13:42Z","incident_modified_time_utc":"2022-03-25T16:29:48Z","containment_time_utc":"2022-03-16T23:00:00Z","control_time_utc":"2022-03-16T23:00:00Z","fire_out_time_utc":"2022-03-16T23:00:00Z","fire_cause":"Undetermined","fire_cause_general":"Undetermined","map_method":"Hand Sketch","source_dataset":"FFP","unique_fire_identifier":"2022-MTLG16-000014","irwin_id":"{C6984472-8C21-4072-8E0F-2E5CF7C52836}","global_id":"d604de92-d6fc-4fe5-8a32-068ad2d3386b"}},{"type":"Feature","geometry":{"type":"Polygon","coordinates":[[[-104.38653,45.75253],[-104.38835,45.75347],[-104.3899,45.75401],[-104.39026,45.75455],[-104.39039,45.75503],[-104.38989,45.75524],[-104.38723,45.75494],[-104.38236,45.75372],[-104.38076,45.75292],[-104.3801,45.752],[-104.37918,45.75137],[-104.37916,45.75094],[-104.37964,45.75061],[-104.38239,45.75116],[-104.38272,45.75107],[-104.38272,45.75045],[-104.38299,45.75051],[-104.38476,45.75119],[-104.38653,45.75253]]]},"properties":{"fire_id":"ufid:2022-MTLG42-000140","source_collection":"history-2022","source_objectid":5760,"incident_name":"Hendricks - Carter","mapped_acres":50.0,"mapped_acres_source":"poly_GISAcres","gis_acres":50.0,"auto_acres":52.77973457455173,"reported_acres":52.8,"percent_contained":null,"state":"MT","state_wfigs":"US-MT","county":"Carter","discovery_time_utc":"2022-07-20T23:00:00Z","perimeter_time_utc":"2022-08-11T17:16:14Z","perimeter_edit_time_utc":"2023-03-14T15:13:42Z","incident_modified_time_utc":"2022-07-27T16:59:35Z","containment_time_utc":"2022-07-21T04:00:00Z","control_time_utc":"2022-07-21T04:00:00Z","fire_out_time_utc":"2022-07-21T04:00:00Z","fire_cause":"Human","fire_cause_general":"Equipment and vehicle use","map_method":"GPS-Walked","source_dataset":"FFP","unique_fire_identifier":"2022-MTLG42-000140","irwin_id":"{9771C6A5-498B-4BA6-AB58-7B9ADFBA1E76}","global_id":"32d3724f-c32d-4dec-a3cd-4112ae21cf27"}},{"type":"Feature","geometry":{"type":"Polygon","coordinates":[[[-104.79824,47.04424],[-104.79813,47.04474],[-104.79769,47.04463],[-104.7974,47.04422],[-104.79731,47.04382],[-104.79764,47.04352],[-104.79792,47.04365],[-104.79824,47.04424]]]},"properties":{"fire_id":"ufid:2022-MTLG16-000128","source_collection":"history-2022","source_objectid":6256,"incident_name":"Canal - Dawson","mapped_acres":1.0,"mapped_acres_source":"poly_GISAcres","gis_acres":1.0,"auto_acres":1.5768479925298589,"reported_acres":1.6,"percent_contained":null,"state":"MT","state_wfigs":"US-MT","county":"Dawson","discovery_time_utc":"2022-07-11T20:10:00Z","perimeter_time_utc":"2022-07-26T21:49:30Z","perimeter_edit_time_utc":"2023-03-14T15:13:42Z","incident_modified_time_utc":"2022-07-26T21:46:06Z","containment_time_utc":"2022-07-11T23:00:00Z","control_time_utc":"2022-07-11T23:00:00Z","fire_out_time_utc":"2022-07-11T23:00:00Z","fire_cause":"Human","fire_cause_general":"Equipment and vehicle use","map_method":"Hand Sketch","source_dataset":"FFP","unique_fire_identifier":"2022-MTLG16-000128","irwin_id":"{1AB6A429-C181-45BE-8BB4-F59E858DFFA7}","global_id":"82917ebd-734c-4be5-874a-6dc8e1ef0811"}},{"type":"Feature","geometry":{"type":"Polygon","coordinates":[[[-104.87324,46.96141],[-104.87428,46.96175],[-104.87527,46.96241],[-104.8755,46.96231],[-104.87564,46.96242],[-104.87503,46.96296],[-104.87509,46.96271],[-104.87387,46.9634],[-104.87322,46.96332],[-104.87249,46.96292],[-104.87262,46.96219],[-104.87289,46.96163],[-104.87324,46.96141]]]},"properties":{"fire_id":"ufid:2022-MTLG16-000269","source_collection":"history-2022","source_objectid":6274,"incident_name":"Red Tooth - Dawson","mapped_acres":7.7,"mapped_acres_source":"poly_GISAcres","gis_acres":7.7,"auto_acres":7.67924236482053,"reported_acres":7.7,"percent_contained":null,"state":"MT","state_wfigs":"US-MT","county":"Dawson","discovery_time_utc":"2022-08-28T18:42:00Z","perimeter_time_utc":"2022-09-02T21:21:48Z","perimeter_edit_time_utc":"2023-03-14T15:13:42Z","incident_modified_time_utc":"2022-08-29T15:59:17Z","containment_time_utc":"2022-08-28T22:00:00Z","control_time_utc":"2022-08-28T22:00:00Z","fire_out_time_utc":"2022-08-28T22:00:00Z","fire_cause":"Undetermined","fire_cause_general":"Undetermined","map_method":"GPS-Walked","source_dataset":"FFP","unique_fire_identifier":"2022-MTLG16-000269","irwin_id":"{7848C520-89CA-4175-A216-AD3133E5C824}","global_id":"67a4664f-9acb-42b1-963e-d70733cc7d29"}},{"type":"Feature","geometry":{"type":"Polygon","coordinates":[[[-104.93765,47.34304],[-104.93745,47.34328],[-104.93647,47.34318],[-104.93629,47.343],[-104.93646,47.34282],[-104.93628,47.34259],[-104.93683,47.3426],[-104.93707,47.34248],[-104.93734,47.34259],[-104.9376,47.34281],[-104.93765,47.34304]]]},"properties":{"fire_id":"ufid:2022-MTLG16-000125","source_collection":"history-2022","source_objectid":6494,"incident_name":"Hilltop - Dawson","mapped_acres":1.7,"mapped_acres_source":"poly_GISAcres","gis_acres":1.7,"auto_acres":1.6644092287588914,"reported_acres":1.7,"percent_contained":null,"state":"MT","state_wfigs":"US-MT","county":"Dawson","discovery_time_utc":"2022-07-11T22:31:00Z","perimeter_time_utc":"2022-07-26T21:56:03Z","perimeter_edit_time_utc":"2023-03-14T15:13:42Z","incident_modified_time_utc":"2022-07-26T21:53:23Z","containment_time_utc":"2022-07-12T02:00:00Z","control_time_utc":"2022-07-12T02:00:00Z","fire_out_time_utc":"2022-07-12T02:00:00Z","fire_cause":"Human","fire_cause_general":"Equipment and vehicle use","map_method":"Hand Sketch","source_dataset":"FFP","unique_fire_identifier":"2022-MTLG16-000125","irwin_id":"{1CFF1F39-BB77-4533-B230-0267C84CE72B}","global_id":"080798d0-ebca-4993-a444-bb6d11f4b0c7"}},{"type":"Feature","geometry":{"type":"Polygon","coordinates":[[[-104.53018,47.2972],[-104.53029,47.29706],[-104.53049,47.29714],[-104.53038,47.29736],[-104.53021,47.29737],[-104.52957,47.29711],[-104.52977,47.29699],[-104.52949,47.29688],[-104.52937,47.29651],[-104.52969,47.29643],[-104.53055,47.29665],[-104.53049,47.29682],[-104.53026,47.2967],[-104.53001,47.29684],[-104.53014,47.29708],[-104.53006,47.29716],[-104.53018,47.2972]]]},"properties":{"fire_id":"ufid:2022-MTLG16-000042","source_collection":"history-2022","source_objectid":8863,"incident_name":"Short Leg - Dawson","mapped_acres":1.2,"mapped_acres_source":"poly_GISAcres","gis_acres":1.2,"auto_acres":1.2035554835600963,"reported_acres":1.21,"percent_contained":null,"state":"MT","state_wfigs":"US-MT","county":"Dawson","discovery_time_utc":"2022-04-25T17:37:00Z","perimeter_time_utc":"2022-08-05T20:45:59Z","perimeter_edit_time_utc":"2023-03-14T15:13:42Z","incident_modified_time_utc":"2022-05-09T15:57:11Z","containment_time_utc":"2022-04-25T20:30:00Z","control_time_utc":"2022-04-25T20:30:00Z","fire_out_time_utc":"2022-04-25T20:30:00Z","fire_cause":"Human","fire_cause_general":"Power generation / transmission / distribution","map_method":"Hand Sketch","source_dataset":"FFP","unique_fire_identifier":"2022-MTLG16-000042","irwin_id":"{33C3F64F-08BC-4CE0-B736-068E28498996}","global_id":"cd3c1112-4560-44f3-aa7f-ae5ef0a8d13d"}},{"type":"Feature","geometry":{"type":"Polygon","coordinates":[[[-104.43137,47.3695],[-104.43069,47.36885],[-104.43116,47.36855],[-104.43166,47.3694],[-104.43137,47.3695]]]},"properties":{"fire_id":"ufid:2022-MTLG27-000177","source_collection":"history-2022","source_objectid":9791,"incident_name":"Arc - Richland","mapped_acres":1.05,"mapped_acres_source":"poly_GISAcres","gis_acres":1.05,"auto_acres":1.04901356637229,"reported_acres":null,"percent_contained":null,"state":"MT","state_wfigs":"US-MT","county":"Richland","discovery_time_utc":"2022-07-31T06:26:00Z","perimeter_time_utc":"2022-08-11T19:42:12Z","perimeter_edit_time_utc":"2023-03-14T15:13:42Z","incident_modified_time_utc":"2022-08-11T19:19:02Z","containment_time_utc":"2022-07-31T08:00:00Z","control_time_utc":"2022-07-31T08:00:00Z","fire_out_time_utc":"2022-07-31T08:00:00Z","fire_cause":"Human","fire_cause_general":null,"map_method":"Hand Sketch","source_dataset":"Decertified","unique_fire_identifier":"2022-MTLG27-000177","irwin_id":"{D1395C5D-591F-4BE1-812B-15D806FF0D9B}","global_id":"6d266d9a-7e60-4cd9-a418-a869593eb394"}},{"type":"Feature","geometry":{"type":"Polygon","coordinates":[[[-104.57406,47.54089],[-104.57176,47.53991],[-104.57199,47.53865],[-104.57219,47.53842],[-104.57192,47.53793],[-104.572,47.53779],[-104.57254,47.53775],[-104.57419,47.53846],[-104.57426,47.5396],[-104.57406,47.54089]]]},"properties":{"fire_id":"ufid:2022-MTLG27-000178","source_collection":"history-2022","source_objectid":10721,"incident_name":"Christening - Richland","mapped_acres":11.4,"mapped_acres_source":"poly_GISAcres","gis_acres":11.4,"auto_acres":11.374794438886287,"reported_acres":11.4,"percent_contained":null,"state":"MT","state_wfigs":"US-MT","county":"Richland","discovery_time_utc":"2022-08-01T06:24:00Z","perimeter_time_utc":"2022-08-11T19:30:22Z","perimeter_edit_time_utc":"2023-03-14T15:13:42Z","incident_modified_time_utc":"2022-08-02T16:25:49Z","containment_time_utc":"2022-08-01T08:00:00Z","control_time_utc":"2022-08-01T08:00:00Z","fire_out_time_utc":"2022-08-01T08:00:00Z","fire_cause":"Human","fire_cause_general":"Equipment and vehicle use","map_method":"Hand Sketch","source_dataset":"FFP","unique_fire_identifier":"2022-MTLG27-000178","irwin_id":"{2FC93D73-4FBC-47F7-B660-9C7295B47354}","global_id":"ea65ce3f-53e3-46dd-bdf4-82df23fdd142"}},{"type":"Feature","geometry":{"type":"Polygon","coordinates":[[[-104.39005,45.66571],[-104.38971,45.66538],[-104.38979,45.66513],[-104.39008,45.66493],[-104.39021,45.66512],[-104.39005,45.66571]]]},"properties":{"fire_id":"ufid:2022-MTMCD-000127","source_collection":"history-2022","source_objectid":11675,"incident_name":"Rock","mapped_acres":0.5,"mapped_acres_source":"poly_GISAcres","gis_acres":0.5,"auto_acres":0.5453031693796295,"reported_acres":0.6,"percent_contained":null,"state":"MT","state_wfigs":"US-MT","county":"Carter","discovery_time_utc":"2022-07-23T17:31:00Z","perimeter_time_utc":"2022-08-12T13:53:52Z","perimeter_edit_time_utc":"2023-03-14T15:13:42Z","incident_modified_time_utc":"2022-08-11T16:26:09Z","containment_time_utc":"2022-07-23T19:32:00Z","control_time_utc":"2022-07-23T21:53:00Z","fire_out_time_utc":"2022-08-11T14:00:00Z","fire_cause":"Human","fire_cause_general":"Equipment and vehicle use","map_method":"GPS-Walked","source_dataset":"FFP","unique_fire_identifier":"2022-MTMCD-000127","irwin_id":"{2DDEEEC6-66A0-45DC-8121-AAAB590F47CD}","global_id":"e3d039f5-c46b-4a6d-89a8-48fb3fc9329b"}},{"type":"Feature","geometry":{"type":"Polygon","coordinates":[[[-104.20511,46.87243],[-104.20523,46.87259],[-104.20496,46.87263],[-104.2049,46.87243],[-104.20511,46.87243]]]},"properties":{"fire_id":"ufid:2022-MTLG52-000250","source_collection":"history-2022","source_objectid":12345,"incident_name":"Red Top - Wibaux","mapped_acres":0.2,"mapped_acres_source":"poly_GISAcres","gis_acres":0.2,"auto_acres":0.14900492287096564,"reported_acres":0.2,"percent_contained":null,"state":"MT","state_wfigs":"US-MT","county":"Wibaux","discovery_time_utc":"2022-08-24T22:33:10Z","perimeter_time_utc":"2022-09-02T19:48:38Z","perimeter_edit_time_utc":"2023-03-14T15:13:42Z","incident_modified_time_utc":"2022-09-02T19:35:41Z","containment_time_utc":"2022-08-25T01:30:00Z","control_time_utc":"2022-08-25T01:30:00Z","fire_out_time_utc":"2022-08-25T01:30:00Z","fire_cause":"Natural","fire_cause_general":"Natural","map_method":"Hand Sketch","source_dataset":"FFP","unique_fire_identifier":"2022-MTLG52-000250","irwin_id":"{4C2C9D41-7FE6-4AC6-9702-0367E470EB28}","global_id":"a5197e67-ce3d-46fe-b1d6-7e841b219956"}},{"type":"Feature","geometry":{"type":"Polygon","coordinates":[[[-104.96024,45.91733],[-104.96031,45.91754],[-104.96104,45.9178],[-104.96172,45.91844],[-104.96247,45.91959],[-104.96279,45.91979],[-104.96357,45.9208],[-104.96382,45.92169],[-104.96467,45.92286],[-104.96468,45.92309],[-104.96519,45.92397],[-104.96513,45.92463],[-104.9649,45.92469],[-104.96486,45.92499],[-104.96501,45.92526],[-104.96579,45.92586],[-104.96569,45.92597],[-104.96521,45.92563],[-104.96514,45.92575],[-104.96661,45.92731],[-104.96612,45.92731],[-104.9657,45.92697],[-104.96554,45.92716],[-104.9653,45.9272],[-104.96461,45.92701],[-104.96451,45.92726],[-104.9642,45.9273],[-104.96509,45.92825],[-104.96544,45.92846],[-104.96533,45.92862],[-104.9647,45.92852],[-104.96438,45.92862],[-104.96385,45.92844],[-104.96367,45.92871],[-104.96314,45.92869],[-104.96314,45.92826],[-104.96355,45.92793],[-104.96358,45.92749],[-104.96308,45.92745],[-104.96291,45.92691],[-104.96225,45.92643],[-104.96022,45.92597],[-104.95983,45.92571],[-104.9599,45.92527],[-104.95929,45.92464],[-104.95854,45.9245],[-104.95822,45.92427],[-104.95816,45.92391],[-104.95855,45.92366],[-104.95799,45.92195],[-104.95761,45.92144],[-104.95752,45.92082],[-104.95767,45.9203],[-104.95762,45.91902],[-104.95794,45.91793],[-104.95823,45.91754],[-104.958,45.91737],[-104.95881,45.91714],[-104.95993,45.91718],[-104.96024,45.91733]]]},"properties":{"fire_id":"ufid:2022-MTLG14-000259","source_collection":"history-2022","source_objectid":13016,"incident_name":"Skunk Creek","mapped_acres":300.0,"mapped_acres_source":"poly_GISAcres","gis_acres":300.0,"auto_acres":114.19840450009569,"reported_acres":114.2,"percent_contained":null,"state":"MT","state_wfigs":"US-MT","county":"Custer","discovery_time_utc":"2022-08-27T01:59:00Z","perimeter_time_utc":"2022-11-09T20:44:45Z","perimeter_edit_time_utc":"2023-03-14T15:13:42Z","incident_modified_time_utc":"2022-09-22T17:17:25Z","containment_time_utc":"2022-08-27T13:45:00Z","control_time_utc":"2022-08-27T16:00:00Z","fire_out_time_utc":"2022-09-22T14:00:00Z","fire_cause":"Natural","fire_cause_general":"Natural","map_method":"Hand Sketch","source_dataset":"FFP","unique_fire_identifier":"2022-MTLG14-000259","irwin_id":"{AAC2857C-ACED-4197-BBB0-9130ADB52CED}","global_id":"1244092e-6566-4d5e-bad2-bb65030f0fb4"}},{"type":"Feature","geometry":{"type":"Polygon","coordinates":[[[-104.42751,46.27057],[-104.42747,46.26954],[-104.42759,46.2689],[-104.42763,46.27057],[-104.42751,46.27057]]]},"properties":{"fire_id":"ufid:2022-MTLG39-000087","source_collection":"history-2022","source_objectid":13166,"incident_name":"Division Ditch - Fallon","mapped_acres":0.4,"mapped_acres_source":"poly_GISAcres","gis_acres":0.4,"auto_acres":0.3512658786510849,"reported_acres":0.4,"percent_contained":null,"state":"MT","state_wfigs":"US-MT","county":"Fallon","discovery_time_utc":"2022-06-29T23:30:00Z","perimeter_time_utc":"2022-07-26T18:24:27Z","perimeter_edit_time_utc":"2023-03-14T15:13:42Z","incident_modified_time_utc":"2022-07-08T13:35:05Z","containment_time_utc":"2022-06-30T02:00:00Z","control_time_utc":"2022-06-30T02:00:00Z","fire_out_time_utc":"2022-06-30T02:00:00Z","fire_cause":"Human","fire_cause_general":"Equipment and vehicle use","map_method":"Hand Sketch","source_dataset":"FFP","unique_fire_identifier":"2022-MTLG39-000087","irwin_id":"{A9495CCF-375E-4FAA-99F7-C7345FD71E8D}","global_id":"3a7adcd3-5903-4763-acd9-918c4476c094"}},{"type":"Feature","geometry":{"type":"Polygon","coordinates":[[[-104.29942,46.27222],[-104.29918,46.2725],[-104.29846,46.27227],[-104.29844,46.2724],[-104.29756,46.2728],[-104.29753,46.27291],[-104.29728,46.27288],[-104.29722,46.27262],[-104.29683,46.27241],[-104.29659,46.27254],[-104.29659,46.27232],[-104.29626,46.27181],[-104.29586,46.27177],[-104.29465,46.27041],[-104.29472,46.27026],[-104.29451,46.26988],[-104.29344,46.26845],[-104.29346,46.26801],[-104.29325,46.26765],[-104.29329,46.2675],[-104.29849,46.27129],[-104.29942,46.27222]]]},"properties":{"fire_id":"ufid:2022-MTLG39-000284","source_collection":"history-2022","source_objectid":13438,"incident_name":"Transfer Case - Fallon","mapped_acres":21.9,"mapped_acres_source":"poly_GISAcres","gis_acres":21.9,"auto_acres":21.858017779592327,"reported_acres":21.9,"percent_contained":null,"state":"MT","state_wfigs":"US-MT","county":"Fallon","discovery_time_utc":"2022-09-03T19:47:00Z","perimeter_time_utc":"2022-09-22T18:35:50Z","perimeter_edit_time_utc":"2023-03-14T15:13:42Z","incident_modified_time_utc":"2022-09-06T14:39:12Z","containment_time_utc":"2022-09-04T00:00:00Z","control_time_utc":"2022-09-04T00:00:00Z","fire_out_time_utc":"2022-09-04T00:00:00Z","fire_cause":"Human","fire_cause_general":"Equipment and vehicle use","map_method":"Hand Sketch","source_dataset":"FFP","unique_fire_identifier":"2022-MTLG39-000284","irwin_id":"{773D1D22-04C1-433F-BE42-A00C5BB44085}","global_id":"d761d4e3-d43a-4d52-bdf9-b08af6780997"}},{"type":"Feature","geometry":{"type":"Polygon","coordinates":[[[-104.89998,47.18866],[-104.89955,47.18822],[-104.89995,47.18775],[-104.89973,47.18728],[-104.89805,47.18648],[-104.89793,47.18629],[-104.89817,47.18608],[-104.8981,47.18588],[-104.8977,47.18567],[-104.89717,47.18566],[-104.89729,47.18544],[-104.89724,47.18524],[-104.89677,47.18507],[-104.89654,47.1848],[-104.89588,47.1846],[-104.89523,47.18476],[-104.8948,47.18404],[-104.89434,47.18391],[-104.89421,47.18363],[-104.8937,47.18346],[-104.89319,47.18301],[-104.88214,47.17921],[-104.88061,47.1785],[-104.87881,47.178],[-104.87857,47.17788],[-104.87845,47.17751],[-104.8774,47.17712],[-104.87674,47.17712],[-104.87669,47.17683],[-104.87611,47.17684],[-104.8752,47.17664],[-104.87276,47.17595],[-104.87241,47.17557],[-104.87217,47.17556],[-104.87192,47.17523],[-104.86945,47.17418],[-104.86881,47.17363],[-104.86822,47.1735],[-104.86721,47.1728],[-104.86845,47.17291],[-104.87056,47.17386],[-104.87199,47.17484],[-104.87218,47.17521],[-104.87216,47.17553],[-104.87227,47.17553],[-104.87229,47.17502],[-104.87273,47.17448],[-104.8739,47.17403],[-104.87435,47.17407],[-104.87393,47.17367],[-104.87392,47.17326],[-104.8743,47.17272],[-104.87418,47.17233],[-104.87428,47.17226],[-104.87458,47.17272],[-104.87456,47.17328],[-104.87604,47.17418],[-104.87651,47.17434],[-104.87677,47.17458],[-104.87673,47.17495],[-104.87711,47.17531],[-104.87728,47.17543],[-104.8777,47.1754],[-104.87873,47.17615],[-104.87896,47.17661],[-104.87907,47.17661],[-104.88016,47.17461],[-104.88033,47.1735],[-104.88082,47.17248],[-104.88095,47.17157],[-104.8806,47.17107],[-104.88093,47.17075],[-104.88101,47.17041],[-104.88079,47.17027],[-104.88011,47.17033],[-104.87837,47.17011],[-104.87597,47.17019],[-104.87521,47.16993],[-104.87501,47.1697],[-104.87524,47.16911],[-104.87486,47.16833],[-104.87489,47.16789],[-104.87472,47.16738],[-104.87526,47.16671],[-104.87741,47.1677],[-104.88004,47.1693],[-104.88069,47.16953],[-104.88109,47.16992],[-104.8828,47.1703],[-104.88343,47.17054],[-104.88369,47.17088],[-104.88498,47.17126],[-104.88714,47.17286],[-104.8878,47.17359],[-104.88768,47.17394],[-104.88781,47.17406],[-104.88818,47.17407],[-104.88875,47.17314],[-104.8888,47.17275],[-104.88905,47.17264],[-104.89131,47.17388],[-104.89154,47.1743],[-104.89225,47.17442],[-104.89315,47.17489],[-104.89395,47.17568],[-104.89441,47.17645],[-104.89488,47.17667],[-104.89497,47.17692],[-104.89553,47.17698],[-104.89768,47.17891],[-104.89811,47.17955],[-104.89812,47.18024],[-104.89911,47.18093],[-104.89947,47.18147],[-104.90026,47.18138],[-104.90146,47.18154],[-104.90167,47.18141],[-104.90225,47.18166],[-104.90282,47.18216],[-104.90363,47.18238],[-104.90487,47.183],[-104.9056,47.18318],[-104.90598,47.18372],[-104.90704,47.18424],[-104.9076,47.18485],[-104.9086,47.18501],[-104.90864,47.18515],[-104.90841,47.18532],[-104.90843,47.18546],[-104.91071,47.18689],[-104.91446,47.19004],[-104.91535,47.19051],[-104.91693,47.19197],[-104.91713,47.1922],[-104.91717,47.19288],[-104.91679,47.19324],[-104.91719,47.19352],[-104.91706,47.19377],[-104.91724,47.19371],[-104.91746,47.19338],[-104.91749,47.19051],[-104.91759,47.19039],[-104.91785,47.19096],[-104.91869,47.19171],[-104.91918,47.1918],[-104.91938,47.19202],[-104.9201,47.19195],[-104.92057,47.1923],[-104.92068,47.19221],[-104.92115,47.19262],[-104.92135,47.19261],[-104.92176,47.19328],[-104.92215,47.1935],[-104.92254,47.19404],[-104.92257,47.19418],[-104.92236,47.19436],[-104.92233,47.19478],[-104.92254,47.19502],[-104.92282,47.19506],[-104.92308,47.19493],[-104.92337,47.19516],[-104.92358,47.19584],[-104.92346,47.19646],[-104.92374,47.19655],[-104.92394,47.19707],[-104.92352,47.1973],[-104.92341,47.19762],[-104.92297,47.19783],[-104.91861,47.19803],[-104.9158,47.19598],[-104.91499,47.1956],[-104.91451,47.19494],[-104.91338,47.19488],[-104.91157,47.19412],[-104.90877,47.19323],[-104.90619,47.19277],[-104.90606,47.1924],[-104.90614,47.19208],[-104.90582,47.19191],[-104.90562,47.19161],[-104.90499,47.19159],[-104.90447,47.19129],[-104.90443,47.19107],[-104.90422,47.19093],[-104.9044,47.19067],[-104.90435,47.19054],[-104.90406,47.19026],[-104.90338,47.18999],[-104.90203,47.18975],[-104.90183,47.18948],[-104.89998,47.18866]]]},"properties":{"fire_id":"ufid:2022-MTLG16-000021","source_collection":"history-2022","source_objectid":13752,"incident_name":"Lindsay - Dawson","mapped_acres":715.0,"mapped_acres_source":"poly_GISAcres","gis_acres":715.0,"auto_acres":716.5684274943729,"reported_acres":715.0,"percent_contained":null,"state":"MT","state_wfigs":"US-MT","county":"Dawson","discovery_time_utc":"2022-03-31T18:45:00Z","perimeter_time_utc":"2022-08-05T21:09:09Z","perimeter_edit_time_utc":"2023-03-14T15:13:42Z","incident_modified_time_utc":"2022-05-09T15:24:54Z","containment_time_utc":"2022-04-01T03:00:00Z","control_time_utc":"2022-04-01T03:00:00Z","fire_out_time_utc":"2022-04-01T03:00:00Z","fire_cause":"Human","fire_cause_general":"Power generation / transmission / distribution","map_method":"Hand Sketch","source_dataset":"FFP","unique_fire_identifier":"2022-MTLG16-000021","irwin_id":"{A7AF213A-597C-4124-ABB8-4C8AF755D399}","global_id":"73975122-dadb-4444-93be-0525dc1bd6b8"}}]}
