{"type":"FeatureCollection","features":[{"type":"Feature","geometry":{"type":"Polygon","coordinates":[[[-76.42199,35.66577],[-76.42612,35.64843],[-76.42793,35.6489],[-76.42827,35.64929],[-76.42844,35.64978],[-76.42828,35.65016],[-76.42884,35.65048],[-76.4291,35.65155],[-76.42939,35.65184],[-76.43083,35.65203],[-76.43153,35.65262],[-76.43182,35.65271],[-76.43201,35.653],[-76.43198,35.65368],[-76.43212,35.6538],[-76.43288,35.65355],[-76.43344,35.65413],[-76.43362,35.65456],[-76.43581,35.65478],[-76.43586,35.65512],[-76.43547,35.65585],[-76.4359,35.65593],[-76.43616,35.65616],[-76.4364,35.65693],[-76.4367,35.65733],[-76.43699,35.65849],[-76.43689,35.65909],[-76.43716,35.65912],[-76.43823,35.65972],[-76.4388,35.66055],[-76.43872,35.66136],[-76.4394,35.66218],[-76.43943,35.66259],[-76.4401,35.66421],[-76.43994,35.66481],[-76.44014,35.66508],[-76.43814,35.67338],[-76.43783,35.6755],[-76.43591,35.68409],[-76.43229,35.69884],[-76.42656,35.69867],[-76.41468,35.69782],[-76.42089,35.67114],[-76.42155,35.6677],[-76.42132,35.66762],[-76.42156,35.66618],[-76.42199,35.66577]]]},"properties":{"fire_id":"ufid:2022-NCNCS-220039","source_collection":"history-2022","source_objectid":1651,"incident_name":"Ferebee","mapped_acres":1937.95230974555,"mapped_acres_source":"poly_GISAcres","gis_acres":1937.95230974555,"auto_acres":1937.94805276349,"reported_acres":1938.0,"percent_contained":100.0,"state":"NC","state_wfigs":"US-NC","county":"Hyde","discovery_time_utc":"2022-06-19T15:30:00Z","perimeter_time_utc":"2022-06-19T20:30:00Z","perimeter_edit_time_utc":"2022-06-27T13:46:54Z","incident_modified_time_utc":"2022-07-10T22:28:30Z","containment_time_utc":null,"control_time_utc":null,"fire_out_time_utc":null,"fire_cause":"Natural","fire_cause_general":null,"map_method":"Mixed Methods","source_dataset":"2022 NIFS","unique_fire_identifier":"2022-NCNCS-220039","irwin_id":"{FF845212-7195-428F-88B5-1E904EA26003}","global_id":"ab6a1df0-75cb-4a2e-bcd1-fc7ff46cf056"}}]}
