{"type":"FeatureCollection","features":[{"type":"Feature","geometry":{"type":"Polygon","coordinates":[[[-71.13864,44.40424],[-71.14092,44.40418],[-71.14149,44.40433],[-71.14197,44.40482],[-71.14296,44.40499],[-71.14284,44.40563],[-71.14268,44.40585],[-71.14229,44.40601],[-71.14181,44.40601],[-71.14181,44.40577],[-71.14163,44.40568],[-71.14136,44.40603],[-71.14092,44.40615],[-71.14087,44.40638],[-71.14029,44.40599],[-71.14007,44.40619],[-71.13956,44.40632],[-71.13962,44.40643],[-71.1394,44.40647],[-71.13921,44.40675],[-71.13891,44.40663],[-71.1388,44.40665],[-71.13882,44.4068],[-71.13833,44.40691],[-71.13843,44.40699],[-71.13839,44.40729],[-71.13865,44.40745],[-71.13861,44.40756],[-71.13838,44.40748],[-71.13815,44.4076],[-71.13804,44.40776],[-71.13812,44.40796],[-71.13873,44.40825],[-71.13976,44.40812],[-71.14012,44.40826],[-71.13887,44.4087],[-71.13897,44.40888],[-71.13878,44.40897],[-71.13906,44.40913],[-71.13875,44.40949],[-71.13836,44.40954],[-71.138,44.40935],[-71.13712,44.40962],[-71.13645,44.40944],[-71.13651,44.40927],[-71.1363,44.40904],[-71.13556,44.40881],[-71.13601,44.40819],[-71.13612,44.40773],[-71.13549,44.40716],[-71.13539,44.40646],[-71.13594,44.40605],[-71.13574,44.40549],[-71.13641,44.40522],[-71.13621,44.40492],[-71.13731,44.40466],[-71.13748,44.40449],[-71.13766,44.40456],[-71.13847,44.40424],[-71.13847,44.4041],[-71.13864,44.40424]]]},"properties":{"fire_id":"ufid:2022-NHWMF-000074","source_collection":"history-2022","source_objectid":4757,"incident_name":"Centennial","mapped_acres":46.1982,"mapped_acres_source":"poly_GISAcres","gis_acres":46.1982,"auto_acres":46.19803275959167,"reported_acres":45.86,"percent_contained":null,"state":"NH","state_wfigs":"US-NH","county":"Coos","discovery_time_utc":"2022-05-09T13:49:00Z","perimeter_time_utc":"2022-10-27T12:37:51Z","perimeter_edit_time_utc":"2023-03-14T15:13:42Z","incident_modified_time_utc":"2022-05-23T12:50:16Z","containment_time_utc":"2022-05-14T16:34:00Z","control_time_utc":"2022-05-14T16:34:00Z","fire_out_time_utc":"2022-05-20T20:15:00Z","fire_cause":"Human","fire_cause_general":"Other causes","map_method":"GPS-Walked","source_dataset":"FFP","unique_fire_identifier":"2022-NHWMF-000074","irwin_id":"{9E16237C-03BE-4BD9-8FCE-7C47F2786530}","global_id":"80e82069-d6a7-41a3-978b-53c5ce00d85f"}},{"type":"Feature","geometry":{"type":"MultiPolygon","coordinates":[[[[-71.70758,44.33776],[-71.70762,44.33714],[-71.70901,44.33714],[-71.70831,44.338],[-71.70796,44.33799],[-71.70791,44.33773],[-71.70758,44.33776]],[[-71.70818,44.33771],[-71.70784,44.33733],[-71.70791,44.33773],[-71.70818,44.33771]],[[-71.70828,44.33782],[-71.70851,44.33769],[-71.70818,44.33771],[-71.70828,44.33782]]],[[[-71.70756,44.33804],[-71.70734,44.33808],[-71.70736,44.33784],[-71.70758,44.33776],[-71.70756,44.33804]]]]},"properties":{"fire_id":"ufid:2022-NHNHS-000049","source_collection":"history-2022","source_objectid":8995,"incident_name":"2022-NHNHS-000049","mapped_acres":1.3,"mapped_acres_source":"poly_GISAcres","gis_acres":1.3,"auto_acres":1.7581312045845519,"reported_acres":1.3,"percent_contained":null,"state":"NH","state_wfigs":"US-NH","county":"Grafton","discovery_time_utc":"2022-06-26T17:00:26Z","perimeter_time_utc":"2022-12-19T20:41:46Z","perimeter_edit_time_utc":"2023-03-14T15:13:42Z","incident_modified_time_utc":"2022-06-29T17:13:08Z","containment_time_utc":"2022-06-27T00:00:00Z","control_time_utc":"2022-06-27T20:00:00Z","fire_out_time_utc":"2022-06-28T13:00:00Z","fire_cause":"Human","fire_cause_general":"Firearms and explosives use","map_method":"GPS-Walked","source_dataset":"FFP","unique_fire_identifier":"2022-NHNHS-000049","irwin_id":"{6D6F6489-D5A9-44AD-A75B-8F8F6733C781}","global_id":"ab12454a-04b4-4a47-b002-701e9c40eda5"}},{"type":"Feature","geometry":{"type":"MultiPolygon","coordinates":[[[[-71.37438,44.15165],[-71.37452,44.15214],[-71.3744,44.15228],[-71.37451,44.15246],[-71.37423,44.15305],[-71.37434,44.15316],[-71.37346,44.15375],[-71.37403,44.15384],[-71.37413,44.15392],[-71.37395,44.1541],[-71.37283,44.15357],[-71.37267,44.15337],[-71.37277,44.15319],[-71.37249,44.15284],[-71.37256,44.15269],[-71.37243,44.15265],[-71.3724,44.15246],[-71.37179,44.15253],[-71.37197,44.15291],[-71.37185,44.15298],[-71.37108,44.15291],[-71.37113,44.15335],[-71.37127,44.15336],[-71.37121,44.15356],[-71.37097,44.15351],[-71.371,44.15375],[-71.37089,44.1538],[-71.37043,44.15376],[-71.36974,44.1534],[-71.36968,44.1532],[-71.36982,44.15299],[-71.3694,44.15305],[-71.36929,44.1534],[-71.36917,44.15349],[-71.36902,44.15342],[-71.36881,44.15363],[-71.36868,44.15342],[-71.36845,44.15385],[-71.36833,44.15382],[-71.36839,44.15356],[-71.36825,44.15355],[-71.36831,44.15318],[-71.3682,44.15325],[-71.36826,44.15315],[-71.36811,44.15308],[-71.36795,44.15348],[-71.36765,44.15331],[-71.36684,44.15329],[-71.36714,44.15242],[-71.36813,44.15114],[-71.36913,44.14954],[-71.36964,44.14844],[-71.36986,44.1487],[-71.37023,44.14879],[-71.37099,44.1488],[-71.37149,44.14904],[-71.37159,44.14884],[-71.37226,44.14889],[-71.37302,44.1492],[-71.37402,44.15031],[-71.37414,44.15058],[-71.37403,44.1508],[-71.37417,44.15078],[-71.37419,44.15099],[-71.37409,44.15134],[-71.37423,44.15164],[-71.37438,44.15165]]],[[[-71.36872,44.14139],[-71.36786,44.14121],[-71.36718,44.13943],[-71.36746,44.13903],[-71.36816,44.13869],[-71.36823,44.13873],[-71.368,44.13896],[-71.36829,44.13893],[-71.36842,44.13871],[-71.36879,44.13867],[-71.3689,44.13884],[-71.36924,44.13882],[-71.36906,44.1389],[-71.36914,44.139],[-71.36896,44.13903],[-71.36888,44.13928],[-71.36971,44.13907],[-71.36967,44.13883],[-71.36979,44.13887],[-71.3698,44.13872],[-71.36986,44.13881],[-71.36991,44.13867],[-71.3703,44.13862],[-71.37053,44.13845],[-71.37046,44.13823],[-71.37066,44.13818],[-71.37042,44.13807],[-71.37051,44.13769],[-71.37157,44.13706],[-71.37247,44.1369],[-71.37244,44.13702],[-71.37312,44.13701],[-71.37318,44.13717],[-71.37337,44.13721],[-71.37362,44.13703],[-71.37394,44.13701],[-71.37439,44.13738],[-71.37445,44.13772],[-71.37461,44.13778],[-71.37441,44.13789],[-71.37448,44.13805],[-71.37436,44.13817],[-71.3741,44.13802],[-71.37419,44.13833],[-71.37371,44.1383],[-71.37364,44.13808],[-71.37343,44.13815],[-71.37336,44.138],[-71.3732,44.13818],[-71.37303,44.13817],[-71.37295,44.13861],[-71.3732,44.13888],[-71.37325,44.13927],[-71.37186,44.13961],[-71.37161,44.13954],[-71.37156,44.1397],[-71.37131,44.13973],[-71.37126,44.13995],[-71.37108,44.14005],[-71.37072,44.14013],[-71.37042,44.13999],[-71.3704,44.14028],[-71.37081,44.14038],[-71.37089,44.14052],[-71.3705,44.1407],[-71.37032,44.14064],[-71.37021,44.14086],[-71.36999,44.14092],[-71.36972,44.14081],[-71.36985,44.14096],[-71.36947,44.14099],[-71.36962,44.14117],[-71.36951,44.14128],[-71.36906,44.14121],[-71.36872,44.14139]]],[[[-71.36961,44.14753],[-71.36896,44.14612],[-71.36922,44.14502],[-71.37086,44.14534],[-71.37134,44.14528],[-71.37191,44.1454],[-71.37233,44.14524],[-71.37305,44.14529],[-71.37452,44.14582],[-71.37444,44.14614],[-71.37382,44.14636],[-71.37243,44.14651],[-71.37184,44.14684],[-71.37056,44.14668],[-71.36971,44.14723],[-71.36961,44.14753]]]]},"properties":{"fire_id":"ufid:2022-NHNHS-000085","source_collection":"history-2022","source_objectid":14555,"incident_name":"Bemis","mapped_acres":107.091,"mapped_acres_source":"poly_GISAcres","gis_acres":107.091,"auto_acres":107.09059032776123,"reported_acres":107.0,"percent_contained":null,"state":"NH","state_wfigs":"US-NH","county":"Carroll","discovery_time_utc":"2022-05-14T14:59:00Z","perimeter_time_utc":"2022-12-19T20:36:55Z","perimeter_edit_time_utc":"2023-03-14T15:13:42Z","incident_modified_time_utc":"2022-10-27T15:17:24Z","containment_time_utc":"2022-05-20T20:00:00Z","control_time_utc":"2022-07-27T15:15:00Z","fire_out_time_utc":"2022-07-27T15:15:00Z","fire_cause":"Human","fire_cause_general":"Railroad operations and maintenance","map_method":"GPS-Walked","source_dataset":"FFP","unique_fire_identifier":"2022-NHNHS-000085","irwin_id":"{2CC109E9-B715-4D2F-A80C-E4A9C0F9680A}","global_id":"31f1b854-bd58-4894-8236-41798394deff"}}]}
