{"type":"FeatureCollection","features":[{"type":"Feature","geometry":{"type":"Polygon","coordinates":[[[-74.45771,39.9004],[-74.4436,39.89938],[-74.44009,39.89954],[-74.4388,39.89942],[-74.43689,39.90018],[-74.43644,39.90006],[-74.4351,39.9013],[-74.43458,39.90147],[-74.43408,39.90114],[-74.43415,39.89986],[-74.43392,39.89908],[-74.4343,39.8988],[-74.43485,39.89881],[-74.4437,39.89692],[-74.44395,39.89651],[-74.4458,39.89532],[-74.44663,39.89461],[-74.4484,39.89412],[-74.44873,39.89462],[-74.45045,39.8953],[-74.45064,39.89495],[-74.45069,39.89445],[-74.45143,39.8942],[-74.45139,39.89363],[-74.45159,39.89362],[-74.4557,39.89109],[-74.45594,39.89109],[-74.45693,39.89039],[-74.45714,39.89052],[-74.45771,39.89183],[-74.45796,39.89203],[-74.45806,39.89252],[-74.45884,39.89331],[-74.45887,39.89373],[-74.45967,39.89486],[-74.45908,39.89522],[-74.45854,39.89525],[-74.45852,39.8956],[-74.45899,39.89547],[-74.4592,39.89554],[-74.45931,39.89585],[-74.45953,39.89602],[-74.45947,39.89629],[-74.45962,39.89652],[-74.46016,39.89612],[-74.46045,39.89628],[-74.46075,39.89651],[-74.46105,39.89702],[-74.46253,39.89827],[-74.46034,39.89951],[-74.45932,39.89893],[-74.45923,39.89872],[-74.45928,39.89798],[-74.45911,39.89779],[-74.45827,39.89769],[-74.45788,39.89778],[-74.45805,39.89818],[-74.45793,39.89854],[-74.45836,39.89843],[-74.45875,39.89851],[-74.45923,39.8992],[-74.45925,39.89944],[-74.45899,39.89985],[-74.45771,39.9004]]]},"properties":{"fire_id":"ufid:2022-NJNJS-001175","source_collection":"history-2022","source_objectid":13632,"incident_name":"Brickworks","mapped_acres":315.0,"mapped_acres_source":"poly_GISAcres","gis_acres":315.0,"auto_acres":290.40470888878,"reported_acres":315.0,"percent_contained":null,"state":"NJ","state_wfigs":"US-NJ","county":"Ocean","discovery_time_utc":"2022-06-26T18:00:00Z","perimeter_time_utc":"2022-06-26T23:00:00Z","perimeter_edit_time_utc":"2022-12-19T17:07:08Z","incident_modified_time_utc":"2022-06-27T19:42:18Z","containment_time_utc":"2022-06-27T14:00:00Z","control_time_utc":"2022-06-27T14:00:00Z","fire_out_time_utc":"2022-06-27T14:00:00Z","fire_cause":"Undetermined","fire_cause_general":null,"map_method":"Image Interpretation","source_dataset":"2022 NIFS","unique_fire_identifier":"2022-NJNJS-001175","irwin_id":"{4B5E0861-E158-4277-8125-94268DC1BDC6}","global_id":"464f777a-06b0-4f45-b267-5e76613fadad"}},{"type":"Feature","geometry":{"type":"MultiPolygon","coordinates":[[[[-74.66544,39.64914],[-74.66468,39.6491],[-74.66457,39.64844],[-74.664,39.6482],[-74.66388,39.64797],[-74.66283,39.64792],[-74.66202,39.64767],[-74.66184,39.64731],[-74.66185,39.64694],[-74.66136,39.64662],[-74.66149,39.6464],[-74.66131,39.64631],[-74.66086,39.64645],[-74.66046,39.64613],[-74.6604,39.64569],[-74.65969,39.64515],[-74.6598,39.64497],[-74.65969,39.64479],[-74.65996,39.64467],[-74.66,39.64443],[-74.66023,39.64419],[-74.66052,39.64443],[-74.66068,39.64499],[-74.66079,39.64499],[-74.66083,39.64479],[-74.66107,39.64476],[-74.66128,39.64488],[-74.66122,39.64506],[-74.66211,39.64496],[-74.66213,39.64522],[-74.66257,39.64519],[-74.66263,39.64569],[-74.66249,39.64604],[-74.66257,39.64618],[-74.66272,39.64602],[-74.66293,39.64604],[-74.66282,39.64658],[-74.66317,39.64694],[-74.66305,39.64727],[-74.66396,39.64748],[-74.66421,39.6479],[-74.66452,39.64802],[-74.66505,39.6485],[-74.66545,39.64855],[-74.66547,39.64868],[-74.66526,39.64883],[-74.66535,39.64896],[-74.66562,39.64891],[-74.66609,39.64921],[-74.6658,39.6494],[-74.66544,39.64914]]],[[[-74.6499,39.6562],[-74.64972,39.6562],[-74.64969,39.65611],[-74.6499,39.6562]]],[[[-74.66071,39.65817],[-74.66014,39.6579],[-74.66005,39.6574],[-74.6589,39.65629],[-74.65896,39.65609],[-74.65924,39.65594],[-74.65978,39.65601],[-74.66005,39.65575],[-74.6601,39.65548],[-74.65929,39.65516],[-74.65922,39.65494],[-74.65933,39.65467],[-74.6587,39.65422],[-74.65891,39.65401],[-74.65951,39.65432],[-74.65967,39.65422],[-74.6598,39.65359],[-74.6597,39.65324],[-74.66039,39.65269],[-74.66028,39.65224],[-74.65997,39.65206],[-74.66011,39.6517],[-74.65974,39.65152],[-74.65983,39.6512],[-74.65951,39.6509],[-74.65968,39.64972],[-74.65978,39.64964],[-74.66032,39.64989],[-74.66059,39.64946],[-74.66055,39.64913],[-74.66032,39.64883],[-74.65948,39.64829],[-74.65951,39.64808],[-74.66023,39.6477],[-74.66045,39.6478],[-74.66073,39.6482],[-74.66113,39.64836],[-74.66167,39.64813],[-74.66217,39.6482],[-74.66189,39.64861],[-74.66154,39.64883],[-74.66171,39.64941],[-74.66133,39.65011],[-74.6613,39.65045],[-74.66167,39.65056],[-74.66208,39.6509],[-74.66216,39.65143],[-74.66274,39.65276],[-74.66328,39.65291],[-74.66382,39.65282],[-74.66502,39.65356],[-74.66485,39.65476],[-74.66529,39.6553],[-74.66499,39.65548],[-74.66492,39.65566],[-74.66504,39.65584],[-74.66481,39.65595],[-74.66391,39.65547],[-74.6633,39.65546],[-74.66305,39.65526],[-74.66298,39.65497],[-74.66239,39.6548],[-74.66281,39.65575],[-74.66251,39.65629],[-74.6623,39.65627],[-74.66212,39.65603],[-74.66185,39.65608],[-74.66151,39.65703],[-74.66111,39.65735],[-74.66139,39.65799],[-74.66144,39.65857],[-74.66125,39.65874],[-74.66102,39.65873],[-74.66071,39.65817]]],[[[-74.61978,39.66353],[-74.62038,39.66437],[-74.62014,39.66462],[-74.61956,39.6648],[-74.61948,39.66449],[-74.61978,39.66353]]],[[[-74.62017,39.66569],[-74.61975,39.66569],[-74.61968,39.66554],[-74.61999,39.66532],[-74.62044,39.66531],[-74.62045,39.66555],[-74.62017,39.66569]]],[[[-74.61608,39.66769],[-74.61514,39.66735],[-74.61487,39.66755],[-74.61471,39.6679],[-74.61445,39.66793],[-74.6143,39.66781],[-74.61431,39.66715],[-74.61397,39.66671],[-74.614,39.66644],[-74.61377,39.66599],[-74.61393,39.66532],[-74.6144,39.665],[-74.61423,39.66481],[-74.61444,39.66466],[-74.61532,39.66468],[-74.61568,39.66455],[-74.61571,39.66467],[-74.61518,39.665],[-74.61512,39.66518],[-74.61514,39.66527],[-74.61549,39.66519],[-74.61568,39.66563],[-74.6163,39.66548],[-74.61675,39.66572],[-74.61767,39.66537],[-74.61864,39.66527],[-74.61799,39.66578],[-74.61756,39.66587],[-74.61729,39.66612],[-74.61692,39.66615],[-74.61665,39.66644],[-74.61659,39.66708],[-74.61621,39.66715],[-74.61627,39.66742],[-74.61654,39.66721],[-74.61677,39.6674],[-74.61698,39.66796],[-74.61684,39.66831],[-74.61623,39.66795],[-74.61608,39.66769]]],[[[-74.61602,39.67019],[-74.61541,39.67005],[-74.61508,39.66973],[-74.61492,39.66922],[-74.61501,39.66874],[-74.61541,39.66868],[-74.61559,39.66883],[-74.61628,39.66848],[-74.61675,39.66845],[-74.61747,39.66873],[-74.6178,39.66847],[-74.61803,39.66848],[-74.61823,39.66908],[-74.61771,39.66916],[-74.61729,39.669],[-74.6172,39.66915],[-74.61746,39.66942],[-74.61716,39.6699],[-74.61702,39.67],[-74.61675,39.66989],[-74.61624,39.66996],[-74.61602,39.67019]]],[[[-74.66373,39.67132],[-74.66281,39.67104],[-74.66216,39.67048],[-74.66224,39.67012],[-74.66207,39.66985],[-74.662,39.66895],[-74.66129,39.66843],[-74.66108,39.66769],[-74.66053,39.66667],[-74.66051,39.6659],[-74.66009,39.665],[-74.66026,39.66419],[-74.65983,39.66374],[-74.65998,39.66347],[-74.65995,39.6632],[-74.65969,39.6628],[-74.65951,39.66296],[-74.6593,39.66288],[-74.65938,39.66266],[-74.65911,39.66248],[-74.65906,39.6621],[-74.65885,39.66176],[-74.65894,39.66105],[-74.6588,39.6606],[-74.65923,39.65988],[-74.65896,39.65934],[-74.65933,39.65916],[-74.65915,39.65879],[-74.65869,39.65871],[-74.65879,39.65828],[-74.65897,39.65858],[-74.65911,39.65835],[-74.65906,39.65808],[-74.65875,39.65794],[-74.65871,39.65764],[-74.65951,39.65727],[-74.65969,39.65782],[-74.65996,39.6579],[-74.65996,39.65825],[-74.66034,39.6586],[-74.66032,39.65899],[-74.66083,39.66],[-74.6609,39.66051],[-74.66061,39.66096],[-74.66088,39.66147],[-74.6609,39.66212],[-74.66112,39.66292],[-74.66053,39.66374],[-74.66067,39.66411],[-74.66091,39.66413],[-74.66108,39.66482],[-74.66136,39.66527],[-74.66145,39.66662],[-74.66199,39.66751],[-74.66221,39.66853],[-74.66249,39.66857],[-74.6627,39.66895],[-74.66323,39.669],[-74.6634,39.6694],[-74.6645,39.66998],[-74.66539,39.67133],[-74.66526,39.67157],[-74.66504,39.67151],[-74.6644,39.67093],[-74.66405,39.67079],[-74.6631,39.66989],[-74.66305,39.67003],[-74.66323,39.67017],[-74.66334,39.67057],[-74.66414,39.67106],[-74.66502,39.67201],[-74.66484,39.6724],[-74.66448,39.67234],[-74.66373,39.67132]]],[[[-74.65277,39.68007],[-74.65241,39.6799],[-74.65197,39.68002],[-74.65166,39.67991],[-74.65171,39.67937],[-74.65116,39.6791],[-74.65061,39.67793],[-74.65078,39.67764],[-74.65106,39.67748],[-74.65161,39.67754],[-74.65162,39.67739],[-74.65125,39.67706],[-74.65038,39.67686],[-74.65065,39.67659],[-74.65071,39.67614],[-74.6505,39.67596],[-74.65059,39.67569],[-74.65048,39.6751],[-74.65107,39.67466],[-74.6512,39.67488],[-74.65113,39.6756],[-74.65152,39.67602],[-74.65185,39.67506],[-74.65156,39.67443],[-74.65197,39.67446],[-74.65212,39.67414],[-74.65241,39.67397],[-74.65304,39.67434],[-74.65314,39.67488],[-74.65276,39.67542],[-74.65255,39.67632],[-74.65273,39.67726],[-74.65227,39.6782],[-74.65255,39.67887],[-74.65359,39.67973],[-74.65317,39.68003],[-74.65277,39.68007]]],[[[-74.63456,39.69069],[-74.6342,39.69087],[-74.63409,39.69108],[-74.63361,39.6909],[-74.63357,39.69078],[-74.63387,39.69047],[-74.63454,39.69025],[-74.63486,39.68993],[-74.63556,39.68997],[-74.6359,39.68953],[-74.63645,39.68977],[-74.6365,39.68997],[-74.63631,39.69048],[-74.63535,39.69121],[-74.63476,39.69118],[-74.63453,39.69088],[-74.63456,39.69069]]],[[[-74.62978,39.68952],[-74.63018,39.68988],[-74.63069,39.69004],[-74.63083,39.69033],[-74.63072,39.6911],[-74.63025,39.69123],[-74.62969,39.69166],[-74.62943,39.6915],[-74.62957,39.6912],[-74.62987,39.69105],[-74.62982,39.69069],[-74.62958,39.69053],[-74.62944,39.69015],[-74.62978,39.68952]]],[[[-74.63457,39.69264],[-74.63418,39.69249],[-74.63446,39.69231],[-74.63434,39.69186],[-74.63486,39.69173],[-74.63508,39.69152],[-74.63519,39.69177],[-74.6349,39.6919],[-74.63481,39.69213],[-74.63492,39.69249],[-74.63517,39.69267],[-74.63481,39.69293],[-74.63457,39.69264]]],[[[-74.66562,39.69338],[-74.66551,39.69363],[-74.66535,39.69356],[-74.66544,39.69332],[-74.66562,39.69338]]],[[[-74.72086,39.69536],[-74.72115,39.69525],[-74.72151,39.69554],[-74.72113,39.69566],[-74.72086,39.69536]]],[[[-74.72086,39.69536],[-74.71995,39.69563],[-74.72017,39.69581],[-74.72055,39.69586],[-74.72077,39.69608],[-74.72203,39.696],[-74.72275,39.69613],[-74.72293,39.69599],[-74.72271,39.69585],[-74.72271,39.69568],[-74.7232,39.69548],[-74.72392,39.69603],[-74.72464,39.69601],[-74.72488,39.69617],[-74.72474,39.69646],[-74.72456,39.69654],[-74.72381,39.69644],[-74.72368,39.69683],[-74.7232,39.6969],[-74.72275,39.69738],[-74.7223,39.69722],[-74.72168,39.69723],[-74.72131,39.69706],[-74.72086,39.69718],[-74.72059,39.69688],[-74.72016,39.69708],[-74.71976,39.69701],[-74.71978,39.69679],[-74.72014,39.69644],[-74.71979,39.6963],[-74.71952,39.69651],[-74.71907,39.69647],[-74.71916,39.69635],[-74.71895,39.6962],[-74.71898,39.69581],[-74.71889,39.69575],[-74.71856,39.69594],[-74.71718,39.69614],[-74.71669,39.69581],[-74.7154,39.69579],[-74.71484,39.69541],[-74.71446,39.69552],[-74.71368,39.69547],[-74.71341,39.69566],[-74.71272,39.69551],[-74.7122,39.69531],[-74.71207,39.69509],[-74.7126,39.69434],[-74.7117,39.69413],[-74.71125,39.69423],[-74.70993,39.69399],[-74.70974,39.69374],[-74.70999,39.69337],[-74.70721,39.69343],[-74.70676,39.69355],[-74.70601,39.69333],[-74.70581,39.69302],[-74.70588,39.69267],[-74.7057,39.69249],[-74.70602,39.69231],[-74.70555,39.69208],[-74.70514,39.69159],[-74.70458,39.69135],[-74.70436,39.69105],[-74.70459,39.69087],[-74.70451,39.69082],[-74.70433,39.69085],[-74.70432,39.69103],[-74.70374,39.69141],[-74.7043,39.69162],[-74.70437,39.69177],[-74.70422,39.69201],[-74.70335,39.69228],[-74.70274,39.6922],[-74.7025,39.69168],[-74.70275,39.69141],[-74.70281,39.69104],[-74.70194,39.69074],[-74.70164,39.69022],[-74.70083,39.69039],[-74.70026,39.69],[-74.70041,39.68982],[-74.70164,39.68972],[-74.70164,39.68952],[-74.70042,39.68889],[-74.69986,39.68888],[-74.69957,39.68861],[-74.69903,39.68844],[-74.69857,39.68844],[-74.69793,39.68883],[-74.69771,39.68847],[-74.69799,39.68812],[-74.69877,39.68811],[-74.69896,39.68792],[-74.69967,39.68764],[-74.6993,39.68734],[-74.69861,39.68725],[-74.69825,39.68692],[-74.69843,39.68667],[-74.69916,39.68647],[-74.6993,39.68629],[-74.69881,39.68615],[-74.69869,39.68575],[-74.69769,39.68546],[-74.69517,39.68553],[-74.69386,39.68544],[-74.69362,39.68521],[-74.69418,39.685],[-74.69409,39.68467],[-74.69353,39.68443],[-74.69301,39.68405],[-74.69284,39.68377],[-74.69154,39.68318],[-74.69098,39.68251],[-74.69052,39.68223],[-74.69015,39.6817],[-74.6895,39.68127],[-74.68958,39.68115],[-74.68996,39.68117],[-74.69009,39.68099],[-74.68976,39.68054],[-74.68979,39.68009],[-74.68961,39.67982],[-74.68969,39.67923],[-74.68951,39.67901],[-74.68892,39.6788],[-74.68838,39.67807],[-74.68837,39.67778],[-74.68861,39.67759],[-74.68865,39.67725],[-74.68881,39.67713],[-74.6882,39.67682],[-74.68837,39.67641],[-74.68819,39.67629],[-74.68819,39.67578],[-74.68786,39.67554],[-74.68781,39.67522],[-74.68588,39.67429],[-74.68559,39.67395],[-74.68567,39.67353],[-74.68516,39.6734],[-74.6848,39.6729],[-74.68379,39.67279],[-74.68326,39.67233],[-74.68314,39.6716],[-74.68278,39.67128],[-74.68137,39.67089],[-74.68093,39.67057],[-74.68021,39.67053],[-74.67966,39.67012],[-74.67903,39.67],[-74.67869,39.66971],[-74.67839,39.66929],[-74.67839,39.66897],[-74.67882,39.66842],[-74.67882,39.66811],[-74.67832,39.66778],[-74.67787,39.66766],[-74.67766,39.66733],[-74.67778,39.66701],[-74.67819,39.66688],[-74.67837,39.66665],[-74.67763,39.66655],[-74.67766,39.66572],[-74.67721,39.66574],[-74.67619,39.66521],[-74.67579,39.6639],[-74.6758,39.66368],[-74.67595,39.66356],[-74.67537,39.66306],[-74.67525,39.66275],[-74.67537,39.66248],[-74.67525,39.6623],[-74.67478,39.66205],[-74.67442,39.66236],[-74.67356,39.66182],[-74.67351,39.66157],[-74.67446,39.66159],[-74.67319,39.66093],[-74.67281,39.66023],[-74.67236,39.66028],[-74.67209,39.65988],[-74.67074,39.65943],[-74.67029,39.65948],[-74.67008,39.65937],[-74.66979,39.65903],[-74.67003,39.65844],[-74.66979,39.65799],[-74.67011,39.65785],[-74.67065,39.65801],[-74.67075,39.65781],[-74.66984,39.6574],[-74.66912,39.65759],[-74.66853,39.65638],[-74.66757,39.65613],[-74.66745,39.65539],[-74.66754,39.65525],[-74.66815,39.65519],[-74.66885,39.65566],[-74.66912,39.65557],[-74.66892,39.65521],[-74.6682,39.65496],[-74.66794,39.65468],[-74.66791,39.65426],[-74.66831,39.65407],[-74.66842,39.65386],[-74.66795,39.65332],[-74.66697,39.65339],[-74.66673,39.65328],[-74.66675,39.65284],[-74.667,39.65242],[-74.667,39.65194],[-74.66566,39.65197],[-74.66472,39.65264],[-74.66382,39.65232],[-74.66319,39.65247],[-74.66309,39.65223],[-74.66418,39.65181],[-74.66431,39.65156],[-74.66517,39.65118],[-74.66555,39.65081],[-74.6656,39.65052],[-74.66586,39.65033],[-74.6661,39.65041],[-74.66616,39.65076],[-74.66683,39.65139],[-74.66697,39.65177],[-74.66726,39.65179],[-74.66764,39.65161],[-74.6677,39.65134],[-74.66722,39.65118],[-74.66688,39.65089],[-74.66646,39.65081],[-74.66697,39.65063],[-74.66698,39.65043],[-74.66677,39.65027],[-74.66685,39.65006],[-74.66713,39.65029],[-74.66781,39.65041],[-74.66804,39.65072],[-74.6684,39.65072],[-74.66942,39.6515],[-74.66975,39.65215],[-74.67,39.65195],[-74.67029,39.65195],[-74.6711,39.6526],[-74.67036,39.65258],[-74.67054,39.65299],[-74.6708,39.65305],[-74.67112,39.65272],[-74.67155,39.65296],[-74.67202,39.65302],[-74.67213,39.65337],[-74.67164,39.65322],[-74.67145,39.65332],[-74.67164,39.65365],[-74.67199,39.65386],[-74.67191,39.65413],[-74.67146,39.65404],[-74.67164,39.65435],[-74.67218,39.65426],[-74.67257,39.65452],[-74.67248,39.65422],[-74.67256,39.65404],[-74.67243,39.65386],[-74.67254,39.65374],[-74.67284,39.65374],[-74.67456,39.65516],[-74.67458,39.65549],[-74.67489,39.65545],[-74.67535,39.65572],[-74.67559,39.65622],[-74.67652,39.65634],[-74.67715,39.65706],[-74.67734,39.65745],[-74.67719,39.65763],[-74.67736,39.65775],[-74.67735,39.65808],[-74.67769,39.65853],[-74.67805,39.65868],[-74.67811,39.65889],[-74.67851,39.65894],[-74.67864,39.65919],[-74.67891,39.65934],[-74.67867,39.65954],[-74.67818,39.6595],[-74.67793,39.65977],[-74.67721,39.65984],[-74.67721,39.65997],[-74.67802,39.65983],[-74.67954,39.66028],[-74.67969,39.66051],[-74.68024,39.66062],[-74.68062,39.661],[-74.68143,39.66097],[-74.68199,39.66159],[-74.68253,39.66156],[-74.68298,39.66192],[-74.68317,39.6623],[-74.6834,39.6624],[-74.6846,39.66246],[-74.68514,39.66282],[-74.68516,39.66302],[-74.68538,39.66319],[-74.68554,39.66311],[-74.68554,39.66291],[-74.68585,39.66291],[-74.68604,39.66308],[-74.68596,39.6632],[-74.68635,39.66331],[-74.68663,39.66365],[-74.68723,39.66387],[-74.68784,39.66446],[-74.68861,39.66416],[-74.68879,39.6644],[-74.68921,39.66449],[-74.68941,39.66474],[-74.68978,39.66491],[-74.68973,39.66518],[-74.68991,39.66541],[-74.68987,39.66563],[-74.6905,39.66547],[-74.69068,39.6653],[-74.69113,39.66534],[-74.69115,39.665],[-74.69145,39.66495],[-74.69188,39.66524],[-74.69194,39.66543],[-74.69271,39.66566],[-74.69302,39.6659],[-74.69347,39.66604],[-74.69413,39.66604],[-74.69467,39.66631],[-74.69526,39.66685],[-74.69604,39.66692],[-74.69631,39.6673],[-74.69573,39.66742],[-74.69652,39.66801],[-74.69662,39.66796],[-74.69646,39.66778],[-74.6965,39.66749],[-74.69679,39.66746],[-74.70085,39.66902],[-74.70177,39.66954],[-74.70209,39.67015],[-74.70256,39.67027],[-74.70263,39.67051],[-74.70347,39.6709],[-74.70353,39.67106],[-74.70293,39.67129],[-74.70317,39.67159],[-74.70335,39.67162],[-74.70389,39.67122],[-74.70452,39.67164],[-74.70465,39.67192],[-74.7043,39.67215],[-74.70433,39.67248],[-74.70514,39.67258],[-74.70526,39.67236],[-74.70496,39.67209],[-74.70505,39.67192],[-74.70577,39.67192],[-74.70588,39.67202],[-74.70559,39.67209],[-74.70564,39.67218],[-74.70613,39.67218],[-74.70682,39.67258],[-74.70703,39.67291],[-74.70742,39.67306],[-74.70793,39.67372],[-74.70895,39.6743],[-74.7091,39.67468],[-74.71014,39.67524],[-74.71076,39.67528],[-74.71112,39.67551],[-74.71132,39.67588],[-74.71219,39.67655],[-74.71226,39.67686],[-74.7126,39.67713],[-74.71291,39.67717],[-74.71355,39.67829],[-74.71444,39.67869],[-74.71497,39.67916],[-74.71504,39.67937],[-74.71578,39.6797],[-74.71628,39.68018],[-74.71659,39.68023],[-74.71682,39.68055],[-74.71849,39.68138],[-74.71918,39.68243],[-74.71939,39.68255],[-74.71985,39.68368],[-74.72029,39.68399],[-74.72059,39.68477],[-74.72124,39.6851],[-74.72185,39.686],[-74.72203,39.68584],[-74.72172,39.68575],[-74.72185,39.68566],[-74.72212,39.68573],[-74.72221,39.6859],[-74.72331,39.68617],[-74.72381,39.68665],[-74.72368,39.68695],[-74.72347,39.68706],[-74.7233,39.68673],[-74.72287,39.68671],[-74.72275,39.68638],[-74.72239,39.6862],[-74.72185,39.68604],[-74.72161,39.68623],[-74.72104,39.68633],[-74.72118,39.68584],[-74.72086,39.68578],[-74.72068,39.6856],[-74.72005,39.68552],[-74.71998,39.68566],[-74.72072,39.68599],[-74.72127,39.6866],[-74.72238,39.68648],[-74.72242,39.68692],[-74.72264,39.6871],[-74.7234,39.68739],[-74.72389,39.6874],[-74.72411,39.68772],[-74.72395,39.68785],[-74.72302,39.6879],[-74.72351,39.68835],[-74.72376,39.68835],[-74.72392,39.68795],[-74.72452,39.68806],[-74.72482,39.68787],[-74.7253,39.68832],[-74.72542,39.68864],[-74.72607,39.68877],[-74.72652,39.6886],[-74.72715,39.68907],[-74.72749,39.68914],[-74.72735,39.68853],[-74.7269,39.68817],[-74.72652,39.68808],[-74.72679,39.68798],[-74.72681,39.68781],[-74.72637,39.68734],[-74.72599,39.68629],[-74.72652,39.68484],[-74.72718,39.68554],[-74.7276,39.68657],[-74.7284,39.68719],[-74.72873,39.68719],[-74.72897,39.68685],[-74.72988,39.6865],[-74.73006,39.68653],[-74.73021,39.68687],[-74.73056,39.68692],[-74.73062,39.68715],[-74.73049,39.68737],[-74.73079,39.68799],[-74.73045,39.68862],[-74.73086,39.68898],[-74.73137,39.68898],[-74.73183,39.68882],[-74.73133,39.68862],[-74.73147,39.68845],[-74.73145,39.68816],[-74.73198,39.68802],[-74.73209,39.68826],[-74.73263,39.68867],[-74.73374,39.68904],[-74.73531,39.69016],[-74.73586,39.69035],[-74.73654,39.69028],[-74.73737,39.69062],[-74.73786,39.69123],[-74.73865,39.69132],[-74.73888,39.69101],[-74.7393,39.69116],[-74.73883,39.69138],[-74.73865,39.69174],[-74.73787,39.69165],[-74.73649,39.6906],[-74.73604,39.69073],[-74.73525,39.6905],[-74.73398,39.68949],[-74.73353,39.68947],[-74.73326,39.68983],[-74.73315,39.68952],[-74.73329,39.68923],[-74.73258,39.68894],[-74.73242,39.68898],[-74.73279,39.68934],[-74.73269,39.68949],[-74.73101,39.68969],[-74.73065,39.68961],[-74.73047,39.6897],[-74.73047,39.69001],[-74.72868,39.68959],[-74.7281,39.68965],[-74.72769,39.68933],[-74.72739,39.68967],[-74.72751,39.68989],[-74.72797,39.69005],[-74.72812,39.69044],[-74.72846,39.69045],[-74.72868,39.69063],[-74.72891,39.69038],[-74.72913,39.69037],[-74.72933,39.6906],[-74.72917,39.69078],[-74.72958,39.69084],[-74.72976,39.69078],[-74.72996,39.69044],[-74.73036,39.69045],[-74.7311,39.69114],[-74.73161,39.69135],[-74.73171,39.6915],[-74.73159,39.6918],[-74.73092,39.69174],[-74.73075,39.69205],[-74.73056,39.69213],[-74.73014,39.69193],[-74.72919,39.69179],[-74.72886,39.69156],[-74.72846,39.69164],[-74.72851,39.69196],[-74.7281,39.69235],[-74.72778,39.69236],[-74.72709,39.692],[-74.72706,39.69172],[-74.72821,39.69186],[-74.72756,39.69154],[-74.72766,39.69108],[-74.72711,39.691],[-74.72696,39.69077],[-74.72732,39.69061],[-74.72769,39.69088],[-74.72832,39.6909],[-74.72796,39.69058],[-74.72736,39.69057],[-74.72695,39.6904],[-74.72645,39.6908],[-74.7258,39.69091],[-74.72535,39.69068],[-74.72401,39.6907],[-74.72252,39.69051],[-74.72226,39.69069],[-74.72257,39.69096],[-74.72288,39.69087],[-74.72263,39.69105],[-74.72325,39.69117],[-74.7245,39.69172],[-74.72491,39.69204],[-74.72504,39.69181],[-74.72517,39.6918],[-74.72526,39.69223],[-74.72544,39.69232],[-74.72553,39.69217],[-74.72584,39.69245],[-74.7258,39.69262],[-74.72482,39.69263],[-74.72329,39.6923],[-74.7223,39.69258],[-74.72158,39.69219],[-74.72103,39.69214],[-74.72041,39.6923],[-74.71979,39.69208],[-74.71927,39.69219],[-74.71919,39.69213],[-74.71955,39.69177],[-74.71952,39.69166],[-74.71925,39.69164],[-74.71841,39.69201],[-74.71765,39.69204],[-74.71742,39.69222],[-74.71864,39.69273],[-74.71883,39.69311],[-74.71874,39.69333],[-74.71848,39.69343],[-74.71716,39.69331],[-74.71706,39.6932],[-74.71734,39.69293],[-74.7173,39.69281],[-74.71691,39.6928],[-74.71671,39.69301],[-74.71621,39.69274],[-74.71573,39.69286],[-74.71574,39.69273],[-74.7161,39.69249],[-74.71556,39.69249],[-74.71529,39.69227],[-74.71516,39.69231],[-74.71497,39.69288],[-74.71464,39.69302],[-74.71477,39.69338],[-74.71469,39.6935],[-74.71386,39.69362],[-74.71368,39.69388],[-74.71326,39.69362],[-74.71318,39.69329],[-74.71296,39.6932],[-74.71282,39.69329],[-74.71314,39.69403],[-74.71442,39.6944],[-74.71505,39.69444],[-74.71556,39.69486],[-74.71606,39.69451],[-74.71701,39.69446],[-74.71682,39.69425],[-74.71536,39.69403],[-74.71499,39.69374],[-74.71529,39.69367],[-74.71565,39.69385],[-74.71628,39.69382],[-74.71709,39.69413],[-74.71754,39.69415],[-74.71784,39.69443],[-74.71826,39.69457],[-74.71893,39.69451],[-74.71996,39.69486],[-74.72065,39.69477],[-74.72086,39.69536]]],[[[-74.66688,39.70246],[-74.66598,39.70273],[-74.66589,39.7021],[-74.66616,39.70201],[-74.66652,39.70215],[-74.66679,39.7021],[-74.66688,39.70246]]],[[[-74.62978,39.68952],[-74.62951,39.68907],[-74.6286,39.68916],[-74.6284,39.68943],[-74.62848,39.68988],[-74.62922,39.6906],[-74.62893,39.69105],[-74.62899,39.69125],[-74.62825,39.69174],[-74.62717,39.6916],[-74.62654,39.69166],[-74.62649,39.69189],[-74.62613,39.69231],[-74.62731,39.69306],[-74.62758,39.69383],[-74.6274,39.6941],[-74.62801,39.69455],[-74.62784,39.69504],[-74.62744,39.69532],[-74.62712,39.69523],[-74.6268,39.69473],[-74.62543,39.69405],[-74.6246,39.69326],[-74.62449,39.69265],[-74.62407,39.69235],[-74.62378,39.6915],[-74.62398,39.69064],[-74.6249,39.69051],[-74.62532,39.69015],[-74.62493,39.68965],[-74.62425,39.68984],[-74.62451,39.68889],[-74.62412,39.68871],[-74.62364,39.68892],[-74.62332,39.68808],[-74.62352,39.68772],[-74.62318,39.68764],[-74.62345,39.68746],[-74.62346,39.68728],[-74.6229,39.68715],[-74.62291,39.68696],[-74.62322,39.68674],[-74.6237,39.68686],[-74.62392,39.68629],[-74.62339,39.68603],[-74.62331,39.68566],[-74.62304,39.68559],[-74.62241,39.68585],[-74.62196,39.6866],[-74.62156,39.68633],[-74.6208,39.68485],[-74.62106,39.68468],[-74.62133,39.68476],[-74.62161,39.68449],[-74.62089,39.68408],[-74.62078,39.68448],[-74.62053,39.68447],[-74.62005,39.68388],[-74.62008,39.68377],[-74.62044,39.68384],[-74.6208,39.6836],[-74.62091,39.68341],[-74.62089,39.68287],[-74.62035,39.68272],[-74.62017,39.68296],[-74.62033,39.68314],[-74.62026,39.68332],[-74.61999,39.68344],[-74.61969,39.68323],[-74.6196,39.68251],[-74.61924,39.68255],[-74.61893,39.68216],[-74.61915,39.682],[-74.61954,39.68225],[-74.6199,39.68228],[-74.61987,39.68207],[-74.61945,39.68162],[-74.61891,39.68185],[-74.61869,39.68174],[-74.61859,39.68121],[-74.61892,39.681],[-74.61882,39.68072],[-74.619,39.68054],[-74.619,39.68031],[-74.61873,39.68027],[-74.61846,39.6809],[-74.61827,39.68082],[-74.61795,39.67964],[-74.61771,39.67931],[-74.61742,39.67835],[-74.61733,39.67775],[-74.61741,39.6773],[-74.61727,39.67686],[-74.61724,39.67407],[-74.61706,39.6738],[-74.61707,39.67326],[-74.61671,39.67263],[-74.61704,39.67227],[-74.61657,39.67217],[-74.61652,39.67201],[-74.61702,39.67135],[-74.61766,39.67102],[-74.61792,39.67066],[-74.61882,39.67077],[-74.61919,39.67057],[-74.61878,39.67007],[-74.61878,39.66967],[-74.61905,39.66931],[-74.61891,39.66906],[-74.61861,39.66889],[-74.61876,39.66841],[-74.61828,39.6676],[-74.61913,39.66747],[-74.61954,39.66814],[-74.62008,39.66801],[-74.62026,39.6676],[-74.62009,39.66733],[-74.62029,39.66706],[-74.62024,39.6666],[-74.62146,39.66675],[-74.62164,39.66644],[-74.62143,39.66616],[-74.6214,39.66569],[-74.62194,39.66533],[-74.62214,39.66536],[-74.62307,39.665],[-74.62303,39.66419],[-74.62322,39.66392],[-74.62275,39.66376],[-74.62271,39.66335],[-74.62221,39.66356],[-74.62221,39.66367],[-74.62252,39.66372],[-74.62271,39.66392],[-74.62234,39.6642],[-74.62214,39.66419],[-74.62196,39.6648],[-74.62123,39.66483],[-74.62093,39.66477],[-74.62085,39.66464],[-74.62145,39.66437],[-74.62168,39.66401],[-74.62112,39.66378],[-74.62122,39.66345],[-74.62196,39.66311],[-74.62259,39.66299],[-74.62275,39.66304],[-74.62274,39.66333],[-74.62286,39.66332],[-74.6232,39.66311],[-74.62331,39.66282],[-74.62358,39.6629],[-74.62383,39.66275],[-74.6239,39.66248],[-74.62362,39.66239],[-74.62407,39.66194],[-74.62391,39.66147],[-74.62404,39.66139],[-74.62421,39.6616],[-74.62451,39.66167],[-74.62487,39.66123],[-74.62499,39.66069],[-74.62435,39.66055],[-74.62409,39.66006],[-74.62408,39.65979],[-74.62385,39.65959],[-74.62382,39.65901],[-74.63422,39.65359],[-74.63439,39.65335],[-74.63571,39.65292],[-74.63584,39.6531],[-74.6355,39.65352],[-74.63577,39.6544],[-74.63547,39.65491],[-74.63571,39.65497],[-74.63632,39.65465],[-74.63658,39.65478],[-74.63667,39.65575],[-74.63643,39.65646],[-74.63685,39.65724],[-74.63654,39.65754],[-74.63697,39.65764],[-74.63693,39.65733],[-74.63743,39.65664],[-74.6371,39.65611],[-74.63741,39.65548],[-74.63726,39.65437],[-74.6368,39.65411],[-74.63684,39.65341],[-74.63664,39.65305],[-74.63683,39.65247],[-74.63899,39.65122],[-74.63966,39.65101],[-74.63988,39.65075],[-74.64047,39.65045],[-74.64096,39.65058],[-74.6411,39.65112],[-74.64168,39.65157],[-74.6419,39.65224],[-74.64232,39.65233],[-74.64303,39.65179],[-74.64343,39.65125],[-74.64312,39.65112],[-74.64272,39.65036],[-74.64239,39.65023],[-74.64223,39.65],[-74.64265,39.64964],[-74.64265,39.64912],[-74.64361,39.64894],[-74.64526,39.64797],[-74.64604,39.64806],[-74.64694,39.64706],[-74.6481,39.64667],[-74.64837,39.64677],[-74.64872,39.64669],[-74.64828,39.64793],[-74.64846,39.64856],[-74.64866,39.64856],[-74.64882,39.6482],[-74.64934,39.6491],[-74.64909,39.64906],[-74.64845,39.64928],[-74.64864,39.6498],[-74.649,39.64973],[-74.64912,39.64982],[-74.649,39.65013],[-74.64864,39.64997],[-74.64846,39.65013],[-74.64844,39.65054],[-74.64825,39.65072],[-74.64818,39.65179],[-74.64799,39.65213],[-74.64783,39.65224],[-74.64702,39.65224],[-74.64685,39.65242],[-74.64702,39.65306],[-74.64765,39.65337],[-74.64777,39.65317],[-74.64801,39.65308],[-74.64818,39.65307],[-74.64821,39.65323],[-74.64783,39.65417],[-74.64777,39.65467],[-74.64729,39.65557],[-74.64729,39.65629],[-74.64694,39.65646],[-74.64668,39.65737],[-74.64645,39.65754],[-74.6464,39.65799],[-74.64652,39.65835],[-74.64613,39.65861],[-74.64598,39.65928],[-74.64548,39.6597],[-74.64545,39.66006],[-74.64572,39.66024],[-74.64572,39.6606],[-74.64532,39.66053],[-74.64514,39.66078],[-74.6455,39.66099],[-74.64595,39.66075],[-74.64613,39.66096],[-74.64577,39.66129],[-74.6455,39.66114],[-74.6454,39.6614],[-74.64554,39.6623],[-74.64588,39.66273],[-74.64595,39.66313],[-74.64628,39.6632],[-74.64637,39.66302],[-74.6463,39.66265],[-74.64667,39.66248],[-74.64696,39.66264],[-74.64732,39.66311],[-74.64715,39.66351],[-74.64649,39.66347],[-74.64682,39.66358],[-74.64727,39.6643],[-74.64717,39.6647],[-74.64685,39.66491],[-74.64652,39.66545],[-74.64658,39.66579],[-74.64702,39.66617],[-74.64672,39.66631],[-74.64661,39.66653],[-74.64665,39.66744],[-74.64648,39.66851],[-74.64681,39.66922],[-74.64709,39.66949],[-74.64715,39.67012],[-74.64699,39.67035],[-74.64613,39.67059],[-74.64605,39.67075],[-74.64613,39.67088],[-74.64649,39.67084],[-74.64628,39.67131],[-74.64661,39.67143],[-74.64683,39.67175],[-74.64717,39.67195],[-74.64716,39.67245],[-74.64747,39.67245],[-74.64761,39.67183],[-74.64828,39.67165],[-74.64844,39.67147],[-74.64808,39.67117],[-74.64816,39.6709],[-74.64851,39.67057],[-74.64804,39.66976],[-74.64792,39.66895],[-74.64692,39.66787],[-74.6471,39.66767],[-74.64747,39.6676],[-74.64761,39.66729],[-74.64798,39.66703],[-74.64875,39.66697],[-74.649,39.66644],[-74.64855,39.66644],[-74.64833,39.66666],[-74.648,39.66672],[-74.6479,39.66578],[-74.64801,39.6655],[-74.64846,39.66565],[-74.64855,39.66536],[-74.64891,39.66536],[-74.649,39.66527],[-74.64871,39.6652],[-74.64869,39.66509],[-74.64934,39.66455],[-74.64891,39.66401],[-74.64879,39.66284],[-74.64855,39.6622],[-74.64814,39.66185],[-74.64843,39.66107],[-74.64772,39.66107],[-74.64716,39.66015],[-74.64747,39.65997],[-74.64761,39.65952],[-74.64746,39.65934],[-74.64773,39.65916],[-74.64755,39.65861],[-74.64774,39.65856],[-74.64814,39.65875],[-74.64818,39.65843],[-74.64882,39.65799],[-74.64893,39.65766],[-74.64954,39.65754],[-74.64954,39.65724],[-74.64916,39.65712],[-74.64927,39.65673],[-74.64972,39.65682],[-74.65001,39.65664],[-74.6499,39.6562],[-74.65008,39.65584],[-74.64967,39.65525],[-74.64967,39.65462],[-74.65009,39.65466],[-74.6503,39.65507],[-74.65052,39.65656],[-74.65085,39.65704],[-74.65099,39.65754],[-74.65077,39.65796],[-74.65024,39.65824],[-74.65001,39.65824],[-74.64972,39.65803],[-74.64945,39.65829],[-74.64896,39.65808],[-74.64914,39.65826],[-74.64909,39.65853],[-74.64939,39.65907],[-74.64886,39.6606],[-74.64949,39.66123],[-74.64889,39.66141],[-74.64917,39.6616],[-74.64952,39.66147],[-74.64989,39.66151],[-74.65066,39.66185],[-74.65007,39.6623],[-74.65017,39.66246],[-74.65066,39.66262],[-74.65072,39.66283],[-74.65059,39.66347],[-74.65062,39.66419],[-74.65086,39.66488],[-74.65046,39.66644],[-74.65064,39.66659],[-74.65053,39.6668],[-74.651,39.6675],[-74.65164,39.66891],[-74.65176,39.66985],[-74.65213,39.6703],[-74.65186,39.67075],[-74.65203,39.67113],[-74.65213,39.67247],[-74.65234,39.67272],[-74.65188,39.67305],[-74.65164,39.67356],[-74.65143,39.67366],[-74.65125,39.67358],[-74.65098,39.67375],[-74.6505,39.67449],[-74.64981,39.6747],[-74.64949,39.6751],[-74.64917,39.67515],[-74.64879,39.67542],[-74.64958,39.6756],[-74.64943,39.67596],[-74.64954,39.67614],[-74.64921,39.67632],[-74.64963,39.6765],[-74.64985,39.67677],[-74.64975,39.67775],[-74.64932,39.67829],[-74.64954,39.67842],[-74.64981,39.67825],[-74.65002,39.67844],[-74.64999,39.67883],[-74.64979,39.67899],[-74.65001,39.67917],[-74.64995,39.67937],[-74.65013,39.6795],[-74.65016,39.67973],[-74.6501,39.68038],[-74.64981,39.68072],[-74.64987,39.6809],[-74.65008,39.68099],[-74.65053,39.68091],[-74.65085,39.68129],[-74.65107,39.68135],[-74.65123,39.68126],[-74.65119,39.68099],[-74.6513,39.68086],[-74.65216,39.68098],[-74.65229,39.68117],[-74.65168,39.68126],[-74.6518,39.68181],[-74.65096,39.68243],[-74.65116,39.68272],[-74.65165,39.68296],[-74.65125,39.68322],[-74.65074,39.6838],[-74.64977,39.6844],[-74.64979,39.68503],[-74.65001,39.68539],[-74.64976,39.68561],[-74.64923,39.68566],[-74.649,39.6862],[-74.64924,39.6862],[-74.64957,39.68596],[-74.65006,39.68593],[-74.65035,39.68569],[-74.65029,39.68476],[-74.65046,39.68442],[-74.65109,39.68413],[-74.65137,39.68372],[-74.65199,39.6835],[-74.65215,39.68305],[-74.65193,39.68234],[-74.65209,39.6821],[-74.6525,39.68193],[-74.65286,39.68229],[-74.65329,39.68207],[-74.65326,39.68149],[-74.65304,39.68135],[-74.65263,39.68068],[-74.65267,39.68053],[-74.65331,39.68033],[-74.65424,39.68033],[-74.65471,39.68067],[-74.65466,39.68112],[-74.65498,39.68112],[-74.6552,39.68145],[-74.65475,39.68138],[-74.65457,39.68151],[-74.65439,39.68223],[-74.65403,39.68245],[-74.65357,39.68241],[-74.65354,39.68251],[-74.65388,39.68267],[-74.65415,39.68329],[-74.65398,39.68359],[-74.65439,39.68485],[-74.65448,39.68495],[-74.65475,39.68486],[-74.65538,39.68512],[-74.65466,39.68543],[-74.65445,39.68539],[-74.65472,39.68566],[-74.65493,39.68647],[-74.65547,39.68683],[-74.65575,39.68683],[-74.65592,39.6862],[-74.65589,39.68572],[-74.65615,39.6857],[-74.65668,39.68597],[-74.65802,39.6876],[-74.65818,39.68817],[-74.65801,39.6888],[-74.65818,39.68898],[-74.65803,39.68925],[-74.65834,39.68952],[-74.65825,39.68977],[-74.65785,39.68983],[-74.65769,39.68963],[-74.65788,39.68925],[-74.6578,39.6888],[-74.65753,39.68886],[-74.65705,39.68866],[-74.65658,39.68826],[-74.65599,39.68824],[-74.65583,39.6888],[-74.65565,39.68889],[-74.65582,39.68917],[-74.65625,39.68925],[-74.65628,39.68939],[-74.65605,39.68943],[-74.65643,39.68955],[-74.65669,39.69],[-74.6568,39.69051],[-74.65873,39.69204],[-74.65868,39.69222],[-74.65894,39.69276],[-74.65874,39.69311],[-74.65905,39.69384],[-74.6597,39.69427],[-74.65996,39.69473],[-74.65987,39.69509],[-74.65997,39.69527],[-74.65983,39.69563],[-74.66014,39.69572],[-74.65993,39.69647],[-74.66024,39.69743],[-74.66012,39.69761],[-74.66015,39.69797],[-74.66041,39.699],[-74.66068,39.69913],[-74.66152,39.69814],[-74.6614,39.69779],[-74.66145,39.69725],[-74.66113,39.69643],[-74.66023,39.69599],[-74.66093,39.69527],[-74.6608,39.69491],[-74.66088,39.69437],[-74.66045,39.69392],[-74.66054,39.69356],[-74.66038,39.6929],[-74.66068,39.69186],[-74.66048,39.69168],[-74.66068,39.69159],[-74.66128,39.6917],[-74.66162,39.69208],[-74.66156,39.6932],[-74.6622,39.69446],[-74.66201,39.69563],[-74.66226,39.69629],[-74.66218,39.69689],[-74.66236,39.69727],[-74.66228,39.69786],[-74.66239,39.69814],[-74.66203,39.69922],[-74.66209,39.69949],[-74.6623,39.69968],[-74.66269,39.69944],[-74.66297,39.69954],[-74.66298,39.6999],[-74.66263,39.70003],[-74.66279,39.70048],[-74.66274,39.70109],[-74.6631,39.70174],[-74.66442,39.70335],[-74.66424,39.70419],[-74.66441,39.70438],[-74.6644,39.70456],[-74.66418,39.70475],[-74.66369,39.70479],[-74.66373,39.70494],[-74.66401,39.70496],[-74.6642,39.70542],[-74.66409,39.70569],[-74.66385,39.70554],[-74.6637,39.70566],[-74.66409,39.70587],[-74.66394,39.70605],[-74.66364,39.70623],[-74.66335,39.70616],[-74.66317,39.70587],[-74.66239,39.70539],[-74.66203,39.70568],[-74.66171,39.70569],[-74.66196,39.70605],[-74.6626,39.70637],[-74.66258,39.70652],[-74.66237,39.70659],[-74.66269,39.70673],[-74.66274,39.70716],[-74.66304,39.70728],[-74.66317,39.70751],[-74.66346,39.70767],[-74.66427,39.70749],[-74.66477,39.70839],[-74.66471,39.70875],[-74.66497,39.70901],[-74.66458,39.70915],[-74.66304,39.70755],[-74.66223,39.70737],[-74.66149,39.70676],[-74.65969,39.70589],[-74.6583,39.70583],[-74.65574,39.70527],[-74.65454,39.70527],[-74.65362,39.70502],[-74.65326,39.70479],[-74.65137,39.70431],[-74.65071,39.70389],[-74.65028,39.70378],[-74.64982,39.70327],[-74.64909,39.70297],[-74.64848,39.70289],[-74.64732,39.70216],[-74.64544,39.70161],[-74.64382,39.7009],[-74.64323,39.70039],[-74.64285,39.70034],[-74.64192,39.69985],[-74.64101,39.69963],[-74.63966,39.69961],[-74.63908,39.69945],[-74.63858,39.69912],[-74.63741,39.69884],[-74.63678,39.69882],[-74.63554,39.69823],[-74.63475,39.69802],[-74.63435,39.69771],[-74.63391,39.69711],[-74.63318,39.69724],[-74.63292,39.69753],[-74.6326,39.69748],[-74.63247,39.69732],[-74.63205,39.6974],[-74.63126,39.69711],[-74.63028,39.69638],[-74.63028,39.69605],[-74.63069,39.69555],[-74.63099,39.69478],[-74.63274,39.69366],[-74.63267,39.69295],[-74.63346,39.69252],[-74.63377,39.69262],[-74.63363,39.6932],[-74.63384,39.69338],[-74.63449,39.69352],[-74.63481,39.6938],[-74.63556,39.69371],[-74.63652,39.69395],[-74.63691,39.69324],[-74.63773,39.69311],[-74.63861,39.69234],[-74.6393,39.69232],[-74.63975,39.69211],[-74.64092,39.69205],[-74.64106,39.69216],[-74.64106,39.69245],[-74.64063,39.69258],[-74.64045,39.69285],[-74.64052,39.69311],[-74.64022,39.69347],[-74.64042,39.69347],[-74.64079,39.69299],[-74.64106,39.69288],[-74.64167,39.69317],[-74.64155,39.69374],[-74.64237,39.69355],[-74.64339,39.69401],[-74.64378,39.69401],[-74.64432,39.69338],[-74.64393,39.69285],[-74.64437,39.6928],[-74.64462,39.69291],[-74.64519,39.69249],[-74.6446,39.69161],[-74.64442,39.69168],[-74.64435,39.69159],[-74.64442,39.69145],[-74.6446,39.69154],[-74.64516,39.69096],[-74.64499,39.69087],[-74.64442,39.69134],[-74.64427,39.69105],[-74.64442,39.69063],[-74.64409,39.69069],[-74.64394,39.69093],[-74.64358,39.6909],[-74.64391,39.69015],[-74.64391,39.68988],[-74.64351,39.68942],[-74.64415,39.68928],[-74.64453,39.68855],[-74.64555,39.68786],[-74.64604,39.68775],[-74.64624,39.68721],[-74.6467,39.68692],[-74.64613,39.68655],[-74.64532,39.68645],[-74.64523,39.68676],[-74.64564,39.68705],[-74.64561,39.68721],[-74.64394,39.68749],[-74.64382,39.68737],[-74.64379,39.68683],[-74.64298,39.68647],[-74.6423,39.68652],[-74.64169,39.68614],[-74.6412,39.68548],[-74.64085,39.68536],[-74.64065,39.68512],[-74.63984,39.68534],[-74.63932,39.68528],[-74.63924,39.68497],[-74.63957,39.68476],[-74.63966,39.68449],[-74.63852,39.68428],[-74.63779,39.68332],[-74.63699,39.68303],[-74.63701,39.68269],[-74.63652,39.68207],[-74.63654,39.68153],[-74.63698,39.68128],[-74.63806,39.68136],[-74.6381,39.68114],[-74.63826,39.68113],[-74.63848,39.68135],[-74.63836,39.68153],[-74.6384,39.68189],[-74.63894,39.68237],[-74.63912,39.68238],[-74.64002,39.68177],[-74.64057,39.68198],[-74.64084,39.6818],[-74.64096,39.68131],[-74.6414,39.68117],[-74.64087,39.68103],[-74.64074,39.6806],[-74.64043,39.68048],[-74.64059,39.68009],[-74.64053,39.67988],[-74.64093,39.67957],[-74.64146,39.67948],[-74.64182,39.67911],[-74.64228,39.67847],[-74.64221,39.67811],[-74.64238,39.67778],[-74.64296,39.67766],[-74.64348,39.677],[-74.64401,39.67677],[-74.64379,39.67665],[-74.64334,39.67686],[-74.64241,39.67671],[-74.6421,39.67641],[-74.64132,39.67618],[-74.64121,39.67587],[-74.64138,39.67562],[-74.64235,39.67543],[-74.64289,39.6757],[-74.64378,39.6757],[-74.64406,39.67556],[-74.64454,39.67565],[-74.64483,39.67582],[-74.64499,39.6765],[-74.64541,39.6766],[-74.64604,39.67643],[-74.64631,39.67659],[-74.64667,39.6766],[-74.64702,39.67635],[-74.64761,39.67623],[-74.6479,39.67578],[-74.64738,39.6754],[-74.64654,39.67536],[-74.64602,39.67497],[-74.64499,39.67467],[-74.64478,39.67422],[-74.64397,39.67431],[-74.64355,39.67423],[-74.64345,39.67373],[-74.64373,39.67353],[-74.6437,39.67334],[-74.64325,39.67334],[-74.64289,39.67378],[-74.64258,39.67366],[-74.64235,39.6734],[-74.64186,39.67349],[-74.64158,39.67314],[-74.64157,39.67293],[-74.64204,39.67218],[-74.64164,39.67191],[-74.64002,39.67178],[-74.63939,39.67158],[-74.63896,39.67162],[-74.63822,39.67118],[-74.6375,39.67184],[-74.63742,39.67156],[-74.63693,39.67132],[-74.63687,39.67102],[-74.63649,39.67075],[-74.63621,39.67075],[-74.63612,39.67116],[-74.63577,39.67113],[-74.63557,39.67089],[-74.63535,39.6701],[-74.63473,39.66987],[-74.63452,39.66994],[-74.6345,39.67017],[-74.63434,39.6703],[-74.63431,39.67048],[-74.63447,39.67066],[-74.6344,39.67079],[-74.63382,39.67072],[-74.63352,39.67116],[-74.6328,39.67123],[-74.63207,39.6707],[-74.63233,39.67034],[-74.63398,39.66976],[-74.63508,39.66895],[-74.63475,39.66832],[-74.63518,39.66787],[-74.63526,39.66724],[-74.63332,39.66586],[-74.63292,39.66528],[-74.63242,39.66506],[-74.63205,39.66455],[-74.63217,39.66434],[-74.63256,39.66422],[-74.63301,39.66451],[-74.6333,39.66403],[-74.63359,39.66397],[-74.63382,39.66421],[-74.63436,39.66385],[-74.63436,39.66344],[-74.63379,39.66314],[-74.63384,39.66295],[-74.63412,39.6626],[-74.63508,39.66223],[-74.63563,39.66167],[-74.63571,39.66112],[-74.63484,39.66102],[-74.63473,39.66085],[-74.63477,39.66042],[-74.63494,39.66028],[-74.63526,39.66035],[-74.63553,39.66018],[-74.6358,39.65989],[-74.63593,39.65938],[-74.63619,39.65898],[-74.63583,39.65835],[-74.63511,39.65805],[-74.63501,39.6579],[-74.63508,39.65753],[-74.63449,39.65709],[-74.63457,39.65676],[-74.63526,39.65682],[-74.63499,39.65641],[-74.63346,39.65621],[-74.63265,39.65646],[-74.63242,39.65677],[-74.63157,39.65718],[-74.63075,39.65781],[-74.63095,39.65794],[-74.63175,39.65793],[-74.63209,39.6582],[-74.63224,39.65844],[-74.63188,39.65884],[-74.63148,39.65905],[-74.63131,39.6588],[-74.63077,39.6586],[-74.63016,39.65898],[-74.62987,39.65942],[-74.62933,39.65924],[-74.62892,39.65934],[-74.62922,39.65972],[-74.62912,39.66042],[-74.62921,39.66093],[-74.62906,39.66114],[-74.62927,39.66159],[-74.62902,39.66239],[-74.62918,39.66275],[-74.62885,39.66311],[-74.62944,39.66295],[-74.63002,39.66296],[-74.63024,39.66329],[-74.62995,39.66347],[-74.6302,39.66383],[-74.63018,39.66405],[-74.62933,39.66395],[-74.62915,39.66443],[-74.62865,39.66446],[-74.62819,39.66485],[-74.62789,39.66492],[-74.62777,39.66515],[-74.62759,39.66512],[-74.62753,39.66491],[-74.62726,39.665],[-74.62677,39.66563],[-74.62685,39.66635],[-74.62659,39.66675],[-74.62583,39.667],[-74.62538,39.66681],[-74.62521,39.66726],[-74.6248,39.66765],[-74.62423,39.6674],[-74.62394,39.66746],[-74.6238,39.66796],[-74.62391,39.66817],[-74.62421,39.66801],[-74.62451,39.66811],[-74.62495,39.66805],[-74.62556,39.66781],[-74.62561,39.66739],[-74.62583,39.6672],[-74.62667,39.66757],[-74.62663,39.66823],[-74.62741,39.66889],[-74.62785,39.66953],[-74.62804,39.67012],[-74.62803,39.67089],[-74.62762,39.67101],[-74.62729,39.67158],[-74.6269,39.67121],[-74.62653,39.67148],[-74.62601,39.67051],[-74.62556,39.67071],[-74.62511,39.67047],[-74.62442,39.67044],[-74.62421,39.67015],[-74.6239,39.67007],[-74.62369,39.66965],[-74.62381,39.66918],[-74.62405,39.66886],[-74.62385,39.66819],[-74.62364,39.66847],[-74.62304,39.66883],[-74.62297,39.66924],[-74.62277,39.66929],[-74.62222,39.66905],[-74.62229,39.66868],[-74.62178,39.66832],[-74.622,39.66809],[-74.62196,39.66771],[-74.6218,39.66769],[-74.6211,39.66808],[-74.6206,39.66814],[-74.62048,39.66881],[-74.6199,39.66949],[-74.62008,39.66985],[-74.6199,39.67012],[-74.61999,39.67027],[-74.62044,39.67005],[-74.6209,39.67013],[-74.62081,39.66985],[-74.62114,39.66966],[-74.62171,39.66983],[-74.62187,39.67003],[-74.62241,39.67005],[-74.62277,39.67025],[-74.62299,39.67012],[-74.62304,39.66983],[-74.62335,39.6699],[-74.62358,39.6703],[-74.62367,39.67089],[-74.62394,39.67135],[-74.6243,39.67156],[-74.62417,39.67192],[-74.62428,39.67227],[-74.6242,39.67263],[-74.62468,39.67262],[-74.62475,39.67293],[-74.62499,39.6732],[-74.62498,39.67371],[-74.62529,39.67425],[-74.62587,39.67461],[-74.62574,39.67504],[-74.62622,39.67529],[-74.62636,39.67582],[-74.62672,39.67578],[-74.62684,39.67593],[-74.6269,39.67674],[-74.62748,39.67691],[-74.62791,39.6773],[-74.62767,39.67775],[-74.62803,39.67856],[-74.62803,39.67937],[-74.62748,39.67995],[-74.62707,39.68],[-74.62708,39.68027],[-74.6275,39.68072],[-74.6269,39.68079],[-74.62686,39.68108],[-74.62717,39.68164],[-74.62784,39.68212],[-74.62796,39.68236],[-74.62795,39.68275],[-74.62744,39.68304],[-74.62726,39.68359],[-74.62724,39.68425],[-74.62778,39.68442],[-74.62752,39.68512],[-74.62852,39.68505],[-74.62902,39.68454],[-74.62978,39.68442],[-74.63014,39.68476],[-74.63143,39.68517],[-74.63118,39.68566],[-74.63161,39.68611],[-74.63207,39.68633],[-74.63229,39.68702],[-74.63266,39.68726],[-74.63247,39.68759],[-74.63346,39.6882],[-74.6336,39.68808],[-74.6336,39.68768],[-74.63418,39.6875],[-74.63436,39.68785],[-74.63504,39.68812],[-74.63477,39.6884],[-74.63415,39.68832],[-74.63367,39.68883],[-74.63324,39.68889],[-74.63301,39.68921],[-74.63261,39.68911],[-74.63202,39.68862],[-74.63184,39.68871],[-74.63179,39.68911],[-74.63122,39.68925],[-74.631,39.68948],[-74.63044,39.68958],[-74.63014,39.68942],[-74.62978,39.68952]]],[[[-74.6764,39.71494],[-74.67721,39.7148],[-74.67744,39.71489],[-74.67755,39.71532],[-74.67724,39.71597],[-74.67665,39.71586],[-74.67674,39.71566],[-74.67649,39.71543],[-74.67591,39.71534],[-74.67604,39.71514],[-74.67637,39.71512],[-74.6764,39.71494]]],[[[-74.68161,39.71604],[-74.68089,39.71613],[-74.6808,39.71593],[-74.68111,39.71566],[-74.68062,39.71539],[-74.68044,39.71541],[-74.6803,39.7157],[-74.67999,39.7158],[-74.67958,39.71553],[-74.67957,39.7153],[-74.6799,39.71472],[-74.68026,39.71478],[-74.68046,39.7144],[-74.68006,39.71433],[-74.67965,39.71403],[-74.67941,39.71319],[-74.67891,39.71291],[-74.67868,39.71239],[-74.67836,39.71225],[-74.67852,39.71189],[-74.67827,39.71153],[-74.67898,39.71063],[-74.67885,39.70994],[-74.67936,39.70946],[-74.67945,39.7091],[-74.67909,39.70883],[-74.67876,39.7089],[-74.67869,39.70874],[-74.67882,39.70853],[-74.67931,39.7086],[-74.67936,39.70821],[-74.67882,39.70776],[-74.67855,39.70788],[-74.67817,39.7074],[-74.67819,39.70722],[-74.67782,39.70706],[-74.67754,39.7067],[-74.67741,39.70632],[-74.67753,39.70605],[-74.67737,39.70569],[-74.67776,39.70523],[-74.67766,39.70509],[-74.67746,39.70516],[-74.67766,39.70479],[-74.67743,39.70475],[-74.67724,39.70434],[-74.67743,39.70407],[-74.67731,39.70361],[-74.67703,39.70362],[-74.67712,39.70327],[-74.67678,39.70318],[-74.67694,39.70289],[-74.67733,39.70287],[-74.67766,39.70334],[-74.67811,39.70335],[-74.67782,39.70397],[-74.67751,39.70407],[-74.67766,39.7043],[-74.6779,39.70425],[-74.67794,39.70398],[-74.67832,39.70366],[-74.67854,39.70371],[-74.67854,39.70398],[-74.67817,39.70464],[-74.67858,39.70522],[-74.67854,39.70578],[-74.679,39.70614],[-74.67882,39.70663],[-74.67918,39.70663],[-74.67954,39.70699],[-74.67977,39.70704],[-74.67952,39.70769],[-74.6802,39.70764],[-74.67986,39.70794],[-74.68044,39.70855],[-74.68071,39.7084],[-74.68147,39.70861],[-74.68204,39.70975],[-74.68293,39.70976],[-74.68305,39.71023],[-74.68321,39.70998],[-74.68369,39.7099],[-74.68398,39.71032],[-74.68406,39.71066],[-74.68361,39.71108],[-74.68373,39.71162],[-74.68412,39.71189],[-74.6838,39.71234],[-74.68406,39.71272],[-74.6839,39.71292],[-74.68338,39.7129],[-74.68326,39.7127],[-74.68362,39.71234],[-74.68358,39.7122],[-74.68305,39.71225],[-74.68254,39.71207],[-74.68256,39.71252],[-74.68242,39.71279],[-74.68256,39.71351],[-74.68291,39.71354],[-74.6829,39.71324],[-74.68305,39.71315],[-74.68332,39.71325],[-74.68343,39.71351],[-74.68311,39.71366],[-74.68306,39.71397],[-74.6826,39.71412],[-74.68251,39.71431],[-74.68266,39.71458],[-74.6825,39.71476],[-74.68252,39.71503],[-74.6821,39.71602],[-74.68227,39.71656],[-74.68215,39.71699],[-74.68203,39.71704],[-74.6816,39.71675],[-74.68179,39.7162],[-74.68161,39.71604]]],[[[-74.6764,39.71494],[-74.67544,39.71518],[-74.67532,39.7148],[-74.67503,39.71479],[-74.67487,39.71425],[-74.67415,39.71416],[-74.6737,39.71372],[-74.67335,39.71368],[-74.67316,39.71345],[-74.67252,39.71316],[-74.67263,39.7127],[-74.67245,39.71265],[-74.67236,39.71243],[-74.67224,39.7124],[-74.67219,39.71271],[-74.672,39.71274],[-74.67128,39.71226],[-74.67074,39.71218],[-74.67038,39.71174],[-74.66954,39.7112],[-74.66939,39.71088],[-74.6691,39.71081],[-74.66935,39.71063],[-74.66905,39.71045],[-74.66884,39.71009],[-74.66909,39.70973],[-74.66844,39.70952],[-74.66827,39.7091],[-74.66831,39.70894],[-74.66862,39.70883],[-74.66867,39.7083],[-74.66793,39.70751],[-74.66791,39.70695],[-74.66773,39.7065],[-74.66783,39.70614],[-74.66757,39.70578],[-74.66762,39.70515],[-74.66804,39.70497],[-74.66791,39.70479],[-74.6676,39.7047],[-74.66747,39.70425],[-74.66757,39.70398],[-74.66727,39.70377],[-74.66716,39.70325],[-74.66686,39.70282],[-74.66688,39.70246],[-74.66708,39.70237],[-74.66708,39.70201],[-74.66742,39.70147],[-74.66697,39.7009],[-74.66649,39.7012],[-74.66652,39.70178],[-74.66608,39.70164],[-74.66594,39.70039],[-74.66611,39.69994],[-74.66593,39.69949],[-74.6655,39.69907],[-74.66512,39.69761],[-74.66519,39.6968],[-74.66503,39.69581],[-74.66486,39.69563],[-74.66503,39.69527],[-74.66487,39.69509],[-74.6649,39.69494],[-74.66508,39.69491],[-74.66529,39.69515],[-74.66532,39.69545],[-74.66544,39.69547],[-74.66586,39.69527],[-74.6655,39.69473],[-74.6658,39.69448],[-74.66607,39.6945],[-74.66631,39.69476],[-74.66682,39.69473],[-74.66661,39.69436],[-74.66596,39.69421],[-74.66583,39.69383],[-74.66598,39.69365],[-74.66566,39.69352],[-74.6656,39.69311],[-74.66524,39.69287],[-74.66521,39.69253],[-74.6645,39.69195],[-74.66416,39.69188],[-74.66409,39.69132],[-74.66369,39.69101],[-74.66353,39.69042],[-74.66324,39.6901],[-74.66319,39.68982],[-74.66276,39.68952],[-74.66292,39.68896],[-74.66282,39.68887],[-74.66254,39.68901],[-74.66272,39.6888],[-74.66227,39.68838],[-74.66203,39.68781],[-74.66138,39.68756],[-74.66091,39.68695],[-74.66083,39.68665],[-74.66098,39.68656],[-74.661,39.68611],[-74.66077,39.68567],[-74.66046,39.68543],[-74.66026,39.68485],[-74.6603,39.68456],[-74.6607,39.6844],[-74.6608,39.68422],[-74.66046,39.68399],[-74.66035,39.68374],[-74.65987,39.68358],[-74.65948,39.68326],[-74.65956,39.68287],[-74.65937,39.68269],[-74.65939,39.68234],[-74.65969,39.68189],[-74.65924,39.68162],[-74.65858,39.68168],[-74.65843,39.68198],[-74.65825,39.68192],[-74.65866,39.68117],[-74.65825,39.68066],[-74.6581,39.68092],[-74.6578,39.6809],[-74.65741,39.6803],[-74.6575,39.67978],[-74.65771,39.67982],[-74.65779,39.67937],[-74.65742,39.67876],[-74.65736,39.67811],[-74.65761,39.6765],[-74.65744,39.67614],[-74.6572,39.67596],[-74.65694,39.67515],[-74.65637,39.67472],[-74.65556,39.67457],[-74.6551,39.67426],[-74.65524,39.67321],[-74.65568,39.67281],[-74.65565,39.67201],[-74.6559,39.67093],[-74.65574,39.67051],[-74.65543,39.67042],[-74.65529,39.66984],[-74.65463,39.6697],[-74.65436,39.66952],[-74.65427,39.66931],[-74.65434,39.6685],[-74.65354,39.66764],[-74.6535,39.6668],[-74.65369,39.66626],[-74.65345,39.6659],[-74.65345,39.66527],[-74.65322,39.66487],[-74.65311,39.6648],[-74.65295,39.66493],[-74.6529,39.66482],[-74.65301,39.66374],[-74.65279,39.66347],[-74.6527,39.66221],[-74.6528,39.6617],[-74.65298,39.6615],[-74.65295,39.66093],[-74.65277,39.6609],[-74.65197,39.662],[-74.6517,39.66176],[-74.65179,39.66132],[-74.65161,39.66146],[-74.65147,39.66132],[-74.65161,39.66088],[-74.65234,39.66052],[-74.65279,39.66052],[-74.65291,39.65975],[-74.65334,39.65934],[-74.65313,39.65925],[-74.65325,39.65901],[-74.65313,39.65886],[-74.65277,39.65895],[-74.6522,39.6588],[-74.65194,39.65916],[-74.65236,39.65948],[-74.65238,39.65967],[-74.65197,39.65999],[-74.65179,39.65925],[-74.65161,39.65906],[-74.65163,39.65873],[-74.65191,39.65839],[-74.65223,39.65834],[-74.65268,39.65849],[-74.65265,39.65814],[-74.653,39.65799],[-74.65288,39.6578],[-74.65306,39.65736],[-74.65295,39.65718],[-74.6534,39.65702],[-74.6537,39.65709],[-74.65369,39.65779],[-74.65394,39.65779],[-74.65437,39.65734],[-74.65457,39.65739],[-74.65538,39.65711],[-74.65624,39.65767],[-74.65664,39.65826],[-74.65682,39.65824],[-74.65685,39.65808],[-74.65628,39.65729],[-74.65571,39.65694],[-74.65532,39.65608],[-74.65529,39.65575],[-74.65484,39.65526],[-74.65456,39.65539],[-74.65455,39.65575],[-74.65473,39.65586],[-74.65472,39.65617],[-74.65427,39.65629],[-74.65446,39.65646],[-74.65443,39.65659],[-74.65403,39.65685],[-74.65363,39.65669],[-74.65338,39.65629],[-74.65358,39.65593],[-74.65331,39.65557],[-74.65272,39.65518],[-74.65241,39.65435],[-74.65204,39.65388],[-74.65236,39.65374],[-74.65277,39.65413],[-74.65331,39.65429],[-74.65333,39.65413],[-74.65304,39.65376],[-74.65255,39.65373],[-74.65256,39.65355],[-74.65277,39.65343],[-74.65352,39.65365],[-74.65421,39.65404],[-74.65457,39.65395],[-74.65437,39.65361],[-74.65398,39.65356],[-74.65394,39.65314],[-74.65378,39.65295],[-74.65258,39.65244],[-74.65264,39.65202],[-74.65322,39.65163],[-74.65349,39.65161],[-74.65331,39.65143],[-74.65291,39.65138],[-74.6529,39.65108],[-74.65307,39.65072],[-74.65277,39.6502],[-74.65206,39.65054],[-74.6519,39.65092],[-74.65165,39.65108],[-74.65183,39.65125],[-74.65157,39.65161],[-74.65204,39.65224],[-74.65188,39.65278],[-74.65232,39.65294],[-74.65277,39.65287],[-74.65259,39.65305],[-74.65263,39.65327],[-74.65161,39.65327],[-74.65098,39.65274],[-74.65066,39.653],[-74.65039,39.65292],[-74.6504,39.65233],[-74.65069,39.65199],[-74.65049,39.65143],[-74.65063,39.65072],[-74.65103,39.64996],[-74.65134,39.64978],[-74.65155,39.64931],[-74.65188,39.64911],[-74.65237,39.64766],[-74.65232,39.64745],[-74.65206,39.64752],[-74.65165,39.64712],[-74.65138,39.64708],[-74.65107,39.6463],[-74.65049,39.64573],[-74.64968,39.6442],[-74.64968,39.64358],[-74.65019,39.6431],[-74.65078,39.64301],[-74.65109,39.64314],[-74.65112,39.64341],[-74.65084,39.64362],[-74.65151,39.64426],[-74.65179,39.64511],[-74.65215,39.64558],[-74.65253,39.64551],[-74.65216,39.64533],[-74.65235,39.64455],[-74.65268,39.64447],[-74.65285,39.6448],[-74.65326,39.64493],[-74.65337,39.64551],[-74.65364,39.6459],[-74.65352,39.64649],[-74.65376,39.64667],[-74.6534,39.64703],[-74.65395,39.64765],[-74.65383,39.64784],[-74.65421,39.64792],[-74.65444,39.64763],[-74.65493,39.64745],[-74.65493,39.64784],[-74.65511,39.64782],[-74.65574,39.64745],[-74.65584,39.64757],[-74.65574,39.64814],[-74.65628,39.64822],[-74.65683,39.64803],[-74.65724,39.64763],[-74.65739,39.64772],[-74.65746,39.6482],[-74.65727,39.64856],[-74.65773,39.64872],[-74.65783,39.64892],[-74.65749,39.64946],[-74.65756,39.64976],[-74.65744,39.64985],[-74.65712,39.64973],[-74.65712,39.65018],[-74.65722,39.65036],[-74.65767,39.65058],[-74.65791,39.65161],[-74.65784,39.65179],[-74.65807,39.65206],[-74.65797,39.65223],[-74.65771,39.65223],[-74.65744,39.652],[-74.65719,39.65215],[-74.65762,39.65255],[-74.65816,39.65233],[-74.65819,39.65251],[-74.65876,39.65314],[-74.65829,39.65422],[-74.65865,39.65463],[-74.65873,39.65494],[-74.6581,39.65539],[-74.65827,39.65593],[-74.65822,39.65638],[-74.6578,39.65655],[-74.65777,39.65673],[-74.65786,39.65718],[-74.65831,39.6573],[-74.65843,39.65754],[-74.65814,39.6579],[-74.65807,39.6588],[-74.65843,39.65899],[-74.65886,39.65898],[-74.65849,39.6594],[-74.65789,39.65951],[-74.65762,39.65979],[-74.65758,39.66033],[-74.65744,39.66052],[-74.65762,39.66136],[-74.65831,39.66261],[-74.65851,39.66365],[-74.65843,39.66392],[-74.65856,39.66396],[-74.65854,39.66365],[-74.65883,39.66343],[-74.65952,39.66373],[-74.65942,39.66392],[-74.65971,39.6641],[-74.65924,39.66408],[-74.65886,39.66434],[-74.65915,39.66484],[-74.65951,39.66491],[-74.65928,39.66509],[-74.65928,39.66536],[-74.65913,39.66554],[-74.65922,39.66642],[-74.65992,39.6672],[-74.65987,39.66814],[-74.66014,39.6685],[-74.66084,39.66895],[-74.66083,39.6691],[-74.66041,39.66937],[-74.66037,39.66958],[-74.66072,39.67017],[-74.66078,39.67093],[-74.66122,39.67147],[-74.66178,39.67171],[-74.66227,39.67245],[-74.66364,39.67266],[-74.66392,39.67298],[-74.66409,39.67354],[-74.66433,39.67362],[-74.66415,39.6738],[-74.66421,39.67407],[-74.66391,39.67425],[-74.66421,39.67431],[-74.66417,39.67452],[-74.66458,39.67479],[-74.66436,39.67496],[-74.66442,39.67629],[-74.66422,39.67757],[-74.6644,39.67789],[-74.66442,39.67865],[-74.66526,39.68054],[-74.6657,39.68091],[-74.666,39.68097],[-74.66632,39.68144],[-74.6671,39.68185],[-74.66757,39.68245],[-74.66773,39.68305],[-74.66751,39.68359],[-74.6679,39.68395],[-74.66744,39.68422],[-74.6676,39.68456],[-74.66795,39.68485],[-74.66831,39.68489],[-74.66839,39.68476],[-74.6681,39.68443],[-74.66806,39.68413],[-74.6684,39.68403],[-74.6688,39.68418],[-74.66924,39.68521],[-74.66917,39.68557],[-74.67011,39.68659],[-74.67153,39.68746],[-74.67259,39.68776],[-74.67307,39.6882],[-74.67334,39.6882],[-74.67339,39.68844],[-74.67392,39.68868],[-74.67439,39.68938],[-74.67469,39.69089],[-74.67519,39.69087],[-74.67523,39.69078],[-74.67479,39.6906],[-74.67501,39.69029],[-74.67536,39.69038],[-74.67592,39.6918],[-74.67585,39.69258],[-74.6762,39.69322],[-74.67589,39.69383],[-74.67602,39.69455],[-74.67582,39.69509],[-74.67604,39.69569],[-74.67703,39.69671],[-74.67808,39.6971],[-74.67864,39.69761],[-74.67906,39.69773],[-74.67958,39.6982],[-74.67963,39.69847],[-74.67996,39.6988],[-74.68016,39.70057],[-74.67956,39.70111],[-74.67974,39.70127],[-74.67981,39.70157],[-74.68022,39.70196],[-74.68031,39.70246],[-74.68058,39.70258],[-74.68112,39.70327],[-74.68202,39.70398],[-74.68262,39.70414],[-74.68305,39.70463],[-74.68363,39.70501],[-74.6839,39.70538],[-74.68394,39.70574],[-74.68439,39.70572],[-74.68479,39.70601],[-74.6854,39.7074],[-74.68522,39.70794],[-74.68545,39.70919],[-74.68536,39.70958],[-74.68556,39.70953],[-74.68614,39.70987],[-74.68653,39.71038],[-74.687,39.71041],[-74.68775,39.71069],[-74.68803,39.71176],[-74.68829,39.71207],[-74.68881,39.71232],[-74.68888,39.71261],[-74.68914,39.7127],[-74.68924,39.71315],[-74.68947,39.71328],[-74.68965,39.71369],[-74.68963,39.71392],[-74.69027,39.71401],[-74.69028,39.71418],[-74.69002,39.71449],[-74.69025,39.71467],[-74.68996,39.71467],[-74.68993,39.71506],[-74.6908,39.71501],[-74.69128,39.71548],[-74.69129,39.71654],[-74.69102,39.71683],[-74.69101,39.71701],[-74.69113,39.71729],[-74.69153,39.71742],[-74.69174,39.71827],[-74.69208,39.71881],[-74.69176,39.71925],[-74.69174,39.71961],[-74.69152,39.71979],[-74.69156,39.72035],[-74.69185,39.72051],[-74.69253,39.72037],[-74.69298,39.72096],[-74.69279,39.7211],[-74.69205,39.72105],[-74.69218,39.72132],[-74.69213,39.72213],[-74.69187,39.72233],[-74.69158,39.72231],[-74.69158,39.72263],[-74.69188,39.72258],[-74.69175,39.72292],[-74.6918,39.72348],[-74.69137,39.72384],[-74.69116,39.72455],[-74.69132,39.725],[-74.69179,39.72524],[-74.6921,39.72581],[-74.69248,39.72604],[-74.69273,39.72599],[-74.69305,39.72567],[-74.69376,39.72548],[-74.69415,39.72558],[-74.69433,39.72599],[-74.69391,39.72653],[-74.69378,39.72711],[-74.69347,39.72734],[-74.69341,39.72761],[-74.69366,39.72788],[-74.69451,39.72818],[-74.69499,39.72887],[-74.69571,39.72908],[-74.6961,39.72901],[-74.69631,39.72926],[-74.69639,39.72967],[-74.69577,39.72971],[-74.69553,39.72944],[-74.69505,39.72934],[-74.69302,39.72815],[-74.69113,39.72776],[-74.69086,39.72783],[-74.69015,39.72751],[-74.68965,39.72748],[-74.68942,39.72715],[-74.68885,39.72693],[-74.68745,39.72581],[-74.68687,39.72558],[-74.68613,39.72455],[-74.6857,39.72441],[-74.6855,39.7239],[-74.68514,39.72366],[-74.68502,39.72303],[-74.68456,39.72295],[-74.68412,39.72231],[-74.68391,39.72225],[-74.68398,39.72168],[-74.68354,39.72172],[-74.68345,39.72159],[-74.68361,39.72141],[-74.68349,39.72116],[-74.68268,39.72079],[-74.68279,39.72015],[-74.68263,39.71961],[-74.68278,39.71937],[-74.68314,39.71952],[-74.68302,39.71878],[-74.68342,39.71854],[-74.68364,39.71805],[-74.68397,39.71791],[-74.68381,39.71719],[-74.68396,39.71692],[-74.68363,39.71665],[-74.68367,39.71651],[-74.68411,39.71638],[-74.68415,39.71602],[-74.68384,39.71567],[-74.68385,39.71545],[-74.68367,39.71535],[-74.68349,39.71554],[-74.68332,39.71539],[-74.68348,39.71458],[-74.68338,39.71419],[-74.68362,39.71386],[-74.68364,39.7136],[-74.68394,39.71331],[-74.68421,39.71369],[-74.68448,39.71377],[-74.68457,39.71401],[-74.68486,39.71407],[-74.68525,39.71346],[-74.68554,39.71344],[-74.68547,39.71422],[-74.68601,39.71449],[-74.68634,39.71386],[-74.68629,39.71368],[-74.68597,39.71372],[-74.68594,39.71351],[-74.68608,39.71333],[-74.6856,39.71288],[-74.6859,39.71252],[-74.68556,39.71189],[-74.6858,39.71162],[-74.68581,39.71124],[-74.68617,39.71108],[-74.68616,39.71093],[-74.68592,39.71081],[-74.68614,39.71032],[-74.68601,39.71021],[-74.68583,39.71041],[-74.68592,39.71018],[-74.68577,39.71006],[-74.68538,39.71015],[-74.68486,39.71008],[-74.68376,39.70883],[-74.68349,39.70894],[-74.68294,39.70858],[-74.6829,39.70812],[-74.68349,39.70779],[-74.68353,39.70754],[-74.68274,39.70736],[-74.68188,39.70787],[-74.68161,39.70779],[-74.68143,39.70793],[-74.68121,39.7078],[-74.6812,39.70722],[-74.68107,39.70704],[-74.68157,39.70686],[-74.68174,39.7065],[-74.68071,39.70611],[-74.68017,39.70622],[-74.67951,39.70581],[-74.67952,39.70557],[-74.67972,39.70533],[-74.67944,39.70507],[-74.67945,39.70488],[-74.67996,39.70476],[-74.68001,39.70461],[-74.67956,39.70443],[-74.67972,39.70371],[-74.67928,39.70318],[-74.67915,39.70273],[-74.67873,39.70246],[-74.67887,39.70183],[-74.67875,39.70145],[-74.67803,39.70093],[-74.67828,39.70075],[-74.67819,39.70057],[-74.67846,39.7003],[-74.67845,39.70012],[-74.67803,39.69993],[-74.6773,39.69913],[-74.67672,39.69899],[-74.67604,39.6985],[-74.67595,39.69788],[-74.67541,39.69803],[-74.67519,39.69774],[-74.67493,39.69773],[-74.67494,39.69726],[-74.67442,39.69688],[-74.67415,39.69676],[-74.67307,39.69683],[-74.67307,39.69653],[-74.67273,39.69597],[-74.67236,39.69604],[-74.672,39.69635],[-74.67227,39.6968],[-74.67218,39.69689],[-74.67224,39.69743],[-74.67198,39.69759],[-74.67194,39.69845],[-74.67167,39.69788],[-74.67128,39.69752],[-74.67116,39.69767],[-74.67119,39.6978],[-74.67159,39.69801],[-74.67164,39.69844],[-74.67218,39.69853],[-74.67227,39.69877],[-74.672,39.69895],[-74.67236,39.6994],[-74.67191,39.69952],[-74.67144,39.69929],[-74.67148,39.6996],[-74.67083,39.69985],[-74.67072,39.70012],[-74.67158,39.70081],[-74.67182,39.70158],[-74.67236,39.70124],[-74.67245,39.70138],[-74.67275,39.70143],[-74.67279,39.70183],[-74.67372,39.70298],[-74.67374,39.70318],[-74.67343,39.70353],[-74.67343,39.70378],[-74.67451,39.7039],[-74.67468,39.70444],[-74.67496,39.7046],[-74.6751,39.70448],[-74.67499,39.70413],[-74.67514,39.70371],[-74.67559,39.70398],[-74.67536,39.70402],[-74.67536,39.70422],[-74.67559,39.70407],[-74.67608,39.70452],[-74.67613,39.70488],[-74.67597,39.70524],[-74.67636,39.70542],[-74.67616,39.7062],[-74.67652,39.70629],[-74.67658,39.70641],[-74.67637,39.70653],[-74.67622,39.70634],[-74.67585,39.70624],[-74.67572,39.70614],[-74.67571,39.70578],[-74.67534,39.70571],[-74.67521,39.70596],[-74.67525,39.70632],[-74.6751,39.7065],[-74.67532,39.70657],[-74.67559,39.70641],[-74.67571,39.70683],[-74.67631,39.70681],[-74.67649,39.70704],[-74.67641,39.70722],[-74.67665,39.70749],[-74.67652,39.70761],[-74.67621,39.70759],[-74.67577,39.70722],[-74.67545,39.70762],[-74.67514,39.70776],[-74.6755,39.70787],[-74.67562,39.70821],[-74.67508,39.70848],[-74.67499,39.70865],[-74.67532,39.70883],[-74.67525,39.70937],[-74.67575,39.71],[-74.67514,39.71049],[-74.6746,39.71056],[-74.67442,39.71072],[-74.67487,39.71132],[-74.67514,39.71118],[-74.67526,39.71093],[-74.6756,39.71083],[-74.67584,39.71043],[-74.67622,39.7102],[-74.6766,39.71029],[-74.67665,39.70998],[-74.67694,39.70982],[-74.67739,39.71045],[-74.67723,39.71138],[-74.67673,39.71216],[-74.67673,39.71228],[-74.67705,39.7124],[-74.67707,39.71252],[-74.67689,39.71301],[-74.67656,39.71322],[-74.67646,39.71351],[-74.67647,39.71386],[-74.67664,39.71413],[-74.6764,39.71494]]],[[[-74.72607,39.73372],[-74.72641,39.7339],[-74.72634,39.73414],[-74.72603,39.73412],[-74.72607,39.73372]]],[[[-74.72607,39.73372],[-74.72544,39.73366],[-74.725,39.7339],[-74.72464,39.73372],[-74.72402,39.73399],[-74.72398,39.73417],[-74.72371,39.73435],[-74.72437,39.73479],[-74.72419,39.73485],[-74.72383,39.73472],[-74.7205,39.73454],[-74.72032,39.73444],[-74.71998,39.73463],[-74.71833,39.73392],[-74.71772,39.73337],[-74.71712,39.73333],[-74.71665,39.73299],[-74.7161,39.73293],[-74.71565,39.73258],[-74.71502,39.73255],[-74.71502,39.73282],[-74.71537,39.7331],[-74.71568,39.73315],[-74.71583,39.73345],[-74.71646,39.73368],[-74.71696,39.73367],[-74.71731,39.73417],[-74.71747,39.73469],[-74.71783,39.73488],[-74.71772,39.73506],[-74.71664,39.73486],[-74.71631,39.7351],[-74.71622,39.73551],[-74.7154,39.73558],[-74.71507,39.73524],[-74.71525,39.73488],[-74.71517,39.73474],[-74.71385,39.7339],[-74.71322,39.73327],[-74.7131,39.73291],[-74.71275,39.73258],[-74.71209,39.73237],[-74.71133,39.73192],[-74.71117,39.73156],[-74.71131,39.73115],[-74.71118,39.73093],[-74.71184,39.7308],[-74.71187,39.7303],[-74.7107,39.72976],[-74.71033,39.7294],[-74.70971,39.72915],[-74.70942,39.72887],[-74.7082,39.72832],[-74.70721,39.72815],[-74.70676,39.72827],[-74.70586,39.72817],[-74.70541,39.72827],[-74.70505,39.72812],[-74.70458,39.72821],[-74.7046,39.72851],[-74.70525,39.72887],[-74.70333,39.7293],[-74.70254,39.73013],[-74.70199,39.73021],[-74.70107,39.72916],[-74.70083,39.72861],[-74.69948,39.72832],[-74.69857,39.72831],[-74.69787,39.72853],[-74.69755,39.72837],[-74.69699,39.72768],[-74.6967,39.72768],[-74.6965,39.72745],[-74.69598,39.7272],[-74.695,39.72725],[-74.69502,39.72689],[-74.69531,39.72649],[-74.69561,39.72545],[-74.69545,39.72499],[-74.69515,39.72467],[-74.69454,39.72453],[-74.69347,39.72508],[-74.69235,39.72464],[-74.69233,39.72437],[-74.69302,39.72411],[-74.69322,39.72359],[-74.69418,39.72344],[-74.6943,39.72267],[-74.69395,39.7224],[-74.694,39.72217],[-74.69382,39.72204],[-74.69436,39.72186],[-74.69422,39.72159],[-74.69436,39.72134],[-74.6949,39.72146],[-74.69528,39.72123],[-74.69486,39.72042],[-74.6945,39.72024],[-74.69424,39.7197],[-74.69478,39.71913],[-74.69485,39.71881],[-74.69463,39.7187],[-74.69436,39.71885],[-74.69421,39.71937],[-74.694,39.71941],[-74.69382,39.71926],[-74.69381,39.71898],[-74.69402,39.71872],[-74.69352,39.71755],[-74.69352,39.71686],[-74.69257,39.71636],[-74.69249,39.7162],[-74.69258,39.71584],[-74.69235,39.71566],[-74.69228,39.71485],[-74.69266,39.71476],[-74.69273,39.71449],[-74.69246,39.71434],[-74.6918,39.71431],[-74.69151,39.71321],[-74.69132,39.71297],[-74.69147,39.71279],[-74.69102,39.71216],[-74.6911,39.71198],[-74.69144,39.71194],[-74.69239,39.71257],[-74.69239,39.71198],[-74.69183,39.71173],[-74.69177,39.71143],[-74.69095,39.71094],[-74.69068,39.71083],[-74.69023,39.71095],[-74.68953,39.71016],[-74.68907,39.71],[-74.68817,39.70914],[-74.68745,39.70902],[-74.68728,39.70812],[-74.68711,39.70785],[-74.6872,39.70769],[-74.68776,39.70753],[-74.68817,39.70796],[-74.68879,39.7081],[-74.68897,39.70794],[-74.68861,39.70772],[-74.68832,39.70778],[-74.68795,39.70752],[-74.68775,39.70719],[-74.68719,39.70732],[-74.68655,39.70722],[-74.6861,39.70668],[-74.68616,39.70629],[-74.68634,39.70614],[-74.6861,39.70503],[-74.68576,39.70571],[-74.68556,39.70572],[-74.6852,39.70501],[-74.68448,39.70427],[-74.68334,39.70333],[-74.68269,39.70327],[-74.6824,39.7031],[-74.68228,39.70268],[-74.68188,39.70246],[-74.68097,39.70157],[-74.68052,39.70075],[-74.68089,39.69995],[-74.68107,39.69992],[-74.68125,39.70019],[-74.68188,39.70003],[-74.68206,39.70012],[-74.68186,39.7003],[-74.682,39.70035],[-74.68224,39.7003],[-74.68215,39.70021],[-74.68244,39.70003],[-74.68197,39.69964],[-74.68134,39.69951],[-74.68098,39.69963],[-74.681,39.69943],[-74.68125,39.69945],[-74.68135,39.69932],[-74.68128,39.69907],[-74.68144,39.69886],[-74.68142,39.69832],[-74.68126,39.69813],[-74.6808,39.69832],[-74.68063,39.69814],[-74.68065,39.69799],[-74.68118,39.6977],[-74.68052,39.69734],[-74.68065,39.6968],[-74.6804,39.69653],[-74.68078,39.69599],[-74.68062,39.69592],[-74.68026,39.69617],[-74.67974,39.6959],[-74.67967,39.69572],[-74.67985,39.69545],[-74.6797,39.69529],[-74.679,39.69535],[-74.67881,39.69518],[-74.67891,39.69503],[-74.67936,39.69498],[-74.67981,39.69467],[-74.68026,39.69457],[-74.68062,39.69392],[-74.68026,39.69379],[-74.6801,39.69421],[-74.6799,39.69419],[-74.67981,39.6941],[-74.67995,39.69379],[-74.67988,39.69358],[-74.67882,39.6941],[-74.67802,39.69363],[-74.67755,39.69356],[-74.67732,39.69302],[-74.67857,39.69214],[-74.67856,39.69186],[-74.67885,39.69168],[-74.67879,39.69147],[-74.67996,39.69174],[-74.68028,39.69121],[-74.67997,39.69107],[-74.67927,39.69107],[-74.67891,39.69123],[-74.67846,39.69116],[-74.67805,39.69135],[-74.67762,39.69136],[-74.67767,39.69114],[-74.67791,39.69096],[-74.67796,39.69042],[-74.67846,39.69006],[-74.67843,39.68979],[-74.67864,39.68952],[-74.67843,39.68853],[-74.67817,39.68842],[-74.67781,39.68896],[-74.67721,39.68895],[-74.67709,39.6888],[-74.67721,39.68853],[-74.67715,39.68823],[-74.67688,39.68772],[-74.67709,39.68755],[-74.67694,39.68719],[-74.67676,39.6871],[-74.67669,39.68737],[-74.67658,39.68739],[-74.67649,39.68719],[-74.67667,39.68701],[-74.67613,39.68701],[-74.67628,39.68719],[-74.67595,39.6873],[-74.67532,39.68701],[-74.67535,39.68677],[-74.67586,39.6868],[-74.67595,39.68665],[-74.67522,39.68657],[-74.67514,39.68629],[-74.67461,39.68628],[-74.67433,39.68575],[-74.67455,39.68557],[-74.67424,39.68539],[-74.67406,39.68543],[-74.67415,39.68521],[-74.67361,39.68518],[-74.67307,39.68533],[-74.6729,39.68497],[-74.67238,39.6856],[-74.67197,39.68539],[-74.67162,39.6846],[-74.6711,39.68449],[-74.67083,39.68395],[-74.67098,39.68374],[-74.67177,39.68364],[-74.67175,39.68339],[-74.67159,39.68323],[-74.67195,39.6826],[-74.67191,39.68243],[-74.67155,39.68246],[-74.67101,39.68277],[-74.67095,39.68362],[-74.67065,39.68376],[-74.67025,39.68336],[-74.66993,39.68277],[-74.66961,39.68269],[-74.66919,39.68234],[-74.66873,39.68162],[-74.66888,39.68144],[-74.6686,39.68117],[-74.66855,39.6809],[-74.66769,39.68037],[-74.66667,39.67919],[-74.66672,39.67838],[-74.6664,39.67791],[-74.66653,39.6765],[-74.66618,39.67576],[-74.66576,39.67528],[-74.66564,39.67486],[-74.66526,39.67441],[-74.66541,39.67416],[-74.66532,39.6738],[-74.66544,39.67353],[-74.66562,39.67344],[-74.66606,39.6738],[-74.66658,39.67473],[-74.66762,39.67539],[-74.66821,39.67623],[-74.66902,39.67705],[-74.66969,39.67718],[-74.6702,39.67758],[-74.67051,39.67793],[-74.67047,39.67838],[-74.67155,39.67864],[-74.67254,39.67829],[-74.67272,39.67875],[-74.67256,39.67894],[-74.67212,39.6791],[-74.6723,39.67964],[-74.67217,39.68063],[-74.67242,39.68101],[-74.67246,39.68162],[-74.67278,39.682],[-74.67299,39.68198],[-74.67326,39.68162],[-74.67363,39.68169],[-74.67393,39.68198],[-74.674,39.68267],[-74.67451,39.68289],[-74.67514,39.68275],[-74.6755,39.68244],[-74.67622,39.68257],[-74.67655,39.683],[-74.6769,39.68305],[-74.67786,39.68375],[-74.67846,39.68439],[-74.67873,39.6845],[-74.67886,39.68539],[-74.67927,39.68619],[-74.67963,39.68616],[-74.6799,39.68646],[-74.68081,39.68665],[-74.6808,39.68719],[-74.68107,39.68749],[-74.6802,39.68766],[-74.67996,39.68788],[-74.68008,39.68819],[-74.67963,39.68822],[-74.67957,39.68835],[-74.68017,39.68862],[-74.68014,39.68898],[-74.68042,39.68934],[-74.68025,39.6896],[-74.6803,39.68975],[-74.6808,39.6898],[-74.68095,39.68997],[-74.68089,39.69025],[-74.68061,39.69042],[-74.68064,39.69069],[-74.68044,39.69114],[-74.68058,39.69141],[-74.68046,39.69177],[-74.68065,39.69191],[-74.6817,39.69211],[-74.68157,39.69267],[-74.68189,39.69319],[-74.68302,39.69341],[-74.68358,39.69399],[-74.68394,39.69414],[-74.68447,39.694],[-74.68475,39.6941],[-74.68521,39.69402],[-74.6851,39.69348],[-74.68475,39.69326],[-74.68403,39.6935],[-74.68314,39.69297],[-74.68269,39.69301],[-74.68239,39.69242],[-74.68241,39.69177],[-74.6828,39.69116],[-74.68314,39.6911],[-74.68424,39.69165],[-74.68438,39.69187],[-74.68561,39.69217],[-74.68572,39.69233],[-74.68619,39.69247],[-74.68664,39.69251],[-74.68697,39.69276],[-74.68691,39.69296],[-74.68736,39.69299],[-74.68772,39.69329],[-74.68826,39.69324],[-74.68915,39.69355],[-74.6898,39.694],[-74.68969,39.69426],[-74.6887,39.69391],[-74.68781,39.69403],[-74.68754,39.69393],[-74.68727,39.69411],[-74.68637,39.69391],[-74.68619,39.69442],[-74.686,39.69402],[-74.68565,39.69398],[-74.68551,39.69437],[-74.68583,39.69488],[-74.68637,39.69505],[-74.68671,39.69471],[-74.68763,39.69446],[-74.68811,39.6947],[-74.68815,39.69502],[-74.68838,39.69533],[-74.68888,39.69534],[-74.68898,39.69527],[-74.68895,39.69462],[-74.6896,39.6948],[-74.68984,39.69452],[-74.69014,39.69446],[-74.69028,39.69482],[-74.69009,39.695],[-74.69011,39.69539],[-74.69086,39.69539],[-74.6916,39.69565],[-74.69203,39.69555],[-74.69282,39.69608],[-74.6926,39.69626],[-74.6932,39.69633],[-74.69338,39.6966],[-74.69411,39.69678],[-74.694,39.69734],[-74.69354,39.6977],[-74.69356,39.69809],[-74.69371,39.69812],[-74.694,39.69771],[-74.69457,39.69763],[-74.69481,39.69745],[-74.69493,39.6977],[-74.6963,39.6981],[-74.6964,39.69832],[-74.69628,39.69844],[-74.69571,39.69834],[-74.69499,39.69854],[-74.69442,39.69841],[-74.69454,39.69897],[-74.69464,39.69896],[-74.69459,39.69877],[-74.69499,39.69864],[-74.69582,39.69876],[-74.6962,39.69891],[-74.69641,39.69934],[-74.69688,39.69964],[-74.69823,39.69978],[-74.69964,39.70041],[-74.70038,39.7012],[-74.70109,39.70166],[-74.70142,39.7025],[-74.70155,39.70257],[-74.70173,39.70243],[-74.70221,39.70255],[-74.70231,39.70286],[-74.70179,39.703],[-74.70184,39.70338],[-74.70155,39.7037],[-74.70088,39.70348],[-74.70077,39.70314],[-74.6998,39.70259],[-74.69958,39.70227],[-74.69914,39.70229],[-74.69944,39.70282],[-74.70026,39.70321],[-74.70123,39.70389],[-74.70245,39.70397],[-74.70353,39.70465],[-74.70362,39.70461],[-74.7035,39.70434],[-74.70357,39.70421],[-74.70416,39.70428],[-74.70577,39.7053],[-74.70629,39.70544],[-74.70685,39.70591],[-74.70795,39.7062],[-74.70815,39.70659],[-74.70865,39.70686],[-74.70926,39.70749],[-74.71044,39.70791],[-74.71107,39.70781],[-74.71197,39.70839],[-74.71224,39.70834],[-74.71314,39.70855],[-74.71332,39.70925],[-74.71372,39.70915],[-74.71401,39.70946],[-74.71484,39.70994],[-74.71529,39.70991],[-74.71547,39.71027],[-74.71601,39.71016],[-74.71637,39.71064],[-74.71763,39.71078],[-74.71817,39.71111],[-74.71853,39.71084],[-74.71934,39.71128],[-74.71956,39.71121],[-74.71974,39.7109],[-74.72113,39.71126],[-74.7213,39.71117],[-74.72133,39.7109],[-74.72149,39.71078],[-74.72194,39.71073],[-74.72221,39.711],[-74.72257,39.71086],[-74.72275,39.71061],[-74.72354,39.71065],[-74.72405,39.71104],[-74.72416,39.71135],[-74.72358,39.71189],[-74.72346,39.71216],[-74.7236,39.71243],[-74.7232,39.71252],[-74.7232,39.71261],[-74.72367,39.71281],[-74.72407,39.71267],[-74.72437,39.71278],[-74.72496,39.71273],[-74.72553,39.71299],[-74.72581,39.71333],[-74.72553,39.71344],[-74.72473,39.71323],[-74.72428,39.71324],[-74.72441,39.71369],[-74.72397,39.71395],[-74.72397,39.71431],[-74.72383,39.71446],[-74.72248,39.71404],[-74.72239,39.71413],[-74.72246,39.7144],[-74.72226,39.71458],[-74.72293,39.71499],[-74.72349,39.71492],[-74.72421,39.71514],[-74.7244,39.71476],[-74.72431,39.7144],[-74.72443,39.71393],[-74.72473,39.71379],[-74.72508,39.71405],[-74.72575,39.71422],[-74.72733,39.71433],[-74.72796,39.71461],[-74.72896,39.71451],[-74.72949,39.71431],[-74.73007,39.71458],[-74.72997,39.71503],[-74.73068,39.71584],[-74.73018,39.71602],[-74.7301,39.7162],[-74.73046,39.7164],[-74.73056,39.71674],[-74.73119,39.71728],[-74.73103,39.71757],[-74.73058,39.71774],[-74.72877,39.71773],[-74.72805,39.71759],[-74.72782,39.71741],[-74.72733,39.71744],[-74.72571,39.71808],[-74.725,39.71858],[-74.72466,39.71834],[-74.72475,39.71782],[-74.72437,39.71698],[-74.72383,39.71679],[-74.72338,39.71688],[-74.72293,39.71674],[-74.7223,39.7171],[-74.72218,39.71737],[-74.72221,39.71783],[-74.72275,39.71832],[-74.72365,39.71803],[-74.72411,39.71863],[-74.72401,39.71881],[-74.72374,39.7189],[-74.72266,39.71861],[-74.72248,39.71972],[-74.72228,39.71954],[-74.72133,39.71925],[-74.72139,39.71898],[-74.72104,39.71875],[-74.7205,39.71863],[-74.72005,39.71881],[-74.71979,39.71854],[-74.71945,39.7178],[-74.71908,39.71809],[-74.71962,39.71888],[-74.71961,39.71907],[-74.71943,39.71916],[-74.71958,39.71925],[-74.71987,39.71911],[-74.7205,39.71939],[-74.72068,39.71965],[-74.72149,39.72015],[-74.72203,39.72003],[-74.72311,39.72006],[-74.72338,39.71984],[-74.72353,39.72006],[-74.72339,39.72033],[-74.72345,39.7206],[-74.7239,39.72123],[-74.72482,39.72149],[-74.72561,39.72205],[-74.72721,39.72234],[-74.72769,39.72261],[-74.7281,39.72249],[-74.72754,39.72213],[-74.72778,39.72175],[-74.72715,39.72121],[-74.72651,39.72107],[-74.72652,39.72069],[-74.72715,39.72036],[-74.72868,39.72107],[-74.72916,39.7209],[-74.72919,39.72078],[-74.72904,39.72051],[-74.72787,39.72032],[-74.72712,39.72],[-74.72696,39.7197],[-74.72703,39.71925],[-74.72688,39.71874],[-74.72661,39.7185],[-74.72634,39.71854],[-74.72642,39.71836],[-74.72706,39.71795],[-74.72832,39.71818],[-74.72922,39.71793],[-74.72994,39.71825],[-74.73119,39.71827],[-74.73134,39.71836],[-74.73123,39.71863],[-74.732,39.71883],[-74.73229,39.71925],[-74.73227,39.71943],[-74.73182,39.71941],[-74.73137,39.71961],[-74.73179,39.71992],[-74.7324,39.71993],[-74.73272,39.72036],[-74.73317,39.72042],[-74.73331,39.7206],[-74.73311,39.72087],[-74.73321,39.72123],[-74.73299,39.72168],[-74.7333,39.72222],[-74.73322,39.72258],[-74.73381,39.72258],[-74.73368,39.72285],[-74.73393,39.7233],[-74.73389,39.72346],[-74.73326,39.72375],[-74.73307,39.7233],[-74.73234,39.72323],[-74.732,39.72299],[-74.73173,39.72318],[-74.73145,39.72313],[-74.73137,39.72294],[-74.73146,39.72276],[-74.73197,39.72267],[-74.73179,39.72216],[-74.73128,39.72235],[-74.73074,39.72222],[-74.73024,39.72249],[-74.73046,39.72267],[-74.73056,39.72307],[-74.73083,39.72318],[-74.7311,39.7231],[-74.73186,39.7238],[-74.73205,39.72424],[-74.73231,39.72446],[-74.73231,39.7247],[-74.73258,39.72482],[-74.73282,39.72526],[-74.73272,39.72553],[-74.73236,39.72565],[-74.732,39.72599],[-74.73038,39.7259],[-74.73012,39.72608],[-74.73013,39.72628],[-74.7295,39.72644],[-74.72976,39.72689],[-74.73006,39.72656],[-74.73038,39.72651],[-74.73036,39.72626],[-74.73056,39.72614],[-74.73087,39.72613],[-74.73126,39.72644],[-74.73101,39.72661],[-74.73059,39.72662],[-74.73152,39.72716],[-74.73153,39.72788],[-74.73138,39.72833],[-74.73083,39.72865],[-74.72935,39.72792],[-74.72949,39.72824],[-74.7294,39.7286],[-74.72885,39.72868],[-74.72881,39.72878],[-74.72929,39.72924],[-74.72976,39.72949],[-74.72836,39.72971],[-74.72852,39.7301],[-74.72915,39.73048],[-74.72841,39.73043],[-74.72821,39.73084],[-74.72828,39.73111],[-74.72764,39.73138],[-74.7275,39.73183],[-74.72791,39.73219],[-74.72799,39.73255],[-74.72751,39.73259],[-74.72665,39.73224],[-74.72631,39.73233],[-74.72587,39.7328],[-74.72602,39.73309],[-74.72642,39.73336],[-74.72607,39.73372]]],[[[-74.71655,39.73497],[-74.71688,39.735],[-74.71689,39.73517],[-74.71738,39.73522],[-74.71707,39.7356],[-74.71745,39.73569],[-74.71745,39.73582],[-74.71709,39.73585],[-74.71667,39.7356],[-74.71678,39.73515],[-74.71655,39.73497]]]]},"properties":{"fire_id":"ufid:2022-NJNJS-001154","source_collection":"history-2022","source_objectid":14632,"incident_name":"Mullica River Fire","mapped_acres":13500.0,"mapped_acres_source":"poly_GISAcres","gis_acres":13500.0,"auto_acres":8818.14793079899,"reported_acres":13500.0,"percent_contained":95.0,"state":"NJ","state_wfigs":"US-NJ","county":"Burlington","discovery_time_utc":"2022-06-19T14:00:00Z","perimeter_time_utc":"2022-06-20T02:00:00Z","perimeter_edit_time_utc":"2022-12-16T23:13:51Z","incident_modified_time_utc":"2022-06-23T12:38:37Z","containment_time_utc":null,"control_time_utc":null,"fire_out_time_utc":null,"fire_cause":"Undetermined","fire_cause_general":null,"map_method":"Image Interpretation","source_dataset":"2022 NIFS","unique_fire_identifier":"2022-NJNJS-001154","irwin_id":"{400501E0-C028-41BA-BF7E-189BFAA0F876}","global_id":"f273e46a-3945-415f-8b9b-5cb5d6a67d32"}}]}
