{"type":"FeatureCollection","features":[{"type":"Feature","geometry":{"type":"Polygon","coordinates":[[[-120.00179,39.57524],[-120.00148,39.57569],[-120.00131,39.57575],[-120.00115,39.57562],[-120.00128,39.57551],[-120.00121,39.57534],[-120.00093,39.57541],[-120.00078,39.57499],[-120.00127,39.57457],[-120.00176,39.57452],[-120.00191,39.5746],[-120.002,39.57512],[-120.00221,39.57521],[-120.00193,39.57553],[-120.00179,39.57524]]]},"properties":{"fire_id":"ufid:2022-NVHTF-030723","source_collection":"history-2022","source_objectid":13341,"incident_name":"Crystal","mapped_acres":2.355924,"mapped_acres_source":"poly_GISAcres","gis_acres":2.355924,"auto_acres":2.3559153733915177,"reported_acres":2.5,"percent_contained":null,"state":"NV","state_wfigs":"US-NV","county":"Washoe","discovery_time_utc":"2022-08-04T04:15:32Z","perimeter_time_utc":"2022-08-12T23:57:18Z","perimeter_edit_time_utc":"2023-03-14T15:13:42Z","incident_modified_time_utc":"2022-08-06T22:32:24Z","containment_time_utc":"2022-08-04T23:00:00Z","control_time_utc":"2022-08-06T22:31:00Z","fire_out_time_utc":"2022-08-12T22:00:00Z","fire_cause":"Natural","fire_cause_general":"Natural","map_method":"Phone/Tablet","source_dataset":"FFP","unique_fire_identifier":"2022-NVHTF-030723","irwin_id":"{80B61A55-968B-4840-B196-D82B54A05C8F}","global_id":"c7af050d-f9b8-46bb-97d6-35e1e8d5a714"}}]}
