{"type":"FeatureCollection","features":[{"type":"Feature","geometry":{"type":"Polygon","coordinates":[[[-94.76447,35.71454],[-94.76446,35.71362],[-94.76464,35.71338],[-94.76527,35.71316],[-94.76541,35.71282],[-94.76527,35.71246],[-94.76486,35.71203],[-94.76406,35.71173],[-94.76375,35.71182],[-94.76366,35.71173],[-94.76389,35.71158],[-94.76384,35.7115],[-94.7629,35.71121],[-94.7625,35.71085],[-94.76259,35.71063],[-94.76377,35.71007],[-94.76422,35.70939],[-94.76387,35.70888],[-94.76402,35.7083],[-94.76379,35.70808],[-94.7645,35.70829],[-94.76499,35.7089],[-94.7653,35.70903],[-94.76552,35.70939],[-94.76544,35.70961],[-94.76595,35.71034],[-94.76642,35.71053],[-94.76669,35.71091],[-94.76712,35.71084],[-94.7675,35.71113],[-94.76792,35.71189],[-94.76838,35.71217],[-94.76823,35.71259],[-94.769,35.71262],[-94.76923,35.71282],[-94.76909,35.71348],[-94.76856,35.71382],[-94.76793,35.71393],[-94.76818,35.71421],[-94.76819,35.71443],[-94.76886,35.71488],[-94.76916,35.71487],[-94.76913,35.71428],[-94.76847,35.71435],[-94.76887,35.71408],[-94.76913,35.7141],[-94.76938,35.71372],[-94.7696,35.7144],[-94.76997,35.71446],[-94.77048,35.71411],[-94.77152,35.71506],[-94.77201,35.71581],[-94.77188,35.71632],[-94.77213,35.71657],[-94.77237,35.71756],[-94.77254,35.71771],[-94.77245,35.718],[-94.77259,35.7188],[-94.77246,35.71916],[-94.77294,35.71992],[-94.77325,35.71991],[-94.7734,35.72004],[-94.77349,35.72026],[-94.77337,35.72058],[-94.7736,35.72092],[-94.77357,35.72107],[-94.77325,35.72126],[-94.77237,35.72121],[-94.77085,35.7207],[-94.7696,35.72003],[-94.76916,35.7201],[-94.76851,35.72043],[-94.7675,35.71975],[-94.76717,35.71942],[-94.76703,35.71888],[-94.76668,35.71852],[-94.76647,35.718],[-94.76582,35.71726],[-94.76621,35.71618],[-94.76592,35.71523],[-94.7661,35.71516],[-94.76617,35.71494],[-94.76566,35.71489],[-94.76544,35.71531],[-94.76465,35.71501],[-94.76447,35.71454]]]},"properties":{"fire_id":"ufid:2022-OKOKS-220410","source_collection":"history-2022","source_objectid":530,"incident_name":"Malloy Hollow South","mapped_acres":111.93,"mapped_acres_source":"poly_GISAcres","gis_acres":111.93,"auto_acres":137.879387185158,"reported_acres":170.0,"percent_contained":100.0,"state":"OK","state_wfigs":"US-OK","county":"Adair","discovery_time_utc":"2022-03-04T04:43:00Z","perimeter_time_utc":null,"perimeter_edit_time_utc":"2022-12-09T20:52:53Z","incident_modified_time_utc":"2022-03-08T18:38:51Z","containment_time_utc":null,"control_time_utc":null,"fire_out_time_utc":null,"fire_cause":"Human","fire_cause_general":null,"map_method":"Hand Sketch","source_dataset":"2022 NIFS","unique_fire_identifier":"2022-OKOKS-220410","irwin_id":"{51856A24-119B-40A4-A825-0E5FEA75A195}","global_id":"82deb91b-98d9-4a20-a6c7-08ced2c4ea8a"}},{"type":"Feature","geometry":{"type":"Polygon","coordinates":[[[-94.84302,36.97747],[-94.84301,36.9766],[-94.84188,36.97621],[-94.84225,36.97611],[-94.8423,36.97588],[-94.84302,36.97587],[-94.84286,36.97509],[-94.84396,36.97514],[-94.84375,36.97732],[-94.84362,36.97762],[-94.84302,36.97747]]]},"properties":{"fire_id":"ufid:2022-OKMIA-002070","source_collection":"history-2022","source_objectid":3667,"incident_name":"WHEEL","mapped_acres":6.0,"mapped_acres_source":"poly_GISAcres","gis_acres":6.0,"auto_acres":6.11604657213919,"reported_acres":6.0,"percent_contained":null,"state":"OK","state_wfigs":"US-OK","county":"Ottawa","discovery_time_utc":"2022-07-25T22:45:00Z","perimeter_time_utc":"2022-07-26T03:45:00Z","perimeter_edit_time_utc":"2022-07-26T20:15:48Z","incident_modified_time_utc":"2022-08-15T21:31:05Z","containment_time_utc":"2022-07-26T00:30:00Z","control_time_utc":"2022-08-15T17:00:00Z","fire_out_time_utc":"2022-08-15T20:22:00Z","fire_cause":"Human","fire_cause_general":null,"map_method":"Hand Sketch","source_dataset":"2022 NIFS","unique_fire_identifier":"2022-OKMIA-002070","irwin_id":"{96EDFFA5-1822-4C2A-A305-3A53AE97041B}","global_id":"e867c4d2-3032-4015-9f75-dbe504cc7c8c"}},{"type":"Feature","geometry":{"type":"MultiPolygon","coordinates":[[[[-94.76997,35.69176],[-94.76931,35.69161],[-94.76902,35.69171],[-94.76783,35.69117],[-94.76763,35.69083],[-94.76719,35.6909],[-94.76668,35.69057],[-94.76668,35.69042],[-94.7669,35.69033],[-94.76719,35.68989],[-94.76737,35.68991],[-94.76741,35.69021],[-94.76763,35.6902],[-94.76762,35.68968],[-94.76792,35.68948],[-94.7676,35.68933],[-94.7675,35.68866],[-94.7666,35.68854],[-94.76617,35.68831],[-94.76611,35.68816],[-94.7663,35.68792],[-94.76661,35.6878],[-94.76668,35.6875],[-94.76724,35.68721],[-94.76762,35.68678],[-94.76741,35.68633],[-94.76701,35.68615],[-94.76661,35.68576],[-94.76666,35.68551],[-94.76702,35.68529],[-94.76768,35.68515],[-94.76916,35.68516],[-94.76941,35.68495],[-94.76918,35.68472],[-94.76915,35.68422],[-94.76963,35.68408],[-94.7698,35.68349],[-94.76929,35.68269],[-94.76863,35.68235],[-94.76844,35.68211],[-94.76734,35.6822],[-94.76668,35.68209],[-94.76625,35.68224],[-94.76595,35.68214],[-94.76584,35.68262],[-94.76595,35.6828],[-94.76629,35.68237],[-94.76749,35.68239],[-94.76826,35.68265],[-94.76868,35.68266],[-94.76897,35.68298],[-94.76798,35.68296],[-94.76736,35.68335],[-94.7673,35.68367],[-94.76698,35.6838],[-94.7668,35.68371],[-94.7668,35.68327],[-94.76661,35.68324],[-94.7658,35.68356],[-94.76548,35.68404],[-94.76515,35.68393],[-94.76486,35.68406],[-94.76487,35.68364],[-94.76533,35.68265],[-94.76602,35.68189],[-94.76705,35.68134],[-94.76829,35.68103],[-94.76873,35.68138],[-94.76867,35.6816],[-94.76968,35.6821],[-94.77011,35.68274],[-94.77089,35.68235],[-94.77101,35.68262],[-94.7715,35.68259],[-94.77179,35.68288],[-94.77335,35.68281],[-94.77349,35.68313],[-94.77308,35.68327],[-94.77302,35.68386],[-94.7735,35.68427],[-94.77412,35.68423],[-94.77431,35.68473],[-94.77475,35.68437],[-94.77479,35.68415],[-94.7746,35.68393],[-94.77486,35.68388],[-94.77527,35.68395],[-94.77638,35.6846],[-94.77712,35.68481],[-94.77752,35.68477],[-94.77948,35.68551],[-94.77945,35.68568],[-94.77909,35.68566],[-94.77909,35.6859],[-94.7788,35.68602],[-94.77748,35.68575],[-94.77738,35.68612],[-94.77779,35.68685],[-94.7775,35.68781],[-94.77713,35.68811],[-94.7761,35.68819],[-94.77529,35.68729],[-94.77522,35.68641],[-94.77402,35.68586],[-94.77388,35.68546],[-94.77394,35.68502],[-94.77335,35.68463],[-94.77288,35.68459],[-94.77257,35.684],[-94.77237,35.68395],[-94.77233,35.68444],[-94.77276,35.68486],[-94.77311,35.68561],[-94.77289,35.68565],[-94.77223,35.68526],[-94.7722,35.68612],[-94.77259,35.68656],[-94.77349,35.6869],[-94.77375,35.68723],[-94.77416,35.6874],[-94.77436,35.6878],[-94.77411,35.68782],[-94.77271,35.68725],[-94.77206,35.68687],[-94.77165,35.68642],[-94.77097,35.68657],[-94.7707,35.68581],[-94.77048,35.68552],[-94.77033,35.68558],[-94.77007,35.6859],[-94.77024,35.68643],[-94.77023,35.68743],[-94.77048,35.68751],[-94.77191,35.68724],[-94.77216,35.68768],[-94.77264,35.68811],[-94.77281,35.68853],[-94.7723,35.68859],[-94.77179,35.68847],[-94.77011,35.68863],[-94.76944,35.68833],[-94.76929,35.68802],[-94.76887,35.68802],[-94.76876,35.68827],[-94.76831,35.68853],[-94.76873,35.68867],[-94.76887,35.68889],[-94.76872,35.68977],[-94.76903,35.69006],[-94.76898,35.69042],[-94.76924,35.69067],[-94.76953,35.69056],[-94.76975,35.69068],[-94.77039,35.69049],[-94.77084,35.69054],[-94.77228,35.68989],[-94.77281,35.68993],[-94.7729,35.69006],[-94.77226,35.6905],[-94.77259,35.6908],[-94.77246,35.69109],[-94.7715,35.69147],[-94.77113,35.69106],[-94.77084,35.69123],[-94.77036,35.69119],[-94.77008,35.69134],[-94.76997,35.69176]]],[[[-94.77776,35.72807],[-94.77733,35.72792],[-94.7766,35.72673],[-94.77669,35.72639],[-94.7765,35.72635],[-94.77652,35.72612],[-94.77626,35.72581],[-94.77633,35.72559],[-94.77617,35.7253],[-94.77653,35.72369],[-94.7762,35.72187],[-94.77626,35.72165],[-94.77639,35.72154],[-94.77726,35.72167],[-94.77792,35.7213],[-94.77967,35.72126],[-94.78011,35.72107],[-94.78045,35.72117],[-94.78072,35.72104],[-94.7796,35.72054],[-94.77821,35.72094],[-94.77774,35.72092],[-94.77748,35.72068],[-94.77646,35.72077],[-94.7764,35.72041],[-94.7759,35.71988],[-94.77586,35.71963],[-94.77539,35.71937],[-94.77469,35.71859],[-94.77478,35.71844],[-94.77464,35.71822],[-94.77467,35.71761],[-94.77442,35.71749],[-94.7749,35.71756],[-94.77483,35.71715],[-94.77445,35.71717],[-94.77394,35.71662],[-94.77385,35.71611],[-94.77371,35.71596],[-94.77375,35.71574],[-94.7736,35.71559],[-94.77362,35.71516],[-94.77379,35.71497],[-94.77408,35.7149],[-94.77454,35.7144],[-94.77584,35.7141],[-94.77712,35.71356],[-94.77729,35.713],[-94.77805,35.71238],[-94.77743,35.71214],[-94.77743,35.71136],[-94.77724,35.71114],[-94.77714,35.71012],[-94.77631,35.70974],[-94.77604,35.70945],[-94.77547,35.70757],[-94.7746,35.70659],[-94.7735,35.70465],[-94.7741,35.70412],[-94.77485,35.70399],[-94.77608,35.70332],[-94.7769,35.7032],[-94.77817,35.70242],[-94.77963,35.70195],[-94.77914,35.70137],[-94.77937,35.70049],[-94.7793,35.69976],[-94.77998,35.69891],[-94.78047,35.6986],[-94.78166,35.6973],[-94.78205,35.69706],[-94.78243,35.69611],[-94.78237,35.6956],[-94.78267,35.69487],[-94.78249,35.69466],[-94.78155,35.69416],[-94.78107,35.69356],[-94.77988,35.69321],[-94.77872,35.69237],[-94.77731,35.69162],[-94.7766,35.69087],[-94.77601,35.68985],[-94.77604,35.68918],[-94.77639,35.68879],[-94.77828,35.68895],[-94.77996,35.68866],[-94.78011,35.68838],[-94.77976,35.68756],[-94.77916,35.68726],[-94.77872,35.68754],[-94.77877,35.68714],[-94.77867,35.68692],[-94.77872,35.68681],[-94.77938,35.68684],[-94.7797,35.68666],[-94.78008,35.68668],[-94.78025,35.68641],[-94.78025,35.68612],[-94.78056,35.68606],[-94.78072,35.6858],[-94.78091,35.68595],[-94.78135,35.68592],[-94.78154,35.68605],[-94.78164,35.68637],[-94.78176,35.68634],[-94.78179,35.68612],[-94.78238,35.68618],[-94.78288,35.68641],[-94.7836,35.6865],[-94.78374,35.68672],[-94.78449,35.68657],[-94.78462,35.68671],[-94.78492,35.68668],[-94.78579,35.687],[-94.78588,35.68729],[-94.78611,35.68734],[-94.7863,35.68758],[-94.7863,35.68839],[-94.78658,35.68853],[-94.78646,35.68921],[-94.78719,35.6893],[-94.78755,35.68971],[-94.78775,35.68911],[-94.7876,35.68809],[-94.78828,35.68789],[-94.78834,35.68816],[-94.78958,35.68918],[-94.78993,35.68928],[-94.79057,35.6905],[-94.79173,35.6907],[-94.79258,35.69115],[-94.79271,35.69154],[-94.79286,35.6915],[-94.79283,35.69108],[-94.7931,35.6908],[-94.79331,35.69101],[-94.7934,35.69146],[-94.79305,35.69162],[-94.79302,35.69185],[-94.79382,35.69212],[-94.79492,35.69223],[-94.79502,35.69196],[-94.79525,35.69181],[-94.79521,35.69163],[-94.79492,35.69143],[-94.79431,35.69139],[-94.79412,35.69108],[-94.79378,35.69093],[-94.79396,35.6907],[-94.79382,35.69014],[-94.79351,35.68986],[-94.79327,35.68918],[-94.7923,35.68787],[-94.79242,35.68742],[-94.7926,35.68723],[-94.79264,35.68683],[-94.793,35.68632],[-94.79422,35.68554],[-94.79426,35.68524],[-94.79357,35.68524],[-94.79364,35.68505],[-94.79426,35.68426],[-94.79443,35.68428],[-94.79455,35.68459],[-94.79466,35.68437],[-94.79448,35.68395],[-94.79353,35.68465],[-94.7933,35.68431],[-94.7928,35.68459],[-94.79266,35.68444],[-94.79205,35.68432],[-94.79174,35.68405],[-94.79161,35.68335],[-94.79171,35.68305],[-94.79114,35.68267],[-94.79041,35.68275],[-94.7901,35.6824],[-94.78951,35.68282],[-94.78896,35.68274],[-94.78824,35.68229],[-94.78784,35.68167],[-94.78803,35.68134],[-94.78845,35.68123],[-94.78843,35.68084],[-94.78784,35.68104],[-94.78681,35.68064],[-94.7861,35.68124],[-94.78553,35.68125],[-94.78507,35.68169],[-94.78443,35.68167],[-94.78445,35.68189],[-94.78485,35.68185],[-94.7851,35.682],[-94.78522,35.68262],[-94.78624,35.68281],[-94.7864,35.68305],[-94.78609,35.68334],[-94.78595,35.68371],[-94.78565,35.68386],[-94.78541,35.68437],[-94.78471,35.68465],[-94.78419,35.68454],[-94.78398,35.68422],[-94.78354,35.68412],[-94.78303,35.68413],[-94.78281,35.6843],[-94.78222,35.68429],[-94.7812,35.68393],[-94.78129,35.68335],[-94.78166,35.68313],[-94.78157,35.68295],[-94.78106,35.68311],[-94.77989,35.68302],[-94.77945,35.68311],[-94.77901,35.68276],[-94.77834,35.68247],[-94.77773,35.68262],[-94.77734,35.68225],[-94.77661,35.68211],[-94.77595,35.68155],[-94.77529,35.68129],[-94.7751,35.68154],[-94.77486,35.68158],[-94.77464,35.68123],[-94.77391,35.68117],[-94.77337,35.68097],[-94.77358,35.68036],[-94.7743,35.68006],[-94.77425,35.67957],[-94.77405,35.6796],[-94.77383,35.67987],[-94.77379,35.68017],[-94.77345,35.67999],[-94.77281,35.68029],[-94.77165,35.67991],[-94.77077,35.68014],[-94.77079,35.67999],[-94.77149,35.67969],[-94.77347,35.67926],[-94.77449,35.67933],[-94.77799,35.67898],[-94.77838,35.67914],[-94.77858,35.67892],[-94.77894,35.67901],[-94.77923,35.67888],[-94.77958,35.67891],[-94.77962,35.67912],[-94.77982,35.67918],[-94.78047,35.67894],[-94.78113,35.67921],[-94.78126,35.67831],[-94.78104,35.67818],[-94.78112,35.67794],[-94.78398,35.67585],[-94.78485,35.67543],[-94.78573,35.67477],[-94.78615,35.67423],[-94.78628,35.67383],[-94.78652,35.67364],[-94.78697,35.67389],[-94.78806,35.67372],[-94.78923,35.67316],[-94.78974,35.67221],[-94.7897,35.67116],[-94.78998,35.67],[-94.79048,35.66962],[-94.79038,35.66897],[-94.7906,35.66868],[-94.79034,35.66832],[-94.79053,35.66803],[-94.7903,35.66753],[-94.79036,35.6673],[-94.79193,35.66639],[-94.7928,35.66612],[-94.79308,35.66575],[-94.79331,35.66572],[-94.79345,35.66546],[-94.79368,35.66543],[-94.79389,35.6651],[-94.79431,35.66487],[-94.79477,35.66492],[-94.7954,35.66474],[-94.79498,35.66461],[-94.79499,35.66438],[-94.79441,35.66403],[-94.79321,35.66368],[-94.79277,35.66339],[-94.79219,35.66288],[-94.79201,35.66255],[-94.79205,35.66231],[-94.79249,35.66194],[-94.79317,35.66185],[-94.79415,35.66142],[-94.79571,35.66108],[-94.79667,35.66067],[-94.7972,35.66078],[-94.79734,35.66095],[-94.79813,35.66126],[-94.79843,35.66058],[-94.79849,35.66],[-94.79828,35.65934],[-94.79829,35.65802],[-94.79817,35.65781],[-94.79842,35.65775],[-94.79863,35.65707],[-94.79978,35.65567],[-94.80042,35.65514],[-94.80163,35.65454],[-94.80173,35.65404],[-94.80164,35.65351],[-94.802,35.65307],[-94.80206,35.65269],[-94.80228,35.6524],[-94.80336,35.65168],[-94.80371,35.65099],[-94.80416,35.65064],[-94.80462,35.65059],[-94.80718,35.65106],[-94.80797,35.65096],[-94.80809,35.65106],[-94.80806,35.65124],[-94.80763,35.65167],[-94.8082,35.65176],[-94.80877,35.65145],[-94.80947,35.65132],[-94.80984,35.65103],[-94.80942,35.65076],[-94.80915,35.65037],[-94.80904,35.64993],[-94.80922,35.6497],[-94.80944,35.64962],[-94.80988,35.64973],[-94.81053,35.6502],[-94.81141,35.64998],[-94.81222,35.65021],[-94.81244,35.65036],[-94.81301,35.65127],[-94.81396,35.65212],[-94.8156,35.65253],[-94.816,35.65292],[-94.816,35.65336],[-94.8162,35.6538],[-94.81699,35.65428],[-94.81832,35.65555],[-94.81863,35.65564],[-94.8198,35.65557],[-94.82038,35.656],[-94.82242,35.65652],[-94.82253,35.65672],[-94.82046,35.65762],[-94.81998,35.65803],[-94.81944,35.65877],[-94.81908,35.65861],[-94.81913,35.65943],[-94.81938,35.65978],[-94.81945,35.66022],[-94.81922,35.66052],[-94.81805,35.6613],[-94.81717,35.66165],[-94.81637,35.66187],[-94.81527,35.66196],[-94.81484,35.66394],[-94.81512,35.66511],[-94.81511,35.66591],[-94.8148,35.66667],[-94.81435,35.66725],[-94.81411,35.66803],[-94.8131,35.66877],[-94.81272,35.66876],[-94.81266,35.66883],[-94.81289,35.66897],[-94.81282,35.66907],[-94.81236,35.66904],[-94.81192,35.66919],[-94.81192,35.66942],[-94.8117,35.66922],[-94.81157,35.66992],[-94.81177,35.66993],[-94.81189,35.6697],[-94.81224,35.66966],[-94.81228,35.66947],[-94.81243,35.66945],[-94.81248,35.67029],[-94.8117,35.67081],[-94.81104,35.67148],[-94.81086,35.67145],[-94.81061,35.67193],[-94.81045,35.67174],[-94.81032,35.67249],[-94.80999,35.67262],[-94.80989,35.67321],[-94.80937,35.67391],[-94.80842,35.67429],[-94.80798,35.67425],[-94.80769,35.67449],[-94.80738,35.67531],[-94.80716,35.67539],[-94.80685,35.67649],[-94.80668,35.67665],[-94.80663,35.67722],[-94.80703,35.6785],[-94.80723,35.67869],[-94.80722,35.67977],[-94.80704,35.68028],[-94.80724,35.68109],[-94.80709,35.68191],[-94.80776,35.6839],[-94.80838,35.68495],[-94.80824,35.68524],[-94.80841,35.6856],[-94.80825,35.68597],[-94.80843,35.68618],[-94.80826,35.68663],[-94.80886,35.6878],[-94.80865,35.68833],[-94.80825,35.68873],[-94.80814,35.68913],[-94.80769,35.68946],[-94.80703,35.69062],[-94.80686,35.69145],[-94.80707,35.69217],[-94.80664,35.6929],[-94.80634,35.69396],[-94.80608,35.69414],[-94.80632,35.69466],[-94.80618,35.6952],[-94.80594,35.69546],[-94.80571,35.69604],[-94.806,35.69634],[-94.80604,35.69684],[-94.8057,35.69721],[-94.80553,35.69782],[-94.80538,35.69784],[-94.80528,35.69766],[-94.80521,35.69776],[-94.80502,35.69816],[-94.80515,35.69845],[-94.80477,35.69947],[-94.80473,35.69994],[-94.80444,35.70013],[-94.8047,35.70057],[-94.80457,35.70127],[-94.80471,35.70144],[-94.80443,35.70224],[-94.80455,35.70283],[-94.80413,35.70409],[-94.80389,35.70429],[-94.80393,35.7048],[-94.80357,35.70575],[-94.80369,35.70596],[-94.8028,35.70713],[-94.80248,35.70725],[-94.802,35.70799],[-94.80127,35.70834],[-94.80119,35.70819],[-94.80105,35.7082],[-94.8009,35.70843],[-94.80052,35.70864],[-94.80043,35.70896],[-94.80017,35.709],[-94.79985,35.70944],[-94.79915,35.70981],[-94.79871,35.71122],[-94.79849,35.71131],[-94.79819,35.71193],[-94.79762,35.71226],[-94.79766,35.71333],[-94.79735,35.71355],[-94.79722,35.71395],[-94.79696,35.71398],[-94.79663,35.71439],[-94.79556,35.71487],[-94.79528,35.71512],[-94.79526,35.71494],[-94.79499,35.7149],[-94.79477,35.71535],[-94.79465,35.71492],[-94.79455,35.71492],[-94.79439,35.71508],[-94.79443,35.71533],[-94.79419,35.71529],[-94.79407,35.71545],[-94.79463,35.71559],[-94.79448,35.71574],[-94.79451,35.71606],[-94.79412,35.71605],[-94.7939,35.71625],[-94.7939,35.71574],[-94.79353,35.71601],[-94.7932,35.71603],[-94.79285,35.71632],[-94.7931,35.71648],[-94.79331,35.7163],[-94.79385,35.7163],[-94.79387,35.71647],[-94.79353,35.71689],[-94.79339,35.71654],[-94.79321,35.71659],[-94.79297,35.71701],[-94.79298,35.7173],[-94.79279,35.71743],[-94.79345,35.71778],[-94.7935,35.71818],[-94.79367,35.7183],[-94.79355,35.71888],[-94.7937,35.71923],[-94.79427,35.71967],[-94.79455,35.72026],[-94.79475,35.72026],[-94.79436,35.72136],[-94.79435,35.7218],[-94.79412,35.72215],[-94.79359,35.72245],[-94.7931,35.72304],[-94.793,35.72362],[-94.79333,35.7245],[-94.79365,35.72486],[-94.79419,35.72617],[-94.79453,35.72656],[-94.79532,35.72836],[-94.79567,35.72885],[-94.79577,35.72948],[-94.79631,35.73055],[-94.79621,35.73092],[-94.79631,35.73128],[-94.79601,35.73135],[-94.79587,35.73174],[-94.79559,35.73173],[-94.79548,35.73216],[-94.79563,35.73267],[-94.79538,35.73296],[-94.79587,35.73312],[-94.7959,35.73332],[-94.7955,35.73337],[-94.79528,35.73312],[-94.79512,35.7334],[-94.79521,35.73352],[-94.7955,35.73347],[-94.79587,35.7336],[-94.79592,35.73383],[-94.79565,35.73395],[-94.79553,35.73438],[-94.79521,35.73471],[-94.79441,35.7349],[-94.79441,35.73522],[-94.79419,35.73518],[-94.7939,35.73538],[-94.79376,35.73529],[-94.79355,35.7347],[-94.79324,35.73467],[-94.79158,35.73353],[-94.79069,35.73383],[-94.7901,35.73379],[-94.78923,35.73295],[-94.78892,35.73281],[-94.78792,35.73288],[-94.78726,35.73345],[-94.78638,35.73337],[-94.78543,35.73356],[-94.78518,35.73344],[-94.78496,35.73307],[-94.785,35.73287],[-94.78529,35.73266],[-94.78529,35.73243],[-94.78467,35.73182],[-94.78433,35.73106],[-94.78398,35.7307],[-94.78176,35.72963],[-94.78055,35.72926],[-94.78025,35.72931],[-94.77982,35.72911],[-94.77967,35.72918],[-94.77945,35.72892],[-94.77863,35.72865],[-94.77877,35.72848],[-94.77967,35.72859],[-94.78011,35.72833],[-94.78025,35.72847],[-94.78077,35.72848],[-94.78095,35.72825],[-94.78131,35.72811],[-94.78129,35.72792],[-94.78018,35.72775],[-94.77894,35.72799],[-94.7788,35.72829],[-94.7785,35.728],[-94.77827,35.72814],[-94.77822,35.72792],[-94.77807,35.72787],[-94.77776,35.72807]]]]},"properties":{"fire_id":"ufid:2022-OKOKS-220736","source_collection":"history-2022","source_objectid":14169,"incident_name":"Crystal Cave Fire","mapped_acres":1000.0,"mapped_acres_source":"poly_GISAcres","gis_acres":1000.0,"auto_acres":4578.18213534152,"reported_acres":1000.0,"percent_contained":100.0,"state":"OK","state_wfigs":"US-OK","county":"Cherokee","discovery_time_utc":"2022-04-09T20:15:00Z","perimeter_time_utc":"2022-04-10T01:15:00Z","perimeter_edit_time_utc":"2022-12-09T20:53:18Z","incident_modified_time_utc":"2022-04-12T14:00:44Z","containment_time_utc":null,"control_time_utc":null,"fire_out_time_utc":null,"fire_cause":"Human","fire_cause_general":null,"map_method":"Image Interpretation","source_dataset":"2022 NIFS","unique_fire_identifier":"2022-OKOKS-220736","irwin_id":"{6526285A-28C7-4ED3-929B-67A4F0BA6DA1}","global_id":"87cf701e-cb86-41b6-b85c-12abf3472fdf"}},{"type":"Feature","geometry":{"type":"MultiPolygon","coordinates":[[[[-94.863,36.26659],[-94.86286,36.26643],[-94.86315,36.26611],[-94.86316,36.26514],[-94.86343,36.26473],[-94.86306,36.26405],[-94.86384,36.26412],[-94.86404,36.2636],[-94.86445,36.26341],[-94.86494,36.26293],[-94.86499,36.26264],[-94.86589,36.26255],[-94.86679,36.26265],[-94.86728,36.26289],[-94.86802,36.26367],[-94.86912,36.26357],[-94.86999,36.26377],[-94.87042,36.26406],[-94.87065,36.26449],[-94.87131,36.26478],[-94.87151,36.26518],[-94.87388,36.26697],[-94.87913,36.26908],[-94.87993,36.26963],[-94.88052,36.27029],[-94.88033,36.27065],[-94.88065,36.27097],[-94.88074,36.27137],[-94.87989,36.27178],[-94.87756,36.27168],[-94.87655,36.27224],[-94.87572,36.27303],[-94.87481,36.27338],[-94.87352,36.27263],[-94.87333,36.27289],[-94.87355,36.2734],[-94.87348,36.27366],[-94.87189,36.27404],[-94.87152,36.27475],[-94.87092,36.27466],[-94.86984,36.275],[-94.86963,36.27472],[-94.86924,36.27472],[-94.86724,36.27535],[-94.86673,36.27538],[-94.86638,36.27505],[-94.86652,36.27476],[-94.86625,36.27462],[-94.86567,36.27501],[-94.86499,36.27505],[-94.86428,36.27543],[-94.86401,36.27519],[-94.86329,36.2753],[-94.86303,36.27513],[-94.86248,36.2752],[-94.86194,36.27541],[-94.86183,36.27559],[-94.86185,36.27568],[-94.86212,36.27552],[-94.86252,36.27595],[-94.86185,36.27614],[-94.86176,36.27596],[-94.86157,36.27593],[-94.86129,36.27615],[-94.86118,36.27599],[-94.86149,36.27586],[-94.86158,36.27568],[-94.86149,36.27563],[-94.86113,36.27576],[-94.86077,36.2761],[-94.86047,36.27555],[-94.86064,36.27532],[-94.86091,36.27428],[-94.8612,36.27395],[-94.86167,36.2739],[-94.86194,36.27343],[-94.86169,36.27289],[-94.86198,36.27245],[-94.86166,36.27228],[-94.86161,36.27209],[-94.86187,36.27175],[-94.86209,36.27089],[-94.8625,36.27029],[-94.86245,36.27],[-94.86266,36.26991],[-94.86287,36.26999],[-94.86295,36.27028],[-94.86357,36.27048],[-94.86363,36.27],[-94.86419,36.26975],[-94.86433,36.26945],[-94.86472,36.26912],[-94.86475,36.26861],[-94.86497,36.26832],[-94.86478,36.26775],[-94.86571,36.26742],[-94.86496,36.26701],[-94.86454,36.26636],[-94.86421,36.26623],[-94.86338,36.26631],[-94.863,36.26659]]],[[[-94.86293,36.26661],[-94.86386,36.26712],[-94.86339,36.26787],[-94.86334,36.26846],[-94.8632,36.26862],[-94.86297,36.26854],[-94.86275,36.26805],[-94.86239,36.26818],[-94.86226,36.2679],[-94.86236,36.26756],[-94.86284,36.26697],[-94.86293,36.26661]]]]},"properties":{"fire_id":"ufid:2022-OKCNA-000523","source_collection":"history-2022","source_objectid":14455,"incident_name":"NORTH MARBLE FIELD","mapped_acres":382.0,"mapped_acres_source":"poly_GISAcres","gis_acres":382.0,"auto_acres":356.9760731002281,"reported_acres":381.8,"percent_contained":null,"state":"OK","state_wfigs":"US-OK","county":"Delaware","discovery_time_utc":"2022-02-20T22:00:00Z","perimeter_time_utc":"2022-12-20T17:20:34Z","perimeter_edit_time_utc":"2023-03-14T15:13:42Z","incident_modified_time_utc":"2022-03-01T13:38:25Z","containment_time_utc":"2022-02-22T14:00:00Z","control_time_utc":"2022-02-24T18:00:00Z","fire_out_time_utc":"2022-02-25T18:00:00Z","fire_cause":"Human","fire_cause_general":"Undetermined","map_method":"Image Interpretation","source_dataset":"FFP","unique_fire_identifier":"2022-OKCNA-000523","irwin_id":"{3C29DFAD-0C91-4B8C-91AC-F906978E2C1D}","global_id":"b39140b4-3077-4824-8b7e-92468da3ae08"}},{"type":"Feature","geometry":{"type":"MultiPolygon","coordinates":[[[[-94.65142,35.67438],[-94.65121,35.67434],[-94.65111,35.6746],[-94.6505,35.6746],[-94.65088,35.67353],[-94.65109,35.67351],[-94.65108,35.67368],[-94.65156,35.67419],[-94.65142,35.67438]]],[[[-94.65151,35.67461],[-94.65142,35.67438],[-94.65144,35.67437],[-94.65151,35.67461]]]]},"properties":{"fire_id":"ufid:2022-OKCNA-002642","source_collection":"history-2022","source_objectid":15166,"incident_name":"Rabbit fire","mapped_acres":1.7696672220367082,"mapped_acres_source":"poly_Acres_AutoCalc_fallback","gis_acres":null,"auto_acres":1.7696672220367082,"reported_acres":2.0,"percent_contained":null,"state":"OK","state_wfigs":"US-OK","county":"Adair","discovery_time_utc":"2022-09-28T19:00:00Z","perimeter_time_utc":"2023-02-01T20:41:33Z","perimeter_edit_time_utc":"2023-03-14T15:13:42Z","incident_modified_time_utc":"2022-10-05T13:59:28Z","containment_time_utc":"2022-09-28T20:30:00Z","control_time_utc":"2022-10-04T17:00:00Z","fire_out_time_utc":"2022-10-04T17:00:00Z","fire_cause":"Human","fire_cause_general":"Undetermined","map_method":"Mixed Methods","source_dataset":"FFP","unique_fire_identifier":"2022-OKCNA-002642","irwin_id":"{ED28F841-3C08-4C88-8693-BB52DDA51EA5}","global_id":"41f38aed-ab02-49e0-9690-fdadc545c3b2"}},{"type":"Feature","geometry":{"type":"Polygon","coordinates":[[[-94.72553,35.64859],[-94.72499,35.64803],[-94.72485,35.64742],[-94.72503,35.64735],[-94.72497,35.64718],[-94.72527,35.64712],[-94.72529,35.64678],[-94.725,35.64646],[-94.72486,35.64595],[-94.72486,35.64507],[-94.72472,35.64485],[-94.72479,35.64397],[-94.72496,35.64393],[-94.72506,35.64351],[-94.72533,35.64332],[-94.72561,35.6436],[-94.72548,35.64385],[-94.72576,35.64385],[-94.72585,35.64331],[-94.72634,35.64326],[-94.72651,35.64312],[-94.72674,35.64348],[-94.7267,35.6438],[-94.7277,35.64395],[-94.72769,35.64451],[-94.72725,35.64584],[-94.72651,35.64722],[-94.72663,35.64731],[-94.72662,35.64784],[-94.7263,35.64821],[-94.72649,35.64839],[-94.72553,35.64859]]]},"properties":{"fire_id":"ufid:2022-OKCNA-002778","source_collection":"history-2022","source_objectid":15176,"incident_name":"Star killer fire","mapped_acres":26.2952337276315,"mapped_acres_source":"poly_Acres_AutoCalc_fallback","gis_acres":null,"auto_acres":26.2952337276315,"reported_acres":26.3,"percent_contained":null,"state":"OK","state_wfigs":"US-OK","county":"Adair","discovery_time_utc":"2022-10-07T23:00:00Z","perimeter_time_utc":"2023-02-01T20:52:06Z","perimeter_edit_time_utc":"2023-03-14T15:13:42Z","incident_modified_time_utc":"2022-10-21T13:54:20Z","containment_time_utc":"2022-10-20T17:00:00Z","control_time_utc":"2022-10-20T17:00:00Z","fire_out_time_utc":"2022-10-20T17:00:00Z","fire_cause":"Human","fire_cause_general":"Undetermined","map_method":"Mixed Methods","source_dataset":"FFP","unique_fire_identifier":"2022-OKCNA-002778","irwin_id":"{E8334B88-CE33-48D2-9A1D-54CCB922A89D}","global_id":"83f8c1d1-1133-45a4-8480-4b325fbca491"}},{"type":"Feature","geometry":{"type":"Polygon","coordinates":[[[-94.78081,36.37313],[-94.78062,36.37299],[-94.78084,36.37272],[-94.78039,36.37272],[-94.78012,36.37251],[-94.77994,36.37254],[-94.77971,36.37285],[-94.77904,36.37301],[-94.77859,36.37278],[-94.77802,36.37275],[-94.77796,36.37263],[-94.77841,36.37254],[-94.77865,36.37224],[-94.77904,36.37212],[-94.77916,36.37176],[-94.77949,36.37193],[-94.78039,36.37146],[-94.7807,36.37101],[-94.78065,36.37027],[-94.7818,36.3693],[-94.78184,36.36895],[-94.78166,36.36912],[-94.78149,36.3691],[-94.7812,36.3688],[-94.78075,36.36876],[-94.78075,36.36861],[-94.78049,36.36848],[-94.78047,36.36803],[-94.78116,36.36808],[-94.78101,36.36849],[-94.78111,36.36854],[-94.78225,36.36849],[-94.78217,36.36831],[-94.78177,36.36819],[-94.78157,36.36756],[-94.78132,36.36749],[-94.78168,36.36722],[-94.78135,36.36677],[-94.78166,36.36659],[-94.78157,36.36614],[-94.7813,36.36638],[-94.78095,36.36605],[-94.78175,36.36529],[-94.78193,36.36553],[-94.7822,36.36547],[-94.78247,36.36568],[-94.78278,36.36564],[-94.78292,36.36548],[-94.78309,36.36561],[-94.78341,36.36551],[-94.78285,36.36504],[-94.78184,36.36484],[-94.78102,36.36483],[-94.78057,36.36441],[-94.78024,36.36452],[-94.78006,36.36491],[-94.77925,36.36554],[-94.77832,36.36594],[-94.77788,36.36569],[-94.77798,36.36542],[-94.77774,36.36519],[-94.77759,36.36452],[-94.77718,36.36398],[-94.77779,36.36326],[-94.77762,36.36308],[-94.77769,36.36283],[-94.77859,36.36268],[-94.77871,36.3629],[-94.77904,36.36308],[-94.77932,36.36291],[-94.77904,36.36272],[-94.77897,36.36243],[-94.77806,36.36236],[-94.77825,36.36219],[-94.77817,36.362],[-94.77829,36.3617],[-94.77864,36.36146],[-94.77858,36.36128],[-94.77874,36.36107],[-94.77973,36.36131],[-94.78017,36.362],[-94.78048,36.362],[-94.78039,36.3614],[-94.77954,36.36096],[-94.77961,36.36071],[-94.77916,36.36046],[-94.77922,36.36033],[-94.77967,36.36043],[-94.78018,36.36037],[-94.77954,36.36015],[-94.77946,36.35971],[-94.77967,36.35911],[-94.77994,36.35902],[-94.78026,36.35924],[-94.78021,36.35947],[-94.78062,36.35983],[-94.78051,36.36001],[-94.78075,36.36016],[-94.78111,36.35974],[-94.78039,36.35929],[-94.78042,36.35911],[-94.78023,36.35891],[-94.78035,36.3587],[-94.7808,36.3587],[-94.78111,36.35899],[-94.78166,36.35904],[-94.78184,36.3587],[-94.78247,36.35857],[-94.78265,36.35876],[-94.78301,36.35884],[-94.78268,36.3592],[-94.78287,36.35943],[-94.78292,36.35974],[-94.78304,36.35978],[-94.78301,36.35956],[-94.78319,36.35951],[-94.78337,36.35986],[-94.78364,36.35974],[-94.78372,36.3601],[-94.78346,36.36043],[-94.78316,36.36049],[-94.78259,36.36016],[-94.78256,36.35983],[-94.78229,36.35979],[-94.7822,36.36001],[-94.78238,36.36045],[-94.78291,36.36048],[-94.78319,36.36088],[-94.78392,36.36065],[-94.784,36.36051],[-94.78429,36.36074],[-94.78427,36.36092],[-94.78341,36.36119],[-94.78362,36.36137],[-94.78355,36.36164],[-94.7838,36.362],[-94.78368,36.36227],[-94.78388,36.36256],[-94.7842,36.36245],[-94.78394,36.36227],[-94.78411,36.36173],[-94.78459,36.36149],[-94.78468,36.36164],[-94.78457,36.36209],[-94.78484,36.36233],[-94.78481,36.36267],[-94.78517,36.36257],[-94.7858,36.36267],[-94.78598,36.36281],[-94.78595,36.36299],[-94.78616,36.3631],[-94.78679,36.36291],[-94.78719,36.36304],[-94.78748,36.36338],[-94.78763,36.36386],[-94.78751,36.36425],[-94.78803,36.3647],[-94.78816,36.36533],[-94.78811,36.36587],[-94.78827,36.36614],[-94.78805,36.36664],[-94.78823,36.36661],[-94.7885,36.36701],[-94.78897,36.36703],[-94.78866,36.3672],[-94.78876,36.36732],[-94.78908,36.36726],[-94.78959,36.36685],[-94.79031,36.36765],[-94.79114,36.36801],[-94.79127,36.36831],[-94.79121,36.36845],[-94.79006,36.36885],[-94.7899,36.36916],[-94.78964,36.36921],[-94.78961,36.36968],[-94.78927,36.36998],[-94.78864,36.3697],[-94.7886,36.37003],[-94.78832,36.36995],[-94.7876,36.37032],[-94.78778,36.37092],[-94.78847,36.37173],[-94.78879,36.3719],[-94.78879,36.37209],[-94.78908,36.37242],[-94.78907,36.37275],[-94.78875,36.37275],[-94.78872,36.37251],[-94.78848,36.37234],[-94.78841,36.37275],[-94.78796,36.3727],[-94.78777,36.3729],[-94.78785,36.37308],[-94.78758,36.3731],[-94.78739,36.37294],[-94.78738,36.37254],[-94.78694,36.3724],[-94.78668,36.372],[-94.78643,36.37191],[-94.78625,36.37191],[-94.7861,36.37209],[-94.78612,36.37236],[-94.78598,36.3725],[-94.78542,36.37238],[-94.78546,36.37189],[-94.78523,36.37167],[-94.78511,36.37128],[-94.78508,36.37062],[-94.78454,36.37035],[-94.78463,36.37056],[-94.78454,36.37059],[-94.78382,36.37034],[-94.78373,36.37038],[-94.78376,36.37068],[-94.78328,36.37074],[-94.78292,36.37105],[-94.7827,36.37164],[-94.78275,36.37219],[-94.78241,36.37224],[-94.78202,36.37209],[-94.78193,36.37181],[-94.78148,36.37189],[-94.78131,36.372],[-94.78134,36.37218],[-94.78169,36.37224],[-94.78194,36.37256],[-94.78081,36.37313]]]},"properties":{"fire_id":"ufid:2022-OKOKS-220429","source_collection":"history-2022","source_objectid":15181,"incident_name":"Brush Creek","mapped_acres":300.0,"mapped_acres_source":"poly_GISAcres","gis_acres":300.0,"auto_acres":234.0230630157551,"reported_acres":300.0,"percent_contained":null,"state":"OK","state_wfigs":"US-OK","county":"Delaware","discovery_time_utc":"2022-03-04T23:54:00Z","perimeter_time_utc":"2023-02-01T19:58:26Z","perimeter_edit_time_utc":"2023-03-14T15:13:42Z","incident_modified_time_utc":"2022-03-08T18:43:55Z","containment_time_utc":null,"control_time_utc":null,"fire_out_time_utc":null,"fire_cause":"Human","fire_cause_general":"Undetermined","map_method":"Image Interpretation","source_dataset":"FFP","unique_fire_identifier":"2022-OKOKS-220429","irwin_id":"{D14943A0-8CBD-4536-AB2B-3A9B129E99BD}","global_id":"56eddc59-1d36-4922-ac0a-830b17fa2442"}},{"type":"Feature","geometry":{"type":"Polygon","coordinates":[[[-94.75285,36.2021],[-94.75267,36.20189],[-94.75214,36.20172],[-94.75205,36.20136],[-94.75178,36.20129],[-94.75156,36.20139],[-94.7515,36.20101],[-94.75133,36.2008],[-94.75048,36.20087],[-94.75052,36.20172],[-94.75025,36.2019],[-94.74964,36.20181],[-94.74935,36.20161],[-94.7489,36.20179],[-94.74874,36.20152],[-94.74826,36.20136],[-94.74826,36.20109],[-94.7481,36.201],[-94.74743,36.20132],[-94.74716,36.20185],[-94.74494,36.20134],[-94.74468,36.20104],[-94.74415,36.20106],[-94.74379,36.20091],[-94.74334,36.20033],[-94.74262,36.2001],[-94.74243,36.19938],[-94.74284,36.19893],[-94.74274,36.19854],[-94.74247,36.19851],[-94.74217,36.1991],[-94.74142,36.19857],[-94.74179,36.19821],[-94.74217,36.19818],[-94.74246,36.19794],[-94.74303,36.19782],[-94.74327,36.19759],[-94.74333,36.19722],[-94.74374,36.19696],[-94.74368,36.19679],[-94.74313,36.19663],[-94.74296,36.19615],[-94.74303,36.19593],[-94.74343,36.19583],[-94.74348,36.1957],[-94.7428,36.19549],[-94.74269,36.19525],[-94.74297,36.19489],[-94.74268,36.19399],[-94.7427,36.19265],[-94.74284,36.19238],[-94.74325,36.19222],[-94.74362,36.19237],[-94.74449,36.19392],[-94.7454,36.19462],[-94.74527,36.1948],[-94.74536,36.19489],[-94.74612,36.19536],[-94.74637,36.19516],[-94.74597,36.19417],[-94.74618,36.19334],[-94.74675,36.19302],[-94.74738,36.19301],[-94.74783,36.19326],[-94.7479,36.19283],[-94.7481,36.19265],[-94.7489,36.19262],[-94.74944,36.19281],[-94.74995,36.19271],[-94.75005,36.19247],[-94.7498,36.19222],[-94.74872,36.19203],[-94.7477,36.19211],[-94.74729,36.19148],[-94.74645,36.19076],[-94.74651,36.19061],[-94.74699,36.1904],[-94.74701,36.19023],[-94.74673,36.18995],[-94.74684,36.18986],[-94.74711,36.18997],[-94.7473,36.1897],[-94.74765,36.18957],[-94.7481,36.18966],[-94.74845,36.18951],[-94.74908,36.18971],[-94.74953,36.18966],[-94.74998,36.18989],[-94.75037,36.18968],[-94.75124,36.18964],[-94.75202,36.18989],[-94.75196,36.19022],[-94.75241,36.19048],[-94.75339,36.19048],[-94.7542,36.19015],[-94.75447,36.19016],[-94.75438,36.18986],[-94.75447,36.1898],[-94.7551,36.19009],[-94.75539,36.19007],[-94.75544,36.18986],[-94.75556,36.18985],[-94.7557,36.19007],[-94.75676,36.19027],[-94.75699,36.19067],[-94.75659,36.19157],[-94.75669,36.19244],[-94.75654,36.19256],[-94.756,36.19259],[-94.7557,36.19289],[-94.75566,36.1931],[-94.75623,36.19372],[-94.75661,36.1939],[-94.75659,36.19448],[-94.75698,36.19461],[-94.7579,36.1956],[-94.75737,36.19671],[-94.75731,36.19717],[-94.75752,36.19738],[-94.75779,36.19742],[-94.75877,36.19694],[-94.75905,36.19659],[-94.7592,36.1966],[-94.75969,36.19705],[-94.75963,36.19732],[-94.76022,36.19758],[-94.76026,36.19772],[-94.75995,36.19797],[-94.75923,36.19785],[-94.75952,36.19821],[-94.75904,36.19865],[-94.75916,36.19893],[-94.75905,36.19933],[-94.75813,36.19945],[-94.75692,36.20055],[-94.75623,36.20041],[-94.75598,36.20012],[-94.756,36.19971],[-94.75582,36.19968],[-94.75546,36.20028],[-94.75582,36.20034],[-94.75585,36.20046],[-94.75557,36.20064],[-94.75566,36.20091],[-94.7554,36.20118],[-94.75555,36.20145],[-94.75537,36.20171],[-94.75501,36.20181],[-94.75411,36.20131],[-94.75375,36.20138],[-94.75339,36.20127],[-94.75316,36.20136],[-94.75324,36.20154],[-94.75313,36.20208],[-94.75285,36.2021]]]},"properties":{"fire_id":"ufid:2022-OKOKS-220506","source_collection":"history-2022","source_objectid":15213,"incident_name":"Turnpike","mapped_acres":550.0,"mapped_acres_source":"poly_GISAcres","gis_acres":550.0,"auto_acres":367.5963759773161,"reported_acres":550.0,"percent_contained":null,"state":"OK","state_wfigs":"US-OK","county":"Delaware","discovery_time_utc":"2022-03-17T21:50:00Z","perimeter_time_utc":"2023-02-01T18:05:32Z","perimeter_edit_time_utc":"2023-03-14T15:13:42Z","incident_modified_time_utc":"2022-03-23T20:50:12Z","containment_time_utc":null,"control_time_utc":null,"fire_out_time_utc":null,"fire_cause":"Human","fire_cause_general":"Undetermined","map_method":"Image Interpretation","source_dataset":"FFP","unique_fire_identifier":"2022-OKOKS-220506","irwin_id":"{D25ABE00-80EA-4AAB-BCE9-C3070578AB6A}","global_id":"14ecd3a0-3638-40bb-8fb1-1b1f2e868a3a"}},{"type":"Feature","geometry":{"type":"Polygon","coordinates":[[[-94.69175,36.19914],[-94.69124,36.19894],[-94.69106,36.19903],[-94.69079,36.19864],[-94.69046,36.19867],[-94.69017,36.1974],[-94.68966,36.19678],[-94.68967,36.19624],[-94.68985,36.19575],[-94.69034,36.19545],[-94.6907,36.19562],[-94.69101,36.19525],[-94.69074,36.19485],[-94.69024,36.19481],[-94.6903,36.19435],[-94.69018,36.19415],[-94.69014,36.193],[-94.69026,36.19255],[-94.68969,36.19219],[-94.6898,36.19201],[-94.68965,36.19189],[-94.68969,36.19172],[-94.68998,36.19169],[-94.69018,36.19147],[-94.69014,36.19075],[-94.68996,36.19057],[-94.69002,36.19035],[-94.69016,36.19024],[-94.69061,36.19026],[-94.69097,36.19006],[-94.69177,36.19041],[-94.69241,36.19035],[-94.69277,36.19021],[-94.69253,36.18994],[-94.69277,36.18974],[-94.6929,36.18981],[-94.69295,36.19021],[-94.69323,36.19032],[-94.69359,36.19014],[-94.69349,36.18991],[-94.69317,36.19],[-94.69309,36.18982],[-94.69322,36.18967],[-94.69379,36.18982],[-94.69382,36.1901],[-94.69364,36.19027],[-94.69376,36.19036],[-94.69439,36.19021],[-94.69494,36.18986],[-94.69524,36.18958],[-94.695,36.18942],[-94.69503,36.18933],[-94.69565,36.18931],[-94.69597,36.18953],[-94.69624,36.18994],[-94.69565,36.19025],[-94.69565,36.1905],[-94.69666,36.19048],[-94.69624,36.19138],[-94.6963,36.19174],[-94.69583,36.19228],[-94.69601,36.1926],[-94.69693,36.19306],[-94.69704,36.19341],[-94.69682,36.1935],[-94.69574,36.19344],[-94.69543,36.19372],[-94.69542,36.1943],[-94.69493,36.19453],[-94.69454,36.19456],[-94.6943,36.19424],[-94.69373,36.19402],[-94.69389,36.19363],[-94.69367,36.19267],[-94.69313,36.19267],[-94.69277,36.19309],[-94.69282,36.19345],[-94.69307,36.19381],[-94.69304,36.19399],[-94.69223,36.19416],[-94.69205,36.19432],[-94.69178,36.19419],[-94.69131,36.19426],[-94.69118,36.19471],[-94.69154,36.19531],[-94.6916,36.1957],[-94.69196,36.19568],[-94.69211,36.19558],[-94.69221,36.19523],[-94.69259,36.19498],[-94.69286,36.19498],[-94.69309,36.19441],[-94.69331,36.19427],[-94.69371,36.19458],[-94.69421,36.19546],[-94.6943,36.19552],[-94.69448,36.19539],[-94.69461,36.19552],[-94.69425,36.19642],[-94.69452,36.19678],[-94.69382,36.19795],[-94.6938,36.19853],[-94.69297,36.19876],[-94.69268,36.19908],[-94.69214,36.19903],[-94.69175,36.19914]]]},"properties":{"fire_id":"ufid:2022-OKOKS-220519","source_collection":"history-2022","source_objectid":15250,"incident_name":"Flint Hill","mapped_acres":170.0,"mapped_acres_source":"poly_GISAcres","gis_acres":170.0,"auto_acres":100.2266698075661,"reported_acres":170.0,"percent_contained":null,"state":"OK","state_wfigs":"US-OK","county":"Delaware","discovery_time_utc":"2022-03-18T03:10:00Z","perimeter_time_utc":"2023-02-01T18:04:14Z","perimeter_edit_time_utc":"2023-03-14T15:13:42Z","incident_modified_time_utc":"2022-03-23T20:53:27Z","containment_time_utc":null,"control_time_utc":null,"fire_out_time_utc":null,"fire_cause":"Human","fire_cause_general":"Undetermined","map_method":"Image Interpretation","source_dataset":"FFP","unique_fire_identifier":"2022-OKOKS-220519","irwin_id":"{9869148E-D41E-478A-9511-CB36986A1477}","global_id":"88dded5c-2d86-4097-b686-8c3e191d21f5"}}]}
