{"type":"FeatureCollection","features":[{"type":"Feature","geometry":{"type":"Polygon","coordinates":[[[-79.69919,33.04245],[-79.7013,33.03754],[-79.70709,33.04389],[-79.7029,33.04589],[-79.70093,33.04854],[-79.70031,33.05086],[-79.70005,33.05135],[-79.69794,33.05109],[-79.69698,33.04866],[-79.6978,33.04677],[-79.69919,33.04245]]]},"properties":{"fire_id":"ufid:2022-SCFMF-000213","source_collection":"history-2022","source_objectid":359,"incident_name":"Midnight","mapped_acres":123.0,"mapped_acres_source":"poly_GISAcres","gis_acres":123.0,"auto_acres":153.029431479761,"reported_acres":159.0,"percent_contained":100.0,"state":"SC","state_wfigs":"US-SC","county":"Charleston","discovery_time_utc":"2022-05-09T03:10:00Z","perimeter_time_utc":"2022-05-09T08:10:00Z","perimeter_edit_time_utc":"2022-06-09T14:38:37Z","incident_modified_time_utc":"2022-06-09T14:09:51Z","containment_time_utc":"2022-05-13T12:30:00Z","control_time_utc":"2022-05-25T14:20:00Z","fire_out_time_utc":"2022-06-09T14:00:00Z","fire_cause":"Undetermined","fire_cause_general":null,"map_method":"Hand Sketch","source_dataset":"2022 NIFS","unique_fire_identifier":"2022-SCFMF-000213","irwin_id":"{CA00F234-44C4-4AD7-893B-34CC9F1093D9}","global_id":"e2261ee2-556b-4a44-8df2-72bac3ed30d6"}},{"type":"Feature","geometry":{"type":"Polygon","coordinates":[[[-79.70496,33.03881],[-79.7079,33.03674],[-79.70854,33.0377],[-79.71028,33.03846],[-79.71364,33.04123],[-79.71156,33.04258],[-79.70696,33.04412],[-79.70027,33.03621],[-79.70224,33.03636],[-79.70329,33.03713],[-79.70496,33.03881]]]},"properties":{"fire_id":"ufid:2022-SCFMF-000166","source_collection":"history-2022","source_objectid":1786,"incident_name":"205 Fire","mapped_acres":100.0,"mapped_acres_source":"poly_GISAcres","gis_acres":100.0,"auto_acres":120.199792806918,"reported_acres":200.0,"percent_contained":99.0,"state":"SC","state_wfigs":"US-SC","county":"Charleston","discovery_time_utc":"2022-04-01T22:04:00Z","perimeter_time_utc":"2022-04-02T03:04:41Z","perimeter_edit_time_utc":"2022-06-09T14:33:47Z","incident_modified_time_utc":"2022-04-21T17:19:12Z","containment_time_utc":"2022-04-07T19:15:00Z","control_time_utc":"2022-04-16T21:30:00Z","fire_out_time_utc":"2022-04-21T17:18:00Z","fire_cause":"Undetermined","fire_cause_general":null,"map_method":"Hand Sketch","source_dataset":"2022 NIFS","unique_fire_identifier":"2022-SCFMF-000166","irwin_id":"{4F3AF3FA-F807-4923-8B51-0CEB54E8463D}","global_id":"af8e3f39-8df6-40e9-a2c3-99830235cd0e"}},{"type":"Feature","geometry":{"type":"MultiPolygon","coordinates":[[[[-79.93749,33.26954],[-79.93753,33.2695],[-79.93757,33.26953],[-79.93749,33.26954]]],[[[-79.93757,33.26953],[-79.93763,33.26953],[-79.9376,33.26955],[-79.93757,33.26953]]],[[[-79.93789,33.27046],[-79.935438,33.271247],[-79.93213,33.274],[-79.92966,33.27343],[-79.92982,33.27205],[-79.93084,33.26897],[-79.93397,33.26983],[-79.93428,33.27013],[-79.93487,33.27037],[-79.93543,33.27043],[-79.93686,33.26957],[-79.93749,33.26954],[-79.935514,33.271184],[-79.9376,33.26955],[-79.93802,33.26986],[-79.93789,33.27046]]]]},"properties":{"fire_id":"ufid:2022-SCFMF-000200","source_collection":"history-2022","source_objectid":2306,"incident_name":"Long Acre","mapped_acres":30.0,"mapped_acres_source":"poly_GISAcres","gis_acres":30.0,"auto_acres":53.2789600340162,"reported_acres":53.4,"percent_contained":null,"state":"SC","state_wfigs":"US-SC","county":"Berkeley","discovery_time_utc":"2022-04-24T16:30:00Z","perimeter_time_utc":"2022-04-24T21:30:00Z","perimeter_edit_time_utc":"2022-06-09T14:19:55Z","incident_modified_time_utc":"2022-06-09T14:08:53Z","containment_time_utc":"2022-04-24T23:00:00Z","control_time_utc":"2022-04-27T20:30:00Z","fire_out_time_utc":"2022-06-09T14:00:00Z","fire_cause":"Human","fire_cause_general":null,"map_method":"GPS-Walked","source_dataset":"2022 NIFS","unique_fire_identifier":"2022-SCFMF-000200","irwin_id":"{EAC717F1-17C8-4F25-B9D7-1CE0928A0B67}","global_id":"a76f058e-9aeb-48e0-a8af-98dd6dd8794c"}},{"type":"Feature","geometry":{"type":"Polygon","coordinates":[[[-79.79841,32.99971],[-79.79434,32.99608],[-79.79727,33.00035],[-79.79714,33.00094],[-79.79568,33.00131],[-79.7843,33.00163],[-79.78347,33.00131],[-79.78322,32.99966],[-79.78347,32.99806],[-79.79473,32.9915],[-79.79841,32.99971]]]},"properties":{"fire_id":"ufid:2022-SCFMF-000086","source_collection":"history-2022","source_objectid":31285,"incident_name":"Fish Hook","mapped_acres":236.14,"mapped_acres_source":"poly_GISAcres","gis_acres":236.14,"auto_acres":236.13861754031495,"reported_acres":279.0,"percent_contained":null,"state":"SC","state_wfigs":"US-SC","county":"Berkeley","discovery_time_utc":"2022-02-26T16:21:00Z","perimeter_time_utc":"2024-08-21T14:42:15Z","perimeter_edit_time_utc":"2024-08-21T14:42:15Z","incident_modified_time_utc":"2022-03-24T13:03:11Z","containment_time_utc":"2022-02-28T19:30:00Z","control_time_utc":"2022-03-03T21:30:00Z","fire_out_time_utc":"2022-03-24T12:55:00Z","fire_cause":"Human","fire_cause_general":"Undetermined","map_method":"Hand Sketch","source_dataset":"FFP","unique_fire_identifier":"2022-SCFMF-000086","irwin_id":"{8A081F01-1AD7-4D01-8C7B-B4BE8759AB26}","global_id":"4fc25511-ce5c-4e99-94dc-145d6e3f733c"}}]}
