{"type":"FeatureCollection","features":[{"type":"Feature","geometry":{"type":"Polygon","coordinates":[[[-111.40468,40.54008],[-111.40535,40.54072],[-111.40516,40.54172],[-111.40451,40.54119],[-111.40401,40.54019],[-111.40423,40.53998],[-111.40468,40.54008]]]},"properties":{"fire_id":"ufid:2022-UTNES-200509","source_collection":"history-2022","source_objectid":245,"incident_name":"Commons","mapped_acres":2.93220107952589,"mapped_acres_source":"poly_GISAcres","gis_acres":2.93220107952589,"auto_acres":2.93219126585906,"reported_acres":2.9,"percent_contained":null,"state":"UT","state_wfigs":"US-UT","county":"Wasatch","discovery_time_utc":"2022-08-12T21:03:02Z","perimeter_time_utc":null,"perimeter_edit_time_utc":"2022-08-18T13:04:27Z","incident_modified_time_utc":"2022-08-15T13:55:05Z","containment_time_utc":"2022-08-12T21:44:00Z","control_time_utc":"2022-08-12T22:05:00Z","fire_out_time_utc":"2022-08-15T14:00:00Z","fire_cause":"Natural","fire_cause_general":null,"map_method":"Mixed Methods","source_dataset":"2022 NIFS","unique_fire_identifier":"2022-UTNES-200509","irwin_id":"{476D4457-64C9-4175-B44D-B9D8C2F19B77}","global_id":"c8da7aed-0e7a-44dc-b0e4-960149855045"}},{"type":"Feature","geometry":{"type":"Polygon","coordinates":[[[-111.44285,40.58774],[-111.44139,40.58689],[-111.4413,40.58649],[-111.44099,40.58652],[-111.44089,40.58641],[-111.44101,40.58603],[-111.44051,40.58584],[-111.44034,40.58559],[-111.44069,40.58542],[-111.44098,40.58482],[-111.44047,40.58466],[-111.44048,40.58437],[-111.44162,40.58364],[-111.4419,40.58393],[-111.44166,40.58428],[-111.4416,40.58482],[-111.44192,40.58491],[-111.44221,40.58532],[-111.4424,40.58522],[-111.44229,40.58513],[-111.44234,40.58495],[-111.44376,40.58532],[-111.44375,40.58507],[-111.44468,40.58478],[-111.44454,40.58449],[-111.44478,40.58442],[-111.44529,40.58482],[-111.44562,40.58543],[-111.44499,40.58642],[-111.44455,40.58656],[-111.4443,40.58651],[-111.44409,40.58665],[-111.44429,40.58648],[-111.44424,40.58639],[-111.44397,40.58657],[-111.44415,40.58702],[-111.44403,40.58736],[-111.44336,40.58769],[-111.44285,40.58774]]]},"properties":{"fire_id":"ufid:2022-UTNES-200143","source_collection":"history-2022","source_objectid":357,"incident_name":"Flat Line","mapped_acres":24.945600178536,"mapped_acres_source":"poly_GISAcres","gis_acres":24.945600178536,"auto_acres":24.9646117603673,"reported_acres":25.0,"percent_contained":null,"state":"UT","state_wfigs":"US-UT","county":"Wasatch","discovery_time_utc":"2022-05-22T21:34:00Z","perimeter_time_utc":"2022-05-24T13:00:00Z","perimeter_edit_time_utc":"2022-05-26T05:35:50Z","incident_modified_time_utc":"2022-06-03T18:02:10Z","containment_time_utc":"2022-05-24T23:00:00Z","control_time_utc":"2022-05-30T19:49:00Z","fire_out_time_utc":"2022-05-31T14:30:00Z","fire_cause":"Human","fire_cause_general":null,"map_method":"GPS-Walked","source_dataset":"2022 NIFS","unique_fire_identifier":"2022-UTNES-200143","irwin_id":"{8ECF3FE4-33AD-44AC-87DD-17AE70AAF61D}","global_id":"c717722a-8af8-441b-b575-8359ac36c281"}},{"type":"Feature","geometry":{"type":"Polygon","coordinates":[[[-111.958,40.1796],[-111.95716,40.17917],[-111.9567,40.17913],[-111.95636,40.17937],[-111.95597,40.18009],[-111.95535,40.18061],[-111.95536,40.18169],[-111.95498,40.18224],[-111.95317,40.18377],[-111.95273,40.18388],[-111.9524,40.18362],[-111.9524,40.18329],[-111.95309,40.18207],[-111.95291,40.18161],[-111.95152,40.18095],[-111.95136,40.18067],[-111.95136,40.1803],[-111.9516,40.17991],[-111.95284,40.17876],[-111.95501,40.17717],[-111.95581,40.17685],[-111.95621,40.17683],[-111.95702,40.17715],[-111.95785,40.17812],[-111.95841,40.17921],[-111.958,40.1796]]]},"properties":{"fire_id":"ufid:2022-UTNWS-000313","source_collection":"history-2022","source_objectid":502,"incident_name":"Soldier","mapped_acres":52.5075707759565,"mapped_acres_source":"poly_GISAcres","gis_acres":52.5075707759565,"auto_acres":52.5408585503083,"reported_acres":52.5,"percent_contained":null,"state":"UT","state_wfigs":"US-UT","county":"Utah","discovery_time_utc":"2022-07-05T22:01:00Z","perimeter_time_utc":"2022-07-06T02:42:16Z","perimeter_edit_time_utc":"2022-07-06T15:44:28Z","incident_modified_time_utc":"2022-07-18T20:01:51Z","containment_time_utc":"2022-07-07T00:00:00Z","control_time_utc":"2022-07-18T19:30:00Z","fire_out_time_utc":"2022-07-18T19:30:00Z","fire_cause":"Human","fire_cause_general":null,"map_method":"GPS-Flight","source_dataset":"2022 NIFS","unique_fire_identifier":"2022-UTNWS-000313","irwin_id":"{65FBD467-0221-40EF-A3EC-11F5963FFA2F}","global_id":"1ab5da19-9b4d-4c95-ae48-9713a6f5a0e7"}},{"type":"Feature","geometry":{"type":"Polygon","coordinates":[[[-112.06018,40.66333],[-112.06055,40.66321],[-112.06072,40.66284],[-112.06407,40.6629],[-112.06432,40.66389],[-112.06536,40.66459],[-112.06446,40.6647],[-112.0642,40.6649],[-112.06307,40.66476],[-112.06247,40.66509],[-112.06296,40.66545],[-112.05991,40.66467],[-112.05981,40.66449],[-112.0579,40.66401],[-112.05749,40.66367],[-112.05788,40.66336],[-112.05836,40.66324],[-112.06018,40.66333]]]},"properties":{"fire_id":"ufid:2022-UTNWS-000221","source_collection":"history-2022","source_objectid":510,"incident_name":"Bacuss","mapped_acres":25.7443277734117,"mapped_acres_source":"poly_GISAcres","gis_acres":25.7443277734117,"auto_acres":25.7441678606655,"reported_acres":26.0,"percent_contained":null,"state":"UT","state_wfigs":"US-UT","county":"Salt Lake","discovery_time_utc":"2022-06-18T15:40:23Z","perimeter_time_utc":"2022-06-18T20:40:23Z","perimeter_edit_time_utc":"2022-11-22T19:38:30Z","incident_modified_time_utc":"2022-09-13T20:05:36Z","containment_time_utc":"2022-06-18T16:33:00Z","control_time_utc":"2022-06-18T18:32:00Z","fire_out_time_utc":"2022-07-13T19:07:00Z","fire_cause":"Undetermined","fire_cause_general":null,"map_method":"Auto-generated","source_dataset":"2022 NIFS","unique_fire_identifier":"2022-UTNWS-000221","irwin_id":"{C9C5C08D-05F8-4506-9245-9DD0D7770B71}","global_id":"5a1c9cde-e23f-4b59-88ad-da78fbde6723"}},{"type":"Feature","geometry":{"type":"MultiPolygon","coordinates":[[[[-111.75111,40.62029],[-111.75116,40.62031],[-111.75108,40.62038],[-111.75111,40.62029]]],[[[-111.7512,40.62026],[-111.7512,40.6203],[-111.75116,40.62031],[-111.7512,40.62026]]],[[[-111.75122,40.6203],[-111.75123,40.62031],[-111.75119,40.62034],[-111.75122,40.6203]]]]},"properties":{"fire_id":"ufid:2022-UTUWF-000654","source_collection":"history-2022","source_objectid":911,"incident_name":"Scramble Fire","mapped_acres":0.00995565136011726,"mapped_acres_source":"poly_Acres_AutoCalc_fallback","gis_acres":null,"auto_acres":0.00995565136011726,"reported_acres":0.1,"percent_contained":null,"state":"UT","state_wfigs":"US-UT","county":"Salt Lake","discovery_time_utc":"2022-09-15T01:45:00Z","perimeter_time_utc":null,"perimeter_edit_time_utc":"2022-09-26T19:50:14Z","incident_modified_time_utc":"2022-09-16T19:14:18Z","containment_time_utc":"2022-09-15T19:20:00Z","control_time_utc":"2022-09-16T18:45:00Z","fire_out_time_utc":"2022-09-16T18:50:00Z","fire_cause":"Natural","fire_cause_general":null,"map_method":"Mixed Methods","source_dataset":"2022 NIFS","unique_fire_identifier":"2022-UTUWF-000654","irwin_id":"{FD58FE20-FB37-4B3F-BD18-0D128AB45FF7}","global_id":"ebee942f-7e35-48b1-972e-36fe425910d7"}},{"type":"Feature","geometry":{"type":"Polygon","coordinates":[[[-112.21039,40.73427],[-112.21002,40.73466],[-112.20835,40.73448],[-112.20746,40.73468],[-112.20554,40.73603],[-112.20404,40.7369],[-112.20335,40.73756],[-112.20309,40.73828],[-112.20206,40.73837],[-112.20115,40.7392],[-112.20004,40.7397],[-112.19932,40.73965],[-112.1987,40.73989],[-112.1964,40.7416],[-112.19571,40.74248],[-112.19509,40.7429],[-112.19482,40.74287],[-112.19469,40.74196],[-112.19548,40.73964],[-112.19528,40.73925],[-112.19478,40.73923],[-112.1931,40.74028],[-112.19154,40.74083],[-112.19034,40.7416],[-112.189,40.74303],[-112.18874,40.74422],[-112.18847,40.7443],[-112.1883,40.7446],[-112.18784,40.74447],[-112.18932,40.74199],[-112.1907,40.74039],[-112.19544,40.73741],[-112.19598,40.73712],[-112.19652,40.73715],[-112.19725,40.73632],[-112.1993,40.73534],[-112.20068,40.73502],[-112.20185,40.73437],[-112.2032,40.73336],[-112.20463,40.73285],[-112.20619,40.73288],[-112.20897,40.73353],[-112.20984,40.73387],[-112.21039,40.73427]]]},"properties":{"fire_id":"ufid:2022-UTNWS-000100","source_collection":"history-2022","source_objectid":969,"incident_name":"Marina","mapped_acres":141.153125419087,"mapped_acres_source":"poly_GISAcres","gis_acres":141.153125419087,"auto_acres":141.229883237259,"reported_acres":141.2,"percent_contained":null,"state":"UT","state_wfigs":"US-UT","county":"Salt Lake","discovery_time_utc":"2022-05-01T01:28:00Z","perimeter_time_utc":"2022-05-01T07:00:00Z","perimeter_edit_time_utc":"2022-05-03T22:51:02Z","incident_modified_time_utc":"2022-05-09T16:48:11Z","containment_time_utc":"2022-05-01T04:00:00Z","control_time_utc":"2022-05-09T16:30:00Z","fire_out_time_utc":"2022-05-09T16:45:00Z","fire_cause":"Human","fire_cause_general":null,"map_method":"GPS-Flight","source_dataset":"2022 NIFS","unique_fire_identifier":"2022-UTNWS-000100","irwin_id":"{832C5907-991C-4298-A80D-DE85FDCE7F43}","global_id":"42f73dc4-ec7b-4108-b667-1ac7c0f82f75"}},{"type":"Feature","geometry":{"type":"Polygon","coordinates":[[[-112.09894,40.57295],[-112.09887,40.57036],[-112.1026,40.56939],[-112.1057,40.57052],[-112.10509,40.57391],[-112.10376,40.57469],[-112.10277,40.57477],[-112.10235,40.57447],[-112.10184,40.5738],[-112.10026,40.57323],[-112.09894,40.57295]]]},"properties":{"fire_id":"ufid:2022-UTNWS-000210","source_collection":"history-2022","source_objectid":977,"incident_name":"Barneys Wash","mapped_acres":60.7193165762599,"mapped_acres_source":"poly_GISAcres","gis_acres":60.7193165762599,"auto_acres":60.7189796446802,"reported_acres":60.0,"percent_contained":null,"state":"UT","state_wfigs":"US-UT","county":"Salt Lake","discovery_time_utc":"2022-06-17T18:05:39Z","perimeter_time_utc":"2022-06-17T23:05:39Z","perimeter_edit_time_utc":"2022-11-22T18:47:58Z","incident_modified_time_utc":"2022-06-23T16:58:28Z","containment_time_utc":"2022-06-18T04:00:00Z","control_time_utc":"2022-06-18T23:20:00Z","fire_out_time_utc":"2022-06-23T02:00:00Z","fire_cause":"Human","fire_cause_general":null,"map_method":"Hand Sketch","source_dataset":"2022 NIFS","unique_fire_identifier":"2022-UTNWS-000210","irwin_id":"{EEBE3F8E-AFC3-4E54-82DF-7F61FF0D406D}","global_id":"3e4334fc-a87d-45ac-93b3-38b5519f22e4"}},{"type":"Feature","geometry":{"type":"Polygon","coordinates":[[[-111.36874,40.46848],[-111.36902,40.46785],[-111.36854,40.4674],[-111.36838,40.46703],[-111.36841,40.46615],[-111.36919,40.46556],[-111.36955,40.46498],[-111.37053,40.46505],[-111.37098,40.46541],[-111.37094,40.46567],[-111.37117,40.46582],[-111.37173,40.46577],[-111.37192,40.46656],[-111.37062,40.46813],[-111.36993,40.46813],[-111.36874,40.46848]]]},"properties":{"fire_id":"ufid:2022-UTNES-200497","source_collection":"history-2022","source_objectid":1122,"incident_name":"Magpie Hill","mapped_acres":19.0062144488726,"mapped_acres_source":"poly_GISAcres","gis_acres":19.0062144488726,"auto_acres":19.0061497520137,"reported_acres":19.0,"percent_contained":null,"state":"UT","state_wfigs":"US-UT","county":"Wasatch","discovery_time_utc":"2022-08-10T21:28:00Z","perimeter_time_utc":null,"perimeter_edit_time_utc":"2022-08-18T13:10:49Z","incident_modified_time_utc":"2022-08-15T13:55:21Z","containment_time_utc":"2022-08-11T02:38:00Z","control_time_utc":"2022-08-12T19:03:00Z","fire_out_time_utc":"2022-08-15T14:00:00Z","fire_cause":"Natural","fire_cause_general":null,"map_method":"Mixed Methods","source_dataset":"2022 NIFS","unique_fire_identifier":"2022-UTNES-200497","irwin_id":"{8310C0D2-74E7-4E0D-A440-C772775A0823}","global_id":"bb92f62c-38b7-4554-9f23-0f37b9f64a04"}},{"type":"Feature","geometry":{"type":"Polygon","coordinates":[[[-111.9171,41.25139],[-111.91719,41.25137],[-111.91717,41.25145],[-111.9171,41.25139]]]},"properties":{"fire_id":"ufid:2022-UTUWF-000556","source_collection":"history-2022","source_objectid":1158,"incident_name":"Rock Band","mapped_acres":0.1,"mapped_acres_source":"poly_GISAcres","gis_acres":0.1,"auto_acres":0.013994906774132,"reported_acres":0.1,"percent_contained":null,"state":"UT","state_wfigs":"US-UT","county":"Weber","discovery_time_utc":"2022-08-24T19:35:04Z","perimeter_time_utc":"2022-08-25T00:35:04Z","perimeter_edit_time_utc":"2022-09-23T17:14:04Z","incident_modified_time_utc":"2022-09-16T15:11:21Z","containment_time_utc":"2022-08-25T01:00:00Z","control_time_utc":"2022-09-03T18:20:00Z","fire_out_time_utc":"2022-09-16T14:30:00Z","fire_cause":"Natural","fire_cause_general":null,"map_method":"Hand Sketch","source_dataset":"2022 NIFS","unique_fire_identifier":"2022-UTUWF-000556","irwin_id":"{C797A29B-318B-456A-AE50-9F0FE5D5274F}","global_id":"92ac0b01-b0bd-4207-8f52-b2f5f98c469a"}},{"type":"Feature","geometry":{"type":"Polygon","coordinates":[[[-112.24115,40.70715],[-112.24178,40.70687],[-112.24256,40.70695],[-112.24357,40.70629],[-112.24405,40.70558],[-112.244,40.70486],[-112.24572,40.70494],[-112.2484,40.70441],[-112.24855,40.70378],[-112.2491,40.70323],[-112.2499,40.70323],[-112.25002,40.70316],[-112.24996,40.70303],[-112.2507,40.70234],[-112.25133,40.70235],[-112.25265,40.70203],[-112.25371,40.70123],[-112.25335,40.70005],[-112.25366,40.69917],[-112.25418,40.6984],[-112.2545,40.69766],[-112.25399,40.69591],[-112.25498,40.6958],[-112.25523,40.6978],[-112.25586,40.69967],[-112.25538,40.6994],[-112.25495,40.69885],[-112.25485,40.69892],[-112.25558,40.70177],[-112.25591,40.70236],[-112.25574,40.70281],[-112.25573,40.70341],[-112.25599,40.70372],[-112.25477,40.70554],[-112.25358,40.70663],[-112.25314,40.70672],[-112.253,40.70664],[-112.25057,40.70805],[-112.25009,40.7084],[-112.24996,40.70891],[-112.24144,40.71384],[-112.24115,40.70715]]]},"properties":{"fire_id":"ufid:2022-UTNWS-000211","source_collection":"history-2022","source_objectid":1419,"incident_name":"Lakeshore","mapped_acres":209.23074957148,"mapped_acres_source":"poly_GISAcres","gis_acres":209.23074957148,"auto_acres":209.340087447138,"reported_acres":394.19,"percent_contained":100.0,"state":"UT","state_wfigs":"US-UT","county":"Tooele","discovery_time_utc":"2022-06-17T18:19:00Z","perimeter_time_utc":"2022-06-17T23:19:00Z","perimeter_edit_time_utc":"2022-07-08T02:54:05Z","incident_modified_time_utc":"2022-06-24T22:34:13Z","containment_time_utc":"2022-06-18T21:19:00Z","control_time_utc":"2022-06-19T00:15:00Z","fire_out_time_utc":"2022-06-24T22:15:00Z","fire_cause":"Human","fire_cause_general":null,"map_method":"Mixed Methods","source_dataset":"2022 NIFS","unique_fire_identifier":"2022-UTNWS-000211","irwin_id":"{927160D5-C7C3-4395-91B9-9BF1A77DF4A6}","global_id":"d3d8a84d-e479-45b8-97dc-23cabe87bacf"}},{"type":"Feature","geometry":{"type":"Polygon","coordinates":[[[-112.50447,40.77981],[-112.50463,40.78137],[-112.50497,40.78192],[-112.50486,40.78205],[-112.50467,40.78194],[-112.50436,40.78205],[-112.50375,40.78255],[-112.50337,40.78411],[-112.50239,40.78509],[-112.50203,40.78567],[-112.50141,40.78719],[-112.50065,40.78642],[-112.50034,40.78539],[-112.50017,40.78288],[-112.50062,40.78148],[-112.5008,40.78011],[-112.50135,40.77909],[-112.50132,40.77887],[-112.50163,40.77814],[-112.50228,40.77738],[-112.50255,40.77754],[-112.50292,40.77746],[-112.50391,40.77699],[-112.50477,40.77616],[-112.50459,40.77599],[-112.50465,40.7759],[-112.50513,40.7758],[-112.50546,40.77607],[-112.50569,40.77591],[-112.50566,40.77552],[-112.50638,40.77572],[-112.50673,40.77631],[-112.50719,40.77636],[-112.50781,40.77665],[-112.50838,40.77742],[-112.50859,40.7781],[-112.50837,40.77815],[-112.50792,40.77755],[-112.50756,40.77735],[-112.50718,40.77742],[-112.50689,40.77813],[-112.50613,40.77831],[-112.50477,40.77901],[-112.50447,40.77981]]]},"properties":{"fire_id":"ufid:2022-UTNWS-000300","source_collection":"history-2022","source_objectid":1539,"incident_name":"Stansbury Island","mapped_acres":84.73,"mapped_acres_source":"poly_GISAcres","gis_acres":84.73,"auto_acres":84.7672280542401,"reported_acres":87.7,"percent_contained":null,"state":"UT","state_wfigs":"US-UT","county":"Tooele","discovery_time_utc":"2022-07-04T18:58:00Z","perimeter_time_utc":"2022-07-04T23:58:29Z","perimeter_edit_time_utc":"2022-10-31T14:49:05Z","incident_modified_time_utc":"2022-07-05T19:32:55Z","containment_time_utc":"2022-07-04T21:40:00Z","control_time_utc":"2022-07-04T21:50:00Z","fire_out_time_utc":"2022-07-05T19:30:00Z","fire_cause":"Human","fire_cause_general":null,"map_method":"GPS-Flight","source_dataset":"2022 NIFS","unique_fire_identifier":"2022-UTNWS-000300","irwin_id":"{F4891528-8EE1-40A8-A727-83370922341A}","global_id":"76282c4a-f813-46c2-bf3e-1e2df38bb477"}},{"type":"Feature","geometry":{"type":"Polygon","coordinates":[[[-111.67833,40.74154],[-111.679,40.74152],[-111.67862,40.74179],[-111.67815,40.74176],[-111.67823,40.74198],[-111.67771,40.74198],[-111.67729,40.74181],[-111.67765,40.74165],[-111.67781,40.74177],[-111.67833,40.74154]]]},"properties":{"fire_id":"ufid:2022-UTNWS-000616","source_collection":"history-2022","source_objectid":1657,"incident_name":"2022 Parleys","mapped_acres":0.888723596103742,"mapped_acres_source":"poly_GISAcres","gis_acres":0.888723596103742,"auto_acres":0.888720266634432,"reported_acres":0.9,"percent_contained":null,"state":"UT","state_wfigs":"US-UT","county":"Salt Lake","discovery_time_utc":"2022-09-06T17:43:00Z","perimeter_time_utc":"2022-09-06T18:58:00Z","perimeter_edit_time_utc":"2022-09-06T22:37:19Z","incident_modified_time_utc":"2022-09-07T20:40:25Z","containment_time_utc":"2022-09-07T18:00:00Z","control_time_utc":"2022-09-07T20:38:00Z","fire_out_time_utc":"2022-09-07T20:38:00Z","fire_cause":"Human","fire_cause_general":null,"map_method":"Mixed Methods","source_dataset":"2022 NIFS","unique_fire_identifier":"2022-UTNWS-000616","irwin_id":"{9B0158CF-B641-478E-9FF0-901805D93ABC}","global_id":"97eec12c-848a-4304-9065-a39652731ab4"}},{"type":"Feature","geometry":{"type":"Polygon","coordinates":[[[-112.12958,40.21775],[-112.12933,40.21787],[-112.12902,40.21765],[-112.12873,40.21654],[-112.12903,40.2164],[-112.12906,40.21622],[-112.12932,40.21601],[-112.13027,40.21543],[-112.13182,40.21537],[-112.13283,40.21565],[-112.13286,40.21576],[-112.13222,40.21577],[-112.13238,40.2159],[-112.13208,40.21591],[-112.13212,40.21606],[-112.13282,40.21604],[-112.13276,40.21639],[-112.13321,40.21636],[-112.13345,40.21581],[-112.13422,40.21589],[-112.13457,40.21563],[-112.13489,40.21638],[-112.1347,40.21645],[-112.13417,40.21836],[-112.13427,40.21861],[-112.13408,40.21906],[-112.1341,40.21971],[-112.13417,40.22028],[-112.13447,40.22101],[-112.13501,40.22147],[-112.13519,40.22196],[-112.13501,40.22205],[-112.13461,40.22185],[-112.13309,40.22082],[-112.13278,40.22038],[-112.1321,40.22001],[-112.13173,40.2196],[-112.13101,40.21935],[-112.13016,40.21824],[-112.12958,40.21775]]]},"properties":{"fire_id":"ufid:2022-UTNWS-000387","source_collection":"history-2022","source_objectid":2223,"incident_name":"West Fairfield","mapped_acres":50.2128707172394,"mapped_acres_source":"poly_GISAcres","gis_acres":50.2128707172394,"auto_acres":50.2413924725245,"reported_acres":50.2,"percent_contained":null,"state":"UT","state_wfigs":"US-UT","county":"Utah","discovery_time_utc":"2022-07-17T16:21:00Z","perimeter_time_utc":"2022-07-17T20:20:00Z","perimeter_edit_time_utc":"2022-07-25T15:45:41Z","incident_modified_time_utc":"2022-08-04T15:15:01Z","containment_time_utc":"2022-07-18T02:00:00Z","control_time_utc":"2022-07-18T18:00:00Z","fire_out_time_utc":"2022-07-24T19:00:00Z","fire_cause":"Human","fire_cause_general":null,"map_method":"Mixed Methods","source_dataset":"2022 NIFS","unique_fire_identifier":"2022-UTNWS-000387","irwin_id":"{9E246509-CF04-4D85-8A5E-A302DF8D1F48}","global_id":"97d05208-665e-4013-8b2c-a736877519dc"}},{"type":"Feature","geometry":{"type":"Polygon","coordinates":[[[-111.39807,40.40129],[-111.3987,40.40197],[-111.39881,40.40265],[-111.39874,40.40314],[-111.39832,40.40335],[-111.3979,40.40338],[-111.39667,40.40313],[-111.39665,40.40293],[-111.39714,40.40264],[-111.39679,40.40249],[-111.39659,40.40208],[-111.39665,40.40192],[-111.39713,40.40187],[-111.39742,40.40197],[-111.39764,40.40158],[-111.39807,40.40129]]]},"properties":{"fire_id":"ufid:2022-UTNES-200371","source_collection":"history-2022","source_objectid":2265,"incident_name":"Starks","mapped_acres":7.37504386692675,"mapped_acres_source":"poly_GISAcres","gis_acres":7.37504386692675,"auto_acres":7.38071271444504,"reported_acres":7.41,"percent_contained":null,"state":"UT","state_wfigs":"US-UT","county":"Wasatch","discovery_time_utc":"2022-07-14T01:41:00Z","perimeter_time_utc":null,"perimeter_edit_time_utc":"2022-08-15T13:07:28Z","incident_modified_time_utc":"2022-07-18T17:45:16Z","containment_time_utc":"2022-07-14T04:45:00Z","control_time_utc":"2022-07-14T05:28:00Z","fire_out_time_utc":"2022-07-18T17:30:00Z","fire_cause":"Natural","fire_cause_general":null,"map_method":"Mixed Methods","source_dataset":"2022 NIFS","unique_fire_identifier":"2022-UTNES-200371","irwin_id":"{956A50F8-B3EB-49B1-9081-87114202F6A0}","global_id":"8f7ab5ea-f082-44c2-a8ce-bbff9039462d"}},{"type":"Feature","geometry":{"type":"Polygon","coordinates":[[[-111.95542,41.6049],[-111.9554,41.6051],[-111.95172,41.60407],[-111.94995,41.60417],[-111.94926,41.60452],[-111.94812,41.60446],[-111.9476,41.60429],[-111.94744,41.60392],[-111.94801,41.60309],[-111.94809,41.60213],[-111.94919,41.60152],[-111.95039,41.60112],[-111.95232,41.60129],[-111.95349,41.6015],[-111.95426,41.60184],[-111.95531,41.6027],[-111.95596,41.60383],[-111.95772,41.6051],[-111.95885,41.60524],[-111.9595,41.6055],[-111.95953,41.60581],[-111.95918,41.60587],[-111.95712,41.60548],[-111.95553,41.60503],[-111.95542,41.6049]]]},"properties":{"fire_id":"ufid:2022-UTBRS-000343","source_collection":"history-2022","source_objectid":2266,"incident_name":"Sardine Canyon","mapped_acres":57.0,"mapped_acres_source":"poly_GISAcres","gis_acres":57.0,"auto_acres":57.036600560922,"reported_acres":57.0,"percent_contained":null,"state":"UT","state_wfigs":"US-UT","county":"Cache","discovery_time_utc":"2022-07-09T21:20:00Z","perimeter_time_utc":null,"perimeter_edit_time_utc":"2022-07-12T17:57:56Z","incident_modified_time_utc":"2022-09-13T20:32:26Z","containment_time_utc":"2022-07-12T02:46:00Z","control_time_utc":"2022-07-14T21:30:00Z","fire_out_time_utc":"2022-08-09T17:00:00Z","fire_cause":"Human","fire_cause_general":null,"map_method":"Mixed Methods","source_dataset":"2022 NIFS","unique_fire_identifier":"2022-UTBRS-000343","irwin_id":"{6085C750-5943-4EB2-A99F-CE48973346FA}","global_id":"379395eb-e75f-4ca1-a43f-9459d41a27e5"}},{"type":"Feature","geometry":{"type":"Polygon","coordinates":[[[-112.06325,40.76922],[-112.06311,40.76584],[-112.06438,40.76581],[-112.06473,40.76745],[-112.06622,40.76923],[-112.06325,40.76922]]]},"properties":{"fire_id":"ufid:2022-UTNWS-000393","source_collection":"history-2022","source_objectid":2475,"incident_name":"7200 West","mapped_acres":14.6244804740345,"mapped_acres_source":"poly_GISAcres","gis_acres":14.6244804740345,"auto_acres":14.624430894131,"reported_acres":15.0,"percent_contained":null,"state":"UT","state_wfigs":"US-UT","county":"Salt Lake","discovery_time_utc":"2022-07-17T23:09:00Z","perimeter_time_utc":"2022-07-18T04:09:52Z","perimeter_edit_time_utc":"2022-11-22T19:36:40Z","incident_modified_time_utc":"2022-07-24T23:54:42Z","containment_time_utc":"2022-07-18T00:30:00Z","control_time_utc":"2022-07-19T18:25:00Z","fire_out_time_utc":"2022-07-19T18:25:00Z","fire_cause":"Human","fire_cause_general":null,"map_method":"Hand Sketch","source_dataset":"2022 NIFS","unique_fire_identifier":"2022-UTNWS-000393","irwin_id":"{EE9E39CB-946A-4152-9FE9-02486780E78C}","global_id":"acd5b3f7-fb32-4b1b-afc3-7d1696792418"}},{"type":"Feature","geometry":{"type":"Polygon","coordinates":[[[-111.93502,41.23382],[-111.93516,41.23395],[-111.93511,41.23435],[-111.93544,41.23454],[-111.93525,41.23469],[-111.93517,41.23518],[-111.93549,41.2354],[-111.9351,41.23608],[-111.93477,41.23646],[-111.93428,41.23662],[-111.93256,41.23681],[-111.93246,41.2363],[-111.93227,41.23625],[-111.93274,41.2362],[-111.93268,41.2361],[-111.93286,41.23622],[-111.93347,41.23573],[-111.9334,41.23499],[-111.93367,41.23482],[-111.93332,41.23425],[-111.93348,41.23388],[-111.93333,41.23352],[-111.93342,41.23327],[-111.93323,41.23304],[-111.93339,41.23296],[-111.93313,41.23286],[-111.93325,41.23287],[-111.9333,41.23261],[-111.93349,41.23268],[-111.93336,41.23252],[-111.93387,41.23262],[-111.93429,41.23319],[-111.93411,41.23339],[-111.93433,41.23353],[-111.93416,41.23363],[-111.93423,41.23414],[-111.93444,41.23403],[-111.93445,41.2342],[-111.93462,41.23405],[-111.93476,41.23409],[-111.93502,41.23382]]]},"properties":{"fire_id":"ufid:2022-UTBRS-000618","source_collection":"history-2022","source_objectid":2491,"incident_name":"Valley Fire","mapped_acres":14.3989419245894,"mapped_acres_source":"poly_GISAcres","gis_acres":14.3989419245894,"auto_acres":14.3988850550731,"reported_acres":15.0,"percent_contained":null,"state":"UT","state_wfigs":"US-UT","county":"Weber","discovery_time_utc":"2022-09-06T22:00:00Z","perimeter_time_utc":"2022-09-07T18:00:00Z","perimeter_edit_time_utc":"2022-09-08T04:49:18Z","incident_modified_time_utc":"2022-10-31T21:31:29Z","containment_time_utc":"2022-09-10T23:30:00Z","control_time_utc":"2022-09-10T23:31:00Z","fire_out_time_utc":"2022-09-14T19:00:00Z","fire_cause":"Human","fire_cause_general":null,"map_method":"GPS-Walked","source_dataset":"2022 NIFS","unique_fire_identifier":"2022-UTBRS-000618","irwin_id":"{1C3D55D9-FC32-4889-9296-F0B878A80815}","global_id":"0fc043e4-f920-496d-8563-c6db5a3709c2"}},{"type":"Feature","geometry":{"type":"MultiPolygon","coordinates":[[[[-110.89979,40.20968],[-110.89925,40.21008],[-110.89863,40.21019],[-110.89844,40.21011],[-110.89837,40.20971],[-110.89826,40.20956],[-110.89806,40.20957],[-110.89806,40.20942],[-110.89821,40.20925],[-110.89849,40.20923],[-110.89874,40.20953],[-110.89894,40.20956],[-110.89951,40.20935],[-110.89987,40.20948],[-110.89979,40.20968]]],[[[-110.89983,40.2097],[-110.89979,40.20969],[-110.89979,40.20968],[-110.89983,40.2097]]]]},"properties":{"fire_id":"ufid:2022-UTNES-200388","source_collection":"history-2022","source_objectid":2613,"incident_name":"Grey Hill","mapped_acres":2.29140000374117,"mapped_acres_source":"poly_GISAcres","gis_acres":2.29140000374117,"auto_acres":2.29322147555183,"reported_acres":2.4,"percent_contained":null,"state":"UT","state_wfigs":"US-UT","county":"Wasatch","discovery_time_utc":"2022-07-17T18:46:00Z","perimeter_time_utc":null,"perimeter_edit_time_utc":"2022-07-26T15:46:40Z","incident_modified_time_utc":"2022-07-20T18:18:09Z","containment_time_utc":"2022-07-17T19:55:00Z","control_time_utc":"2022-07-17T23:07:00Z","fire_out_time_utc":"2022-07-18T19:19:00Z","fire_cause":"Natural","fire_cause_general":null,"map_method":"Mixed Methods","source_dataset":"2022 NIFS","unique_fire_identifier":"2022-UTNES-200388","irwin_id":"{FAC62E93-3022-4D9D-83BF-5FCFE171FDCA}","global_id":"ba99f568-3141-4ade-b39d-ddea1d43c723"}},{"type":"Feature","geometry":{"type":"Polygon","coordinates":[[[-112.24115,40.70715],[-112.24144,40.71384],[-112.23924,40.71496],[-112.23762,40.71595],[-112.23681,40.7166],[-112.23248,40.71919],[-112.22592,40.72292],[-112.22509,40.72271],[-112.22505,40.72239],[-112.22144,40.72175],[-112.22137,40.72156],[-112.22071,40.72109],[-112.22054,40.72044],[-112.22075,40.72022],[-112.22256,40.72006],[-112.22298,40.72021],[-112.22302,40.72068],[-112.22469,40.72102],[-112.22516,40.72082],[-112.22753,40.72043],[-112.2284,40.72078],[-112.22889,40.72078],[-112.22926,40.72037],[-112.22933,40.72008],[-112.23,40.71911],[-112.23082,40.71851],[-112.23132,40.71868],[-112.2321,40.71869],[-112.23488,40.71709],[-112.2357,40.71699],[-112.23598,40.71613],[-112.23533,40.71554],[-112.23525,40.71531],[-112.23484,40.71511],[-112.23398,40.71517],[-112.23259,40.71561],[-112.2302,40.71662],[-112.22994,40.71652],[-112.22958,40.71605],[-112.22994,40.71487],[-112.22974,40.71426],[-112.22994,40.71407],[-112.23037,40.71411],[-112.23129,40.71382],[-112.23178,40.71351],[-112.23165,40.71329],[-112.23201,40.71297],[-112.23209,40.71153],[-112.23224,40.71116],[-112.23208,40.7103],[-112.23277,40.70993],[-112.23353,40.70986],[-112.23483,40.71071],[-112.23632,40.70999],[-112.23673,40.7095],[-112.23846,40.70889],[-112.24035,40.70841],[-112.24058,40.70776],[-112.24115,40.70715]]]},"properties":{"fire_id":"ufid:2022-UTNWS-000216","source_collection":"history-2022","source_objectid":2688,"incident_name":"Lone","mapped_acres":184.962307743133,"mapped_acres_source":"poly_GISAcres","gis_acres":184.962307743133,"auto_acres":185.060166543082,"reported_acres":100.0,"percent_contained":null,"state":"UT","state_wfigs":"US-UT","county":"Tooele","discovery_time_utc":"2022-06-17T20:10:23Z","perimeter_time_utc":"2022-06-17T23:19:00Z","perimeter_edit_time_utc":"2022-07-08T02:54:05Z","incident_modified_time_utc":"2022-06-24T23:08:44Z","containment_time_utc":"2022-06-17T20:56:00Z","control_time_utc":"2022-06-17T20:56:00Z","fire_out_time_utc":"2022-06-17T23:00:00Z","fire_cause":"Human","fire_cause_general":null,"map_method":"Mixed Methods","source_dataset":"2022 NIFS","unique_fire_identifier":"2022-UTNWS-000216","irwin_id":"{A7384AF1-8083-4A4D-867F-A0CC85FAA235}","global_id":"3386d371-f317-42f6-8945-f20da7b5fb57"}},{"type":"Feature","geometry":{"type":"Polygon","coordinates":[[[-112.27105,40.5561],[-112.27103,40.55581],[-112.2721,40.55581],[-112.27209,40.55669],[-112.27147,40.55649],[-112.27105,40.5561]]]},"properties":{"fire_id":"ufid:2022-UTNWS-000458","source_collection":"history-2022","source_objectid":3009,"incident_name":"Meadowbrook","mapped_acres":0.1,"mapped_acres_source":"poly_GISAcres","gis_acres":0.1,"auto_acres":1.65691447527674,"reported_acres":24.76,"percent_contained":null,"state":"UT","state_wfigs":"US-UT","county":"Tooele","discovery_time_utc":"2022-07-31T23:39:00Z","perimeter_time_utc":"2022-08-01T04:39:08Z","perimeter_edit_time_utc":"2022-08-15T13:05:37Z","incident_modified_time_utc":"2022-08-05T21:13:05Z","containment_time_utc":"2022-08-01T00:15:00Z","control_time_utc":"2022-08-01T03:05:00Z","fire_out_time_utc":"2022-08-05T19:30:00Z","fire_cause":"Human","fire_cause_general":null,"map_method":"Auto-generated","source_dataset":"2022 NIFS","unique_fire_identifier":"2022-UTNWS-000458","irwin_id":"{48EAD5A2-F058-479D-AE20-EB3E90A09167}","global_id":"59e7f981-afbf-4914-ac6e-c7dfbd48c1af"}},{"type":"Feature","geometry":{"type":"Polygon","coordinates":[[[-111.86385,40.91734],[-111.864,40.91867],[-111.86435,40.92007],[-111.86599,40.92212],[-111.86581,40.92294],[-111.86545,40.9232],[-111.86419,40.92322],[-111.86263,40.92363],[-111.85871,40.92382],[-111.85819,40.9237],[-111.85751,40.92291],[-111.85693,40.92253],[-111.85156,40.9212],[-111.85182,40.92097],[-111.85281,40.92106],[-111.85359,40.92084],[-111.85632,40.91942],[-111.85761,40.91899],[-111.85774,40.91872],[-111.8575,40.91791],[-111.85757,40.91767],[-111.85778,40.91754],[-111.85866,40.91766],[-111.85919,40.91726],[-111.86047,40.91701],[-111.86144,40.91719],[-111.8631,40.91717],[-111.86385,40.91734]]]},"properties":{"fire_id":"ufid:2022-UTNWS-000296","source_collection":"history-2022","source_objectid":3094,"incident_name":"Deuel Creek","mapped_acres":129.07809546736,"mapped_acres_source":"poly_GISAcres","gis_acres":129.07809546736,"auto_acres":129.077610696181,"reported_acres":129.0,"percent_contained":99.0,"state":"UT","state_wfigs":"US-UT","county":"Davis","discovery_time_utc":"2022-07-04T06:00:00Z","perimeter_time_utc":"2022-07-04T19:15:00Z","perimeter_edit_time_utc":"2022-07-05T17:35:26Z","incident_modified_time_utc":"2022-07-18T19:52:49Z","containment_time_utc":"2022-07-06T21:40:00Z","control_time_utc":"2022-07-18T19:30:00Z","fire_out_time_utc":"2022-07-18T19:30:00Z","fire_cause":"Human","fire_cause_general":null,"map_method":"Mixed Methods","source_dataset":"2022 NIFS","unique_fire_identifier":"2022-UTNWS-000296","irwin_id":"{A83E29E2-CEE3-41EC-8D27-9896302DE5AB}","global_id":"454b5669-5e07-49e8-a7d5-7c6d5ca6d333"}},{"type":"Feature","geometry":{"type":"Polygon","coordinates":[[[-112.067,40.7628],[-112.06719,40.76236],[-112.06796,40.76185],[-112.06918,40.76157],[-112.07177,40.76161],[-112.073,40.76198],[-112.07357,40.76239],[-112.07356,40.76287],[-112.067,40.7628]]]},"properties":{"fire_id":"ufid:2022-UTNWS-000483","source_collection":"history-2022","source_objectid":3690,"incident_name":"700 South Assist","mapped_acres":16.240327395297,"mapped_acres_source":"poly_GISAcres","gis_acres":16.240327395297,"auto_acres":16.2403700875044,"reported_acres":16.7,"percent_contained":null,"state":"UT","state_wfigs":"US-UT","county":"Salt Lake","discovery_time_utc":"2022-08-05T22:45:00Z","perimeter_time_utc":"2022-08-06T03:45:00Z","perimeter_edit_time_utc":"2022-11-22T19:35:09Z","incident_modified_time_utc":"2022-08-31T15:16:04Z","containment_time_utc":"2022-08-05T23:00:00Z","control_time_utc":"2022-08-06T00:30:00Z","fire_out_time_utc":"2022-08-28T22:00:00Z","fire_cause":"Human","fire_cause_general":null,"map_method":"Hand Sketch","source_dataset":"2022 NIFS","unique_fire_identifier":"2022-UTNWS-000483","irwin_id":"{C7233CFC-A7F8-4CA8-8C62-11F974F54DF9}","global_id":"1d8f1b34-0490-4293-9eb8-c55736bd3386"}},{"type":"Feature","geometry":{"type":"Polygon","coordinates":[[[-111.69996,40.17272],[-111.69889,40.17426],[-111.69894,40.17455],[-111.69732,40.17576],[-111.69683,40.17655],[-111.69622,40.17687],[-111.69626,40.17676],[-111.69612,40.17678],[-111.69672,40.17641],[-111.6969,40.17619],[-111.69684,40.17608],[-111.69606,40.17664],[-111.69579,40.17665],[-111.69655,40.17619],[-111.69644,40.17601],[-111.69628,40.17627],[-111.69633,40.17597],[-111.69676,40.17559],[-111.69637,40.17551],[-111.69599,40.17561],[-111.69613,40.17541],[-111.69599,40.17533],[-111.69602,40.17513],[-111.69622,40.17511],[-111.69638,40.17526],[-111.69729,40.17468],[-111.69741,40.17439],[-111.6977,40.17457],[-111.69783,40.17452],[-111.69775,40.17436],[-111.69799,40.17415],[-111.69775,40.17417],[-111.6978,40.17407],[-111.69761,40.17403],[-111.69759,40.17386],[-111.69777,40.17383],[-111.69769,40.17378],[-111.69779,40.17365],[-111.69826,40.17364],[-111.69842,40.17348],[-111.69852,40.17375],[-111.69868,40.17376],[-111.69863,40.17347],[-111.69898,40.17328],[-111.69916,40.17302],[-111.69923,40.17255],[-111.69913,40.17247],[-111.69943,40.17234],[-111.69915,40.1721],[-111.69917,40.17197],[-111.69845,40.17202],[-111.69807,40.17173],[-111.698,40.1715],[-111.69779,40.17162],[-111.69781,40.17125],[-111.69799,40.1712],[-111.69847,40.1714],[-111.69868,40.17126],[-111.69858,40.17101],[-111.69866,40.1709],[-111.69925,40.17089],[-111.69911,40.17066],[-111.69936,40.17051],[-111.70045,40.17053],[-111.70117,40.17036],[-111.70117,40.17069],[-111.70099,40.17082],[-111.7011,40.17103],[-111.70079,40.1713],[-111.70064,40.17172],[-111.7004,40.17168],[-111.69969,40.17226],[-111.69961,40.17261],[-111.69996,40.17272]]]},"properties":{"fire_id":"ufid:2022-UTNWS-000081","source_collection":"history-2022","source_objectid":3705,"incident_name":"Simpson","mapped_acres":18.62,"mapped_acres_source":"poly_GISAcres","gis_acres":18.62,"auto_acres":18.6275024770617,"reported_acres":18.6,"percent_contained":null,"state":"UT","state_wfigs":"US-UT","county":"Utah","discovery_time_utc":"2022-04-21T20:15:00Z","perimeter_time_utc":"2022-04-22T01:15:00Z","perimeter_edit_time_utc":"2022-04-26T19:13:04Z","incident_modified_time_utc":"2022-10-03T18:12:03Z","containment_time_utc":"2022-04-21T21:30:00Z","control_time_utc":"2022-04-22T16:00:00Z","fire_out_time_utc":"2022-04-28T18:00:00Z","fire_cause":"Human","fire_cause_general":null,"map_method":"Mixed Methods","source_dataset":"2022 NIFS","unique_fire_identifier":"2022-UTNWS-000081","irwin_id":"{7EA3409A-817B-4296-B4CA-AB0609FC1199}","global_id":"8635a277-78d9-4e6d-b2cc-ae9280e188f0"}},{"type":"Feature","geometry":{"type":"Polygon","coordinates":[[[-111.4057,40.81248],[-111.4055,40.81332],[-111.40616,40.81326],[-111.40702,40.81443],[-111.40714,40.81497],[-111.40701,40.81534],[-111.40826,40.81602],[-111.40772,40.81652],[-111.40778,40.81762],[-111.40748,40.81824],[-111.40597,40.81952],[-111.40529,40.81967],[-111.40487,40.81918],[-111.40502,40.81886],[-111.40525,40.81872],[-111.40504,40.81855],[-111.40502,40.81816],[-111.40524,40.81764],[-111.40494,40.81727],[-111.40498,40.81691],[-111.40476,40.81664],[-111.405,40.81637],[-111.40499,40.81608],[-111.40472,40.81602],[-111.40452,40.81614],[-111.40414,40.81592],[-111.40428,40.8154],[-111.40404,40.81518],[-111.40442,40.81412],[-111.40463,40.81295],[-111.4049,40.81265],[-111.40524,40.81262],[-111.40525,40.81243],[-111.40545,40.8123],[-111.40608,40.81239],[-111.40594,40.81251],[-111.4057,40.81248]]]},"properties":{"fire_id":"ufid:2022-UTNES-200389","source_collection":"history-2022","source_objectid":3941,"incident_name":"Wanship Hill","mapped_acres":38.483,"mapped_acres_source":"poly_GISAcres","gis_acres":38.483,"auto_acres":38.4836293767182,"reported_acres":38.48,"percent_contained":null,"state":"UT","state_wfigs":"US-UT","county":"Summit","discovery_time_utc":"2022-07-17T22:01:00Z","perimeter_time_utc":null,"perimeter_edit_time_utc":"2022-08-05T18:08:04Z","incident_modified_time_utc":"2022-08-01T17:13:58Z","containment_time_utc":"2022-07-19T03:18:00Z","control_time_utc":"2022-07-19T19:00:00Z","fire_out_time_utc":"2022-07-22T16:00:00Z","fire_cause":"Human","fire_cause_general":null,"map_method":"Digitized-Image","source_dataset":"2022 NIFS","unique_fire_identifier":"2022-UTNES-200389","irwin_id":"{B26E7E62-F781-4EF0-8C8E-25D4EFDC1DD1}","global_id":"a4f6b6ce-6b52-424a-a660-a79b285a884f"}},{"type":"Feature","geometry":{"type":"Polygon","coordinates":[[[-111.18659,40.22209],[-111.18607,40.22154],[-111.18614,40.22145],[-111.1874,40.22134],[-111.18763,40.22143],[-111.18794,40.22115],[-111.18795,40.221],[-111.18756,40.22049],[-111.18748,40.22],[-111.18754,40.21965],[-111.18813,40.2194],[-111.18775,40.21918],[-111.18773,40.21854],[-111.18679,40.21793],[-111.1866,40.21766],[-111.18702,40.21692],[-111.18787,40.2172],[-111.18755,40.21677],[-111.18794,40.21654],[-111.19074,40.22195],[-111.18934,40.22183],[-111.18844,40.22228],[-111.18825,40.22267],[-111.18776,40.22267],[-111.18659,40.22209]]]},"properties":{"fire_id":"ufid:2022-UTUWF-000599","source_collection":"history-2022","source_objectid":4346,"incident_name":"Strawberry","mapped_acres":27.65714,"mapped_acres_source":"poly_GISAcres","gis_acres":27.65714,"auto_acres":27.657046746522546,"reported_acres":28.0,"percent_contained":null,"state":"UT","state_wfigs":"US-UT","county":"Wasatch","discovery_time_utc":"2022-09-03T20:36:00Z","perimeter_time_utc":"2022-09-10T20:01:08Z","perimeter_edit_time_utc":"2023-03-14T15:13:42Z","incident_modified_time_utc":"2022-09-09T20:50:53Z","containment_time_utc":"2022-09-04T02:40:00Z","control_time_utc":"2022-09-05T00:16:00Z","fire_out_time_utc":"2022-09-09T20:45:00Z","fire_cause":"Human","fire_cause_general":"Equipment and vehicle use","map_method":"Mixed Methods","source_dataset":"FFP","unique_fire_identifier":"2022-UTUWF-000599","irwin_id":"{ACF38137-A693-43E6-8FD5-F05CF1B5AF0C}","global_id":"4090abfd-28c6-443e-ae11-8e9e19c1ca23"}},{"type":"Feature","geometry":{"type":"Polygon","coordinates":[[[-111.91945,41.25037],[-111.91957,41.25036],[-111.91963,41.25053],[-111.9195,41.25054],[-111.91945,41.25037]]]},"properties":{"fire_id":"ufid:2022-UTUWF-000555","source_collection":"history-2022","source_objectid":8014,"incident_name":"Triple Nickel","mapped_acres":0.1,"mapped_acres_source":"poly_GISAcres","gis_acres":0.1,"auto_acres":0.05937483830926287,"reported_acres":0.1,"percent_contained":null,"state":"UT","state_wfigs":"US-UT","county":"Weber","discovery_time_utc":"2022-08-24T11:00:00Z","perimeter_time_utc":"2022-09-29T15:52:07Z","perimeter_edit_time_utc":"2023-03-14T15:13:42Z","incident_modified_time_utc":"2022-09-16T14:29:37Z","containment_time_utc":"2022-08-24T22:40:00Z","control_time_utc":"2022-09-03T18:20:00Z","fire_out_time_utc":"2022-09-16T14:30:00Z","fire_cause":"Natural","fire_cause_general":"Natural","map_method":"Hand Sketch","source_dataset":"FFP","unique_fire_identifier":"2022-UTUWF-000555","irwin_id":"{D221F5F9-C08A-496C-B603-A74C9E378445}","global_id":"ae76fd7d-c2d2-4ae9-9f10-9ab3eda16ae5"}},{"type":"Feature","geometry":{"type":"Polygon","coordinates":[[[-113.82443,40.22812],[-113.82548,40.22801],[-113.82599,40.22812],[-113.82782,40.22942],[-113.83019,40.23027],[-113.83316,40.23096],[-113.83461,40.23082],[-113.83507,40.2311],[-113.83522,40.23157],[-113.83503,40.23223],[-113.8345,40.23292],[-113.83322,40.2341],[-113.833,40.23473],[-113.83459,40.23697],[-113.83478,40.2375],[-113.83475,40.23853],[-113.8353,40.23944],[-113.8359,40.23987],[-113.83671,40.2401],[-113.8374,40.24004],[-113.83808,40.23967],[-113.83823,40.23975],[-113.83815,40.24005],[-113.83742,40.24112],[-113.83751,40.24239],[-113.83683,40.24325],[-113.83375,40.24484],[-113.83135,40.24519],[-113.83049,40.24488],[-113.8298,40.2443],[-113.82969,40.24394],[-113.83004,40.24309],[-113.82996,40.24268],[-113.82922,40.24238],[-113.82847,40.24244],[-113.82714,40.24294],[-113.82116,40.24648],[-113.82033,40.24668],[-113.81982,40.24641],[-113.81961,40.24581],[-113.81957,40.24263],[-113.81966,40.24195],[-113.82003,40.24141],[-113.82065,40.24105],[-113.82141,40.24083],[-113.825,40.24034],[-113.82679,40.23958],[-113.82821,40.23928],[-113.82859,40.23903],[-113.82877,40.23867],[-113.82898,40.23731],[-113.82873,40.23686],[-113.82812,40.23659],[-113.82691,40.23662],[-113.82563,40.23692],[-113.82413,40.23748],[-113.82203,40.23849],[-113.8212,40.23871],[-113.82007,40.23853],[-113.81962,40.23826],[-113.81919,40.23769],[-113.81897,40.23671],[-113.81865,40.23603],[-113.81866,40.23555],[-113.81892,40.23529],[-113.81936,40.23515],[-113.82089,40.23526],[-113.82128,40.23516],[-113.82135,40.23471],[-113.82096,40.23314],[-113.82136,40.23242],[-113.82201,40.23214],[-113.82377,40.23233],[-113.82416,40.2321],[-113.82417,40.23166],[-113.82312,40.22926],[-113.8232,40.2289],[-113.82345,40.2286],[-113.82443,40.22812]]]},"properties":{"fire_id":"ufid:2022-UTWDD-000409","source_collection":"history-2022","source_objectid":10087,"incident_name":"Busby","mapped_acres":455.3244,"mapped_acres_source":"poly_GISAcres","gis_acres":455.3244,"auto_acres":455.0382866750844,"reported_acres":455.3,"percent_contained":null,"state":"UT","state_wfigs":"US-UT","county":"Tooele","discovery_time_utc":"2022-07-21T23:51:00Z","perimeter_time_utc":"2022-10-18T16:09:46Z","perimeter_edit_time_utc":"2023-03-14T15:13:42Z","incident_modified_time_utc":"2022-08-03T20:07:32Z","containment_time_utc":"2022-07-25T19:11:00Z","control_time_utc":"2022-07-28T00:44:00Z","fire_out_time_utc":"2022-08-03T20:05:00Z","fire_cause":"Natural","fire_cause_general":"Natural","map_method":"GPS-Flight","source_dataset":"FFP","unique_fire_identifier":"2022-UTWDD-000409","irwin_id":"{BF22851C-401D-4894-934C-C6A76B9E5622}","global_id":"70d482d9-1a1e-4ddc-899f-cc7bd2a75227"}},{"type":"Feature","geometry":{"type":"Polygon","coordinates":[[[-113.85148,40.23425],[-113.85239,40.23485],[-113.85289,40.236],[-113.85367,40.23724],[-113.8541,40.23755],[-113.85482,40.23778],[-113.85504,40.23798],[-113.85498,40.23815],[-113.8537,40.23849],[-113.8529,40.23902],[-113.85228,40.23902],[-113.85212,40.23851],[-113.85219,40.2372],[-113.85187,40.23672],[-113.85156,40.23661],[-113.85123,40.23682],[-113.85063,40.23793],[-113.8502,40.23825],[-113.84935,40.23829],[-113.84884,40.23786],[-113.8485,40.23686],[-113.84873,40.23617],[-113.84987,40.23524],[-113.85006,40.23494],[-113.85035,40.23481],[-113.85066,40.23439],[-113.85108,40.2342],[-113.85148,40.23425]]]},"properties":{"fire_id":"ufid:2022-UTWDD-000410","source_collection":"history-2022","source_objectid":10489,"incident_name":"Royal","mapped_acres":35.40798,"mapped_acres_source":"poly_GISAcres","gis_acres":35.40798,"auto_acres":35.384889484098714,"reported_acres":35.4,"percent_contained":null,"state":"UT","state_wfigs":"US-UT","county":"Tooele","discovery_time_utc":"2022-07-22T01:31:00Z","perimeter_time_utc":"2022-10-05T00:52:01Z","perimeter_edit_time_utc":"2023-03-14T15:13:42Z","incident_modified_time_utc":"2022-08-03T20:07:45Z","containment_time_utc":"2022-07-24T23:00:00Z","control_time_utc":"2022-07-26T15:00:00Z","fire_out_time_utc":"2022-08-03T20:05:00Z","fire_cause":"Natural","fire_cause_general":"Natural","map_method":"GPS-Flight","source_dataset":"FFP","unique_fire_identifier":"2022-UTWDD-000410","irwin_id":"{1625389A-E842-445F-B36C-B4C24AFF6CF4}","global_id":"0ce02e3b-145d-4c01-8083-9090b9124c2f"}},{"type":"Feature","geometry":{"type":"Polygon","coordinates":[[[-112.5998,40.31602],[-112.59949,40.31572],[-112.59995,40.31539],[-112.59998,40.31525],[-112.60037,40.31503],[-112.60064,40.31503],[-112.60069,40.31514],[-112.601,40.31501],[-112.60064,40.31523],[-112.60051,40.31554],[-112.60008,40.31568],[-112.59998,40.31582],[-112.60007,40.31587],[-112.5998,40.31602]]]},"properties":{"fire_id":"ufid:2022-UTWDD-000377","source_collection":"history-2022","source_objectid":11054,"incident_name":"Park Springs","mapped_acres":1.225775,"mapped_acres_source":"poly_GISAcres","gis_acres":1.225775,"auto_acres":1.2261936384035785,"reported_acres":1.3,"percent_contained":null,"state":"UT","state_wfigs":"US-UT","county":"Tooele","discovery_time_utc":"2022-07-15T00:03:00Z","perimeter_time_utc":"2022-10-05T14:14:01Z","perimeter_edit_time_utc":"2023-03-14T15:13:42Z","incident_modified_time_utc":"2022-08-03T20:02:55Z","containment_time_utc":"2022-07-15T15:00:00Z","control_time_utc":"2022-07-15T18:15:00Z","fire_out_time_utc":"2022-08-03T20:00:00Z","fire_cause":"Natural","fire_cause_general":"Natural","map_method":"GPS-Walked","source_dataset":"FFP","unique_fire_identifier":"2022-UTWDD-000377","irwin_id":"{4F065B58-A6E3-446E-8E71-CC3288EFA922}","global_id":"442a3ab6-eb73-4c70-829d-7530fcf77351"}},{"type":"Feature","geometry":{"type":"Polygon","coordinates":[[[-111.60531,40.18899],[-111.60542,40.18995],[-111.60523,40.19199],[-111.60497,40.19288],[-111.60459,40.19326],[-111.60385,40.19354],[-111.60333,40.19354],[-111.6029,40.19319],[-111.60211,40.19193],[-111.60162,40.19169],[-111.60104,40.19164],[-111.59986,40.19206],[-111.599,40.19295],[-111.59831,40.1939],[-111.59775,40.19432],[-111.59714,40.1946],[-111.59666,40.19459],[-111.59634,40.19442],[-111.59636,40.1941],[-111.59795,40.19224],[-111.59841,40.19134],[-111.59973,40.19047],[-111.60083,40.18936],[-111.60372,40.18838],[-111.60441,40.18839],[-111.60514,40.18863],[-111.60531,40.18899]]]},"properties":{"fire_id":"ufid:2022-UTUWF-000461","source_collection":"history-2022","source_objectid":11208,"incident_name":"Springville","mapped_acres":60.20951,"mapped_acres_source":"poly_GISAcres","gis_acres":60.20951,"auto_acres":60.20928109455118,"reported_acres":60.0,"percent_contained":null,"state":"UT","state_wfigs":"US-UT","county":"Utah","discovery_time_utc":"2022-08-01T22:51:00Z","perimeter_time_utc":"2022-08-30T17:38:12Z","perimeter_edit_time_utc":"2023-03-14T15:13:42Z","incident_modified_time_utc":"2022-08-25T22:49:01Z","containment_time_utc":"2022-08-04T16:30:00Z","control_time_utc":"2022-08-07T23:25:00Z","fire_out_time_utc":"2022-08-25T22:45:00Z","fire_cause":"Undetermined","fire_cause_general":"Undetermined","map_method":"Mixed Methods","source_dataset":"FFP","unique_fire_identifier":"2022-UTUWF-000461","irwin_id":"{EA2D72C8-1D43-4FC7-9527-CF0799C48DFF}","global_id":"0ed7120b-00e6-4756-b584-87df07a812b9"}},{"type":"Feature","geometry":{"type":"MultiPolygon","coordinates":[[[[-111.51255,40.33328],[-111.51243,40.33341],[-111.5127,40.3335],[-111.51276,40.33368],[-111.51254,40.33383],[-111.51265,40.33393],[-111.51254,40.33397],[-111.51255,40.33441],[-111.51221,40.33482],[-111.51214,40.33475],[-111.51214,40.33506],[-111.51172,40.33524],[-111.51151,40.3356],[-111.5113,40.33558],[-111.51129,40.33577],[-111.51104,40.33595],[-111.51102,40.33648],[-111.51074,40.33679],[-111.51058,40.3368],[-111.50999,40.3365],[-111.51007,40.33613],[-111.51041,40.33588],[-111.51027,40.33546],[-111.51014,40.33559],[-111.50993,40.33553],[-111.51012,40.33464],[-111.50998,40.33459],[-111.50996,40.33407],[-111.51021,40.33396],[-111.51046,40.33363],[-111.51072,40.3337],[-111.51064,40.33401],[-111.51112,40.3339],[-111.51131,40.33375],[-111.51119,40.33352],[-111.51141,40.3332],[-111.51213,40.33329],[-111.51237,40.33315],[-111.51255,40.33328]]],[[[-111.51257,40.33329],[-111.51255,40.33328],[-111.51256,40.33327],[-111.51257,40.33329]]]]},"properties":{"fire_id":"ufid:2022-UTUWF-000663","source_collection":"history-2022","source_objectid":11545,"incident_name":"South Fork","mapped_acres":13.21358,"mapped_acres_source":"poly_GISAcres","gis_acres":13.21358,"auto_acres":13.213529812732329,"reported_acres":13.2,"percent_contained":null,"state":"UT","state_wfigs":"US-UT","county":"Utah","discovery_time_utc":"2022-09-19T23:14:00Z","perimeter_time_utc":"2022-12-07T22:16:30Z","perimeter_edit_time_utc":"2023-03-14T15:13:42Z","incident_modified_time_utc":"2022-10-08T20:42:59Z","containment_time_utc":"2022-09-25T23:50:00Z","control_time_utc":"2022-09-25T23:50:00Z","fire_out_time_utc":"2022-10-08T20:30:00Z","fire_cause":"Natural","fire_cause_general":"Natural","map_method":"Mixed Methods","source_dataset":"FFP","unique_fire_identifier":"2022-UTUWF-000663","irwin_id":"{F94DB7BF-3818-4B34-80DA-9088E84F3035}","global_id":"df8945c7-4920-4c4c-ba1f-36ee411797e1"}},{"type":"Feature","geometry":{"type":"Polygon","coordinates":[[[-113.53401,41.90464],[-113.53392,41.90503],[-113.53408,41.90568],[-113.53386,41.90545],[-113.53338,41.90558],[-113.53216,41.90512],[-113.5317,41.9046],[-113.53177,41.9042],[-113.53168,41.90406],[-113.53208,41.90296],[-113.53223,41.90297],[-113.53249,41.90263],[-113.53352,41.90191],[-113.53387,41.90193],[-113.53414,41.90221],[-113.53479,41.90247],[-113.53512,41.90317],[-113.53514,41.90341],[-113.53494,41.90356],[-113.53493,41.90425],[-113.53425,41.90444],[-113.53401,41.90464]]]},"properties":{"fire_id":"ufid:2022-IDSTF-000367","source_collection":"history-2022","source_objectid":11633,"incident_name":"Mahogany Peaks","mapped_acres":20.0,"mapped_acres_source":"poly_GISAcres","gis_acres":20.0,"auto_acres":19.198667998019395,"reported_acres":19.2,"percent_contained":null,"state":"UT","state_wfigs":"US-UT","county":"Box Elder","discovery_time_utc":"2022-07-13T22:07:00Z","perimeter_time_utc":"2022-11-16T20:29:01Z","perimeter_edit_time_utc":"2023-03-14T15:13:42Z","incident_modified_time_utc":"2022-07-16T21:11:33Z","containment_time_utc":"2022-07-14T18:05:00Z","control_time_utc":"2022-07-14T19:58:00Z","fire_out_time_utc":"2022-07-16T21:13:00Z","fire_cause":"Natural","fire_cause_general":"Natural","map_method":"Mixed Methods","source_dataset":"FFP","unique_fire_identifier":"2022-IDSTF-000367","irwin_id":"{5D46A4C9-B9B3-4EA8-9780-6C63E598B313}","global_id":"5ee9b68e-89f1-4341-aea3-d0b4899b7566"}},{"type":"Feature","geometry":{"type":"Polygon","coordinates":[[[-111.82021,40.03682],[-111.81842,40.03639],[-111.81836,40.03624],[-111.81949,40.03612],[-111.81941,40.03586],[-111.81993,40.03536],[-111.82064,40.03501],[-111.82128,40.03506],[-111.82168,40.03447],[-111.82193,40.0346],[-111.82239,40.0345],[-111.82274,40.03505],[-111.82249,40.03499],[-111.82259,40.0352],[-111.82328,40.0356],[-111.82342,40.03562],[-111.82358,40.03538],[-111.82376,40.0354],[-111.82449,40.03492],[-111.82482,40.03498],[-111.82498,40.03487],[-111.82525,40.03508],[-111.82461,40.03524],[-111.82357,40.03577],[-111.82323,40.03573],[-111.82248,40.036],[-111.82152,40.03648],[-111.82021,40.03682]]]},"properties":{"fire_id":"ufid:2022-UTWDD-000597","source_collection":"history-2022","source_objectid":12170,"incident_name":"Jada 2","mapped_acres":14.29795,"mapped_acres_source":"poly_GISAcres","gis_acres":14.29795,"auto_acres":14.307615011331613,"reported_acres":14.1,"percent_contained":null,"state":"UT","state_wfigs":"US-UT","county":"Utah","discovery_time_utc":"2022-09-03T18:58:00Z","perimeter_time_utc":"2022-10-05T00:37:28Z","perimeter_edit_time_utc":"2023-03-14T15:13:42Z","incident_modified_time_utc":"2022-09-21T22:14:44Z","containment_time_utc":"2022-09-04T02:00:00Z","control_time_utc":"2022-09-04T17:20:00Z","fire_out_time_utc":"2022-09-21T22:15:00Z","fire_cause":"Human","fire_cause_general":"Undetermined","map_method":"Mixed Methods","source_dataset":"FFP","unique_fire_identifier":"2022-UTWDD-000597","irwin_id":"{9DC01FF2-463B-4829-A8A6-9A294FD7E327}","global_id":"0043196e-9c7a-4919-9e5b-c3b93c94eb84"}},{"type":"Feature","geometry":{"type":"Polygon","coordinates":[[[-111.48859,40.02571],[-111.4881,40.02618],[-111.48802,40.02602],[-111.48719,40.02632],[-111.48675,40.02722],[-111.48593,40.02709],[-111.48539,40.02671],[-111.48467,40.02541],[-111.4854,40.0253],[-111.48553,40.02551],[-111.48572,40.02553],[-111.48718,40.02505],[-111.48855,40.02551],[-111.48859,40.02571]]]},"properties":{"fire_id":"ufid:2022-UTUWF-000376","source_collection":"history-2022","source_objectid":12975,"incident_name":"Hill","mapped_acres":10.58615,"mapped_acres_source":"poly_GISAcres","gis_acres":10.58615,"auto_acres":10.594135878029803,"reported_acres":10.9,"percent_contained":null,"state":"UT","state_wfigs":"US-UT","county":"Utah","discovery_time_utc":"2022-07-14T20:57:14Z","perimeter_time_utc":"2022-12-07T22:02:31Z","perimeter_edit_time_utc":"2023-03-14T15:13:42Z","incident_modified_time_utc":"2022-08-30T18:48:14Z","containment_time_utc":"2022-07-17T00:06:00Z","control_time_utc":"2022-07-18T18:07:00Z","fire_out_time_utc":"2022-08-30T18:05:00Z","fire_cause":"Undetermined","fire_cause_general":"Undetermined","map_method":"Mixed Methods","source_dataset":"FFP","unique_fire_identifier":"2022-UTUWF-000376","irwin_id":"{157BEB5F-FD5C-4E6B-B5E2-4B5D6FED1774}","global_id":"8b50dbd4-419f-4efb-ac42-ed69b54118ef"}},{"type":"Feature","geometry":{"type":"Polygon","coordinates":[[[-112.1305,40.21223],[-112.12957,40.21175],[-112.12928,40.21121],[-112.12943,40.21103],[-112.13017,40.21077],[-112.13116,40.21075],[-112.13152,40.21084],[-112.13152,40.21103],[-112.13203,40.2111],[-112.13121,40.21194],[-112.1305,40.21223]]]},"properties":{"fire_id":"ufid:2022-UTWDD-000390","source_collection":"history-2022","source_objectid":13264,"incident_name":"Thorpe Knoll","mapped_acres":6.123563,"mapped_acres_source":"poly_GISAcres","gis_acres":6.123563,"auto_acres":6.127044825941722,"reported_acres":6.1,"percent_contained":null,"state":"UT","state_wfigs":"US-UT","county":"Utah","discovery_time_utc":"2022-07-17T22:10:00Z","perimeter_time_utc":"2022-10-05T00:39:25Z","perimeter_edit_time_utc":"2023-03-14T15:13:42Z","incident_modified_time_utc":"2022-08-23T17:16:24Z","containment_time_utc":"2022-07-17T22:54:00Z","control_time_utc":"2022-07-18T16:36:00Z","fire_out_time_utc":"2022-07-20T20:18:00Z","fire_cause":"Human","fire_cause_general":"Undetermined","map_method":"Mixed Methods","source_dataset":"FFP","unique_fire_identifier":"2022-UTWDD-000390","irwin_id":"{0011F640-11DB-4C84-B3F5-E8596CBC0FEC}","global_id":"b52d3d3d-8e3e-4b34-80be-5a8fa4fb21ad"}},{"type":"Feature","geometry":{"type":"MultiPolygon","coordinates":[[[[-112.27977,40.41084],[-112.2803,40.41126],[-112.28031,40.41159],[-112.28148,40.41262],[-112.28261,40.41393],[-112.28324,40.41435],[-112.28403,40.41459],[-112.28603,40.4147],[-112.28746,40.41499],[-112.28837,40.41535],[-112.29024,40.4165],[-112.29157,40.41697],[-112.2924,40.41708],[-112.29327,40.41652],[-112.29377,40.41706],[-112.29575,40.41717],[-112.29631,40.41683],[-112.29801,40.41725],[-112.29827,40.41776],[-112.30028,40.41851],[-112.30105,40.41983],[-112.30138,40.4202],[-112.30186,40.42046],[-112.30298,40.42089],[-112.30423,40.42117],[-112.30629,40.42114],[-112.30797,40.42127],[-112.31155,40.4233],[-112.31283,40.42363],[-112.31405,40.42376],[-112.32152,40.42245],[-112.32251,40.42237],[-112.32299,40.42556],[-112.32315,40.42599],[-112.32406,40.42738],[-112.32386,40.42792],[-112.32293,40.42841],[-112.31853,40.42912],[-112.317,40.42948],[-112.31531,40.43008],[-112.31423,40.43065],[-112.31359,40.4312],[-112.31313,40.43188],[-112.31274,40.43286],[-112.31255,40.43495],[-112.31271,40.43567],[-112.31307,40.43634],[-112.31331,40.43615],[-112.31428,40.4364],[-112.31504,40.43678],[-112.31691,40.43714],[-112.31737,40.43686],[-112.31749,40.43651],[-112.31778,40.43641],[-112.31919,40.43641],[-112.32019,40.43738],[-112.31985,40.43786],[-112.31884,40.43841],[-112.31877,40.43862],[-112.31921,40.43927],[-112.31923,40.43991],[-112.31867,40.44083],[-112.31766,40.44142],[-112.31753,40.44275],[-112.31711,40.44337],[-112.31443,40.44423],[-112.31365,40.44469],[-112.31299,40.44531],[-112.31238,40.44554],[-112.31177,40.44548],[-112.31109,40.44592],[-112.31137,40.44737],[-112.31059,40.44805],[-112.31021,40.4487],[-112.31038,40.4494],[-112.30958,40.44993],[-112.30863,40.4502],[-112.3078,40.45028],[-112.30668,40.45071],[-112.30487,40.45056],[-112.30251,40.45109],[-112.30084,40.45109],[-112.29909,40.45163],[-112.29831,40.45168],[-112.29791,40.45119],[-112.29806,40.45047],[-112.29837,40.45014],[-112.29894,40.44987],[-112.29873,40.44953],[-112.2986,40.44886],[-112.29757,40.44908],[-112.29601,40.45037],[-112.29557,40.44999],[-112.29568,40.44933],[-112.29471,40.44865],[-112.2937,40.4491],[-112.29258,40.44934],[-112.29157,40.44928],[-112.28943,40.44882],[-112.28887,40.44855],[-112.2883,40.44793],[-112.2881,40.44745],[-112.28779,40.4453],[-112.28748,40.44483],[-112.28698,40.44446],[-112.28561,40.44414],[-112.28286,40.44429],[-112.28124,40.44406],[-112.27577,40.44223],[-112.27347,40.44082],[-112.27336,40.44057],[-112.27342,40.44039],[-112.27412,40.43979],[-112.2751,40.43853],[-112.27513,40.43784],[-112.27629,40.43779],[-112.27719,40.43731],[-112.27848,40.43687],[-112.278,40.43615],[-112.27764,40.43615],[-112.27743,40.43588],[-112.2776,40.4352],[-112.27785,40.43508],[-112.27787,40.43491],[-112.27861,40.43404],[-112.27905,40.4331],[-112.27834,40.43235],[-112.2771,40.43155],[-112.27632,40.43126],[-112.27496,40.43105],[-112.27061,40.43147],[-112.26889,40.43202],[-112.26646,40.43377],[-112.26563,40.43418],[-112.26483,40.43422],[-112.26342,40.43332],[-112.26239,40.43313],[-112.26137,40.43342],[-112.26007,40.43428],[-112.2597,40.43427],[-112.25965,40.43392],[-112.25986,40.4331],[-112.26059,40.43155],[-112.26239,40.43062],[-112.26215,40.42973],[-112.26264,40.42938],[-112.26299,40.42733],[-112.26408,40.42799],[-112.26523,40.42764],[-112.26564,40.42792],[-112.26605,40.42866],[-112.26673,40.42893],[-112.26727,40.42848],[-112.26609,40.4275],[-112.26641,40.42665],[-112.26781,40.42669],[-112.26948,40.42639],[-112.27,40.42643],[-112.27005,40.4263],[-112.26968,40.42618],[-112.26977,40.42608],[-112.27098,40.42644],[-112.27098,40.4263],[-112.27128,40.42612],[-112.26978,40.4256],[-112.26974,40.42573],[-112.2693,40.42564],[-112.26866,40.42575],[-112.26832,40.4256],[-112.26831,40.42541],[-112.26818,40.42539],[-112.26794,40.4256],[-112.26776,40.42548],[-112.26774,40.42564],[-112.26758,40.42556],[-112.26768,40.42566],[-112.26734,40.42587],[-112.267,40.42576],[-112.26696,40.42559],[-112.26723,40.42522],[-112.26733,40.42524],[-112.26761,40.42473],[-112.26757,40.42404],[-112.26746,40.42399],[-112.2676,40.42369],[-112.26716,40.42279],[-112.26724,40.42214],[-112.2666,40.42189],[-112.2665,40.42191],[-112.26653,40.42224],[-112.26633,40.42218],[-112.26622,40.42158],[-112.26661,40.42138],[-112.26652,40.42127],[-112.26495,40.42031],[-112.26495,40.42074],[-112.26422,40.42071],[-112.26424,40.42038],[-112.26401,40.42038],[-112.26441,40.42016],[-112.2641,40.4195],[-112.26393,40.41966],[-112.26356,40.41929],[-112.26249,40.41877],[-112.26163,40.41795],[-112.26047,40.4171],[-112.25893,40.41521],[-112.25769,40.41489],[-112.25749,40.41429],[-112.2569,40.41343],[-112.25616,40.41306],[-112.25609,40.41293],[-112.25672,40.41122],[-112.2553,40.40987],[-112.25556,40.40938],[-112.25697,40.40958],[-112.25686,40.40808],[-112.25663,40.40778],[-112.25636,40.40772],[-112.25625,40.40707],[-112.25741,40.40493],[-112.2576,40.40401],[-112.26001,40.40375],[-112.26119,40.40401],[-112.26218,40.40369],[-112.26338,40.40373],[-112.26397,40.40361],[-112.26578,40.40382],[-112.26711,40.40186],[-112.2678,40.40147],[-112.26789,40.40067],[-112.26907,40.39981],[-112.26965,40.39984],[-112.27053,40.3993],[-112.27127,40.39799],[-112.2716,40.39788],[-112.27164,40.39762],[-112.27212,40.39753],[-112.27239,40.39805],[-112.27378,40.39832],[-112.27408,40.39793],[-112.27576,40.39671],[-112.27688,40.3962],[-112.27772,40.39626],[-112.27817,40.39681],[-112.2784,40.39742],[-112.27884,40.39776],[-112.2791,40.39823],[-112.27867,40.39854],[-112.27847,40.39854],[-112.27827,40.39882],[-112.27825,40.39956],[-112.27869,40.40032],[-112.27867,40.40114],[-112.27929,40.40135],[-112.27935,40.4015],[-112.2791,40.40211],[-112.27791,40.40225],[-112.27705,40.40253],[-112.27703,40.40309],[-112.27806,40.40361],[-112.27804,40.40372],[-112.27702,40.40447],[-112.27694,40.40494],[-112.27655,40.40526],[-112.2766,40.40561],[-112.27625,40.40587],[-112.27621,40.40615],[-112.27646,40.40637],[-112.27643,40.40656],[-112.2766,40.4067],[-112.27678,40.40731],[-112.27648,40.40747],[-112.27692,40.40806],[-112.27674,40.4085],[-112.27678,40.40907],[-112.27776,40.40982],[-112.27836,40.40998],[-112.2785,40.4102],[-112.27836,40.41064],[-112.27881,40.41103],[-112.27977,40.41084]]],[[[-112.2819,40.40019],[-112.28213,40.40004],[-112.28234,40.40025],[-112.28226,40.40055],[-112.28192,40.40051],[-112.2819,40.40019]]],[[[-112.2618,40.40198],[-112.26216,40.40173],[-112.26239,40.40196],[-112.26211,40.4023],[-112.26182,40.40217],[-112.2618,40.40198]]],[[[-112.26425,40.40213],[-112.2646,40.40202],[-112.26475,40.40232],[-112.2645,40.4028],[-112.26406,40.40249],[-112.26425,40.40213]]],[[[-112.25836,40.40283],[-112.25857,40.40234],[-112.25937,40.40251],[-112.25939,40.40301],[-112.25876,40.40323],[-112.25849,40.40316],[-112.25836,40.40283]]],[[[-112.25501,40.41223],[-112.25534,40.41204],[-112.25536,40.41232],[-112.25509,40.41246],[-112.25501,40.41223]]],[[[-112.25171,40.41259],[-112.25197,40.41234],[-112.25224,40.41251],[-112.25214,40.41282],[-112.25172,40.41276],[-112.25171,40.41259]]],[[[-112.2472,40.41375],[-112.24748,40.41363],[-112.24758,40.4139],[-112.24731,40.41405],[-112.2472,40.41375]]],[[[-112.26129,40.4204],[-112.26163,40.42019],[-112.26171,40.42046],[-112.26136,40.42067],[-112.26129,40.4204]]],[[[-112.26581,40.42108],[-112.26595,40.42113],[-112.26583,40.42117],[-112.26581,40.42108]]],[[[-112.26496,40.4215],[-112.26468,40.4216],[-112.26444,40.42138],[-112.26464,40.42149],[-112.26432,40.42091],[-112.26496,40.42088],[-112.26527,40.42073],[-112.26524,40.42163],[-112.26496,40.4215]]],[[[-112.26559,40.42169],[-112.26558,40.42123],[-112.26593,40.42137],[-112.26574,40.42155],[-112.26581,40.42165],[-112.26559,40.42169]]],[[[-112.26599,40.42187],[-112.26598,40.42163],[-112.26611,40.42179],[-112.26599,40.42187]]],[[[-112.26559,40.42199],[-112.26568,40.42185],[-112.26585,40.42189],[-112.26559,40.42199]]],[[[-112.26494,40.42225],[-112.26497,40.42217],[-112.26499,40.42233],[-112.26494,40.42225]]],[[[-112.26508,40.4227],[-112.26509,40.42259],[-112.26525,40.42265],[-112.26508,40.4227]]],[[[-112.26544,40.42278],[-112.26559,40.42283],[-112.26545,40.42286],[-112.26544,40.42278]]],[[[-112.26612,40.42285],[-112.26618,40.42286],[-112.26615,40.42292],[-112.26612,40.42285]]],[[[-112.26536,40.42302],[-112.26539,40.42289],[-112.26542,40.42292],[-112.26536,40.42302]]],[[[-112.2658,40.42305],[-112.26567,40.42303],[-112.26575,40.42285],[-112.2658,40.42305]]],[[[-112.24821,40.42303],[-112.24838,40.42284],[-112.24862,40.42303],[-112.24843,40.42326],[-112.24821,40.42303]]],[[[-112.26621,40.42305],[-112.26627,40.42308],[-112.26619,40.42308],[-112.26621,40.42305]]],[[[-112.26519,40.42311],[-112.2648,40.42312],[-112.26471,40.42284],[-112.26507,40.42297],[-112.26519,40.42311]]],[[[-112.266,40.42325],[-112.266,40.42298],[-112.26615,40.42317],[-112.266,40.42325]]],[[[-112.26586,40.42326],[-112.26584,40.42321],[-112.26593,40.42324],[-112.26586,40.42326]]],[[[-112.2654,40.42318],[-112.26561,40.42322],[-112.2655,40.42326],[-112.2654,40.42318]]],[[[-112.26625,40.42336],[-112.26627,40.42335],[-112.26628,40.42337],[-112.26625,40.42336]]],[[[-112.26513,40.42342],[-112.26519,40.42353],[-112.26512,40.42357],[-112.26513,40.42342]]],[[[-112.26551,40.4236],[-112.26541,40.42348],[-112.26571,40.42358],[-112.26551,40.4236]]],[[[-112.26734,40.42364],[-112.26743,40.42356],[-112.26745,40.42363],[-112.26734,40.42364]]],[[[-112.26589,40.42368],[-112.26594,40.42376],[-112.26585,40.4237],[-112.26589,40.42368]]],[[[-112.2674,40.42371],[-112.26738,40.42394],[-112.26732,40.42388],[-112.2674,40.42371]]],[[[-112.25546,40.42486],[-112.25502,40.42454],[-112.25475,40.42491],[-112.25452,40.42472],[-112.25464,40.42438],[-112.25415,40.42416],[-112.25439,40.42405],[-112.25424,40.42386],[-112.25442,40.42373],[-112.25409,40.42333],[-112.25368,40.42311],[-112.25358,40.42284],[-112.25372,40.42278],[-112.25366,40.4226],[-112.25394,40.42258],[-112.25379,40.42218],[-112.25413,40.42256],[-112.25389,40.42288],[-112.25423,40.42303],[-112.25433,40.42295],[-112.25452,40.4232],[-112.25481,40.42323],[-112.25508,40.42348],[-112.25527,40.42346],[-112.25525,40.42383],[-112.25512,40.42394],[-112.25521,40.42425],[-112.25597,40.42458],[-112.25575,40.42464],[-112.2555,40.425],[-112.25539,40.42496],[-112.25546,40.42486]]],[[[-112.25037,40.42497],[-112.25062,40.42461],[-112.25079,40.42497],[-112.25053,40.42514],[-112.25037,40.42497]]],[[[-112.25768,40.42618],[-112.25764,40.42602],[-112.25697,40.42545],[-112.25707,40.42401],[-112.25648,40.42394],[-112.25735,40.42352],[-112.25754,40.42314],[-112.25775,40.42312],[-112.25801,40.42287],[-112.25807,40.42254],[-112.25788,40.42237],[-112.25663,40.42242],[-112.25572,40.42193],[-112.25576,40.42066],[-112.25492,40.4205],[-112.25567,40.41992],[-112.25647,40.42039],[-112.25665,40.41983],[-112.25711,40.41964],[-112.25899,40.42012],[-112.26103,40.42176],[-112.26209,40.4216],[-112.26211,40.42143],[-112.26242,40.42123],[-112.2627,40.42122],[-112.26299,40.42157],[-112.26348,40.42168],[-112.26366,40.42194],[-112.26378,40.42178],[-112.26385,40.42203],[-112.26399,40.42203],[-112.26421,40.42231],[-112.26397,40.42252],[-112.26399,40.42264],[-112.26413,40.42267],[-112.26435,40.42232],[-112.26443,40.42239],[-112.26448,40.42285],[-112.26453,40.42268],[-112.26478,40.42314],[-112.26465,40.42327],[-112.26491,40.42342],[-112.26537,40.42411],[-112.26467,40.42442],[-112.26431,40.42395],[-112.26415,40.42411],[-112.26433,40.42425],[-112.26431,40.42474],[-112.26397,40.42493],[-112.26372,40.42486],[-112.26361,40.42447],[-112.26347,40.42461],[-112.26353,40.4249],[-112.26382,40.4253],[-112.26351,40.42527],[-112.26357,40.42554],[-112.26271,40.42588],[-112.26184,40.42562],[-112.26055,40.42617],[-112.2597,40.42605],[-112.25846,40.42482],[-112.25824,40.42525],[-112.25825,40.42607],[-112.25796,40.42626],[-112.25768,40.42618]]]]},"properties":{"fire_id":"ufid:2022-UTNWS-000342","source_collection":"history-2022","source_objectid":13588,"incident_name":"Jacob City","mapped_acres":4113.60513435863,"mapped_acres_source":"poly_GISAcres","gis_acres":4113.60513435863,"auto_acres":4113.58972569568,"reported_acres":4114.0,"percent_contained":100.0,"state":"UT","state_wfigs":"US-UT","county":"Tooele","discovery_time_utc":"2022-07-09T20:34:00Z","perimeter_time_utc":"2022-07-18T21:19:00Z","perimeter_edit_time_utc":"2022-07-19T12:11:01Z","incident_modified_time_utc":"2022-09-13T16:45:49Z","containment_time_utc":"2022-07-25T21:30:00Z","control_time_utc":"2022-08-02T23:00:00Z","fire_out_time_utc":"2022-09-14T01:30:00Z","fire_cause":"Human","fire_cause_general":null,"map_method":"IR Image Interpretation","source_dataset":"2022 NIFS","unique_fire_identifier":"2022-UTNWS-000342","irwin_id":"{1C886C71-CDDD-4E66-9110-703FBD26CA87}","global_id":"8103c2d1-8203-49ed-9b36-51e8a2f6bb59"}},{"type":"Feature","geometry":{"type":"MultiPolygon","coordinates":[[[[-110.1521,40.44977],[-110.15209,40.4498],[-110.1521,40.44976],[-110.1521,40.44977]]],[[[-110.15271,40.45048],[-110.15255,40.4503],[-110.15223,40.45044],[-110.1521,40.45023],[-110.15229,40.45023],[-110.15227,40.45011],[-110.15192,40.45001],[-110.15257,40.44937],[-110.15296,40.44927],[-110.15297,40.44943],[-110.15255,40.44995],[-110.15278,40.45002],[-110.15299,40.44985],[-110.15329,40.45005],[-110.15376,40.45008],[-110.15365,40.45042],[-110.15375,40.45051],[-110.15348,40.45049],[-110.15317,40.45072],[-110.15282,40.45059],[-110.1527,40.45069],[-110.15271,40.45048]]],[[[-110.15319,40.4508],[-110.15317,40.45072],[-110.15321,40.45078],[-110.15319,40.4508]]],[[[-110.15829,40.44823],[-110.15799,40.4483],[-110.15799,40.44851],[-110.15757,40.44898],[-110.15786,40.44958],[-110.15777,40.44991],[-110.15799,40.45039],[-110.15767,40.45116],[-110.15751,40.45199],[-110.15773,40.45292],[-110.15751,40.45316],[-110.15758,40.45326],[-110.15729,40.45381],[-110.15729,40.45453],[-110.15699,40.45496],[-110.157081,40.45475],[-110.15673,40.45512],[-110.15628,40.45517],[-110.15632,40.45491],[-110.15549,40.45508],[-110.15539,40.4548],[-110.15562,40.45465],[-110.1559,40.4547],[-110.15587,40.45446],[-110.15528,40.45458],[-110.15345,40.4546],[-110.15288,40.45498],[-110.15183,40.4549],[-110.15144,40.45465],[-110.15147,40.45438],[-110.15077,40.45404],[-110.15084,40.45394],[-110.1506,40.45381],[-110.15065,40.45339],[-110.15019,40.45344],[-110.15045,40.45338],[-110.15049,40.4531],[-110.15014,40.45285],[-110.15009,40.45255],[-110.14989,40.45253],[-110.14978,40.45214],[-110.15008,40.45205],[-110.1503,40.45176],[-110.14956,40.45156],[-110.14954,40.45137],[-110.14937,40.45135],[-110.14964,40.45129],[-110.14984,40.45108],[-110.14985,40.45098],[-110.14953,40.45089],[-110.14948,40.45075],[-110.1497,40.45057],[-110.14963,40.45029],[-110.15003,40.44986],[-110.15031,40.45027],[-110.15027,40.45053],[-110.15003,40.45075],[-110.15029,40.45138],[-110.15052,40.45146],[-110.15082,40.45132],[-110.15103,40.45152],[-110.15105,40.45243],[-110.15081,40.45276],[-110.15088,40.45315],[-110.15166,40.45343],[-110.15183,40.45335],[-110.15243,40.45377],[-110.15241,40.45392],[-110.15273,40.45375],[-110.15347,40.4537],[-110.15348,40.45337],[-110.15291,40.45326],[-110.15272,40.45305],[-110.15291,40.453],[-110.15302,40.45269],[-110.15304,40.45298],[-110.15323,40.45298],[-110.15345,40.45323],[-110.15366,40.45312],[-110.1534,40.45259],[-110.15361,40.45221],[-110.15354,40.45188],[-110.15329,40.45172],[-110.15337,40.45128],[-110.15319,40.4508],[-110.15359,40.45096],[-110.15434,40.45281],[-110.15432,40.45319],[-110.15528,40.45317],[-110.15547,40.45301],[-110.1557,40.45318],[-110.15609,40.45306],[-110.15603,40.4528],[-110.15634,40.4528],[-110.15604,40.45279],[-110.15597,40.4525],[-110.15579,40.4524],[-110.15591,40.45178],[-110.15568,40.45138],[-110.15576,40.45087],[-110.15512,40.44914],[-110.15628,40.4482],[-110.15665,40.4482],[-110.15717,40.44791],[-110.15751,40.44795],[-110.15846,40.44717],[-110.1587,40.44742],[-110.15872,40.44783],[-110.15829,40.44823]]],[[[-110.15301,40.45265],[-110.15298,40.45263],[-110.15299,40.45263],[-110.15301,40.45265]]],[[[-110.15299,40.45272],[-110.15271,40.4526],[-110.15297,40.4526],[-110.15299,40.45272]]],[[[-110.15699,40.45496],[-110.1569,40.45503],[-110.15686,40.45502],[-110.15699,40.45496]]]]},"properties":{"fire_id":"ufid:2022-UTUOA-100193","source_collection":"history-2022","source_objectid":13936,"incident_name":"Boulder Ridge","mapped_acres":59.58036,"mapped_acres_source":"poly_GISAcres","gis_acres":59.58036,"auto_acres":59.58013482848172,"reported_acres":59.5,"percent_contained":null,"state":"UT","state_wfigs":"US-UT","county":"Duchesne","discovery_time_utc":"2022-08-13T20:19:00Z","perimeter_time_utc":"2022-08-25T15:31:56Z","perimeter_edit_time_utc":"2023-03-14T15:13:42Z","incident_modified_time_utc":"2022-08-24T19:23:05Z","containment_time_utc":"2022-08-20T22:30:00Z","control_time_utc":"2022-08-24T19:22:00Z","fire_out_time_utc":"2022-08-24T19:22:00Z","fire_cause":"Natural","fire_cause_general":"Natural","map_method":"Mixed Methods","source_dataset":"FFP","unique_fire_identifier":"2022-UTUOA-100193","irwin_id":"{4E5B1C76-F71E-4CE4-B30A-6C596DE86286}","global_id":"f1a100f5-1892-4d4b-bc28-620bbaf4ecee"}}]}
