{"type":"FeatureCollection","features":[{"type":"Feature","geometry":{"type":"Polygon","coordinates":[[[-109.619,39.07323],[-109.61821,39.07385],[-109.61778,39.07392],[-109.61762,39.07374],[-109.61748,39.07389],[-109.61686,39.07391],[-109.61653,39.07387],[-109.6166,39.07361],[-109.61641,39.07345],[-109.61648,39.07326],[-109.61598,39.07328],[-109.61587,39.07305],[-109.61573,39.07302],[-109.61566,39.07316],[-109.61533,39.07305],[-109.61531,39.0732],[-109.6151,39.07328],[-109.61491,39.07309],[-109.61473,39.07311],[-109.61465,39.07285],[-109.61473,39.07272],[-109.6153,39.07279],[-109.61639,39.07322],[-109.61721,39.07336],[-109.61801,39.07333],[-109.61879,39.07303],[-109.619,39.07323]]]},"properties":{"fire_id":"ufid:2022-UTSES-020345","source_collection":"history-2022","source_objectid":4899,"incident_name":"Bull Canyon","mapped_acres":5.0,"mapped_acres_source":"poly_GISAcres","gis_acres":5.0,"auto_acres":4.050504135288205,"reported_acres":3.0,"percent_contained":null,"state":"UT","state_wfigs":"US-UT","county":"Grand","discovery_time_utc":"2022-07-27T21:47:00Z","perimeter_time_utc":"2022-09-01T14:54:38Z","perimeter_edit_time_utc":"2023-03-14T15:13:42Z","incident_modified_time_utc":"2022-07-31T17:02:22Z","containment_time_utc":"2022-07-28T03:47:00Z","control_time_utc":"2022-07-28T17:01:00Z","fire_out_time_utc":"2022-07-31T17:01:00Z","fire_cause":"Undetermined","fire_cause_general":"Undetermined","map_method":"GPS-Walked","source_dataset":"FFP","unique_fire_identifier":"2022-UTSES-020345","irwin_id":"{DACDBAED-7698-4C71-BE77-159B29F34824}","global_id":"0395090e-548b-4594-8701-e8a857ff3268"}},{"type":"Feature","geometry":{"type":"MultiPolygon","coordinates":[[[[-109.3725,37.58356],[-109.37257,37.58342],[-109.37234,37.58338],[-109.37268,37.58338],[-109.3725,37.58356]]],[[[-109.3725,37.58356],[-109.37242,37.58351],[-109.37248,37.58347],[-109.3725,37.58356]]]]},"properties":{"fire_id":"ufid:2022-UTCYD-020500","source_collection":"history-2022","source_objectid":6301,"incident_name":"Alkali","mapped_acres":0.1,"mapped_acres_source":"poly_GISAcres","gis_acres":0.1,"auto_acres":0.06658050565775493,"reported_acres":0.1,"percent_contained":null,"state":"UT","state_wfigs":"US-UT","county":"San Juan","discovery_time_utc":"2022-09-04T20:19:00Z","perimeter_time_utc":"2022-11-04T16:39:52Z","perimeter_edit_time_utc":"2023-03-14T15:13:42Z","incident_modified_time_utc":"2022-09-06T23:02:54Z","containment_time_utc":"2022-09-05T19:00:00Z","control_time_utc":"2022-09-05T20:00:00Z","fire_out_time_utc":"2022-09-05T20:15:00Z","fire_cause":"Natural","fire_cause_general":"Natural","map_method":"Auto-generated","source_dataset":"FFP","unique_fire_identifier":"2022-UTCYD-020500","irwin_id":"{54713C38-005F-4CD3-BB4C-7452096CF53A}","global_id":"2312574c-da8e-4ef0-a75c-e0896b8c1dc6"}},{"type":"Feature","geometry":{"type":"Polygon","coordinates":[[[-109.1249,37.84021],[-109.12509,37.84018],[-109.12555,37.84038],[-109.1249,37.84021]]]},"properties":{"fire_id":"ufid:2022-UTSES-020064","source_collection":"history-2022","source_objectid":6564,"incident_name":"White Flats","mapped_acres":0.1,"mapped_acres_source":"poly_GISAcres","gis_acres":0.1,"auto_acres":0.1368757580384113,"reported_acres":0.15,"percent_contained":null,"state":"UT","state_wfigs":"US-UT","county":"San Juan","discovery_time_utc":"2022-04-25T17:40:00Z","perimeter_time_utc":"2022-09-01T17:43:51Z","perimeter_edit_time_utc":"2023-03-14T15:13:42Z","incident_modified_time_utc":"2022-07-08T20:13:22Z","containment_time_utc":"2022-04-25T19:30:00Z","control_time_utc":"2022-04-25T20:00:00Z","fire_out_time_utc":"2022-04-26T18:15:00Z","fire_cause":"Human","fire_cause_general":"Equipment and vehicle use","map_method":"Auto-generated","source_dataset":"FFP","unique_fire_identifier":"2022-UTSES-020064","irwin_id":"{2CBD2550-7898-4549-AB2B-84F65FA3E5A7}","global_id":"21c34a0e-932b-4d8a-9ef5-ee9820fc6e3d"}},{"type":"Feature","geometry":{"type":"MultiPolygon","coordinates":[[[[-109.11607,38.64075],[-109.11612,38.64078],[-109.11598,38.64078],[-109.11607,38.64075]]],[[[-109.11612,38.64078],[-109.11614,38.64077],[-109.11613,38.64078],[-109.11612,38.64078]]],[[[-109.11683,38.64272],[-109.11647,38.64272],[-109.11632,38.64286],[-109.11613,38.64278],[-109.11633,38.64275],[-109.11635,38.64263],[-109.11654,38.64269],[-109.11665,38.64245],[-109.11615,38.64228],[-109.11614,38.64208],[-109.116,38.64215],[-109.11596,38.64198],[-109.11606,38.64186],[-109.11584,38.64187],[-109.11609,38.64172],[-109.116,38.64131],[-109.11617,38.64122],[-109.11623,38.64099],[-109.11609,38.64087],[-109.11633,38.64058],[-109.11662,38.64067],[-109.11646,38.64067],[-109.1165,38.64092],[-109.11705,38.64085],[-109.11702,38.64112],[-109.11721,38.64123],[-109.11735,38.64168],[-109.1175,38.64177],[-109.11741,38.64195],[-109.11773,38.64232],[-109.11757,38.64262],[-109.11777,38.64285],[-109.11816,38.64283],[-109.11796,38.64322],[-109.11754,38.64308],[-109.11763,38.64337],[-109.11748,38.64336],[-109.1174,38.6432],[-109.11707,38.64307],[-109.11683,38.64272]]]]},"properties":{"fire_id":"ufid:2022-UTCYD-020408","source_collection":"history-2022","source_objectid":7675,"incident_name":"North Beaver Mesa","mapped_acres":6.7,"mapped_acres_source":"poly_GISAcres","gis_acres":6.7,"auto_acres":6.661828685540372,"reported_acres":7.2,"percent_contained":null,"state":"UT","state_wfigs":"US-UT","county":"Grand","discovery_time_utc":"2022-08-12T22:12:00Z","perimeter_time_utc":"2022-11-03T19:08:26Z","perimeter_edit_time_utc":"2023-03-14T15:13:42Z","incident_modified_time_utc":"2022-09-12T18:52:09Z","containment_time_utc":"2022-08-13T23:00:00Z","control_time_utc":"2022-08-15T14:00:00Z","fire_out_time_utc":"2022-09-12T18:40:00Z","fire_cause":"Natural","fire_cause_general":"Natural","map_method":"GPS-Walked","source_dataset":"FFP","unique_fire_identifier":"2022-UTCYD-020408","irwin_id":"{3121477E-C44A-4782-BB2A-FF1DD2AE2002}","global_id":"e5638c41-c4f1-424f-b0d9-22b033acef44"}},{"type":"Feature","geometry":{"type":"Polygon","coordinates":[[[-109.17101,37.85145],[-109.17226,37.85169],[-109.17196,37.85177],[-109.17108,37.85157],[-109.17101,37.85145]]]},"properties":{"fire_id":"ufid:2022-UTSES-020065","source_collection":"history-2022","source_objectid":7739,"incident_name":"Pearson Wash","mapped_acres":0.4,"mapped_acres_source":"poly_GISAcres","gis_acres":0.4,"auto_acres":0.42174512605834563,"reported_acres":0.46,"percent_contained":null,"state":"UT","state_wfigs":"US-UT","county":"San Juan","discovery_time_utc":"2022-04-25T17:40:00Z","perimeter_time_utc":"2022-09-01T15:31:54Z","perimeter_edit_time_utc":"2023-03-14T15:13:42Z","incident_modified_time_utc":"2022-07-08T20:38:36Z","containment_time_utc":"2022-04-25T19:30:00Z","control_time_utc":"2022-04-25T20:00:00Z","fire_out_time_utc":"2022-04-26T18:15:00Z","fire_cause":"Human","fire_cause_general":"Other causes","map_method":"Auto-generated","source_dataset":"FFP","unique_fire_identifier":"2022-UTSES-020065","irwin_id":"{6FAE7A31-A10C-48BE-9804-16ACC1F1F55F}","global_id":"a22fafa8-2894-4080-853d-f49abf4b9988"}},{"type":"Feature","geometry":{"type":"Polygon","coordinates":[[[-109.08916,38.3557],[-109.08897,38.35566],[-109.08917,38.35547],[-109.08899,38.35548],[-109.08901,38.35538],[-109.08918,38.35521],[-109.08953,38.35522],[-109.08956,38.3558],[-109.08911,38.35581],[-109.08916,38.3557]]]},"properties":{"fire_id":"ufid:2022-UTMLF-020304","source_collection":"history-2022","source_objectid":8073,"incident_name":"Hop Creek","mapped_acres":0.3,"mapped_acres_source":"poly_GISAcres","gis_acres":0.3,"auto_acres":0.608553539109408,"reported_acres":0.3,"percent_contained":null,"state":"UT","state_wfigs":"US-UT","county":"San Juan","discovery_time_utc":"2022-07-17T22:16:06Z","perimeter_time_utc":"2022-08-25T22:55:26Z","perimeter_edit_time_utc":"2023-03-14T15:13:42Z","incident_modified_time_utc":"2022-07-19T15:58:02Z","containment_time_utc":"2022-07-18T05:18:00Z","control_time_utc":"2022-07-19T15:57:00Z","fire_out_time_utc":"2022-07-19T15:57:00Z","fire_cause":"Natural","fire_cause_general":null,"map_method":"Mixed Methods","source_dataset":"Decertified","unique_fire_identifier":"2022-UTMLF-020304","irwin_id":"{D0557569-F646-4CD3-9B27-D070DF0AE48A}","global_id":"8c13283d-6933-4f10-a846-351c9ed8b22e"}},{"type":"Feature","geometry":{"type":"Polygon","coordinates":[[[-109.64422,38.57889],[-109.64543,38.57838],[-109.64582,38.57839],[-109.64605,38.57821],[-109.64638,38.57828],[-109.64603,38.57855],[-109.64417,38.57914],[-109.64422,38.57889]]]},"properties":{"fire_id":"ufid:2022-UTCYD-020338","source_collection":"history-2022","source_objectid":8209,"incident_name":"Gold Bar","mapped_acres":1.5,"mapped_acres_source":"poly_GISAcres","gis_acres":1.5,"auto_acres":1.4747242942169903,"reported_acres":1.5,"percent_contained":null,"state":"UT","state_wfigs":"US-UT","county":"Grand","discovery_time_utc":"2022-07-26T21:19:00Z","perimeter_time_utc":"2022-11-02T20:40:06Z","perimeter_edit_time_utc":"2023-03-14T15:13:42Z","incident_modified_time_utc":"2022-09-28T17:21:03Z","containment_time_utc":"2022-07-27T01:00:00Z","control_time_utc":"2022-07-27T18:00:00Z","fire_out_time_utc":"2022-07-28T20:47:00Z","fire_cause":"Undetermined","fire_cause_general":"Undetermined","map_method":"Mixed Methods","source_dataset":"FFP","unique_fire_identifier":"2022-UTCYD-020338","irwin_id":"{16487E2E-2CFE-4140-8675-DCD9A314631C}","global_id":"d3276bbd-2c2e-441c-933d-815219b5e903"}},{"type":"Feature","geometry":{"type":"Polygon","coordinates":[[[-109.06836,38.4877],[-109.06855,38.48778],[-109.0684,38.48799],[-109.06821,38.48787],[-109.06836,38.4877]]]},"properties":{"fire_id":"ufid:2022-UTMLF-020389","source_collection":"history-2022","source_objectid":8253,"incident_name":"Roc","mapped_acres":0.1785543,"mapped_acres_source":"poly_GISAcres","gis_acres":0.1785543,"auto_acres":0.1785718670684936,"reported_acres":0.25,"percent_contained":null,"state":"UT","state_wfigs":"US-UT","county":"San Juan","discovery_time_utc":"2022-08-06T22:42:14Z","perimeter_time_utc":"2022-12-13T21:32:58Z","perimeter_edit_time_utc":"2023-03-14T15:13:42Z","incident_modified_time_utc":"2022-08-08T22:15:27Z","containment_time_utc":"2022-08-07T18:54:00Z","control_time_utc":"2022-08-07T21:46:00Z","fire_out_time_utc":"2022-08-08T19:28:00Z","fire_cause":"Natural","fire_cause_general":"Natural","map_method":"Mixed Methods","source_dataset":"FFP","unique_fire_identifier":"2022-UTMLF-020389","irwin_id":"{756D6100-D496-4A67-BC73-60A44573FBAF}","global_id":"9c55e5ba-d352-4b70-8fa7-db420e4b696c"}},{"type":"Feature","geometry":{"type":"Polygon","coordinates":[[[-109.64297,37.72674],[-109.64274,37.72657],[-109.6428,37.72649],[-109.64297,37.72674]]]},"properties":{"fire_id":"ufid:2022-UTCYD-020494","source_collection":"history-2022","source_objectid":9732,"incident_name":"Allen","mapped_acres":0.1,"mapped_acres_source":"poly_GISAcres","gis_acres":0.1,"auto_acres":0.03136885343817836,"reported_acres":0.1,"percent_contained":null,"state":"UT","state_wfigs":"US-UT","county":"San Juan","discovery_time_utc":"2022-09-04T19:35:00Z","perimeter_time_utc":"2022-11-04T16:46:46Z","perimeter_edit_time_utc":"2023-03-14T15:13:42Z","incident_modified_time_utc":"2022-09-09T19:23:40Z","containment_time_utc":"2022-09-05T02:00:00Z","control_time_utc":"2022-09-05T13:52:00Z","fire_out_time_utc":"2022-09-05T15:40:00Z","fire_cause":"Natural","fire_cause_general":"Natural","map_method":"Mixed Methods","source_dataset":"FFP","unique_fire_identifier":"2022-UTCYD-020494","irwin_id":"{C97AB1CE-5759-480E-BC98-03348D478BAA}","global_id":"aa88eab9-a107-4fa3-b477-c8849b78db3e"}},{"type":"Feature","geometry":{"type":"Polygon","coordinates":[[[-109.12683,38.42468],[-109.12658,38.42474],[-109.12668,38.42467],[-109.12658,38.42439],[-109.12699,38.42445],[-109.12683,38.42468]]]},"properties":{"fire_id":"ufid:2022-UTSES-020475","source_collection":"history-2022","source_objectid":10560,"incident_name":"Canopy Spring","mapped_acres":0.243668,"mapped_acres_source":"poly_GISAcres","gis_acres":0.243668,"auto_acres":0.2436671263633781,"reported_acres":0.25,"percent_contained":null,"state":"UT","state_wfigs":"US-UT","county":"San Juan","discovery_time_utc":"2022-09-03T18:58:00Z","perimeter_time_utc":"2022-11-21T16:40:34Z","perimeter_edit_time_utc":"2023-03-14T15:13:42Z","incident_modified_time_utc":"2022-09-06T22:01:35Z","containment_time_utc":"2022-09-04T00:00:00Z","control_time_utc":"2022-09-05T01:30:00Z","fire_out_time_utc":"2022-09-05T22:45:00Z","fire_cause":"Natural","fire_cause_general":"Natural","map_method":"Mixed Methods","source_dataset":"FFP","unique_fire_identifier":"2022-UTSES-020475","irwin_id":"{2FE0F874-68D8-44B4-9175-3D0BBB95CE39}","global_id":"dd6cac89-88f6-4d69-9b0f-4fd67cc7a05f"}},{"type":"Feature","geometry":{"type":"Polygon","coordinates":[[[-109.44392,38.36956],[-109.44395,38.3696],[-109.44386,38.36959],[-109.44392,38.36956]]]},"properties":{"fire_id":"ufid:2022-UTCYD-020366","source_collection":"history-2022","source_objectid":11572,"incident_name":"Muleshoe","mapped_acres":0.01553898,"mapped_acres_source":"poly_GISAcres","gis_acres":0.01553898,"auto_acres":0.01553888470653264,"reported_acres":0.1,"percent_contained":null,"state":"UT","state_wfigs":"US-UT","county":"San Juan","discovery_time_utc":"2022-07-31T15:48:00Z","perimeter_time_utc":"2022-11-03T22:36:02Z","perimeter_edit_time_utc":"2023-03-14T15:13:42Z","incident_modified_time_utc":"2022-09-09T19:32:07Z","containment_time_utc":"2022-07-31T18:22:00Z","control_time_utc":"2022-07-31T18:22:00Z","fire_out_time_utc":"2022-07-31T18:22:00Z","fire_cause":"Natural","fire_cause_general":"Natural","map_method":"Mixed Methods","source_dataset":"FFP","unique_fire_identifier":"2022-UTCYD-020366","irwin_id":"{955CFEE0-5D00-4C04-97CE-9D625A700B57}","global_id":"9d5945fc-0f3a-4939-a315-ce6a56304b4d"}},{"type":"Feature","geometry":{"type":"Polygon","coordinates":[[[-109.45479,38.47138],[-109.45459,38.47088],[-109.45466,38.47059],[-109.45422,38.47019],[-109.45505,38.47088],[-109.45534,38.47135],[-109.45514,38.47187],[-109.45495,38.47179],[-109.4551,38.47161],[-109.45479,38.47138]]]},"properties":{"fire_id":"ufid:2022-UTSES-020474","source_collection":"history-2022","source_objectid":11575,"incident_name":"Ranch Trail","mapped_acres":1.198992,"mapped_acres_source":"poly_GISAcres","gis_acres":1.198992,"auto_acres":1.1989879281517737,"reported_acres":1.2,"percent_contained":null,"state":"UT","state_wfigs":"US-UT","county":"San Juan","discovery_time_utc":"2022-09-02T22:14:00Z","perimeter_time_utc":"2022-11-10T19:13:36Z","perimeter_edit_time_utc":"2023-03-14T15:13:42Z","incident_modified_time_utc":"2022-09-03T18:13:00Z","containment_time_utc":"2022-09-03T00:30:00Z","control_time_utc":"2022-09-03T01:00:00Z","fire_out_time_utc":"2022-09-03T18:10:00Z","fire_cause":"Undetermined","fire_cause_general":"Undetermined","map_method":"Mixed Methods","source_dataset":"FFP","unique_fire_identifier":"2022-UTSES-020474","irwin_id":"{1589B338-9CC6-4324-A7AA-6D1523DD6D7C}","global_id":"52cc14f1-c166-4b30-9e79-55bc4cb5a8f2"}},{"type":"Feature","geometry":{"type":"MultiPolygon","coordinates":[[[[-109.21224,37.86098],[-109.21228,37.8609],[-109.213,37.86107],[-109.21289,37.86117],[-109.21224,37.86098]]],[[[-109.21364,37.86121],[-109.213633,37.861214],[-109.213,37.86107],[-109.21364,37.86121]]],[[[-109.213633,37.861214],[-109.21458,37.86143],[-109.2135,37.8613],[-109.213633,37.861214]]],[[[-109.21516,37.86161],[-109.2146,37.86155],[-109.21458,37.86143],[-109.21516,37.86161]]]]},"properties":{"fire_id":"ufid:2022-UTSES-020066","source_collection":"history-2022","source_objectid":11824,"incident_name":"Boulder Canyon","mapped_acres":0.5,"mapped_acres_source":"poly_GISAcres","gis_acres":0.5,"auto_acres":0.5265428972793206,"reported_acres":0.52,"percent_contained":null,"state":"UT","state_wfigs":"US-UT","county":"San Juan","discovery_time_utc":"2022-04-25T17:40:00Z","perimeter_time_utc":"2022-09-01T15:32:36Z","perimeter_edit_time_utc":"2023-03-14T15:13:42Z","incident_modified_time_utc":"2022-07-08T20:28:46Z","containment_time_utc":"2022-04-25T19:30:00Z","control_time_utc":"2022-04-25T20:00:00Z","fire_out_time_utc":"2022-04-26T18:15:00Z","fire_cause":"Human","fire_cause_general":"Other causes","map_method":"Auto-generated","source_dataset":"FFP","unique_fire_identifier":"2022-UTSES-020066","irwin_id":"{E2A8DA8C-4E3D-4087-BFD6-C9357CC8FD9F}","global_id":"a0fc3880-d398-40f7-bef5-2c105258ba9d"}},{"type":"Feature","geometry":{"type":"MultiPolygon","coordinates":[[[[-109.72915,37.69317],[-109.72898,37.69298],[-109.72921,37.693],[-109.72915,37.69317]]],[[[-109.72938,37.69334],[-109.72941,37.69328],[-109.72947,37.69333],[-109.72938,37.69334]]]]},"properties":{"fire_id":"ufid:2022-UTMLF-020495","source_collection":"history-2022","source_objectid":12426,"incident_name":"Little Notch","mapped_acres":0.1,"mapped_acres_source":"poly_GISAcres","gis_acres":0.1,"auto_acres":0.09518741784794268,"reported_acres":0.25,"percent_contained":null,"state":"UT","state_wfigs":"US-UT","county":"San Juan","discovery_time_utc":"2022-09-04T19:41:09Z","perimeter_time_utc":"2022-10-31T17:42:29Z","perimeter_edit_time_utc":"2023-03-14T15:13:42Z","incident_modified_time_utc":"2022-10-17T14:31:33Z","containment_time_utc":"2022-09-06T01:45:00Z","control_time_utc":"2022-09-06T14:30:00Z","fire_out_time_utc":"2022-10-17T14:31:00Z","fire_cause":"Natural","fire_cause_general":"Natural","map_method":"Auto-generated","source_dataset":"FFP","unique_fire_identifier":"2022-UTMLF-020495","irwin_id":"{CBBECC74-6B5B-4AEE-9F5E-7D275664E4AD}","global_id":"237a611f-a1e1-4d74-b67e-e0d8e94a879c"}}]}
