{"type":"FeatureCollection","features":[{"type":"Feature","geometry":{"type":"Polygon","coordinates":[[[-80.62547,37.36565],[-80.62526,37.36551],[-80.62506,37.36563],[-80.62494,37.36579],[-80.62505,37.36598],[-80.62478,37.3663],[-80.62405,37.36632],[-80.62377,37.36653],[-80.62336,37.36657],[-80.62309,37.36626],[-80.62296,37.36642],[-80.62272,37.3664],[-80.62263,37.36595],[-80.62183,37.36566],[-80.62196,37.36554],[-80.62167,37.36528],[-80.62219,37.36458],[-80.62271,37.3642],[-80.62281,37.36395],[-80.62312,37.36376],[-80.62326,37.36381],[-80.62355,37.36348],[-80.62405,37.36328],[-80.62408,37.36314],[-80.62438,37.36315],[-80.6244,37.36295],[-80.62522,37.36228],[-80.62572,37.36243],[-80.62617,37.36232],[-80.62668,37.36267],[-80.62662,37.36278],[-80.62688,37.36313],[-80.62687,37.36345],[-80.62674,37.3636],[-80.62623,37.36359],[-80.62607,37.36373],[-80.62617,37.36387],[-80.62605,37.36401],[-80.62663,37.36429],[-80.62661,37.3647],[-80.62638,37.36512],[-80.62625,37.36513],[-80.6263,37.36539],[-80.62557,37.36552],[-80.62547,37.36565]]]},"properties":{"fire_id":"ufid:2022-VAVAF-220104","source_collection":"history-2022","source_objectid":5894,"incident_name":"Big Branch","mapped_acres":15.0,"mapped_acres_source":"poly_GISAcres","gis_acres":15.0,"auto_acres":31.190181094813415,"reported_acres":31.2,"percent_contained":null,"state":"VA","state_wfigs":"US-VA","county":"Giles","discovery_time_utc":"2022-04-17T19:19:00Z","perimeter_time_utc":"2022-08-05T20:46:27Z","perimeter_edit_time_utc":"2023-03-14T15:13:42Z","incident_modified_time_utc":"2022-05-01T13:16:05Z","containment_time_utc":"2022-04-20T20:25:00Z","control_time_utc":"2022-04-25T17:45:00Z","fire_out_time_utc":"2022-05-01T13:30:00Z","fire_cause":"Undetermined","fire_cause_general":"Undetermined","map_method":"GPS-Walked","source_dataset":"FFP","unique_fire_identifier":"2022-VAVAF-220104","irwin_id":"{8CF5668F-66BE-4EB1-A140-A515D10DED96}","global_id":"5c6474ed-2d03-4b63-8b36-b8c72ed9c3ac"}},{"type":"Feature","geometry":{"type":"Polygon","coordinates":[[[-81.37624,37.05129],[-81.37624,37.05092],[-81.37605,37.05086],[-81.37611,37.05037],[-81.37597,37.05001],[-81.37571,37.04994],[-81.3757,37.05026],[-81.37551,37.05035],[-81.37543,37.05023],[-81.37519,37.05042],[-81.37477,37.05005],[-81.37478,37.04987],[-81.37494,37.04934],[-81.37529,37.04919],[-81.37562,37.04883],[-81.37594,37.049],[-81.376,37.04883],[-81.37583,37.04853],[-81.37596,37.04836],[-81.37644,37.04822],[-81.37693,37.0487],[-81.3772,37.04865],[-81.37735,37.04876],[-81.37745,37.04906],[-81.37737,37.04971],[-81.37748,37.04995],[-81.37674,37.05172],[-81.3767,37.05156],[-81.37646,37.05156],[-81.37648,37.05145],[-81.37624,37.05129]]]},"properties":{"fire_id":"ufid:2022-VAVAF-220076","source_collection":"history-2022","source_objectid":6172,"incident_name":"Lick Creek","mapped_acres":12.07,"mapped_acres_source":"poly_GISAcres","gis_acres":12.07,"auto_acres":12.072043815982429,"reported_acres":12.1,"percent_contained":null,"state":"VA","state_wfigs":"US-VA","county":"Bland","discovery_time_utc":"2022-03-28T19:33:00Z","perimeter_time_utc":"2022-08-05T21:09:05Z","perimeter_edit_time_utc":"2023-03-14T15:13:42Z","incident_modified_time_utc":"2022-04-06T12:56:17Z","containment_time_utc":"2022-03-29T16:40:00Z","control_time_utc":"2022-04-02T18:00:00Z","fire_out_time_utc":"2022-04-06T13:00:00Z","fire_cause":"Human","fire_cause_general":"Undetermined","map_method":"Phone/Tablet","source_dataset":"FFP","unique_fire_identifier":"2022-VAVAF-220076","irwin_id":"{8C4EB24A-70CB-4EC7-BB11-7E8734661884}","global_id":"06aaaef9-8bdf-4895-9d26-eff55eab0688"}},{"type":"Feature","geometry":{"type":"Polygon","coordinates":[[[-81.37473,37.05468],[-81.373,37.0567],[-81.36708,37.05808],[-81.36716,37.05727],[-81.36759,37.05778],[-81.36818,37.05774],[-81.36797,37.05757],[-81.36794,37.05737],[-81.36811,37.05741],[-81.36792,37.05722],[-81.36785,37.05736],[-81.36718,37.05706],[-81.36758,37.05645],[-81.36777,37.0564],[-81.3678,37.05621],[-81.36809,37.05626],[-81.36806,37.05615],[-81.36822,37.05616],[-81.36823,37.05589],[-81.36856,37.0558],[-81.36856,37.05554],[-81.36841,37.05544],[-81.36867,37.05513],[-81.36827,37.05497],[-81.36809,37.05476],[-81.36917,37.05416],[-81.36942,37.05428],[-81.36944,37.05411],[-81.36973,37.05402],[-81.36978,37.05385],[-81.37239,37.05246],[-81.37305,37.05257],[-81.37473,37.05468]]]},"properties":{"fire_id":"ufid:2022-VAVAF-220044","source_collection":"history-2022","source_objectid":7863,"incident_name":"Walker","mapped_acres":55.04693757633754,"mapped_acres_source":"poly_Acres_AutoCalc_fallback","gis_acres":null,"auto_acres":55.04693757633754,"reported_acres":55.04,"percent_contained":null,"state":"VA","state_wfigs":"US-VA","county":"Tazewell","discovery_time_utc":"2022-03-05T15:20:00Z","perimeter_time_utc":null,"perimeter_edit_time_utc":"2023-03-14T15:13:42Z","incident_modified_time_utc":"2022-03-18T17:58:57Z","containment_time_utc":"2022-03-06T18:23:00Z","control_time_utc":"2022-03-09T18:30:14Z","fire_out_time_utc":"2022-03-09T19:00:14Z","fire_cause":"Undetermined","fire_cause_general":"Undetermined","map_method":"Mixed Methods","source_dataset":"FFP","unique_fire_identifier":"2022-VAVAF-220044","irwin_id":"{8D63FA2F-23B2-42F1-A017-9C87525E4A8A}","global_id":"456382f9-a18e-4101-8555-8c9e4caad375"}},{"type":"Feature","geometry":{"type":"Polygon","coordinates":[[[-81.13313,37.02965],[-81.13435,37.02924],[-81.13463,37.03069],[-81.13423,37.03215],[-81.1326,37.03186],[-81.13313,37.02965]]]},"properties":{"fire_id":"ufid:2022-VAVAF-220095","source_collection":"history-2022","source_objectid":8535,"incident_name":"Stoney Fork","mapped_acres":20.0,"mapped_acres_source":"poly_GISAcres","gis_acres":20.0,"auto_acres":10.060196692525087,"reported_acres":8.0,"percent_contained":null,"state":"VA","state_wfigs":"US-VA","county":"Wythe","discovery_time_utc":"2022-04-10T22:46:00Z","perimeter_time_utc":"2022-08-05T20:45:28Z","perimeter_edit_time_utc":"2023-03-14T15:13:42Z","incident_modified_time_utc":"2022-05-09T15:09:26Z","containment_time_utc":"2022-04-12T14:30:00Z","control_time_utc":"2022-04-13T15:00:00Z","fire_out_time_utc":"2022-04-13T15:35:00Z","fire_cause":"Undetermined","fire_cause_general":"Undetermined","map_method":"Hand Sketch","source_dataset":"FFP","unique_fire_identifier":"2022-VAVAF-220095","irwin_id":"{0A74104B-2256-41E2-9EED-621287FD9EAF}","global_id":"bc26f09a-404e-46e5-ac7c-7e8e398ecf9d"}},{"type":"Feature","geometry":{"type":"Polygon","coordinates":[[[-81.2107,37.13006],[-81.20999,37.13003],[-81.2096,37.12958],[-81.20946,37.1292],[-81.2095,37.12889],[-81.20917,37.12806],[-81.209,37.12793],[-81.20872,37.1281],[-81.20796,37.12771],[-81.20765,37.12733],[-81.20768,37.12708],[-81.20739,37.12694],[-81.2071,37.12647],[-81.20748,37.12641],[-81.20749,37.12612],[-81.2079,37.12602],[-81.20808,37.12566],[-81.20857,37.12531],[-81.20887,37.12523],[-81.20939,37.12541],[-81.2095,37.12529],[-81.20945,37.12472],[-81.20972,37.12451],[-81.20994,37.12404],[-81.21007,37.12414],[-81.21037,37.12401],[-81.2104,37.12359],[-81.21098,37.12328],[-81.21158,37.12319],[-81.21286,37.12327],[-81.21352,37.12299],[-81.21351,37.1232],[-81.21372,37.12325],[-81.21379,37.12371],[-81.21407,37.12405],[-81.21402,37.12417],[-81.21424,37.12423],[-81.21427,37.12454],[-81.21455,37.12483],[-81.21436,37.12518],[-81.21351,37.12587],[-81.2135,37.12607],[-81.21303,37.12636],[-81.21293,37.12682],[-81.21351,37.12725],[-81.21377,37.12771],[-81.21393,37.12777],[-81.21396,37.12823],[-81.21429,37.12863],[-81.21286,37.12957],[-81.21222,37.12969],[-81.21193,37.12991],[-81.21107,37.12976],[-81.2107,37.13006]]]},"properties":{"fire_id":"ufid:2022-VAVAF-220116","source_collection":"history-2022","source_objectid":12658,"incident_name":"Hunting Camp","mapped_acres":20.0,"mapped_acres_source":"poly_GISAcres","gis_acres":20.0,"auto_acres":77.3874950818727,"reported_acres":77.0,"percent_contained":null,"state":"VA","state_wfigs":"US-VA","county":"Bland","discovery_time_utc":"2022-05-02T19:08:00Z","perimeter_time_utc":"2022-08-23T19:42:16Z","perimeter_edit_time_utc":"2023-03-14T15:13:42Z","incident_modified_time_utc":"2022-05-31T15:49:29Z","containment_time_utc":"2022-05-04T21:20:00Z","control_time_utc":"2022-05-11T13:49:00Z","fire_out_time_utc":"2022-05-31T15:50:00Z","fire_cause":"Human","fire_cause_general":"Debris and open burning","map_method":"Phone/Tablet","source_dataset":"FFP","unique_fire_identifier":"2022-VAVAF-220116","irwin_id":"{6E16127A-7E07-424A-8685-1C5B3F5975AD}","global_id":"c007ffd4-3862-4e6d-986b-0e7070fdd9f9"}},{"type":"Feature","geometry":{"type":"Polygon","coordinates":[[[-82.14791,37.10727],[-82.14771,37.10777],[-82.14793,37.10779],[-82.14829,37.10741],[-82.14893,37.10736],[-82.15008,37.10797],[-82.15007,37.10834],[-82.15029,37.10854],[-82.15029,37.10869],[-82.15008,37.10877],[-82.15,37.10897],[-82.15012,37.10962],[-82.15083,37.1098],[-82.15035,37.11055],[-82.15072,37.11062],[-82.15042,37.11105],[-82.15065,37.11127],[-82.15077,37.11102],[-82.15066,37.11158],[-82.15087,37.1119],[-82.15123,37.11185],[-82.15203,37.11115],[-82.15202,37.11081],[-82.15242,37.11018],[-82.15291,37.10998],[-82.15412,37.10996],[-82.15418,37.10958],[-82.15401,37.10932],[-82.15409,37.10926],[-82.15438,37.10941],[-82.1546,37.1093],[-82.15483,37.10939],[-82.15445,37.11005],[-82.15484,37.11001],[-82.15483,37.10964],[-82.15498,37.10948],[-82.15489,37.10911],[-82.15503,37.10909],[-82.15599,37.10969],[-82.15624,37.11009],[-82.1561,37.11012],[-82.15604,37.11035],[-82.15574,37.11019],[-82.15495,37.11072],[-82.15467,37.1106],[-82.15402,37.11115],[-82.15433,37.1111],[-82.15481,37.11127],[-82.15483,37.111],[-82.15495,37.11092],[-82.15603,37.11093],[-82.15639,37.11068],[-82.15663,37.1107],[-82.15617,37.11107],[-82.15596,37.11154],[-82.15573,37.11163],[-82.1556,37.11206],[-82.15546,37.11206],[-82.15542,37.11166],[-82.15531,37.11159],[-82.15467,37.11161],[-82.15452,37.11217],[-82.15438,37.11216],[-82.15424,37.11189],[-82.15357,37.1117],[-82.15405,37.11256],[-82.15381,37.11309],[-82.15316,37.11299],[-82.15331,37.11338],[-82.15359,37.11335],[-82.15374,37.11349],[-82.15354,37.11371],[-82.15359,37.11399],[-82.15328,37.11402],[-82.15316,37.11367],[-82.15295,37.11405],[-82.15258,37.11392],[-82.15264,37.11428],[-82.15288,37.11444],[-82.15323,37.11444],[-82.15328,37.11426],[-82.15345,37.11421],[-82.15347,37.11474],[-82.15316,37.115],[-82.15273,37.11521],[-82.15194,37.11533],[-82.15173,37.11557],[-82.1508,37.1155],[-82.15076,37.11571],[-82.15112,37.11586],[-82.15105,37.11593],[-82.14986,37.11627],[-82.14958,37.11622],[-82.14915,37.11663],[-82.14833,37.11596],[-82.14823,37.11555],[-82.14796,37.11557],[-82.14771,37.11579],[-82.14793,37.11579],[-82.14804,37.11593],[-82.14789,37.11693],[-82.14829,37.11679],[-82.14866,37.11693],[-82.14858,37.11709],[-82.14831,37.11717],[-82.14829,37.1175],[-82.14771,37.11745],[-82.14714,37.11714],[-82.14685,37.1173],[-82.1461,37.11711],[-82.1452,37.11722],[-82.14513,37.11708],[-82.14492,37.1173],[-82.14398,37.1172],[-82.14355,37.11728],[-82.14338,37.11748],[-82.14262,37.11765],[-82.14219,37.11755],[-82.14205,37.11763],[-82.14191,37.11803],[-82.14176,37.11779],[-82.14126,37.11793],[-82.14126,37.11832],[-82.14195,37.11844],[-82.14201,37.11862],[-82.14191,37.11873],[-82.14169,37.11873],[-82.1414,37.11851],[-82.14126,37.11851],[-82.14112,37.11874],[-82.14097,37.1187],[-82.14088,37.11853],[-82.14061,37.11847],[-82.13997,37.11799],[-82.13932,37.11796],[-82.13789,37.11839],[-82.13746,37.11894],[-82.13768,37.1193],[-82.13739,37.1193],[-82.13726,37.11858],[-82.13698,37.11837],[-82.13782,37.11783],[-82.13739,37.11779],[-82.13725,37.11742],[-82.13692,37.11755],[-82.13691,37.11712],[-82.1366,37.11693],[-82.13676,37.11685],[-82.13717,37.117],[-82.1376,37.11684],[-82.13789,37.11705],[-82.13793,37.11679],[-82.13746,37.11653],[-82.13696,37.1165],[-82.13667,37.11667],[-82.13655,37.11634],[-82.13628,37.11633],[-82.13588,37.11591],[-82.13531,37.11571],[-82.13531,37.11562],[-82.13588,37.11552],[-82.1362,37.11524],[-82.13681,37.11523],[-82.13681,37.11493],[-82.13645,37.11492],[-82.1361,37.11516],[-82.13567,37.11522],[-82.13545,37.11481],[-82.13495,37.11467],[-82.13466,37.11407],[-82.13473,37.11371],[-82.13406,37.11359],[-82.13382,37.11335],[-82.13405,37.11309],[-82.13468,37.11299],[-82.13492,37.1126],[-82.13445,37.11262],[-82.13432,37.11293],[-82.13405,37.11296],[-82.13332,37.11239],[-82.1334,37.11215],[-82.1338,37.11208],[-82.13382,37.11177],[-82.13316,37.11226],[-82.13328,37.11242],[-82.13309,37.1125],[-82.13292,37.11213],[-82.13305,37.11191],[-82.13278,37.11184],[-82.13266,37.1123],[-82.13251,37.11213],[-82.13256,37.11187],[-82.13227,37.11173],[-82.13226,37.11145],[-82.13206,37.11141],[-82.13227,37.1109],[-82.13257,37.11081],[-82.133,37.11041],[-82.13318,37.10997],[-82.13305,37.10969],[-82.1333,37.10979],[-82.1336,37.10969],[-82.13364,37.10941],[-82.13345,37.10919],[-82.13368,37.10883],[-82.13344,37.10869],[-82.13334,37.10833],[-82.13359,37.10747],[-82.1334,37.10718],[-82.13377,37.10668],[-82.13364,37.10616],[-82.13423,37.10501],[-82.13445,37.1051],[-82.13452,37.10474],[-82.13505,37.10448],[-82.13527,37.10393],[-82.13717,37.10421],[-82.13831,37.10415],[-82.13807,37.10431],[-82.13811,37.10458],[-82.13825,37.10467],[-82.13806,37.10482],[-82.13811,37.10491],[-82.13864,37.10474],[-82.13897,37.10442],[-82.1394,37.10448],[-82.1399,37.10429],[-82.14017,37.1044],[-82.14018,37.1046],[-82.13954,37.10474],[-82.13882,37.1052],[-82.13875,37.10539],[-82.13904,37.10579],[-82.13997,37.10613],[-82.1401,37.10647],[-82.14003,37.10682],[-82.14018,37.10698],[-82.1409,37.10699],[-82.1414,37.10672],[-82.14162,37.10697],[-82.14183,37.10699],[-82.14251,37.10664],[-82.14262,37.10647],[-82.14312,37.10643],[-82.14334,37.10611],[-82.14348,37.10611],[-82.14413,37.10639],[-82.14412,37.10669],[-82.14427,37.10675],[-82.14449,37.10654],[-82.14578,37.10666],[-82.14686,37.10652],[-82.14791,37.10727]],[[-82.13492,37.1126],[-82.13511,37.11256],[-82.13538,37.1122],[-82.13495,37.11227],[-82.13492,37.1126]]]},"properties":{"fire_id":"ufid:2022-VAVAS-22WR00640","source_collection":"history-2022","source_objectid":14149,"incident_name":"Hurricane Fire","mapped_acres":700.0,"mapped_acres_source":"poly_GISAcres","gis_acres":700.0,"auto_acres":496.691843625475,"reported_acres":700.0,"percent_contained":50.0,"state":"VA","state_wfigs":"US-VA","county":"Buchanan","discovery_time_utc":"2022-11-04T19:45:00Z","perimeter_time_utc":"2022-11-05T00:45:00Z","perimeter_edit_time_utc":"2022-12-12T22:17:36Z","incident_modified_time_utc":"2022-12-08T16:23:34Z","containment_time_utc":null,"control_time_utc":null,"fire_out_time_utc":null,"fire_cause":"Undetermined","fire_cause_general":null,"map_method":"Image Interpretation","source_dataset":"2022 NIFS","unique_fire_identifier":"2022-VAVAS-22WR00640","irwin_id":"{5E9DC13F-17DC-4CCB-839C-66C4A7B334FB}","global_id":"39b1190c-7114-4002-a030-c0b821b7e9f9"}},{"type":"Feature","geometry":{"type":"MultiPolygon","coordinates":[[[[-81.36943,37.05425],[-81.36942,37.05428],[-81.36942,37.05425],[-81.36943,37.05425]]],[[[-81.36806,37.05482],[-81.36867,37.05513],[-81.36841,37.05544],[-81.36856,37.05554],[-81.36856,37.0558],[-81.36823,37.05589],[-81.36822,37.05616],[-81.36806,37.05615],[-81.36809,37.05626],[-81.3678,37.05621],[-81.36777,37.0564],[-81.36678,37.05697],[-81.36785,37.05736],[-81.36791,37.05724],[-81.36811,37.05741],[-81.36794,37.05737],[-81.36797,37.05757],[-81.36818,37.05774],[-81.36759,37.05778],[-81.36707,37.0571],[-81.36573,37.05731],[-81.36564,37.05749],[-81.36527,37.05732],[-81.36521,37.05742],[-81.36498,37.05734],[-81.36511,37.05704],[-81.36491,37.05674],[-81.36517,37.05658],[-81.36525,37.0563],[-81.36506,37.05612],[-81.36484,37.05623],[-81.36495,37.05608],[-81.36486,37.05603],[-81.36453,37.05602],[-81.3646,37.05577],[-81.36437,37.05552],[-81.36472,37.05535],[-81.36464,37.05527],[-81.36477,37.05526],[-81.36476,37.05513],[-81.36551,37.05493],[-81.36569,37.05462],[-81.3655,37.05456],[-81.36598,37.05417],[-81.36579,37.05419],[-81.36639,37.05391],[-81.36626,37.05369],[-81.36604,37.05369],[-81.36554,37.05335],[-81.36532,37.05299],[-81.36516,37.05295],[-81.36514,37.05309],[-81.36491,37.05312],[-81.36491,37.05288],[-81.36474,37.05284],[-81.36534,37.05228],[-81.36549,37.05186],[-81.36538,37.0518],[-81.3658,37.05166],[-81.36608,37.05139],[-81.36634,37.05149],[-81.36629,37.05139],[-81.36676,37.05118],[-81.36669,37.05106],[-81.36722,37.05123],[-81.36702,37.05124],[-81.36715,37.05133],[-81.36769,37.0512],[-81.36816,37.05125],[-81.36801,37.05144],[-81.36816,37.05151],[-81.36815,37.05174],[-81.36792,37.05186],[-81.3681,37.05204],[-81.36887,37.05207],[-81.36869,37.05236],[-81.36897,37.05233],[-81.36905,37.0525],[-81.36888,37.05271],[-81.36909,37.0528],[-81.36906,37.05289],[-81.36923,37.05299],[-81.36966,37.05293],[-81.36957,37.05287],[-81.36967,37.05279],[-81.37003,37.05285],[-81.36983,37.05305],[-81.37,37.05313],[-81.36973,37.05402],[-81.36944,37.05411],[-81.36944,37.05425],[-81.36891,37.05413],[-81.36854,37.05424],[-81.36806,37.05482]]],[[[-81.36792,37.05721],[-81.36792,37.05722],[-81.36791,37.05719],[-81.36792,37.05721]]],[[[-81.36791,37.05724],[-81.36792,37.05722],[-81.36792,37.05723],[-81.36791,37.05724]]],[[[-81.36786,37.0573],[-81.36787,37.05728],[-81.36788,37.05728],[-81.36786,37.0573]]],[[[-81.36484,37.05311],[-81.36483,37.05308],[-81.36486,37.05309],[-81.36484,37.05311]]],[[[-81.36579,37.05419],[-81.36563,37.05428],[-81.36574,37.05418],[-81.36579,37.05419]]],[[[-81.36464,37.05527],[-81.36462,37.05527],[-81.36464,37.05526],[-81.36464,37.05527]]],[[[-81.36461,37.05528],[-81.36461,37.05527],[-81.36462,37.05527],[-81.36461,37.05528]]],[[[-81.3646,37.05529],[-81.36456,37.05529],[-81.36461,37.05528],[-81.3646,37.05529]]]]},"properties":{"fire_id":"ufid:2022-VAVAF-220021","source_collection":"history-2022","source_objectid":14310,"incident_name":"Garden Mountain","mapped_acres":48.13130729267314,"mapped_acres_source":"poly_Acres_AutoCalc_fallback","gis_acres":null,"auto_acres":48.13130729267314,"reported_acres":48.13,"percent_contained":null,"state":"VA","state_wfigs":"US-VA","county":"Bland","discovery_time_utc":"2022-02-10T20:35:00Z","perimeter_time_utc":null,"perimeter_edit_time_utc":"2023-03-14T15:13:42Z","incident_modified_time_utc":"2022-03-18T17:41:24Z","containment_time_utc":"2022-02-11T22:34:00Z","control_time_utc":"2022-02-16T19:24:00Z","fire_out_time_utc":"2022-03-03T13:37:00Z","fire_cause":"Undetermined","fire_cause_general":"Undetermined","map_method":"Hand Sketch","source_dataset":"FFP","unique_fire_identifier":"2022-VAVAF-220021","irwin_id":"{E5E7A075-8CC3-4E9E-8210-07A7E8430DE5}","global_id":"3e6f882d-85ac-48e9-9d6f-08919bbf2a98"}}]}
