{"type":"FeatureCollection","features":[{"type":"Feature","geometry":{"type":"MultiPolygon","coordinates":[[[[-73.14868,42.88727],[-73.14865,42.88734],[-73.14863,42.88733],[-73.14868,42.88727]]],[[[-73.14873,42.88724],[-73.14868,42.88727],[-73.14869,42.88724],[-73.14873,42.88724]]],[[[-73.14874,42.8872],[-73.14876,42.88721],[-73.14873,42.88724],[-73.14874,42.8872]]],[[[-73.14872,42.88719],[-73.1487,42.88724],[-73.14871,42.88722],[-73.14872,42.88719]]],[[[-73.14899,42.88649],[-73.1489,42.88698],[-73.14856,42.88733],[-73.14849,42.88722],[-73.1487,42.88711],[-73.14884,42.88682],[-73.14875,42.88684],[-73.14872,42.88667],[-73.14899,42.88649]]]]},"properties":{"fire_id":"ufid:2022-VTGMF-000073","source_collection":"history-2022","source_objectid":616,"incident_name":"Cemetery","mapped_acres":0.318,"mapped_acres_source":"poly_GISAcres","gis_acres":0.318,"auto_acres":0.318927110907622,"reported_acres":1.0,"percent_contained":null,"state":"VT","state_wfigs":"US-VT","county":"Bennington","discovery_time_utc":"2022-05-09T13:24:00Z","perimeter_time_utc":null,"perimeter_edit_time_utc":"2022-05-24T21:48:05Z","incident_modified_time_utc":"2022-05-16T19:40:11Z","containment_time_utc":"2022-05-09T15:35:00Z","control_time_utc":"2022-05-10T19:12:00Z","fire_out_time_utc":"2022-05-16T19:40:00Z","fire_cause":"Undetermined","fire_cause_general":null,"map_method":"Mixed Methods","source_dataset":"2022 NIFS","unique_fire_identifier":"2022-VTGMF-000073","irwin_id":"{339385E0-BCA1-46EB-BB0B-2B8D1058CAA2}","global_id":"a3295c9f-1f55-4931-9869-d43df88f5ea8"}},{"type":"Feature","geometry":{"type":"MultiPolygon","coordinates":[[[[-72.90782,43.14695],[-72.90784,43.14693],[-72.90787,43.14694],[-72.90782,43.14695]]],[[[-72.90804,43.14705],[-72.9079,43.14692],[-72.90802,43.14699],[-72.90804,43.14705]]],[[[-72.90776,43.1471],[-72.90782,43.14696],[-72.90784,43.14708],[-72.90776,43.1471]]],[[[-72.90781,43.14694],[-72.9076,43.14719],[-72.90723,43.14717],[-72.90781,43.14694]]],[[[-72.90827,43.14702],[-72.90806,43.14712],[-72.90812,43.14708],[-72.90827,43.14702]]],[[[-72.90803,43.14709],[-72.90804,43.14705],[-72.90805,43.14713],[-72.90803,43.14709]]],[[[-72.90774,43.14708],[-72.90775,43.14709],[-72.90773,43.14712],[-72.90774,43.14708]]],[[[-72.90806,43.14712],[-72.90806,43.14713],[-72.90805,43.14713],[-72.90806,43.14712]]],[[[-72.90802,43.14714],[-72.90804,43.14713],[-72.908,43.14715],[-72.90802,43.14714]]],[[[-72.908,43.14715],[-72.90796,43.14717],[-72.90798,43.14716],[-72.908,43.14715]]],[[[-72.90723,43.14717],[-72.90713,43.14724],[-72.90705,43.14724],[-72.90723,43.14717]]],[[[-72.90762,43.14731],[-72.90773,43.14712],[-72.90765,43.1473],[-72.90762,43.14731]]],[[[-72.90762,43.14731],[-72.90735,43.14777],[-72.90725,43.14745],[-72.90762,43.14731]]],[[[-72.90735,43.14777],[-72.9074,43.14787],[-72.90731,43.14785],[-72.90735,43.14777]]],[[[-72.90712,43.14818],[-72.90694,43.14786],[-72.90706,43.14775],[-72.90731,43.14785],[-72.90712,43.14818]]],[[[-72.90875,43.14816],[-72.90891,43.14851],[-72.90881,43.14855],[-72.90883,43.14882],[-72.9078,43.14902],[-72.90728,43.14886],[-72.9072,43.14867],[-72.90696,43.14858],[-72.90663,43.14864],[-72.90706,43.14835],[-72.90712,43.14818],[-72.90723,43.14825],[-72.9074,43.14787],[-72.90749,43.14792],[-72.90742,43.14782],[-72.90765,43.1473],[-72.90806,43.14713],[-72.90792,43.1473],[-72.90835,43.14734],[-72.90882,43.14769],[-72.90855,43.14791],[-72.90883,43.14806],[-72.90875,43.14816]]],[[[-72.90705,43.14725],[-72.90711,43.14734],[-72.90704,43.14734],[-72.90705,43.14725]]],[[[-72.90711,43.14734],[-72.90717,43.14734],[-72.90703,43.14752],[-72.90711,43.14734]]],[[[-72.90703,43.14752],[-72.90705,43.14774],[-72.90696,43.14777],[-72.90703,43.14752]]],[[[-72.90699,43.14798],[-72.90698,43.14797],[-72.90699,43.14797],[-72.90699,43.14798]]],[[[-72.90701,43.14801],[-72.90704,43.14806],[-72.90697,43.14802],[-72.90701,43.14801]]],[[[-72.906981,43.148056],[-72.90702,43.14808],[-72.90682,43.14796],[-72.906981,43.148056]]],[[[-72.90703,43.14808],[-72.90704,43.14809],[-72.90704,43.14811],[-72.90703,43.14808]]],[[[-72.90695,43.14812],[-72.90704,43.14811],[-72.90701,43.14819],[-72.90695,43.14812]]],[[[-72.90699,43.14818],[-72.907,43.14818],[-72.90701,43.1482],[-72.90699,43.14818]]],[[[-72.90701,43.14819],[-72.90703,43.14821],[-72.90703,43.14822],[-72.90701,43.14819]]],[[[-72.90703,43.14824],[-72.90701,43.1482],[-72.90702,43.14821],[-72.90703,43.14824]]],[[[-72.90708,43.14818],[-72.90705,43.14827],[-72.90704,43.14818],[-72.90708,43.14818]]],[[[-72.90703,43.14824],[-72.90704,43.14825],[-72.90704,43.14827],[-72.90703,43.14824]]],[[[-72.90695,43.14778],[-72.90695,43.14777],[-72.90696,43.14777],[-72.90695,43.14778]]],[[[-72.90695,43.14778],[-72.90696,43.14778],[-72.90695,43.14779],[-72.90695,43.14778]]],[[[-72.90691,43.14778],[-72.90695,43.1478],[-72.90692,43.14785],[-72.90691,43.14778]]],[[[-72.9068,43.14781],[-72.90686,43.1478],[-72.90685,43.14786],[-72.9068,43.14781]]],[[[-72.90689,43.14793],[-72.90692,43.14785],[-72.90693,43.14791],[-72.90691,43.14792],[-72.90689,43.14793]]],[[[-72.90688,43.14784],[-72.906821,43.147959],[-72.90679,43.14794],[-72.90688,43.14784]]],[[[-72.90689,43.14795],[-72.90691,43.14792],[-72.90698,43.14797],[-72.90689,43.14795]]],[[[-72.90696,43.14802],[-72.90695,43.14799],[-72.90697,43.14802],[-72.90696,43.14802]]],[[[-72.90696,43.14803],[-72.90696,43.14802],[-72.90699,43.14804],[-72.90696,43.14803]]],[[[-72.90692,43.14806],[-72.90695,43.14808],[-72.90694,43.14809],[-72.90692,43.14806]]],[[[-72.90694,43.14809],[-72.90695,43.14812],[-72.90693,43.1481],[-72.90694,43.14809]]],[[[-72.90705,43.14835],[-72.90651,43.14858],[-72.9067,43.14832],[-72.90699,43.14825],[-72.90705,43.14835]]],[[[-72.90643,43.14846],[-72.90653,43.1485],[-72.90646,43.14852],[-72.90643,43.14846]]],[[[-72.90656,43.1485],[-72.90654,43.14852],[-72.90651,43.14853],[-72.90656,43.1485]]]]},"properties":{"fire_id":"ufid:2022-VTGMF-000077","source_collection":"history-2022","source_objectid":1936,"incident_name":"Kendall Fire","mapped_acres":6.14,"mapped_acres_source":"poly_GISAcres","gis_acres":6.14,"auto_acres":6.14061966175104,"reported_acres":6.0,"percent_contained":null,"state":"VT","state_wfigs":"US-VT","county":"Bennington","discovery_time_utc":"2022-05-11T16:49:06Z","perimeter_time_utc":null,"perimeter_edit_time_utc":"2022-05-24T22:06:39Z","incident_modified_time_utc":"2022-05-16T19:39:21Z","containment_time_utc":null,"control_time_utc":"2022-05-12T19:45:00Z","fire_out_time_utc":"2022-05-16T19:39:00Z","fire_cause":"Undetermined","fire_cause_general":null,"map_method":"Mixed Methods","source_dataset":"2022 NIFS","unique_fire_identifier":"2022-VTGMF-000077","irwin_id":"{7D60F884-45E4-40AC-A405-B24415AFFBCE}","global_id":"f0721279-39cd-4da1-b38c-569d1db52161"}}]}
