{"type":"FeatureCollection","features":[{"type":"Feature","geometry":{"type":"Polygon","coordinates":[[[-80.27093,37.79308],[-80.27073,37.79311],[-80.27054,37.79285],[-80.27072,37.79283],[-80.27093,37.79308]]]},"properties":{"fire_id":"ufid:2022-WVWVS-000782","source_collection":"history-2022","source_objectid":3127,"incident_name":"Pleasant Valley","mapped_acres":0.15,"mapped_acres_source":"poly_GISAcres","gis_acres":0.15,"auto_acres":0.15781319312979,"reported_acres":0.25,"percent_contained":null,"state":"WV","state_wfigs":"US-WV","county":"Greenbrier","discovery_time_utc":"2022-04-16T22:08:00Z","perimeter_time_utc":null,"perimeter_edit_time_utc":"2022-05-24T21:05:42Z","incident_modified_time_utc":"2022-04-18T18:09:43Z","containment_time_utc":"2022-04-16T23:24:00Z","control_time_utc":"2022-04-16T23:25:00Z","fire_out_time_utc":"2022-04-16T23:26:00Z","fire_cause":"Human","fire_cause_general":null,"map_method":"Mixed Methods","source_dataset":"2022 NIFS","unique_fire_identifier":"2022-WVWVS-000782","irwin_id":"{4BC4A750-9A2F-40DA-983F-46B304119AB2}","global_id":"4409a1c6-15d6-456f-b4d2-4c4c64af61ea"}},{"type":"Feature","geometry":{"type":"Polygon","coordinates":[[[-81.08295,38.08973],[-81.08137,38.08845],[-81.07996,38.08768],[-81.0799,38.08739],[-81.08146,38.08592],[-81.08493,38.08503],[-81.08589,38.08682],[-81.0874,38.08721],[-81.09044,38.08838],[-81.09536,38.08996],[-81.09671,38.09052],[-81.09759,38.09116],[-81.09869,38.09249],[-81.09904,38.09333],[-81.09923,38.09429],[-81.0965,38.09525],[-81.09621,38.09571],[-81.09666,38.09629],[-81.09636,38.09727],[-81.09405,38.09588],[-81.09476,38.09557],[-81.09494,38.09492],[-81.09462,38.09457],[-81.09423,38.09454],[-81.09317,38.09381],[-81.09151,38.09313],[-81.08722,38.09313],[-81.08645,38.09293],[-81.08612,38.09265],[-81.08563,38.09153],[-81.08511,38.0913],[-81.0846,38.09079],[-81.08415,38.09089],[-81.08295,38.08973]]]},"properties":{"fire_id":"ufid:2022-WVNRP-001582","source_collection":"history-2022","source_objectid":5212,"incident_name":"Wildrock","mapped_acres":212.443,"mapped_acres_source":"poly_GISAcres","gis_acres":212.443,"auto_acres":212.4419439034127,"reported_acres":212.0,"percent_contained":null,"state":"WV","state_wfigs":"US-WV","county":"Fayette","discovery_time_utc":"2022-11-09T19:19:00Z","perimeter_time_utc":"2022-12-15T20:21:59Z","perimeter_edit_time_utc":"2023-03-14T15:13:42Z","incident_modified_time_utc":"2022-12-12T14:16:00Z","containment_time_utc":"2022-11-18T20:00:00Z","control_time_utc":"2022-11-26T20:00:00Z","fire_out_time_utc":"2022-11-30T20:00:00Z","fire_cause":"Human","fire_cause_general":"Arson","map_method":"GPS-Walked","source_dataset":"FFP","unique_fire_identifier":"2022-WVNRP-001582","irwin_id":"{BF2D48A5-2955-4122-9DFF-B92D51A0B0EC}","global_id":"3327f0c3-6fef-448f-955d-d5575f2ed351"}},{"type":"Feature","geometry":{"type":"Polygon","coordinates":[[[-81.08878,38.0882],[-81.0894,38.08884],[-81.08898,38.08864],[-81.08878,38.0882]]]},"properties":{"fire_id":"ufid:2022-WVNRP-000283","source_collection":"history-2022","source_objectid":5526,"incident_name":"Wild Rock Fire","mapped_acres":0.1472341446583495,"mapped_acres_source":"poly_Acres_AutoCalc_fallback","gis_acres":null,"auto_acres":0.1472341446583495,"reported_acres":0.2,"percent_contained":null,"state":"WV","state_wfigs":"US-WV","county":"Fayette","discovery_time_utc":"2022-03-05T22:35:00Z","perimeter_time_utc":"2022-12-15T19:51:13Z","perimeter_edit_time_utc":"2023-03-14T15:13:42Z","incident_modified_time_utc":"2022-03-15T17:14:43Z","containment_time_utc":"2022-03-11T18:49:00Z","control_time_utc":"2022-03-11T18:50:00Z","fire_out_time_utc":"2022-03-11T18:51:00Z","fire_cause":"Human","fire_cause_general":"Equipment and vehicle use","map_method":"Mixed Methods","source_dataset":"FFP","unique_fire_identifier":"2022-WVNRP-000283","irwin_id":"{694CF46B-36B3-482D-9D05-468C5F8D0DEB}","global_id":"6d229c45-4040-403b-8a98-2326a3efecc1"}},{"type":"Feature","geometry":{"type":"MultiPolygon","coordinates":[[[[-80.19746,37.92506],[-80.19753,37.92509],[-80.19753,37.92515],[-80.19746,37.92506]]],[[[-80.19665,37.92625],[-80.19626,37.92628],[-80.19595,37.92599],[-80.19593,37.92581],[-80.19627,37.92522],[-80.19671,37.92512],[-80.19677,37.92494],[-80.19746,37.92506],[-80.19703,37.92589],[-80.19665,37.92625]]],[[[-80.1959,37.92597],[-80.19594,37.92599],[-80.19593,37.92599],[-80.1959,37.92597]]]]},"properties":{"fire_id":"ufid:2022-WVMOF-000781","source_collection":"history-2022","source_objectid":9678,"incident_name":"Alvin","mapped_acres":2.9,"mapped_acres_source":"poly_GISAcres","gis_acres":2.9,"auto_acres":2.933838412371893,"reported_acres":4.0,"percent_contained":null,"state":"WV","state_wfigs":"US-WV","county":"Greenbrier","discovery_time_utc":"2022-04-16T20:08:00Z","perimeter_time_utc":"2022-10-13T12:50:31Z","perimeter_edit_time_utc":"2023-03-14T15:13:42Z","incident_modified_time_utc":"2022-04-20T20:22:38Z","containment_time_utc":"2022-04-16T23:00:00Z","control_time_utc":"2022-04-19T17:39:00Z","fire_out_time_utc":"2022-04-19T17:40:00Z","fire_cause":"Undetermined","fire_cause_general":"Undetermined","map_method":"Mixed Methods","source_dataset":"FFP","unique_fire_identifier":"2022-WVMOF-000781","irwin_id":"{AA39038C-7BCA-4DAE-B843-569EDCDC5B78}","global_id":"2c489fd6-6e68-4cf9-aa7b-6bb96ea1838a"}},{"type":"Feature","geometry":{"type":"Polygon","coordinates":[[[-81.07618,37.95303],[-81.07628,37.95291],[-81.07658,37.95306],[-81.07656,37.95314],[-81.07618,37.95303]]]},"properties":{"fire_id":"ufid:2022-WVNRP-001726","source_collection":"history-2022","source_objectid":10419,"incident_name":"Dunglen","mapped_acres":0.1,"mapped_acres_source":"poly_GISAcres","gis_acres":0.1,"auto_acres":0.10050985672596441,"reported_acres":1.0,"percent_contained":null,"state":"WV","state_wfigs":"US-WV","county":"Fayette","discovery_time_utc":"2022-11-30T13:38:00Z","perimeter_time_utc":"2022-12-16T21:03:29Z","perimeter_edit_time_utc":"2023-03-14T15:13:42Z","incident_modified_time_utc":"2022-12-13T20:39:27Z","containment_time_utc":"2022-11-30T18:30:00Z","control_time_utc":"2022-12-03T16:16:00Z","fire_out_time_utc":"2022-12-13T20:39:00Z","fire_cause":"Human","fire_cause_general":"Power generation / transmission / distribution","map_method":"Auto-generated","source_dataset":"FFP","unique_fire_identifier":"2022-WVNRP-001726","irwin_id":"{7B2C7A66-0D47-4A70-82DA-0367D6613E3F}","global_id":"3d578b5d-3d04-4168-9257-c5dd81625dc6"}},{"type":"Feature","geometry":{"type":"Polygon","coordinates":[[[-81.75614,38.1432],[-81.75735,38.14252],[-81.75765,38.14248],[-81.75792,38.14265],[-81.75887,38.14389],[-81.75959,38.14422],[-81.75983,38.14416],[-81.76016,38.14361],[-81.76025,38.14301],[-81.75946,38.14146],[-81.75963,38.14074],[-81.76007,38.14045],[-81.76062,38.1408],[-81.76098,38.14083],[-81.76188,38.14024],[-81.76288,38.14074],[-81.76366,38.14137],[-81.76378,38.14163],[-81.76374,38.14213],[-81.76391,38.14235],[-81.76599,38.14229],[-81.76593,38.14268],[-81.76645,38.14267],[-81.76682,38.14242],[-81.76705,38.14207],[-81.76698,38.14091],[-81.76745,38.14018],[-81.76724,38.13988],[-81.76674,38.13957],[-81.76589,38.13964],[-81.76561,38.13953],[-81.76556,38.13927],[-81.7658,38.13844],[-81.76707,38.13731],[-81.77094,38.13583],[-81.77238,38.13559],[-81.77282,38.13533],[-81.77283,38.13506],[-81.77234,38.13455],[-81.7725,38.13389],[-81.7728,38.13363],[-81.77345,38.13374],[-81.77379,38.13325],[-81.77357,38.13313],[-81.77313,38.13315],[-81.77214,38.13373],[-81.77223,38.13337],[-81.77209,38.13315],[-81.77115,38.13294],[-81.77119,38.13243],[-81.77102,38.13216],[-81.77113,38.1317],[-81.77031,38.13169],[-81.77015,38.13185],[-81.77017,38.13217],[-81.77059,38.13221],[-81.7708,38.13239],[-81.77082,38.13262],[-81.77067,38.13279],[-81.76988,38.13311],[-81.7682,38.13314],[-81.76746,38.13437],[-81.76704,38.13472],[-81.76639,38.13458],[-81.7659,38.13372],[-81.76522,38.13352],[-81.76573,38.13299],[-81.76602,38.13321],[-81.76696,38.1331],[-81.76684,38.13281],[-81.76691,38.13262],[-81.76654,38.13236],[-81.76635,38.13192],[-81.76686,38.13055],[-81.76665,38.12974],[-81.76674,38.12925],[-81.76813,38.12806],[-81.76865,38.12674],[-81.76921,38.12641],[-81.77082,38.12593],[-81.77093,38.12517],[-81.77105,38.12505],[-81.77267,38.12518],[-81.77354,38.12557],[-81.774,38.126],[-81.77427,38.1265],[-81.774,38.12695],[-81.77375,38.12698],[-81.77367,38.12664],[-81.77325,38.1267],[-81.77284,38.12725],[-81.77286,38.12743],[-81.7732,38.12776],[-81.77416,38.12761],[-81.77431,38.12734],[-81.77473,38.12721],[-81.77518,38.12772],[-81.77612,38.12759],[-81.77645,38.12786],[-81.77706,38.12787],[-81.77748,38.1277],[-81.77777,38.12777],[-81.77777,38.12747],[-81.77732,38.12744],[-81.77707,38.12702],[-81.77729,38.12687],[-81.77795,38.12686],[-81.77873,38.12714],[-81.77821,38.12791],[-81.77881,38.12765],[-81.7792,38.12763],[-81.77948,38.12791],[-81.77972,38.12868],[-81.78071,38.12887],[-81.78092,38.12883],[-81.78106,38.12862],[-81.78188,38.12835],[-81.78218,38.12797],[-81.78212,38.12786],[-81.78162,38.12796],[-81.78157,38.12767],[-81.78175,38.1272],[-81.78137,38.12684],[-81.78136,38.12661],[-81.78261,38.12625],[-81.78308,38.12636],[-81.78334,38.12674],[-81.78349,38.12789],[-81.78214,38.12875],[-81.78187,38.12927],[-81.78194,38.13006],[-81.7825,38.13103],[-81.78268,38.13212],[-81.78378,38.13164],[-81.78387,38.13124],[-81.78435,38.13084],[-81.78508,38.13095],[-81.78552,38.13071],[-81.78625,38.13086],[-81.78653,38.1306],[-81.78727,38.13034],[-81.7877,38.12968],[-81.78846,38.1294],[-81.78853,38.1295],[-81.78824,38.12988],[-81.78765,38.13031],[-81.78742,38.1307],[-81.78751,38.13084],[-81.78808,38.13092],[-81.78798,38.13161],[-81.7886,38.13163],[-81.78868,38.13115],[-81.78933,38.13065],[-81.78884,38.13042],[-81.78854,38.12977],[-81.78933,38.12943],[-81.79031,38.12848],[-81.79134,38.12853],[-81.79248,38.12837],[-81.79393,38.12737],[-81.79557,38.12722],[-81.7966,38.12766],[-81.79682,38.12789],[-81.79697,38.12855],[-81.79746,38.12954],[-81.79727,38.13007],[-81.79688,38.13022],[-81.79712,38.13097],[-81.79708,38.13129],[-81.7968,38.13123],[-81.79675,38.1307],[-81.79661,38.13069],[-81.79643,38.13088],[-81.79641,38.13125],[-81.79593,38.13173],[-81.79513,38.13201],[-81.79487,38.13223],[-81.79493,38.13246],[-81.79527,38.13237],[-81.79533,38.1332],[-81.79559,38.13359],[-81.79555,38.13372],[-81.79532,38.1337],[-81.79493,38.13317],[-81.7943,38.1328],[-81.79411,38.13322],[-81.79334,38.13344],[-81.79247,38.13412],[-81.7924,38.13431],[-81.79278,38.13451],[-81.7928,38.13467],[-81.79225,38.1347],[-81.79194,38.13456],[-81.79156,38.13465],[-81.7916,38.13481],[-81.79223,38.13522],[-81.7925,38.13497],[-81.794,38.13491],[-81.79427,38.13461],[-81.79448,38.13458],[-81.79498,38.13501],[-81.79536,38.13497],[-81.79545,38.13527],[-81.79573,38.13555],[-81.79573,38.13581],[-81.79465,38.13648],[-81.79368,38.13663],[-81.79335,38.13726],[-81.79258,38.13815],[-81.79233,38.13827],[-81.79187,38.13825],[-81.79188,38.13867],[-81.79155,38.13842],[-81.79079,38.13844],[-81.79037,38.13905],[-81.79042,38.13995],[-81.7903,38.14025],[-81.79045,38.14037],[-81.79064,38.14029],[-81.79094,38.13989],[-81.79103,38.13953],[-81.79116,38.13949],[-81.79131,38.13972],[-81.79112,38.14045],[-81.79001,38.14154],[-81.78929,38.14172],[-81.78875,38.1425],[-81.78852,38.14309],[-81.78848,38.14378],[-81.78926,38.14442],[-81.78982,38.14461],[-81.79073,38.14446],[-81.79108,38.14455],[-81.79096,38.1452],[-81.79159,38.146],[-81.79146,38.14639],[-81.79185,38.14662],[-81.79188,38.14735],[-81.79213,38.14717],[-81.7923,38.14726],[-81.79236,38.14822],[-81.79184,38.14879],[-81.7919,38.14942],[-81.79233,38.1494],[-81.79237,38.14949],[-81.79163,38.15071],[-81.79124,38.15082],[-81.79113,38.15109],[-81.79098,38.15109],[-81.79074,38.15076],[-81.79089,38.15024],[-81.79069,38.14979],[-81.78975,38.14959],[-81.78947,38.15011],[-81.7888,38.15011],[-81.78889,38.15046],[-81.7888,38.1506],[-81.78807,38.15043],[-81.78768,38.15047],[-81.78719,38.15091],[-81.7863,38.15124],[-81.78575,38.15199],[-81.7852,38.15192],[-81.7851,38.15234],[-81.78432,38.15249],[-81.78385,38.15238],[-81.78353,38.15269],[-81.78312,38.15274],[-81.78279,38.15305],[-81.78161,38.15348],[-81.78057,38.15431],[-81.77987,38.15419],[-81.77975,38.15305],[-81.77946,38.15293],[-81.7789,38.15328],[-81.77933,38.15394],[-81.77898,38.15436],[-81.77901,38.15498],[-81.7788,38.15519],[-81.77797,38.15531],[-81.77669,38.15495],[-81.77608,38.15495],[-81.7759,38.15528],[-81.77559,38.15543],[-81.77537,38.15588],[-81.77468,38.15565],[-81.7745,38.15536],[-81.77476,38.15497],[-81.77444,38.1549],[-81.77387,38.15511],[-81.77376,38.15497],[-81.77387,38.15483],[-81.77329,38.15435],[-81.77337,38.15408],[-81.77355,38.15398],[-81.77378,38.15401],[-81.77395,38.15423],[-81.77463,38.1542],[-81.77478,38.15409],[-81.7747,38.15354],[-81.77425,38.15299],[-81.77416,38.15251],[-81.77398,38.15244],[-81.77367,38.15287],[-81.77298,38.15285],[-81.77273,38.1527],[-81.77253,38.15227],[-81.77199,38.15191],[-81.77182,38.15211],[-81.77227,38.15482],[-81.77146,38.15569],[-81.77075,38.15548],[-81.7705,38.15566],[-81.77027,38.1561],[-81.76943,38.15611],[-81.769,38.1559],[-81.76858,38.15519],[-81.76817,38.15528],[-81.7675,38.15513],[-81.76714,38.15544],[-81.76703,38.15528],[-81.76718,38.15501],[-81.76707,38.15496],[-81.76621,38.15546],[-81.76549,38.15545],[-81.76457,38.15579],[-81.76253,38.15545],[-81.76224,38.15525],[-81.76219,38.15495],[-81.76289,38.15375],[-81.76297,38.15235],[-81.7626,38.15223],[-81.76232,38.153],[-81.76215,38.15316],[-81.762,38.15313],[-81.76125,38.1518],[-81.76108,38.15112],[-81.7603,38.15083],[-81.76006,38.15027],[-81.75951,38.14979],[-81.75939,38.14947],[-81.75925,38.14944],[-81.75909,38.1496],[-81.75894,38.14954],[-81.75898,38.14915],[-81.75839,38.14863],[-81.75829,38.14879],[-81.75861,38.14965],[-81.75815,38.14989],[-81.7577,38.14979],[-81.7572,38.14997],[-81.75703,38.15037],[-81.75724,38.15119],[-81.75647,38.15148],[-81.75632,38.15142],[-81.75628,38.1512],[-81.756,38.15115],[-81.75587,38.15161],[-81.75548,38.15164],[-81.75527,38.15145],[-81.75497,38.15166],[-81.75498,38.15189],[-81.7556,38.15211],[-81.75562,38.15226],[-81.75503,38.1522],[-81.75375,38.15275],[-81.75171,38.1532],[-81.75122,38.15316],[-81.75114,38.15302],[-81.75127,38.15287],[-81.7518,38.15281],[-81.75229,38.1525],[-81.75419,38.15224],[-81.75455,38.15193],[-81.75468,38.15127],[-81.75328,38.15187],[-81.75243,38.15203],[-81.75208,38.15226],[-81.75027,38.15229],[-81.74919,38.15158],[-81.74907,38.15111],[-81.74915,38.1507],[-81.74951,38.15037],[-81.75088,38.15001],[-81.75134,38.14952],[-81.75177,38.14862],[-81.75252,38.1483],[-81.75265,38.14804],[-81.75272,38.14722],[-81.75346,38.14648],[-81.75437,38.14609],[-81.75461,38.14568],[-81.7545,38.14522],[-81.75489,38.145],[-81.755,38.14445],[-81.75614,38.1432]]]},"properties":{"fire_id":"ufid:2022-WVWVS-001565","source_collection":"history-2022","source_objectid":14178,"incident_name":"Right Side of Ridgeview Hollow","mapped_acres":1000.0,"mapped_acres_source":"poly_GISAcres","gis_acres":1000.0,"auto_acres":1874.57638809982,"reported_acres":1300.0,"percent_contained":null,"state":"WV","state_wfigs":"US-WV","county":"Boone","discovery_time_utc":"2022-11-07T18:00:00Z","perimeter_time_utc":"2022-11-08T00:00:00Z","perimeter_edit_time_utc":"2022-12-19T21:12:41Z","incident_modified_time_utc":"2023-01-03T18:45:22Z","containment_time_utc":"2022-11-08T17:00:00Z","control_time_utc":"2022-11-08T17:00:00Z","fire_out_time_utc":"2022-11-08T17:00:00Z","fire_cause":"Undetermined","fire_cause_general":null,"map_method":"Image Interpretation","source_dataset":"2022 NIFS","unique_fire_identifier":"2022-WVWVS-001565","irwin_id":"{9F7E6066-C8A3-4407-9D86-9D3B3D1B298A}","global_id":"2b3c1546-9005-422b-b1df-8cb30fb61091"}}]}
