{"type":"FeatureCollection","features":[{"type":"Feature","geometry":{"type":"Polygon","coordinates":[[[-104.56407,44.76798],[-104.56524,44.76801],[-104.56542,44.76811],[-104.5653,44.7687],[-104.56548,44.76911],[-104.56502,44.76939],[-104.56481,44.7697],[-104.56445,44.76976],[-104.56336,44.77047],[-104.56305,44.77059],[-104.56257,44.77041],[-104.56292,44.76977],[-104.56249,44.76949],[-104.56188,44.76963],[-104.56155,44.76995],[-104.56147,44.77026],[-104.56111,44.77052],[-104.55941,44.77022],[-104.55973,44.76972],[-104.55969,44.76882],[-104.5595,44.76866],[-104.55907,44.76871],[-104.5591,44.76849],[-104.55966,44.76862],[-104.56107,44.76863],[-104.5618,44.76847],[-104.56194,44.76828],[-104.56245,44.76835],[-104.56407,44.76798]]]},"properties":{"fire_id":"ufid:2022-WYCRX-220825","source_collection":"history-2022","source_objectid":843,"incident_name":"Bale","mapped_acres":22.28060469,"mapped_acres_source":"poly_GISAcres","gis_acres":22.28060469,"auto_acres":22.2976990768602,"reported_acres":22.5,"percent_contained":null,"state":"WY","state_wfigs":"US-WY","county":"Crook","discovery_time_utc":"2022-10-17T20:25:00Z","perimeter_time_utc":null,"perimeter_edit_time_utc":"2022-10-18T14:09:48Z","incident_modified_time_utc":"2022-10-18T16:55:43Z","containment_time_utc":"2022-10-18T00:30:00Z","control_time_utc":null,"fire_out_time_utc":null,"fire_cause":"Human","fire_cause_general":null,"map_method":"Mixed Methods","source_dataset":"2022 NIFS","unique_fire_identifier":"2022-WYCRX-220825","irwin_id":"{6FF3FA86-D75B-4F9D-8907-F3E1E89FEF7D}","global_id":"79a4952f-f638-44b6-bd23-1407c0d362b0"}},{"type":"Feature","geometry":{"type":"Polygon","coordinates":[[[-104.63459,44.52481],[-104.63482,44.52528],[-104.63505,44.52539],[-104.63493,44.5257],[-104.63464,44.52558],[-104.63491,44.52596],[-104.63485,44.52608],[-104.63438,44.52576],[-104.63391,44.52588],[-104.63391,44.5256],[-104.63405,44.52555],[-104.63385,44.52554],[-104.63373,44.52533],[-104.63388,44.5252],[-104.63372,44.52499],[-104.63435,44.52495],[-104.63459,44.52481]]]},"properties":{"fire_id":"ufid:2022-WYCRX-220635","source_collection":"history-2022","source_objectid":1059,"incident_name":"Nelson","mapped_acres":2.09153021096559,"mapped_acres_source":"poly_GISAcres","gis_acres":2.09153021096559,"auto_acres":2.09315315270172,"reported_acres":2.1,"percent_contained":null,"state":"WY","state_wfigs":"US-WY","county":"Crook","discovery_time_utc":"2022-08-17T21:56:00Z","perimeter_time_utc":null,"perimeter_edit_time_utc":"2022-08-19T14:14:14Z","incident_modified_time_utc":"2026-06-26T22:18:59Z","containment_time_utc":"2022-08-18T02:15:00Z","control_time_utc":"2022-08-18T02:27:00Z","fire_out_time_utc":null,"fire_cause":"Natural","fire_cause_general":null,"map_method":"Mixed Methods","source_dataset":"2022 NIFS","unique_fire_identifier":"2022-WYCRX-220635","irwin_id":"{C8331678-8D9D-4DC7-98AD-7C9902092881}","global_id":"61df7dfb-a4e1-47aa-82a7-816ba0f854ba"}},{"type":"Feature","geometry":{"type":"Polygon","coordinates":[[[-104.59563,44.62435],[-104.59599,44.62502],[-104.59532,44.62497],[-104.59465,44.62474],[-104.59458,44.62461],[-104.59483,44.62434],[-104.59546,44.62426],[-104.59563,44.62435]]]},"properties":{"fire_id":"ufid:2022-WYCRX-220481","source_collection":"history-2022","source_objectid":2167,"incident_name":"Campbell","mapped_acres":1.41869997133362,"mapped_acres_source":"poly_GISAcres","gis_acres":1.41869997133362,"auto_acres":1.41979430401782,"reported_acres":1.4,"percent_contained":null,"state":"WY","state_wfigs":"US-WY","county":"Crook","discovery_time_utc":"2022-07-18T22:54:00Z","perimeter_time_utc":null,"perimeter_edit_time_utc":"2022-07-20T14:09:59Z","incident_modified_time_utc":"2022-07-19T01:08:29Z","containment_time_utc":"2022-07-19T00:30:00Z","control_time_utc":"2022-07-19T01:00:00Z","fire_out_time_utc":null,"fire_cause":"Human","fire_cause_general":null,"map_method":"Mixed Methods","source_dataset":"2022 NIFS","unique_fire_identifier":"2022-WYCRX-220481","irwin_id":"{370105E6-5D7E-4A6F-B28C-0D842799C1C3}","global_id":"2884d362-85d4-427c-b1b7-185f392b17bc"}},{"type":"Feature","geometry":{"type":"Polygon","coordinates":[[[-104.60231,44.42391],[-104.6021,44.42366],[-104.60238,44.42378],[-104.60231,44.42391]]]},"properties":{"fire_id":"ufid:2022-WYCRX-220495","source_collection":"history-2022","source_objectid":2450,"incident_name":"Sunny","mapped_acres":0.0789487505736995,"mapped_acres_source":"poly_GISAcres","gis_acres":0.0789487505736995,"auto_acres":0.0790097040612116,"reported_acres":0.1,"percent_contained":null,"state":"WY","state_wfigs":"US-WY","county":"Crook","discovery_time_utc":"2022-07-20T23:03:00Z","perimeter_time_utc":null,"perimeter_edit_time_utc":"2022-07-21T21:15:40Z","incident_modified_time_utc":"2022-07-21T00:07:14Z","containment_time_utc":"2022-07-20T23:45:00Z","control_time_utc":"2022-07-21T00:00:00Z","fire_out_time_utc":null,"fire_cause":"Human","fire_cause_general":null,"map_method":"Mixed Methods","source_dataset":"2022 NIFS","unique_fire_identifier":"2022-WYCRX-220495","irwin_id":"{ADED1277-29D0-48A9-96D3-93998C044F9D}","global_id":"29c3f04d-d2ec-4812-9212-b0208433636b"}},{"type":"Feature","geometry":{"type":"Polygon","coordinates":[[[-104.59538,44.62312],[-104.59469,44.62274],[-104.59468,44.62245],[-104.59423,44.62219],[-104.59407,44.62194],[-104.59381,44.62195],[-104.59297,44.62245],[-104.59268,44.62243],[-104.59264,44.62221],[-104.59293,44.62189],[-104.59346,44.62187],[-104.59408,44.6213],[-104.59401,44.62099],[-104.59381,44.62082],[-104.59229,44.62017],[-104.5923,44.61979],[-104.59385,44.61978],[-104.59551,44.62029],[-104.59629,44.62035],[-104.59632,44.6206],[-104.59701,44.62081],[-104.59695,44.62112],[-104.5975,44.62149],[-104.5975,44.62161],[-104.59722,44.62177],[-104.59669,44.62178],[-104.59684,44.62207],[-104.59653,44.62234],[-104.59536,44.62255],[-104.59538,44.62312]]]},"properties":{"fire_id":"ufid:2022-WYCRX-220497","source_collection":"history-2022","source_objectid":2464,"incident_name":"Swather 2","mapped_acres":18.6230084979205,"mapped_acres_source":"poly_GISAcres","gis_acres":18.6230084979205,"auto_acres":18.6373727522035,"reported_acres":18.6,"percent_contained":null,"state":"WY","state_wfigs":"US-WY","county":"Crook","discovery_time_utc":"2022-07-21T18:41:00Z","perimeter_time_utc":null,"perimeter_edit_time_utc":"2022-07-21T21:21:53Z","incident_modified_time_utc":"2022-07-21T21:27:42Z","containment_time_utc":"2022-07-21T20:00:00Z","control_time_utc":"2022-07-21T21:20:00Z","fire_out_time_utc":null,"fire_cause":"Human","fire_cause_general":null,"map_method":"Mixed Methods","source_dataset":"2022 NIFS","unique_fire_identifier":"2022-WYCRX-220497","irwin_id":"{BD380241-443C-4E9B-8964-AAC42285098A}","global_id":"a1470870-82e0-4545-b79f-cdce54cad843"}},{"type":"Feature","geometry":{"type":"Polygon","coordinates":[[[-104.41959,44.18611],[-104.41973,44.18667],[-104.41942,44.1871],[-104.41921,44.1871],[-104.41882,44.18678],[-104.41892,44.18663],[-104.41881,44.18648],[-104.41931,44.18606],[-104.41959,44.18611]]]},"properties":{"fire_id":"ufid:2022-WYCRX-220649","source_collection":"history-2022","source_objectid":3064,"incident_name":"Mason","mapped_acres":1.4177649027164,"mapped_acres_source":"poly_GISAcres","gis_acres":1.4177649027164,"auto_acres":1.41881930193718,"reported_acres":2.0,"percent_contained":null,"state":"WY","state_wfigs":"US-WY","county":"Crook","discovery_time_utc":"2022-08-18T22:11:00Z","perimeter_time_utc":null,"perimeter_edit_time_utc":"2022-08-23T14:42:19Z","incident_modified_time_utc":"2026-06-26T22:14:33Z","containment_time_utc":"2022-08-19T01:50:00Z","control_time_utc":"2022-08-19T03:00:00Z","fire_out_time_utc":null,"fire_cause":"Natural","fire_cause_general":null,"map_method":"Phone/Tablet","source_dataset":"2022 NIFS","unique_fire_identifier":"2022-WYCRX-220649","irwin_id":"{4F1FBF49-8485-4DA1-81B6-928AA051B3B8}","global_id":"c58c1c15-c56c-4d8a-9bac-9631e6def9d1"}},{"type":"Feature","geometry":{"type":"Polygon","coordinates":[[[-104.4889,44.64739],[-104.48917,44.6475],[-104.48913,44.64772],[-104.48886,44.64799],[-104.48806,44.64792],[-104.48855,44.64762],[-104.48841,44.6475],[-104.4889,44.64739]]]},"properties":{"fire_id":"ufid:2022-WYCRX-220595","source_collection":"history-2022","source_objectid":3132,"incident_name":"Cockscomb","mapped_acres":0.905635428485266,"mapped_acres_source":"poly_GISAcres","gis_acres":0.905635428485266,"auto_acres":0.906320329097442,"reported_acres":1.0,"percent_contained":null,"state":"WY","state_wfigs":"US-WY","county":"Crook","discovery_time_utc":"2022-08-08T15:02:00Z","perimeter_time_utc":null,"perimeter_edit_time_utc":"2022-08-09T14:34:28Z","incident_modified_time_utc":"2026-06-26T22:35:17Z","containment_time_utc":"2022-08-08T21:00:00Z","control_time_utc":"2022-08-08T23:00:00Z","fire_out_time_utc":null,"fire_cause":"Natural","fire_cause_general":null,"map_method":"Mixed Methods","source_dataset":"2022 NIFS","unique_fire_identifier":"2022-WYCRX-220595","irwin_id":"{36039000-0754-42BF-9331-8DF8246DA29A}","global_id":"c0de7ae8-0dc3-435e-b7d9-4fc897806ec9"}},{"type":"Feature","geometry":{"type":"Polygon","coordinates":[[[-104.4683,44.71729],[-104.46919,44.71684],[-104.47027,44.71659],[-104.47235,44.71664],[-104.473,44.71703],[-104.4734,44.71702],[-104.47311,44.71766],[-104.47261,44.71788],[-104.47154,44.71757],[-104.46903,44.7178],[-104.46839,44.71763],[-104.4683,44.71729]]]},"properties":{"fire_id":"ufid:2022-WYCRX-220191","source_collection":"history-2022","source_objectid":3277,"incident_name":"Bolt","mapped_acres":10.2968772483531,"mapped_acres_source":"poly_GISAcres","gis_acres":10.2968772483531,"auto_acres":10.2968345991741,"reported_acres":10.3,"percent_contained":null,"state":"WY","state_wfigs":"US-WY","county":"Crook","discovery_time_utc":"2022-04-11T19:45:00Z","perimeter_time_utc":"2022-04-12T00:45:00Z","perimeter_edit_time_utc":"2022-04-12T15:25:58Z","incident_modified_time_utc":"2026-06-26T18:12:46Z","containment_time_utc":"2022-04-11T21:00:00Z","control_time_utc":null,"fire_out_time_utc":"2022-06-06T21:00:00Z","fire_cause":"Undetermined","fire_cause_general":null,"map_method":"Mixed Methods","source_dataset":"2022 NIFS","unique_fire_identifier":"2022-WYCRX-220191","irwin_id":"{F66F44E2-7784-4235-9666-CEFD0A6B1005}","global_id":"7459f436-3161-4ab0-812a-d84b64adec61"}},{"type":"Feature","geometry":{"type":"MultiPolygon","coordinates":[[[[-104.59118,44.47958],[-104.59131,44.47965],[-104.59124,44.47983],[-104.59118,44.47958]]],[[[-104.59112,44.4796],[-104.59111,44.47961],[-104.59112,44.47959],[-104.59112,44.4796]]]]},"properties":{"fire_id":"ufid:2022-WYCRX-220634","source_collection":"history-2022","source_objectid":3675,"incident_name":"Gardner","mapped_acres":0.0515496956834169,"mapped_acres_source":"poly_GISAcres","gis_acres":0.0515496956834169,"auto_acres":0.0515894265807851,"reported_acres":0.1,"percent_contained":null,"state":"WY","state_wfigs":"US-WY","county":"Crook","discovery_time_utc":"2022-08-17T21:53:00Z","perimeter_time_utc":null,"perimeter_edit_time_utc":"2022-08-19T14:02:17Z","incident_modified_time_utc":"2026-06-26T22:19:29Z","containment_time_utc":"2022-08-18T00:10:00Z","control_time_utc":"2022-08-18T01:00:00Z","fire_out_time_utc":null,"fire_cause":"Natural","fire_cause_general":null,"map_method":"Mixed Methods","source_dataset":"2022 NIFS","unique_fire_identifier":"2022-WYCRX-220634","irwin_id":"{C3FDA475-1298-4F56-9D91-91CBACD19B4C}","global_id":"ce865d8e-36e4-4f7a-85ef-620955637f2c"}},{"type":"Feature","geometry":{"type":"Polygon","coordinates":[[[-104.58458,44.49446],[-104.585,44.49436],[-104.58525,44.49451],[-104.58523,44.49461],[-104.5847,44.49475],[-104.58458,44.49446]]]},"properties":{"fire_id":"ufid:2022-WYCRX-220648","source_collection":"history-2022","source_objectid":3803,"incident_name":"Oak","mapped_acres":0.387694036326823,"mapped_acres_source":"poly_GISAcres","gis_acres":0.387694036326823,"auto_acres":0.387992532256441,"reported_acres":0.4,"percent_contained":null,"state":"WY","state_wfigs":"US-WY","county":"Crook","discovery_time_utc":"2022-08-18T21:24:00Z","perimeter_time_utc":null,"perimeter_edit_time_utc":"2022-08-19T14:17:11Z","incident_modified_time_utc":"2026-06-26T22:14:45Z","containment_time_utc":"2022-08-19T00:00:00Z","control_time_utc":"2022-08-19T02:15:00Z","fire_out_time_utc":null,"fire_cause":"Natural","fire_cause_general":null,"map_method":"Mixed Methods","source_dataset":"2022 NIFS","unique_fire_identifier":"2022-WYCRX-220648","irwin_id":"{DB751027-0104-4D31-8DB5-64D798DEC913}","global_id":"a22918d9-9e7d-4007-b62a-62fdc1dc6de2"}},{"type":"Feature","geometry":{"type":"Polygon","coordinates":[[[-104.40671,44.05407],[-104.40678,44.05414],[-104.40662,44.05446],[-104.40629,44.0544],[-104.40636,44.05417],[-104.40653,44.05421],[-104.40671,44.05407]]]},"properties":{"fire_id":"ufid:2022-WYMRF-220504","source_collection":"history-2022","source_objectid":4144,"incident_name":"SUNQUIST DRAW","mapped_acres":0.2528599,"mapped_acres_source":"poly_GISAcres","gis_acres":0.2528599,"auto_acres":0.25304730033520745,"reported_acres":0.25,"percent_contained":null,"state":"WY","state_wfigs":"US-WY","county":"Weston","discovery_time_utc":"2022-10-12T16:18:00Z","perimeter_time_utc":"2022-11-16T23:16:23Z","perimeter_edit_time_utc":"2023-03-14T15:13:42Z","incident_modified_time_utc":"2022-10-26T18:24:27Z","containment_time_utc":"2022-10-12T16:40:00Z","control_time_utc":"2022-10-12T16:40:00Z","fire_out_time_utc":"2022-10-12T16:40:00Z","fire_cause":"Human","fire_cause_general":"Power generation / transmission / distribution","map_method":"GPS-Walked","source_dataset":"FFP","unique_fire_identifier":"2022-WYMRF-220504","irwin_id":"{1AD3B445-8CE7-4B28-827C-E69D7E87E156}","global_id":"a99b3068-f813-47a8-b0fb-093c9a3303ab"}},{"type":"Feature","geometry":{"type":"Polygon","coordinates":[[[-104.35053,44.44229],[-104.35072,44.4423],[-104.35061,44.44242],[-104.35053,44.44229]]]},"properties":{"fire_id":"ufid:2022-SDBKF-220240","source_collection":"history-2022","source_objectid":4293,"incident_name":"Sundance","mapped_acres":0.1,"mapped_acres_source":"poly_GISAcres","gis_acres":0.1,"auto_acres":0.038351661891814395,"reported_acres":0.1,"percent_contained":null,"state":"WY","state_wfigs":"US-WY","county":"Crook","discovery_time_utc":"2022-05-01T17:53:00Z","perimeter_time_utc":"2022-06-21T21:48:14Z","perimeter_edit_time_utc":"2023-03-14T15:13:42Z","incident_modified_time_utc":"2022-05-01T19:06:16Z","containment_time_utc":"2022-05-01T18:45:00Z","control_time_utc":"2022-05-01T18:50:00Z","fire_out_time_utc":"2022-05-01T18:55:00Z","fire_cause":"Human","fire_cause_general":"Recreation and ceremony","map_method":"Hand Sketch","source_dataset":"FFP","unique_fire_identifier":"2022-SDBKF-220240","irwin_id":"{1993F551-18F3-47D3-AC84-32E98B7C1F5B}","global_id":"7ce069bf-cf30-45b5-bc34-67ff7f724655"}},{"type":"Feature","geometry":{"type":"Polygon","coordinates":[[[-104.39265,43.99406],[-104.39206,43.99399],[-104.39198,43.99382],[-104.39156,43.99389],[-104.3915,43.99364],[-104.39186,43.99337],[-104.3922,43.99347],[-104.39279,43.9939],[-104.39265,43.99406]]]},"properties":{"fire_id":"ufid:2022-WYNCD-220196","source_collection":"history-2022","source_objectid":4550,"incident_name":"SKULL CREEK","mapped_acres":1.018131,"mapped_acres_source":"poly_GISAcres","gis_acres":1.018131,"auto_acres":1.018882900212034,"reported_acres":1.0,"percent_contained":null,"state":"WY","state_wfigs":"US-WY","county":"Weston","discovery_time_utc":"2022-07-10T15:04:00Z","perimeter_time_utc":"2022-12-06T20:17:21Z","perimeter_edit_time_utc":"2023-03-14T15:13:42Z","incident_modified_time_utc":"2022-10-28T16:57:38Z","containment_time_utc":"2022-07-10T19:00:00Z","control_time_utc":"2022-07-10T19:00:00Z","fire_out_time_utc":"2023-07-10T19:05:00Z","fire_cause":"Human","fire_cause_general":"Power generation / transmission / distribution","map_method":"GPS-Unknown Travel Method","source_dataset":"FFP","unique_fire_identifier":"2022-WYNCD-220196","irwin_id":"{5A220D98-E2CD-49E2-92C6-908CF69A472C}","global_id":"5ec89bf5-597c-45c6-a263-5514288a5388"}},{"type":"Feature","geometry":{"type":"Polygon","coordinates":[[[-104.9651,42.06503],[-104.96512,42.0611],[-104.96538,42.06077],[-104.96543,42.06475],[-104.96538,42.06495],[-104.9651,42.06503]]]},"properties":{"fire_id":"ufid:2022-WYPLX-220239","source_collection":"history-2022","source_objectid":7701,"incident_name":"239","mapped_acres":3.19681,"mapped_acres_source":"poly_GISAcres","gis_acres":3.19681,"auto_acres":3.1993561281630436,"reported_acres":5.0,"percent_contained":null,"state":"WY","state_wfigs":"US-WY","county":"Platte","discovery_time_utc":"2022-07-19T23:06:00Z","perimeter_time_utc":"2022-08-11T22:56:24Z","perimeter_edit_time_utc":"2023-03-14T15:13:42Z","incident_modified_time_utc":"2022-08-05T21:59:36Z","containment_time_utc":null,"control_time_utc":null,"fire_out_time_utc":"2022-08-05T14:00:00Z","fire_cause":"Undetermined","fire_cause_general":"Undetermined","map_method":"GPS-Unknown Travel Method","source_dataset":"FFP","unique_fire_identifier":"2022-WYPLX-220239","irwin_id":"{15F418E4-ADE5-4710-895E-DC94EF7CA065}","global_id":"397f95fe-3609-4311-8bdb-53b563826a03"}},{"type":"Feature","geometry":{"type":"Polygon","coordinates":[[[-104.6238,44.38333],[-104.62413,44.38367],[-104.62384,44.38382],[-104.62364,44.38362],[-104.62364,44.38335],[-104.6238,44.38333]]]},"properties":{"fire_id":"ufid:2022-WYCRX-220758","source_collection":"history-2022","source_objectid":10669,"incident_name":"Corral Creek","mapped_acres":0.371116,"mapped_acres_source":"poly_GISAcres","gis_acres":0.371116,"auto_acres":0.3714035489859503,"reported_acres":0.4,"percent_contained":null,"state":"WY","state_wfigs":"US-WY","county":"Crook","discovery_time_utc":"2022-09-19T21:20:00Z","perimeter_time_utc":"2023-01-05T22:08:43Z","perimeter_edit_time_utc":"2023-03-14T15:13:42Z","incident_modified_time_utc":"2022-09-20T20:51:38Z","containment_time_utc":"2022-09-20T00:00:00Z","control_time_utc":"2022-09-20T01:20:00Z","fire_out_time_utc":"2022-09-20T20:50:00Z","fire_cause":"Undetermined","fire_cause_general":"Undetermined","map_method":"GPS-Unknown Travel Method","source_dataset":"FFP","unique_fire_identifier":"2022-WYCRX-220758","irwin_id":"{CEDEC8FA-BF0A-4174-BA1C-DCBE04996723}","global_id":"d791bbcf-d5e7-44b7-9ed7-6f1794adc632"}},{"type":"Feature","geometry":{"type":"Polygon","coordinates":[[[-104.86841,43.43841],[-104.86844,43.43858],[-104.86825,43.43866],[-104.86826,43.43886],[-104.8681,43.43905],[-104.86833,43.43938],[-104.86791,43.43969],[-104.86788,43.44015],[-104.8682,43.44053],[-104.8681,43.44095],[-104.86946,43.44138],[-104.86896,43.4424],[-104.86923,43.44264],[-104.86917,43.44297],[-104.86957,43.4434],[-104.86979,43.44415],[-104.86941,43.44447],[-104.86994,43.44469],[-104.87033,43.44517],[-104.87012,43.44565],[-104.87025,43.44593],[-104.86987,43.44618],[-104.8699,43.44649],[-104.86971,43.44662],[-104.8693,43.44657],[-104.86939,43.4468],[-104.86924,43.44697],[-104.86875,43.44704],[-104.8685,43.44721],[-104.8682,43.44715],[-104.86793,43.44753],[-104.8677,43.44746],[-104.86767,43.44715],[-104.86721,43.44694],[-104.86681,43.44701],[-104.86661,43.44728],[-104.86628,43.44725],[-104.86548,43.44625],[-104.8655,43.44596],[-104.86457,43.44519],[-104.86417,43.44509],[-104.86405,43.4448],[-104.86411,43.44454],[-104.86455,43.44436],[-104.86454,43.4442],[-104.86446,43.44391],[-104.86414,43.44378],[-104.86402,43.44353],[-104.86429,43.44287],[-104.864,43.44277],[-104.86402,43.44258],[-104.86383,43.44253],[-104.86371,43.44229],[-104.86381,43.44199],[-104.86466,43.44177],[-104.8646,43.44156],[-104.86483,43.44153],[-104.86467,43.44114],[-104.86485,43.44087],[-104.86499,43.44006],[-104.86551,43.43936],[-104.86562,43.43863],[-104.86547,43.43847],[-104.86547,43.43794],[-104.86585,43.43794],[-104.86595,43.43775],[-104.8663,43.438],[-104.8671,43.43795],[-104.86753,43.43779],[-104.86841,43.43841]]]},"properties":{"fire_id":"ufid:2022-WYNIX-220271","source_collection":"history-2022","source_objectid":11403,"incident_name":"PINEY DRAW","mapped_acres":86.91894,"mapped_acres_source":"poly_GISAcres","gis_acres":86.91894,"auto_acres":86.98793998096454,"reported_acres":87.0,"percent_contained":null,"state":"WY","state_wfigs":"US-WY","county":"Niobrara","discovery_time_utc":"2022-07-27T00:14:00Z","perimeter_time_utc":"2022-08-01T18:03:32Z","perimeter_edit_time_utc":"2023-03-14T15:13:42Z","incident_modified_time_utc":"2022-07-27T19:15:27Z","containment_time_utc":"2022-07-27T19:15:00Z","control_time_utc":null,"fire_out_time_utc":null,"fire_cause":"Natural","fire_cause_general":"Natural","map_method":"GPS-Unknown Travel Method","source_dataset":"FFP","unique_fire_identifier":"2022-WYNIX-220271","irwin_id":"{F4898126-09F7-449D-BBAF-DAECE19AF11C}","global_id":"4e46104a-459b-4838-a325-f7b89eb7cbe1"}},{"type":"Feature","geometry":{"type":"Polygon","coordinates":[[[-104.10693,42.08451],[-104.10724,42.08426],[-104.10753,42.08429],[-104.10815,42.08506],[-104.10905,42.08582],[-104.10934,42.08566],[-104.11036,42.08571],[-104.11102,42.08558],[-104.11116,42.08561],[-104.11116,42.08596],[-104.11137,42.08606],[-104.11154,42.08575],[-104.11193,42.0857],[-104.11206,42.08538],[-104.11337,42.08564],[-104.1139,42.08555],[-104.11431,42.08571],[-104.11474,42.08571],[-104.11601,42.08671],[-104.11694,42.08691],[-104.11672,42.08766],[-104.11625,42.08815],[-104.11644,42.08865],[-104.11689,42.08897],[-104.11629,42.08932],[-104.11548,42.08962],[-104.11485,42.08969],[-104.11457,42.0899],[-104.11445,42.09038],[-104.11452,42.09153],[-104.11408,42.09205],[-104.1116,42.0928],[-104.11123,42.09273],[-104.11085,42.0924],[-104.11028,42.09138],[-104.11038,42.09083],[-104.11026,42.09072],[-104.11047,42.09023],[-104.11064,42.09014],[-104.11043,42.09005],[-104.10991,42.0888],[-104.10924,42.08853],[-104.10817,42.08778],[-104.10774,42.08795],[-104.1072,42.08752],[-104.10708,42.08721],[-104.10648,42.08682],[-104.1062,42.08683],[-104.10608,42.08671],[-104.1057,42.08692],[-104.10552,42.08682],[-104.10565,42.08631],[-104.10559,42.08597],[-104.10616,42.08567],[-104.10567,42.08513],[-104.10574,42.08495],[-104.1064,42.0848],[-104.10657,42.08458],[-104.10693,42.08451]]]},"properties":{"fire_id":"ufid:2022-WYCAD-220165","source_collection":"history-2022","source_objectid":12644,"incident_name":"TORRINGTON SANDHILLS","mapped_acres":108.25,"mapped_acres_source":"poly_GISAcres","gis_acres":108.25,"auto_acres":108.29388008948237,"reported_acres":109.0,"percent_contained":null,"state":"WY","state_wfigs":"US-WY","county":"Goshen","discovery_time_utc":"2022-07-04T20:51:00Z","perimeter_time_utc":"2022-08-01T18:19:11Z","perimeter_edit_time_utc":"2023-03-14T15:13:42Z","incident_modified_time_utc":"2022-07-09T16:40:31Z","containment_time_utc":"2022-07-05T20:10:00Z","control_time_utc":"2022-07-05T22:30:00Z","fire_out_time_utc":"2022-07-09T16:30:00Z","fire_cause":"Undetermined","fire_cause_general":"Undetermined","map_method":"GPS-Unknown Travel Method","source_dataset":"FFP","unique_fire_identifier":"2022-WYCAD-220165","irwin_id":"{D4562142-0079-4467-AED9-831818039FC3}","global_id":"6ed0b1df-143e-4e56-968f-d40e7231e4c3"}},{"type":"Feature","geometry":{"type":"Polygon","coordinates":[[[-104.41888,43.46623],[-104.41885,43.46672],[-104.4187,43.46694],[-104.41878,43.46713],[-104.41863,43.46745],[-104.41783,43.46776],[-104.41756,43.46763],[-104.41747,43.46884],[-104.41772,43.46988],[-104.41767,43.47012],[-104.41734,43.47003],[-104.41726,43.47018],[-104.41742,43.47023],[-104.41732,43.47034],[-104.41683,43.47048],[-104.41626,43.47022],[-104.41601,43.47023],[-104.41588,43.47014],[-104.41593,43.46999],[-104.41619,43.46994],[-104.41634,43.46972],[-104.41617,43.46965],[-104.41615,43.46944],[-104.41543,43.4694],[-104.41516,43.46909],[-104.41496,43.4685],[-104.41434,43.46813],[-104.4142,43.46758],[-104.41436,43.46739],[-104.41439,43.46688],[-104.41379,43.46472],[-104.41396,43.46461],[-104.41398,43.46439],[-104.41445,43.46407],[-104.41462,43.46447],[-104.41502,43.46458],[-104.41525,43.46485],[-104.41552,43.46463],[-104.41574,43.46465],[-104.41615,43.46479],[-104.41625,43.46514],[-104.41665,43.46519],[-104.41642,43.46552],[-104.41663,43.4654],[-104.41689,43.46551],[-104.41699,43.46578],[-104.41686,43.46627],[-104.41692,43.46654],[-104.41765,43.46663],[-104.41776,43.466],[-104.41804,43.4658],[-104.41806,43.46562],[-104.4184,43.4658],[-104.41854,43.46609],[-104.41879,43.46611],[-104.41888,43.46623]]]},"properties":{"fire_id":"ufid:2022-WYNCD-220138","source_collection":"history-2022","source_objectid":13069,"incident_name":"SEVEN MILE CREEK","mapped_acres":37.7,"mapped_acres_source":"poly_GISAcres","gis_acres":37.7,"auto_acres":37.67799794581743,"reported_acres":37.7,"percent_contained":null,"state":"WY","state_wfigs":"US-WY","county":"Niobrara","discovery_time_utc":"2022-06-24T23:29:00Z","perimeter_time_utc":"2022-08-01T18:25:17Z","perimeter_edit_time_utc":"2023-03-14T15:13:42Z","incident_modified_time_utc":"2022-06-26T13:33:52Z","containment_time_utc":"2022-06-25T20:45:00Z","control_time_utc":"2022-06-25T20:45:00Z","fire_out_time_utc":"2022-06-28T16:15:00Z","fire_cause":"Natural","fire_cause_general":"Natural","map_method":"Mixed Methods","source_dataset":"FFP","unique_fire_identifier":"2022-WYNCD-220138","irwin_id":"{E15684ED-7947-4FC1-A803-3A005A82ABE2}","global_id":"656cd6f6-e69d-46aa-adec-a2cdc5e391b2"}},{"type":"Feature","geometry":{"type":"Polygon","coordinates":[[[-104.81945,42.24752],[-104.8209,42.24854],[-104.82213,42.24879],[-104.82322,42.24962],[-104.82346,42.25033],[-104.82401,42.25049],[-104.82456,42.25092],[-104.8291,42.2561],[-104.82945,42.25685],[-104.82282,42.26105],[-104.8115,42.26647],[-104.8112,42.26641],[-104.81086,42.26567],[-104.80959,42.2647],[-104.80886,42.26439],[-104.80763,42.26417],[-104.8068,42.26376],[-104.80587,42.26364],[-104.80558,42.26278],[-104.80494,42.26241],[-104.80448,42.26174],[-104.80404,42.2599],[-104.80369,42.259],[-104.80369,42.25867],[-104.80327,42.258],[-104.80374,42.25766],[-104.80385,42.25737],[-104.80371,42.25705],[-104.80375,42.25656],[-104.8036,42.25632],[-104.80376,42.25607],[-104.80367,42.25555],[-104.80385,42.25512],[-104.8035,42.25478],[-104.80391,42.25459],[-104.80333,42.25367],[-104.80347,42.25316],[-104.80319,42.25284],[-104.80307,42.25239],[-104.80354,42.25202],[-104.80385,42.25122],[-104.8034,42.25075],[-104.80335,42.25025],[-104.8042,42.24904],[-104.80497,42.24884],[-104.80516,42.24858],[-104.8056,42.24837],[-104.80549,42.24809],[-104.80504,42.24789],[-104.80496,42.24769],[-104.80453,42.24739],[-104.80436,42.24712],[-104.80441,42.24698],[-104.80654,42.24592],[-104.8069,42.24654],[-104.80791,42.24636],[-104.80833,42.24583],[-104.80878,42.24568],[-104.80918,42.24482],[-104.80951,42.24478],[-104.81191,42.24548],[-104.81252,42.24582],[-104.81416,42.2464],[-104.81525,42.24646],[-104.81945,42.24752]]]},"properties":{"fire_id":"ufid:2022-WYPLX-220451","source_collection":"history-2022","source_objectid":13475,"incident_name":"WARM SPRINGS","mapped_acres":830.976329685042,"mapped_acres_source":"poly_GISAcres","gis_acres":830.976329685042,"auto_acres":831.633612829101,"reported_acres":821.0,"percent_contained":100.0,"state":"WY","state_wfigs":"US-WY","county":"Platte","discovery_time_utc":"2022-09-08T20:33:00Z","perimeter_time_utc":null,"perimeter_edit_time_utc":"2022-09-09T13:20:41Z","incident_modified_time_utc":"2022-09-09T20:03:28Z","containment_time_utc":"2022-09-09T18:45:00Z","control_time_utc":null,"fire_out_time_utc":null,"fire_cause":"Undetermined","fire_cause_general":null,"map_method":"GPS-Unknown Travel Method","source_dataset":"2022 NIFS","unique_fire_identifier":"2022-WYPLX-220451","irwin_id":"{DCCE57EB-EDAE-461E-A2D7-6C041D109C9D}","global_id":"d474e27e-33e5-40d3-9b0c-3ce1b7bdd69d"}},{"type":"Feature","geometry":{"type":"MultiPolygon","coordinates":[[[[-104.28819,44.31147],[-104.28692,44.31095],[-104.28631,44.31091],[-104.2849,44.31027],[-104.28443,44.31024],[-104.28414,44.31042],[-104.2837,44.31013],[-104.28323,44.31015],[-104.28313,44.31005],[-104.28317,44.30971],[-104.28277,44.30914],[-104.28213,44.30903],[-104.28201,44.30926],[-104.28181,44.30919],[-104.28177,44.309],[-104.28155,44.30902],[-104.2814,44.30888],[-104.28107,44.30836],[-104.28098,44.3083],[-104.28084,44.30852],[-104.28068,44.30828],[-104.28069,44.3079],[-104.28017,44.30728],[-104.27953,44.30696],[-104.27835,44.30663],[-104.27696,44.3067],[-104.2767,44.30695],[-104.2755,44.30665],[-104.2758,44.30696],[-104.27549,44.30716],[-104.27569,44.30747],[-104.27571,44.30776],[-104.27456,44.30846],[-104.27327,44.30903],[-104.27187,44.30923],[-104.27106,44.30904],[-104.26862,44.30905],[-104.26772,44.30919],[-104.26663,44.30911],[-104.26631,44.30919],[-104.2663,44.30901],[-104.26609,44.30914],[-104.26536,44.3091],[-104.26479,44.30958],[-104.2638,44.31003],[-104.26353,44.30963],[-104.26444,44.30898],[-104.26412,44.3089],[-104.2638,44.30914],[-104.26312,44.30916],[-104.26259,44.3084],[-104.26086,44.30796],[-104.2609,44.30758],[-104.26059,44.30772],[-104.26039,44.30806],[-104.25922,44.3084],[-104.25902,44.30819],[-104.25916,44.30768],[-104.2589,44.30687],[-104.25858,44.30621],[-104.25824,44.30587],[-104.25803,44.30509],[-104.25776,44.30508],[-104.25766,44.30458],[-104.25735,44.30433],[-104.25729,44.30404],[-104.25681,44.30335],[-104.25533,44.30215],[-104.25462,44.30146],[-104.2546,44.30126],[-104.25342,44.30042],[-104.25368,44.30033],[-104.25333,44.29988],[-104.25351,44.29958],[-104.25339,44.2993],[-104.25237,44.29926],[-104.25121,44.29953],[-104.25063,44.29999],[-104.25005,44.29983],[-104.2497,44.29959],[-104.2496,44.29888],[-104.24926,44.29852],[-104.24892,44.2977],[-104.24779,44.29678],[-104.24709,44.29584],[-104.24631,44.29532],[-104.2464,44.29512],[-104.24747,44.29499],[-104.24766,44.29454],[-104.24832,44.29432],[-104.24955,44.29463],[-104.24996,44.29434],[-104.25026,44.29434],[-104.25041,44.29412],[-104.25159,44.294],[-104.25176,44.29388],[-104.2507,44.29312],[-104.25028,44.29233],[-104.25002,44.29233],[-104.24987,44.29219],[-104.24896,44.29239],[-104.24894,44.29251],[-104.24874,44.29236],[-104.24851,44.29246],[-104.24821,44.29223],[-104.24723,44.29196],[-104.24682,44.29137],[-104.24531,44.29073],[-104.2449,44.29035],[-104.24495,44.29022],[-104.24549,44.29014],[-104.24547,44.28975],[-104.24566,44.28973],[-104.24598,44.28939],[-104.24648,44.28929],[-104.24651,44.2891],[-104.24608,44.28821],[-104.24614,44.28785],[-104.24602,44.2877],[-104.24565,44.28761],[-104.24581,44.28721],[-104.24557,44.28692],[-104.24566,44.28515],[-104.24595,44.28447],[-104.24629,44.28432],[-104.24632,44.28398],[-104.24606,44.28347],[-104.2462,44.28229],[-104.24508,44.28141],[-104.24513,44.28089],[-104.24546,44.28042],[-104.24619,44.27992],[-104.2466,44.27939],[-104.24772,44.27904],[-104.2476,44.27893],[-104.24767,44.27883],[-104.2485,44.27877],[-104.24847,44.27869],[-104.25041,44.27827],[-104.25157,44.27825],[-104.25166,44.27811],[-104.2513,44.27802],[-104.25123,44.27779],[-104.25257,44.27689],[-104.25278,44.27627],[-104.25245,44.27575],[-104.25239,44.2753],[-104.25153,44.27481],[-104.25117,44.27431],[-104.25038,44.27368],[-104.25008,44.27306],[-104.24922,44.273],[-104.24961,44.27375],[-104.24929,44.27442],[-104.24884,44.27444],[-104.24869,44.27467],[-104.24749,44.27452],[-104.24716,44.274],[-104.24676,44.27407],[-104.24657,44.27426],[-104.24664,44.27436],[-104.24631,44.27444],[-104.24564,44.27403],[-104.24544,44.27311],[-104.24511,44.27276],[-104.24529,44.27261],[-104.24593,44.27226],[-104.24604,44.27208],[-104.24696,44.27216],[-104.2477,44.27201],[-104.24847,44.271],[-104.24946,44.27041],[-104.2502,44.2703],[-104.2494,44.2698],[-104.24865,44.26991],[-104.24806,44.26958],[-104.24755,44.26953],[-104.24745,44.2691],[-104.24765,44.26873],[-104.24756,44.26862],[-104.24689,44.26854],[-104.24643,44.26868],[-104.24599,44.26863],[-104.24625,44.26844],[-104.24519,44.26825],[-104.24456,44.26792],[-104.24489,44.26788],[-104.24447,44.26746],[-104.24295,44.26698],[-104.24259,44.26729],[-104.24267,44.26745],[-104.24252,44.26782],[-104.24199,44.26788],[-104.24173,44.26812],[-104.24208,44.26844],[-104.24208,44.26864],[-104.24163,44.26885],[-104.24104,44.26875],[-104.24049,44.2684],[-104.24011,44.2685],[-104.23917,44.26809],[-104.23928,44.26793],[-104.24035,44.26805],[-104.24066,44.26797],[-104.2407,44.26755],[-104.24037,44.26726],[-104.23985,44.26705],[-104.23982,44.26692],[-104.24009,44.26685],[-104.2402,44.26664],[-104.24018,44.26597],[-104.24002,44.26571],[-104.2402,44.26546],[-104.24013,44.26511],[-104.23983,44.26499],[-104.2398,44.26477],[-104.24007,44.26461],[-104.23966,44.2643],[-104.24105,44.26371],[-104.24071,44.26341],[-104.24073,44.26328],[-104.24015,44.26318],[-104.24008,44.26308],[-104.24033,44.26302],[-104.24026,44.26289],[-104.2401,44.26294],[-104.23889,44.26229],[-104.23994,44.26188],[-104.23956,44.26141],[-104.2398,44.26139],[-104.23997,44.26153],[-104.24004,44.26136],[-104.24026,44.26145],[-104.24033,44.26163],[-104.24178,44.26162],[-104.24194,44.26128],[-104.24161,44.26057],[-104.24157,44.26007],[-104.24235,44.26008],[-104.2423,44.25959],[-104.24211,44.25926],[-104.24051,44.25912],[-104.24036,44.25893],[-104.24049,44.25872],[-104.24042,44.25841],[-104.24005,44.2583],[-104.23942,44.25849],[-104.23938,44.25831],[-104.23916,44.25832],[-104.23926,44.25808],[-104.23908,44.25773],[-104.2387,44.25752],[-104.23859,44.25717],[-104.23882,44.25666],[-104.23969,44.25667],[-104.24187,44.25587],[-104.24254,44.25528],[-104.24257,44.25504],[-104.24241,44.25485],[-104.24184,44.2548],[-104.24178,44.25453],[-104.2408,44.25407],[-104.24027,44.25345],[-104.23967,44.25329],[-104.2398,44.25309],[-104.23786,44.25215],[-104.23788,44.25197],[-104.23808,44.25182],[-104.23859,44.25178],[-104.23968,44.25198],[-104.24034,44.25176],[-104.23965,44.25103],[-104.23965,44.25077],[-104.24037,44.25014],[-104.24072,44.24908],[-104.24087,44.24894],[-104.24103,44.24907],[-104.24114,44.24897],[-104.24105,44.24867],[-104.24124,44.2485],[-104.24164,44.24848],[-104.24306,44.24862],[-104.24304,44.24846],[-104.24375,44.24806],[-104.24356,44.24756],[-104.243,44.24751],[-104.24283,44.24718],[-104.24265,44.24716],[-104.24254,44.24699],[-104.24207,44.247],[-104.24197,44.24693],[-104.24207,44.2468],[-104.24184,44.24672],[-104.24181,44.24651],[-104.24195,44.24638],[-104.24187,44.24626],[-104.24213,44.24581],[-104.24167,44.24538],[-104.24193,44.24491],[-104.2413,44.24432],[-104.24127,44.24412],[-104.2419,44.24337],[-104.24154,44.24312],[-104.24113,44.24303],[-104.2412,44.24288],[-104.24078,44.24283],[-104.24051,44.24262],[-104.2406,44.24246],[-104.24043,44.24244],[-104.24069,44.24199],[-104.24123,44.24197],[-104.24119,44.24187],[-104.24171,44.24163],[-104.2388,44.24104],[-104.23858,44.24082],[-104.23858,44.24057],[-104.23882,44.24035],[-104.23986,44.24016],[-104.23994,44.23994],[-104.24057,44.2399],[-104.24448,44.23792],[-104.2444,44.23728],[-104.24457,44.23692],[-104.24462,44.23608],[-104.24491,44.23545],[-104.24548,44.2348],[-104.24525,44.23491],[-104.24493,44.23483],[-104.24486,44.23465],[-104.24503,44.23446],[-104.2449,44.23441],[-104.2449,44.23425],[-104.24504,44.23399],[-104.24582,44.23408],[-104.24689,44.23454],[-104.2477,44.23467],[-104.24784,44.2343],[-104.24723,44.23401],[-104.24731,44.2339],[-104.24702,44.23334],[-104.24757,44.23301],[-104.24786,44.23325],[-104.24814,44.23305],[-104.24909,44.23368],[-104.24951,44.23366],[-104.24979,44.23408],[-104.25018,44.23432],[-104.2506,44.23452],[-104.2517,44.23469],[-104.2532,44.23567],[-104.25365,44.23584],[-104.25447,44.23582],[-104.25588,44.23539],[-104.25733,44.23523],[-104.25863,44.23447],[-104.26,44.23404],[-104.26133,44.2342],[-104.26194,44.23455],[-104.2619,44.23505],[-104.26219,44.23575],[-104.26197,44.2363],[-104.26365,44.23622],[-104.26375,44.23632],[-104.26349,44.23695],[-104.26285,44.23733],[-104.26251,44.23782],[-104.26189,44.2382],[-104.26095,44.23959],[-104.26088,44.23974],[-104.26125,44.24041],[-104.26101,44.24108],[-104.26127,44.24157],[-104.26239,44.2419],[-104.26339,44.24172],[-104.26364,44.24145],[-104.26415,44.24225],[-104.26429,44.24223],[-104.2655,44.24191],[-104.26567,44.24159],[-104.26543,44.24108],[-104.26574,44.24088],[-104.26596,44.2409],[-104.26609,44.24112],[-104.26681,44.24083],[-104.26676,44.24116],[-104.26714,44.24121],[-104.26707,44.24085],[-104.26744,44.24095],[-104.26736,44.24032],[-104.26762,44.24026],[-104.26828,44.24055],[-104.26852,44.2408],[-104.26854,44.24105],[-104.26905,44.2413],[-104.26916,44.24152],[-104.269,44.24151],[-104.2691,44.24178],[-104.26946,44.24183],[-104.2707,44.24156],[-104.27137,44.24158],[-104.27284,44.2426],[-104.27341,44.24282],[-104.27339,44.24323],[-104.2741,44.24328],[-104.27415,44.24316],[-104.27442,44.24314],[-104.27501,44.24366],[-104.27564,44.24389],[-104.27615,44.24392],[-104.27715,44.24436],[-104.27728,44.24456],[-104.27706,44.24461],[-104.27704,44.24473],[-104.2767,44.24472],[-104.27464,44.24373],[-104.27472,44.244],[-104.27498,44.24419],[-104.27484,44.24425],[-104.27423,44.24375],[-104.27414,44.24387],[-104.27422,44.24472],[-104.27579,44.24486],[-104.27609,44.2454],[-104.27629,44.24535],[-104.27757,44.24566],[-104.27791,44.24619],[-104.27845,44.2466],[-104.27863,44.24712],[-104.27889,44.24735],[-104.27964,44.2477],[-104.27993,44.24758],[-104.27988,44.24903],[-104.27876,44.24874],[-104.27721,44.24804],[-104.27473,44.2466],[-104.27366,44.2473],[-104.2727,44.24771],[-104.27198,44.24779],[-104.27105,44.24751],[-104.26977,44.24685],[-104.26898,44.24676],[-104.26727,44.24667],[-104.26679,44.24725],[-104.26732,44.24739],[-104.26781,44.24732],[-104.26858,44.24797],[-104.26898,44.24801],[-104.27047,44.24872],[-104.27266,44.24938],[-104.27263,44.2497],[-104.27234,44.24992],[-104.27264,44.25035],[-104.27362,44.25085],[-104.27511,44.25138],[-104.27532,44.25197],[-104.27508,44.25234],[-104.27539,44.2526],[-104.27597,44.25266],[-104.27636,44.25253],[-104.2765,44.25232],[-104.27689,44.25234],[-104.27747,44.25291],[-104.27858,44.25358],[-104.2791,44.25424],[-104.28052,44.25495],[-104.28049,44.25554],[-104.28014,44.25569],[-104.27972,44.25611],[-104.27993,44.25622],[-104.28028,44.25618],[-104.2804,44.25627],[-104.2803,44.25645],[-104.28073,44.25656],[-104.28098,44.2568],[-104.28113,44.25743],[-104.28082,44.25763],[-104.28082,44.25808],[-104.28142,44.25821],[-104.28149,44.25838],[-104.28098,44.25841],[-104.28103,44.25877],[-104.2814,44.25907],[-104.28126,44.2593],[-104.28074,44.25941],[-104.28069,44.26001],[-104.27996,44.26035],[-104.28107,44.26123],[-104.28063,44.26146],[-104.28042,44.26179],[-104.28071,44.26199],[-104.28062,44.26224],[-104.28026,44.26248],[-104.27992,44.26313],[-104.28017,44.26324],[-104.28019,44.26387],[-104.28076,44.26432],[-104.28076,44.26465],[-104.28021,44.26607],[-104.28033,44.26642],[-104.28237,44.26626],[-104.28316,44.26661],[-104.28322,44.26693],[-104.28396,44.26661],[-104.2851,44.26767],[-104.28621,44.26824],[-104.28638,44.26882],[-104.28621,44.26928],[-104.28685,44.26942],[-104.28715,44.26982],[-104.28827,44.27011],[-104.28844,44.27039],[-104.2884,44.27065],[-104.29014,44.27099],[-104.29209,44.27341],[-104.29197,44.27409],[-104.29147,44.27491],[-104.29096,44.27531],[-104.2905,44.27596],[-104.29025,44.276],[-104.29045,44.27637],[-104.2898,44.27781],[-104.28883,44.27857],[-104.2886,44.27985],[-104.28872,44.28018],[-104.28947,44.28023],[-104.28941,44.28044],[-104.28974,44.28086],[-104.29103,44.28023],[-104.29218,44.27992],[-104.29495,44.27991],[-104.29538,44.28009],[-104.29659,44.27999],[-104.29938,44.28043],[-104.30075,44.28099],[-104.30102,44.28129],[-104.30162,44.28261],[-104.30295,44.28336],[-104.30382,44.28302],[-104.30421,44.2822],[-104.30522,44.28207],[-104.30562,44.28279],[-104.30683,44.2834],[-104.30699,44.28394],[-104.30775,44.28519],[-104.3081,44.28678],[-104.30839,44.28729],[-104.30948,44.28732],[-104.30957,44.2882],[-104.30919,44.28863],[-104.30816,44.28869],[-104.30787,44.2886],[-104.30781,44.2891],[-104.30747,44.28931],[-104.30732,44.28976],[-104.30759,44.29033],[-104.30801,44.29061],[-104.30817,44.29106],[-104.30712,44.29159],[-104.3049,44.29221],[-104.30447,44.29256],[-104.30484,44.29313],[-104.30462,44.29386],[-104.30417,44.29466],[-104.30374,44.29632],[-104.30342,44.29674],[-104.30285,44.29673],[-104.30292,44.29698],[-104.30323,44.29723],[-104.30275,44.29746],[-104.30257,44.29812],[-104.30221,44.2985],[-104.3019,44.29913],[-104.30168,44.29924],[-104.30224,44.29938],[-104.30185,44.30148],[-104.29853,44.30145],[-104.29745,44.30186],[-104.29681,44.30168],[-104.29648,44.30138],[-104.29614,44.3013],[-104.29564,44.3015],[-104.29534,44.30136],[-104.29369,44.30263],[-104.29294,44.30294],[-104.29252,44.30276],[-104.29245,44.30322],[-104.29271,44.30373],[-104.2928,44.30426],[-104.29256,44.30476],[-104.29274,44.3051],[-104.29314,44.30535],[-104.29341,44.30572],[-104.29333,44.30592],[-104.29272,44.30621],[-104.29295,44.30641],[-104.29292,44.30654],[-104.29271,44.3071],[-104.29218,44.30746],[-104.29209,44.30789],[-104.29223,44.30804],[-104.29216,44.30841],[-104.29195,44.3086],[-104.29147,44.30868],[-104.29091,44.30899],[-104.29079,44.30889],[-104.28955,44.30922],[-104.28941,44.30942],[-104.28899,44.3095],[-104.28886,44.30967],[-104.28948,44.31016],[-104.28962,44.31045],[-104.28846,44.31137],[-104.28819,44.31147]]],[[[-104.29683,44.27764],[-104.29781,44.27747],[-104.29913,44.27847],[-104.29883,44.27888],[-104.29827,44.27882],[-104.29644,44.27795],[-104.29683,44.27764]]]]},"properties":{"fire_id":"ufid:2022-WYCRX-220541","source_collection":"history-2022","source_objectid":13643,"incident_name":"Fish","mapped_acres":6793.24566595355,"mapped_acres_source":"poly_GISAcres","gis_acres":6793.24566595355,"auto_acres":6793.22040882468,"reported_acres":6793.0,"percent_contained":100.0,"state":"WY","state_wfigs":"US-WY","county":"Crook","discovery_time_utc":"2022-07-31T17:34:00Z","perimeter_time_utc":"2022-08-09T12:50:00Z","perimeter_edit_time_utc":"2022-08-09T20:01:20Z","incident_modified_time_utc":"2022-12-05T16:50:46Z","containment_time_utc":"2022-08-14T21:00:00Z","control_time_utc":"2022-08-30T20:00:00Z","fire_out_time_utc":"2022-10-17T14:00:00Z","fire_cause":"Human","fire_cause_general":null,"map_method":"IR Image Interpretation","source_dataset":"2022 NIFS","unique_fire_identifier":"2022-WYCRX-220541","irwin_id":"{498E4142-184F-4775-9933-A6FC0DD660A0}","global_id":"72128dd2-e822-4de2-9f67-0a649042fcb2"}},{"type":"Feature","geometry":{"type":"MultiPolygon","coordinates":[[[[-104.84176,43.21165],[-104.84158,43.211681],[-104.84158,43.21168],[-104.84176,43.21165]]],[[[-104.8374,43.22506],[-104.83744,43.22505],[-104.8374,43.22507],[-104.8374,43.22506]]],[[[-104.8614,43.22912],[-104.86142,43.2291],[-104.86151,43.2291],[-104.8614,43.22912]]],[[[-104.82811,43.23356],[-104.82808,43.2336],[-104.82803,43.2336],[-104.82811,43.23356]]],[[[-104.8657,43.23073],[-104.86601,43.23123],[-104.86666,43.23168],[-104.86848,43.23228],[-104.86902,43.23309],[-104.86922,43.23381],[-104.86971,43.23445],[-104.86991,43.23441],[-104.87009,43.23462],[-104.87046,43.23458],[-104.87126,43.23494],[-104.87191,43.2348],[-104.87245,43.23485],[-104.87264,43.23553],[-104.87343,43.2362],[-104.87376,43.23764],[-104.87438,43.2384],[-104.8761,43.23931],[-104.87894,43.23934],[-104.88132,43.24065],[-104.88252,43.24159],[-104.88266,43.24226],[-104.88333,43.24323],[-104.88368,43.24438],[-104.88397,43.24485],[-104.88393,43.24514],[-104.8847,43.24552],[-104.88633,43.24589],[-104.8869,43.24639],[-104.88761,43.24665],[-104.88789,43.24705],[-104.88859,43.24715],[-104.88895,43.24759],[-104.88975,43.24766],[-104.88972,43.24781],[-104.88936,43.24797],[-104.88928,43.2482],[-104.88979,43.24902],[-104.8898,43.24954],[-104.89019,43.2499],[-104.89029,43.25076],[-104.89054,43.25136],[-104.89122,43.25227],[-104.8914,43.25291],[-104.89169,43.25314],[-104.89291,43.25613],[-104.89352,43.2567],[-104.89699,43.25854],[-104.89857,43.25998],[-104.89834,43.26005],[-104.89524,43.2598],[-104.89521,43.2599],[-104.8964,43.26126],[-104.89801,43.26131],[-104.89794,43.26298],[-104.89932,43.26468],[-104.89982,43.26482],[-104.90023,43.26518],[-104.90216,43.26525],[-104.90266,43.26548],[-104.90239,43.26739],[-104.90134,43.26965],[-104.90111,43.26992],[-104.90077,43.27009],[-104.90025,43.26968],[-104.89946,43.2687],[-104.89933,43.26835],[-104.89875,43.26791],[-104.89598,43.26506],[-104.89591,43.26491],[-104.89611,43.26451],[-104.89439,43.26257],[-104.89424,43.26194],[-104.89441,43.26164],[-104.89443,43.26126],[-104.89411,43.26029],[-104.89275,43.25927],[-104.89238,43.25928],[-104.89186,43.25951],[-104.88889,43.25963],[-104.88696,43.25953],[-104.88365,43.25907],[-104.88088,43.25911],[-104.87727,43.25834],[-104.87677,43.25845],[-104.87465,43.25822],[-104.87349,43.25774],[-104.87161,43.25803],[-104.87096,43.25798],[-104.86971,43.25736],[-104.86828,43.25734],[-104.86789,43.25681],[-104.86744,43.25708],[-104.86649,43.25714],[-104.86173,43.25701],[-104.86155,43.2569],[-104.861,43.25709],[-104.86057,43.25701],[-104.85951,43.25738],[-104.85912,43.25771],[-104.85851,43.25781],[-104.85792,43.25809],[-104.85571,43.25845],[-104.85362,43.25842],[-104.85186,43.25888],[-104.84979,43.25861],[-104.84781,43.25814],[-104.84598,43.25799],[-104.84344,43.2573],[-104.84286,43.25689],[-104.84254,43.25689],[-104.84264,43.25675],[-104.84251,43.25657],[-104.84163,43.2564],[-104.84156,43.25628],[-104.84169,43.25597],[-104.84155,43.25577],[-104.84104,43.25568],[-104.84062,43.25581],[-104.84056,43.25556],[-104.84021,43.25542],[-104.84022,43.25514],[-104.83957,43.25459],[-104.83821,43.25237],[-104.83827,43.25213],[-104.83888,43.25162],[-104.83896,43.25123],[-104.83837,43.25092],[-104.83748,43.25076],[-104.83689,43.25047],[-104.83697,43.25021],[-104.8374,43.25017],[-104.83791,43.24993],[-104.8381,43.24955],[-104.83794,43.24927],[-104.83797,43.24876],[-104.83843,43.24876],[-104.83871,43.2485],[-104.83843,43.24808],[-104.83775,43.24785],[-104.8377,43.24744],[-104.83738,43.24702],[-104.83746,43.24675],[-104.83672,43.24652],[-104.83635,43.24621],[-104.83615,43.24554],[-104.83563,43.2453],[-104.83584,43.24509],[-104.83567,43.2447],[-104.83537,43.24442],[-104.83517,43.24442],[-104.83418,43.24372],[-104.83279,43.24301],[-104.83227,43.24247],[-104.83164,43.24246],[-104.83135,43.24271],[-104.8315,43.24341],[-104.83186,43.24389],[-104.83168,43.24412],[-104.83074,43.2438],[-104.83024,43.24348],[-104.83018,43.24332],[-104.83035,43.24312],[-104.83032,43.24296],[-104.8297,43.2432],[-104.82939,43.24267],[-104.8278,43.24193],[-104.82698,43.24121],[-104.82639,43.23975],[-104.82641,43.23935],[-104.82704,43.23811],[-104.82699,43.23776],[-104.82484,43.23619],[-104.82447,43.23567],[-104.82454,43.23544],[-104.82506,43.23519],[-104.82521,43.23497],[-104.82641,43.23517],[-104.82781,43.23491],[-104.82789,43.23466],[-104.82737,43.23464],[-104.82729,43.23441],[-104.82821,43.23424],[-104.82797,43.23388],[-104.82811,43.23356],[-104.82834,43.23352],[-104.82822,43.23319],[-104.82862,43.23317],[-104.82888,43.23331],[-104.82976,43.2325],[-104.82968,43.23175],[-104.82978,43.23131],[-104.83078,43.23068],[-104.83131,43.23],[-104.83066,43.2297],[-104.83052,43.22941],[-104.83052,43.22879],[-104.82973,43.22818],[-104.82941,43.22755],[-104.8287,43.22723],[-104.82902,43.22683],[-104.82834,43.22662],[-104.82828,43.22642],[-104.82794,43.22621],[-104.8279,43.22608],[-104.82814,43.22585],[-104.82793,43.22567],[-104.82778,43.22514],[-104.82733,43.22512],[-104.82605,43.22394],[-104.82644,43.22367],[-104.82637,43.2234],[-104.82649,43.22312],[-104.82632,43.22285],[-104.82598,43.22264],[-104.82628,43.22257],[-104.82624,43.22245],[-104.82562,43.22239],[-104.82524,43.22204],[-104.82586,43.22182],[-104.8256,43.22094],[-104.82492,43.22033],[-104.82416,43.22028],[-104.82401,43.22002],[-104.82551,43.21993],[-104.82529,43.21939],[-104.82471,43.21966],[-104.82389,43.21955],[-104.824,43.2193],[-104.82355,43.21895],[-104.82377,43.21853],[-104.8237,43.21815],[-104.82316,43.21787],[-104.82276,43.21744],[-104.82211,43.21715],[-104.82221,43.21686],[-104.8225,43.2166],[-104.8224,43.21622],[-104.82203,43.21599],[-104.82236,43.21583],[-104.82216,43.21569],[-104.82234,43.21539],[-104.82153,43.21496],[-104.82124,43.21497],[-104.82106,43.21464],[-104.82074,43.2144],[-104.82074,43.21412],[-104.82136,43.214],[-104.82102,43.21369],[-104.82115,43.21352],[-104.82102,43.21338],[-104.82089,43.21238],[-104.82105,43.21215],[-104.82146,43.2121],[-104.82169,43.21288],[-104.82206,43.21316],[-104.82246,43.21319],[-104.82269,43.21337],[-104.82288,43.21332],[-104.82302,43.21289],[-104.82331,43.21265],[-104.82303,43.21216],[-104.82312,43.21141],[-104.8224,43.2107],[-104.82166,43.21032],[-104.82133,43.21],[-104.82117,43.20962],[-104.82143,43.20938],[-104.82129,43.20916],[-104.82094,43.20901],[-104.82088,43.20866],[-104.82134,43.20872],[-104.82176,43.20903],[-104.82202,43.20862],[-104.82144,43.20807],[-104.82144,43.20789],[-104.82105,43.2079],[-104.82122,43.20777],[-104.82125,43.2075],[-104.82114,43.2074],[-104.82122,43.20687],[-104.82101,43.20612],[-104.8215,43.20658],[-104.82174,43.20651],[-104.82188,43.20627],[-104.8221,43.20642],[-104.82289,43.20629],[-104.82293,43.2064],[-104.82315,43.20624],[-104.82279,43.20552],[-104.82257,43.20444],[-104.82259,43.20416],[-104.82286,43.20367],[-104.8231,43.20354],[-104.82311,43.2033],[-104.82333,43.20335],[-104.82314,43.20385],[-104.82319,43.204],[-104.82295,43.20429],[-104.82317,43.2045],[-104.82323,43.20492],[-104.8234,43.20513],[-104.82333,43.20552],[-104.82373,43.206],[-104.82363,43.20638],[-104.82392,43.20681],[-104.82373,43.20744],[-104.82401,43.20754],[-104.82446,43.20702],[-104.82501,43.20724],[-104.82449,43.20765],[-104.82493,43.2079],[-104.82461,43.2084],[-104.82428,43.20862],[-104.82432,43.20923],[-104.82413,43.20949],[-104.8242,43.20997],[-104.8245,43.21016],[-104.82436,43.21076],[-104.82472,43.21123],[-104.82453,43.21139],[-104.82455,43.21196],[-104.82495,43.21212],[-104.82537,43.21278],[-104.82567,43.21288],[-104.82569,43.21323],[-104.82611,43.21343],[-104.82592,43.2137],[-104.82614,43.21391],[-104.82566,43.21414],[-104.82547,43.21452],[-104.82616,43.2145],[-104.8261,43.21471],[-104.82653,43.21482],[-104.82652,43.2156],[-104.8268,43.21582],[-104.82683,43.21628],[-104.82752,43.21594],[-104.82699,43.21515],[-104.8271,43.21511],[-104.8271,43.21488],[-104.82693,43.21445],[-104.82713,43.2144],[-104.82738,43.21464],[-104.82739,43.21494],[-104.82809,43.21551],[-104.82854,43.21613],[-104.82894,43.2164],[-104.82933,43.21643],[-104.82922,43.21692],[-104.82937,43.21752],[-104.82987,43.21813],[-104.83057,43.21817],[-104.83061,43.21853],[-104.83088,43.21857],[-104.83123,43.21897],[-104.83166,43.21895],[-104.83226,43.21929],[-104.8326,43.22045],[-104.83312,43.22064],[-104.83356,43.21991],[-104.83394,43.22053],[-104.83385,43.22105],[-104.83394,43.22129],[-104.83342,43.22199],[-104.8325,43.22178],[-104.83325,43.22253],[-104.83313,43.22275],[-104.8323,43.22292],[-104.83212,43.22364],[-104.83264,43.2237],[-104.83296,43.22353],[-104.83377,43.22375],[-104.83382,43.2239],[-104.83352,43.22448],[-104.83437,43.2243],[-104.83489,43.22454],[-104.83519,43.2243],[-104.83512,43.22396],[-104.83526,43.22352],[-104.83594,43.22356],[-104.83688,43.22417],[-104.83709,43.22407],[-104.83704,43.22379],[-104.83714,43.22371],[-104.83744,43.22417],[-104.83713,43.22482],[-104.83681,43.22492],[-104.83757,43.22519],[-104.83784,43.22484],[-104.8378,43.22456],[-104.83797,43.22418],[-104.83821,43.22407],[-104.83838,43.22366],[-104.83829,43.22302],[-104.83855,43.22227],[-104.83958,43.22241],[-104.84002,43.22221],[-104.84008,43.22242],[-104.8404,43.22261],[-104.84046,43.22284],[-104.84096,43.22265],[-104.84132,43.22215],[-104.84157,43.22204],[-104.84139,43.22112],[-104.84068,43.22112],[-104.84018,43.22058],[-104.84046,43.22053],[-104.84068,43.22013],[-104.83988,43.21993],[-104.83975,43.21969],[-104.83986,43.21931],[-104.83929,43.21909],[-104.83934,43.21868],[-104.83969,43.21846],[-104.83957,43.21806],[-104.83904,43.21764],[-104.83938,43.21731],[-104.83889,43.21705],[-104.83889,43.21622],[-104.83904,43.21592],[-104.83892,43.21564],[-104.83861,43.21572],[-104.83737,43.2153],[-104.83717,43.21442],[-104.83721,43.21406],[-104.83702,43.21381],[-104.83644,43.21362],[-104.83645,43.21335],[-104.83632,43.21357],[-104.8361,43.21351],[-104.83601,43.21332],[-104.83541,43.21301],[-104.83417,43.21179],[-104.83444,43.2116],[-104.83487,43.21206],[-104.83577,43.21256],[-104.83655,43.2126],[-104.83662,43.21251],[-104.83647,43.21234],[-104.8358,43.21227],[-104.83512,43.21191],[-104.83509,43.2116],[-104.83555,43.21151],[-104.8358,43.21099],[-104.83535,43.21056],[-104.83536,43.21044],[-104.83578,43.2102],[-104.83655,43.21032],[-104.83727,43.21008],[-104.83852,43.21003],[-104.83929,43.21119],[-104.83948,43.21132],[-104.83996,43.21132],[-104.83979,43.21163],[-104.84,43.21195],[-104.84158,43.211681],[-104.84162,43.21181],[-104.84138,43.21192],[-104.8413,43.21217],[-104.84059,43.21217],[-104.84035,43.21243],[-104.84095,43.21287],[-104.84154,43.21295],[-104.84211,43.2133],[-104.84239,43.21322],[-104.84245,43.21349],[-104.84302,43.21434],[-104.84287,43.21458],[-104.84298,43.21483],[-104.8429,43.21532],[-104.84312,43.21549],[-104.84306,43.21591],[-104.84328,43.21623],[-104.84304,43.21639],[-104.84234,43.21646],[-104.84222,43.21605],[-104.84201,43.21608],[-104.84209,43.21643],[-104.84192,43.21682],[-104.84196,43.21743],[-104.84237,43.21797],[-104.84221,43.21887],[-104.84295,43.21917],[-104.84368,43.21922],[-104.8435,43.21911],[-104.84413,43.21848],[-104.84405,43.21778],[-104.84444,43.21759],[-104.84466,43.21727],[-104.84501,43.21788],[-104.84587,43.21845],[-104.84637,43.2186],[-104.84658,43.21824],[-104.84672,43.21823],[-104.8472,43.21868],[-104.84803,43.21899],[-104.84842,43.21944],[-104.84853,43.21977],[-104.84833,43.22008],[-104.84851,43.2206],[-104.8496,43.22077],[-104.84979,43.2205],[-104.85014,43.22051],[-104.85053,43.22102],[-104.85126,43.22139],[-104.8516,43.22137],[-104.85262,43.22194],[-104.85315,43.22294],[-104.85531,43.22477],[-104.85603,43.22572],[-104.85633,43.22585],[-104.85751,43.22584],[-104.85786,43.22595],[-104.86011,43.22813],[-104.8614,43.22912],[-104.86297,43.22966],[-104.86521,43.23072],[-104.8657,43.23073]],[[-104.82273,43.20655],[-104.82319,43.20713],[-104.82293,43.2064],[-104.82273,43.20655]]]]},"properties":{"fire_id":"ufid:2022-WYWYS-220299","source_collection":"history-2022","source_objectid":23930,"incident_name":"COW CREEK","mapped_acres":3997.075,"mapped_acres_source":"poly_GISAcres","gis_acres":3997.075,"auto_acres":4000.245716248568,"reported_acres":3997.07,"percent_contained":null,"state":"WY","state_wfigs":"US-WY","county":"Converse","discovery_time_utc":"2022-08-01T20:12:00Z","perimeter_time_utc":"2024-02-02T18:29:54Z","perimeter_edit_time_utc":"2024-02-02T18:29:54Z","incident_modified_time_utc":"2022-08-24T19:15:19Z","containment_time_utc":"2022-08-24T19:00:00Z","control_time_utc":"2022-08-24T19:10:00Z","fire_out_time_utc":"2022-08-24T19:15:00Z","fire_cause":"Undetermined","fire_cause_general":"Undetermined","map_method":"GPS-Unknown Travel Method","source_dataset":"FFP","unique_fire_identifier":"2022-WYWYS-220299","irwin_id":"{565BE5DD-261C-46A4-BAD8-01479F15666E}","global_id":"a383d8e4-f8dc-4a1a-bb3e-3a4d0deb9188"}}]}
