{"type":"FeatureCollection","features":[{"type":"Feature","geometry":{"type":"Polygon","coordinates":[[[-151.39695,66.67773],[-151.39723,66.67816],[-151.39812,66.67835],[-151.39814,66.67844],[-151.3962,66.6782],[-151.39576,66.67823],[-151.39547,66.6784],[-151.39509,66.67827],[-151.39533,66.67819],[-151.39482,66.67795],[-151.39467,66.67773],[-151.39248,66.677],[-151.39285,66.67684],[-151.39299,66.67657],[-151.39415,66.67674],[-151.39517,66.67627],[-151.3955,66.67624],[-151.39559,66.67635],[-151.39537,66.67667],[-151.39566,66.67687],[-151.39551,66.67706],[-151.39562,66.67721],[-151.39695,66.67773]]]},"properties":{"fire_id":"ufid:2021-AKTAD-000237","source_collection":"history-2021","source_objectid":2684,"incident_name":"Rabbit","mapped_acres":5.3,"mapped_acres_source":"poly_GISAcres","gis_acres":5.3,"auto_acres":5.33148361090303,"reported_acres":5.3,"percent_contained":null,"state":"AK","state_wfigs":"US-AK","county":"Yukon-Koyukuk","discovery_time_utc":"2021-06-19T04:47:00Z","perimeter_time_utc":"2021-07-22T21:55:00Z","perimeter_edit_time_utc":"2021-07-27T21:44:02Z","incident_modified_time_utc":"2021-08-13T18:37:07Z","containment_time_utc":"2021-07-29T19:40:00Z","control_time_utc":"2021-07-29T19:50:00Z","fire_out_time_utc":"2021-07-29T20:00:00Z","fire_cause":"Natural","fire_cause_general":"Lightning","map_method":"Image Interpretation","source_dataset":"2021 NIFS","unique_fire_identifier":"2021-AKTAD-000237","irwin_id":"{A8050D19-23D1-42E6-A76E-8E2FA2230137}","global_id":"a828ed5a-67ee-4032-bc56-392bf1a1d8ce"}},{"type":"Feature","geometry":{"type":"Polygon","coordinates":[[[-150.65405,66.16774],[-150.65593,66.16768],[-150.65772,66.16741],[-150.65776,66.16706],[-150.65742,66.16674],[-150.66179,66.16688],[-150.66783,66.16762],[-150.67245,66.16766],[-150.67374,66.1684],[-150.67446,66.16964],[-150.6755,66.17037],[-150.67484,66.17066],[-150.67545,66.17179],[-150.675,66.17239],[-150.67434,66.17269],[-150.67446,66.17376],[-150.6741,66.17461],[-150.67255,66.17504],[-150.67028,66.17515],[-150.66984,66.1757],[-150.66969,66.17686],[-150.66804,66.17805],[-150.66652,66.17817],[-150.66042,66.17795],[-150.65691,66.17696],[-150.65409,66.17649],[-150.65173,66.17629],[-150.6488,66.17567],[-150.64805,66.17469],[-150.64639,66.17395],[-150.64611,66.17318],[-150.64796,66.1724],[-150.65226,66.17101],[-150.65346,66.17043],[-150.65264,66.16995],[-150.65321,66.16839],[-150.65405,66.16774]]]},"properties":{"fire_id":"ufid:2021-AKTAD-000154","source_collection":"history-2021","source_objectid":3289,"incident_name":"Doll","mapped_acres":287.105269701796,"mapped_acres_source":"poly_GISAcres","gis_acres":287.105269701796,"auto_acres":287.104380438376,"reported_acres":287.1,"percent_contained":0.0,"state":"AK","state_wfigs":"US-AK","county":"Yukon-Koyukuk","discovery_time_utc":"2021-06-07T16:08:00Z","perimeter_time_utc":"2021-06-14T21:48:00Z","perimeter_edit_time_utc":"2021-07-16T16:18:32Z","incident_modified_time_utc":"2021-07-28T20:23:17Z","containment_time_utc":"2021-07-22T04:00:00Z","control_time_utc":"2021-07-22T04:00:00Z","fire_out_time_utc":"2021-07-22T04:00:00Z","fire_cause":"Natural","fire_cause_general":"Lightning","map_method":"Remote Sensing Derived","source_dataset":"2021 NIFS","unique_fire_identifier":"2021-AKTAD-000154","irwin_id":"{77DA17AA-DAE7-481A-B474-61A6D9A23E30}","global_id":"5bda3c08-4794-45c6-ac17-85ab9d03fa6f"}},{"type":"Feature","geometry":{"type":"MultiPolygon","coordinates":[[[[-150.36504,66.45836],[-150.3782,66.45504],[-150.37775,66.45571],[-150.37837,66.4564],[-150.37954,66.45661],[-150.38068,66.45616],[-150.38183,66.45474],[-150.38506,66.4538],[-150.38841,66.45248],[-150.38908,66.45195],[-150.39061,66.45135],[-150.39151,66.45116],[-150.39221,66.45044],[-150.39539,66.4508],[-150.39536,66.45017],[-150.39669,66.45001],[-150.3974,66.44974],[-150.39884,66.44977],[-150.39904,66.44998],[-150.39909,66.45036],[-150.39938,66.4505],[-150.39882,66.45112],[-150.39967,66.45112],[-150.4006,66.4516],[-150.40292,66.45199],[-150.40297,66.45165],[-150.40279,66.45125],[-150.40286,66.45076],[-150.40302,66.45066],[-150.4029,66.45028],[-150.40402,66.45004],[-150.40379,66.44955],[-150.40209,66.44958],[-150.40132,66.44936],[-150.40137,66.44922],[-150.40181,66.44909],[-150.40194,66.44846],[-150.40117,66.44795],[-150.40185,66.44747],[-150.40347,66.447],[-150.40231,66.44619],[-150.40303,66.44518],[-150.40553,66.44402],[-150.40733,66.44371],[-150.40978,66.44289],[-150.41144,66.44293],[-150.41209,66.44318],[-150.41359,66.44286],[-150.417,66.44293],[-150.41886,66.44364],[-150.42105,66.44411],[-150.42061,66.44447],[-150.42095,66.44479],[-150.42251,66.44482],[-150.42312,66.44464],[-150.42773,66.4445],[-150.42978,66.44451],[-150.43223,66.44473],[-150.43245,66.4446],[-150.43331,66.4448],[-150.43286,66.44532],[-150.43222,66.44576],[-150.42969,66.4461],[-150.42883,66.44562],[-150.42784,66.44584],[-150.42779,66.44623],[-150.42989,66.44691],[-150.43122,66.44697],[-150.43209,66.44674],[-150.43244,66.44644],[-150.43991,66.4454],[-150.44085,66.44494],[-150.44376,66.44513],[-150.44669,66.44507],[-150.44853,66.44594],[-150.44904,66.44652],[-150.45162,66.44702],[-150.45316,66.44801],[-150.45435,66.44804],[-150.45455,66.44746],[-150.45442,66.44664],[-150.45489,66.44579],[-150.45846,66.44591],[-150.45936,66.44632],[-150.4607,66.44798],[-150.46217,66.44859],[-150.46298,66.44875],[-150.46411,66.44839],[-150.46417,66.44796],[-150.46556,66.44828],[-150.46467,66.44956],[-150.46613,66.45026],[-150.46843,66.45185],[-150.46934,66.45317],[-150.47021,66.45382],[-150.47124,66.45413],[-150.47095,66.45455],[-150.46955,66.4552],[-150.46898,66.45677],[-150.46831,66.45729],[-150.46956,66.4578],[-150.47038,66.45887],[-150.46993,66.45949],[-150.46988,66.45992],[-150.47011,66.46089],[-150.46785,66.46166],[-150.46455,66.46221],[-150.46127,66.46258],[-150.45951,66.46321],[-150.45885,66.46459],[-150.45657,66.46556],[-150.45541,66.4662],[-150.45403,66.4667],[-150.45352,66.4678],[-150.45191,66.46825],[-150.44874,66.46866],[-150.44604,66.46976],[-150.44441,66.47064],[-150.43746,66.47246],[-150.43629,66.47316],[-150.43498,66.47353],[-150.43211,66.47494],[-150.42775,66.47577],[-150.4273,66.47595],[-150.42698,66.47656],[-150.42586,66.47779],[-150.42387,66.47924],[-150.42366,66.47985],[-150.42226,66.47849],[-150.41924,66.4775],[-150.41724,66.47701],[-150.41597,66.4769],[-150.41348,66.47705],[-150.4125,66.47725],[-150.41077,66.478],[-150.40819,66.47889],[-150.40625,66.4788],[-150.40544,66.47893],[-150.40473,66.47955],[-150.40253,66.48029],[-150.39415,66.48216],[-150.39288,66.48271],[-150.38938,66.48287],[-150.38642,66.48358],[-150.38471,66.48378],[-150.37826,66.48369],[-150.37379,66.48397],[-150.37494,66.48342],[-150.37344,66.48305],[-150.36928,66.48281],[-150.36544,66.48109],[-150.36424,66.4803],[-150.36456,66.47968],[-150.36351,66.47946],[-150.36236,66.48001],[-150.3615,66.48014],[-150.361,66.47945],[-150.35869,66.47791],[-150.35467,66.47758],[-150.35342,66.47712],[-150.35416,66.47603],[-150.35426,66.47536],[-150.35457,66.47479],[-150.3535,66.47476],[-150.35187,66.47444],[-150.35124,66.4738],[-150.35035,66.47325],[-150.35116,66.47259],[-150.35161,66.47193],[-150.35109,66.47134],[-150.3493,66.47222],[-150.34846,66.4722],[-150.34823,66.47128],[-150.34771,66.47074],[-150.34321,66.47035],[-150.34161,66.46983],[-150.34018,66.46893],[-150.3402,66.46788],[-150.34113,66.46722],[-150.34377,66.46632],[-150.34537,66.46592],[-150.34655,66.46522],[-150.34605,66.46449],[-150.34354,66.46444],[-150.34168,66.46411],[-150.34313,66.46308],[-150.34819,66.46199],[-150.35125,66.46061],[-150.35729,66.46017],[-150.36138,66.4592],[-150.36187,66.45868],[-150.36504,66.45836]]],[[[-150.40089,66.48365],[-150.40111,66.48357],[-150.40168,66.48416],[-150.4025,66.48556],[-150.40216,66.48706],[-150.40178,66.48676],[-150.40149,66.4854],[-150.40089,66.48365]]],[[[-150.41107,66.50144],[-150.41011,66.50172],[-150.40939,66.50213],[-150.40806,66.50241],[-150.40615,66.50239],[-150.40293,66.50141],[-150.39744,66.50033],[-150.39145,66.49861],[-150.38978,66.49852],[-150.38905,66.49774],[-150.38887,66.49465],[-150.38962,66.49265],[-150.39035,66.49216],[-150.39054,66.49271],[-150.39033,66.49351],[-150.39136,66.49462],[-150.39657,66.49537],[-150.40116,66.49547],[-150.4068,66.49519],[-150.41092,66.49447],[-150.41424,66.49327],[-150.41494,66.49213],[-150.41436,66.49131],[-150.41675,66.49305],[-150.41642,66.49411],[-150.4194,66.49495],[-150.42013,66.49548],[-150.42048,66.49558],[-150.42084,66.4965],[-150.4218,66.49739],[-150.42121,66.4982],[-150.42312,66.4991],[-150.42495,66.50068],[-150.42665,66.50048],[-150.4311,66.50125],[-150.43092,66.50264],[-150.43019,66.50359],[-150.42732,66.50357],[-150.4265,66.50433],[-150.42327,66.50512],[-150.42232,66.5051],[-150.41943,66.50427],[-150.41744,66.50399],[-150.41589,66.50304],[-150.41469,66.5021],[-150.41504,66.50134],[-150.41438,66.50089],[-150.41347,66.50053],[-150.41178,66.50059],[-150.41107,66.50144]]]]},"properties":{"fire_id":"ufid:2021-AKUYD-000188","source_collection":"history-2021","source_objectid":11809,"incident_name":"Olsons Lake","mapped_acres":4224.0,"mapped_acres_source":"poly_GISAcres","gis_acres":4224.0,"auto_acres":4223.985715878024,"reported_acres":4224.0,"percent_contained":null,"state":"AK","state_wfigs":"US-AK","county":"Yukon-Koyukuk","discovery_time_utc":"2021-06-14T03:04:00Z","perimeter_time_utc":"2021-08-31T19:00:00Z","perimeter_edit_time_utc":"2023-03-14T15:13:42Z","incident_modified_time_utc":"2021-09-10T18:10:50Z","containment_time_utc":"2021-08-04T21:39:00Z","control_time_utc":"2021-08-04T21:39:00Z","fire_out_time_utc":"2021-08-04T21:39:00Z","fire_cause":"Natural","fire_cause_general":"Natural","map_method":"Image Interpretation","source_dataset":"FFP","unique_fire_identifier":"2021-AKUYD-000188","irwin_id":"{E2262292-62A0-49AD-98B3-70CF81A74E93}","global_id":"ca41befa-a788-4a41-b3c3-653939bf4b01"}},{"type":"Feature","geometry":{"type":"Polygon","coordinates":[[[-151.27033,66.66758],[-151.27183,66.66756],[-151.27185,66.66774],[-151.2725,66.66835],[-151.2731,66.66852],[-151.2734,66.66849],[-151.27359,66.66825],[-151.27382,66.66822],[-151.27408,66.66828],[-151.27403,66.66863],[-151.27438,66.66874],[-151.2757,66.66871],[-151.27682,66.66885],[-151.2778,66.66849],[-151.28006,66.6689],[-151.28069,66.6693],[-151.2814,66.67016],[-151.28134,66.67063],[-151.28009,66.67105],[-151.2797,66.67135],[-151.27953,66.67173],[-151.28003,66.67216],[-151.28094,66.67249],[-151.28099,66.673],[-151.27998,66.67302],[-151.27915,66.67331],[-151.27905,66.67349],[-151.27753,66.67377],[-151.27609,66.67429],[-151.27635,66.67458],[-151.27583,66.67487],[-151.27548,66.67525],[-151.27585,66.67574],[-151.27514,66.6765],[-151.27363,66.67674],[-151.27335,66.67684],[-151.27306,66.67721],[-151.27235,66.67739],[-151.27227,66.67762],[-151.27289,66.67776],[-151.27284,66.67796],[-151.27207,66.67804],[-151.27104,66.67864],[-151.26997,66.67877],[-151.26964,66.67914],[-151.26862,66.67964],[-151.26733,66.67986],[-151.26755,66.68014],[-151.26686,66.68041],[-151.26309,66.6807],[-151.26262,66.68091],[-151.2615,66.6822],[-151.25935,66.68285],[-151.2571,66.6826],[-151.25633,66.68231],[-151.25628,66.68214],[-151.25668,66.68187],[-151.25607,66.68167],[-151.25561,66.68109],[-151.25523,66.681],[-151.25483,66.681],[-151.25457,66.68116],[-151.25458,66.68127],[-151.25492,66.68143],[-151.25486,66.68155],[-151.2536,66.68158],[-151.25316,66.6813],[-151.25271,66.68131],[-151.25232,66.68158],[-151.25106,66.6817],[-151.25124,66.68154],[-151.25132,66.68115],[-151.2502,66.681],[-151.24993,66.68072],[-151.25029,66.68051],[-151.25079,66.68096],[-151.25173,66.68102],[-151.25179,66.68091],[-151.25164,66.68071],[-151.25065,66.68034],[-151.25101,66.67995],[-151.25189,66.67974],[-151.25191,66.67951],[-151.24899,66.67964],[-151.24875,66.67958],[-151.24924,66.67937],[-151.24831,66.67896],[-151.24747,66.67883],[-151.24704,66.67857],[-151.24718,66.67833],[-151.24751,66.6783],[-151.24836,66.67858],[-151.24999,66.67863],[-151.25086,66.67846],[-151.25105,66.6782],[-151.25193,66.67797],[-151.25308,66.67878],[-151.25445,66.67875],[-151.25561,66.67839],[-151.25718,66.67837],[-151.25733,66.67817],[-151.25706,66.67791],[-151.25642,66.67762],[-151.25662,66.67714],[-151.25646,66.67689],[-151.25547,66.67659],[-151.25541,66.67642],[-151.25482,66.67616],[-151.25515,66.67592],[-151.25494,66.67558],[-151.25457,66.67544],[-151.25297,66.67528],[-151.25292,66.6749],[-151.25303,66.67468],[-151.25326,66.67434],[-151.25354,66.67418],[-151.2534,66.67405],[-151.25274,66.67405],[-151.25204,66.67434],[-151.25161,66.67491],[-151.25171,66.67523],[-151.25153,66.67529],[-151.2513,66.67516],[-151.25123,66.67498],[-151.25138,66.67472],[-151.25121,66.67457],[-151.25013,66.67462],[-151.24998,66.67452],[-151.25008,66.67426],[-151.24988,66.67391],[-151.24912,66.67361],[-151.24974,66.67348],[-151.24979,66.67334],[-151.24952,66.6731],[-151.25296,66.67256],[-151.25313,66.67239],[-151.25306,66.6721],[-151.25199,66.67193],[-151.25183,66.67177],[-151.25024,66.67157],[-151.25026,66.67093],[-151.24995,66.67088],[-151.24907,66.67107],[-151.24731,66.67118],[-151.24717,66.67125],[-151.24757,66.67143],[-151.24733,66.67159],[-151.24608,66.6716],[-151.24592,66.67176],[-151.24694,66.67187],[-151.2465,66.67208],[-151.2456,66.67213],[-151.24499,66.67196],[-151.24529,66.67136],[-151.2455,66.67121],[-151.24649,66.67113],[-151.24747,66.67081],[-151.2482,66.67029],[-151.24821,66.67014],[-151.24795,66.66995],[-151.2475,66.66985],[-151.24606,66.66987],[-151.24592,66.66978],[-151.24617,66.66963],[-151.2462,66.6693],[-151.24783,66.66939],[-151.24908,66.66881],[-151.24995,66.66876],[-151.25048,66.66894],[-151.25043,66.6693],[-151.25005,66.66963],[-151.24923,66.66992],[-151.24999,66.66994],[-151.25241,66.66964],[-151.25253,66.66948],[-151.25333,66.66917],[-151.25431,66.66929],[-151.25452,66.66923],[-151.25466,66.66901],[-151.25515,66.66896],[-151.25534,66.66907],[-151.25522,66.66922],[-151.25545,66.6696],[-151.25648,66.66969],[-151.25653,66.67005],[-151.25532,66.67026],[-151.2549,66.67058],[-151.25425,66.67076],[-151.25414,66.67097],[-151.25455,66.67116],[-151.25612,66.67134],[-151.25754,66.67115],[-151.25956,66.67114],[-151.26173,66.67089],[-151.26178,66.67078],[-151.26111,66.67058],[-151.26123,66.6703],[-151.2617,66.67021],[-151.26346,66.6703],[-151.26379,66.66999],[-151.26464,66.66975],[-151.26514,66.66927],[-151.2655,66.6688],[-151.26522,66.66858],[-151.26464,66.66849],[-151.26409,66.66865],[-151.26365,66.66827],[-151.26193,66.66824],[-151.26136,66.66796],[-151.26194,66.66769],[-151.26224,66.66727],[-151.26331,66.6674],[-151.26373,66.66788],[-151.2651,66.66801],[-151.26572,66.66793],[-151.26607,66.6677],[-151.2661,66.66749],[-151.26514,66.66705],[-151.26526,66.66671],[-151.2646,66.66638],[-151.26457,66.66623],[-151.26515,66.66614],[-151.26847,66.66632],[-151.2692,66.66658],[-151.26992,66.66649],[-151.27024,66.66674],[-151.26996,66.66694],[-151.26978,66.66735],[-151.27033,66.66758]]]},"properties":{"fire_id":"ufid:2021-AKTAD-000233","source_collection":"history-2021","source_objectid":11917,"incident_name":"Hickel","mapped_acres":366.5,"mapped_acres_source":"poly_GISAcres","gis_acres":366.5,"auto_acres":366.51738316664824,"reported_acres":366.5,"percent_contained":null,"state":"AK","state_wfigs":"US-AK","county":"Yukon-Koyukuk","discovery_time_utc":"2021-06-19T00:07:00Z","perimeter_time_utc":"2021-07-22T21:56:00Z","perimeter_edit_time_utc":"2023-03-14T15:13:42Z","incident_modified_time_utc":"2021-08-13T18:36:13Z","containment_time_utc":"2021-07-29T19:30:00Z","control_time_utc":"2021-07-29T19:40:00Z","fire_out_time_utc":"2021-07-29T20:00:00Z","fire_cause":"Natural","fire_cause_general":"Natural","map_method":"Image Interpretation","source_dataset":"FFP","unique_fire_identifier":"2021-AKTAD-000233","irwin_id":"{EA33718B-2EE0-411B-9A33-2BA1C3D0C56D}","global_id":"ca8e1dc2-d99f-486f-a236-9e179f2ce3b9"}},{"type":"Feature","geometry":{"type":"Polygon","coordinates":[[[-154.32532,69.04919],[-154.32534,69.04871],[-154.32564,69.04864],[-154.32786,69.04894],[-154.32808,69.04917],[-154.32891,69.04936],[-154.32891,69.0496],[-154.33035,69.05022],[-154.33025,69.05043],[-154.32985,69.05055],[-154.33007,69.05076],[-154.33008,69.05096],[-154.32765,69.05125],[-154.32741,69.05138],[-154.32741,69.05148],[-154.32781,69.0516],[-154.32757,69.05174],[-154.3261,69.0516],[-154.32422,69.05116],[-154.32309,69.05068],[-154.32109,69.05025],[-154.31979,69.04953],[-154.31959,69.04928],[-154.3215,69.04944],[-154.32115,69.04891],[-154.32137,69.04877],[-154.3219,69.04873],[-154.32387,69.04885],[-154.32508,69.04919],[-154.32532,69.04919]]]},"properties":{"fire_id":"ufid:2021-AKTAD-000361","source_collection":"history-2021","source_objectid":12919,"incident_name":"Aupuk Creek","mapped_acres":21.3,"mapped_acres_source":"poly_GISAcres","gis_acres":21.3,"auto_acres":21.318744529269686,"reported_acres":21.3,"percent_contained":null,"state":"AK","state_wfigs":"US-AK","county":"North Slope","discovery_time_utc":"2021-07-21T01:35:00Z","perimeter_time_utc":"2021-07-22T22:16:00Z","perimeter_edit_time_utc":"2023-03-14T15:13:42Z","incident_modified_time_utc":"2021-08-12T00:54:36Z","containment_time_utc":"2021-08-08T16:50:00Z","control_time_utc":"2021-08-08T16:55:00Z","fire_out_time_utc":"2021-08-08T17:00:00Z","fire_cause":"Natural","fire_cause_general":"Natural","map_method":"Image Interpretation","source_dataset":"FFP","unique_fire_identifier":"2021-AKTAD-000361","irwin_id":"{1976B850-1DE4-4E41-A31C-C67778862CFC}","global_id":"b10b69bf-6161-484a-a1fe-bfaeb712fe96"}},{"type":"Feature","geometry":{"type":"Polygon","coordinates":[[[-150.42226,66.47849],[-150.42366,66.47985],[-150.42327,66.48168],[-150.42132,66.48338],[-150.41625,66.48581],[-150.41436,66.48709],[-150.41347,66.48944],[-150.41436,66.49131],[-150.41494,66.49213],[-150.41424,66.49327],[-150.41092,66.49447],[-150.4068,66.49519],[-150.40116,66.49547],[-150.39657,66.49537],[-150.39136,66.49462],[-150.39033,66.49351],[-150.39054,66.49271],[-150.39018,66.49168],[-150.3907,66.49044],[-150.39285,66.4893],[-150.39763,66.48792],[-150.40214,66.48712],[-150.4025,66.48556],[-150.40168,66.48416],[-150.40055,66.48298],[-150.40028,66.48247],[-150.40084,66.48214],[-150.40052,66.4811],[-150.401,66.48072],[-150.40417,66.47978],[-150.40501,66.4794],[-150.40544,66.47893],[-150.40625,66.4788],[-150.40819,66.47889],[-150.41077,66.478],[-150.4125,66.47725],[-150.41348,66.47705],[-150.41597,66.4769],[-150.41724,66.47701],[-150.41924,66.4775],[-150.42226,66.47849]]]},"properties":{"fire_id":"ufid:2021-AKUYD-000185","source_collection":"history-2021","source_objectid":13136,"incident_name":"Kanuti River","mapped_acres":418.7,"mapped_acres_source":"poly_GISAcres","gis_acres":418.7,"auto_acres":418.65615688475754,"reported_acres":418.7,"percent_contained":null,"state":"AK","state_wfigs":"US-AK","county":"Yukon-Koyukuk","discovery_time_utc":"2021-06-13T23:21:00Z","perimeter_time_utc":"2021-06-17T00:00:00Z","perimeter_edit_time_utc":"2023-03-14T15:13:42Z","incident_modified_time_utc":"2021-09-10T18:14:46Z","containment_time_utc":"2021-08-04T21:39:00Z","control_time_utc":"2021-08-04T21:39:00Z","fire_out_time_utc":"2021-08-04T21:39:00Z","fire_cause":"Natural","fire_cause_general":"Natural","map_method":"Remote Sensing Derived","source_dataset":"FFP","unique_fire_identifier":"2021-AKUYD-000185","irwin_id":"{C9FAE361-F345-4CA1-8613-147BB7DD6571}","global_id":"fdd22452-c80a-4fbd-8d1c-427202f6fc6b"}},{"type":"Feature","geometry":{"type":"Polygon","coordinates":[[[-150.49112,66.51056],[-150.49112,66.51003],[-150.49221,66.5094],[-150.49394,66.50886],[-150.49553,66.50891],[-150.49779,66.5091],[-150.49814,66.50952],[-150.49794,66.51005],[-150.49949,66.51111],[-150.49913,66.51149],[-150.49793,66.51159],[-150.49677,66.51161],[-150.49486,66.51133],[-150.49493,66.51155],[-150.49541,66.51192],[-150.49538,66.51219],[-150.49469,66.51218],[-150.49195,66.51138],[-150.49112,66.51056]]]},"properties":{"fire_id":"ufid:2021-AKUYD-000187","source_collection":"history-2021","source_objectid":14667,"incident_name":"Arctic Circle","mapped_acres":22.40711,"mapped_acres_source":"poly_GISAcres","gis_acres":22.40711,"auto_acres":22.407029548662454,"reported_acres":22.4,"percent_contained":null,"state":"AK","state_wfigs":"US-AK","county":"Yukon-Koyukuk","discovery_time_utc":"2021-06-14T03:02:00Z","perimeter_time_utc":"2021-06-14T13:48:00Z","perimeter_edit_time_utc":"2023-03-14T15:13:42Z","incident_modified_time_utc":"2021-07-28T20:18:12Z","containment_time_utc":"2021-07-10T22:17:00Z","control_time_utc":"2021-07-10T22:17:00Z","fire_out_time_utc":"2021-07-10T22:17:00Z","fire_cause":"Natural","fire_cause_general":"Natural","map_method":"Remote Sensing Derived","source_dataset":"FFP","unique_fire_identifier":"2021-AKUYD-000187","irwin_id":"{CA3758B5-AF6E-463F-8FAB-B19360D5DB25}","global_id":"470ac2eb-b1bd-468c-b8ea-057abbb0a3a0"}}]}
