{"type":"FeatureCollection","features":[{"type":"Feature","geometry":{"type":"Polygon","coordinates":[[[-152.47085,57.56926],[-152.47086,57.56971],[-152.4711,57.56992],[-152.471,57.57006],[-152.4711,57.57027],[-152.47181,57.57077],[-152.47233,57.57148],[-152.47283,57.5717],[-152.47373,57.57163],[-152.47388,57.57183],[-152.47383,57.57196],[-152.47467,57.5729],[-152.47454,57.57341],[-152.47467,57.5736],[-152.47382,57.57367],[-152.47353,57.57404],[-152.47392,57.5742],[-152.47415,57.57469],[-152.47411,57.5753],[-152.47375,57.57558],[-152.47313,57.57551],[-152.47304,57.57518],[-152.47277,57.57493],[-152.47085,57.57471],[-152.47003,57.5743],[-152.46964,57.57439],[-152.46885,57.57407],[-152.46493,57.57392],[-152.46409,57.574],[-152.46376,57.57377],[-152.46484,57.57309],[-152.46487,57.57283],[-152.46458,57.57245],[-152.46469,57.57181],[-152.46561,57.5708],[-152.46633,57.57064],[-152.46633,57.57024],[-152.46782,57.57014],[-152.46813,57.57001],[-152.46794,57.56981],[-152.46813,57.56959],[-152.46755,57.56941],[-152.46737,57.56924],[-152.46747,57.56898],[-152.46776,57.56876],[-152.46816,57.56876],[-152.46836,57.5689],[-152.46879,57.56868],[-152.46835,57.56858],[-152.46817,57.56834],[-152.46779,57.56826],[-152.4678,57.56817],[-152.4687,57.56805],[-152.46933,57.56814],[-152.46922,57.56838],[-152.46941,57.56846],[-152.46966,57.56829],[-152.46993,57.56844],[-152.4704,57.56899],[-152.47085,57.56926]]]},"properties":{"fire_id":"ufid:2021-AKKKS-103145","source_collection":"history-2021","source_objectid":3792,"incident_name":"Kalsin Creek","mapped_acres":67.6253351538675,"mapped_acres_source":"poly_GISAcres","gis_acres":67.6253351538675,"auto_acres":67.6250628964968,"reported_acres":67.6,"percent_contained":null,"state":"AK","state_wfigs":"US-AK","county":"Kodiak Island","discovery_time_utc":"2021-06-06T06:25:35Z","perimeter_time_utc":"2021-06-06T11:25:35Z","perimeter_edit_time_utc":"2021-06-25T17:58:40Z","incident_modified_time_utc":"2021-08-16T17:39:07Z","containment_time_utc":"2021-06-07T23:47:04Z","control_time_utc":"2021-06-09T21:46:14Z","fire_out_time_utc":"2021-07-12T00:00:43Z","fire_cause":"Human","fire_cause_general":"Other Human Cause","map_method":"Image Interpretation","source_dataset":"2021 NIFS","unique_fire_identifier":"2021-AKKKS-103145","irwin_id":"{B31BF8C7-EA7F-4E67-9664-3F98096D3120}","global_id":"83889b35-4f99-49f4-9401-24e780b93fc6"}},{"type":"Feature","geometry":{"type":"Polygon","coordinates":[[[-151.36953,59.70137],[-151.37025,59.70132],[-151.37026,59.70159],[-151.37003,59.70149],[-151.37003,59.70137],[-151.36988,59.70167],[-151.3695,59.70155],[-151.36953,59.70137]]]},"properties":{"fire_id":"ufid:2021-AKKKS-103010","source_collection":"history-2021","source_objectid":5375,"incident_name":"Bradley","mapped_acres":0.3,"mapped_acres_source":"poly_GISAcres","gis_acres":0.3,"auto_acres":0.26340880892274005,"reported_acres":0.3,"percent_contained":null,"state":"AK","state_wfigs":"US-AK","county":"Kenai Peninsula","discovery_time_utc":"2021-04-25T23:40:30Z","perimeter_time_utc":"2021-04-26T09:00:00Z","perimeter_edit_time_utc":"2023-03-14T15:13:42Z","incident_modified_time_utc":"2021-06-07T23:43:57Z","containment_time_utc":"2021-04-26T01:10:46Z","control_time_utc":"2021-04-26T01:11:49Z","fire_out_time_utc":"2021-04-28T21:53:44Z","fire_cause":"Human","fire_cause_general":"Debris and open burning","map_method":"Mixed Methods","source_dataset":"FFP","unique_fire_identifier":"2021-AKKKS-103010","irwin_id":"{E4251194-5487-4057-A963-EA394CBAC2A0}","global_id":"aa1dce2d-c551-441a-961e-14337419c2e4"}},{"type":"Feature","geometry":{"type":"Polygon","coordinates":[[[-151.27056,59.74039],[-151.27162,59.74075],[-151.27142,59.74122],[-151.27115,59.7414],[-151.2711,59.74124],[-151.2709,59.74138],[-151.2704,59.74125],[-151.27015,59.74151],[-151.26981,59.74152],[-151.26986,59.74121],[-151.2702,59.74097],[-151.27027,59.74052],[-151.27056,59.74039]]]},"properties":{"fire_id":"ufid:2021-AKKKS-103142","source_collection":"history-2021","source_objectid":9645,"incident_name":"Greenwood","mapped_acres":1.9,"mapped_acres_source":"poly_GISAcres","gis_acres":1.9,"auto_acres":1.8776808132393343,"reported_acres":2.0,"percent_contained":null,"state":"AK","state_wfigs":"US-AK","county":"Kenai Peninsula","discovery_time_utc":"2021-06-06T01:00:49Z","perimeter_time_utc":"2021-06-06T03:16:00Z","perimeter_edit_time_utc":"2023-03-14T15:13:42Z","incident_modified_time_utc":"2021-07-01T00:31:33Z","containment_time_utc":"2021-06-06T02:04:52Z","control_time_utc":"2021-06-06T03:04:47Z","fire_out_time_utc":"2021-06-09T00:19:51Z","fire_cause":"Human","fire_cause_general":"Debris and open burning","map_method":"Mixed Methods","source_dataset":"FFP","unique_fire_identifier":"2021-AKKKS-103142","irwin_id":"{45BC5901-F142-49A3-BD95-6A483B707CF8}","global_id":"4f7f7184-e513-4e9c-a902-f5ade69f2f62"}},{"type":"Feature","geometry":{"type":"MultiPolygon","coordinates":[[[[-151.1265,59.80689],[-151.1268,59.80699],[-151.12673,59.80712],[-151.12619,59.80702],[-151.1265,59.80689]]],[[[-151.12687,59.807],[-151.12697,59.80716],[-151.12686,59.80724],[-151.12676,59.80712],[-151.12687,59.807]]]]},"properties":{"fire_id":"ufid:2021-AKKKS-103151","source_collection":"history-2021","source_objectid":11150,"incident_name":"Canyon View","mapped_acres":0.147393,"mapped_acres_source":"poly_GISAcres","gis_acres":0.147393,"auto_acres":0.14739298140930027,"reported_acres":0.2,"percent_contained":null,"state":"AK","state_wfigs":"US-AK","county":"Kenai Peninsula","discovery_time_utc":"2021-06-07T01:06:59Z","perimeter_time_utc":"2021-06-07T03:57:00Z","perimeter_edit_time_utc":"2023-03-14T15:13:42Z","incident_modified_time_utc":"2021-09-01T23:18:13Z","containment_time_utc":"2021-06-07T02:31:07Z","control_time_utc":"2021-06-07T03:57:00Z","fire_out_time_utc":"2021-06-10T23:02:52Z","fire_cause":"Human","fire_cause_general":"Debris and open burning","map_method":"Mixed Methods","source_dataset":"FFP","unique_fire_identifier":"2021-AKKKS-103151","irwin_id":"{577717CF-A04D-4D63-80CD-FC2B36F3449F}","global_id":"0df3d0c5-3a4e-4236-bb4a-81386b9df9a8"}},{"type":"Feature","geometry":{"type":"Polygon","coordinates":[[[-151.81477,59.75122],[-151.815,59.75121],[-151.81491,59.75128],[-151.81477,59.75122]]]},"properties":{"fire_id":"ufid:2021-AKKKS-103165","source_collection":"history-2021","source_objectid":14852,"incident_name":"Old Sterling","mapped_acres":0.021042,"mapped_acres_source":"poly_GISAcres","gis_acres":0.021042,"auto_acres":0.0210419121861631,"reported_acres":0.1,"percent_contained":null,"state":"AK","state_wfigs":"US-AK","county":"Kenai Peninsula","discovery_time_utc":"2021-06-08T18:17:54Z","perimeter_time_utc":"2021-06-08T20:03:43Z","perimeter_edit_time_utc":"2021-09-01T23:25:03Z","incident_modified_time_utc":"2021-09-21T14:58:48Z","containment_time_utc":"2021-06-08T19:04:19Z","control_time_utc":"2021-06-08T19:04:21Z","fire_out_time_utc":"2021-06-10T21:30:17Z","fire_cause":"Undetermined","fire_cause_general":"Undetermined","map_method":"Mixed Methods","source_dataset":"Decertified","unique_fire_identifier":"2021-AKKKS-103165","irwin_id":"{A7A70543-3962-429F-BD44-F9A3575CF3B4}","global_id":"aa083a52-517a-4001-8367-8f167510cc1f"}}]}
