{"type":"FeatureCollection","features":[{"type":"Feature","geometry":{"type":"Polygon","coordinates":[[[-165.75356,61.78175],[-165.75801,61.78106],[-165.75896,61.78072],[-165.76148,61.78079],[-165.76265,61.78098],[-165.76429,61.78082],[-165.76847,61.78094],[-165.76973,61.78075],[-165.77121,61.78078],[-165.77241,61.78102],[-165.77817,61.78126],[-165.77937,61.78118],[-165.7825,61.7815],[-165.78507,61.78196],[-165.78564,61.78167],[-165.78473,61.78113],[-165.78262,61.77916],[-165.78159,61.77803],[-165.78142,61.77743],[-165.7792,61.77684],[-165.77851,61.77641],[-165.77931,61.77565],[-165.78239,61.77544],[-165.78153,61.77428],[-165.78267,61.77387],[-165.78421,61.77301],[-165.78387,61.77134],[-165.78632,61.77082],[-165.78923,61.77053],[-165.79283,61.76972],[-165.79425,61.76961],[-165.79465,61.76934],[-165.79459,61.76885],[-165.79721,61.76855],[-165.79727,61.76807],[-165.79778,61.76791],[-165.79825,61.76794],[-165.79869,61.76776],[-165.7989,61.76762],[-165.79868,61.76747],[-165.79856,61.76714],[-165.80122,61.76721],[-165.80321,61.76783],[-165.80337,61.76811],[-165.80426,61.7685],[-165.80545,61.76945],[-165.80651,61.77004],[-165.80659,61.77038],[-165.80865,61.77175],[-165.80973,61.77214],[-165.81134,61.77192],[-165.81188,61.77198],[-165.81194,61.77224],[-165.8124,61.7725],[-165.8128,61.7736],[-165.81338,61.77361],[-165.81396,61.77343],[-165.81422,61.77365],[-165.81509,61.77379],[-165.81525,61.77408],[-165.81481,61.77411],[-165.8141,61.77458],[-165.8135,61.7743],[-165.81294,61.77437],[-165.81319,61.77474],[-165.81326,61.77542],[-165.81399,61.77505],[-165.81431,61.77533],[-165.81396,61.77566],[-165.81429,61.77585],[-165.81429,61.77612],[-165.81368,61.77661],[-165.81373,61.77765],[-165.81301,61.77852],[-165.81294,61.77882],[-165.81326,61.77905],[-165.81317,61.77929],[-165.81256,61.77925],[-165.81125,61.77985],[-165.80953,61.7811],[-165.80752,61.78158],[-165.80658,61.78165],[-165.80656,61.78188],[-165.80474,61.78202],[-165.80446,61.78226],[-165.80495,61.7827],[-165.807,61.78324],[-165.80719,61.78364],[-165.80607,61.78388],[-165.80574,61.78411],[-165.8049,61.78412],[-165.80481,61.78445],[-165.80422,61.78454],[-165.80336,61.78445],[-165.80347,61.78469],[-165.80462,61.78479],[-165.80387,61.78516],[-165.80443,61.78524],[-165.80284,61.78564],[-165.80189,61.78551],[-165.80133,61.78571],[-165.80088,61.78607],[-165.80112,61.78656],[-165.79922,61.78796],[-165.79852,61.7889],[-165.7982,61.78912],[-165.79698,61.78928],[-165.7957,61.79038],[-165.79464,61.79071],[-165.79462,61.79097],[-165.79357,61.79165],[-165.79299,61.79162],[-165.79287,61.79132],[-165.7913,61.79213],[-165.79023,61.79162],[-165.78906,61.79197],[-165.78862,61.79165],[-165.78836,61.79184],[-165.78817,61.79162],[-165.78794,61.79161],[-165.78775,61.7918],[-165.78754,61.79159],[-165.7871,61.79157],[-165.78609,61.79187],[-165.78521,61.79163],[-165.78465,61.79192],[-165.78428,61.79162],[-165.78157,61.79163],[-165.7816,61.79133],[-165.78119,61.79119],[-165.78018,61.79119],[-165.77869,61.79145],[-165.77782,61.79123],[-165.77691,61.79118],[-165.77511,61.79133],[-165.7732,61.79177],[-165.77217,61.79154],[-165.77094,61.79233],[-165.77035,61.79287],[-165.77006,61.79342],[-165.77061,61.79376],[-165.77294,61.79314],[-165.77488,61.79342],[-165.77426,61.7938],[-165.77294,61.79404],[-165.7736,61.79463],[-165.77572,61.79506],[-165.77663,61.79507],[-165.77747,61.79449],[-165.77857,61.7948],[-165.78141,61.79592],[-165.78302,61.7963],[-165.78342,61.79668],[-165.78287,61.79694],[-165.78185,61.79664],[-165.78094,61.79699],[-165.78125,61.79773],[-165.78034,61.79865],[-165.7788,61.79865],[-165.77771,61.79927],[-165.7776,61.79849],[-165.77697,61.79852],[-165.77703,61.79892],[-165.7764,61.79927],[-165.77566,61.79881],[-165.77515,61.79914],[-165.77452,61.79897],[-165.77383,61.7986],[-165.77343,61.79784],[-165.77349,61.79701],[-165.77448,61.79665],[-165.77404,61.79637],[-165.77207,61.79664],[-165.77258,61.79761],[-165.77251,61.79823],[-165.77185,61.79875],[-165.7699,61.79938],[-165.76893,61.79954],[-165.76796,61.79946],[-165.76699,61.79989],[-165.76579,61.80011],[-165.76511,61.80003],[-165.76459,61.7998],[-165.76317,61.8004],[-165.7614,61.79976],[-165.75979,61.80028],[-165.75997,61.80056],[-165.75792,61.80056],[-165.75661,61.80175],[-165.75627,61.80234],[-165.75416,61.80339],[-165.75256,61.80366],[-165.75136,61.8024],[-165.75153,61.80162],[-165.75182,61.80113],[-165.74995,61.80054],[-165.74951,61.80085],[-165.74812,61.80135],[-165.74611,61.8017],[-165.74327,61.80201],[-165.74117,61.80189],[-165.74112,61.80245],[-165.74051,61.80278],[-165.73923,61.80303],[-165.73821,61.8035],[-165.7384,61.80401],[-165.73903,61.80464],[-165.73923,61.80527],[-165.73915,61.80597],[-165.74091,61.80598],[-165.74104,61.80565],[-165.74147,61.80541],[-165.74253,61.80548],[-165.74327,61.80506],[-165.74445,61.80467],[-165.74681,61.8046],[-165.74894,61.80533],[-165.75193,61.8056],[-165.75332,61.80619],[-165.75354,61.80653],[-165.75494,61.80696],[-165.75579,61.80703],[-165.75694,61.80689],[-165.76003,61.80719],[-165.76109,61.80776],[-165.76124,61.80805],[-165.76205,61.80814],[-165.76398,61.80774],[-165.76467,61.80775],[-165.76811,61.80812],[-165.77187,61.80817],[-165.77878,61.80882],[-165.78167,61.8095],[-165.78179,61.81012],[-165.78213,61.81069],[-165.78423,61.81078],[-165.78548,61.81112],[-165.78645,61.81162],[-165.78661,61.81199],[-165.78551,61.81222],[-165.78411,61.81274],[-165.7836,61.81309],[-165.78238,61.81335],[-165.77974,61.81353],[-165.7769,61.81442],[-165.77576,61.81508],[-165.77579,61.8152],[-165.77457,61.81611],[-165.77469,61.81662],[-165.77463,61.81703],[-165.77351,61.81773],[-165.77198,61.8177],[-165.77154,61.81709],[-165.77062,61.81765],[-165.771,61.81798],[-165.77173,61.8182],[-165.77188,61.81859],[-165.7716,61.819],[-165.76992,61.81967],[-165.76902,61.81966],[-165.76781,61.8193],[-165.76496,61.81916],[-165.76448,61.81872],[-165.76371,61.8188],[-165.76277,61.81926],[-165.76239,61.81986],[-165.76163,61.82022],[-165.76028,61.82165],[-165.75907,61.82175],[-165.75442,61.82073],[-165.75414,61.82041],[-165.75953,61.81945],[-165.75915,61.81868],[-165.75903,61.81804],[-165.75862,61.81775],[-165.75751,61.81811],[-165.75611,61.81881],[-165.75478,61.81887],[-165.75368,61.81841],[-165.74892,61.8181],[-165.74724,61.81764],[-165.74671,61.81726],[-165.7475,61.81697],[-165.74729,61.81665],[-165.74593,61.8167],[-165.74474,61.8165],[-165.74427,61.81627],[-165.7427,61.81622],[-165.74168,61.81647],[-165.74113,61.81615],[-165.73989,61.81606],[-165.73991,61.81592],[-165.73891,61.81572],[-165.73835,61.815],[-165.73837,61.81465],[-165.73817,61.81412],[-165.73846,61.81299],[-165.73894,61.81266],[-165.73736,61.81235],[-165.73641,61.81243],[-165.73554,61.81218],[-165.73527,61.81182],[-165.73568,61.81132],[-165.73542,61.81109],[-165.73345,61.81022],[-165.73221,61.80936],[-165.73181,61.80901],[-165.73159,61.80813],[-165.73089,61.80801],[-165.7302,61.8077],[-165.73005,61.80725],[-165.72921,61.80717],[-165.72615,61.80634],[-165.72509,61.80629],[-165.7225,61.80636],[-165.72162,61.80663],[-165.71936,61.80625],[-165.71823,61.80625],[-165.71761,61.80649],[-165.71651,61.8066],[-165.71472,61.8066],[-165.7129,61.80639],[-165.71188,61.80594],[-165.71078,61.80567],[-165.71067,61.80525],[-165.71162,61.80456],[-165.71264,61.80342],[-165.71345,61.80289],[-165.71418,61.80216],[-165.71443,61.8017],[-165.71516,61.80137],[-165.71538,61.80104],[-165.71538,61.80056],[-165.7156,61.80015],[-165.71695,61.79987],[-165.7175,61.79959],[-165.71969,61.79894],[-165.72169,61.79851],[-165.72261,61.7982],[-165.7237,61.79758],[-165.72743,61.79637],[-165.72801,61.79658],[-165.72914,61.79597],[-165.72918,61.79547],[-165.72969,61.79495],[-165.73071,61.7944],[-165.73232,61.79409],[-165.73243,61.7938],[-165.73359,61.79292],[-165.73385,61.79235],[-165.73392,61.79028],[-165.7348,61.78981],[-165.73619,61.78935],[-165.73812,61.78823],[-165.73914,61.788],[-165.74049,61.78733],[-165.74195,61.78693],[-165.74261,61.78615],[-165.74447,61.78474],[-165.74549,61.78458],[-165.74611,61.784],[-165.74732,61.78225],[-165.74754,61.7811],[-165.74827,61.78075],[-165.74867,61.7809],[-165.75046,61.78096],[-165.75123,61.78082],[-165.75206,61.78046],[-165.75279,61.78072],[-165.75309,61.78136],[-165.75356,61.78175]]]},"properties":{"fire_id":"ufid:2021-AKSWS-104102","source_collection":"history-2021","source_objectid":8068,"incident_name":"Kongishluk Bay","mapped_acres":3033.3,"mapped_acres_source":"poly_GISAcres","gis_acres":3033.3,"auto_acres":3033.2722043899166,"reported_acres":3033.3,"percent_contained":null,"state":"AK","state_wfigs":"US-AK","county":"Kusilvak","discovery_time_utc":"2021-05-24T18:54:25Z","perimeter_time_utc":"2021-06-01T22:28:00Z","perimeter_edit_time_utc":"2023-03-14T15:13:42Z","incident_modified_time_utc":"2021-07-18T20:22:24Z","containment_time_utc":"2021-05-31T06:29:54Z","control_time_utc":"2021-06-03T22:16:39Z","fire_out_time_utc":"2021-07-02T20:06:29Z","fire_cause":"Human","fire_cause_general":"Other causes","map_method":"Image Interpretation","source_dataset":"FFP","unique_fire_identifier":"2021-AKSWS-104102","irwin_id":"{0993B931-6F76-43E5-8102-CF49DF01E606}","global_id":"559dcdbb-25c3-4ad5-98f3-c33c4d76f68c"}}]}
