{"type":"FeatureCollection","features":[{"type":"Feature","geometry":{"type":"Polygon","coordinates":[[[-149.30495,61.61211],[-149.30534,61.61226],[-149.30532,61.61233],[-149.30495,61.61211]]]},"properties":{"fire_id":"ufid:2021-AKMSS-101032","source_collection":"history-2021","source_objectid":2417,"incident_name":"Cottonwood","mapped_acres":0.03,"mapped_acres_source":"poly_GISAcres","gis_acres":0.03,"auto_acres":0.0302591628820778,"reported_acres":0.1,"percent_contained":null,"state":"AK","state_wfigs":"US-AK","county":"Matanuska-Susitna","discovery_time_utc":"2021-05-02T23:27:29Z","perimeter_time_utc":"2021-05-03T00:00:00Z","perimeter_edit_time_utc":"2021-05-03T15:25:00Z","incident_modified_time_utc":"2021-05-20T18:05:22Z","containment_time_utc":"2021-05-03T00:09:16Z","control_time_utc":"2021-05-03T00:35:04Z","fire_out_time_utc":"2021-05-03T00:35:11Z","fire_cause":"Human","fire_cause_general":"Camping","map_method":"Mixed Methods","source_dataset":"2021 NIFS","unique_fire_identifier":"2021-AKMSS-101032","irwin_id":"{54F1E321-C8F0-489C-AA08-B044E46039DC}","global_id":"a6525b1f-22dd-441d-915a-c99e99f88501"}},{"type":"Feature","geometry":{"type":"MultiPolygon","coordinates":[[[[-145.41515,62.07079],[-145.4152,62.07091],[-145.41515,62.0709],[-145.41515,62.07079]]],[[[-145.41515,62.07073],[-145.41514,62.07077],[-145.41509,62.07075],[-145.41515,62.07073]]],[[[-145.41515,62.07072],[-145.41505,62.07072],[-145.4151,62.0707],[-145.41515,62.07072]]],[[[-145.41515,62.07079],[-145.41514,62.07077],[-145.41515,62.07077],[-145.41515,62.07079]]],[[[-145.41521,62.07073],[-145.41515,62.07073],[-145.41515,62.07072],[-145.41521,62.07073]]]]},"properties":{"fire_id":"ufid:2021-AKCRS-114228","source_collection":"history-2021","source_objectid":4745,"incident_name":"Copperville","mapped_acres":0.01,"mapped_acres_source":"poly_GISAcres","gis_acres":0.01,"auto_acres":0.010847843408351026,"reported_acres":0.1,"percent_contained":null,"state":"AK","state_wfigs":"US-AK","county":"Valdez-Cordova","discovery_time_utc":"2021-06-18T07:45:56Z","perimeter_time_utc":"2021-06-18T08:00:00Z","perimeter_edit_time_utc":"2023-03-14T15:13:42Z","incident_modified_time_utc":"2021-07-22T15:23:01Z","containment_time_utc":"2021-06-18T20:16:51Z","control_time_utc":"2021-06-18T20:16:57Z","fire_out_time_utc":"2021-06-21T20:35:59Z","fire_cause":"Human","fire_cause_general":"Other causes","map_method":"Mixed Methods","source_dataset":"FFP","unique_fire_identifier":"2021-AKCRS-114228","irwin_id":"{4058507C-9B57-4617-9C46-4125DCD10504}","global_id":"d5473e1f-f654-4e8a-9f0d-68f712a27170"}},{"type":"Feature","geometry":{"type":"Polygon","coordinates":[[[-149.07997,61.48765],[-149.08046,61.48746],[-149.08042,61.4876],[-149.07997,61.48765]]]},"properties":{"fire_id":"ufid:2021-AKMSS-101291","source_collection":"history-2021","source_objectid":4884,"incident_name":"Pioneer peak fire","mapped_acres":0.09,"mapped_acres_source":"poly_GISAcres","gis_acres":0.09,"auto_acres":0.08938469157220817,"reported_acres":0.1,"percent_contained":null,"state":"AK","state_wfigs":"US-AK","county":"Matanuska-Susitna","discovery_time_utc":"2021-06-26T04:44:09Z","perimeter_time_utc":"2021-06-25T08:00:00Z","perimeter_edit_time_utc":"2023-03-14T15:13:42Z","incident_modified_time_utc":"2021-07-10T01:11:06Z","containment_time_utc":"2021-06-26T07:30:35Z","control_time_utc":"2021-06-26T07:30:47Z","fire_out_time_utc":"2021-06-26T23:25:51Z","fire_cause":"Human","fire_cause_general":"Power generation / transmission / distribution","map_method":"Mixed Methods","source_dataset":"FFP","unique_fire_identifier":"2021-AKMSS-101291","irwin_id":"{BEEE9D98-45BE-44AC-A271-7095A999DB53}","global_id":"67e53a87-5d9b-4923-912e-1b6cfac80afb"}},{"type":"Feature","geometry":{"type":"Polygon","coordinates":[[[-149.10813,61.57297],[-149.10855,61.5731],[-149.10862,61.57323],[-149.10819,61.57318],[-149.10817,61.57332],[-149.10813,61.57297]]]},"properties":{"fire_id":"ufid:2021-AKMSS-101284","source_collection":"history-2021","source_objectid":5000,"incident_name":"Cimmaron","mapped_acres":0.11,"mapped_acres_source":"poly_GISAcres","gis_acres":0.11,"auto_acres":0.11240947811966201,"reported_acres":0.2,"percent_contained":null,"state":"AK","state_wfigs":"US-AK","county":"Matanuska-Susitna","discovery_time_utc":"2021-06-24T21:23:47Z","perimeter_time_utc":"2021-06-24T08:00:00Z","perimeter_edit_time_utc":"2023-03-14T15:13:42Z","incident_modified_time_utc":"2021-07-10T01:03:26Z","containment_time_utc":"2021-06-24T22:03:02Z","control_time_utc":"2021-06-24T22:03:06Z","fire_out_time_utc":"2021-06-25T03:31:01Z","fire_cause":"Human","fire_cause_general":"Other causes","map_method":"Mixed Methods","source_dataset":"FFP","unique_fire_identifier":"2021-AKMSS-101284","irwin_id":"{996EE89E-D5D0-4104-8D5B-ABD4ABFD0774}","global_id":"d11260be-89b6-44fb-b190-66b21d53c7d8"}},{"type":"Feature","geometry":{"type":"Polygon","coordinates":[[[-149.35125,61.56797],[-149.3515,61.56789],[-149.35173,61.56801],[-149.35154,61.56808],[-149.35125,61.56797]]]},"properties":{"fire_id":"ufid:2021-AKMSS-101089","source_collection":"history-2021","source_objectid":5012,"incident_name":"Brenda","mapped_acres":0.1,"mapped_acres_source":"poly_GISAcres","gis_acres":0.1,"auto_acres":0.07413706969065852,"reported_acres":0.1,"percent_contained":null,"state":"AK","state_wfigs":"US-AK","county":"Matanuska-Susitna","discovery_time_utc":"2021-05-18T01:47:45Z","perimeter_time_utc":"2021-05-18T02:08:00Z","perimeter_edit_time_utc":"2023-03-14T15:13:42Z","incident_modified_time_utc":"2021-06-04T23:26:59Z","containment_time_utc":"2021-05-18T02:14:51Z","control_time_utc":"2021-05-18T04:29:09Z","fire_out_time_utc":"2021-05-19T22:02:01Z","fire_cause":"Human","fire_cause_general":"Debris and open burning","map_method":"Mixed Methods","source_dataset":"FFP","unique_fire_identifier":"2021-AKMSS-101089","irwin_id":"{E5732464-1C5E-42F4-AC64-E41DE4F8DDF2}","global_id":"a2c37020-2707-49d3-8b92-0c53618bccb8"}},{"type":"Feature","geometry":{"type":"MultiPolygon","coordinates":[[[[-148.98881,61.59096],[-148.9881,61.5909],[-148.9881,61.59103],[-148.98841,61.59123],[-148.9879,61.59131],[-148.98787,61.59119],[-148.98749,61.59108],[-148.98749,61.59093],[-148.98774,61.59084],[-148.98756,61.59073],[-148.98768,61.59064],[-148.98721,61.5906],[-148.98731,61.59046],[-148.98707,61.59034],[-148.98734,61.59024],[-148.98791,61.5903],[-148.98829,61.59016],[-148.98827,61.59026],[-148.98869,61.59047],[-148.98891,61.59078],[-148.98881,61.59096]]],[[[-148.98898,61.59261],[-148.98862,61.5928],[-148.98876,61.59297],[-148.98857,61.59302],[-148.9882,61.59255],[-148.98847,61.59249],[-148.98836,61.59227],[-148.98869,61.59214],[-148.98864,61.59221],[-148.98912,61.59226],[-148.98894,61.59241],[-148.98898,61.59261]]]]},"properties":{"fire_id":"ufid:2021-AKMSS-101021","source_collection":"history-2021","source_objectid":5259,"incident_name":"Marley","mapped_acres":2.2,"mapped_acres_source":"poly_GISAcres","gis_acres":2.2,"auto_acres":2.221270257907565,"reported_acres":2.2,"percent_contained":null,"state":"AK","state_wfigs":"US-AK","county":"Matanuska-Susitna","discovery_time_utc":"2021-04-28T22:52:28Z","perimeter_time_utc":"2021-04-29T17:00:00Z","perimeter_edit_time_utc":"2023-03-14T15:13:42Z","incident_modified_time_utc":"2021-05-18T17:54:08Z","containment_time_utc":"2021-04-29T05:04:39Z","control_time_utc":"2021-04-29T16:11:15Z","fire_out_time_utc":"2021-05-05T23:24:06Z","fire_cause":"Human","fire_cause_general":"Other causes","map_method":"Mixed Methods","source_dataset":"FFP","unique_fire_identifier":"2021-AKMSS-101021","irwin_id":"{0B5CE7C2-2C76-46EB-8591-B916ECBC4978}","global_id":"28a3475b-c29f-419e-9016-cae14e69be29"}},{"type":"Feature","geometry":{"type":"Polygon","coordinates":[[[-148.9731,61.53326],[-148.97254,61.53341],[-148.97226,61.53303],[-148.97245,61.53292],[-148.97296,61.53299],[-148.9731,61.53326]]]},"properties":{"fire_id":"ufid:2021-AKMSS-101084","source_collection":"history-2021","source_objectid":5338,"incident_name":"Walling","mapped_acres":0.4,"mapped_acres_source":"poly_GISAcres","gis_acres":0.4,"auto_acres":0.4417055995520528,"reported_acres":0.4,"percent_contained":null,"state":"AK","state_wfigs":"US-AK","county":"Matanuska-Susitna","discovery_time_utc":"2021-05-16T22:05:38Z","perimeter_time_utc":"2021-05-16T22:51:00Z","perimeter_edit_time_utc":"2023-03-14T15:13:42Z","incident_modified_time_utc":"2021-06-04T23:04:27Z","containment_time_utc":"2021-05-16T22:47:37Z","control_time_utc":"2021-05-16T23:33:35Z","fire_out_time_utc":"2021-05-21T20:32:18Z","fire_cause":"Human","fire_cause_general":"Debris and open burning","map_method":"Mixed Methods","source_dataset":"FFP","unique_fire_identifier":"2021-AKMSS-101084","irwin_id":"{97315F5C-49F5-4C45-96F3-99716EBE7576}","global_id":"718470b8-756d-435c-98f7-34e043770613"}},{"type":"Feature","geometry":{"type":"Polygon","coordinates":[[[-146.28672,63.95341],[-146.28692,63.95341],[-146.28716,63.95372],[-146.28774,63.95388],[-146.28818,63.95383],[-146.28814,63.95346],[-146.28781,63.95329],[-146.28789,63.95295],[-146.28837,63.95284],[-146.28899,63.95303],[-146.28912,63.95345],[-146.28998,63.95371],[-146.29118,63.95345],[-146.29209,63.95347],[-146.29344,63.95369],[-146.29354,63.95392],[-146.29291,63.95405],[-146.29268,63.95421],[-146.29264,63.95447],[-146.29229,63.95458],[-146.29158,63.95426],[-146.29128,63.95429],[-146.29102,63.9545],[-146.29098,63.95476],[-146.29053,63.95506],[-146.28655,63.95471],[-146.28517,63.95419],[-146.28448,63.95378],[-146.2841,63.95328],[-146.28351,63.95296],[-146.28321,63.95258],[-146.28328,63.95226],[-146.28361,63.95205],[-146.28364,63.95134],[-146.28426,63.95135],[-146.2846,63.95154],[-146.28482,63.95215],[-146.28517,63.95244],[-146.28576,63.95265],[-146.28586,63.95294],[-146.28672,63.95341]]]},"properties":{"fire_id":"ufid:2021-AKMID-000407","source_collection":"history-2021","source_objectid":5895,"incident_name":"Delta Creek 9","mapped_acres":18.59204,"mapped_acres_source":"poly_GISAcres","gis_acres":18.59204,"auto_acres":18.591966090786055,"reported_acres":18.6,"percent_contained":null,"state":"AK","state_wfigs":"US-AK","county":"Southeast Fairbanks","discovery_time_utc":"2021-08-03T23:42:00Z","perimeter_time_utc":"2021-08-05T23:26:06Z","perimeter_edit_time_utc":"2023-03-14T15:13:42Z","incident_modified_time_utc":"2021-08-31T21:32:17Z","containment_time_utc":"2021-08-25T17:00:00Z","control_time_utc":"2021-08-25T17:00:00Z","fire_out_time_utc":"2021-08-25T17:00:00Z","fire_cause":"Human","fire_cause_general":"Firearms and explosives use","map_method":"Mixed Methods","source_dataset":"FFP","unique_fire_identifier":"2021-AKMID-000407","irwin_id":"{5F3DDD80-7ABC-4448-BE48-C7715CC9FDFD}","global_id":"96ab7abe-07b1-499c-ba83-21ec0c064e13"}},{"type":"Feature","geometry":{"type":"MultiPolygon","coordinates":[[[[-149.07,61.55398],[-149.06997,61.554],[-149.06993,61.5537],[-149.07,61.55398]]],[[[-149.07,61.55419],[-149.07004,61.55416],[-149.07013,61.55419],[-149.07,61.55419]]],[[[-149.06999,61.55416],[-149.06996,61.55404],[-149.06997,61.554],[-149.06999,61.55416]]]]},"properties":{"fire_id":"ufid:2021-AKMSS-101020","source_collection":"history-2021","source_objectid":6333,"incident_name":"Peaceful","mapped_acres":0.0,"mapped_acres_source":"poly_GISAcres","gis_acres":0.0,"auto_acres":0.025677713115185876,"reported_acres":0.1,"percent_contained":null,"state":"AK","state_wfigs":"US-AK","county":"Matanuska-Susitna","discovery_time_utc":"2021-04-28T22:10:23Z","perimeter_time_utc":"2021-04-28T22:00:00Z","perimeter_edit_time_utc":"2023-03-14T15:13:42Z","incident_modified_time_utc":"2021-05-18T17:25:34Z","containment_time_utc":"2021-04-28T22:36:55Z","control_time_utc":"2021-04-28T22:37:02Z","fire_out_time_utc":"2021-04-28T22:37:12Z","fire_cause":"Human","fire_cause_general":"Debris and open burning","map_method":"Mixed Methods","source_dataset":"FFP","unique_fire_identifier":"2021-AKMSS-101020","irwin_id":"{DD30E48F-D6E7-43EE-9437-E0B6AC0A1EC2}","global_id":"d03134c4-542a-4075-bd6d-c06bc4c4b0e9"}},{"type":"Feature","geometry":{"type":"Polygon","coordinates":[[[-149.81773,61.61628],[-149.81845,61.61632],[-149.81864,61.6165],[-149.81774,61.6169],[-149.817,61.61681],[-149.81692,61.61672],[-149.81705,61.61665],[-149.81661,61.61651],[-149.81773,61.61628]]]},"properties":{"fire_id":"ufid:2021-AKMSS-101045","source_collection":"history-2021","source_objectid":6537,"incident_name":"Millers Reach","mapped_acres":1.3,"mapped_acres_source":"poly_GISAcres","gis_acres":1.3,"auto_acres":1.2760987237372305,"reported_acres":1.3,"percent_contained":null,"state":"AK","state_wfigs":"US-AK","county":"Matanuska-Susitna","discovery_time_utc":"2021-05-06T21:01:29Z","perimeter_time_utc":"2021-05-06T22:30:00Z","perimeter_edit_time_utc":"2023-03-14T15:13:42Z","incident_modified_time_utc":"2021-06-04T21:47:30Z","containment_time_utc":"2021-05-06T21:40:55Z","control_time_utc":"2021-05-06T22:34:05Z","fire_out_time_utc":"2021-05-09T23:14:03Z","fire_cause":"Human","fire_cause_general":"Debris and open burning","map_method":"Mixed Methods","source_dataset":"FFP","unique_fire_identifier":"2021-AKMSS-101045","irwin_id":"{0138DE68-5B96-4A73-8AC1-BF58BDB56308}","global_id":"da340eca-6b58-48ee-843d-8721405f488a"}},{"type":"Feature","geometry":{"type":"Polygon","coordinates":[[[-146.58553,64.69512],[-146.58658,64.69495],[-146.58756,64.69441],[-146.5882,64.69468],[-146.58854,64.69547],[-146.58839,64.69577],[-146.58748,64.69562],[-146.58779,64.69608],[-146.5873,64.69646],[-146.58495,64.69697],[-146.58415,64.69742],[-146.58304,64.69759],[-146.58202,64.69759],[-146.5804,64.69696],[-146.58139,64.69697],[-146.58184,64.69647],[-146.58287,64.69622],[-146.58293,64.69578],[-146.58166,64.69565],[-146.58094,64.69599],[-146.58028,64.6959],[-146.57974,64.69557],[-146.57963,64.69537],[-146.58078,64.69552],[-146.58156,64.69525],[-146.58168,64.69512],[-146.58145,64.69478],[-146.58146,64.69457],[-146.58262,64.69453],[-146.58399,64.69512],[-146.58553,64.69512]]]},"properties":{"fire_id":"ufid:2021-AKMID-000362","source_collection":"history-2021","source_objectid":6906,"incident_name":"Stuart Creek 2","mapped_acres":19.11899,"mapped_acres_source":"poly_GISAcres","gis_acres":19.11899,"auto_acres":19.118936020377873,"reported_acres":19.1,"percent_contained":null,"state":"AK","state_wfigs":"US-AK","county":"Fairbanks North Star","discovery_time_utc":"2021-07-21T02:27:00Z","perimeter_time_utc":"2021-07-22T15:00:00Z","perimeter_edit_time_utc":"2023-03-14T15:13:42Z","incident_modified_time_utc":"2021-09-02T19:04:52Z","containment_time_utc":"2021-08-23T23:50:00Z","control_time_utc":"2021-08-23T23:55:00Z","fire_out_time_utc":"2021-08-24T00:00:00Z","fire_cause":"Human","fire_cause_general":"Firearms and explosives use","map_method":"Remote Sensing Derived","source_dataset":"FFP","unique_fire_identifier":"2021-AKMID-000362","irwin_id":"{6828D376-B0DB-43A6-AC7E-4DB5DB284858}","global_id":"7ce23783-dcb2-4556-839a-9e50a1d59b5d"}},{"type":"Feature","geometry":{"type":"MultiPolygon","coordinates":[[[[-148.6468,64.73038],[-148.64525,64.73045],[-148.64492,64.73068],[-148.64352,64.73061],[-148.64238,64.73094],[-148.64062,64.73093],[-148.64037,64.7311],[-148.63874,64.73095],[-148.63767,64.73062],[-148.63786,64.73031],[-148.63811,64.73017],[-148.63806,64.72993],[-148.63789,64.72996],[-148.63832,64.72962],[-148.63824,64.72945],[-148.63713,64.72933],[-148.63708,64.72921],[-148.63753,64.72896],[-148.63957,64.72872],[-148.64077,64.72829],[-148.64286,64.72815],[-148.64321,64.72808],[-148.64326,64.72792],[-148.64401,64.72804],[-148.64519,64.72794],[-148.6469,64.72749],[-148.64765,64.72751],[-148.64815,64.72774],[-148.64705,64.72783],[-148.64615,64.72808],[-148.64625,64.72835],[-148.64617,64.72846],[-148.6463,64.72856],[-148.64615,64.72873],[-148.64632,64.72893],[-148.64564,64.72907],[-148.64492,64.72944],[-148.6457,64.72976],[-148.64697,64.72957],[-148.64702,64.72941],[-148.64748,64.72924],[-148.64763,64.7289],[-148.6475,64.72863],[-148.64833,64.72824],[-148.64868,64.72837],[-148.64833,64.7287],[-148.6483,64.72901],[-148.6481,64.72919],[-148.64813,64.72943],[-148.64881,64.72942],[-148.64896,64.72952],[-148.64853,64.72972],[-148.64755,64.72974],[-148.64743,64.72989],[-148.64758,64.72999],[-148.6471,64.73012],[-148.6468,64.73038]]],[[[-148.63787,64.73001],[-148.6378,64.73003],[-148.63779,64.73001],[-148.63787,64.73001]]]]},"properties":{"fire_id":"ufid:2021-AKFAS-111244","source_collection":"history-2021","source_objectid":6930,"incident_name":"Straight Creek","mapped_acres":30.88482,"mapped_acres_source":"poly_GISAcres","gis_acres":30.88482,"auto_acres":30.884694866007706,"reported_acres":30.9,"percent_contained":null,"state":"AK","state_wfigs":"US-AK","county":"Fairbanks North Star","discovery_time_utc":"2021-06-20T23:11:14Z","perimeter_time_utc":"2021-06-22T15:00:00Z","perimeter_edit_time_utc":"2023-03-14T15:13:42Z","incident_modified_time_utc":"2021-11-18T01:23:04Z","containment_time_utc":"2021-06-21T22:40:52Z","control_time_utc":"2021-06-21T22:40:55Z","fire_out_time_utc":"2021-06-26T02:38:51Z","fire_cause":"Natural","fire_cause_general":"Natural","map_method":"Mixed Methods","source_dataset":"FFP","unique_fire_identifier":"2021-AKFAS-111244","irwin_id":"{EE17AF8F-642D-4D58-9E95-716B26BF085D}","global_id":"3b8be816-9a30-4e02-a007-254f71cbcdcf"}},{"type":"Feature","geometry":{"type":"Polygon","coordinates":[[[-147.35627,64.79675],[-147.35765,64.79652],[-147.3591,64.79681],[-147.35995,64.79667],[-147.36164,64.79684],[-147.36197,64.79697],[-147.36249,64.79692],[-147.36273,64.79699],[-147.36248,64.7972],[-147.36268,64.79726],[-147.36257,64.79743],[-147.36277,64.79747],[-147.3621,64.79768],[-147.36222,64.79781],[-147.36198,64.79782],[-147.36182,64.79766],[-147.35712,64.79855],[-147.35631,64.79825],[-147.3564,64.79834],[-147.35616,64.79855],[-147.355,64.7989],[-147.35439,64.7986],[-147.35304,64.79861],[-147.35302,64.79841],[-147.35391,64.79835],[-147.3535,64.7982],[-147.35392,64.79813],[-147.35357,64.79792],[-147.35391,64.79757],[-147.35311,64.79757],[-147.35276,64.79777],[-147.35201,64.79774],[-147.35205,64.79751],[-147.35299,64.79739],[-147.35374,64.79707],[-147.35591,64.79707],[-147.35627,64.79675]]]},"properties":{"fire_id":"ufid:2021-AKFAS-111294","source_collection":"history-2021","source_objectid":7285,"incident_name":"Brock Road","mapped_acres":17.8,"mapped_acres_source":"poly_GISAcres","gis_acres":17.8,"auto_acres":17.763815954566223,"reported_acres":17.8,"percent_contained":null,"state":"AK","state_wfigs":"US-AK","county":"Fairbanks North Star","discovery_time_utc":"2021-06-27T22:23:04Z","perimeter_time_utc":null,"perimeter_edit_time_utc":"2023-03-14T15:13:42Z","incident_modified_time_utc":"2021-08-04T23:24:42Z","containment_time_utc":"2021-07-03T16:35:14Z","control_time_utc":"2021-07-05T02:00:21Z","fire_out_time_utc":"2021-07-11T22:19:00Z","fire_cause":"Human","fire_cause_general":"Other causes","map_method":"GPS-Walked","source_dataset":"FFP","unique_fire_identifier":"2021-AKFAS-111294","irwin_id":"{F34D4E18-5E58-45D1-B55B-0DDA130E8539}","global_id":"2560fbfd-a7f8-408d-b35c-6cd0a154fcc4"}},{"type":"Feature","geometry":{"type":"MultiPolygon","coordinates":[[[[-149.70938,61.54937],[-149.70917,61.54935],[-149.70942,61.54931],[-149.70938,61.54937]]],[[[-149.70938,61.54937],[-149.7094,61.54938],[-149.70936,61.54941],[-149.70938,61.54937]]]]},"properties":{"fire_id":"ufid:2021-AKMSS-101289","source_collection":"history-2021","source_objectid":7384,"incident_name":"Kaye","mapped_acres":0.03,"mapped_acres_source":"poly_GISAcres","gis_acres":0.03,"auto_acres":0.03047184676504495,"reported_acres":0.1,"percent_contained":null,"state":"AK","state_wfigs":"US-AK","county":"Matanuska-Susitna","discovery_time_utc":"2021-06-26T01:15:14Z","perimeter_time_utc":"2021-06-25T08:00:00Z","perimeter_edit_time_utc":"2023-03-14T15:13:42Z","incident_modified_time_utc":"2021-07-10T01:15:52Z","containment_time_utc":"2021-06-26T02:03:53Z","control_time_utc":"2021-06-26T02:04:25Z","fire_out_time_utc":"2021-06-26T02:32:02Z","fire_cause":"Human","fire_cause_general":"Debris and open burning","map_method":"Mixed Methods","source_dataset":"FFP","unique_fire_identifier":"2021-AKMSS-101289","irwin_id":"{DAAB8AD0-D614-4716-AC37-785A99889172}","global_id":"674b5d11-98b3-4da2-b011-7a99e4a8b4a4"}},{"type":"Feature","geometry":{"type":"Polygon","coordinates":[[[-149.07546,61.57411],[-149.07471,61.57428],[-149.07451,61.57394],[-149.07515,61.57365],[-149.0754,61.57383],[-149.07546,61.57411]]]},"properties":{"fire_id":"ufid:2021-AKMSS-101052","source_collection":"history-2021","source_objectid":7547,"incident_name":"Gunnysack","mapped_acres":0.5,"mapped_acres_source":"poly_GISAcres","gis_acres":0.5,"auto_acres":0.547268933065353,"reported_acres":0.5,"percent_contained":null,"state":"AK","state_wfigs":"US-AK","county":"Matanuska-Susitna","discovery_time_utc":"2021-05-08T02:23:46Z","perimeter_time_utc":"2021-05-07T20:00:00Z","perimeter_edit_time_utc":"2023-03-14T15:13:42Z","incident_modified_time_utc":"2021-05-22T00:14:39Z","containment_time_utc":"2021-05-08T02:40:47Z","control_time_utc":"2021-05-08T03:35:15Z","fire_out_time_utc":"2021-05-10T02:14:03Z","fire_cause":"Human","fire_cause_general":"Debris and open burning","map_method":"Mixed Methods","source_dataset":"FFP","unique_fire_identifier":"2021-AKMSS-101052","irwin_id":"{A8A7E4C2-BEC7-4403-9A14-DE3270864593}","global_id":"6d3b78b7-0e95-4d9b-a1e1-ed3d02bd472d"}},{"type":"Feature","geometry":{"type":"Polygon","coordinates":[[[-146.54988,64.70817],[-146.55186,64.7087],[-146.55096,64.70888],[-146.55056,64.70925],[-146.5502,64.70974],[-146.55054,64.70998],[-146.55179,64.71003],[-146.55243,64.70992],[-146.55248,64.70974],[-146.55312,64.70961],[-146.55384,64.70967],[-146.55392,64.70985],[-146.55364,64.71053],[-146.55458,64.71102],[-146.55501,64.71152],[-146.55422,64.71219],[-146.55378,64.71303],[-146.55367,64.71354],[-146.55275,64.71352],[-146.55206,64.71286],[-146.55078,64.71256],[-146.55037,64.71252],[-146.55011,64.71277],[-146.55197,64.71348],[-146.55221,64.71383],[-146.55215,64.71415],[-146.55291,64.71477],[-146.55149,64.71547],[-146.54932,64.7155],[-146.54854,64.71565],[-146.54876,64.716],[-146.54981,64.71621],[-146.54894,64.71696],[-146.54915,64.71731],[-146.54988,64.71759],[-146.55,64.71786],[-146.54925,64.718],[-146.55049,64.71831],[-146.55104,64.71903],[-146.5497,64.7191],[-146.54861,64.71941],[-146.5472,64.71917],[-146.5468,64.71888],[-146.54667,64.71839],[-146.546,64.71802],[-146.54465,64.71781],[-146.54367,64.71778],[-146.54278,64.71833],[-146.54088,64.71862],[-146.53868,64.71869],[-146.53408,64.71843],[-146.53282,64.71812],[-146.53263,64.7178],[-146.53396,64.71648],[-146.53359,64.71386],[-146.52939,64.71254],[-146.5289,64.71228],[-146.52873,64.71173],[-146.53074,64.7113],[-146.53187,64.71092],[-146.53226,64.71035],[-146.53185,64.71009],[-146.53079,64.71036],[-146.52611,64.70966],[-146.52225,64.7099],[-146.52198,64.71046],[-146.52419,64.71126],[-146.52518,64.71137],[-146.52648,64.71199],[-146.52678,64.71252],[-146.52442,64.71306],[-146.52286,64.71327],[-146.52026,64.71249],[-146.52236,64.71218],[-146.52266,64.71164],[-146.5215,64.7114],[-146.51932,64.71185],[-146.51711,64.71213],[-146.51649,64.71209],[-146.51654,64.71145],[-146.51807,64.71046],[-146.5198,64.70974],[-146.52652,64.70932],[-146.52796,64.70939],[-146.52811,64.70869],[-146.52896,64.70877],[-146.52966,64.70926],[-146.53032,64.70917],[-146.53075,64.70873],[-146.53139,64.70855],[-146.53174,64.70828],[-146.53274,64.70839],[-146.53448,64.70826],[-146.53564,64.70863],[-146.53865,64.70878],[-146.54082,64.70925],[-146.54241,64.71029],[-146.54324,64.71017],[-146.5442,64.70981],[-146.5468,64.70983],[-146.54812,64.70905],[-146.54808,64.70846],[-146.54765,64.70826],[-146.54769,64.70802],[-146.54734,64.70782],[-146.54988,64.70817]]]},"properties":{"fire_id":"ufid:2021-AKMID-000308","source_collection":"history-2021","source_objectid":7662,"incident_name":"Stuart Creek","mapped_acres":278.7692,"mapped_acres_source":"poly_GISAcres","gis_acres":278.7692,"auto_acres":278.76825376764566,"reported_acres":278.8,"percent_contained":null,"state":"AK","state_wfigs":"US-AK","county":"Fairbanks North Star","discovery_time_utc":"2021-07-01T23:53:00Z","perimeter_time_utc":"2021-07-22T15:00:00Z","perimeter_edit_time_utc":"2023-03-14T15:13:42Z","incident_modified_time_utc":"2021-09-02T19:05:23Z","containment_time_utc":"2021-08-23T23:50:00Z","control_time_utc":"2021-08-23T23:55:00Z","fire_out_time_utc":"2021-08-24T00:00:00Z","fire_cause":"Human","fire_cause_general":"Firearms and explosives use","map_method":"Remote Sensing Derived","source_dataset":"FFP","unique_fire_identifier":"2021-AKMID-000308","irwin_id":"{F93B6385-3A34-4E3A-B1D5-F5AB2F06F610}","global_id":"585e1bc6-bc2c-4e49-8f6a-cab7f54e7f19"}},{"type":"Feature","geometry":{"type":"Polygon","coordinates":[[[-148.7614,63.86433],[-148.76075,63.86461],[-148.75697,63.86497],[-148.75661,63.86465],[-148.75617,63.86467],[-148.75585,63.86452],[-148.75569,63.86429],[-148.75492,63.86451],[-148.75504,63.86367],[-148.75452,63.86355],[-148.75263,63.86327],[-148.75235,63.86352],[-148.75143,63.86375],[-148.75074,63.86364],[-148.74978,63.86321],[-148.74833,63.86298],[-148.74845,63.86247],[-148.75094,63.86162],[-148.75151,63.86201],[-148.75227,63.86182],[-148.75386,63.86192],[-148.7542,63.86164],[-148.75324,63.86144],[-148.75251,63.86075],[-148.75211,63.86093],[-148.75159,63.86095],[-148.75107,63.86058],[-148.75107,63.86019],[-148.75058,63.8593],[-148.7493,63.85815],[-148.7493,63.8578],[-148.7505,63.85788],[-148.75112,63.85825],[-148.75223,63.85818],[-148.75267,63.85848],[-148.75263,63.85886],[-148.75372,63.85912],[-148.75364,63.8596],[-148.7544,63.86004],[-148.75701,63.8604],[-148.75854,63.86095],[-148.75874,63.8612],[-148.7581,63.86134],[-148.75866,63.86208],[-148.7591,63.86226],[-148.75991,63.86224],[-148.76128,63.86247],[-148.76156,63.86286],[-148.76212,63.86304],[-148.76208,63.86325],[-148.76236,63.8636],[-148.7614,63.86433]]]},"properties":{"fire_id":"ufid:2021-AKFAS-111048","source_collection":"history-2021","source_objectid":8044,"incident_name":"French Gulch Coal Seam 2021","mapped_acres":58.9,"mapped_acres_source":"poly_GISAcres","gis_acres":58.9,"auto_acres":58.892857873321304,"reported_acres":58.9,"percent_contained":null,"state":"AK","state_wfigs":"US-AK","county":"Denali","discovery_time_utc":"2021-05-07T03:59:46Z","perimeter_time_utc":"2021-06-27T02:00:00Z","perimeter_edit_time_utc":"2023-03-14T15:13:42Z","incident_modified_time_utc":"2021-09-02T19:29:20Z","containment_time_utc":null,"control_time_utc":null,"fire_out_time_utc":"2021-08-09T17:25:27Z","fire_cause":"Natural","fire_cause_general":"Natural","map_method":"Image Interpretation","source_dataset":"FFP","unique_fire_identifier":"2021-AKFAS-111048","irwin_id":"{27C2A620-9E83-4E1A-A481-FD12FFC5EA2C}","global_id":"381a0300-6180-4892-9b8a-daea9eeb43b8"}},{"type":"Feature","geometry":{"type":"Polygon","coordinates":[[[-149.45103,64.9068],[-149.45103,64.90711],[-149.4508,64.9074],[-149.45039,64.90748],[-149.45013,64.9078],[-149.44914,64.90796],[-149.44693,64.90804],[-149.44492,64.90743],[-149.44417,64.90734],[-149.44367,64.90711],[-149.44357,64.90705],[-149.44364,64.9067],[-149.44345,64.90656],[-149.44354,64.90636],[-149.44244,64.90585],[-149.44231,64.90543],[-149.44171,64.90529],[-149.44226,64.905],[-149.44263,64.90462],[-149.44351,64.90443],[-149.44377,64.90423],[-149.44367,64.90393],[-149.4428,64.90417],[-149.44214,64.904],[-149.44217,64.90361],[-149.44262,64.90328],[-149.44519,64.90316],[-149.44585,64.90339],[-149.44603,64.90365],[-149.44661,64.9036],[-149.44686,64.90338],[-149.44842,64.90354],[-149.44861,64.90358],[-149.44908,64.90421],[-149.44947,64.90436],[-149.44964,64.90461],[-149.44853,64.90495],[-149.44832,64.90526],[-149.44887,64.90548],[-149.45054,64.90579],[-149.45134,64.90615],[-149.45151,64.90642],[-149.45141,64.90664],[-149.45103,64.9068]]]},"properties":{"fire_id":"ufid:2021-AKFAS-111186","source_collection":"history-2021","source_objectid":8088,"incident_name":"Minto Lakes","mapped_acres":39.97669,"mapped_acres_source":"poly_GISAcres","gis_acres":39.97669,"auto_acres":39.97652400277049,"reported_acres":40.0,"percent_contained":null,"state":"AK","state_wfigs":"US-AK","county":"Yukon-Koyukuk","discovery_time_utc":"2021-06-14T01:58:31Z","perimeter_time_utc":"2021-06-14T20:33:00Z","perimeter_edit_time_utc":"2023-03-14T15:13:42Z","incident_modified_time_utc":"2021-11-18T01:22:29Z","containment_time_utc":"2021-06-19T19:45:58Z","control_time_utc":"2021-06-19T19:46:03Z","fire_out_time_utc":"2021-06-19T23:37:39Z","fire_cause":"Natural","fire_cause_general":"Natural","map_method":"Image Interpretation","source_dataset":"FFP","unique_fire_identifier":"2021-AKFAS-111186","irwin_id":"{6DE3FAB7-C86E-427E-9BC3-7A6E99C40169}","global_id":"8db1e1c0-be58-456c-a29a-83914ddb4c64"}},{"type":"Feature","geometry":{"type":"MultiPolygon","coordinates":[[[[-146.08158,64.59129],[-146.08156,64.59142],[-146.08128,64.59152],[-146.0808,64.59155],[-146.08035,64.5919],[-146.08024,64.59163],[-146.07973,64.59145],[-146.07916,64.59142],[-146.07915,64.59153],[-146.07902,64.59153],[-146.078,64.59131],[-146.07744,64.59154],[-146.07714,64.59145],[-146.07713,64.59128],[-146.07656,64.5913],[-146.07615,64.59105],[-146.07706,64.59038],[-146.07679,64.59043],[-146.07656,64.59027],[-146.07688,64.59032],[-146.07702,64.5902],[-146.07782,64.59008],[-146.07838,64.59014],[-146.07901,64.59041],[-146.07961,64.59036],[-146.08018,64.59053],[-146.08029,64.59067],[-146.08161,64.59102],[-146.0817,64.59116],[-146.08158,64.59129]]],[[[-146.08162,64.59131],[-146.08158,64.59129],[-146.08159,64.59129],[-146.08162,64.59131]]]]},"properties":{"fire_id":"ufid:2021-AKFAS-111169","source_collection":"history-2021","source_objectid":8457,"incident_name":"Salcha River","mapped_acres":7.042805,"mapped_acres_source":"poly_GISAcres","gis_acres":7.042805,"auto_acres":7.042776205503415,"reported_acres":7.0,"percent_contained":null,"state":"AK","state_wfigs":"US-AK","county":"Fairbanks North Star","discovery_time_utc":"2021-06-09T22:22:51Z","perimeter_time_utc":"2021-06-10T23:12:40Z","perimeter_edit_time_utc":"2023-03-14T15:13:42Z","incident_modified_time_utc":"2021-07-13T18:34:13Z","containment_time_utc":"2021-06-14T18:00:06Z","control_time_utc":"2021-06-14T18:00:08Z","fire_out_time_utc":"2021-06-15T05:52:42Z","fire_cause":"Natural","fire_cause_general":"Natural","map_method":"GPS-Walked","source_dataset":"FFP","unique_fire_identifier":"2021-AKFAS-111169","irwin_id":"{58F45DC1-ADC5-490E-9588-523DF5037087}","global_id":"b85d8dc5-feec-4130-84d2-821b02a0e10b"}},{"type":"Feature","geometry":{"type":"Polygon","coordinates":[[[-149.11487,61.48661],[-149.11497,61.48658],[-149.11494,61.48664],[-149.11487,61.48661]]]},"properties":{"fire_id":"ufid:2021-AKMSS-101320","source_collection":"history-2021","source_objectid":8709,"incident_name":"Old Glenn fire","mapped_acres":0.01,"mapped_acres_source":"poly_GISAcres","gis_acres":0.01,"auto_acres":0.008520146161604354,"reported_acres":0.1,"percent_contained":null,"state":"AK","state_wfigs":"US-AK","county":"Matanuska-Susitna","discovery_time_utc":"2021-07-04T00:02:45Z","perimeter_time_utc":"2021-07-03T08:00:00Z","perimeter_edit_time_utc":"2023-03-14T15:13:42Z","incident_modified_time_utc":"2021-07-23T21:17:07Z","containment_time_utc":"2021-07-04T00:35:47Z","control_time_utc":"2021-07-04T00:35:52Z","fire_out_time_utc":"2021-07-04T00:42:00Z","fire_cause":"Human","fire_cause_general":"Debris and open burning","map_method":"Mixed Methods","source_dataset":"FFP","unique_fire_identifier":"2021-AKMSS-101320","irwin_id":"{6AED91DB-123C-4017-B139-BEE9CF948676}","global_id":"9778547d-b837-4ad0-8269-fb6db54d2beb"}},{"type":"Feature","geometry":{"type":"Polygon","coordinates":[[[-146.44468,63.95011],[-146.44378,63.94994],[-146.4436,63.94967],[-146.44468,63.94857],[-146.44486,63.94817],[-146.44436,63.94781],[-146.4438,63.94763],[-146.44312,63.947],[-146.44265,63.94679],[-146.44233,63.94619],[-146.44292,63.94585],[-146.44591,63.94532],[-146.44781,63.94473],[-146.44809,63.94444],[-146.44783,63.94379],[-146.44784,63.94337],[-146.44831,63.94338],[-146.4499,63.94418],[-146.45173,63.9439],[-146.45293,63.94398],[-146.45364,63.94444],[-146.45465,63.94451],[-146.45511,63.94426],[-146.45709,63.94426],[-146.4575,63.94402],[-146.45845,63.94403],[-146.4589,63.9442],[-146.45934,63.94462],[-146.46076,63.94466],[-146.461,63.94488],[-146.4605,63.94526],[-146.46031,63.9458],[-146.45942,63.94625],[-146.45945,63.94651],[-146.46086,63.94678],[-146.46202,63.94731],[-146.46216,63.94756],[-146.46184,63.9478],[-146.46021,63.94783],[-146.45929,63.94839],[-146.4586,63.94854],[-146.45858,63.94831],[-146.45886,63.94812],[-146.45882,63.9478],[-146.45725,63.94747],[-146.45679,63.94705],[-146.45642,63.94693],[-146.45573,63.94696],[-146.4551,63.94709],[-146.45486,63.94725],[-146.45483,63.94747],[-146.45393,63.94813],[-146.45253,63.94821],[-146.45116,63.94868],[-146.44821,63.94925],[-146.44672,63.94967],[-146.44555,63.95052],[-146.44495,63.95054],[-146.44468,63.95011]]]},"properties":{"fire_id":"ufid:2021-AKMID-000414","source_collection":"history-2021","source_objectid":8973,"incident_name":"Delta 10","mapped_acres":95.79213,"mapped_acres_source":"poly_GISAcres","gis_acres":95.79213,"auto_acres":95.79173934097271,"reported_acres":95.8,"percent_contained":null,"state":"AK","state_wfigs":"US-AK","county":"Southeast Fairbanks","discovery_time_utc":"2021-08-05T00:40:00Z","perimeter_time_utc":"2021-08-05T22:16:20Z","perimeter_edit_time_utc":"2023-03-14T15:13:42Z","incident_modified_time_utc":"2021-09-24T19:33:52Z","containment_time_utc":"2021-08-27T18:50:00Z","control_time_utc":"2021-08-27T18:55:00Z","fire_out_time_utc":"2021-09-24T18:00:00Z","fire_cause":"Human","fire_cause_general":"Firearms and explosives use","map_method":"Image Interpretation","source_dataset":"FFP","unique_fire_identifier":"2021-AKMID-000414","irwin_id":"{CB067EC8-1828-4AFF-94C5-33E2CE6E4CF1}","global_id":"6df0ebe3-1eee-421c-b2c4-a6047069f541"}},{"type":"Feature","geometry":{"type":"Polygon","coordinates":[[[-149.62812,61.53128],[-149.62812,61.5314],[-149.62774,61.53152],[-149.62768,61.53171],[-149.62732,61.53165],[-149.62743,61.53152],[-149.62727,61.5314],[-149.62733,61.53132],[-149.62769,61.53121],[-149.62812,61.53128]]]},"properties":{"fire_id":"ufid:2021-AKMSS-101013","source_collection":"history-2021","source_objectid":9034,"incident_name":"Sailor","mapped_acres":0.4,"mapped_acres_source":"poly_GISAcres","gis_acres":0.4,"auto_acres":0.36084218784134,"reported_acres":0.4,"percent_contained":null,"state":"AK","state_wfigs":"US-AK","county":"Matanuska-Susitna","discovery_time_utc":"2021-04-25T23:08:04Z","perimeter_time_utc":"2021-04-27T17:00:00Z","perimeter_edit_time_utc":"2023-03-14T15:13:42Z","incident_modified_time_utc":"2021-05-18T17:23:34Z","containment_time_utc":"2021-04-26T00:26:49Z","control_time_utc":"2021-04-26T01:28:23Z","fire_out_time_utc":"2021-04-26T01:29:03Z","fire_cause":"Human","fire_cause_general":"Debris and open burning","map_method":"Mixed Methods","source_dataset":"FFP","unique_fire_identifier":"2021-AKMSS-101013","irwin_id":"{B59261E0-B2E6-4124-8645-5400F36FF04E}","global_id":"9765f4eb-0a4d-490d-8d6a-ed3eb870caf5"}},{"type":"Feature","geometry":{"type":"Polygon","coordinates":[[[-149.05306,61.55806],[-149.05279,61.55787],[-149.05298,61.55786],[-149.05287,61.55792],[-149.05306,61.55806]]]},"properties":{"fire_id":"ufid:2021-AKMSS-101286","source_collection":"history-2021","source_objectid":9152,"incident_name":"Falks Lake","mapped_acres":0.03,"mapped_acres_source":"poly_GISAcres","gis_acres":0.03,"auto_acres":0.03394170720415661,"reported_acres":0.1,"percent_contained":null,"state":"AK","state_wfigs":"US-AK","county":"Matanuska-Susitna","discovery_time_utc":"2021-06-24T23:30:23Z","perimeter_time_utc":"2021-06-24T08:00:00Z","perimeter_edit_time_utc":"2023-03-14T15:13:42Z","incident_modified_time_utc":"2021-07-10T01:08:59Z","containment_time_utc":"2021-06-24T23:54:40Z","control_time_utc":"2021-06-24T23:55:29Z","fire_out_time_utc":"2021-06-27T00:28:15Z","fire_cause":"Human","fire_cause_general":"Debris and open burning","map_method":"Mixed Methods","source_dataset":"FFP","unique_fire_identifier":"2021-AKMSS-101286","irwin_id":"{43FAFDA6-48C7-412D-AF3E-90275B69FB9A}","global_id":"6cf14448-5b0b-47ac-8bfc-cf6e7e5b02c9"}},{"type":"Feature","geometry":{"type":"Polygon","coordinates":[[[-149.43923,61.64512],[-149.43861,61.64512],[-149.43856,61.64503],[-149.43923,61.64512]]]},"properties":{"fire_id":"ufid:2021-AKMSS-101099","source_collection":"history-2021","source_objectid":9486,"incident_name":"Mountain Ash","mapped_acres":0.1,"mapped_acres_source":"poly_GISAcres","gis_acres":0.1,"auto_acres":0.0750135042006412,"reported_acres":0.1,"percent_contained":null,"state":"AK","state_wfigs":"US-AK","county":"Matanuska-Susitna","discovery_time_utc":"2021-05-24T00:10:45Z","perimeter_time_utc":"2021-05-24T01:00:00Z","perimeter_edit_time_utc":"2023-03-14T15:13:42Z","incident_modified_time_utc":"2021-06-08T23:33:15Z","containment_time_utc":"2021-05-24T00:20:43Z","control_time_utc":"2021-05-24T00:20:07Z","fire_out_time_utc":"2021-05-24T00:33:10Z","fire_cause":"Human","fire_cause_general":"Debris and open burning","map_method":"Mixed Methods","source_dataset":"FFP","unique_fire_identifier":"2021-AKMSS-101099","irwin_id":"{C966C0E6-BA84-48DF-B38F-89F096D175FD}","global_id":"82e9ba46-aabf-43fb-bf72-faa2eb40a1f0"}},{"type":"Feature","geometry":{"type":"Polygon","coordinates":[[[-149.3636,61.66155],[-149.36411,61.66201],[-149.36377,61.66232],[-149.36364,61.66218],[-149.36345,61.66233],[-149.36284,61.66233],[-149.36239,61.66249],[-149.36218,61.66241],[-149.362,61.66207],[-149.36264,61.66163],[-149.3636,61.66155]]]},"properties":{"fire_id":"ufid:2021-AKMSS-101062","source_collection":"history-2021","source_objectid":9490,"incident_name":"Champion","mapped_acres":1.9,"mapped_acres_source":"poly_GISAcres","gis_acres":1.9,"auto_acres":1.8838363537734921,"reported_acres":1.9,"percent_contained":null,"state":"AK","state_wfigs":"US-AK","county":"Matanuska-Susitna","discovery_time_utc":"2021-05-09T20:44:56Z","perimeter_time_utc":"2021-05-10T07:14:00Z","perimeter_edit_time_utc":"2023-03-14T15:13:42Z","incident_modified_time_utc":"2021-06-04T21:57:00Z","containment_time_utc":"2021-05-09T21:37:19Z","control_time_utc":"2021-05-09T22:29:38Z","fire_out_time_utc":"2021-05-11T00:10:10Z","fire_cause":"Human","fire_cause_general":"Debris and open burning","map_method":"Mixed Methods","source_dataset":"FFP","unique_fire_identifier":"2021-AKMSS-101062","irwin_id":"{2D5CEB56-FFB1-4B7F-9F16-068DB10BE8FE}","global_id":"69daab10-0ca1-4a8f-b1cd-29f15de2c8d1"}},{"type":"Feature","geometry":{"type":"Polygon","coordinates":[[[-147.21247,64.97923],[-147.21524,64.97984],[-147.21532,64.98056],[-147.21564,64.98073],[-147.21576,64.98095],[-147.21637,64.98105],[-147.21631,64.98129],[-147.21669,64.98129],[-147.21655,64.98119],[-147.21701,64.98108],[-147.2173,64.98116],[-147.21718,64.98155],[-147.21771,64.98221],[-147.21774,64.98245],[-147.21733,64.98292],[-147.21683,64.98295],[-147.21668,64.98274],[-147.21614,64.98265],[-147.21601,64.98241],[-147.21646,64.9821],[-147.21618,64.98175],[-147.21445,64.98197],[-147.21285,64.98262],[-147.21338,64.98294],[-147.21323,64.98309],[-147.21192,64.98292],[-147.21067,64.98221],[-147.20913,64.98196],[-147.20852,64.98203],[-147.20794,64.98167],[-147.20707,64.9816],[-147.20778,64.98141],[-147.2073,64.98112],[-147.20777,64.98063],[-147.20756,64.98014],[-147.20762,64.97904],[-147.2087,64.97865],[-147.20907,64.97831],[-147.21,64.97821],[-147.21247,64.97923]]]},"properties":{"fire_id":"ufid:2021-AKFAS-111194","source_collection":"history-2021","source_objectid":9637,"incident_name":"Winter Trail","mapped_acres":37.15111,"mapped_acres_source":"poly_GISAcres","gis_acres":37.15111,"auto_acres":37.15095477337985,"reported_acres":37.1,"percent_contained":null,"state":"AK","state_wfigs":"US-AK","county":"Fairbanks North Star","discovery_time_utc":"2021-06-15T00:31:20Z","perimeter_time_utc":null,"perimeter_edit_time_utc":"2023-03-14T15:13:42Z","incident_modified_time_utc":"2021-07-13T18:51:54Z","containment_time_utc":"2021-06-21T22:53:13Z","control_time_utc":"2021-06-21T22:53:17Z","fire_out_time_utc":"2021-06-21T22:53:20Z","fire_cause":"Natural","fire_cause_general":"Natural","map_method":"Mixed Methods","source_dataset":"FFP","unique_fire_identifier":"2021-AKFAS-111194","irwin_id":"{37D4795F-63C5-4D46-A166-82E558795FCD}","global_id":"0291dd52-52c0-4ebe-8a03-d1678d6550be"}},{"type":"Feature","geometry":{"type":"Polygon","coordinates":[[[-147.85261,64.87534],[-147.85222,64.87521],[-147.8531,64.87474],[-147.85286,64.87464],[-147.85294,64.87448],[-147.85359,64.87459],[-147.85382,64.87435],[-147.85472,64.8742],[-147.85569,64.87424],[-147.85589,64.87441],[-147.85583,64.87468],[-147.8553,64.87516],[-147.8543,64.87518],[-147.85399,64.87537],[-147.85261,64.87534]]]},"properties":{"fire_id":"ufid:2021-AKFAS-111347","source_collection":"history-2021","source_objectid":9959,"incident_name":"Yankovich Rd","mapped_acres":3.572987,"mapped_acres_source":"poly_GISAcres","gis_acres":3.572987,"auto_acres":3.5729721798473304,"reported_acres":3.5,"percent_contained":null,"state":"AK","state_wfigs":"US-AK","county":"Fairbanks North Star","discovery_time_utc":"2021-07-16T22:31:53Z","perimeter_time_utc":"2021-07-17T01:00:42Z","perimeter_edit_time_utc":"2023-03-14T15:13:42Z","incident_modified_time_utc":"2021-08-04T23:47:53Z","containment_time_utc":"2021-07-18T04:11:05Z","control_time_utc":null,"fire_out_time_utc":"2021-07-21T00:56:51Z","fire_cause":"Natural","fire_cause_general":"Natural","map_method":"GPS-Walked","source_dataset":"FFP","unique_fire_identifier":"2021-AKFAS-111347","irwin_id":"{3B017EE5-C34F-4CC9-9A1E-7A44376889C7}","global_id":"a5fe8eb8-dc64-4d8a-b8b2-0e2c93b6808f"}},{"type":"Feature","geometry":{"type":"Polygon","coordinates":[[[-146.40782,63.95464],[-146.40588,63.95472],[-146.40561,63.95458],[-146.40727,63.95375],[-146.40782,63.95385],[-146.40829,63.95409],[-146.40841,63.95428],[-146.40782,63.95464]]]},"properties":{"fire_id":"ufid:2021-AKMID-000421","source_collection":"history-2021","source_objectid":10144,"incident_name":"Delta Creek 11","mapped_acres":2.243678,"mapped_acres_source":"poly_GISAcres","gis_acres":2.243678,"auto_acres":2.2436679263279165,"reported_acres":2.2,"percent_contained":null,"state":"AK","state_wfigs":"US-AK","county":"Southeast Fairbanks","discovery_time_utc":"2021-08-10T18:06:00Z","perimeter_time_utc":"2021-08-05T22:06:00Z","perimeter_edit_time_utc":"2023-03-14T15:13:42Z","incident_modified_time_utc":"2021-09-02T23:15:06Z","containment_time_utc":"2021-08-25T17:00:00Z","control_time_utc":"2021-08-25T17:00:00Z","fire_out_time_utc":"2021-08-25T17:00:00Z","fire_cause":"Human","fire_cause_general":"Firearms and explosives use","map_method":"Infrared Image","source_dataset":"FFP","unique_fire_identifier":"2021-AKMID-000421","irwin_id":"{8E8490FC-8013-4E91-8336-53759DCD70C8}","global_id":"6c02f5a2-a9fb-4f7f-875c-2735563e4e04"}},{"type":"Feature","geometry":{"type":"Polygon","coordinates":[[[-148.13052,64.74729],[-148.13061,64.74725],[-148.13035,64.74719],[-148.13042,64.74736],[-148.12986,64.74744],[-148.12929,64.74714],[-148.13077,64.74676],[-148.13127,64.74699],[-148.13106,64.74713],[-148.13108,64.74724],[-148.13052,64.74729]]]},"properties":{"fire_id":"ufid:2021-AKFAS-111174","source_collection":"history-2021","source_objectid":10596,"incident_name":"Rosie Creek","mapped_acres":1.054209,"mapped_acres_source":"poly_GISAcres","gis_acres":1.054209,"auto_acres":1.0542048047517438,"reported_acres":1.0,"percent_contained":null,"state":"AK","state_wfigs":"US-AK","county":"Fairbanks North Star","discovery_time_utc":"2021-06-12T21:34:56Z","perimeter_time_utc":"2021-06-13T15:43:19Z","perimeter_edit_time_utc":"2023-03-14T15:13:42Z","incident_modified_time_utc":"2021-08-04T23:18:35Z","containment_time_utc":"2021-06-14T08:32:52Z","control_time_utc":"2021-06-14T08:32:54Z","fire_out_time_utc":"2021-06-14T19:22:33Z","fire_cause":"Undetermined","fire_cause_general":"Undetermined","map_method":"GPS-Walked","source_dataset":"FFP","unique_fire_identifier":"2021-AKFAS-111174","irwin_id":"{2DFEAAEC-135C-4780-A833-A5F2BB155929}","global_id":"feaf0a51-22a3-47a7-8298-d92cf064f1d8"}},{"type":"Feature","geometry":{"type":"Polygon","coordinates":[[[-149.03392,61.53957],[-149.03425,61.53971],[-149.0339,61.5398],[-149.03369,61.53966],[-149.03392,61.53957]]]},"properties":{"fire_id":"ufid:2021-AKMSS-101057","source_collection":"history-2021","source_objectid":10986,"incident_name":"Juniper","mapped_acres":0.1,"mapped_acres_source":"poly_GISAcres","gis_acres":0.1,"auto_acres":0.08787395535361181,"reported_acres":0.1,"percent_contained":null,"state":"AK","state_wfigs":"US-AK","county":"Matanuska-Susitna","discovery_time_utc":"2021-05-08T23:24:12Z","perimeter_time_utc":"2021-05-08T15:00:00Z","perimeter_edit_time_utc":"2023-03-14T15:13:42Z","incident_modified_time_utc":"2021-06-04T21:42:50Z","containment_time_utc":"2021-05-09T05:18:25Z","control_time_utc":"2021-05-09T05:18:51Z","fire_out_time_utc":"2021-05-11T00:15:11Z","fire_cause":"Human","fire_cause_general":"Other causes","map_method":"Mixed Methods","source_dataset":"FFP","unique_fire_identifier":"2021-AKMSS-101057","irwin_id":"{C694A584-7729-4D7F-ACA6-0608C0A86C5E}","global_id":"07c73409-bb06-49dd-b0c9-83e3181884e8"}},{"type":"Feature","geometry":{"type":"Polygon","coordinates":[[[-149.35604,61.58079],[-149.35673,61.58056],[-149.35712,61.58095],[-149.35698,61.58097],[-149.35715,61.58105],[-149.35701,61.58113],[-149.35705,61.58136],[-149.35751,61.58178],[-149.35731,61.58185],[-149.35719,61.58216],[-149.35667,61.58212],[-149.35634,61.58195],[-149.35656,61.5818],[-149.35671,61.58134],[-149.35619,61.58123],[-149.35609,61.58109],[-149.35604,61.58079]]]},"properties":{"fire_id":"ufid:2021-AKMSS-101114","source_collection":"history-2021","source_objectid":11065,"incident_name":"Ruth","mapped_acres":1.7,"mapped_acres_source":"poly_GISAcres","gis_acres":1.7,"auto_acres":1.7458536046057562,"reported_acres":1.7,"percent_contained":null,"state":"AK","state_wfigs":"US-AK","county":"Matanuska-Susitna","discovery_time_utc":"2021-05-25T23:17:37Z","perimeter_time_utc":"2021-05-26T00:15:00Z","perimeter_edit_time_utc":"2023-03-14T15:13:42Z","incident_modified_time_utc":"2021-06-21T22:06:39Z","containment_time_utc":"2021-05-26T00:47:35Z","control_time_utc":"2021-05-26T04:22:37Z","fire_out_time_utc":"2021-05-28T23:53:45Z","fire_cause":"Human","fire_cause_general":"Debris and open burning","map_method":"Mixed Methods","source_dataset":"FFP","unique_fire_identifier":"2021-AKMSS-101114","irwin_id":"{C78DB9A8-F7E9-4FF3-9EDF-8D0858849F57}","global_id":"2bd3ea8e-2c3b-4d47-a27d-a3c73daa6f13"}},{"type":"Feature","geometry":{"type":"MultiPolygon","coordinates":[[[[-149.55868,61.56238],[-149.55841,61.56256],[-149.55815,61.5625],[-149.55868,61.56238]]],[[[-149.55857,61.56239],[-149.55855,61.56239],[-149.55848,61.5624],[-149.55857,61.56239]]],[[[-149.55864,61.56238],[-149.55857,61.56239],[-149.5586,61.56238],[-149.55864,61.56238]]],[[[-149.55868,61.56237],[-149.55865,61.56238],[-149.55864,61.56238],[-149.55868,61.56237]]]]},"properties":{"fire_id":"ufid:2021-AKMSS-101322","source_collection":"history-2021","source_objectid":11308,"incident_name":"Ridge line fire","mapped_acres":0.08,"mapped_acres_source":"poly_GISAcres","gis_acres":0.08,"auto_acres":0.0751600204890257,"reported_acres":0.2,"percent_contained":null,"state":"AK","state_wfigs":"US-AK","county":"Matanuska-Susitna","discovery_time_utc":"2021-07-05T01:52:22Z","perimeter_time_utc":"2021-07-04T08:00:00Z","perimeter_edit_time_utc":"2023-03-14T15:13:42Z","incident_modified_time_utc":"2021-07-23T21:26:26Z","containment_time_utc":"2021-07-05T02:22:00Z","control_time_utc":"2021-07-05T02:25:56Z","fire_out_time_utc":"2021-07-05T22:36:51Z","fire_cause":"Human","fire_cause_general":"Other causes","map_method":"Mixed Methods","source_dataset":"FFP","unique_fire_identifier":"2021-AKMSS-101322","irwin_id":"{84A29603-9E69-4D9C-B035-29D8F9DA3476}","global_id":"3d569bf4-4b87-459a-88dd-f96728cb6df9"}},{"type":"Feature","geometry":{"type":"Polygon","coordinates":[[[-148.97481,61.53744],[-148.9749,61.53733],[-148.97581,61.53737],[-148.97629,61.53766],[-148.97595,61.53775],[-148.97593,61.53806],[-148.97549,61.53803],[-148.97488,61.5378],[-148.97481,61.53744]]]},"properties":{"fire_id":"ufid:2021-AKMSS-101007","source_collection":"history-2021","source_objectid":11341,"incident_name":"Lindsey","mapped_acres":1.1,"mapped_acres_source":"poly_GISAcres","gis_acres":1.1,"auto_acres":1.0772593382490652,"reported_acres":1.1,"percent_contained":null,"state":"AK","state_wfigs":"US-AK","county":"Matanuska-Susitna","discovery_time_utc":"2021-04-22T21:31:25Z","perimeter_time_utc":"2021-04-23T08:00:00Z","perimeter_edit_time_utc":"2023-03-14T15:13:42Z","incident_modified_time_utc":"2021-05-13T22:17:33Z","containment_time_utc":"2021-04-22T22:06:28Z","control_time_utc":"2021-04-22T23:03:53Z","fire_out_time_utc":"2021-04-22T23:21:22Z","fire_cause":"Human","fire_cause_general":"Debris and open burning","map_method":"Digitized-Other","source_dataset":"FFP","unique_fire_identifier":"2021-AKMSS-101007","irwin_id":"{748628FD-BA69-427F-A30D-6EAFABD8C9F4}","global_id":"ead8ca40-d261-4a28-9ce3-136766cedb17"}},{"type":"Feature","geometry":{"type":"MultiPolygon","coordinates":[[[[-149.25782,61.56836],[-149.25806,61.5685],[-149.25781,61.5688],[-149.2569,61.56877],[-149.2575,61.56839],[-149.25782,61.56836]]],[[[-149.25719,61.56857],[-149.25717,61.56859],[-149.25713,61.56861],[-149.25719,61.56857]]]]},"properties":{"fire_id":"ufid:2021-AKMSS-101293","source_collection":"history-2021","source_objectid":11487,"incident_name":"Experimental","mapped_acres":0.54,"mapped_acres_source":"poly_GISAcres","gis_acres":0.54,"auto_acres":0.5355703315219175,"reported_acres":0.5,"percent_contained":null,"state":"AK","state_wfigs":"US-AK","county":"Matanuska-Susitna","discovery_time_utc":"2021-06-26T22:29:24Z","perimeter_time_utc":"2021-06-26T08:00:00Z","perimeter_edit_time_utc":"2023-03-14T15:13:42Z","incident_modified_time_utc":"2021-07-10T01:20:18Z","containment_time_utc":"2021-06-26T23:03:33Z","control_time_utc":"2021-06-27T03:50:03Z","fire_out_time_utc":"2021-06-27T20:51:25Z","fire_cause":"Human","fire_cause_general":"Other causes","map_method":"Mixed Methods","source_dataset":"FFP","unique_fire_identifier":"2021-AKMSS-101293","irwin_id":"{D0C9540E-2731-4FF7-B179-3FD163D9221B}","global_id":"ca7bf04f-ba8a-4024-a690-a757f0c8483c"}},{"type":"Feature","geometry":{"type":"MultiPolygon","coordinates":[[[[-149.95993,61.36475],[-149.95952,61.36477],[-149.95909,61.3646],[-149.95897,61.3647],[-149.95904,61.36479],[-149.95874,61.36471],[-149.95912,61.36454],[-149.95905,61.36438],[-149.95928,61.36433],[-149.95974,61.36438],[-149.95993,61.36475]]],[[[-149.9591,61.3648],[-149.95904,61.36479],[-149.95903,61.36473],[-149.9591,61.3648]]],[[[-149.95816,61.36522],[-149.9582,61.36511],[-149.95882,61.36497],[-149.95904,61.36479],[-149.95886,61.36497],[-149.95816,61.36522]]],[[[-149.95803,61.3655],[-149.95775,61.36554],[-149.9578,61.36534],[-149.95815,61.36522],[-149.95801,61.36529],[-149.95803,61.3655]]]]},"properties":{"fire_id":"ufid:2021-AKMSS-101202","source_collection":"history-2021","source_objectid":11981,"incident_name":"Johns way","mapped_acres":0.61,"mapped_acres_source":"poly_GISAcres","gis_acres":0.61,"auto_acres":0.6111076429974927,"reported_acres":0.6,"percent_contained":null,"state":"AK","state_wfigs":"US-AK","county":"Matanuska-Susitna","discovery_time_utc":"2021-06-16T02:56:50Z","perimeter_time_utc":"2021-06-15T08:00:00Z","perimeter_edit_time_utc":"2023-03-14T15:13:42Z","incident_modified_time_utc":"2021-07-10T00:56:16Z","containment_time_utc":"2021-06-16T06:03:37Z","control_time_utc":"2021-06-16T06:57:41Z","fire_out_time_utc":"2021-06-26T21:15:04Z","fire_cause":"Human","fire_cause_general":"Other causes","map_method":"Mixed Methods","source_dataset":"FFP","unique_fire_identifier":"2021-AKMSS-101202","irwin_id":"{C1D1029C-F241-430B-81CD-28BEE3C32C9D}","global_id":"66c9a9ec-111f-4da4-a854-85babf56d6aa"}},{"type":"Feature","geometry":{"type":"Polygon","coordinates":[[[-148.93172,61.56413],[-148.93213,61.56387],[-148.93299,61.56383],[-148.93284,61.56402],[-148.93294,61.56414],[-148.93236,61.56439],[-148.93192,61.56428],[-148.93196,61.56412],[-148.93167,61.56434],[-148.93172,61.56413]]]},"properties":{"fire_id":"ufid:2021-AKMSS-101059","source_collection":"history-2021","source_objectid":11987,"incident_name":"Maud Road","mapped_acres":0.8,"mapped_acres_source":"poly_GISAcres","gis_acres":0.8,"auto_acres":0.7609037523943225,"reported_acres":0.8,"percent_contained":null,"state":"AK","state_wfigs":"US-AK","county":"Matanuska-Susitna","discovery_time_utc":"2021-05-09T03:09:11Z","perimeter_time_utc":"2021-05-08T20:00:00Z","perimeter_edit_time_utc":"2023-03-14T15:13:42Z","incident_modified_time_utc":"2021-06-21T22:21:55Z","containment_time_utc":"2021-05-09T07:34:07Z","control_time_utc":"2021-05-09T09:30:50Z","fire_out_time_utc":"2021-05-29T00:52:28Z","fire_cause":"Human","fire_cause_general":"Firearms and explosives use","map_method":"Mixed Methods","source_dataset":"FFP","unique_fire_identifier":"2021-AKMSS-101059","irwin_id":"{9E9DB207-3812-4108-9EA4-7E8F6FF978FF}","global_id":"6cf19b57-4abd-4797-8937-6fe0a2a08d39"}},{"type":"Feature","geometry":{"type":"Polygon","coordinates":[[[-149.63843,61.60644],[-149.63816,61.60641],[-149.63829,61.60635],[-149.63843,61.60644]]]},"properties":{"fire_id":"ufid:2021-AKMSS-101355","source_collection":"history-2021","source_objectid":12138,"incident_name":"Sunrise","mapped_acres":0.045,"mapped_acres_source":"poly_GISAcres","gis_acres":0.045,"auto_acres":0.045287335707496885,"reported_acres":0.1,"percent_contained":null,"state":"AK","state_wfigs":"US-AK","county":"Matanuska-Susitna","discovery_time_utc":"2021-07-19T23:29:41Z","perimeter_time_utc":"2021-07-20T00:50:00Z","perimeter_edit_time_utc":"2023-03-14T15:13:42Z","incident_modified_time_utc":"2021-08-13T23:01:41Z","containment_time_utc":"2021-07-20T00:32:04Z","control_time_utc":"2021-07-20T01:51:16Z","fire_out_time_utc":"2021-07-27T22:22:42Z","fire_cause":"Human","fire_cause_general":"Debris and open burning","map_method":"Mixed Methods","source_dataset":"FFP","unique_fire_identifier":"2021-AKMSS-101355","irwin_id":"{5ACA041F-CB81-4230-8307-A14992904FBA}","global_id":"d396dae9-862a-41c9-b8fe-e892c4a67a27"}},{"type":"Feature","geometry":{"type":"MultiPolygon","coordinates":[[[[-149.10163,64.52894],[-149.10162,64.52895],[-149.1016,64.52894],[-149.10163,64.52894]]],[[[-149.10162,64.52895],[-149.10165,64.52895],[-149.10162,64.52896],[-149.10162,64.52895]]],[[[-149.10162,64.52896],[-149.10159,64.52909],[-149.10155,64.52902],[-149.10162,64.52896]]],[[[-149.10154,64.52919],[-149.10159,64.52909],[-149.10158,64.52916],[-149.10154,64.52919]]],[[[-149.10081,64.52993],[-149.101,64.52994],[-149.1011,64.52981],[-149.10047,64.52974],[-149.10001,64.52947],[-149.10004,64.52934],[-149.10038,64.5292],[-149.1014,64.52946],[-149.10133,64.52933],[-149.10154,64.52919],[-149.10113,64.53038],[-149.10115,64.53],[-149.10081,64.52993]]],[[[-149.10111,64.53006],[-149.10108,64.53007],[-149.1011,64.53005],[-149.10111,64.53006]]]]},"properties":{"fire_id":"ufid:2021-AKFAS-111404","source_collection":"history-2021","source_objectid":12175,"incident_name":"404 Nenana rail fire","mapped_acres":0.8971609,"mapped_acres_source":"poly_GISAcres","gis_acres":0.8971609,"auto_acres":0.8971571833060231,"reported_acres":2.0,"percent_contained":null,"state":"AK","state_wfigs":"US-AK","county":"Yukon-Koyukuk","discovery_time_utc":"2021-08-03T22:23:40Z","perimeter_time_utc":null,"perimeter_edit_time_utc":"2023-03-14T15:13:42Z","incident_modified_time_utc":"2021-09-02T20:15:43Z","containment_time_utc":"2021-08-04T05:34:02Z","control_time_utc":"2021-08-04T05:34:22Z","fire_out_time_utc":"2021-08-06T21:28:18Z","fire_cause":"Human","fire_cause_general":"Railroad operations and maintenance","map_method":"Mixed Methods","source_dataset":"FFP","unique_fire_identifier":"2021-AKFAS-111404","irwin_id":"{699A5427-1098-4A37-8AF8-010AECD7A948}","global_id":"31652071-6471-4280-915a-3844a1240f88"}},{"type":"Feature","geometry":{"type":"Polygon","coordinates":[[[-146.28288,63.95217],[-146.28693,63.9509],[-146.30082,63.94829],[-146.30403,63.95175],[-146.3039,63.95163],[-146.2966,63.95262],[-146.28681,63.95467],[-146.28288,63.95217]]]},"properties":{"fire_id":"ufid:2021-AKMID-000119","source_collection":"history-2021","source_objectid":12269,"incident_name":"Delta Creek","mapped_acres":0.1,"mapped_acres_source":"poly_GISAcres","gis_acres":0.1,"auto_acres":86.6185853624562,"reported_acres":86.6,"percent_contained":null,"state":"AK","state_wfigs":"US-AK","county":"Southeast Fairbanks","discovery_time_utc":"2021-05-26T20:32:00Z","perimeter_time_utc":"2021-05-27T01:32:00Z","perimeter_edit_time_utc":"2023-03-14T15:13:42Z","incident_modified_time_utc":"2021-09-07T22:12:23Z","containment_time_utc":"2021-06-01T21:30:00Z","control_time_utc":"2021-06-01T21:30:00Z","fire_out_time_utc":"2021-06-01T21:30:00Z","fire_cause":"Human","fire_cause_general":"Firearms/Weapons","map_method":"Auto-generated","source_dataset":"Decertified","unique_fire_identifier":"2021-AKMID-000119","irwin_id":"{5B51048B-FA5A-429F-8649-F04F4B8CB0B3}","global_id":"cc990e69-d926-41ab-8e0d-15136f17b174"}},{"type":"Feature","geometry":{"type":"Polygon","coordinates":[[[-149.88942,61.44305],[-149.88953,61.44319],[-149.88908,61.44328],[-149.88868,61.44303],[-149.88942,61.44305]]]},"properties":{"fire_id":"ufid:2021-AKMSS-101092","source_collection":"history-2021","source_objectid":12721,"incident_name":"Bluebill","mapped_acres":0.2,"mapped_acres_source":"poly_GISAcres","gis_acres":0.2,"auto_acres":0.20380613783071305,"reported_acres":0.2,"percent_contained":null,"state":"AK","state_wfigs":"US-AK","county":"Matanuska-Susitna","discovery_time_utc":"2021-05-19T22:56:31Z","perimeter_time_utc":"2021-05-20T00:15:00Z","perimeter_edit_time_utc":"2023-03-14T15:13:42Z","incident_modified_time_utc":"2021-06-21T22:01:00Z","containment_time_utc":"2021-05-20T00:01:27Z","control_time_utc":"2021-05-20T01:19:38Z","fire_out_time_utc":"2021-05-20T22:02:40Z","fire_cause":"Human","fire_cause_general":"Debris and open burning","map_method":"Mixed Methods","source_dataset":"FFP","unique_fire_identifier":"2021-AKMSS-101092","irwin_id":"{64381116-781D-4FED-B342-A7F8BC6401D6}","global_id":"9f4eb8b5-dfaf-4e05-bf02-ced7f979ad09"}},{"type":"Feature","geometry":{"type":"Polygon","coordinates":[[[-146.28823,63.95121],[-146.28902,63.95086],[-146.28988,63.95087],[-146.29147,63.95058],[-146.29221,63.95073],[-146.29245,63.95108],[-146.29197,63.95169],[-146.29143,63.95194],[-146.28978,63.95205],[-146.2893,63.95229],[-146.28899,63.95303],[-146.28837,63.95284],[-146.28789,63.95295],[-146.28779,63.95208],[-146.28763,63.95188],[-146.28719,63.95152],[-146.28594,63.95113],[-146.28584,63.95093],[-146.28653,63.95083],[-146.28772,63.95123],[-146.28823,63.95121]]]},"properties":{"fire_id":"ufid:2021-AKMID-000406","source_collection":"history-2021","source_objectid":12925,"incident_name":"Delta Creek 8","mapped_acres":9.962416,"mapped_acres_source":"poly_GISAcres","gis_acres":9.962416,"auto_acres":9.962377500390463,"reported_acres":10.0,"percent_contained":null,"state":"AK","state_wfigs":"US-AK","county":"Southeast Fairbanks","discovery_time_utc":"2021-08-03T23:36:00Z","perimeter_time_utc":"2021-08-05T22:20:59Z","perimeter_edit_time_utc":"2023-03-14T15:13:42Z","incident_modified_time_utc":"2021-11-09T00:53:34Z","containment_time_utc":"2021-08-25T17:00:00Z","control_time_utc":"2021-08-25T17:00:00Z","fire_out_time_utc":"2021-08-25T17:00:00Z","fire_cause":"Human","fire_cause_general":"Firearms and explosives use","map_method":"Mixed Methods","source_dataset":"FFP","unique_fire_identifier":"2021-AKMID-000406","irwin_id":"{2A642199-A1C4-4A24-9588-CB32F26238BE}","global_id":"89a62bf5-6ba4-4bfd-8a6d-b460be95911d"}},{"type":"Feature","geometry":{"type":"Polygon","coordinates":[[[-148.85906,63.92458],[-148.86509,63.92476],[-148.86606,63.92467],[-148.8669,63.92505],[-148.86701,63.92522],[-148.86702,63.92594],[-148.86682,63.92615],[-148.86552,63.92679],[-148.86406,63.92694],[-148.86404,63.92704],[-148.86429,63.92712],[-148.86595,63.92728],[-148.866,63.92739],[-148.86579,63.92756],[-148.86416,63.92807],[-148.86287,63.92809],[-148.86152,63.92857],[-148.86175,63.92871],[-148.86243,63.92874],[-148.86149,63.92926],[-148.862,63.93032],[-148.86175,63.93087],[-148.86162,63.931],[-148.86094,63.93115],[-148.86336,63.93243],[-148.86348,63.93267],[-148.86288,63.93343],[-148.86329,63.93455],[-148.86299,63.93514],[-148.86209,63.9349],[-148.86086,63.93529],[-148.8604,63.93537],[-148.86004,63.93527],[-148.85876,63.93417],[-148.85921,63.93372],[-148.8593,63.93341],[-148.85916,63.93309],[-148.85733,63.93237],[-148.85626,63.93147],[-148.85785,63.93105],[-148.85768,63.92978],[-148.85751,63.92962],[-148.85474,63.92948],[-148.85447,63.92929],[-148.85412,63.92874],[-148.85415,63.92857],[-148.85537,63.92786],[-148.85523,63.92754],[-148.85451,63.92675],[-148.85473,63.92615],[-148.85549,63.92568],[-148.85699,63.92523],[-148.85835,63.92546],[-148.85851,63.9253],[-148.85855,63.92489],[-148.85906,63.92458]]]},"properties":{"fire_id":"ufid:2021-AKFAS-111198","source_collection":"history-2021","source_objectid":13075,"incident_name":"Coal Seam","mapped_acres":95.71479,"mapped_acres_source":"poly_GISAcres","gis_acres":95.71479,"auto_acres":95.71440177243383,"reported_acres":95.7,"percent_contained":null,"state":"AK","state_wfigs":"US-AK","county":"Denali","discovery_time_utc":"2021-06-15T05:05:28Z","perimeter_time_utc":"2021-06-27T02:00:00Z","perimeter_edit_time_utc":"2023-03-14T15:13:42Z","incident_modified_time_utc":"2021-09-02T19:48:47Z","containment_time_utc":null,"control_time_utc":null,"fire_out_time_utc":"2021-08-09T17:25:45Z","fire_cause":"Natural","fire_cause_general":"Natural","map_method":"Mixed Methods","source_dataset":"FFP","unique_fire_identifier":"2021-AKFAS-111198","irwin_id":"{293F81F8-6397-4200-901C-E90F7A52D446}","global_id":"bd8bfb17-30d1-45cc-b36b-0a8f5753a664"}},{"type":"Feature","geometry":{"type":"Polygon","coordinates":[[[-149.96382,61.51522],[-149.9636,61.51542],[-149.96318,61.51547],[-149.96302,61.51535],[-149.9632,61.51512],[-149.96382,61.51522]]]},"properties":{"fire_id":"ufid:2021-AKMSS-101120","source_collection":"history-2021","source_objectid":13302,"incident_name":"Jay Sedor","mapped_acres":0.3,"mapped_acres_source":"poly_GISAcres","gis_acres":0.3,"auto_acres":0.26291748818279165,"reported_acres":0.3,"percent_contained":null,"state":"AK","state_wfigs":"US-AK","county":"Matanuska-Susitna","discovery_time_utc":"2021-05-27T02:21:05Z","perimeter_time_utc":"2021-05-27T03:15:00Z","perimeter_edit_time_utc":"2023-03-14T15:13:42Z","incident_modified_time_utc":"2021-06-21T22:46:29Z","containment_time_utc":"2021-05-27T04:15:23Z","control_time_utc":"2021-05-27T05:42:41Z","fire_out_time_utc":"2021-05-31T01:05:32Z","fire_cause":"Human","fire_cause_general":"Other causes","map_method":"Mixed Methods","source_dataset":"FFP","unique_fire_identifier":"2021-AKMSS-101120","irwin_id":"{80593701-A117-41BD-9110-056537700804}","global_id":"a2218b1d-8317-483f-bde7-98638eef071b"}},{"type":"Feature","geometry":{"type":"Polygon","coordinates":[[[-149.30129,61.54938],[-149.30134,61.5498],[-149.30095,61.55016],[-149.30028,61.5502],[-149.30007,61.54989],[-149.2998,61.54983],[-149.29977,61.54959],[-149.3,61.54952],[-149.3009,61.5493],[-149.30129,61.54938]]]},"properties":{"fire_id":"ufid:2021-AKMSS-101058","source_collection":"history-2021","source_objectid":13450,"incident_name":"Epic Circle","mapped_acres":1.5,"mapped_acres_source":"poly_GISAcres","gis_acres":1.5,"auto_acres":1.4958527482181554,"reported_acres":1.5,"percent_contained":null,"state":"AK","state_wfigs":"US-AK","county":"Matanuska-Susitna","discovery_time_utc":"2021-05-09T00:53:53Z","perimeter_time_utc":"2021-05-08T18:00:00Z","perimeter_edit_time_utc":"2023-03-14T15:13:42Z","incident_modified_time_utc":"2021-06-04T21:53:22Z","containment_time_utc":"2021-05-09T01:25:07Z","control_time_utc":"2021-05-09T03:13:44Z","fire_out_time_utc":"2021-05-10T01:17:45Z","fire_cause":"Human","fire_cause_general":"Debris and open burning","map_method":"Mixed Methods","source_dataset":"FFP","unique_fire_identifier":"2021-AKMSS-101058","irwin_id":"{8893CB8D-013E-4387-9653-76B7D2FB9C3D}","global_id":"29c9201f-52b5-4183-9e6a-aadb25519fac"}},{"type":"Feature","geometry":{"type":"MultiPolygon","coordinates":[[[[-145.24679,64.90105],[-145.24555,64.90061],[-145.24488,64.90061],[-145.24559,64.8998],[-145.2455,64.89944],[-145.24398,64.89901],[-145.24391,64.89878],[-145.24503,64.89845],[-145.24552,64.89857],[-145.24598,64.89833],[-145.24797,64.89817],[-145.24829,64.89772],[-145.2467,64.89762],[-145.24678,64.89746],[-145.24848,64.89688],[-145.24976,64.89673],[-145.25145,64.89606],[-145.25301,64.89603],[-145.25426,64.89552],[-145.25444,64.89506],[-145.25537,64.89489],[-145.25654,64.89488],[-145.25668,64.89432],[-145.25736,64.89394],[-145.25812,64.894],[-145.2583,64.89419],[-145.25913,64.89423],[-145.25983,64.89405],[-145.26046,64.89426],[-145.26054,64.89379],[-145.25975,64.89282],[-145.25963,64.8923],[-145.25916,64.89199],[-145.25875,64.89197],[-145.25804,64.89232],[-145.25682,64.89195],[-145.25427,64.89211],[-145.25053,64.89267],[-145.24843,64.89366],[-145.24836,64.89388],[-145.24991,64.8941],[-145.25006,64.89441],[-145.24856,64.89482],[-145.24572,64.89522],[-145.24547,64.89559],[-145.24607,64.8958],[-145.24578,64.89606],[-145.24523,64.89613],[-145.2453,64.89634],[-145.24464,64.89655],[-145.24388,64.89661],[-145.24278,64.89619],[-145.2429,64.89591],[-145.24336,64.89567],[-145.2434,64.89543],[-145.24276,64.89511],[-145.24252,64.89477],[-145.2417,64.89444],[-145.24072,64.89422],[-145.24,64.89425],[-145.23851,64.89475],[-145.23771,64.89472],[-145.23692,64.89429],[-145.23537,64.89375],[-145.23583,64.89361],[-145.23581,64.89334],[-145.23516,64.89315],[-145.2353,64.89216],[-145.23241,64.89161],[-145.22878,64.89139],[-145.22835,64.89106],[-145.22718,64.89097],[-145.22696,64.89078],[-145.22624,64.8906],[-145.2249,64.89074],[-145.22415,64.89051],[-145.22261,64.89085],[-145.22218,64.89054],[-145.22173,64.88988],[-145.22121,64.88979],[-145.2207,64.88996],[-145.2201,64.88996],[-145.21777,64.8892],[-145.21639,64.8891],[-145.21545,64.88939],[-145.21402,64.88913],[-145.21222,64.88902],[-145.21024,64.88838],[-145.2089,64.88829],[-145.20784,64.88863],[-145.2088,64.88905],[-145.20903,64.88932],[-145.20846,64.88955],[-145.20845,64.88972],[-145.21056,64.88972],[-145.21214,64.89006],[-145.21337,64.8901],[-145.2141,64.89044],[-145.21475,64.89052],[-145.21544,64.8908],[-145.21632,64.891],[-145.21727,64.89102],[-145.21734,64.89125],[-145.21557,64.8917],[-145.21148,64.89218],[-145.21016,64.89245],[-145.20958,64.89274],[-145.20966,64.89317],[-145.21365,64.89312],[-145.21442,64.89326],[-145.21469,64.89351],[-145.2166,64.89336],[-145.21753,64.89346],[-145.21731,64.89382],[-145.21481,64.89416],[-145.21023,64.89538],[-145.20893,64.89561],[-145.20844,64.89603],[-145.20832,64.89641],[-145.20674,64.89662],[-145.20611,64.89629],[-145.20402,64.89575],[-145.20362,64.89546],[-145.20257,64.89522],[-145.20069,64.89523],[-145.1996,64.89466],[-145.19939,64.89433],[-145.19852,64.89385],[-145.19808,64.89375],[-145.19805,64.89345],[-145.19725,64.89285],[-145.19616,64.89285],[-145.19388,64.89248],[-145.1929,64.8919],[-145.19269,64.89144],[-145.19281,64.89106],[-145.19268,64.89056],[-145.19241,64.89008],[-145.19131,64.89057],[-145.19074,64.89034],[-145.1899,64.89022],[-145.18993,64.88991],[-145.18926,64.88969],[-145.18678,64.89047],[-145.18585,64.89056],[-145.18543,64.89102],[-145.1852,64.89162],[-145.18266,64.89375],[-145.18051,64.89466],[-145.18042,64.89483],[-145.18,64.89505],[-145.17775,64.8948],[-145.17778,64.89538],[-145.17741,64.89554],[-145.17515,64.89534],[-145.17536,64.89556],[-145.17533,64.89578],[-145.17494,64.896],[-145.1735,64.89623],[-145.17306,64.89615],[-145.17158,64.89671],[-145.16995,64.89687],[-145.16908,64.8974],[-145.16844,64.89752],[-145.16593,64.89721],[-145.16573,64.89763],[-145.16544,64.89786],[-145.164,64.89809],[-145.1632,64.89804],[-145.16253,64.89838],[-145.16173,64.89833],[-145.16142,64.89799],[-145.16103,64.89811],[-145.16122,64.89853],[-145.16019,64.89844],[-145.15637,64.89656],[-145.15553,64.89632],[-145.15521,64.89656],[-145.15301,64.89651],[-145.15294,64.89629],[-145.15324,64.89601],[-145.15488,64.89583],[-145.15482,64.89547],[-145.15494,64.89507],[-145.15485,64.8948],[-145.15352,64.89466],[-145.15309,64.89413],[-145.15244,64.89408],[-145.15194,64.89419],[-145.15163,64.89405],[-145.15172,64.89378],[-145.14964,64.89311],[-145.1493,64.89284],[-145.14922,64.89255],[-145.14815,64.8918],[-145.14438,64.89126],[-145.14191,64.8907],[-145.14103,64.89069],[-145.14115,64.89043],[-145.14147,64.89019],[-145.14338,64.89018],[-145.14382,64.88991],[-145.14479,64.8896],[-145.14709,64.88969],[-145.14772,64.88928],[-145.14827,64.88952],[-145.15082,64.88881],[-145.1514,64.88875],[-145.15207,64.88887],[-145.15275,64.88852],[-145.15692,64.88812],[-145.15868,64.88824],[-145.1605,64.88783],[-145.15891,64.88751],[-145.15869,64.88731],[-145.15901,64.88721],[-145.16158,64.88755],[-145.16329,64.88792],[-145.16768,64.88818],[-145.16886,64.88813],[-145.17091,64.88834],[-145.17993,64.89],[-145.18157,64.88989],[-145.18027,64.88974],[-145.17624,64.88893],[-145.17553,64.88869],[-145.17432,64.88874],[-145.17405,64.88846],[-145.17411,64.8882],[-145.174,64.88797],[-145.17284,64.8878],[-145.17282,64.88769],[-145.17237,64.88755],[-145.17026,64.88711],[-145.17034,64.88693],[-145.16999,64.88681],[-145.1698,64.88697],[-145.16928,64.88705],[-145.16887,64.88687],[-145.16897,64.88647],[-145.16828,64.8863],[-145.16766,64.88641],[-145.16656,64.88611],[-145.16644,64.88576],[-145.16534,64.8854],[-145.16446,64.88535],[-145.16396,64.88514],[-145.16426,64.88496],[-145.165,64.88489],[-145.16728,64.88524],[-145.16902,64.88511],[-145.16968,64.8852],[-145.17045,64.88493],[-145.17094,64.88503],[-145.17337,64.88467],[-145.17454,64.88473],[-145.17605,64.8851],[-145.17723,64.88479],[-145.17821,64.88475],[-145.18029,64.88511],[-145.18199,64.8858],[-145.18454,64.88641],[-145.18476,64.88617],[-145.18368,64.88573],[-145.18237,64.88557],[-145.18162,64.88509],[-145.18102,64.88492],[-145.18072,64.8846],[-145.18081,64.88431],[-145.18148,64.88426],[-145.18196,64.88445],[-145.18268,64.88438],[-145.18469,64.88392],[-145.18574,64.88427],[-145.18594,64.88449],[-145.18632,64.88441],[-145.18675,64.88455],[-145.1873,64.88487],[-145.18751,64.88516],[-145.18718,64.88527],[-145.18791,64.88559],[-145.18776,64.8868],[-145.18731,64.88766],[-145.18796,64.88794],[-145.18825,64.88773],[-145.18843,64.88703],[-145.18878,64.88664],[-145.18878,64.8857],[-145.18942,64.88502],[-145.19165,64.88394],[-145.19318,64.88345],[-145.19438,64.88231],[-145.19449,64.88202],[-145.19426,64.88166],[-145.19382,64.88156],[-145.19352,64.88129],[-145.19635,64.88004],[-145.19687,64.87995],[-145.19716,64.87953],[-145.19803,64.87973],[-145.19875,64.8793],[-145.19875,64.87899],[-145.1992,64.8785],[-145.19965,64.87829],[-145.20008,64.87685],[-145.20154,64.87598],[-145.20135,64.87567],[-145.20243,64.87566],[-145.2028,64.87601],[-145.20314,64.876],[-145.20352,64.87629],[-145.20399,64.87616],[-145.20416,64.87576],[-145.20481,64.87504],[-145.20545,64.87503],[-145.20713,64.87468],[-145.2072,64.87453],[-145.20687,64.87423],[-145.20544,64.87413],[-145.20463,64.87389],[-145.20362,64.87309],[-145.20359,64.87269],[-145.20374,64.8722],[-145.20498,64.87135],[-145.20659,64.87073],[-145.20633,64.87042],[-145.20587,64.87044],[-145.20555,64.87081],[-145.20517,64.87083],[-145.20497,64.87066],[-145.20504,64.87043],[-145.20469,64.87025],[-145.20532,64.86961],[-145.20416,64.86936],[-145.20448,64.86864],[-145.20441,64.86836],[-145.20483,64.86803],[-145.20552,64.86789],[-145.20612,64.86793],[-145.207,64.86757],[-145.2071,64.86725],[-145.20674,64.86701],[-145.20746,64.86544],[-145.20709,64.8651],[-145.20766,64.86488],[-145.20774,64.86456],[-145.20694,64.86223],[-145.20703,64.86151],[-145.20737,64.86112],[-145.20828,64.86102],[-145.20864,64.86061],[-145.21007,64.86028],[-145.21087,64.85974],[-145.20856,64.85941],[-145.20828,64.85974],[-145.20658,64.85976],[-145.20609,64.85947],[-145.20616,64.85903],[-145.20746,64.8589],[-145.20877,64.85896],[-145.21129,64.85853],[-145.2127,64.85857],[-145.21333,64.85872],[-145.21411,64.85861],[-145.21532,64.85869],[-145.21589,64.85857],[-145.21603,64.85843],[-145.21541,64.85795],[-145.21486,64.85792],[-145.21442,64.85766],[-145.21442,64.85747],[-145.21355,64.85737],[-145.21301,64.85698],[-145.21308,64.85677],[-145.21294,64.8565],[-145.2113,64.85642],[-145.20903,64.85678],[-145.20547,64.8564],[-145.20535,64.85623],[-145.20468,64.856],[-145.20479,64.85587],[-145.20591,64.8558],[-145.20546,64.85551],[-145.20486,64.85548],[-145.20538,64.85497],[-145.20472,64.85472],[-145.20465,64.85451],[-145.20509,64.85388],[-145.20477,64.85342],[-145.20484,64.85318],[-145.20522,64.85296],[-145.20569,64.85289],[-145.2084,64.85303],[-145.20929,64.85334],[-145.20947,64.85307],[-145.21217,64.85322],[-145.21298,64.85301],[-145.21389,64.85325],[-145.21604,64.85315],[-145.21696,64.8533],[-145.21785,64.85312],[-145.21806,64.85288],[-145.21908,64.85287],[-145.22077,64.85256],[-145.22155,64.85259],[-145.22299,64.85238],[-145.22289,64.85225],[-145.22193,64.85202],[-145.22197,64.85175],[-145.22265,64.8516],[-145.22438,64.85153],[-145.22632,64.85114],[-145.22821,64.85093],[-145.22887,64.8515],[-145.22849,64.85301],[-145.22812,64.85318],[-145.22908,64.85348],[-145.22901,64.85386],[-145.2287,64.85428],[-145.22877,64.85442],[-145.22963,64.85467],[-145.23001,64.85504],[-145.22976,64.85527],[-145.22903,64.85538],[-145.2286,64.85562],[-145.22821,64.85561],[-145.22857,64.85619],[-145.22847,64.85651],[-145.22854,64.85701],[-145.22893,64.85728],[-145.22869,64.85771],[-145.22921,64.85805],[-145.22953,64.85875],[-145.2293,64.85885],[-145.22811,64.85884],[-145.22802,64.85939],[-145.22651,64.85918],[-145.2263,64.85971],[-145.22594,64.85974],[-145.22566,64.85954],[-145.22515,64.85958],[-145.22387,64.85999],[-145.2236,64.86043],[-145.22304,64.86048],[-145.22278,64.86089],[-145.22233,64.8609],[-145.2218,64.86115],[-145.22182,64.86151],[-145.22288,64.86186],[-145.22268,64.86207],[-145.22177,64.86241],[-145.22157,64.86262],[-145.22156,64.86285],[-145.22453,64.86382],[-145.22421,64.86422],[-145.22204,64.86475],[-145.22088,64.86476],[-145.22063,64.86521],[-145.21901,64.86533],[-145.21875,64.8656],[-145.21871,64.86623],[-145.2164,64.86708],[-145.21455,64.86733],[-145.21258,64.86842],[-145.21296,64.86856],[-145.21534,64.8685],[-145.21615,64.86862],[-145.22438,64.86525],[-145.22606,64.8644],[-145.22632,64.86472],[-145.22688,64.86491],[-145.22783,64.86468],[-145.22813,64.86408],[-145.22842,64.86381],[-145.22958,64.86349],[-145.23056,64.86349],[-145.23217,64.86377],[-145.23238,64.86285],[-145.23381,64.86246],[-145.23537,64.86229],[-145.23638,64.86245],[-145.23738,64.8642],[-145.23742,64.86452],[-145.23838,64.86494],[-145.24242,64.86574],[-145.244,64.86532],[-145.24608,64.86529],[-145.24628,64.86545],[-145.24595,64.86628],[-145.24412,64.86706],[-145.24341,64.86755],[-145.24347,64.86768],[-145.24453,64.86801],[-145.24559,64.86824],[-145.24647,64.86823],[-145.24747,64.86807],[-145.24766,64.86779],[-145.25107,64.8678],[-145.25243,64.86807],[-145.25595,64.86783],[-145.25664,64.86825],[-145.25672,64.86855],[-145.25648,64.86897],[-145.25606,64.8692],[-145.25663,64.86929],[-145.25803,64.86942],[-145.25975,64.86932],[-145.25993,64.86907],[-145.25877,64.86841],[-145.25974,64.86835],[-145.26084,64.86841],[-145.26418,64.869],[-145.26465,64.8694],[-145.26476,64.86985],[-145.26456,64.87004],[-145.26342,64.87032],[-145.26382,64.87059],[-145.26419,64.87133],[-145.26181,64.87163],[-145.26133,64.87183],[-145.26145,64.87211],[-145.25925,64.8724],[-145.25869,64.87271],[-145.25555,64.8723],[-145.25515,64.87256],[-145.25214,64.87317],[-145.25116,64.87317],[-145.25195,64.87254],[-145.2518,64.87224],[-145.25105,64.87215],[-145.25102,64.87067],[-145.25019,64.87074],[-145.24992,64.87092],[-145.24988,64.87174],[-145.25015,64.87201],[-145.24983,64.87292],[-145.24823,64.87341],[-145.24774,64.87317],[-145.2467,64.87199],[-145.24599,64.87192],[-145.24591,64.87216],[-145.24635,64.87278],[-145.24645,64.87349],[-145.24564,64.87392],[-145.24605,64.8742],[-145.24586,64.87436],[-145.24442,64.87468],[-145.24381,64.87529],[-145.24266,64.87569],[-145.24242,64.87545],[-145.24126,64.87522],[-145.24087,64.87478],[-145.24053,64.87462],[-145.23973,64.8747],[-145.23899,64.87448],[-145.24074,64.87374],[-145.24078,64.8735],[-145.24033,64.87336],[-145.23966,64.87345],[-145.23964,64.87309],[-145.23991,64.8729],[-145.23932,64.87254],[-145.23983,64.87225],[-145.23987,64.87143],[-145.23913,64.87122],[-145.238,64.87134],[-145.23775,64.87156],[-145.23753,64.87217],[-145.23691,64.87259],[-145.23644,64.8733],[-145.23565,64.87391],[-145.23485,64.87409],[-145.23231,64.87344],[-145.23144,64.87353],[-145.23259,64.87289],[-145.23317,64.87214],[-145.23269,64.87188],[-145.23181,64.87199],[-145.23113,64.87171],[-145.23011,64.8708],[-145.22743,64.8708],[-145.22583,64.87041],[-145.22246,64.87085],[-145.22224,64.87108],[-145.22276,64.87189],[-145.22217,64.87211],[-145.22177,64.87181],[-145.22178,64.87134],[-145.22128,64.87123],[-145.22035,64.87184],[-145.22058,64.87223],[-145.22122,64.87256],[-145.22181,64.87256],[-145.2223,64.87237],[-145.22377,64.87306],[-145.22715,64.8742],[-145.22785,64.8743],[-145.22834,64.87455],[-145.22858,64.87501],[-145.2295,64.87544],[-145.23085,64.87563],[-145.23369,64.8776],[-145.23426,64.8779],[-145.23509,64.87807],[-145.23558,64.87865],[-145.2363,64.87905],[-145.23593,64.87942],[-145.23455,64.87967],[-145.23179,64.88064],[-145.23212,64.88081],[-145.23434,64.88048],[-145.23497,64.88061],[-145.23533,64.88091],[-145.23499,64.88167],[-145.23439,64.88222],[-145.23403,64.88292],[-145.23308,64.88313],[-145.23305,64.88336],[-145.23386,64.8837],[-145.23618,64.88335],[-145.23618,64.88359],[-145.23542,64.88421],[-145.23653,64.88429],[-145.2372,64.88417],[-145.23709,64.88441],[-145.23734,64.88463],[-145.23863,64.88375],[-145.23863,64.88352],[-145.23821,64.88329],[-145.23939,64.88291],[-145.24052,64.88234],[-145.24117,64.88251],[-145.24055,64.88279],[-145.24036,64.88305],[-145.24144,64.8832],[-145.24182,64.88348],[-145.24233,64.88363],[-145.24251,64.88329],[-145.24382,64.88359],[-145.24358,64.88492],[-145.24402,64.8851],[-145.24453,64.88504],[-145.2454,64.88431],[-145.24619,64.88423],[-145.24687,64.88387],[-145.24767,64.88379],[-145.24953,64.88391],[-145.25042,64.88377],[-145.25071,64.88431],[-145.25123,64.88467],[-145.25253,64.88516],[-145.25537,64.88596],[-145.25722,64.88614],[-145.25759,64.8871],[-145.25913,64.8877],[-145.25965,64.88829],[-145.25959,64.88859],[-145.26005,64.8888],[-145.26013,64.88946],[-145.25898,64.88987],[-145.25914,64.89015],[-145.26185,64.89026],[-145.26235,64.89014],[-145.26301,64.89028],[-145.26282,64.89112],[-145.26302,64.89148],[-145.26346,64.89176],[-145.26419,64.8918],[-145.26466,64.89211],[-145.26478,64.89261],[-145.26463,64.89297],[-145.26503,64.89306],[-145.26633,64.89263],[-145.26684,64.89266],[-145.26765,64.89323],[-145.26926,64.89352],[-145.26926,64.89373],[-145.27102,64.89395],[-145.2724,64.8944],[-145.27314,64.89486],[-145.27487,64.89631],[-145.27485,64.89715],[-145.27451,64.89745],[-145.27412,64.89771],[-145.2724,64.89791],[-145.27242,64.89829],[-145.27205,64.89858],[-145.27122,64.89876],[-145.26843,64.89856],[-145.267,64.89873],[-145.26557,64.89856],[-145.2641,64.89821],[-145.26312,64.89817],[-145.26225,64.89824],[-145.26172,64.8987],[-145.26109,64.89868],[-145.26038,64.89837],[-145.25862,64.89859],[-145.25667,64.89908],[-145.25626,64.89928],[-145.25602,64.89958],[-145.25475,64.8997],[-145.25417,64.89986],[-145.254,64.90008],[-145.25094,64.9004],[-145.25055,64.89994],[-145.24938,64.89976],[-145.24893,64.89994],[-145.24874,64.90032],[-145.24871,64.90077],[-145.24827,64.90095],[-145.24679,64.90105]]],[[[-145.19628,64.87839],[-145.19593,64.87793],[-145.19696,64.87772],[-145.19784,64.87729],[-145.19808,64.87727],[-145.19836,64.87744],[-145.19831,64.87803],[-145.19729,64.87811],[-145.1969,64.87835],[-145.19667,64.87872],[-145.19557,64.87929],[-145.19518,64.87933],[-145.19515,64.87921],[-145.19606,64.87881],[-145.19628,64.87839]]],[[[-145.17804,64.88252],[-145.17681,64.88247],[-145.1756,64.88208],[-145.17319,64.882],[-145.17212,64.88161],[-145.17145,64.88152],[-145.1711,64.88114],[-145.16961,64.88108],[-145.16851,64.88078],[-145.16729,64.88015],[-145.16733,64.88001],[-145.16774,64.87987],[-145.1678,64.8796],[-145.16805,64.87953],[-145.17095,64.87946],[-145.17253,64.87924],[-145.17367,64.87934],[-145.17424,64.87918],[-145.17598,64.87918],[-145.17619,64.87894],[-145.1784,64.87865],[-145.18096,64.87865],[-145.18246,64.879],[-145.18342,64.87867],[-145.18387,64.87866],[-145.18421,64.8788],[-145.18568,64.87842],[-145.18738,64.87833],[-145.18794,64.87819],[-145.1883,64.87819],[-145.18881,64.87843],[-145.18876,64.87858],[-145.18908,64.87858],[-145.18954,64.87826],[-145.19014,64.87822],[-145.19042,64.87788],[-145.19086,64.87778],[-145.19298,64.87777],[-145.19362,64.87811],[-145.19379,64.87849],[-145.19327,64.87887],[-145.19225,64.87902],[-145.19209,64.87919],[-145.19242,64.87971],[-145.19261,64.88039],[-145.19225,64.88069],[-145.19143,64.88078],[-145.19016,64.88131],[-145.18958,64.88144],[-145.18912,64.88124],[-145.1881,64.88113],[-145.18622,64.88108],[-145.18564,64.88119],[-145.18529,64.88139],[-145.18519,64.8817],[-145.18466,64.88179],[-145.18439,64.88161],[-145.18346,64.88153],[-145.18338,64.88164],[-145.18376,64.88193],[-145.18298,64.88226],[-145.18201,64.88201],[-145.1818,64.88224],[-145.17947,64.88249],[-145.17864,64.88275],[-145.17804,64.88252]]],[[[-145.19026,64.89223],[-145.19221,64.89228],[-145.19286,64.89259],[-145.19256,64.8932],[-145.19159,64.89347],[-145.19007,64.89361],[-145.18917,64.89322],[-145.1889,64.89296],[-145.19005,64.89255],[-145.19026,64.89223]]]]},"properties":{"fire_id":"ufid:2021-AKFAS-111397","source_collection":"history-2021","source_objectid":13746,"incident_name":"Salcha River 2","mapped_acres":2828.11,"mapped_acres_source":"poly_GISAcres","gis_acres":2828.11,"auto_acres":2828.104537614786,"reported_acres":2828.1,"percent_contained":null,"state":"AK","state_wfigs":"US-AK","county":"Fairbanks North Star","discovery_time_utc":"2021-08-01T03:36:21Z","perimeter_time_utc":"2021-09-01T21:37:00Z","perimeter_edit_time_utc":"2023-03-14T15:13:42Z","incident_modified_time_utc":"2021-10-05T23:24:51Z","containment_time_utc":null,"control_time_utc":null,"fire_out_time_utc":"2021-09-27T20:37:14Z","fire_cause":"Natural","fire_cause_general":"Natural","map_method":"Image Interpretation","source_dataset":"FFP","unique_fire_identifier":"2021-AKFAS-111397","irwin_id":"{D9F72569-F8CD-45DB-93F7-D7D05C4F4723}","global_id":"8b538391-12cb-4bfa-901a-06603702fa30"}}]}
