{"type":"FeatureCollection","features":[{"type":"Feature","geometry":{"type":"Polygon","coordinates":[[[-141.98845,62.56945],[-141.98606,62.56746],[-141.9744,62.56001],[-141.9731,62.55865],[-141.96856,62.55519],[-141.96566,62.55269],[-141.95797,62.54518],[-141.95288,62.54169],[-141.94749,62.53617],[-141.9415,62.5337],[-141.94226,62.53056],[-141.94616,62.52911],[-141.9525,62.52732],[-141.95883,62.52688],[-141.96086,62.52794],[-141.96197,62.53059],[-141.96415,62.53262],[-141.96827,62.53375],[-141.97363,62.53409],[-141.97728,62.53365],[-141.98265,62.53209],[-141.98729,62.52985],[-141.99119,62.52839],[-142.00239,62.52763],[-142.00484,62.52572],[-142.00364,62.52381],[-141.99976,62.52201],[-141.99569,62.52141],[-141.99734,62.52043],[-142.00026,62.51976],[-142.00829,62.51989],[-142.01339,62.52136],[-142.03113,62.52565],[-142.03688,62.52622],[-142.04376,62.5296],[-142.04131,62.53095],[-142.03581,62.53153],[-142.0357,62.53171],[-142.03892,62.53161],[-142.03618,62.53318],[-142.03519,62.53554],[-142.03879,62.54217],[-142.04342,62.54217],[-142.04756,62.53954],[-142.05049,62.53972],[-142.05072,62.54151],[-142.04518,62.54362],[-142.04339,62.54543],[-142.03924,62.54766],[-142.04019,62.55036],[-142.04288,62.54935],[-142.0463,62.54734],[-142.04987,62.54768],[-142.05262,62.54825],[-142.05261,62.54959],[-142.0538,62.55251],[-142.05801,62.55169],[-142.06182,62.55398],[-142.06621,62.55388],[-142.06622,62.55253],[-142.06502,62.55029],[-142.06748,62.54681],[-142.06846,62.54423],[-142.06971,62.54154],[-142.07264,62.5402],[-142.07798,62.54144],[-142.08162,62.54358],[-142.08216,62.54789],[-142.08573,62.54718],[-142.08599,62.54415],[-142.08747,62.54224],[-142.0921,62.54203],[-142.09476,62.54304],[-142.09524,62.54473],[-142.09522,62.54663],[-142.09105,62.55111],[-142.09299,62.55179],[-142.09883,62.55247],[-142.10128,62.55061],[-142.10591,62.5499],[-142.11334,62.54733],[-142.11587,62.54723],[-142.11808,62.5464],[-142.12094,62.54667],[-142.12167,62.54712],[-142.12207,62.5478],[-142.12387,62.54826],[-142.12491,62.54877],[-142.13458,62.54811],[-142.13481,62.54767],[-142.1358,62.54681],[-142.1385,62.54677],[-142.1398,62.54715],[-142.14029,62.54772],[-142.13871,62.55061],[-142.13927,62.55227],[-142.14513,62.55435],[-142.14601,62.55584],[-142.14502,62.55674],[-142.14912,62.5562],[-142.15044,62.55629],[-142.15379,62.55795],[-142.15908,62.55641],[-142.15787,62.55531],[-142.15958,62.55509],[-142.16097,62.55524],[-142.16227,62.5557],[-142.16284,62.5563],[-142.16463,62.55694],[-142.16708,62.55695],[-142.16798,62.55732],[-142.1718,62.55944],[-142.17714,62.56067],[-142.18453,62.56115],[-142.18641,62.56082],[-142.18748,62.55995],[-142.18944,62.55984],[-142.19091,62.55917],[-142.19166,62.55805],[-142.19624,62.55658],[-142.19844,62.55623],[-142.19788,62.55424],[-142.20131,62.55339],[-142.20692,62.55297],[-142.21035,62.55211],[-142.21533,62.55255],[-142.21657,62.55399],[-142.2123,62.55481],[-142.20999,62.55914],[-142.21403,62.56059],[-142.21962,62.56232],[-142.22054,62.56433],[-142.22177,62.56648],[-142.22175,62.56892],[-142.22205,62.57122],[-142.22327,62.57424],[-142.22904,62.57403],[-142.22921,62.5742],[-142.22587,62.57534],[-142.23008,62.57635],[-142.23763,62.57608],[-142.24151,62.57782],[-142.24359,62.58114],[-142.24414,62.58377],[-142.24631,62.58691],[-142.24427,62.59301],[-142.24644,62.59302],[-142.24604,62.59442],[-142.2399,62.59712],[-142.23286,62.59904],[-142.22929,62.59933],[-142.22917,62.59804],[-142.22674,62.59851],[-142.22686,62.59968],[-142.22774,62.60127],[-142.22365,62.60285],[-142.21679,62.60475],[-142.21939,62.60769],[-142.20825,62.61034],[-142.20942,62.6111],[-142.20532,62.6133],[-142.21364,62.61287],[-142.21817,62.61124],[-142.21935,62.61277],[-142.21506,62.61419],[-142.21266,62.61735],[-142.20837,62.61833],[-142.20955,62.61975],[-142.21001,62.62238],[-142.20476,62.62401],[-142.20361,62.62007],[-142.19549,62.62399],[-142.1931,62.62629],[-142.18927,62.62956],[-142.19337,62.62989],[-142.19336,62.63186],[-142.1972,62.63405],[-142.19897,62.63569],[-142.19836,62.6376],[-142.19834,62.6402],[-142.19863,62.64184],[-142.19862,62.6432],[-142.19741,62.64511],[-142.19293,62.64824],[-142.18787,62.65015],[-142.18934,62.65206],[-142.1914,62.65425],[-142.19138,62.65657],[-142.18723,62.65601],[-142.18454,62.65778],[-142.1881,62.65929],[-142.1857,62.66242],[-142.18095,62.66119],[-142.17892,62.66039],[-142.1762,62.66088],[-142.16743,62.65825],[-142.16229,62.65726],[-142.16175,62.65496],[-142.15889,62.65507],[-142.1577,62.65616],[-142.15571,62.6591],[-142.14801,62.65636],[-142.13998,62.65676],[-142.13733,62.6543],[-142.138,62.65379],[-142.13562,62.65296],[-142.13373,62.65164],[-142.12874,62.65076],[-142.12549,62.65107],[-142.12674,62.65173],[-142.12278,62.65264],[-142.11298,62.65317],[-142.10764,62.6522],[-142.10375,62.65476],[-142.10064,62.65814],[-142.09414,62.65738],[-142.08925,62.65539],[-142.08147,62.64994],[-142.07481,62.64773],[-142.07031,62.64592],[-142.06751,62.64615],[-142.06509,62.64504],[-142.06367,62.64389],[-142.06392,62.64263],[-142.06559,62.64083],[-142.06679,62.63925],[-142.06752,62.63756],[-142.06634,62.63581],[-142.06505,62.63433],[-142.06316,62.63291],[-142.06055,62.63159],[-142.05843,62.63006],[-142.05821,62.62689],[-142.05835,62.62465],[-142.05801,62.62224],[-142.05564,62.62104],[-142.05357,62.61974],[-142.05111,62.61922],[-142.05047,62.61891],[-142.05042,62.61837],[-142.05013,62.61789],[-142.0489,62.61737],[-142.04757,62.617],[-142.04711,62.61544],[-142.04728,62.61509],[-142.04172,62.61487],[-142.03676,62.6118],[-142.04176,62.6097],[-142.04388,62.60549],[-142.04014,62.60396],[-142.0385,62.6007],[-142.03519,62.59897],[-142.03895,62.59668],[-142.02939,62.59552],[-142.02816,62.5936],[-142.02527,62.59015],[-142.01989,62.58727],[-142.01242,62.58458],[-142.00828,62.58284],[-142.00373,62.57958],[-142.00475,62.57847],[-141.99619,62.57563],[-141.99207,62.57294],[-141.98845,62.56945]]]},"properties":{"fire_id":"ufid:2021-AKTAS-113366","source_collection":"history-2021","source_objectid":5426,"incident_name":"Black Hills","mapped_acres":30305.12,"mapped_acres_source":"poly_GISAcres","gis_acres":30305.12,"auto_acres":30305.0140133595,"reported_acres":30305.1,"percent_contained":null,"state":"AK","state_wfigs":"US-AK","county":"Southeast Fairbanks","discovery_time_utc":"2021-07-21T22:31:31Z","perimeter_time_utc":"2021-08-08T21:00:00Z","perimeter_edit_time_utc":"2023-03-14T15:13:42Z","incident_modified_time_utc":"2021-10-18T22:56:08Z","containment_time_utc":"2021-09-23T16:46:01Z","control_time_utc":"2021-09-23T16:46:05Z","fire_out_time_utc":"2021-09-23T16:46:10Z","fire_cause":"Natural","fire_cause_general":"Natural","map_method":"Image Interpretation","source_dataset":"FFP","unique_fire_identifier":"2021-AKTAS-113366","irwin_id":"{01BB7DA1-9EF2-4FBF-886C-F231EA44A1B3}","global_id":"91635113-e29c-4645-a46d-030fd0a6fa8d"}},{"type":"Feature","geometry":{"type":"Polygon","coordinates":[[[-143.66148,64.97452],[-143.65916,64.97471],[-143.65859,64.97503],[-143.65826,64.97481],[-143.65689,64.97435],[-143.65532,64.9745],[-143.65527,64.97439],[-143.65472,64.97434],[-143.65422,64.97445],[-143.65411,64.97476],[-143.65379,64.97482],[-143.65283,64.97398],[-143.6512,64.97384],[-143.65005,64.9739],[-143.64874,64.97481],[-143.64765,64.97511],[-143.6457,64.97517],[-143.64549,64.97541],[-143.64554,64.97563],[-143.64524,64.97583],[-143.64499,64.97564],[-143.645,64.97525],[-143.6444,64.97519],[-143.64429,64.97494],[-143.64463,64.97486],[-143.64467,64.97474],[-143.64414,64.97435],[-143.64421,64.97416],[-143.64569,64.97374],[-143.64585,64.97342],[-143.64523,64.9736],[-143.64437,64.97358],[-143.64396,64.97386],[-143.64334,64.97375],[-143.64241,64.974],[-143.64244,64.97379],[-143.64204,64.97372],[-143.64164,64.97423],[-143.64118,64.97431],[-143.64038,64.97427],[-143.64069,64.97406],[-143.64004,64.97385],[-143.63971,64.97383],[-143.63915,64.9741],[-143.6388,64.97408],[-143.63861,64.97396],[-143.63865,64.97381],[-143.63827,64.97385],[-143.63887,64.97358],[-143.639,64.97328],[-143.64158,64.97313],[-143.64231,64.97264],[-143.64241,64.97237],[-143.64281,64.97208],[-143.64219,64.97165],[-143.64242,64.97148],[-143.64364,64.97139],[-143.64438,64.97107],[-143.64492,64.971],[-143.64502,64.97059],[-143.64778,64.97084],[-143.6493,64.9708],[-143.64985,64.97058],[-143.65042,64.9707],[-143.65225,64.9701],[-143.65249,64.96905],[-143.65168,64.96899],[-143.65103,64.9692],[-143.65046,64.96916],[-143.65014,64.96899],[-143.65036,64.96857],[-143.65021,64.96827],[-143.65045,64.96797],[-143.65091,64.96788],[-143.65163,64.9674],[-143.65267,64.96766],[-143.65349,64.96754],[-143.65391,64.96764],[-143.65471,64.96813],[-143.65752,64.96873],[-143.65792,64.96871],[-143.65814,64.96855],[-143.65778,64.96835],[-143.6579,64.96803],[-143.6581,64.96798],[-143.65741,64.96752],[-143.65625,64.96701],[-143.6551,64.9667],[-143.65461,64.96626],[-143.65372,64.96605],[-143.65297,64.96537],[-143.65132,64.96475],[-143.65077,64.96487],[-143.65052,64.96516],[-143.65003,64.96538],[-143.64942,64.96537],[-143.64827,64.96507],[-143.64782,64.96468],[-143.64796,64.96457],[-143.64816,64.96395],[-143.64921,64.96377],[-143.64965,64.96343],[-143.64864,64.96292],[-143.64083,64.9615],[-143.63957,64.96113],[-143.64011,64.9608],[-143.6393,64.96074],[-143.63763,64.96121],[-143.63635,64.96089],[-143.63592,64.9606],[-143.63638,64.96022],[-143.63651,64.95959],[-143.63626,64.95777],[-143.63629,64.95699],[-143.63473,64.95618],[-143.63391,64.95616],[-143.6331,64.95572],[-143.63294,64.95552],[-143.63303,64.95519],[-143.63286,64.9546],[-143.63291,64.95348],[-143.63119,64.9523],[-143.63133,64.95168],[-143.63086,64.95156],[-143.63004,64.95106],[-143.63004,64.95088],[-143.62942,64.95073],[-143.62886,64.95093],[-143.62702,64.95072],[-143.62643,64.95031],[-143.6266,64.94979],[-143.62808,64.94937],[-143.63134,64.94925],[-143.63305,64.9496],[-143.63352,64.95034],[-143.63448,64.95076],[-143.63497,64.95068],[-143.63559,64.95083],[-143.63598,64.95109],[-143.63644,64.95175],[-143.63641,64.95228],[-143.64139,64.95376],[-143.64245,64.95438],[-143.64365,64.95414],[-143.6447,64.95372],[-143.64521,64.95375],[-143.64565,64.9536],[-143.64606,64.95366],[-143.64621,64.9538],[-143.64607,64.95405],[-143.64578,64.95417],[-143.64621,64.95429],[-143.64612,64.95446],[-143.64524,64.95456],[-143.64457,64.95479],[-143.6446,64.95495],[-143.64372,64.95531],[-143.64352,64.95617],[-143.64258,64.95588],[-143.64194,64.95591],[-143.64155,64.9561],[-143.64185,64.95657],[-143.64186,64.95698],[-143.64094,64.95736],[-143.64009,64.95739],[-143.63843,64.9582],[-143.63958,64.95929],[-143.64162,64.95936],[-143.64202,64.95886],[-143.64224,64.95813],[-143.6427,64.95772],[-143.64351,64.9572],[-143.64427,64.95697],[-143.64508,64.95702],[-143.64647,64.95804],[-143.64694,64.95816],[-143.64792,64.95794],[-143.64983,64.95804],[-143.64959,64.95869],[-143.64994,64.95888],[-143.65011,64.95945],[-143.6511,64.95952],[-143.65135,64.95913],[-143.65176,64.95888],[-143.65308,64.95888],[-143.65517,64.9593],[-143.65615,64.95917],[-143.6564,64.95875],[-143.65711,64.95877],[-143.6576,64.95899],[-143.6586,64.95909],[-143.65954,64.95968],[-143.65941,64.96044],[-143.66042,64.96092],[-143.66237,64.96098],[-143.66322,64.96091],[-143.66377,64.9607],[-143.66408,64.96083],[-143.66441,64.96121],[-143.66564,64.96125],[-143.66649,64.96104],[-143.66711,64.96106],[-143.66958,64.9614],[-143.67018,64.96156],[-143.67056,64.96188],[-143.67113,64.96212],[-143.67162,64.96217],[-143.67279,64.96181],[-143.67286,64.96162],[-143.67464,64.96129],[-143.67853,64.96127],[-143.67902,64.96106],[-143.68094,64.96077],[-143.6827,64.96069],[-143.68363,64.96085],[-143.68557,64.96157],[-143.68667,64.96226],[-143.6872,64.96242],[-143.68767,64.96305],[-143.6883,64.96277],[-143.68946,64.96277],[-143.68972,64.96294],[-143.68955,64.96323],[-143.68908,64.96353],[-143.68992,64.96397],[-143.6912,64.96401],[-143.69178,64.96359],[-143.69341,64.96364],[-143.69363,64.96375],[-143.69333,64.96404],[-143.6932,64.96446],[-143.69386,64.9646],[-143.69429,64.96493],[-143.69462,64.96546],[-143.69533,64.96571],[-143.69734,64.96571],[-143.6976,64.96618],[-143.69929,64.96706],[-143.70109,64.96737],[-143.70344,64.96816],[-143.70412,64.96864],[-143.70586,64.96918],[-143.70586,64.96955],[-143.70644,64.96982],[-143.70755,64.96974],[-143.70779,64.96989],[-143.70768,64.97011],[-143.70711,64.97025],[-143.70699,64.97042],[-143.70521,64.97081],[-143.70446,64.97081],[-143.70376,64.97123],[-143.7033,64.97124],[-143.70301,64.97155],[-143.70239,64.97157],[-143.70215,64.97232],[-143.70222,64.97256],[-143.70298,64.97277],[-143.70297,64.97299],[-143.7024,64.97335],[-143.70251,64.97352],[-143.70459,64.97402],[-143.70622,64.97464],[-143.70641,64.97482],[-143.70836,64.97517],[-143.70874,64.9755],[-143.70855,64.97571],[-143.70813,64.97585],[-143.70809,64.97612],[-143.7085,64.97633],[-143.70846,64.97661],[-143.70809,64.97682],[-143.70695,64.97694],[-143.70708,64.97736],[-143.70692,64.97754],[-143.70719,64.97778],[-143.70784,64.97764],[-143.70812,64.97774],[-143.70832,64.97787],[-143.70824,64.97809],[-143.70859,64.97869],[-143.70918,64.97886],[-143.70893,64.97898],[-143.70812,64.97894],[-143.70744,64.97918],[-143.709,64.98028],[-143.70898,64.98119],[-143.70912,64.98132],[-143.70901,64.98146],[-143.7092,64.98162],[-143.70922,64.98183],[-143.70918,64.98198],[-143.70896,64.98203],[-143.70763,64.982],[-143.7074,64.98188],[-143.70768,64.98146],[-143.70754,64.98121],[-143.70693,64.9813],[-143.70703,64.98154],[-143.70656,64.98184],[-143.70684,64.98205],[-143.70647,64.98243],[-143.70734,64.98282],[-143.70743,64.98299],[-143.70294,64.98341],[-143.70137,64.98343],[-143.70136,64.98323],[-143.70081,64.98287],[-143.69969,64.98274],[-143.6999,64.98244],[-143.70009,64.98238],[-143.7001,64.98223],[-143.69914,64.98184],[-143.69913,64.9815],[-143.69832,64.98099],[-143.69798,64.98051],[-143.6954,64.98003],[-143.69315,64.97868],[-143.6901,64.97858],[-143.68779,64.9796],[-143.68653,64.97972],[-143.68566,64.98031],[-143.68403,64.98055],[-143.68239,64.98055],[-143.68239,64.98084],[-143.67968,64.98071],[-143.67928,64.98085],[-143.67895,64.98159],[-143.67976,64.98203],[-143.68038,64.98207],[-143.681,64.98232],[-143.681,64.9826],[-143.68052,64.98274],[-143.68081,64.98285],[-143.68078,64.98312],[-143.68022,64.98359],[-143.68065,64.98397],[-143.68055,64.98425],[-143.67904,64.98518],[-143.67862,64.98518],[-143.67797,64.98478],[-143.67595,64.9847],[-143.67461,64.98446],[-143.67384,64.98453],[-143.67318,64.98439],[-143.67377,64.98407],[-143.67109,64.98347],[-143.67095,64.98327],[-143.67052,64.98308],[-143.67026,64.98273],[-143.66983,64.98251],[-143.66972,64.98227],[-143.66938,64.98221],[-143.66838,64.98212],[-143.66729,64.98238],[-143.66723,64.98265],[-143.66787,64.98306],[-143.66827,64.98362],[-143.66814,64.9838],[-143.66753,64.98396],[-143.66623,64.98401],[-143.66491,64.98382],[-143.66322,64.98332],[-143.66313,64.98301],[-143.66396,64.98278],[-143.66451,64.98227],[-143.66475,64.98183],[-143.66695,64.9814],[-143.6687,64.98083],[-143.66795,64.98024],[-143.66853,64.98021],[-143.66898,64.97989],[-143.66962,64.97993],[-143.66992,64.97972],[-143.66967,64.97962],[-143.66835,64.97982],[-143.66734,64.97968],[-143.66711,64.97943],[-143.66771,64.97892],[-143.66738,64.97848],[-143.66741,64.97824],[-143.66688,64.97807],[-143.66714,64.97796],[-143.66853,64.97801],[-143.66984,64.97781],[-143.67214,64.97724],[-143.67287,64.97744],[-143.67303,64.97766],[-143.6764,64.97774],[-143.67651,64.97744],[-143.67802,64.97723],[-143.67743,64.97696],[-143.67835,64.97627],[-143.6788,64.97609],[-143.67869,64.9759],[-143.67693,64.97574],[-143.6768,64.97542],[-143.67845,64.97542],[-143.6788,64.97562],[-143.67935,64.97568],[-143.67989,64.97554],[-143.68007,64.97528],[-143.67992,64.97519],[-143.68033,64.97503],[-143.68182,64.97515],[-143.68224,64.97503],[-143.68268,64.97455],[-143.68352,64.97447],[-143.68355,64.97435],[-143.68335,64.97429],[-143.68301,64.9739],[-143.68293,64.97344],[-143.68247,64.97324],[-143.68025,64.97327],[-143.67997,64.97348],[-143.6791,64.97369],[-143.67916,64.97388],[-143.67899,64.97405],[-143.67865,64.97409],[-143.67759,64.97374],[-143.67694,64.97424],[-143.67641,64.97434],[-143.67616,64.97416],[-143.67616,64.97397],[-143.67406,64.97379],[-143.67366,64.97357],[-143.67269,64.974],[-143.67351,64.9745],[-143.67284,64.97497],[-143.67201,64.97483],[-143.67158,64.97495],[-143.67006,64.97487],[-143.67015,64.97501],[-143.67,64.97516],[-143.66965,64.97521],[-143.66919,64.97574],[-143.6684,64.97604],[-143.66803,64.97602],[-143.66795,64.97569],[-143.66773,64.97548],[-143.66693,64.97542],[-143.66672,64.97519],[-143.66608,64.97515],[-143.66614,64.97487],[-143.66603,64.97479],[-143.66464,64.97476],[-143.6637,64.97502],[-143.66148,64.97452]]]},"properties":{"fire_id":"ufid:2021-AKUYD-000309","source_collection":"history-2021","source_objectid":9978,"incident_name":"Crescent Creek","mapped_acres":1384.0,"mapped_acres_source":"poly_GISAcres","gis_acres":1384.0,"auto_acres":1383.969747285731,"reported_acres":1384.0,"percent_contained":null,"state":"AK","state_wfigs":"US-AK","county":"Yukon-Koyukuk","discovery_time_utc":"2021-07-02T00:15:00Z","perimeter_time_utc":"2021-09-03T21:17:00Z","perimeter_edit_time_utc":"2023-03-14T15:13:42Z","incident_modified_time_utc":"2021-09-10T00:29:55Z","containment_time_utc":"2021-09-03T01:52:00Z","control_time_utc":"2021-09-03T01:52:00Z","fire_out_time_utc":"2021-09-03T01:52:00Z","fire_cause":"Natural","fire_cause_general":"Natural","map_method":"Image Interpretation","source_dataset":"FFP","unique_fire_identifier":"2021-AKUYD-000309","irwin_id":"{C5ED6535-8217-4130-B795-E81AE6BF02D1}","global_id":"985cc975-a602-4f80-81a3-1ace52d6ae39"}},{"type":"Feature","geometry":{"type":"Polygon","coordinates":[[[-141.88273,63.57651],[-141.88305,63.57624],[-141.88105,63.5758],[-141.88091,63.57527],[-141.88198,63.57464],[-141.88287,63.5747],[-141.88371,63.57506],[-141.88469,63.57515],[-141.88509,63.57466],[-141.88505,63.57427],[-141.8854,63.57408],[-141.88639,63.57419],[-141.8865,63.57474],[-141.88668,63.57493],[-141.89034,63.57529],[-141.89063,63.57513],[-141.89084,63.57471],[-141.89158,63.57473],[-141.89301,63.57533],[-141.89435,63.57538],[-141.89508,63.57654],[-141.89543,63.57646],[-141.89555,63.57667],[-141.8949,63.57689],[-141.89473,63.57734],[-141.89403,63.57769],[-141.89531,63.57817],[-141.89504,63.57879],[-141.89538,63.57916],[-141.89557,63.57995],[-141.895,63.58011],[-141.89499,63.58092],[-141.89527,63.58116],[-141.8961,63.5814],[-141.8964,63.58167],[-141.89761,63.58186],[-141.89739,63.58217],[-141.89642,63.58245],[-141.89592,63.58291],[-141.89404,63.58322],[-141.89324,63.58318],[-141.8929,63.58301],[-141.89347,63.5825],[-141.89342,63.58237],[-141.89238,63.58238],[-141.89043,63.58188],[-141.89031,63.58205],[-141.88934,63.58186],[-141.88897,63.58199],[-141.88865,63.58188],[-141.88811,63.5814],[-141.88846,63.5811],[-141.88814,63.58103],[-141.88834,63.58084],[-141.88836,63.58057],[-141.88817,63.58034],[-141.88812,63.57993],[-141.88765,63.57962],[-141.88711,63.57956],[-141.88651,63.57977],[-141.88607,63.58024],[-141.88614,63.58046],[-141.88502,63.58087],[-141.8844,63.58077],[-141.88356,63.58088],[-141.88324,63.5807],[-141.88213,63.58067],[-141.88153,63.58091],[-141.88168,63.58125],[-141.88205,63.58146],[-141.88172,63.58219],[-141.8813,63.58243],[-141.88041,63.58185],[-141.87987,63.58178],[-141.8793,63.58198],[-141.87909,63.58246],[-141.87722,63.58198],[-141.87695,63.58162],[-141.87695,63.58134],[-141.87747,63.58096],[-141.87773,63.58024],[-141.87807,63.58006],[-141.87768,63.58009],[-141.87803,63.57987],[-141.87872,63.57976],[-141.87912,63.57953],[-141.87909,63.57931],[-141.88034,63.57863],[-141.88113,63.57863],[-141.88136,63.57807],[-141.88061,63.57824],[-141.87997,63.57778],[-141.8792,63.57846],[-141.87806,63.57863],[-141.87633,63.57847],[-141.87547,63.57804],[-141.87502,63.57829],[-141.87462,63.57821],[-141.87338,63.57845],[-141.87338,63.57865],[-141.87286,63.57889],[-141.87249,63.57897],[-141.87251,63.57873],[-141.87137,63.57908],[-141.8711,63.57884],[-141.87123,63.57861],[-141.87081,63.57839],[-141.87121,63.57794],[-141.87245,63.57746],[-141.87278,63.57701],[-141.87355,63.5765],[-141.8738,63.57592],[-141.87358,63.57566],[-141.87346,63.5751],[-141.87289,63.57505],[-141.87185,63.57466],[-141.86911,63.57481],[-141.86869,63.57458],[-141.86869,63.57436],[-141.86911,63.57395],[-141.86792,63.57387],[-141.86785,63.57367],[-141.86758,63.57352],[-141.86778,63.57339],[-141.86746,63.57319],[-141.86525,63.57355],[-141.86253,63.57325],[-141.86217,63.57263],[-141.86155,63.57281],[-141.85997,63.57254],[-141.85913,63.57174],[-141.85958,63.57144],[-141.86124,63.57129],[-141.86294,63.57156],[-141.86359,63.5715],[-141.86673,63.57185],[-141.86739,63.57215],[-141.86806,63.57219],[-141.86831,63.57189],[-141.86945,63.57166],[-141.87168,63.57194],[-141.87217,63.57219],[-141.87299,63.57227],[-141.87382,63.5729],[-141.87397,63.57315],[-141.87587,63.57409],[-141.87666,63.57463],[-141.87717,63.57523],[-141.87674,63.57603],[-141.87865,63.57633],[-141.87949,63.57665],[-141.87964,63.57645],[-141.88038,63.57631],[-141.8812,63.57638],[-141.88164,63.57659],[-141.88273,63.57651]]]},"properties":{"fire_id":"ufid:2021-AKTAS-113209","source_collection":"history-2021","source_objectid":10950,"incident_name":"Dennison Fork","mapped_acres":215.8,"mapped_acres_source":"poly_GISAcres","gis_acres":215.8,"auto_acres":215.75352203450805,"reported_acres":215.8,"percent_contained":null,"state":"AK","state_wfigs":"US-AK","county":"Southeast Fairbanks","discovery_time_utc":"2021-06-17T01:22:17Z","perimeter_time_utc":"2021-07-04T19:00:00Z","perimeter_edit_time_utc":"2023-03-14T15:13:42Z","incident_modified_time_utc":"2021-09-24T23:15:02Z","containment_time_utc":"2021-08-13T00:24:46Z","control_time_utc":"2021-08-13T00:24:50Z","fire_out_time_utc":"2021-08-13T00:24:56Z","fire_cause":"Natural","fire_cause_general":"Natural","map_method":"Image Interpretation","source_dataset":"FFP","unique_fire_identifier":"2021-AKTAS-113209","irwin_id":"{E9492197-B51D-46E9-A7C1-8D497704E052}","global_id":"e3b207e9-fea5-4c4c-b138-21fb88320dc2"}},{"type":"Feature","geometry":{"type":"Polygon","coordinates":[[[-143.02423,63.84466],[-143.02105,63.84479],[-143.02069,63.84494],[-143.02046,63.84521],[-143.01849,63.84576],[-143.01659,63.84604],[-143.01599,63.84582],[-143.01431,63.84646],[-143.01233,63.8468],[-143.01152,63.84681],[-143.01092,63.84656],[-143.0109,63.8464],[-143.01113,63.84613],[-143.01176,63.84576],[-143.01284,63.84545],[-143.0121,63.84458],[-143.01129,63.84451],[-143.01144,63.84477],[-143.01191,63.84496],[-143.01151,63.84522],[-143.01091,63.84536],[-143.0095,63.84518],[-143.00909,63.84455],[-143.0083,63.84432],[-143.00739,63.84449],[-143.00566,63.84519],[-143.00446,63.84514],[-143.00412,63.84531],[-143.00329,63.84538],[-143.003,63.84523],[-143.00313,63.84512],[-143.00292,63.84503],[-143.00186,63.84492],[-143.00155,63.84468],[-143.00162,63.84442],[-143.00208,63.8441],[-143.00235,63.84373],[-143.00183,63.84373],[-143.00256,63.84333],[-143.00283,63.84299],[-143.00425,63.84255],[-143.00479,63.84251],[-143.00551,63.84263],[-143.00609,63.84292],[-143.00663,63.84289],[-143.00768,63.84244],[-143.01056,63.84217],[-143.01144,63.84174],[-143.01136,63.84149],[-143.01313,63.84113],[-143.01371,63.84071],[-143.01338,63.84026],[-143.01359,63.84003],[-143.0143,63.83993],[-143.01467,63.83973],[-143.01468,63.83926],[-143.01576,63.83906],[-143.01636,63.83919],[-143.01779,63.83886],[-143.01821,63.83907],[-143.01783,63.83939],[-143.01583,63.84004],[-143.01575,63.84039],[-143.01637,63.84073],[-143.01722,63.84093],[-143.0183,63.84084],[-143.01876,63.84043],[-143.01921,63.84029],[-143.01949,63.83985],[-143.02003,63.83966],[-143.02092,63.83958],[-143.02225,63.83975],[-143.02243,63.84003],[-143.02557,63.83966],[-143.02727,63.84027],[-143.02831,63.84025],[-143.02992,63.84069],[-143.0304,63.84071],[-143.03071,63.84053],[-143.03032,63.83997],[-143.02983,63.83971],[-143.02881,63.83971],[-143.0284,63.83949],[-143.02973,63.83928],[-143.03722,63.83997],[-143.03753,63.84027],[-143.0369,63.84069],[-143.03752,63.84072],[-143.03673,63.84111],[-143.0353,63.84126],[-143.03374,63.84164],[-143.03357,63.84203],[-143.0344,63.8422],[-143.03448,63.84261],[-143.03396,63.84278],[-143.03205,63.84256],[-143.03182,63.84284],[-143.03109,63.84298],[-143.0304,63.84337],[-143.02951,63.84365],[-143.02916,63.84347],[-143.02872,63.84367],[-143.0271,63.84371],[-143.02674,63.84407],[-143.02591,63.84439],[-143.02423,63.84466]]]},"properties":{"fire_id":"ufid:2021-AKTAS-113167","source_collection":"history-2021","source_objectid":11847,"incident_name":"Wolf Creek","mapped_acres":181.7,"mapped_acres_source":"poly_GISAcres","gis_acres":181.7,"auto_acres":181.71871258161028,"reported_acres":181.7,"percent_contained":null,"state":"AK","state_wfigs":"US-AK","county":"Southeast Fairbanks","discovery_time_utc":"2021-06-09T00:34:57Z","perimeter_time_utc":"2021-07-05T21:17:57Z","perimeter_edit_time_utc":"2023-03-14T15:13:42Z","incident_modified_time_utc":"2021-08-23T22:26:01Z","containment_time_utc":"2021-08-13T00:26:24Z","control_time_utc":"2021-08-13T00:26:28Z","fire_out_time_utc":"2021-08-13T00:26:33Z","fire_cause":"Natural","fire_cause_general":"Natural","map_method":"Image Interpretation","source_dataset":"FFP","unique_fire_identifier":"2021-AKTAS-113167","irwin_id":"{881A2310-E52C-4190-A765-DCF46D03972E}","global_id":"a009f730-482e-444b-a7aa-1ba1391afc4d"}},{"type":"Feature","geometry":{"type":"Polygon","coordinates":[[[-141.45305,64.96573],[-141.4516,64.96649],[-141.45092,64.96651],[-141.44984,64.96595],[-141.44941,64.96546],[-141.44943,64.96519],[-141.44839,64.96481],[-141.4486,64.96434],[-141.45085,64.96402],[-141.45088,64.96387],[-141.45035,64.96362],[-141.45073,64.9633],[-141.45018,64.96314],[-141.44895,64.96305],[-141.44858,64.96336],[-141.4487,64.96355],[-141.44854,64.96372],[-141.44703,64.9638],[-141.44643,64.9637],[-141.44653,64.96358],[-141.44555,64.9632],[-141.44544,64.9627],[-141.44554,64.96248],[-141.44692,64.96213],[-141.44768,64.96213],[-141.44873,64.96187],[-141.4489,64.96168],[-141.44991,64.96134],[-141.45051,64.96088],[-141.45126,64.96056],[-141.45291,64.96077],[-141.45433,64.9605],[-141.45506,64.96059],[-141.45593,64.96103],[-141.45818,64.96129],[-141.4583,64.9614],[-141.45823,64.96151],[-141.45741,64.96177],[-141.458,64.96212],[-141.45774,64.96256],[-141.4576,64.96265],[-141.45658,64.9625],[-141.45621,64.96264],[-141.45634,64.96288],[-141.45794,64.96325],[-141.45787,64.96342],[-141.45821,64.96368],[-141.45875,64.96369],[-141.45901,64.96391],[-141.45902,64.96409],[-141.45859,64.9644],[-141.45812,64.9644],[-141.45826,64.96455],[-141.45747,64.9647],[-141.4535,64.96435],[-141.45391,64.96456],[-141.45508,64.96482],[-141.45947,64.96527],[-141.46071,64.96551],[-141.4625,64.96591],[-141.46332,64.9664],[-141.46321,64.96665],[-141.46151,64.96632],[-141.46055,64.96667],[-141.45305,64.96573]]]},"properties":{"fire_id":"ufid:2021-AKUYD-000416","source_collection":"history-2021","source_objectid":13370,"incident_name":"Big Boulder","mapped_acres":69.5,"mapped_acres_source":"poly_GISAcres","gis_acres":69.5,"auto_acres":69.46166198677915,"reported_acres":69.5,"percent_contained":null,"state":"AK","state_wfigs":"US-AK","county":"Southeast Fairbanks","discovery_time_utc":"2021-08-05T16:52:00Z","perimeter_time_utc":"2021-08-31T21:07:00Z","perimeter_edit_time_utc":"2023-03-14T15:13:42Z","incident_modified_time_utc":"2021-09-09T23:09:42Z","containment_time_utc":"2021-09-03T01:17:00Z","control_time_utc":"2021-09-03T01:17:00Z","fire_out_time_utc":"2021-09-03T01:17:00Z","fire_cause":"Natural","fire_cause_general":"Natural","map_method":"Image Interpretation","source_dataset":"FFP","unique_fire_identifier":"2021-AKUYD-000416","irwin_id":"{8614821A-A1F6-4268-835D-F6DBFF5D905D}","global_id":"f1697f7c-ae3e-478d-bec8-1f44ce6932e8"}}]}
