{"type":"FeatureCollection","features":[{"type":"Feature","geometry":{"type":"Polygon","coordinates":[[[-93.42124,35.9443],[-93.42164,35.94507],[-93.42126,35.9451],[-93.42103,35.94494],[-93.42078,35.94437],[-93.42096,35.94413],[-93.42124,35.9443]]]},"properties":{"fire_id":"ufid:2021-ARBUP-000987","source_collection":"history-2021","source_objectid":4063,"incident_name":"Cave Mountain","mapped_acres":1.0,"mapped_acres_source":"poly_GISAcres","gis_acres":1.0,"auto_acres":1.0726623805398374,"reported_acres":1.0,"percent_contained":null,"state":"AR","state_wfigs":"US-AR","county":"Newton","discovery_time_utc":"2021-04-20T18:42:00Z","perimeter_time_utc":"2021-04-20T23:42:30Z","perimeter_edit_time_utc":"2023-03-14T15:13:42Z","incident_modified_time_utc":"2021-10-13T21:18:46Z","containment_time_utc":"2021-04-20T21:10:00Z","control_time_utc":"2021-05-12T15:00:00Z","fire_out_time_utc":"2021-05-28T20:00:00Z","fire_cause":"Human","fire_cause_general":"Railroad operations and maintenance","map_method":"Hand Sketch","source_dataset":"FFP","unique_fire_identifier":"2021-ARBUP-000987","irwin_id":"{1486D4BE-D7CC-42DD-A1EA-087E247228DF}","global_id":"1b5ab1f1-1d23-4a8f-9531-8b9ff72cb1e0"}},{"type":"Feature","geometry":{"type":"Polygon","coordinates":[[[-93.63217,35.04533],[-93.63232,35.04509],[-93.63259,35.04544],[-93.63234,35.04552],[-93.63217,35.04533]]]},"properties":{"fire_id":"ufid:2021-AROUF-002249","source_collection":"history-2021","source_objectid":8166,"incident_name":"877 Fire","mapped_acres":0.2478264945359768,"mapped_acres_source":"poly_Acres_AutoCalc_fallback","gis_acres":null,"auto_acres":0.2478264945359768,"reported_acres":0.25,"percent_contained":null,"state":"AR","state_wfigs":"US-AR","county":"Yell","discovery_time_utc":"2021-09-30T15:31:00Z","perimeter_time_utc":null,"perimeter_edit_time_utc":"2023-03-14T15:13:42Z","incident_modified_time_utc":"2021-12-17T14:03:40Z","containment_time_utc":"2021-09-30T19:23:00Z","control_time_utc":"2021-10-01T15:45:00Z","fire_out_time_utc":"2021-10-04T13:00:00Z","fire_cause":"Human","fire_cause_general":"Equipment and vehicle use","map_method":"GPS-Walked","source_dataset":"FFP","unique_fire_identifier":"2021-AROUF-002249","irwin_id":"{40509025-985D-492A-A524-EE27AFDD0CE9}","global_id":"fa0335bb-1212-4153-9672-eda26f8a19d8"}},{"type":"Feature","geometry":{"type":"Polygon","coordinates":[[[-93.44492,35.66919],[-93.44412,35.66956],[-93.44237,35.66922],[-93.44142,35.67035],[-93.44034,35.6707],[-93.43963,35.66958],[-93.44014,35.66905],[-93.44019,35.66838],[-93.44126,35.66781],[-93.44255,35.66776],[-93.44507,35.66856],[-93.44492,35.66919]]]},"properties":{"fire_id":"ufid:2021-AROZF-002408","source_collection":"history-2021","source_objectid":8755,"incident_name":"OZONE","mapped_acres":21.5418669725673,"mapped_acres_source":"poly_Acres_AutoCalc_fallback","gis_acres":null,"auto_acres":21.5418669725673,"reported_acres":16.0,"percent_contained":null,"state":"AR","state_wfigs":"US-AR","county":"Johnson","discovery_time_utc":"2021-11-22T14:10:00Z","perimeter_time_utc":null,"perimeter_edit_time_utc":"2023-03-14T15:13:42Z","incident_modified_time_utc":"2022-01-04T20:37:05Z","containment_time_utc":"2021-11-22T20:08:00Z","control_time_utc":"2021-11-25T18:00:00Z","fire_out_time_utc":"2021-12-17T22:00:00Z","fire_cause":"Human","fire_cause_general":"Recreation and ceremony","map_method":"Hand Sketch","source_dataset":"FFP","unique_fire_identifier":"2021-AROZF-002408","irwin_id":"{AA17114D-E8C8-4965-BFCB-6755182F5F56}","global_id":"89d0bac6-28cd-4a21-8a60-09e9b4b87278"}},{"type":"Feature","geometry":{"type":"Polygon","coordinates":[[[-93.60879,35.89144],[-93.60849,35.89184],[-93.60853,35.89247],[-93.60793,35.89252],[-93.60734,35.89339],[-93.60634,35.89363],[-93.60637,35.89386],[-93.60577,35.89442],[-93.60453,35.89465],[-93.60381,35.89415],[-93.60388,35.89377],[-93.60408,35.89357],[-93.60458,35.89363],[-93.60506,35.89339],[-93.60496,35.89313],[-93.60503,35.89288],[-93.60597,35.89222],[-93.60619,35.89174],[-93.60613,35.89141],[-93.60623,35.89127],[-93.60684,35.89127],[-93.60692,35.89143],[-93.6072,35.89143],[-93.60784,35.89112],[-93.60817,35.89112],[-93.60879,35.89144]]]},"properties":{"fire_id":"ufid:2021-AROZF-002577","source_collection":"history-2021","source_objectid":9390,"incident_name":"Mitchell Branch","mapped_acres":19.370604111690195,"mapped_acres_source":"poly_Acres_AutoCalc_fallback","gis_acres":null,"auto_acres":19.370604111690195,"reported_acres":18.6,"percent_contained":null,"state":"AR","state_wfigs":"US-AR","county":"Madison","discovery_time_utc":"2021-12-13T12:24:00Z","perimeter_time_utc":null,"perimeter_edit_time_utc":"2023-03-14T15:13:42Z","incident_modified_time_utc":"2022-02-02T20:04:28Z","containment_time_utc":"2021-12-13T17:55:00Z","control_time_utc":"2021-12-17T22:00:00Z","fire_out_time_utc":"2021-12-17T22:00:00Z","fire_cause":"Undetermined","fire_cause_general":"Undetermined","map_method":"Hand Sketch","source_dataset":"FFP","unique_fire_identifier":"2021-AROZF-002577","irwin_id":"{8D119E49-8755-436A-88EE-57A72A388EA7}","global_id":"4d10f85e-4da6-47ea-adfa-feab3216f0eb"}},{"type":"Feature","geometry":{"type":"Polygon","coordinates":[[[-92.79019,35.50339],[-92.79018,35.50339],[-92.79018,35.50338],[-92.79019,35.50339]]]},"properties":{"fire_id":"ufid:2021-AROZF-002350","source_collection":"history-2021","source_objectid":10115,"incident_name":"Fifty One","mapped_acres":0.00027855883895998404,"mapped_acres_source":"poly_Acres_AutoCalc_fallback","gis_acres":null,"auto_acres":0.00027855883895998404,"reported_acres":0.1,"percent_contained":null,"state":"AR","state_wfigs":"US-AR","county":"Van Buren","discovery_time_utc":"2021-11-08T17:53:00Z","perimeter_time_utc":null,"perimeter_edit_time_utc":"2023-03-14T15:13:42Z","incident_modified_time_utc":"2022-02-02T19:58:49Z","containment_time_utc":"2021-11-08T21:12:00Z","control_time_utc":"2021-11-09T22:25:00Z","fire_out_time_utc":"2022-11-12T18:00:00Z","fire_cause":"Human","fire_cause_general":"Equipment and vehicle use","map_method":"Hand Sketch","source_dataset":"FFP","unique_fire_identifier":"2021-AROZF-002350","irwin_id":"{D8CFB740-24CD-43E2-9998-7662E732E8A5}","global_id":"a66c850c-f48f-4716-82f6-02e40157150e"}},{"type":"Feature","geometry":{"type":"Polygon","coordinates":[[[-92.32191,36.0106],[-92.32403,36.01042],[-92.32483,36.00977],[-92.32764,36.00912],[-92.33055,36.00917],[-92.3325,36.00986],[-92.33467,36.01097],[-92.33622,36.01144],[-92.34045,36.01125],[-92.34057,36.01199],[-92.34205,36.0125],[-92.34228,36.01324],[-92.34251,36.01509],[-92.34143,36.01662],[-92.33971,36.01708],[-92.33931,36.0182],[-92.33856,36.0213],[-92.33822,36.0213],[-92.33776,36.02153],[-92.3349,36.02352],[-92.33324,36.02407],[-92.33187,36.02565],[-92.33078,36.02643],[-92.32781,36.02791],[-92.32186,36.02292],[-92.31934,36.02185],[-92.31882,36.02102],[-92.31837,36.02065],[-92.31631,36.02028],[-92.31631,36.01958],[-92.31676,36.01903],[-92.31699,36.01898],[-92.31854,36.01769],[-92.31945,36.01718],[-92.31985,36.01718],[-92.31974,36.01676],[-92.31934,36.01644],[-92.31934,36.0162],[-92.31985,36.01509],[-92.32277,36.01255],[-92.32191,36.0106]]]},"properties":{"fire_id":"ufid:2021-AROZF-002503","source_collection":"history-2021","source_objectid":10442,"incident_name":"Gibb","mapped_acres":723.4267980502487,"mapped_acres_source":"poly_Acres_AutoCalc_fallback","gis_acres":null,"auto_acres":723.4267980502487,"reported_acres":731.0,"percent_contained":null,"state":"AR","state_wfigs":"US-AR","county":"Baxter","discovery_time_utc":"2021-12-02T19:32:00Z","perimeter_time_utc":null,"perimeter_edit_time_utc":"2023-03-14T15:13:42Z","incident_modified_time_utc":"2022-03-02T00:21:06Z","containment_time_utc":"2021-12-04T22:00:00Z","control_time_utc":"2021-12-10T22:00:00Z","fire_out_time_utc":"2021-12-20T14:00:00Z","fire_cause":"Undetermined","fire_cause_general":"Undetermined","map_method":"Hand Sketch","source_dataset":"FFP","unique_fire_identifier":"2021-AROZF-002503","irwin_id":"{D5370C77-5343-43A2-A7C2-E81C6D6E311E}","global_id":"a3edac32-3473-4cfd-a653-fec9b13f768a"}},{"type":"Feature","geometry":{"type":"Polygon","coordinates":[[[-93.91055,35.60604],[-93.91061,35.60654],[-93.91029,35.60731],[-93.90946,35.60833],[-93.90893,35.60867],[-93.90816,35.60842],[-93.90649,35.60684],[-93.9064,35.60627],[-93.90674,35.606],[-93.90677,35.60575],[-93.90776,35.60547],[-93.90802,35.60602],[-93.90879,35.60622],[-93.90936,35.60591],[-93.91055,35.60604]]]},"properties":{"fire_id":"ufid:2021-AROZF-000788","source_collection":"history-2021","source_objectid":11021,"incident_name":"Jethro","mapped_acres":20.40497402848912,"mapped_acres_source":"poly_Acres_AutoCalc_fallback","gis_acres":null,"auto_acres":20.40497402848912,"reported_acres":24.0,"percent_contained":null,"state":"AR","state_wfigs":"US-AR","county":"Franklin","discovery_time_utc":"2021-03-31T21:18:00Z","perimeter_time_utc":null,"perimeter_edit_time_utc":"2023-03-14T15:13:42Z","incident_modified_time_utc":"2022-03-01T18:25:28Z","containment_time_utc":"2021-04-01T01:15:00Z","control_time_utc":"2021-04-03T15:15:00Z","fire_out_time_utc":"2021-04-03T15:15:00Z","fire_cause":"Undetermined","fire_cause_general":"Undetermined","map_method":"Hand Sketch","source_dataset":"FFP","unique_fire_identifier":"2021-AROZF-000788","irwin_id":"{0B157A8A-8C7B-4EA7-B1C0-9E7B07F18FB3}","global_id":"5d354cdd-c43c-4b48-9b43-3ef3c6776279"}},{"type":"Feature","geometry":{"type":"Polygon","coordinates":[[[-92.92028,35.86972],[-92.9212,35.86944],[-92.92264,35.86937],[-92.92292,35.8696],[-92.923,35.87014],[-92.92279,35.87102],[-92.92281,35.87173],[-92.92225,35.87194],[-92.92184,35.87236],[-92.92229,35.87311],[-92.92287,35.87354],[-92.92294,35.87379],[-92.92279,35.8741],[-92.92232,35.87443],[-92.92236,35.87474],[-92.92214,35.87493],[-92.92161,35.8749],[-92.92148,35.87394],[-92.9206,35.8724],[-92.9206,35.87041],[-92.92028,35.86972]]]},"properties":{"fire_id":"ufid:2021-AROZF-000243","source_collection":"history-2021","source_objectid":11637,"incident_name":"Stack Rock","mapped_acres":23.686709943739025,"mapped_acres_source":"poly_Acres_AutoCalc_fallback","gis_acres":null,"auto_acres":23.686709943739025,"reported_acres":20.0,"percent_contained":null,"state":"AR","state_wfigs":"US-AR","county":"Searcy","discovery_time_utc":"2021-02-23T17:56:00Z","perimeter_time_utc":"2021-04-15T14:56:32Z","perimeter_edit_time_utc":"2023-03-14T15:13:42Z","incident_modified_time_utc":"2021-04-15T15:11:10Z","containment_time_utc":"2021-02-23T22:25:00Z","control_time_utc":"2021-03-01T22:00:00Z","fire_out_time_utc":"2021-03-02T22:00:00Z","fire_cause":"Human","fire_cause_general":"Other causes","map_method":"Hand Sketch","source_dataset":"FFP","unique_fire_identifier":"2021-AROZF-000243","irwin_id":"{07B66EBA-92EB-4B0B-A1D0-9228B8026AC7}","global_id":"5c099e5c-f817-4eca-8e75-2ac31fb06315"}}]}
