{"type":"FeatureCollection","features":[{"type":"Feature","geometry":{"type":"Polygon","coordinates":[[[-114.74606,33.60948],[-114.74618,33.60948],[-114.74619,33.60952],[-114.74606,33.60948]]]},"properties":{"fire_id":"ufid:2021-CACDD-013314","source_collection":"history-2021","source_objectid":9480,"incident_name":"VEG/GO/62","mapped_acres":0.1,"mapped_acres_source":"poly_GISAcres","gis_acres":0.1,"auto_acres":0.01171015135207287,"reported_acres":0.1,"percent_contained":null,"state":"CA","state_wfigs":"US-CA","county":"Riverside","discovery_time_utc":"2021-09-05T23:13:42Z","perimeter_time_utc":"2021-09-06T04:13:42Z","perimeter_edit_time_utc":"2023-03-14T15:13:42Z","incident_modified_time_utc":"2021-09-13T15:50:10Z","containment_time_utc":"2021-09-05T23:25:00Z","control_time_utc":"2021-09-05T23:25:00Z","fire_out_time_utc":"2021-09-05T23:25:00Z","fire_cause":"Undetermined","fire_cause_general":"Undetermined","map_method":"Hand Sketch","source_dataset":"FFP","unique_fire_identifier":"2021-CACDD-013314","irwin_id":"{86041EED-60B1-4DB8-A618-45AAB37B7AC2}","global_id":"c9178705-d92d-46ff-b05f-abc6ee3858c8"}},{"type":"Feature","geometry":{"type":"Polygon","coordinates":[[[-114.61157,32.74189],[-114.6116,32.74224],[-114.61176,32.74233],[-114.61165,32.7426],[-114.61127,32.74255],[-114.6112,32.74209],[-114.61157,32.74189]]]},"properties":{"fire_id":"ufid:2021-AZCRD-000821","source_collection":"history-2021","source_objectid":10833,"incident_name":"Western","mapped_acres":1.0,"mapped_acres_source":"poly_GISAcres","gis_acres":1.0,"auto_acres":0.648526244918598,"reported_acres":5.0,"percent_contained":null,"state":"CA","state_wfigs":"US-CA","county":"Imperial","discovery_time_utc":"2021-06-15T22:03:00Z","perimeter_time_utc":"2021-06-16T03:03:01Z","perimeter_edit_time_utc":"2023-03-14T15:13:42Z","incident_modified_time_utc":"2021-07-17T16:33:01Z","containment_time_utc":null,"control_time_utc":null,"fire_out_time_utc":"2021-07-17T16:32:31Z","fire_cause":"Undetermined","fire_cause_general":"Undetermined","map_method":"Hand Sketch","source_dataset":"FFP","unique_fire_identifier":"2021-AZCRD-000821","irwin_id":"{FDCB3E21-991F-4585-BC20-36F16302A677}","global_id":"f06c4a3d-9496-46ba-92c3-59e75b92eba9"}}]}
