{"type":"FeatureCollection","features":[{"type":"Feature","geometry":{"type":"Polygon","coordinates":[[[-120.35137,34.54987],[-120.3514,34.54966],[-120.35156,34.54965],[-120.35167,34.54946],[-120.35159,34.5492],[-120.35177,34.5491],[-120.35173,34.54896],[-120.35215,34.54882],[-120.35221,34.54855],[-120.35255,34.54823],[-120.35247,34.54811],[-120.35308,34.54792],[-120.35326,34.54763],[-120.35383,34.54767],[-120.35401,34.54737],[-120.35427,34.54737],[-120.35457,34.54694],[-120.35471,34.54698],[-120.35525,34.54653],[-120.35596,34.54632],[-120.35593,34.5462],[-120.35613,34.54606],[-120.35641,34.54615],[-120.35693,34.5472],[-120.35681,34.54732],[-120.35688,34.54754],[-120.35679,34.54767],[-120.35597,34.54785],[-120.35589,34.54797],[-120.35598,34.54819],[-120.35587,34.54827],[-120.356,34.5487],[-120.35539,34.54949],[-120.35472,34.54996],[-120.35422,34.5499],[-120.35376,34.55009],[-120.35333,34.5505],[-120.35308,34.55042],[-120.35305,34.55072],[-120.35286,34.55089],[-120.35308,34.55116],[-120.35298,34.55135],[-120.35308,34.55151],[-120.35224,34.55309],[-120.35205,34.55297],[-120.35187,34.55207],[-120.35194,34.55188],[-120.35179,34.55158],[-120.35193,34.5514],[-120.35174,34.55128],[-120.35177,34.55096],[-120.35155,34.55098],[-120.35185,34.55079],[-120.35165,34.55064],[-120.3517,34.55053],[-120.35138,34.55063],[-120.35124,34.55043],[-120.35151,34.54988],[-120.35137,34.54987]]]},"properties":{"fire_id":"ufid:2021-CASBC-007344","source_collection":"history-2021","source_objectid":964,"incident_name":"One","mapped_acres":30.0,"mapped_acres_source":"poly_GISAcres","gis_acres":30.0,"auto_acres":37.05339034853,"reported_acres":null,"percent_contained":null,"state":"CA","state_wfigs":"US-CA","county":"Santa Barbara","discovery_time_utc":"2021-06-21T21:59:00Z","perimeter_time_utc":"2021-06-22T07:00:00Z","perimeter_edit_time_utc":"2021-06-22T20:46:04Z","incident_modified_time_utc":"2021-06-26T22:50:46Z","containment_time_utc":null,"control_time_utc":null,"fire_out_time_utc":null,"fire_cause":null,"fire_cause_general":null,"map_method":"GPS-Walked","source_dataset":"2021 NIFS","unique_fire_identifier":"2021-CASBC-007344","irwin_id":"{5398FBCD-0204-456A-8B0F-A1A45E0977C8}","global_id":"d41e7f72-ce8f-485d-b7a5-b383273f0fd4"}},{"type":"Feature","geometry":{"type":"Polygon","coordinates":[[[-120.13588,34.66312],[-120.13586,34.66235],[-120.13596,34.66251],[-120.13593,34.66336],[-120.13607,34.6633],[-120.13586,34.66353],[-120.13609,34.66343],[-120.13587,34.66356],[-120.13596,34.66368],[-120.13679,34.66324],[-120.1369,34.66296],[-120.13699,34.66298],[-120.13696,34.66316],[-120.13772,34.66287],[-120.13777,34.6627],[-120.13791,34.66277],[-120.13795,34.66259],[-120.13828,34.66236],[-120.13813,34.66317],[-120.138,34.66322],[-120.13785,34.66472],[-120.13761,34.66567],[-120.13762,34.66627],[-120.13825,34.66746],[-120.13887,34.66814],[-120.13906,34.66916],[-120.13887,34.66975],[-120.13852,34.66975],[-120.13828,34.66995],[-120.13812,34.66857],[-120.13753,34.66774],[-120.13729,34.66768],[-120.13663,34.668],[-120.13591,34.66811],[-120.13432,34.66733],[-120.13378,34.66725],[-120.13323,34.66677],[-120.13327,34.66647],[-120.13405,34.66698],[-120.13433,34.66681],[-120.13436,34.66669],[-120.13418,34.66664],[-120.13424,34.66644],[-120.13444,34.66672],[-120.1349,34.66665],[-120.13532,34.6671],[-120.1357,34.66693],[-120.13588,34.66654],[-120.13581,34.66628],[-120.13542,34.66619],[-120.13605,34.66608],[-120.13575,34.66588],[-120.13632,34.66555],[-120.13653,34.66509],[-120.13649,34.66478],[-120.13604,34.66464],[-120.13585,34.66491],[-120.1355,34.66505],[-120.13536,34.66537],[-120.13489,34.66546],[-120.13412,34.66454],[-120.13584,34.66368],[-120.13585,34.66336],[-120.13563,34.6634],[-120.13591,34.66316],[-120.13554,34.66331],[-120.13588,34.66312]]]},"properties":{"fire_id":"ufid:2021-CASBC-006763","source_collection":"history-2021","source_objectid":2921,"incident_name":"BALLARD","mapped_acres":37.0,"mapped_acres_source":"poly_GISAcres","gis_acres":37.0,"auto_acres":37.1571605533261,"reported_acres":null,"percent_contained":null,"state":"CA","state_wfigs":"US-CA","county":"Santa Barbara","discovery_time_utc":"2021-06-08T00:00:00Z","perimeter_time_utc":"2021-06-09T08:00:00Z","perimeter_edit_time_utc":"2021-06-22T15:50:47Z","incident_modified_time_utc":"2021-06-11T15:22:59Z","containment_time_utc":null,"control_time_utc":null,"fire_out_time_utc":null,"fire_cause":null,"fire_cause_general":null,"map_method":"GPS-Walked","source_dataset":"2021 NIFS","unique_fire_identifier":"2021-CASBC-006763","irwin_id":"{06D33638-676F-46DE-90D8-6900C99A13B0}","global_id":"dd6127d4-c058-44c4-b32a-81173726cc4b"}},{"type":"Feature","geometry":{"type":"MultiPolygon","coordinates":[[[[-120.07273,34.51587],[-120.07239,34.51578],[-120.07231,34.51595],[-120.07182,34.51607],[-120.0717,34.51631],[-120.07142,34.51607],[-120.0712,34.51634],[-120.07143,34.51655],[-120.07128,34.51695],[-120.07191,34.51719],[-120.07196,34.51741],[-120.07252,34.51755],[-120.07261,34.51777],[-120.07331,34.51768],[-120.0735,34.51779],[-120.0736,34.51851],[-120.07341,34.51871],[-120.07353,34.51897],[-120.0734,34.51909],[-120.0726,34.51915],[-120.07172,34.51909],[-120.07143,34.51931],[-120.07225,34.51934],[-120.07271,34.51961],[-120.07223,34.51987],[-120.07203,34.52019],[-120.07161,34.52019],[-120.07129,34.51985],[-120.07063,34.52012],[-120.07059,34.52042],[-120.0704,34.52052],[-120.07043,34.52071],[-120.07014,34.52093],[-120.07011,34.52123],[-120.06995,34.52127],[-120.06979,34.52114],[-120.06977,34.5213],[-120.06993,34.52142],[-120.06976,34.52154],[-120.06941,34.52152],[-120.06942,34.52129],[-120.06919,34.52164],[-120.06895,34.52157],[-120.06883,34.52192],[-120.06835,34.52197],[-120.0684,34.52306],[-120.06812,34.52356],[-120.06787,34.52367],[-120.06764,34.52333],[-120.06745,34.52373],[-120.06726,34.52298],[-120.06763,34.52268],[-120.06791,34.52198],[-120.06787,34.52167],[-120.06734,34.52191],[-120.06679,34.52191],[-120.06665,34.52223],[-120.06651,34.52217],[-120.06663,34.5219],[-120.06639,34.52163],[-120.06625,34.52161],[-120.06623,34.52176],[-120.06581,34.5217],[-120.06552,34.52147],[-120.06568,34.52114],[-120.06547,34.52098],[-120.06529,34.52107],[-120.06512,34.52099],[-120.06483,34.52064],[-120.06438,34.52077],[-120.06435,34.52119],[-120.06391,34.52149],[-120.0641,34.52184],[-120.0643,34.52194],[-120.06424,34.52235],[-120.06397,34.52253],[-120.06343,34.52194],[-120.06347,34.52152],[-120.06326,34.52158],[-120.06299,34.522],[-120.06263,34.52206],[-120.06234,34.52135],[-120.06203,34.52144],[-120.06147,34.5213],[-120.06073,34.52136],[-120.06033,34.52158],[-120.05968,34.52064],[-120.05933,34.52042],[-120.05914,34.52066],[-120.05883,34.52061],[-120.05875,34.52082],[-120.05857,34.52046],[-120.05815,34.52034],[-120.05812,34.52015],[-120.0573,34.51987],[-120.05711,34.52044],[-120.05684,34.52016],[-120.05665,34.51922],[-120.05589,34.51909],[-120.05597,34.51879],[-120.0557,34.51873],[-120.05558,34.51835],[-120.05525,34.51818],[-120.0549,34.51834],[-120.05488,34.51846],[-120.0547,34.51842],[-120.05464,34.51811],[-120.05437,34.51789],[-120.05398,34.51783],[-120.05398,34.51677],[-120.05437,34.51644],[-120.05431,34.51609],[-120.05393,34.51576],[-120.05371,34.5153],[-120.0534,34.51516],[-120.05336,34.51477],[-120.05305,34.51453],[-120.05208,34.51423],[-120.05229,34.51378],[-120.05186,34.51344],[-120.05127,34.51336],[-120.05049,34.51348],[-120.05058,34.51344],[-120.05039,34.5131],[-120.05073,34.51298],[-120.0499,34.51189],[-120.04999,34.51143],[-120.05056,34.51163],[-120.05084,34.51144],[-120.0509,34.51109],[-120.05151,34.51095],[-120.05166,34.51108],[-120.05208,34.51105],[-120.05227,34.51093],[-120.0522,34.51035],[-120.05236,34.51014],[-120.05242,34.51021],[-120.05266,34.51003],[-120.05314,34.50994],[-120.0537,34.51002],[-120.05427,34.50974],[-120.05426,34.50961],[-120.05464,34.50957],[-120.05562,34.50913],[-120.05594,34.50896],[-120.05601,34.50875],[-120.05579,34.50871],[-120.0557,34.50848],[-120.05534,34.50836],[-120.0544,34.50852],[-120.05366,34.50818],[-120.05337,34.50829],[-120.05336,34.50852],[-120.05157,34.50867],[-120.05048,34.50906],[-120.05071,34.50955],[-120.05007,34.50953],[-120.04934,34.50926],[-120.04897,34.50926],[-120.0487,34.50952],[-120.04806,34.50924],[-120.0476,34.50923],[-120.0473,34.50938],[-120.04642,34.50886],[-120.04603,34.50911],[-120.04579,34.50956],[-120.04531,34.50963],[-120.04513,34.51021],[-120.04467,34.51078],[-120.04515,34.51162],[-120.04391,34.51264],[-120.0437,34.51402],[-120.0433,34.51447],[-120.04317,34.51483],[-120.04112,34.5148],[-120.04078,34.51456],[-120.04065,34.51405],[-120.04003,34.51364],[-120.04012,34.51301],[-120.03941,34.5125],[-120.03775,34.51217],[-120.03819,34.51139],[-120.0386,34.5114],[-120.03878,34.51169],[-120.03906,34.51172],[-120.03914,34.51192],[-120.03938,34.51143],[-120.03851,34.50964],[-120.03643,34.50932],[-120.03645,34.50906],[-120.03768,34.50842],[-120.03766,34.5082],[-120.03788,34.50803],[-120.03786,34.50788],[-120.03703,34.50786],[-120.03585,34.50843],[-120.0352,34.50843],[-120.03466,34.5081],[-120.03452,34.50768],[-120.03386,34.50698],[-120.03345,34.50675],[-120.03357,34.50621],[-120.03297,34.50581],[-120.0316,34.50532],[-120.03106,34.50498],[-120.03037,34.50507],[-120.03004,34.5049],[-120.02957,34.50518],[-120.0298,34.50582],[-120.02948,34.50595],[-120.02905,34.50649],[-120.02823,34.50667],[-120.02789,34.5063],[-120.02775,34.50501],[-120.02702,34.50373],[-120.02663,34.50358],[-120.02571,34.50249],[-120.02506,34.50223],[-120.02486,34.50198],[-120.02481,34.50112],[-120.02461,34.50077],[-120.02468,34.50052],[-120.02439,34.50026],[-120.02466,34.49962],[-120.02516,34.49964],[-120.02549,34.4995],[-120.02547,34.49868],[-120.02454,34.49815],[-120.02384,34.49828],[-120.02385,34.49811],[-120.02345,34.49808],[-120.02372,34.49786],[-120.02392,34.49799],[-120.02412,34.49793],[-120.0242,34.49776],[-120.02381,34.49747],[-120.02351,34.49691],[-120.02378,34.49664],[-120.02467,34.49686],[-120.02524,34.49759],[-120.02585,34.49798],[-120.02624,34.49852],[-120.0263,34.49829],[-120.02664,34.49814],[-120.02683,34.4982],[-120.02785,34.49788],[-120.02764,34.49747],[-120.02713,34.49712],[-120.02704,34.49662],[-120.02689,34.49661],[-120.02688,34.49649],[-120.02703,34.49649],[-120.02758,34.49578],[-120.02765,34.49543],[-120.02744,34.49514],[-120.02758,34.49509],[-120.0275,34.49493],[-120.02776,34.49416],[-120.02758,34.49404],[-120.02686,34.49408],[-120.0268,34.49396],[-120.02646,34.49392],[-120.02628,34.49344],[-120.02443,34.49292],[-120.02434,34.49278],[-120.02415,34.4928],[-120.02418,34.49257],[-120.02356,34.49234],[-120.02298,34.4922],[-120.02196,34.49229],[-120.02062,34.49094],[-120.02071,34.49019],[-120.02092,34.48972],[-120.02087,34.48936],[-120.02112,34.48892],[-120.02018,34.48866],[-120.01944,34.48774],[-120.01884,34.48752],[-120.01838,34.48681],[-120.01885,34.48664],[-120.01901,34.48632],[-120.01973,34.48616],[-120.0199,34.48639],[-120.02042,34.48667],[-120.02063,34.48665],[-120.02124,34.48695],[-120.0216,34.48659],[-120.0216,34.48639],[-120.02132,34.4862],[-120.02056,34.48607],[-120.02015,34.48579],[-120.02042,34.48566],[-120.0203,34.48544],[-120.0205,34.48517],[-120.02076,34.48553],[-120.02108,34.48558],[-120.02087,34.485],[-120.02044,34.48472],[-120.02052,34.48439],[-120.02023,34.48431],[-120.01922,34.48459],[-120.01854,34.48434],[-120.01821,34.48407],[-120.01817,34.48372],[-120.01796,34.48354],[-120.01804,34.4833],[-120.01793,34.48307],[-120.01777,34.48305],[-120.01844,34.48238],[-120.01875,34.48176],[-120.01893,34.48069],[-120.01948,34.48033],[-120.0196,34.47988],[-120.01988,34.47975],[-120.02,34.47991],[-120.02053,34.48011],[-120.02062,34.48035],[-120.02096,34.48053],[-120.02091,34.48079],[-120.02122,34.48093],[-120.02127,34.4812],[-120.02154,34.48132],[-120.02171,34.4817],[-120.02206,34.48175],[-120.02283,34.48269],[-120.02343,34.4828],[-120.02323,34.48294],[-120.02331,34.48304],[-120.02379,34.48313],[-120.02479,34.48256],[-120.02511,34.48271],[-120.02493,34.48306],[-120.02534,34.48297],[-120.02555,34.48311],[-120.02585,34.48306],[-120.02576,34.48329],[-120.02624,34.48324],[-120.02643,34.48349],[-120.02667,34.48311],[-120.02644,34.48284],[-120.02637,34.48185],[-120.02612,34.48151],[-120.02652,34.4817],[-120.02682,34.48216],[-120.02725,34.48239],[-120.02717,34.48253],[-120.02734,34.4826],[-120.02702,34.48278],[-120.0271,34.48317],[-120.02726,34.48331],[-120.02749,34.48306],[-120.02768,34.48352],[-120.02821,34.48371],[-120.02844,34.48407],[-120.029,34.48434],[-120.02908,34.4845],[-120.02922,34.48441],[-120.02947,34.48377],[-120.0293,34.48335],[-120.0294,34.48302],[-120.02929,34.48296],[-120.02911,34.48313],[-120.02867,34.48285],[-120.02861,34.48264],[-120.02798,34.48274],[-120.02789,34.4826],[-120.02872,34.48252],[-120.02841,34.48162],[-120.02875,34.48079],[-120.02868,34.47996],[-120.02938,34.47906],[-120.02927,34.47754],[-120.02858,34.4767],[-120.02778,34.47472],[-120.02793,34.47391],[-120.0288,34.47412],[-120.03035,34.47418],[-120.03156,34.47478],[-120.03174,34.47517],[-120.03258,34.47592],[-120.03345,34.47728],[-120.03378,34.47756],[-120.03326,34.47912],[-120.03335,34.47936],[-120.03355,34.4794],[-120.03374,34.47885],[-120.03365,34.47834],[-120.03401,34.47792],[-120.03412,34.47733],[-120.03444,34.47713],[-120.03522,34.47528],[-120.03495,34.47492],[-120.03453,34.47479],[-120.03456,34.47442],[-120.03368,34.47398],[-120.03387,34.47374],[-120.03366,34.47359],[-120.03399,34.47362],[-120.03417,34.47351],[-120.03423,34.47305],[-120.03444,34.47343],[-120.03505,34.47383],[-120.03547,34.47391],[-120.03533,34.47397],[-120.03559,34.47423],[-120.03573,34.47419],[-120.03566,34.47406],[-120.03594,34.47412],[-120.03628,34.47382],[-120.03752,34.47184],[-120.03667,34.47192],[-120.03597,34.47125],[-120.03492,34.47086],[-120.03508,34.47083],[-120.03511,34.47067],[-120.03534,34.47074],[-120.03517,34.47058],[-120.03524,34.47028],[-120.03543,34.47041],[-120.03557,34.47032],[-120.03697,34.47063],[-120.03685,34.47025],[-120.0365,34.47021],[-120.03637,34.46987],[-120.03632,34.46938],[-120.03653,34.46914],[-120.03621,34.46921],[-120.03637,34.46892],[-120.03664,34.46877],[-120.03721,34.46875],[-120.03777,34.46915],[-120.03797,34.46905],[-120.03866,34.46936],[-120.03933,34.46916],[-120.03896,34.46901],[-120.03897,34.4689],[-120.03928,34.46883],[-120.03882,34.46877],[-120.03894,34.46869],[-120.03838,34.46847],[-120.03996,34.4683],[-120.04077,34.46802],[-120.04154,34.46804],[-120.04185,34.46786],[-120.04234,34.46679],[-120.0424,34.4664],[-120.0422,34.4662],[-120.04222,34.46563],[-120.0424,34.46531],[-120.04278,34.46519],[-120.04299,34.46467],[-120.04227,34.46464],[-120.04191,34.46453],[-120.04192,34.4644],[-120.04326,34.46431],[-120.04347,34.46446],[-120.0433,34.46501],[-120.04365,34.46566],[-120.04335,34.46619],[-120.04337,34.46637],[-120.04353,34.46647],[-120.04346,34.46697],[-120.04363,34.46749],[-120.04357,34.46927],[-120.04392,34.47016],[-120.04418,34.47008],[-120.04427,34.47019],[-120.04437,34.47079],[-120.04448,34.47016],[-120.04379,34.46919],[-120.0437,34.46852],[-120.04449,34.46716],[-120.04456,34.46629],[-120.04473,34.46594],[-120.04447,34.46563],[-120.04493,34.46513],[-120.04535,34.46519],[-120.04549,34.46551],[-120.0457,34.4656],[-120.04626,34.46519],[-120.04646,34.46437],[-120.04673,34.46457],[-120.0466,34.46516],[-120.04682,34.46598],[-120.04657,34.46653],[-120.04685,34.46664],[-120.04742,34.46859],[-120.04757,34.4698],[-120.04783,34.47062],[-120.04801,34.47245],[-120.04818,34.47268],[-120.04812,34.47326],[-120.04839,34.47368],[-120.0483,34.47401],[-120.0479,34.47384],[-120.04781,34.47411],[-120.0481,34.47433],[-120.048,34.47451],[-120.04809,34.47471],[-120.04852,34.47502],[-120.04865,34.47566],[-120.04979,34.47589],[-120.05005,34.47618],[-120.05024,34.47606],[-120.05047,34.47621],[-120.05077,34.47604],[-120.05267,34.47636],[-120.05287,34.47626],[-120.05311,34.47567],[-120.05309,34.47469],[-120.05351,34.47461],[-120.05391,34.47484],[-120.05451,34.47494],[-120.0553,34.47586],[-120.05497,34.47669],[-120.05516,34.47686],[-120.05525,34.47728],[-120.05553,34.47736],[-120.05549,34.47689],[-120.05566,34.47647],[-120.05642,34.47617],[-120.05671,34.47574],[-120.05668,34.47541],[-120.05651,34.47528],[-120.05657,34.4751],[-120.05678,34.47524],[-120.05789,34.47526],[-120.05876,34.47557],[-120.05931,34.47593],[-120.05966,34.47589],[-120.05996,34.47568],[-120.06032,34.47515],[-120.06031,34.4739],[-120.06088,34.47361],[-120.06164,34.4729],[-120.06188,34.47288],[-120.06218,34.47328],[-120.0624,34.47405],[-120.06211,34.47499],[-120.06178,34.47717],[-120.0621,34.47796],[-120.06201,34.47812],[-120.06227,34.47887],[-120.06282,34.4794],[-120.06302,34.47996],[-120.06274,34.48043],[-120.06223,34.48092],[-120.06237,34.48194],[-120.06261,34.48213],[-120.06218,34.48252],[-120.06204,34.4829],[-120.06131,34.48345],[-120.06145,34.48428],[-120.0618,34.48498],[-120.06122,34.48611],[-120.06132,34.48694],[-120.06098,34.48808],[-120.06142,34.48877],[-120.06142,34.489],[-120.06222,34.48926],[-120.06262,34.48914],[-120.06272,34.48946],[-120.06332,34.48963],[-120.06342,34.48996],[-120.06324,34.49032],[-120.06339,34.4909],[-120.06382,34.49136],[-120.06378,34.49175],[-120.06417,34.49208],[-120.06397,34.49262],[-120.06346,34.49319],[-120.06352,34.49363],[-120.06381,34.49404],[-120.06374,34.49508],[-120.06348,34.49544],[-120.06302,34.4957],[-120.06307,34.49587],[-120.06288,34.49594],[-120.06292,34.49605],[-120.06226,34.49633],[-120.06208,34.49659],[-120.06212,34.4969],[-120.06325,34.49678],[-120.06346,34.49699],[-120.06385,34.49701],[-120.06387,34.49726],[-120.06359,34.49801],[-120.06414,34.49822],[-120.06629,34.49812],[-120.06659,34.49735],[-120.06668,34.49661],[-120.06649,34.49616],[-120.06644,34.49529],[-120.06585,34.49446],[-120.06607,34.49212],[-120.06603,34.49173],[-120.06581,34.49135],[-120.06655,34.49155],[-120.06702,34.49242],[-120.06813,34.49273],[-120.06816,34.49197],[-120.06763,34.49175],[-120.06768,34.49151],[-120.06803,34.49139],[-120.06841,34.49144],[-120.06875,34.49178],[-120.06901,34.49137],[-120.06921,34.49138],[-120.06927,34.49111],[-120.06958,34.49112],[-120.07008,34.49082],[-120.0699,34.49065],[-120.06878,34.49048],[-120.068,34.49058],[-120.06693,34.4903],[-120.06691,34.49014],[-120.06662,34.48999],[-120.06603,34.48988],[-120.06599,34.48978],[-120.06634,34.48975],[-120.06655,34.48957],[-120.06861,34.48984],[-120.06839,34.4895],[-120.06739,34.48944],[-120.06696,34.48881],[-120.0668,34.48873],[-120.06667,34.48891],[-120.06648,34.48891],[-120.06654,34.4887],[-120.06673,34.48858],[-120.0675,34.4887],[-120.06801,34.48856],[-120.06911,34.48863],[-120.06969,34.4888],[-120.07113,34.48882],[-120.07035,34.48847],[-120.07,34.4885],[-120.06937,34.48831],[-120.0691,34.48805],[-120.06927,34.48799],[-120.06997,34.48826],[-120.07028,34.48801],[-120.07044,34.48761],[-120.07035,34.48742],[-120.06918,34.48693],[-120.06956,34.48577],[-120.06939,34.48526],[-120.06946,34.48516],[-120.06991,34.48572],[-120.07229,34.48649],[-120.07263,34.48772],[-120.07289,34.49066],[-120.07351,34.49074],[-120.07432,34.49065],[-120.07485,34.49017],[-120.07575,34.4901],[-120.07585,34.49105],[-120.07517,34.49215],[-120.07445,34.49267],[-120.07438,34.49288],[-120.0749,34.49313],[-120.07504,34.49384],[-120.07543,34.49413],[-120.07554,34.49452],[-120.076,34.49505],[-120.07624,34.49656],[-120.07662,34.49715],[-120.07709,34.49724],[-120.07747,34.49821],[-120.07922,34.49894],[-120.07947,34.49935],[-120.07991,34.49929],[-120.07993,34.49907],[-120.0793,34.49819],[-120.07769,34.49722],[-120.07788,34.49598],[-120.07852,34.49566],[-120.0789,34.49507],[-120.07782,34.49454],[-120.07732,34.49398],[-120.07733,34.49365],[-120.0781,34.49314],[-120.07856,34.49305],[-120.07931,34.49225],[-120.07954,34.49096],[-120.07951,34.49076],[-120.07915,34.49058],[-120.07912,34.49023],[-120.07926,34.48994],[-120.07895,34.48947],[-120.07899,34.48931],[-120.07884,34.48924],[-120.07907,34.48899],[-120.07881,34.48886],[-120.07885,34.4887],[-120.0798,34.48876],[-120.08019,34.48868],[-120.08049,34.48843],[-120.07997,34.48846],[-120.07977,34.48834],[-120.07993,34.48775],[-120.07926,34.48734],[-120.07813,34.48614],[-120.07825,34.48607],[-120.07835,34.48542],[-120.07905,34.48527],[-120.07907,34.48512],[-120.07921,34.48508],[-120.07896,34.48455],[-120.07819,34.4843],[-120.07763,34.48444],[-120.07739,34.48424],[-120.07726,34.48229],[-120.07633,34.48223],[-120.07614,34.48211],[-120.076,34.48159],[-120.07691,34.48125],[-120.07745,34.48124],[-120.07751,34.48096],[-120.07699,34.48056],[-120.07644,34.48046],[-120.07582,34.48054],[-120.07563,34.48007],[-120.07651,34.47941],[-120.07777,34.479],[-120.07792,34.47883],[-120.07788,34.47858],[-120.07743,34.4781],[-120.07804,34.47756],[-120.07662,34.47725],[-120.07609,34.47733],[-120.07603,34.47698],[-120.07653,34.47681],[-120.07651,34.47667],[-120.07623,34.47653],[-120.07646,34.47623],[-120.07457,34.47627],[-120.07426,34.47602],[-120.07379,34.47593],[-120.07307,34.47555],[-120.07148,34.47512],[-120.07052,34.47471],[-120.07061,34.47417],[-120.07033,34.47427],[-120.06964,34.47294],[-120.06907,34.47233],[-120.06929,34.472],[-120.06994,34.47193],[-120.07033,34.47117],[-120.07029,34.4709],[-120.06991,34.47069],[-120.07009,34.47001],[-120.07052,34.46981],[-120.07064,34.46959],[-120.07053,34.4692],[-120.07073,34.46905],[-120.07048,34.46851],[-120.07062,34.46853],[-120.07104,34.4692],[-120.07141,34.46923],[-120.07151,34.46918],[-120.07142,34.46903],[-120.07211,34.46879],[-120.07278,34.46874],[-120.07356,34.46901],[-120.07436,34.46967],[-120.07562,34.47045],[-120.07595,34.47171],[-120.07684,34.47204],[-120.07684,34.47231],[-120.07705,34.47232],[-120.07708,34.47248],[-120.07758,34.47288],[-120.0779,34.47286],[-120.07773,34.47231],[-120.07748,34.47219],[-120.07763,34.47151],[-120.07781,34.47128],[-120.07785,34.47081],[-120.07802,34.47059],[-120.07827,34.47053],[-120.07823,34.47038],[-120.07789,34.47014],[-120.07744,34.47025],[-120.0773,34.46982],[-120.07684,34.46928],[-120.07786,34.46956],[-120.0787,34.46945],[-120.08006,34.46902],[-120.08027,34.46728],[-120.08046,34.46707],[-120.08046,34.46636],[-120.08017,34.4661],[-120.08004,34.46573],[-120.07929,34.46542],[-120.07917,34.46406],[-120.07945,34.46353],[-120.07957,34.46297],[-120.07972,34.46287],[-120.08054,34.46286],[-120.08052,34.46257],[-120.07975,34.46252],[-120.0792,34.46286],[-120.07783,34.46304],[-120.07701,34.4638],[-120.07701,34.46396],[-120.07653,34.46456],[-120.07626,34.46469],[-120.07606,34.46443],[-120.07631,34.46439],[-120.07645,34.46402],[-120.07667,34.46385],[-120.0766,34.46375],[-120.07689,34.46355],[-120.07703,34.46322],[-120.07779,34.46282],[-120.07741,34.46263],[-120.07925,34.46209],[-120.08024,34.46072],[-120.08196,34.46094],[-120.08421,34.46056],[-120.08859,34.46056],[-120.09451,34.46156],[-120.09875,34.46294],[-120.1003,34.46405],[-120.10212,34.46372],[-120.104,34.46477],[-120.1104,34.46727],[-120.11443,34.46866],[-120.11491,34.47132],[-120.11995,34.47338],[-120.12566,34.47324],[-120.12844,34.47393],[-120.13328,34.47449],[-120.13651,34.47537],[-120.13941,34.47532],[-120.14486,34.4751],[-120.14627,34.47456],[-120.14682,34.47472],[-120.15015,34.47485],[-120.15467,34.47433],[-120.16066,34.47314],[-120.16109,34.47254],[-120.16094,34.47239],[-120.15926,34.47267],[-120.15905,34.47211],[-120.15951,34.47184],[-120.15971,34.47189],[-120.15989,34.4717],[-120.16047,34.47173],[-120.16101,34.47151],[-120.16224,34.47175],[-120.16269,34.47171],[-120.16329,34.47205],[-120.16519,34.47168],[-120.16648,34.47251],[-120.16963,34.47203],[-120.16949,34.47216],[-120.16952,34.47245],[-120.17006,34.47239],[-120.1701,34.47256],[-120.16956,34.47263],[-120.16987,34.47534],[-120.17055,34.4767],[-120.17069,34.47673],[-120.17055,34.47715],[-120.17016,34.47722],[-120.16944,34.47815],[-120.17016,34.47822],[-120.17033,34.47846],[-120.17031,34.47871],[-120.17086,34.47896],[-120.17081,34.4792],[-120.17117,34.47961],[-120.171,34.48004],[-120.17136,34.47966],[-120.17265,34.47946],[-120.17259,34.47996],[-120.17279,34.47986],[-120.17297,34.48005],[-120.17247,34.48015],[-120.1721,34.48004],[-120.17191,34.48027],[-120.17246,34.48053],[-120.17356,34.48055],[-120.17377,34.48038],[-120.17412,34.47923],[-120.17269,34.47898],[-120.17235,34.47904],[-120.17214,34.47877],[-120.17252,34.47857],[-120.17268,34.47827],[-120.17345,34.47816],[-120.17435,34.47826],[-120.17444,34.47837],[-120.17484,34.47816],[-120.17484,34.47802],[-120.17523,34.47797],[-120.17561,34.47803],[-120.17579,34.47826],[-120.17615,34.47778],[-120.17612,34.4773],[-120.17529,34.47722],[-120.17549,34.47709],[-120.17888,34.47668],[-120.17904,34.47679],[-120.17857,34.47699],[-120.17885,34.47726],[-120.17904,34.47724],[-120.17905,34.47712],[-120.17934,34.47722],[-120.17952,34.47715],[-120.1793,34.4768],[-120.17963,34.47674],[-120.18057,34.47691],[-120.18059,34.47733],[-120.1809,34.47714],[-120.1811,34.47683],[-120.18118,34.4768],[-120.18121,34.47704],[-120.18137,34.47701],[-120.1815,34.4767],[-120.18271,34.47636],[-120.18477,34.47659],[-120.18488,34.47695],[-120.18441,34.47728],[-120.18441,34.47743],[-120.18494,34.47758],[-120.18538,34.47794],[-120.18563,34.47803],[-120.18604,34.47762],[-120.18646,34.47754],[-120.18651,34.47771],[-120.18699,34.47795],[-120.18676,34.4781],[-120.18671,34.47829],[-120.18682,34.47842],[-120.18667,34.47856],[-120.18598,34.47863],[-120.18554,34.47894],[-120.1857,34.4793],[-120.18551,34.47959],[-120.18554,34.48005],[-120.1859,34.47998],[-120.18643,34.48008],[-120.18801,34.47969],[-120.18899,34.47914],[-120.18922,34.47853],[-120.1897,34.47806],[-120.19081,34.47819],[-120.19117,34.478],[-120.19185,34.4783],[-120.19202,34.4785],[-120.19257,34.47844],[-120.19237,34.47862],[-120.1927,34.47866],[-120.19272,34.47883],[-120.19249,34.47903],[-120.19217,34.47908],[-120.19142,34.47875],[-120.19035,34.479],[-120.19021,34.47912],[-120.1901,34.47989],[-120.19218,34.4802],[-120.19225,34.47982],[-120.19327,34.47961],[-120.19321,34.47927],[-120.19353,34.47892],[-120.19423,34.47856],[-120.19449,34.47822],[-120.19433,34.47775],[-120.19445,34.47736],[-120.19429,34.47695],[-120.19467,34.4768],[-120.19545,34.4768],[-120.19526,34.47647],[-120.1964,34.47615],[-120.19662,34.47642],[-120.19664,34.47673],[-120.19642,34.47812],[-120.19646,34.47882],[-120.19767,34.47952],[-120.19779,34.47983],[-120.1988,34.47996],[-120.19892,34.4803],[-120.19883,34.48031],[-120.19906,34.48045],[-120.19998,34.48037],[-120.20089,34.48072],[-120.20214,34.48095],[-120.20289,34.48087],[-120.20277,34.48096],[-120.20309,34.48106],[-120.20322,34.48126],[-120.20389,34.48146],[-120.20413,34.48172],[-120.20369,34.48258],[-120.20373,34.48276],[-120.20423,34.48285],[-120.20474,34.48349],[-120.20474,34.48378],[-120.20449,34.48398],[-120.20398,34.48412],[-120.20361,34.48458],[-120.20253,34.48478],[-120.20234,34.48494],[-120.20226,34.48553],[-120.202,34.48604],[-120.20214,34.48622],[-120.20162,34.48678],[-120.20097,34.48702],[-120.2009,34.48725],[-120.20045,34.48725],[-120.20024,34.48625],[-120.19998,34.48616],[-120.19992,34.48584],[-120.20022,34.48573],[-120.20012,34.48522],[-120.1991,34.48506],[-120.19847,34.48572],[-120.19824,34.48659],[-120.19799,34.48701],[-120.19848,34.48728],[-120.19851,34.4878],[-120.19895,34.48792],[-120.19901,34.48823],[-120.19872,34.48818],[-120.19855,34.48833],[-120.19858,34.48854],[-120.19742,34.48851],[-120.19566,34.48818],[-120.19575,34.48838],[-120.19438,34.48882],[-120.19414,34.48911],[-120.19338,34.48941],[-120.19339,34.48957],[-120.1931,34.48972],[-120.1928,34.48968],[-120.1929,34.4894],[-120.19266,34.48922],[-120.19268,34.48898],[-120.19247,34.48894],[-120.19223,34.48915],[-120.19214,34.48951],[-120.19164,34.48947],[-120.19156,34.48924],[-120.19132,34.48911],[-120.19141,34.48892],[-120.19128,34.4886],[-120.19093,34.48881],[-120.1907,34.48879],[-120.19051,34.4881],[-120.19016,34.48777],[-120.19005,34.48799],[-120.19014,34.48818],[-120.18988,34.48839],[-120.18988,34.48875],[-120.19017,34.4892],[-120.19056,34.48916],[-120.19056,34.48955],[-120.19074,34.48955],[-120.19085,34.48984],[-120.19077,34.49026],[-120.18979,34.49021],[-120.1897,34.48991],[-120.18915,34.48972],[-120.1891,34.48953],[-120.18933,34.48929],[-120.18933,34.489],[-120.18895,34.48821],[-120.18917,34.4882],[-120.18977,34.4877],[-120.18973,34.48748],[-120.18921,34.48687],[-120.1891,34.48703],[-120.18878,34.4871],[-120.18869,34.4873],[-120.18846,34.48731],[-120.18852,34.48749],[-120.18804,34.4879],[-120.18782,34.48778],[-120.18654,34.48793],[-120.1865,34.48809],[-120.18609,34.48815],[-120.18608,34.48837],[-120.18667,34.48848],[-120.18691,34.48881],[-120.18663,34.48938],[-120.18675,34.48954],[-120.18669,34.48984],[-120.18611,34.48949],[-120.18618,34.48937],[-120.1856,34.48932],[-120.1855,34.48918],[-120.18529,34.48918],[-120.18527,34.48898],[-120.18424,34.48892],[-120.18419,34.48855],[-120.18388,34.48862],[-120.18369,34.48848],[-120.18261,34.48893],[-120.18211,34.48891],[-120.18215,34.4887],[-120.18131,34.48877],[-120.18136,34.48895],[-120.18088,34.48894],[-120.18065,34.48916],[-120.18029,34.48924],[-120.17899,34.48922],[-120.17726,34.4894],[-120.17705,34.4893],[-120.17702,34.48905],[-120.17663,34.48885],[-120.17643,34.48921],[-120.17617,34.48914],[-120.17571,34.4896],[-120.1759,34.48991],[-120.17585,34.49009],[-120.17622,34.49007],[-120.17643,34.49047],[-120.17561,34.49067],[-120.17537,34.49095],[-120.17551,34.4911],[-120.17536,34.49135],[-120.17492,34.49123],[-120.1744,34.49072],[-120.17434,34.49116],[-120.17519,34.49213],[-120.17449,34.49249],[-120.17376,34.49232],[-120.17342,34.49201],[-120.17337,34.49161],[-120.17373,34.49138],[-120.17382,34.49088],[-120.17395,34.49077],[-120.17392,34.49028],[-120.17407,34.49016],[-120.17407,34.48965],[-120.17381,34.48938],[-120.17405,34.48924],[-120.17413,34.48899],[-120.1743,34.48896],[-120.17345,34.48845],[-120.17341,34.48866],[-120.17318,34.48864],[-120.17319,34.48875],[-120.17297,34.48862],[-120.17274,34.4888],[-120.1729,34.48939],[-120.17289,34.48998],[-120.17256,34.49047],[-120.17225,34.4905],[-120.17216,34.49031],[-120.17181,34.49034],[-120.17152,34.49053],[-120.17102,34.49033],[-120.1709,34.49046],[-120.17005,34.48999],[-120.17008,34.49053],[-120.16977,34.49072],[-120.16948,34.49026],[-120.1689,34.4905],[-120.16792,34.49055],[-120.16764,34.49071],[-120.16748,34.49094],[-120.16786,34.4911],[-120.1679,34.49126],[-120.16663,34.4909],[-120.16646,34.49104],[-120.16618,34.49098],[-120.1663,34.49159],[-120.16564,34.49134],[-120.16568,34.49143],[-120.16549,34.49152],[-120.16529,34.49134],[-120.16482,34.49166],[-120.16477,34.49136],[-120.16453,34.49151],[-120.16389,34.49199],[-120.1638,34.49222],[-120.16361,34.49225],[-120.16583,34.49315],[-120.16543,34.49366],[-120.16557,34.49415],[-120.16545,34.494],[-120.16523,34.49421],[-120.16509,34.49415],[-120.16507,34.49653],[-120.16414,34.49675],[-120.16616,34.49878],[-120.16655,34.50037],[-120.16542,34.49963],[-120.16482,34.50016],[-120.16515,34.50089],[-120.16579,34.50138],[-120.16587,34.50203],[-120.16563,34.50322],[-120.16494,34.50313],[-120.1652,34.50446],[-120.16568,34.50509],[-120.16561,34.50606],[-120.16455,34.50657],[-120.16436,34.50711],[-120.16482,34.50762],[-120.16542,34.50778],[-120.16567,34.508],[-120.16653,34.50819],[-120.16678,34.50818],[-120.16684,34.50803],[-120.1674,34.50885],[-120.16761,34.5089],[-120.16783,34.50928],[-120.16815,34.50947],[-120.16798,34.5098],[-120.16795,34.51062],[-120.16811,34.51099],[-120.16841,34.51119],[-120.16789,34.51146],[-120.1679,34.51176],[-120.16814,34.51179],[-120.16821,34.51199],[-120.16775,34.51219],[-120.16738,34.51216],[-120.16685,34.5118],[-120.16658,34.51182],[-120.16673,34.5124],[-120.16661,34.51263],[-120.16631,34.51264],[-120.16593,34.51243],[-120.16586,34.51173],[-120.1655,34.51193],[-120.16517,34.51241],[-120.16558,34.5128],[-120.16567,34.51311],[-120.16559,34.51319],[-120.16608,34.5132],[-120.16618,34.51334],[-120.16604,34.51345],[-120.16555,34.5133],[-120.1648,34.51378],[-120.16496,34.51391],[-120.16575,34.51366],[-120.16571,34.51388],[-120.16537,34.51406],[-120.16551,34.51439],[-120.16509,34.51448],[-120.16486,34.51442],[-120.16475,34.51424],[-120.16455,34.51451],[-120.1642,34.5145],[-120.16378,34.51472],[-120.16344,34.51526],[-120.16289,34.51521],[-120.16231,34.51497],[-120.16085,34.51561],[-120.16015,34.51611],[-120.15911,34.51602],[-120.15834,34.51614],[-120.15832,34.51632],[-120.15821,34.51634],[-120.158,34.51615],[-120.15774,34.51631],[-120.15786,34.51641],[-120.15778,34.51657],[-120.1574,34.51668],[-120.15734,34.51699],[-120.15714,34.51715],[-120.15639,34.5173],[-120.15633,34.51753],[-120.15618,34.51743],[-120.1559,34.51752],[-120.15572,34.5179],[-120.15542,34.51812],[-120.15479,34.51799],[-120.15482,34.5178],[-120.15498,34.51772],[-120.1545,34.51724],[-120.15441,34.51743],[-120.15391,34.51765],[-120.15375,34.5179],[-120.15374,34.51762],[-120.15355,34.5175],[-120.15287,34.51795],[-120.15272,34.51783],[-120.15167,34.51858],[-120.15095,34.51841],[-120.15166,34.51927],[-120.15126,34.51973],[-120.14913,34.51929],[-120.14903,34.51901],[-120.148,34.51842],[-120.14801,34.51769],[-120.14621,34.51767],[-120.14582,34.51783],[-120.14571,34.51837],[-120.14535,34.51834],[-120.14498,34.51782],[-120.14481,34.51793],[-120.14456,34.51719],[-120.14381,34.51767],[-120.14382,34.51837],[-120.14448,34.51834],[-120.14499,34.51861],[-120.14491,34.51904],[-120.14454,34.51942],[-120.14433,34.51988],[-120.14307,34.52084],[-120.14192,34.52103],[-120.14018,34.52225],[-120.13975,34.5219],[-120.13794,34.5229],[-120.13678,34.52325],[-120.13583,34.52292],[-120.1364,34.52239],[-120.13623,34.5221],[-120.13712,34.52185],[-120.13755,34.52143],[-120.13722,34.5207],[-120.13762,34.52032],[-120.13802,34.52029],[-120.13696,34.51978],[-120.1368,34.51985],[-120.13692,34.51994],[-120.13683,34.52006],[-120.13669,34.52004],[-120.1366,34.51979],[-120.13646,34.51981],[-120.13647,34.52006],[-120.13575,34.52016],[-120.13524,34.52005],[-120.13443,34.52041],[-120.13365,34.52011],[-120.13234,34.52064],[-120.13197,34.52056],[-120.13174,34.52087],[-120.13144,34.52097],[-120.1313,34.52129],[-120.13119,34.52115],[-120.13115,34.52132],[-120.13083,34.52126],[-120.1311,34.52168],[-120.1309,34.52169],[-120.13061,34.52112],[-120.13047,34.52107],[-120.13045,34.52078],[-120.13028,34.52084],[-120.1304,34.52059],[-120.12979,34.5208],[-120.12806,34.52037],[-120.12555,34.5206],[-120.12498,34.52045],[-120.12484,34.5202],[-120.12466,34.52026],[-120.1243,34.52012],[-120.12433,34.51989],[-120.12364,34.51979],[-120.12311,34.51985],[-120.12363,34.51999],[-120.12274,34.52028],[-120.12225,34.52013],[-120.12198,34.51985],[-120.12102,34.51985],[-120.12062,34.51998],[-120.11916,34.51987],[-120.11922,34.52],[-120.11907,34.52016],[-120.11918,34.5202],[-120.11876,34.52044],[-120.11811,34.52057],[-120.11772,34.52031],[-120.11663,34.52016],[-120.11581,34.52028],[-120.1152,34.52058],[-120.11417,34.52066],[-120.11408,34.52081],[-120.11205,34.52127],[-120.11076,34.52139],[-120.11073,34.52162],[-120.10746,34.52255],[-120.10687,34.52251],[-120.10672,34.52222],[-120.10605,34.52236],[-120.10603,34.52265],[-120.10618,34.52266],[-120.10631,34.52295],[-120.10461,34.52329],[-120.10451,34.52322],[-120.10431,34.52334],[-120.10437,34.5234],[-120.10376,34.52445],[-120.10271,34.52468],[-120.10218,34.52524],[-120.10102,34.52551],[-120.10098,34.52577],[-120.10055,34.52601],[-120.10033,34.52595],[-120.10022,34.52613],[-120.09963,34.52624],[-120.09906,34.52618],[-120.09888,34.52597],[-120.09826,34.52574],[-120.09826,34.52549],[-120.09882,34.52532],[-120.09845,34.52503],[-120.09861,34.52477],[-120.09804,34.52474],[-120.09782,34.52431],[-120.09764,34.52432],[-120.09761,34.5241],[-120.09732,34.52439],[-120.09718,34.52437],[-120.09701,34.52404],[-120.09659,34.52376],[-120.09644,34.52395],[-120.09651,34.52407],[-120.09625,34.52421],[-120.0962,34.52441],[-120.09655,34.52457],[-120.09642,34.52506],[-120.09689,34.52518],[-120.09652,34.52538],[-120.09655,34.5253],[-120.09609,34.52546],[-120.09592,34.52539],[-120.09595,34.52561],[-120.09621,34.52569],[-120.09603,34.52593],[-120.09563,34.52578],[-120.09504,34.52579],[-120.0948,34.52539],[-120.09521,34.52532],[-120.09523,34.52519],[-120.09487,34.52458],[-120.09507,34.52451],[-120.0952,34.52413],[-120.09497,34.52399],[-120.09509,34.52386],[-120.0948,34.52368],[-120.09481,34.52351],[-120.09453,34.52338],[-120.09465,34.52335],[-120.09442,34.52309],[-120.0942,34.52305],[-120.09431,34.52295],[-120.09411,34.52296],[-120.09424,34.5229],[-120.09409,34.52291],[-120.09414,34.52278],[-120.09394,34.52257],[-120.09371,34.52277],[-120.09344,34.52258],[-120.09342,34.52309],[-120.09318,34.5232],[-120.093,34.52301],[-120.09285,34.52322],[-120.0926,34.52315],[-120.09278,34.52284],[-120.09259,34.52268],[-120.09239,34.52264],[-120.09223,34.52282],[-120.09203,34.52276],[-120.09194,34.52249],[-120.09228,34.52243],[-120.09215,34.5224],[-120.09216,34.52225],[-120.0927,34.52245],[-120.09283,34.52227],[-120.09239,34.52203],[-120.09247,34.5217],[-120.09214,34.52145],[-120.09239,34.52135],[-120.09207,34.52135],[-120.09204,34.52113],[-120.09189,34.52112],[-120.09195,34.52094],[-120.09119,34.52101],[-120.09049,34.52088],[-120.09016,34.52045],[-120.09004,34.52047],[-120.09014,34.52066],[-120.08991,34.52073],[-120.08849,34.51946],[-120.08844,34.51935],[-120.08869,34.51919],[-120.08867,34.51903],[-120.08885,34.51887],[-120.08855,34.51882],[-120.08847,34.51852],[-120.08808,34.51866],[-120.08807,34.51897],[-120.08755,34.51906],[-120.08751,34.51916],[-120.08695,34.51909],[-120.08673,34.51919],[-120.08716,34.51943],[-120.08686,34.51972],[-120.0864,34.5197],[-120.08622,34.52],[-120.08656,34.52016],[-120.08658,34.52077],[-120.08608,34.52087],[-120.08603,34.52116],[-120.08576,34.52117],[-120.08561,34.52104],[-120.08581,34.52081],[-120.08561,34.52064],[-120.08579,34.52057],[-120.08567,34.52044],[-120.08572,34.5203],[-120.08548,34.52015],[-120.08519,34.52004],[-120.08495,34.52022],[-120.08445,34.52001],[-120.08429,34.52031],[-120.08393,34.52005],[-120.08393,34.51987],[-120.08333,34.51977],[-120.08327,34.51953],[-120.08305,34.51939],[-120.08315,34.51924],[-120.08302,34.51906],[-120.08318,34.51886],[-120.08376,34.51859],[-120.0837,34.51831],[-120.08315,34.51794],[-120.08306,34.51798],[-120.08321,34.51805],[-120.08327,34.51842],[-120.08295,34.51844],[-120.08291,34.51868],[-120.08259,34.51885],[-120.0821,34.5185],[-120.0822,34.51837],[-120.08211,34.518],[-120.08191,34.5179],[-120.08069,34.51782],[-120.08011,34.51808],[-120.07993,34.51801],[-120.07993,34.51784],[-120.07964,34.51759],[-120.07979,34.51799],[-120.07938,34.51806],[-120.07941,34.51815],[-120.07889,34.51841],[-120.07864,34.51834],[-120.07861,34.51858],[-120.07843,34.51867],[-120.07837,34.51839],[-120.07795,34.51828],[-120.07798,34.51789],[-120.07779,34.51801],[-120.07721,34.51798],[-120.07713,34.51784],[-120.07679,34.5178],[-120.07674,34.51766],[-120.07665,34.51779],[-120.07602,34.51729],[-120.07611,34.51716],[-120.07589,34.51682],[-120.07514,34.51668],[-120.07479,34.51643],[-120.07465,34.51656],[-120.07439,34.51651],[-120.07434,34.51637],[-120.07406,34.51653],[-120.07389,34.51647],[-120.074,34.51613],[-120.07376,34.51596],[-120.07362,34.5161],[-120.07344,34.51575],[-120.07306,34.51582],[-120.0729,34.51609],[-120.07273,34.51587]]],[[[-120.17521,34.49288],[-120.17534,34.49303],[-120.17523,34.49326],[-120.17541,34.49323],[-120.17558,34.49352],[-120.17531,34.49374],[-120.17519,34.49408],[-120.17504,34.49394],[-120.17505,34.4936],[-120.17482,34.49341],[-120.175,34.49334],[-120.17488,34.49285],[-120.17521,34.49288]]],[[[-120.16515,34.51494],[-120.16544,34.51477],[-120.1662,34.51475],[-120.16608,34.51485],[-120.1661,34.51537],[-120.16598,34.5155],[-120.16566,34.51552],[-120.16521,34.5153],[-120.16515,34.51494]]]]},"properties":{"fire_id":"ufid:2021-CALPF-002759","source_collection":"history-2021","source_objectid":14290,"incident_name":"Alisal","mapped_acres":16953.24,"mapped_acres_source":"poly_GISAcres","gis_acres":16953.24,"auto_acres":16953.173609795318,"reported_acres":16970.0,"percent_contained":null,"state":"CA","state_wfigs":"US-CA","county":"Santa Barbara","discovery_time_utc":"2021-10-11T21:10:00Z","perimeter_time_utc":"2021-10-24T07:00:00Z","perimeter_edit_time_utc":"2023-03-14T15:13:42Z","incident_modified_time_utc":"2021-12-09T16:42:02Z","containment_time_utc":"2021-11-16T02:00:00Z","control_time_utc":"2021-12-01T22:00:00Z","fire_out_time_utc":"2021-12-02T00:30:00Z","fire_cause":"Natural","fire_cause_general":"Natural","map_method":"Mixed Methods","source_dataset":"FFP","unique_fire_identifier":"2021-CALPF-002759","irwin_id":"{B6304F5D-0658-49A8-BE97-64D4B17E7833}","global_id":"f4409ff7-edd4-4ab4-920b-8d1c7866dd62"}}]}
