{"type":"FeatureCollection","features":[{"type":"Feature","geometry":{"type":"Polygon","coordinates":[[[-85.01854,30.2726],[-85.01802,30.27262],[-85.01795,30.27243],[-85.01768,30.27229],[-85.01765,30.27202],[-85.01836,30.27198],[-85.01854,30.2726]]]},"properties":{"fire_id":"ufid:2021-FLFNF-000787","source_collection":"history-2021","source_objectid":3819,"incident_name":"Truck","mapped_acres":1.21451584242223,"mapped_acres_source":"poly_GISAcres","gis_acres":1.21451584242223,"auto_acres":1.21451156102901,"reported_acres":1.0,"percent_contained":null,"state":"FL","state_wfigs":"US-FL","county":"Liberty","discovery_time_utc":"2021-11-13T17:56:00Z","perimeter_time_utc":"2021-11-13T23:56:30Z","perimeter_edit_time_utc":"2021-11-29T23:14:41Z","incident_modified_time_utc":"2021-11-17T19:31:22Z","containment_time_utc":"2021-11-13T19:17:21Z","control_time_utc":null,"fire_out_time_utc":"2021-11-17T22:00:00Z","fire_cause":"Human","fire_cause_general":"Equipment","map_method":"Auto-generated","source_dataset":"2021 NIFS","unique_fire_identifier":"2021-FLFNF-000787","irwin_id":"{E5245DF4-57F8-45F4-8913-CC3FAC2AE49E}","global_id":"24e312fb-7797-4406-b8ee-f8fb83c1e30e"}},{"type":"Feature","geometry":{"type":"Polygon","coordinates":[[[-85.04978,30.10937],[-85.05021,30.1079],[-85.05022,30.10748],[-85.05047,30.10735],[-85.05086,30.1077],[-85.05111,30.1076],[-85.0512,30.10708],[-85.051,30.10692],[-85.05105,30.10632],[-85.05077,30.10609],[-85.05084,30.10588],[-85.05166,30.10524],[-85.05197,30.10474],[-85.05197,30.10433],[-85.0518,30.10402],[-85.05168,30.10385],[-85.05127,30.10371],[-85.05171,30.10041],[-85.05199,30.0994],[-85.05238,30.09914],[-85.05174,30.09856],[-85.05642,30.10263],[-85.05921,30.10456],[-85.05981,30.10515],[-85.06011,30.10564],[-85.05758,30.10695],[-85.05619,30.10791],[-85.0526,30.11223],[-85.05234,30.11175],[-85.05185,30.11139],[-85.05085,30.11134],[-85.05051,30.11092],[-85.05056,30.11079],[-85.05043,30.11061],[-85.05007,30.11027],[-85.04978,30.10937]]]},"properties":{"fire_id":"ufid:2021-FLFNF-000228","source_collection":"history-2021","source_objectid":5291,"incident_name":"Highway 379","mapped_acres":10.0,"mapped_acres_source":"poly_GISAcres","gis_acres":10.0,"auto_acres":165.8140567543278,"reported_acres":165.0,"percent_contained":null,"state":"FL","state_wfigs":"US-FL","county":"Liberty","discovery_time_utc":"2021-03-07T21:10:00Z","perimeter_time_utc":"2021-03-08T03:10:55Z","perimeter_edit_time_utc":"2023-03-14T15:13:42Z","incident_modified_time_utc":"2021-03-18T11:39:58Z","containment_time_utc":"2021-03-16T21:45:00Z","control_time_utc":"2021-03-16T21:50:00Z","fire_out_time_utc":"2021-03-16T22:00:00Z","fire_cause":"Undetermined","fire_cause_general":"Undetermined","map_method":"Auto-generated","source_dataset":"FFP","unique_fire_identifier":"2021-FLFNF-000228","irwin_id":"{34B8D261-BD1B-4761-BF23-63F9714358C1}","global_id":"79301842-abf9-4a8f-a734-e1216cea856a"}},{"type":"Feature","geometry":{"type":"Polygon","coordinates":[[[-87.1278,30.36671],[-87.1282,30.3665],[-87.12828,30.36677],[-87.12803,30.36693],[-87.1278,30.36671]]]},"properties":{"fire_id":"ufid:2021-FLGIP-000450","source_collection":"history-2021","source_objectid":6323,"incident_name":"Beaver Pond","mapped_acres":0.3,"mapped_acres_source":"poly_GISAcres","gis_acres":0.3,"auto_acres":0.2838079400445259,"reported_acres":0.5,"percent_contained":null,"state":"FL","state_wfigs":"US-FL","county":"Santa Rosa","discovery_time_utc":"2021-05-21T17:12:00Z","perimeter_time_utc":"2021-05-21T22:12:00Z","perimeter_edit_time_utc":"2023-03-14T15:13:42Z","incident_modified_time_utc":"2021-11-03T15:24:43Z","containment_time_utc":"2021-05-22T13:50:00Z","control_time_utc":"2021-05-27T00:00:00Z","fire_out_time_utc":"2021-06-04T16:30:00Z","fire_cause":"Human","fire_cause_general":"Equipment and vehicle use","map_method":"Hand Sketch","source_dataset":"FFP","unique_fire_identifier":"2021-FLGIP-000450","irwin_id":"{A394CF70-7DF6-4250-B767-0CA0D26A1B3C}","global_id":"456221e8-def5-418c-9811-875d0a4eac18"}},{"type":"Feature","geometry":{"type":"MultiPolygon","coordinates":[[[[-86.84465,30.46968],[-86.84457,30.46967],[-86.84457,30.46961],[-86.84465,30.46968]]],[[[-86.81684,30.47448],[-86.817,30.47454],[-86.81687,30.47456],[-86.81684,30.47448]]],[[[-86.83318,30.47464],[-86.83322,30.47456],[-86.83341,30.47458],[-86.83318,30.47464]]],[[[-86.81514,30.47649],[-86.81507,30.47657],[-86.81507,30.4765],[-86.81514,30.47649]]],[[[-86.82189,30.47666],[-86.82211,30.47669],[-86.82193,30.47673],[-86.82189,30.47666]]],[[[-86.84588,30.4775],[-86.84589,30.47743],[-86.84596,30.47743],[-86.84588,30.4775]]],[[[-86.81134,30.47766],[-86.81119,30.4776],[-86.81132,30.47758],[-86.81134,30.47766]]],[[[-86.81134,30.47766],[-86.81142,30.47773],[-86.81134,30.47773],[-86.81134,30.47766]]],[[[-86.8009,30.47797],[-86.80096,30.47804],[-86.8009,30.47804],[-86.8009,30.47797]]],[[[-86.84008,30.49098],[-86.84015,30.4909],[-86.84015,30.49097],[-86.84008,30.49098]]],[[[-86.83992,30.49152],[-86.83999,30.49159],[-86.83992,30.4916],[-86.83992,30.49152]]],[[[-86.83676,30.49656],[-86.83682,30.49656],[-86.83682,30.49662],[-86.83676,30.49656]]],[[[-86.83961,30.49818],[-86.83977,30.4981],[-86.83959,30.49814],[-86.83964,30.49715],[-86.84009,30.497],[-86.84066,30.49711],[-86.84084,30.49762],[-86.84085,30.49861],[-86.84056,30.49943],[-86.84029,30.4994],[-86.83993,30.49888],[-86.83967,30.49886],[-86.83993,30.49853],[-86.83961,30.49818]]],[[[-86.84008,30.49098],[-86.83999,30.49143],[-86.83969,30.49158],[-86.83992,30.4916],[-86.83979,30.49175],[-86.84016,30.49168],[-86.84077,30.49182],[-86.84073,30.49242],[-86.84006,30.49253],[-86.83976,30.49235],[-86.83932,30.49268],[-86.83923,30.49261],[-86.83943,30.49281],[-86.83895,30.49309],[-86.83894,30.49346],[-86.83866,30.49359],[-86.83839,30.49335],[-86.83762,30.49379],[-86.8376,30.49402],[-86.83734,30.49423],[-86.83699,30.49402],[-86.83678,30.49443],[-86.83648,30.49449],[-86.83608,30.49522],[-86.83559,30.49534],[-86.8353,30.49557],[-86.83555,30.49588],[-86.83529,30.49611],[-86.8356,30.49607],[-86.83577,30.49621],[-86.83593,30.49593],[-86.83695,30.49541],[-86.83767,30.49599],[-86.83762,30.49617],[-86.83731,30.49629],[-86.83748,30.49647],[-86.83716,30.49651],[-86.83663,30.49626],[-86.83649,30.49642],[-86.83663,30.49674],[-86.83644,30.49667],[-86.83629,30.49634],[-86.8359,30.49647],[-86.83547,30.49686],[-86.83468,30.49667],[-86.8323,30.49656],[-86.83217,30.49625],[-86.83221,30.4928],[-86.83227,30.49151],[-86.83246,30.4907],[-86.83219,30.48992],[-86.83218,30.48765],[-86.83226,30.4842],[-86.83253,30.48303],[-86.8316,30.482],[-86.82292,30.48191],[-86.82207,30.48161],[-86.81943,30.4816],[-86.81866,30.48147],[-86.81592,30.4816],[-86.81568,30.48147],[-86.81568,30.47964],[-86.81561,30.4794],[-86.81546,30.47935],[-86.80667,30.48015],[-86.8057,30.48035],[-86.80227,30.4805],[-86.80037,30.4809],[-86.79853,30.48097],[-86.79834,30.48086],[-86.79805,30.48026],[-86.79818,30.4776],[-86.7984,30.47728],[-86.799,30.47723],[-86.79952,30.47767],[-86.80001,30.47781],[-86.80086,30.47871],[-86.8011,30.47862],[-86.80136,30.47923],[-86.80166,30.47934],[-86.80234,30.47873],[-86.80263,30.47883],[-86.80283,30.47931],[-86.80312,30.47918],[-86.80336,30.47888],[-86.80359,30.47883],[-86.80378,30.47894],[-86.80367,30.47944],[-86.80436,30.47909],[-86.80497,30.47946],[-86.80505,30.47931],[-86.80636,30.47874],[-86.80668,30.47872],[-86.80708,30.479],[-86.80778,30.47852],[-86.80824,30.47884],[-86.80866,30.47843],[-86.80917,30.47853],[-86.80991,30.47811],[-86.81051,30.47812],[-86.81134,30.47773],[-86.81179,30.47815],[-86.81236,30.47841],[-86.81298,30.47822],[-86.81469,30.47829],[-86.81493,30.47808],[-86.81514,30.47745],[-86.81563,30.4771],[-86.81558,30.47674],[-86.81568,30.47658],[-86.81559,30.47665],[-86.81514,30.47649],[-86.8153,30.47611],[-86.81512,30.47573],[-86.81549,30.47557],[-86.81575,30.47517],[-86.81591,30.47536],[-86.81588,30.47569],[-86.81609,30.47562],[-86.81637,30.47573],[-86.81644,30.47504],[-86.81634,30.47449],[-86.81677,30.47395],[-86.81697,30.47412],[-86.81684,30.47448],[-86.81664,30.47448],[-86.81683,30.47494],[-86.81719,30.47436],[-86.81721,30.47379],[-86.81776,30.47419],[-86.81808,30.47372],[-86.81795,30.47329],[-86.81866,30.47346],[-86.81919,30.47329],[-86.81981,30.47342],[-86.81959,30.4741],[-86.81955,30.47497],[-86.81989,30.47535],[-86.82,30.47578],[-86.82033,30.47597],[-86.82045,30.47677],[-86.82064,30.47703],[-86.82073,30.47798],[-86.82092,30.47829],[-86.82177,30.47789],[-86.82174,30.47709],[-86.82248,30.47706],[-86.82223,30.4767],[-86.82233,30.47636],[-86.82251,30.47623],[-86.82283,30.47624],[-86.82312,30.47602],[-86.82339,30.47607],[-86.82324,30.47562],[-86.8235,30.47525],[-86.82323,30.47516],[-86.82314,30.47492],[-86.82339,30.47455],[-86.82352,30.47489],[-86.82413,30.4756],[-86.82439,30.47568],[-86.82452,30.47607],[-86.82531,30.47659],[-86.82516,30.47689],[-86.82525,30.47701],[-86.82433,30.47801],[-86.8244,30.47816],[-86.82491,30.47814],[-86.82556,30.4777],[-86.82669,30.4774],[-86.82747,30.47699],[-86.82854,30.47678],[-86.82967,30.47601],[-86.83012,30.476],[-86.83031,30.47563],[-86.83075,30.47534],[-86.83148,30.47524],[-86.83213,30.4749],[-86.83317,30.47463],[-86.83303,30.47489],[-86.83337,30.47491],[-86.83402,30.47442],[-86.835,30.4741],[-86.83524,30.47424],[-86.83572,30.47403],[-86.83572,30.4738],[-86.83679,30.47349],[-86.8373,30.47355],[-86.83742,30.47391],[-86.83825,30.47399],[-86.83799,30.47371],[-86.83831,30.4734],[-86.83834,30.47308],[-86.83784,30.47295],[-86.83793,30.47278],[-86.84447,30.47011],[-86.84466,30.46967],[-86.84562,30.46957],[-86.84573,30.46873],[-86.84624,30.46898],[-86.84648,30.46874],[-86.84729,30.46849],[-86.84836,30.46864],[-86.84962,30.46818],[-86.84975,30.4684],[-86.84964,30.46918],[-86.84935,30.46913],[-86.84922,30.46944],[-86.84926,30.46972],[-86.84952,30.46992],[-86.8493,30.47026],[-86.84948,30.47049],[-86.84954,30.47086],[-86.84873,30.47119],[-86.84917,30.47132],[-86.84956,30.47168],[-86.84949,30.47185],[-86.84912,30.47207],[-86.84966,30.47307],[-86.84968,30.47547],[-86.84955,30.4759],[-86.84915,30.47609],[-86.84812,30.47619],[-86.84779,30.47614],[-86.84771,30.47592],[-86.84756,30.4759],[-86.8471,30.47625],[-86.84041,30.47691],[-86.83995,30.47704],[-86.83954,30.47734],[-86.84032,30.47775],[-86.84039,30.47789],[-86.84016,30.47795],[-86.84044,30.4779],[-86.84107,30.47844],[-86.84098,30.47806],[-86.84166,30.478],[-86.84232,30.47773],[-86.84233,30.47799],[-86.84256,30.47831],[-86.84285,30.4786],[-86.84308,30.47864],[-86.84395,30.4781],[-86.84446,30.47826],[-86.84455,30.47798],[-86.84486,30.47772],[-86.84533,30.47772],[-86.84535,30.47744],[-86.84588,30.4775],[-86.84577,30.47779],[-86.84629,30.47801],[-86.84642,30.47789],[-86.8465,30.47796],[-86.84648,30.47786],[-86.84718,30.47793],[-86.8473,30.47734],[-86.84686,30.47703],[-86.84756,30.47685],[-86.84775,30.4773],[-86.84826,30.47773],[-86.84905,30.47769],[-86.84898,30.47789],[-86.84916,30.47802],[-86.84925,30.47833],[-86.84925,30.47977],[-86.84954,30.48021],[-86.8494,30.48103],[-86.84918,30.48124],[-86.84976,30.48208],[-86.85065,30.4823],[-86.85394,30.48215],[-86.85498,30.48235],[-86.85601,30.48224],[-86.85746,30.48233],[-86.86139,30.48219],[-86.86435,30.48223],[-86.8651,30.48237],[-86.86712,30.48222],[-86.86754,30.4823],[-86.87239,30.49088],[-86.87248,30.49181],[-86.87299,30.49233],[-86.87294,30.49325],[-86.87324,30.49378],[-86.87341,30.49451],[-86.8741,30.49552],[-86.87442,30.49638],[-86.87522,30.4977],[-86.87541,30.49837],[-86.87592,30.49883],[-86.87645,30.49981],[-86.87827,30.50369],[-86.87855,30.50404],[-86.87884,30.50487],[-86.87917,30.50529],[-86.87959,30.50641],[-86.88047,30.50795],[-86.88092,30.50895],[-86.88097,30.50954],[-86.88178,30.51121],[-86.88181,30.51231],[-86.8816,30.5135],[-86.88179,30.51421],[-86.88138,30.51666],[-86.8815,30.51746],[-86.88143,30.51901],[-86.88115,30.52016],[-86.8811,30.52171],[-86.88086,30.52247],[-86.88087,30.52345],[-86.8807,30.52387],[-86.8808,30.52461],[-86.88058,30.52552],[-86.88015,30.52568],[-86.87991,30.52608],[-86.87907,30.5257],[-86.87757,30.52483],[-86.87459,30.52345],[-86.87436,30.52308],[-86.87341,30.52254],[-86.87343,30.52239],[-86.87302,30.52227],[-86.8707,30.52059],[-86.8654,30.51814],[-86.86508,30.51788],[-86.86526,30.51153],[-86.86548,30.51031],[-86.86532,30.50682],[-86.86548,30.5058],[-86.86556,30.49848],[-86.86577,30.49776],[-86.86535,30.49774],[-86.86433,30.4982],[-86.86078,30.50006],[-86.86002,30.50031],[-86.85838,30.50119],[-86.85773,30.50137],[-86.85728,30.50173],[-86.8562,30.50187],[-86.85607,30.50225],[-86.85582,30.50243],[-86.85546,30.50242],[-86.85519,30.50277],[-86.85478,30.50296],[-86.8546,30.50297],[-86.85419,30.50266],[-86.85423,30.5031],[-86.85394,30.50334],[-86.8493,30.50563],[-86.84901,30.50566],[-86.84879,30.50551],[-86.8487,30.50498],[-86.84887,30.50325],[-86.84877,30.50271],[-86.84894,30.50207],[-86.84899,30.49953],[-86.84915,30.49911],[-86.84904,30.49858],[-86.84944,30.49826],[-86.8496,30.49774],[-86.85001,30.49736],[-86.84965,30.49714],[-86.84977,30.49698],[-86.84972,30.49674],[-86.84931,30.49648],[-86.84916,30.49618],[-86.84916,30.49364],[-86.84936,30.49342],[-86.84922,30.49301],[-86.84921,30.4912],[-86.84942,30.48589],[-86.84931,30.4859],[-86.84918,30.4863],[-86.84885,30.48645],[-86.84819,30.48619],[-86.84803,30.48577],[-86.84759,30.48567],[-86.84743,30.48523],[-86.84719,30.48504],[-86.84668,30.4852],[-86.84585,30.48494],[-86.84551,30.48512],[-86.84489,30.48459],[-86.84456,30.4847],[-86.8446,30.48509],[-86.84442,30.48493],[-86.84402,30.48508],[-86.84349,30.48491],[-86.84242,30.48497],[-86.84224,30.4847],[-86.84211,30.48471],[-86.84168,30.48503],[-86.8418,30.48569],[-86.84144,30.48554],[-86.84042,30.4862],[-86.84064,30.48639],[-86.84054,30.48672],[-86.84059,30.48726],[-86.84027,30.48764],[-86.84002,30.48757],[-86.84003,30.48823],[-86.83975,30.48837],[-86.83949,30.48813],[-86.83916,30.48832],[-86.83827,30.48829],[-86.83801,30.48867],[-86.83807,30.48906],[-86.83879,30.48902],[-86.83872,30.48942],[-86.83938,30.48971],[-86.83894,30.49017],[-86.83912,30.49038],[-86.8391,30.49069],[-86.8397,30.49098],[-86.84008,30.49098]]]]},"properties":{"fire_id":"ufid:2021-FLEAQ-020001","source_collection":"history-2021","source_objectid":14182,"incident_name":"Blue Barrel WF","mapped_acres":1080.0,"mapped_acres_source":"poly_GISAcres","gis_acres":1080.0,"auto_acres":3142.20048159543,"reported_acres":1080.0,"percent_contained":100.0,"state":"FL","state_wfigs":"US-FL","county":"Santa Rosa","discovery_time_utc":"2021-03-10T18:00:00Z","perimeter_time_utc":"2021-03-11T00:00:00Z","perimeter_edit_time_utc":"2021-05-04T22:55:42Z","incident_modified_time_utc":"2021-04-06T21:00:01Z","containment_time_utc":null,"control_time_utc":null,"fire_out_time_utc":null,"fire_cause":"Human","fire_cause_general":null,"map_method":"Image Interpretation","source_dataset":"2021 NIFS","unique_fire_identifier":"2021-FLEAQ-020001","irwin_id":"{53CD64C2-EAB4-4043-937E-6C3DC625ACED}","global_id":"a4f4cc45-3ed3-4acf-bfa9-bb26413f2e48"}},{"type":"Feature","geometry":{"type":"Polygon","coordinates":[[[-89.12739,30.23016],[-89.12417,30.22937],[-89.12415,30.22857],[-89.12789,30.22956],[-89.1279,30.22982],[-89.12811,30.23007],[-89.12848,30.23023],[-89.12739,30.23016]]]},"properties":{"fire_id":"ufid:2021-FLGIP-000709","source_collection":"history-2021","source_objectid":14836,"incident_name":"Cuevas","mapped_acres":20.0,"mapped_acres_source":"poly_GISAcres","gis_acres":20.0,"auto_acres":8.0403733623456,"reported_acres":8.0,"percent_contained":null,"state":"FL","state_wfigs":"US-FL","county":"Santa Rosa","discovery_time_utc":"2021-10-17T21:00:00Z","perimeter_time_utc":"2021-10-18T02:00:00Z","perimeter_edit_time_utc":"2021-12-08T19:48:32Z","incident_modified_time_utc":"2021-12-08T19:48:30Z","containment_time_utc":"2021-10-18T22:00:00Z","control_time_utc":"2021-10-22T22:00:00Z","fire_out_time_utc":"2021-12-08T19:00:00Z","fire_cause":"Human","fire_cause_general":"Other Human Cause","map_method":"Hand Sketch","source_dataset":"Decertified","unique_fire_identifier":"2021-FLGIP-000709","irwin_id":"{5831E18B-CBC6-42B0-84E7-7EB0D118CC5C}","global_id":"002cff2d-cb13-4dec-9678-61be61be5772"}}]}
