{"type":"FeatureCollection","features":[{"type":"Feature","geometry":{"type":"Polygon","coordinates":[[[-83.3761,34.5294],[-83.37619,34.52953],[-83.37607,34.52951],[-83.3761,34.5294]]]},"properties":{"fire_id":"ufid:2021-GACHF-210059","source_collection":"history-2021","source_objectid":4185,"incident_name":"Currahee","mapped_acres":0.03889248263171904,"mapped_acres_source":"poly_Acres_AutoCalc_fallback","gis_acres":null,"auto_acres":0.03889248263171904,"reported_acres":0.1,"percent_contained":null,"state":"GA","state_wfigs":"US-GA","county":"Stephens","discovery_time_utc":"2021-02-26T08:30:00Z","perimeter_time_utc":"2021-03-22T18:37:25Z","perimeter_edit_time_utc":"2023-03-14T15:13:42Z","incident_modified_time_utc":"2021-03-23T18:55:04Z","containment_time_utc":"2021-02-26T09:30:00Z","control_time_utc":"2021-02-26T09:30:00Z","fire_out_time_utc":"2021-02-26T15:00:00Z","fire_cause":"Human","fire_cause_general":"Other causes","map_method":"Hand Sketch","source_dataset":"FFP","unique_fire_identifier":"2021-GACHF-210059","irwin_id":"{2F224072-0159-4965-8E3D-360997996E3D}","global_id":"9fe4ec8c-7c26-4151-bd99-cc3dc1a891ce"}},{"type":"Feature","geometry":{"type":"Polygon","coordinates":[[[-83.3803,34.55557],[-83.37914,34.5563],[-83.37776,34.55631],[-83.37767,34.55597],[-83.37795,34.55569],[-83.37798,34.55533],[-83.37914,34.55474],[-83.37967,34.55432],[-83.38017,34.5545],[-83.38091,34.55443],[-83.38092,34.55432],[-83.38154,34.55476],[-83.3813,34.55483],[-83.38098,34.55545],[-83.3803,34.55557]]]},"properties":{"fire_id":"ufid:2021-GACHF-210050","source_collection":"history-2021","source_objectid":5915,"incident_name":"Quarry Fire","mapped_acres":0.1,"mapped_acres_source":"poly_GISAcres","gis_acres":0.1,"auto_acres":11.039227040695367,"reported_acres":11.0,"percent_contained":null,"state":"GA","state_wfigs":"US-GA","county":"Stephens","discovery_time_utc":"2021-01-19T19:00:00Z","perimeter_time_utc":"2021-01-20T02:00:00Z","perimeter_edit_time_utc":"2023-03-14T15:13:42Z","incident_modified_time_utc":"2021-02-17T20:42:05Z","containment_time_utc":"2021-01-19T22:45:00Z","control_time_utc":"2021-01-20T15:30:00Z","fire_out_time_utc":"2021-01-25T14:00:00Z","fire_cause":"Human","fire_cause_general":"Other causes","map_method":"GPS-Walked","source_dataset":"FFP","unique_fire_identifier":"2021-GACHF-210050","irwin_id":"{102DB02B-FA46-48AF-AD35-D4078DB9F16B}","global_id":"e073478e-7728-4bfb-9848-11965ccd9591"}},{"type":"Feature","geometry":{"type":"Polygon","coordinates":[[[-83.73108,34.65221],[-83.73043,34.65331],[-83.73019,34.65337],[-83.72752,34.65274],[-83.72849,34.65071],[-83.72976,34.65106],[-83.73098,34.65173],[-83.73108,34.65221]]]},"properties":{"fire_id":"ufid:2021-GACHF-210074","source_collection":"history-2021","source_objectid":6110,"incident_name":"MT Yonah","mapped_acres":15.0,"mapped_acres_source":"poly_GISAcres","gis_acres":15.0,"auto_acres":15.281395360116438,"reported_acres":15.0,"percent_contained":null,"state":"GA","state_wfigs":"US-GA","county":"White","discovery_time_utc":"2021-03-07T20:22:51Z","perimeter_time_utc":"2021-03-08T04:05:51Z","perimeter_edit_time_utc":"2023-03-14T15:13:42Z","incident_modified_time_utc":"2021-05-26T19:22:24Z","containment_time_utc":"2021-03-07T23:15:00Z","control_time_utc":"2021-03-08T01:49:00Z","fire_out_time_utc":null,"fire_cause":"Human","fire_cause_general":"Other causes","map_method":"Hand Sketch","source_dataset":"FFP","unique_fire_identifier":"2021-GACHF-210074","irwin_id":"{8EB3AA36-0F25-4B5E-B44A-7DC9B5396D90}","global_id":"147a5319-a54b-45a5-bca2-16a4f6eaf659"}},{"type":"Feature","geometry":{"type":"Polygon","coordinates":[[[-83.72271,34.77661],[-83.72272,34.7761],[-83.72307,34.77602],[-83.72349,34.77611],[-83.72356,34.77639],[-83.72317,34.77666],[-83.72271,34.77661]]]},"properties":{"fire_id":"ufid:2021-GACHF-210080","source_collection":"history-2021","source_objectid":6291,"incident_name":"Tray Mountain","mapped_acres":2.0,"mapped_acres_source":"poly_GISAcres","gis_acres":2.0,"auto_acres":1.0827207067723432,"reported_acres":2.0,"percent_contained":null,"state":"GA","state_wfigs":"US-GA","county":"White","discovery_time_utc":"2021-03-09T23:39:45Z","perimeter_time_utc":"2021-03-10T05:39:45Z","perimeter_edit_time_utc":"2023-03-14T15:13:42Z","incident_modified_time_utc":"2021-05-26T19:21:57Z","containment_time_utc":"2021-03-10T02:27:00Z","control_time_utc":"2021-03-10T02:27:00Z","fire_out_time_utc":null,"fire_cause":"Human","fire_cause_general":"Debris and open burning","map_method":"Hand Sketch","source_dataset":"FFP","unique_fire_identifier":"2021-GACHF-210080","irwin_id":"{8E5E2F44-9576-4BD4-85B3-D259462C7ED2}","global_id":"67aca58a-666c-4431-9c85-6da8f2cdd0ca"}},{"type":"Feature","geometry":{"type":"Polygon","coordinates":[[[-83.37429,34.75407],[-83.3743,34.75407],[-83.37429,34.7541],[-83.37429,34.75407]]]},"properties":{"fire_id":"ufid:2021-GACHF-200049","source_collection":"history-2021","source_objectid":6480,"incident_name":"Bad Creek","mapped_acres":0.0008781205026517899,"mapped_acres_source":"poly_Acres_AutoCalc_fallback","gis_acres":null,"auto_acres":0.0008781205026517899,"reported_acres":0.1,"percent_contained":null,"state":"GA","state_wfigs":"US-GA","county":"Rabun","discovery_time_utc":"2021-01-14T23:15:00Z","perimeter_time_utc":"2021-03-15T18:48:57Z","perimeter_edit_time_utc":"2023-03-14T15:13:42Z","incident_modified_time_utc":"2021-03-23T18:49:21Z","containment_time_utc":"2021-01-15T14:30:00Z","control_time_utc":null,"fire_out_time_utc":"2021-01-15T15:00:00Z","fire_cause":"Undetermined","fire_cause_general":"Undetermined","map_method":"Hand Sketch","source_dataset":"FFP","unique_fire_identifier":"2021-GACHF-200049","irwin_id":"{95E76A2D-57DB-4523-AAA7-584FE63A1155}","global_id":"4bf66589-d17a-4360-93be-b5d017b51641"}},{"type":"Feature","geometry":{"type":"Polygon","coordinates":[[[-83.42963,34.8134],[-83.42949,34.81312],[-83.42981,34.81297],[-83.42989,34.8131],[-83.42963,34.8134]]]},"properties":{"fire_id":"ufid:2021-GAGAS-210093","source_collection":"history-2021","source_objectid":7395,"incident_name":"Mitcham Fire","mapped_acres":0.3,"mapped_acres_source":"poly_GISAcres","gis_acres":0.3,"auto_acres":0.298428104540319,"reported_acres":0.1,"percent_contained":null,"state":"GA","state_wfigs":"US-GA","county":"Rabun","discovery_time_utc":"2021-03-09T21:15:00Z","perimeter_time_utc":"2021-03-13T22:30:00Z","perimeter_edit_time_utc":"2023-03-14T15:13:42Z","incident_modified_time_utc":"2021-03-23T19:03:29Z","containment_time_utc":null,"control_time_utc":null,"fire_out_time_utc":"2021-03-10T23:00:00Z","fire_cause":"Undetermined","fire_cause_general":"Undetermined","map_method":"GPS-Walked","source_dataset":"FFP","unique_fire_identifier":"2021-GAGAS-210093","irwin_id":"{B8CB98DF-1361-422C-BE47-792FD09B56E4}","global_id":"ca007ccd-49a3-45f8-87bb-fa7e9594ff5a"}},{"type":"Feature","geometry":{"type":"Polygon","coordinates":[[[-83.37311,34.75624],[-83.37318,34.75649],[-83.37302,34.75625],[-83.37311,34.75624]]]},"properties":{"fire_id":"ufid:2021-GACHF-200051","source_collection":"history-2021","source_objectid":7737,"incident_name":"Rock Fire","mapped_acres":1.0,"mapped_acres_source":"poly_GISAcres","gis_acres":1.0,"auto_acres":0.05387695862497492,"reported_acres":0.1,"percent_contained":null,"state":"GA","state_wfigs":"US-GA","county":"Rabun","discovery_time_utc":"2021-01-23T21:30:00Z","perimeter_time_utc":"2021-01-23T22:30:00Z","perimeter_edit_time_utc":"2023-03-14T15:13:42Z","incident_modified_time_utc":"2021-04-21T20:14:24Z","containment_time_utc":"2021-01-23T23:30:00Z","control_time_utc":"2021-01-23T23:30:00Z","fire_out_time_utc":"2021-01-25T14:00:00Z","fire_cause":"Human","fire_cause_general":"Other causes","map_method":"GPS-Unknown Travel Method","source_dataset":"FFP","unique_fire_identifier":"2021-GACHF-200051","irwin_id":"{65D26F37-E70D-4D8C-9D27-BFFCA749FF07}","global_id":"5c133e25-6224-4e48-bb75-a06b8a5a3683"}},{"type":"Feature","geometry":{"type":"Polygon","coordinates":[[[-83.55142,34.97153],[-83.54966,34.97191],[-83.54888,34.97246],[-83.54847,34.97258],[-83.54801,34.97242],[-83.54715,34.9718],[-83.54689,34.97131],[-83.54715,34.97082],[-83.54773,34.97044],[-83.54914,34.9698],[-83.55008,34.96965],[-83.5517,34.97037],[-83.55206,34.971],[-83.5516,34.97113],[-83.55142,34.97153]]]},"properties":{"fire_id":"ufid:2021-GACHF-210079","source_collection":"history-2021","source_objectid":7940,"incident_name":"Tate Fire","mapped_acres":15.0,"mapped_acres_source":"poly_GISAcres","gis_acres":15.0,"auto_acres":23.105276516586514,"reported_acres":25.0,"percent_contained":null,"state":"GA","state_wfigs":"US-GA","county":"Towns","discovery_time_utc":"2021-03-09T18:34:00Z","perimeter_time_utc":"2021-03-10T17:00:00Z","perimeter_edit_time_utc":"2023-03-14T15:13:42Z","incident_modified_time_utc":"2021-04-21T20:11:58Z","containment_time_utc":"2021-03-11T23:00:00Z","control_time_utc":"2021-03-13T22:00:00Z","fire_out_time_utc":"2021-03-16T13:16:00Z","fire_cause":"Human","fire_cause_general":"Debris and open burning","map_method":"GPS-Flight","source_dataset":"FFP","unique_fire_identifier":"2021-GACHF-210079","irwin_id":"{8E94FB30-4D47-433F-A359-664330C1E57B}","global_id":"9f5b1f11-86a2-4bea-82e5-a833127fdcb1"}},{"type":"Feature","geometry":{"type":"Polygon","coordinates":[[[-83.41442,34.88851],[-83.41484,34.88851],[-83.41533,34.889],[-83.41533,34.88929],[-83.41505,34.88935],[-83.41458,34.8891],[-83.41428,34.88883],[-83.41442,34.88851]]]},"properties":{"fire_id":"ufid:2021-GACHF-210122","source_collection":"history-2021","source_objectid":8931,"incident_name":"Rogers Mtn","mapped_acres":3.0,"mapped_acres_source":"poly_GISAcres","gis_acres":3.0,"auto_acres":1.4839592301892313,"reported_acres":1.5,"percent_contained":null,"state":"GA","state_wfigs":"US-GA","county":"Rabun","discovery_time_utc":"2021-04-23T19:17:00Z","perimeter_time_utc":"2021-04-24T00:17:00Z","perimeter_edit_time_utc":"2023-03-14T15:13:42Z","incident_modified_time_utc":"2021-05-26T19:21:19Z","containment_time_utc":"2021-04-23T23:57:00Z","control_time_utc":"2021-04-23T23:57:00Z","fire_out_time_utc":null,"fire_cause":"Human","fire_cause_general":"Other causes","map_method":"Hand Sketch","source_dataset":"FFP","unique_fire_identifier":"2021-GACHF-210122","irwin_id":"{4B114E76-6FD4-4948-A123-773E0A766270}","global_id":"7b5b6e44-30e2-4471-8264-c2fc049ae484"}},{"type":"Feature","geometry":{"type":"Polygon","coordinates":[[[-83.40885,34.70638],[-83.40901,34.70611],[-83.40996,34.70601],[-83.40996,34.7064],[-83.40941,34.70694],[-83.40904,34.70685],[-83.40885,34.70638]]]},"properties":{"fire_id":"ufid:2021-GACHF-210070","source_collection":"history-2021","source_objectid":10225,"incident_name":"Tugalo","mapped_acres":2.7,"mapped_acres_source":"poly_GISAcres","gis_acres":2.7,"auto_acres":1.9400819834021632,"reported_acres":2.7,"percent_contained":null,"state":"GA","state_wfigs":"US-GA","county":"Habersham","discovery_time_utc":"2021-03-06T22:29:00Z","perimeter_time_utc":"2021-03-07T04:29:59Z","perimeter_edit_time_utc":"2023-03-14T15:13:42Z","incident_modified_time_utc":"2021-04-21T20:12:40Z","containment_time_utc":"2021-03-07T00:10:00Z","control_time_utc":"2021-03-16T13:16:00Z","fire_out_time_utc":"2021-03-16T13:20:00Z","fire_cause":"Human","fire_cause_general":"Other causes","map_method":"GPS-Unknown Travel Method","source_dataset":"FFP","unique_fire_identifier":"2021-GACHF-210070","irwin_id":"{98B71769-B372-4FB6-9049-903CB7BC8DA4}","global_id":"b5f931bd-18e1-47c1-90c9-a9bd1b311263"}},{"type":"Feature","geometry":{"type":"Polygon","coordinates":[[[-83.37803,34.75412],[-83.37685,34.75416],[-83.37653,34.75386],[-83.37635,34.75348],[-83.37653,34.75306],[-83.37668,34.753],[-83.37621,34.75287],[-83.37589,34.75213],[-83.376,34.75191],[-83.3766,34.75154],[-83.37671,34.75107],[-83.37705,34.75094],[-83.37757,34.75112],[-83.37787,34.7515],[-83.3781,34.75154],[-83.37876,34.75238],[-83.37889,34.75236],[-83.37956,34.75292],[-83.37954,34.7533],[-83.37929,34.75372],[-83.37907,34.75383],[-83.37903,34.75425],[-83.37879,34.75448],[-83.37868,34.75433],[-83.37803,34.75412]]]},"properties":{"fire_id":"ufid:2021-GACHF-210058","source_collection":"history-2021","source_objectid":10682,"incident_name":"Bad Creek 2","mapped_acres":19.635587131036175,"mapped_acres_source":"poly_Acres_AutoCalc_fallback","gis_acres":null,"auto_acres":19.635587131036175,"reported_acres":19.6,"percent_contained":null,"state":"GA","state_wfigs":"US-GA","county":"Rabun","discovery_time_utc":"2021-02-25T21:15:00Z","perimeter_time_utc":"2021-02-26T00:30:00Z","perimeter_edit_time_utc":"2023-03-14T15:13:42Z","incident_modified_time_utc":"2021-03-23T18:51:14Z","containment_time_utc":"2021-02-25T23:46:00Z","control_time_utc":"2021-02-26T23:00:00Z","fire_out_time_utc":"2021-03-02T16:30:00Z","fire_cause":"Human","fire_cause_general":"Other causes","map_method":"GPS-Walked","source_dataset":"FFP","unique_fire_identifier":"2021-GACHF-210058","irwin_id":"{41A198E7-867D-48B9-846F-160957C9691A}","global_id":"b67e9892-a456-4097-9279-2d274a9cee99"}},{"type":"Feature","geometry":{"type":"Polygon","coordinates":[[[-83.72154,34.77855],[-83.72188,34.77809],[-83.72229,34.77807],[-83.72243,34.77828],[-83.72223,34.7785],[-83.72162,34.77865],[-83.72154,34.77855]]]},"properties":{"fire_id":"ufid:2021-GACHF-210129","source_collection":"history-2021","source_objectid":10947,"incident_name":"Back Packer","mapped_acres":0.8647254186048966,"mapped_acres_source":"poly_Acres_AutoCalc_fallback","gis_acres":null,"auto_acres":0.8647254186048966,"reported_acres":1.0,"percent_contained":null,"state":"GA","state_wfigs":"US-GA","county":"White","discovery_time_utc":"2021-04-30T18:57:12Z","perimeter_time_utc":"2021-05-19T14:36:22Z","perimeter_edit_time_utc":"2023-03-14T15:13:42Z","incident_modified_time_utc":"2021-05-26T19:20:50Z","containment_time_utc":"2021-04-30T21:30:00Z","control_time_utc":"2021-04-30T22:00:00Z","fire_out_time_utc":null,"fire_cause":"Human","fire_cause_general":"Other causes","map_method":"Hand Sketch","source_dataset":"FFP","unique_fire_identifier":"2021-GACHF-210129","irwin_id":"{50E904EA-F787-4254-B8BE-49CA7C3CAF88}","global_id":"6a55dda8-5dfc-46b2-987c-7ba09e30773e"}},{"type":"Feature","geometry":{"type":"Polygon","coordinates":[[[-83.72439,34.77216],[-83.72466,34.77219],[-83.72444,34.77229],[-83.72439,34.77216]]]},"properties":{"fire_id":"ufid:2021-GACHF-210099","source_collection":"history-2021","source_objectid":11434,"incident_name":"Tray","mapped_acres":1.0,"mapped_acres_source":"poly_GISAcres","gis_acres":1.0,"auto_acres":0.06393796882391017,"reported_acres":0.1,"percent_contained":null,"state":"GA","state_wfigs":"US-GA","county":"White","discovery_time_utc":"2021-03-23T02:50:00Z","perimeter_time_utc":"2021-03-23T16:59:25Z","perimeter_edit_time_utc":"2023-03-14T15:13:42Z","incident_modified_time_utc":"2021-04-21T18:51:19Z","containment_time_utc":"2021-03-23T12:00:00Z","control_time_utc":"2021-03-23T12:00:00Z","fire_out_time_utc":"2021-03-27T16:00:00Z","fire_cause":"Human","fire_cause_general":"Other causes","map_method":"Hand Sketch","source_dataset":"FFP","unique_fire_identifier":"2021-GACHF-210099","irwin_id":"{CC8E559A-7FCD-4572-9CDA-9CE9A053A4CE}","global_id":"1c7d5940-edbc-46d4-aae7-eb88db563b95"}},{"type":"Feature","geometry":{"type":"Polygon","coordinates":[[[-83.45532,34.73237],[-83.45554,34.73242],[-83.45525,34.73249],[-83.45532,34.73237]]]},"properties":{"fire_id":"ufid:2021-GACHF-210052","source_collection":"history-2021","source_objectid":11451,"incident_name":"Bear Gap","mapped_acres":0.07242874816443244,"mapped_acres_source":"poly_Acres_AutoCalc_fallback","gis_acres":null,"auto_acres":0.07242874816443244,"reported_acres":0.25,"percent_contained":null,"state":"GA","state_wfigs":"US-GA","county":"Habersham","discovery_time_utc":"2021-02-20T19:50:00Z","perimeter_time_utc":"2021-03-22T19:25:06Z","perimeter_edit_time_utc":"2023-03-14T15:13:42Z","incident_modified_time_utc":"2021-04-21T20:13:19Z","containment_time_utc":"2021-02-20T21:27:00Z","control_time_utc":"2021-02-20T22:39:00Z","fire_out_time_utc":"2021-02-22T17:30:00Z","fire_cause":"Human","fire_cause_general":"Other causes","map_method":"Hand Sketch","source_dataset":"FFP","unique_fire_identifier":"2021-GACHF-210052","irwin_id":"{69BD40F8-9934-4B6B-9346-6B637F14FCFE}","global_id":"41569576-eef1-4365-9181-f93192878a39"}},{"type":"Feature","geometry":{"type":"MultiPolygon","coordinates":[[[[-83.30229,34.87109],[-83.30222,34.87095],[-83.30207,34.87105],[-83.30206,34.87094],[-83.30194,34.87109],[-83.30157,34.87088],[-83.30118,34.87095],[-83.30103,34.87081],[-83.30058,34.87081],[-83.30072,34.87026],[-83.30047,34.86998],[-83.3001,34.86992],[-83.30002,34.8701],[-83.29892,34.87041],[-83.29848,34.87029],[-83.29881,34.86996],[-83.29829,34.8704],[-83.29841,34.87155],[-83.29813,34.87146],[-83.29736,34.87162],[-83.29705,34.87235],[-83.29658,34.87218],[-83.29617,34.87225],[-83.29566,34.87202],[-83.29544,34.8725],[-83.294738,34.872237],[-83.29462,34.872],[-83.29468,34.87177],[-83.29509,34.87132],[-83.29492,34.87104],[-83.29502,34.87049],[-83.29574,34.87027],[-83.29582,34.87011],[-83.29619,34.86994],[-83.29617,34.86967],[-83.2966,34.86922],[-83.29636,34.86842],[-83.29661,34.86832],[-83.29701,34.86785],[-83.29737,34.86775],[-83.29763,34.86726],[-83.29729,34.86662],[-83.29751,34.86642],[-83.29778,34.8664],[-83.29775,34.86609],[-83.29758,34.8661],[-83.2974,34.86584],[-83.2968,34.86561],[-83.2966,34.86534],[-83.29763,34.86476],[-83.29836,34.86481],[-83.29872,34.86397],[-83.29914,34.8635],[-83.30054,34.86389],[-83.30032,34.864],[-83.30013,34.86438],[-83.3004,34.86474],[-83.30036,34.86498],[-83.30016,34.86521],[-83.29991,34.86502],[-83.29985,34.86516],[-83.29991,34.86559],[-83.30027,34.866],[-83.30012,34.86622],[-83.30059,34.86773],[-83.30101,34.86817],[-83.301176,34.868112],[-83.30101,34.86801],[-83.301181,34.86811],[-83.30138,34.86804],[-83.3015,34.86763],[-83.30167,34.86751],[-83.30172,34.86774],[-83.30191,34.86784],[-83.30188,34.86836],[-83.30203,34.86858],[-83.30228,34.86853],[-83.30271,34.869],[-83.30297,34.86901],[-83.30302,34.8695],[-83.30334,34.86985],[-83.30338,34.87015],[-83.30282,34.87103],[-83.30229,34.87109]]],[[[-83.30289,34.86897],[-83.30286,34.86898],[-83.30291,34.86891],[-83.30289,34.86897]]],[[[-83.30295,34.86894],[-83.30294,34.86898],[-83.30293,34.86897],[-83.30295,34.86894]]],[[[-83.30294,34.86898],[-83.30293,34.869],[-83.30292,34.86898],[-83.30294,34.86898]]],[[[-83.30164,34.87095],[-83.30164,34.871],[-83.30162,34.87096],[-83.30164,34.87095]]],[[[-83.294738,34.872237],[-83.29474,34.87224],[-83.29464,34.87225],[-83.294738,34.872237]]]]},"properties":{"fire_id":"ufid:2021-GACHF-210100","source_collection":"history-2021","source_objectid":11526,"incident_name":"Bartram","mapped_acres":90.0,"mapped_acres_source":"poly_GISAcres","gis_acres":90.0,"auto_acres":84.29165531386674,"reported_acres":87.0,"percent_contained":null,"state":"GA","state_wfigs":"US-GA","county":"Rabun","discovery_time_utc":"2021-03-23T15:30:00Z","perimeter_time_utc":"2021-03-23T21:17:04Z","perimeter_edit_time_utc":"2023-03-14T15:13:42Z","incident_modified_time_utc":"2021-04-21T18:49:20Z","containment_time_utc":"2021-03-24T17:51:00Z","control_time_utc":"2021-03-24T17:51:00Z","fire_out_time_utc":"2021-03-29T16:00:00Z","fire_cause":"Human","fire_cause_general":"Other causes","map_method":"GPS-Walked","source_dataset":"FFP","unique_fire_identifier":"2021-GACHF-210100","irwin_id":"{72974365-B9D2-4F5A-A662-27BA28B0FF4E}","global_id":"b126b05a-1e6b-4004-af8b-74dc9f8ee9f6"}},{"type":"Feature","geometry":{"type":"Polygon","coordinates":[[[-83.3491,34.82276],[-83.34886,34.82216],[-83.3491,34.82174],[-83.34948,34.8218],[-83.34979,34.82209],[-83.34958,34.82238],[-83.3496,34.82258],[-83.35015,34.82272],[-83.35005,34.823],[-83.34979,34.82305],[-83.3491,34.82276]]]},"properties":{"fire_id":"ufid:2021-GACHF-210142","source_collection":"history-2021","source_objectid":12781,"incident_name":"Wolf Creek","mapped_acres":2.5,"mapped_acres_source":"poly_GISAcres","gis_acres":2.5,"auto_acres":2.235637897994814,"reported_acres":2.31,"percent_contained":null,"state":"GA","state_wfigs":"US-GA","county":"Rabun","discovery_time_utc":"2021-11-28T09:30:00Z","perimeter_time_utc":"2021-11-28T19:05:28Z","perimeter_edit_time_utc":"2023-03-14T15:13:42Z","incident_modified_time_utc":"2021-12-08T20:59:22Z","containment_time_utc":"2021-11-28T16:30:00Z","control_time_utc":"2021-11-30T15:30:00Z","fire_out_time_utc":"2021-12-06T14:45:00Z","fire_cause":"Human","fire_cause_general":"Debris and open burning","map_method":"GPS-Unknown Travel Method","source_dataset":"FFP","unique_fire_identifier":"2021-GACHF-210142","irwin_id":"{B015D5EB-F309-4B64-B916-267AD0CE68D1}","global_id":"9abffe68-0644-4082-95e6-637fde75460e"}},{"type":"Feature","geometry":{"type":"Polygon","coordinates":[[[-83.73782,34.84009],[-83.73738,34.8399],[-83.73636,34.83894],[-83.7358,34.83816],[-83.73577,34.83796],[-83.73606,34.83777],[-83.73624,34.83744],[-83.73615,34.83717],[-83.73594,34.83726],[-83.73583,34.83766],[-83.73543,34.8378],[-83.73507,34.83771],[-83.73546,34.83755],[-83.7357,34.83726],[-83.73561,34.83705],[-83.73534,34.83726],[-83.73516,34.83717],[-83.73525,34.83699],[-83.73579,34.83672],[-83.73597,34.8369],[-83.73615,34.8369],[-83.73623,34.83616],[-83.73656,34.836],[-83.73667,34.83552],[-83.73689,34.83528],[-83.73672,34.83483],[-83.73721,34.83456],[-83.73697,34.83402],[-83.73714,34.83387],[-83.73751,34.834],[-83.73759,34.83438],[-83.73789,34.83456],[-83.73758,34.83474],[-83.7377,34.8351],[-83.7377,34.83607],[-83.73786,34.83618],[-83.73813,34.83681],[-83.73838,34.83699],[-83.73848,34.83763],[-83.73872,34.8378],[-83.73896,34.83834],[-83.73831,34.83903],[-83.73849,34.83933],[-83.73846,34.83978],[-83.73782,34.84009]]]},"properties":{"fire_id":"ufid:2021-GACHF-210085","source_collection":"history-2021","source_objectid":15864,"incident_name":"Taylor Ridge","mapped_acres":5.0,"mapped_acres_source":"poly_GISAcres","gis_acres":5.0,"auto_acres":26.40528372778822,"reported_acres":17.5,"percent_contained":null,"state":"GA","state_wfigs":"US-GA","county":"Towns","discovery_time_utc":"2021-03-11T21:23:00Z","perimeter_time_utc":"2021-03-12T03:23:12Z","perimeter_edit_time_utc":"2023-04-06T19:49:45Z","incident_modified_time_utc":"2021-04-19T14:31:59Z","containment_time_utc":"2021-03-12T21:00:00Z","control_time_utc":null,"fire_out_time_utc":"2021-03-17T20:30:00Z","fire_cause":"Human","fire_cause_general":"Debris and open burning","map_method":"Auto-generated","source_dataset":"FFP","unique_fire_identifier":"2021-GACHF-210085","irwin_id":"{F2E6E29E-0D69-46CF-85FC-D3620D9E02A3}","global_id":"c6f14dea-8f1d-4c6c-992d-4e78199b045f"}}]}
