{"type":"FeatureCollection","features":[{"type":"Feature","geometry":{"type":"Polygon","coordinates":[[[144.66848,13.3839],[144.66885,13.38397],[144.66897,13.38386],[144.6689,13.38372],[144.66902,13.38355],[144.66918,13.38357],[144.66924,13.3834],[144.66915,13.38291],[144.66902,13.38289],[144.66922,13.38268],[144.66889,13.38237],[144.66892,13.38211],[144.66857,13.38207],[144.66855,13.38164],[144.66847,13.38206],[144.66807,13.38256],[144.6686,13.38266],[144.66871,13.38285],[144.66843,13.38329],[144.66823,13.38326],[144.66818,13.3834],[144.66833,13.38354],[144.66811,13.38396],[144.66837,13.38403],[144.66848,13.3839]]]},"properties":{"fire_id":"ufid:2021-GUWPP-WPP-210103","source_collection":"history-2021","source_objectid":7141,"incident_name":"GUWPP-2021-0103","mapped_acres":4.091929426344607,"mapped_acres_source":"poly_Acres_AutoCalc_fallback","gis_acres":null,"auto_acres":4.091929426344607,"reported_acres":4.09,"percent_contained":null,"state":"GU","state_wfigs":"US-GU","county":"Guam","discovery_time_utc":"2021-04-01T22:00:38Z","perimeter_time_utc":null,"perimeter_edit_time_utc":"2023-03-14T15:13:42Z","incident_modified_time_utc":"2022-02-24T01:14:49Z","containment_time_utc":"2021-04-02T06:00:00Z","control_time_utc":null,"fire_out_time_utc":"2021-04-03T06:00:00Z","fire_cause":"Human","fire_cause_general":"Other causes","map_method":"Hand Sketch","source_dataset":"FFP","unique_fire_identifier":"2021-GUWPP-WPP-210103","irwin_id":"{687C0CBA-9A2C-4CB5-8BF9-AA02D41AC683}","global_id":"cda596c5-ec5d-4f4d-ab55-940776501771"}},{"type":"Feature","geometry":{"type":"Polygon","coordinates":[[[144.66351,13.38291],[144.66411,13.38196],[144.66355,13.38176],[144.66316,13.38236],[144.6632,13.38254],[144.66307,13.38242],[144.66292,13.38277],[144.66309,13.38293],[144.66351,13.38291]]]},"properties":{"fire_id":"ufid:2021-GUWPP-WPP-210105","source_collection":"history-2021","source_objectid":7252,"incident_name":"GUWPP-2021-0105","mapped_acres":2.1479448702125103,"mapped_acres_source":"poly_Acres_AutoCalc_fallback","gis_acres":null,"auto_acres":2.1479448702125103,"reported_acres":2.15,"percent_contained":null,"state":"GU","state_wfigs":"US-GU","county":"Guam","discovery_time_utc":"2021-04-01T22:00:34Z","perimeter_time_utc":null,"perimeter_edit_time_utc":"2023-03-14T15:13:42Z","incident_modified_time_utc":"2022-02-24T01:00:54Z","containment_time_utc":null,"control_time_utc":null,"fire_out_time_utc":"2021-04-03T06:00:00Z","fire_cause":"Human","fire_cause_general":"Other causes","map_method":"Hand Sketch","source_dataset":"FFP","unique_fire_identifier":"2021-GUWPP-WPP-210105","irwin_id":"{D8DFE091-65E3-451D-82F4-C358E4379352}","global_id":"89ebb46e-5533-4bca-aaf9-a722e41497fa"}}]}
