{"type":"FeatureCollection","features":[{"type":"Feature","geometry":{"type":"Polygon","coordinates":[[[-155.33038,19.40507],[-155.33042,19.4051],[-155.33038,19.40511],[-155.33038,19.40507]]]},"properties":{"fire_id":"ufid:2021-HIHVP-000751","source_collection":"history-2021","source_objectid":6358,"incident_name":"BOX ON FIRE","mapped_acres":1.0,"mapped_acres_source":"poly_GISAcres","gis_acres":1.0,"auto_acres":0.004140966879708792,"reported_acres":0.1,"percent_contained":null,"state":"HI","state_wfigs":"US-HI","county":"Hawaii","discovery_time_utc":"2021-07-29T03:18:00Z","perimeter_time_utc":"2021-07-29T05:18:00Z","perimeter_edit_time_utc":"2023-03-14T15:13:42Z","incident_modified_time_utc":"2021-08-03T23:47:52Z","containment_time_utc":"2021-07-29T03:47:00Z","control_time_utc":"2021-07-29T03:47:00Z","fire_out_time_utc":"2021-07-29T19:50:00Z","fire_cause":"Human","fire_cause_general":"Other causes","map_method":"Hand Sketch","source_dataset":"FFP","unique_fire_identifier":"2021-HIHVP-000751","irwin_id":"{3AF3A626-AD87-4832-A8DB-DA9EE4EAA999}","global_id":"0104b57d-cccb-4c99-804d-a7a08000d926"}},{"type":"Feature","geometry":{"type":"MultiPolygon","coordinates":[[[[-155.62024,19.88294],[-155.62044,19.88295],[-155.62044,19.88314],[-155.62025,19.88314],[-155.62024,19.88294]]],[[[-155.59255,19.88515],[-155.59244,19.88505],[-155.59254,19.88505],[-155.59255,19.88515]]],[[[-155.72678,19.92026],[-155.72679,19.92016],[-155.72689,19.92016],[-155.72678,19.92026]]],[[[-155.51612,19.93322],[-155.51623,19.93312],[-155.51623,19.93321],[-155.51612,19.93322]]],[[[-155.51911,19.93876],[-155.5191,19.93886],[-155.51901,19.93886],[-155.51911,19.93876]]],[[[-155.52144,19.94108],[-155.52134,19.94098],[-155.52143,19.94098],[-155.52144,19.94108]]],[[[-155.56829,19.9732],[-155.5684,19.97323],[-155.56837,19.97342],[-155.56829,19.9732]]],[[[-155.56829,19.9732],[-155.5681,19.97279],[-155.56824,19.97214],[-155.56805,19.97117],[-155.56824,19.97109],[-155.56861,19.97142],[-155.569,19.97081],[-155.56902,19.97056],[-155.5688,19.97038],[-155.56805,19.97055],[-155.56779,19.96883],[-155.56744,19.96841],[-155.56673,19.96834],[-155.56668,19.96812],[-155.56689,19.96764],[-155.56658,19.96728],[-155.56539,19.96736],[-155.56476,19.96759],[-155.56421,19.96755],[-155.56417,19.96783],[-155.56456,19.9679],[-155.56465,19.96818],[-155.56417,19.96866],[-155.56482,19.96853],[-155.5649,19.96882],[-155.56438,19.96924],[-155.56374,19.96903],[-155.56344,19.96908],[-155.56327,19.96931],[-155.56335,19.96976],[-155.56324,19.96992],[-155.5629,19.96952],[-155.56262,19.96885],[-155.5627,19.96871],[-155.56321,19.96854],[-155.56294,19.96834],[-155.56212,19.96829],[-155.56208,19.9686],[-155.56172,19.96875],[-155.56086,19.96842],[-155.56017,19.96925],[-155.55891,19.96876],[-155.55834,19.96896],[-155.55761,19.96945],[-155.55693,19.96895],[-155.55599,19.96886],[-155.55558,19.96869],[-155.55547,19.96829],[-155.55572,19.96755],[-155.55515,19.96632],[-155.55506,19.96539],[-155.55474,19.96472],[-155.55417,19.96418],[-155.55382,19.96363],[-155.55356,19.96281],[-155.55405,19.96107],[-155.55529,19.95987],[-155.5555,19.95947],[-155.55555,19.95889],[-155.55582,19.95866],[-155.55562,19.95741],[-155.55517,19.95675],[-155.55206,19.95575],[-155.55073,19.95474],[-155.55042,19.95483],[-155.54981,19.95558],[-155.54924,19.95703],[-155.5485,19.95784],[-155.54733,19.95953],[-155.54572,19.96073],[-155.54555,19.96058],[-155.54558,19.96023],[-155.54494,19.96006],[-155.54413,19.95932],[-155.54303,19.95859],[-155.54135,19.95613],[-155.54104,19.95595],[-155.53798,19.9563],[-155.53727,19.95662],[-155.53656,19.9572],[-155.5351,19.95785],[-155.53479,19.95822],[-155.53416,19.95845],[-155.53371,19.95844],[-155.53358,19.95828],[-155.53427,19.95818],[-155.53439,19.95809],[-155.53427,19.95799],[-155.53331,19.95777],[-155.53288,19.95752],[-155.53191,19.95753],[-155.53043,19.9565],[-155.52895,19.95668],[-155.52882,19.95698],[-155.52891,19.95755],[-155.52881,19.95756],[-155.52835,19.957],[-155.52756,19.95648],[-155.52602,19.95434],[-155.5249,19.95149],[-155.5246,19.94964],[-155.52381,19.94857],[-155.52371,19.94829],[-155.52377,19.94787],[-155.52338,19.94744],[-155.52315,19.94694],[-155.52326,19.94663],[-155.52414,19.94631],[-155.52426,19.94587],[-155.52312,19.94536],[-155.523,19.94472],[-155.52237,19.94423],[-155.5221,19.94386],[-155.52232,19.94365],[-155.52321,19.94344],[-155.5232,19.94325],[-155.52264,19.94252],[-155.52285,19.94253],[-155.52328,19.94282],[-155.52355,19.94205],[-155.52271,19.94138],[-155.52183,19.94148],[-155.52155,19.94131],[-155.52144,19.94108],[-155.52179,19.94093],[-155.52219,19.94056],[-155.52217,19.94045],[-155.52168,19.94048],[-155.52084,19.94105],[-155.52061,19.94108],[-155.52014,19.93997],[-155.52006,19.93908],[-155.51942,19.93908],[-155.51909,19.93868],[-155.51883,19.9386],[-155.51864,19.93864],[-155.51841,19.93907],[-155.51805,19.9385],[-155.51694,19.93823],[-155.51688,19.93805],[-155.51706,19.93784],[-155.51794,19.93769],[-155.51837,19.93718],[-155.51838,19.93693],[-155.51775,19.93662],[-155.51701,19.93666],[-155.51667,19.93594],[-155.51507,19.93459],[-155.51507,19.93407],[-155.51565,19.93344],[-155.51612,19.93322],[-155.51614,19.93369],[-155.51686,19.93367],[-155.51705,19.93309],[-155.51816,19.93227],[-155.51805,19.93216],[-155.51775,19.93222],[-155.51675,19.93267],[-155.51714,19.93214],[-155.51717,19.93191],[-155.51643,19.93109],[-155.51556,19.9293],[-155.51518,19.92913],[-155.51359,19.92905],[-155.51326,19.92881],[-155.51261,19.92793],[-155.51286,19.92605],[-155.51266,19.9247],[-155.51223,19.92291],[-155.51117,19.92078],[-155.51103,19.92023],[-155.51134,19.91885],[-155.51141,19.91718],[-155.51182,19.91603],[-155.51229,19.91527],[-155.51248,19.91415],[-155.51311,19.913],[-155.5125,19.91018],[-155.51255,19.90881],[-155.51228,19.90796],[-155.51216,19.90649],[-155.51262,19.90568],[-155.51305,19.90522],[-155.51501,19.90391],[-155.51532,19.90343],[-155.51583,19.90333],[-155.51675,19.90355],[-155.51704,19.90398],[-155.51722,19.90404],[-155.51755,19.9033],[-155.51964,19.90272],[-155.51992,19.90256],[-155.51997,19.90239],[-155.5198,19.90209],[-155.51915,19.90166],[-155.51908,19.90142],[-155.51923,19.90097],[-155.51902,19.90096],[-155.51858,19.90127],[-155.51828,19.90116],[-155.51791,19.90046],[-155.5177,19.89969],[-155.51661,19.89862],[-155.51508,19.8956],[-155.51436,19.89548],[-155.51431,19.89535],[-155.51652,19.89341],[-155.51712,19.89339],[-155.51778,19.89319],[-155.51831,19.89365],[-155.51851,19.89405],[-155.51885,19.89386],[-155.52,19.89365],[-155.52032,19.89344],[-155.52049,19.89315],[-155.52012,19.89119],[-155.52059,19.89044],[-155.5204,19.88999],[-155.52037,19.88873],[-155.52063,19.88937],[-155.52096,19.88933],[-155.52357,19.88678],[-155.52452,19.8861],[-155.52472,19.88572],[-155.52559,19.88515],[-155.52621,19.88444],[-155.52683,19.88406],[-155.52727,19.88355],[-155.52758,19.88355],[-155.5277,19.88381],[-155.52715,19.88441],[-155.52719,19.88498],[-155.52745,19.88534],[-155.52797,19.88572],[-155.52806,19.88645],[-155.52931,19.88841],[-155.52989,19.88899],[-155.53053,19.88924],[-155.53109,19.88968],[-155.53116,19.89],[-155.53103,19.89085],[-155.53179,19.89186],[-155.53262,19.89251],[-155.53292,19.89306],[-155.53377,19.89343],[-155.53426,19.89311],[-155.53516,19.89187],[-155.53547,19.89167],[-155.53601,19.89235],[-155.53607,19.89318],[-155.53594,19.89363],[-155.53663,19.89384],[-155.5368,19.89361],[-155.53659,19.8932],[-155.53645,19.89144],[-155.5361,19.8909],[-155.53622,19.89028],[-155.53758,19.89002],[-155.53714,19.88941],[-155.53717,19.88901],[-155.53802,19.88794],[-155.53863,19.88744],[-155.539,19.88742],[-155.5401,19.88789],[-155.54027,19.8877],[-155.54057,19.88769],[-155.54091,19.88728],[-155.54266,19.88674],[-155.54272,19.88659],[-155.54231,19.88565],[-155.5421,19.88545],[-155.54178,19.88544],[-155.54208,19.88513],[-155.54233,19.88529],[-155.54284,19.88629],[-155.5434,19.88654],[-155.54732,19.88634],[-155.54728,19.88652],[-155.54672,19.8867],[-155.54737,19.8871],[-155.5473,19.88761],[-155.54741,19.88809],[-155.54759,19.88829],[-155.54811,19.88845],[-155.54842,19.88936],[-155.54906,19.88785],[-155.54939,19.88741],[-155.54981,19.88715],[-155.55014,19.88665],[-155.55043,19.88672],[-155.55167,19.88758],[-155.55215,19.88771],[-155.55201,19.88733],[-155.55055,19.88655],[-155.55041,19.88634],[-155.55048,19.88624],[-155.55355,19.88788],[-155.55486,19.88906],[-155.5556,19.89021],[-155.55589,19.89045],[-155.55642,19.89054],[-155.557,19.89006],[-155.55901,19.88943],[-155.5602,19.89041],[-155.56047,19.89079],[-155.56107,19.89061],[-155.5612,19.89037],[-155.56069,19.88976],[-155.55968,19.88939],[-155.55881,19.88868],[-155.55867,19.88829],[-155.5586,19.88698],[-155.55791,19.88569],[-155.55784,19.88488],[-155.55829,19.88452],[-155.55872,19.88389],[-155.55954,19.88387],[-155.56033,19.88352],[-155.56097,19.88342],[-155.56183,19.88374],[-155.56313,19.88522],[-155.56371,19.8856],[-155.56438,19.88702],[-155.56473,19.8874],[-155.56504,19.88752],[-155.56534,19.88679],[-155.56527,19.8861],[-155.566,19.8854],[-155.5659,19.8849],[-155.56597,19.88295],[-155.56619,19.88246],[-155.5669,19.88265],[-155.56745,19.88325],[-155.56801,19.88334],[-155.57003,19.88463],[-155.57025,19.88438],[-155.57048,19.88356],[-155.57024,19.88276],[-155.56977,19.88182],[-155.56998,19.88064],[-155.57033,19.88035],[-155.57099,19.88035],[-155.57123,19.8801],[-155.57147,19.88029],[-155.57216,19.8801],[-155.57268,19.87976],[-155.57371,19.87998],[-155.57397,19.88029],[-155.57385,19.88129],[-155.57408,19.88281],[-155.57446,19.88394],[-155.57444,19.88525],[-155.57458,19.88558],[-155.57485,19.88567],[-155.57557,19.8849],[-155.5762,19.88265],[-155.57673,19.88219],[-155.57718,19.88147],[-155.57746,19.88063],[-155.57772,19.88041],[-155.57817,19.8804],[-155.57842,19.88056],[-155.57861,19.88109],[-155.5784,19.88158],[-155.57842,19.88199],[-155.57855,19.88217],[-155.57901,19.88235],[-155.57926,19.88372],[-155.57962,19.88389],[-155.57989,19.88385],[-155.58076,19.88267],[-155.58151,19.88283],[-155.58198,19.88364],[-155.58221,19.88463],[-155.58249,19.88483],[-155.58289,19.88467],[-155.58308,19.88476],[-155.5833,19.8852],[-155.58351,19.88622],[-155.58383,19.88667],[-155.58454,19.88729],[-155.58496,19.88797],[-155.58572,19.8895],[-155.58578,19.89141],[-155.58552,19.89203],[-155.58454,19.89271],[-155.58508,19.89311],[-155.58543,19.8936],[-155.58573,19.89366],[-155.58606,19.89352],[-155.58646,19.89299],[-155.58643,19.89239],[-155.58687,19.89157],[-155.58704,19.89003],[-155.58729,19.88948],[-155.58777,19.88915],[-155.58861,19.88906],[-155.59041,19.88811],[-155.59085,19.8877],[-155.59125,19.88684],[-155.59256,19.88594],[-155.59255,19.88515],[-155.59303,19.88594],[-155.59353,19.88598],[-155.59449,19.88521],[-155.59619,19.88464],[-155.59641,19.8842],[-155.59651,19.88285],[-155.5968,19.88265],[-155.59776,19.88246],[-155.59815,19.88191],[-155.59985,19.8819],[-155.60145,19.88154],[-155.60194,19.88088],[-155.6031,19.88085],[-155.60421,19.87954],[-155.60477,19.87871],[-155.60503,19.87796],[-155.60539,19.8776],[-155.60526,19.87845],[-155.60548,19.87908],[-155.60619,19.87943],[-155.60649,19.87931],[-155.60673,19.87937],[-155.60689,19.88055],[-155.6072,19.88089],[-155.60793,19.88111],[-155.60752,19.88258],[-155.6075,19.88398],[-155.60759,19.88415],[-155.60817,19.88378],[-155.60849,19.88387],[-155.60859,19.88443],[-155.60834,19.885],[-155.60859,19.88537],[-155.6089,19.88544],[-155.60902,19.88438],[-155.60869,19.88359],[-155.60786,19.88298],[-155.60784,19.88255],[-155.60797,19.88234],[-155.60836,19.88242],[-155.60846,19.88287],[-155.60865,19.88256],[-155.60872,19.88196],[-155.60891,19.88252],[-155.60915,19.88272],[-155.60928,19.88267],[-155.60925,19.88227],[-155.60941,19.8823],[-155.60992,19.88318],[-155.60987,19.88382],[-155.61008,19.88428],[-155.61031,19.88459],[-155.61045,19.88439],[-155.61032,19.88322],[-155.60988,19.88255],[-155.60958,19.8817],[-155.60882,19.88115],[-155.6083,19.88099],[-155.60901,19.8804],[-155.60931,19.8803],[-155.60968,19.8805],[-155.6099,19.88144],[-155.61035,19.88215],[-155.61047,19.88191],[-155.61045,19.88084],[-155.61073,19.88067],[-155.6109,19.88079],[-155.6111,19.88137],[-155.611,19.88221],[-155.61054,19.88316],[-155.61099,19.88388],[-155.61149,19.88425],[-155.61114,19.88461],[-155.61122,19.88489],[-155.61136,19.88493],[-155.61169,19.88458],[-155.61224,19.88442],[-155.61185,19.88396],[-155.61188,19.88367],[-155.61204,19.88354],[-155.61235,19.88355],[-155.61402,19.88417],[-155.61445,19.88389],[-155.61474,19.88385],[-155.61495,19.88402],[-155.61487,19.88449],[-155.61514,19.88547],[-155.61564,19.88453],[-155.61555,19.88356],[-155.61538,19.88312],[-155.61598,19.8832],[-155.61627,19.88299],[-155.61626,19.88281],[-155.61588,19.88243],[-155.61527,19.88218],[-155.61502,19.88192],[-155.61488,19.88197],[-155.61476,19.88232],[-155.6144,19.8823],[-155.61364,19.88107],[-155.61287,19.881],[-155.61224,19.8805],[-155.61204,19.88],[-155.61228,19.87975],[-155.61259,19.87961],[-155.613,19.87977],[-155.6133,19.8796],[-155.61335,19.87919],[-155.61356,19.87884],[-155.61351,19.87839],[-155.61288,19.87848],[-155.61257,19.87824],[-155.61203,19.87829],[-155.61181,19.87817],[-155.61166,19.87843],[-155.61145,19.87852],[-155.61118,19.87814],[-155.61108,19.87771],[-155.61157,19.87739],[-155.61224,19.87788],[-155.61269,19.87789],[-155.61192,19.87715],[-155.61195,19.87705],[-155.61287,19.87756],[-155.61337,19.87812],[-155.61496,19.87757],[-155.61534,19.87852],[-155.61557,19.87853],[-155.61617,19.87815],[-155.61685,19.87863],[-155.6175,19.87802],[-155.61692,19.87673],[-155.61704,19.87666],[-155.61734,19.87688],[-155.61754,19.87754],[-155.61812,19.87826],[-155.61849,19.87914],[-155.61819,19.87956],[-155.61771,19.87992],[-155.61637,19.88003],[-155.61619,19.88023],[-155.61621,19.88053],[-155.61714,19.88096],[-155.61751,19.88095],[-155.61835,19.88166],[-155.61861,19.88153],[-155.61881,19.88099],[-155.61904,19.88094],[-155.61935,19.88176],[-155.62024,19.88292],[-155.61948,19.88264],[-155.61902,19.88173],[-155.61872,19.88185],[-155.61866,19.88204],[-155.61891,19.88234],[-155.619,19.88281],[-155.61937,19.88343],[-155.61944,19.88401],[-155.62001,19.88451],[-155.61999,19.88494],[-155.62014,19.88513],[-155.62095,19.88577],[-155.62186,19.8862],[-155.62226,19.8866],[-155.62242,19.88651],[-155.62234,19.88612],[-155.62165,19.88557],[-155.62125,19.88507],[-155.62049,19.88369],[-155.62149,19.88397],[-155.62157,19.88435],[-155.62185,19.88443],[-155.62208,19.88417],[-155.62211,19.88319],[-155.62244,19.88382],[-155.62303,19.88442],[-155.62287,19.88526],[-155.62329,19.88511],[-155.62341,19.88482],[-155.62351,19.88485],[-155.62451,19.88609],[-155.62494,19.88698],[-155.62584,19.88753],[-155.62679,19.88915],[-155.62739,19.88974],[-155.62837,19.89164],[-155.62958,19.89314],[-155.62975,19.89376],[-155.62976,19.8947],[-155.62952,19.89604],[-155.62933,19.89634],[-155.62908,19.89633],[-155.62842,19.89667],[-155.62842,19.89782],[-155.62903,19.89821],[-155.6304,19.89811],[-155.63119,19.89826],[-155.63237,19.89949],[-155.63446,19.89983],[-155.63568,19.90094],[-155.63615,19.90109],[-155.63682,19.9011],[-155.63785,19.90085],[-155.63902,19.90017],[-155.6395,19.89982],[-155.63995,19.89914],[-155.64056,19.89861],[-155.64138,19.89869],[-155.64214,19.89926],[-155.6438,19.89872],[-155.64422,19.89779],[-155.64479,19.8973],[-155.64518,19.89675],[-155.64578,19.89647],[-155.64662,19.89561],[-155.64733,19.8956],[-155.64818,19.89525],[-155.64903,19.89563],[-155.64986,19.89516],[-155.65035,19.89505],[-155.65058,19.89513],[-155.65095,19.89559],[-155.65123,19.89563],[-155.65273,19.8945],[-155.65461,19.89339],[-155.6558,19.89293],[-155.65736,19.89292],[-155.6583,19.89316],[-155.65952,19.89394],[-155.66043,19.89498],[-155.66108,19.89523],[-155.66152,19.89568],[-155.66162,19.89549],[-155.66157,19.89476],[-155.66179,19.89266],[-155.66235,19.89156],[-155.66231,19.89109],[-155.66311,19.89054],[-155.6637,19.8903],[-155.66506,19.89017],[-155.66531,19.88981],[-155.66565,19.89004],[-155.6665,19.88986],[-155.66661,19.8896],[-155.66647,19.889],[-155.66674,19.88874],[-155.66854,19.88851],[-155.66883,19.88857],[-155.66894,19.88877],[-155.66886,19.88906],[-155.66793,19.88992],[-155.66817,19.89028],[-155.66818,19.89066],[-155.66854,19.89068],[-155.66922,19.89012],[-155.66945,19.89011],[-155.67026,19.89122],[-155.67333,19.89442],[-155.67453,19.89547],[-155.67471,19.89536],[-155.67508,19.89463],[-155.67568,19.89432],[-155.67626,19.89452],[-155.67719,19.89535],[-155.67768,19.89541],[-155.67886,19.89393],[-155.68127,19.8921],[-155.68194,19.89131],[-155.68393,19.8902],[-155.68507,19.88985],[-155.68693,19.88968],[-155.68736,19.89089],[-155.68731,19.89125],[-155.68752,19.89185],[-155.68783,19.89221],[-155.68809,19.89227],[-155.68846,19.89185],[-155.68803,19.89133],[-155.68853,19.89124],[-155.68894,19.89075],[-155.69103,19.89076],[-155.69151,19.89034],[-155.69218,19.89009],[-155.69284,19.88932],[-155.69478,19.88953],[-155.69572,19.88886],[-155.69705,19.88831],[-155.69728,19.88799],[-155.69743,19.88732],[-155.6971,19.88623],[-155.69852,19.88507],[-155.69891,19.88441],[-155.69954,19.88377],[-155.70135,19.88276],[-155.70236,19.88234],[-155.70293,19.88232],[-155.70332,19.88214],[-155.70433,19.88075],[-155.70503,19.88017],[-155.70727,19.87887],[-155.70845,19.878],[-155.70957,19.87747],[-155.71014,19.87692],[-155.71048,19.87638],[-155.7109,19.87613],[-155.71151,19.87547],[-155.71409,19.87379],[-155.71579,19.87347],[-155.71714,19.87288],[-155.71837,19.87263],[-155.71928,19.87228],[-155.72045,19.87246],[-155.72081,19.87266],[-155.7219,19.8725],[-155.72286,19.87215],[-155.72369,19.87144],[-155.72442,19.87131],[-155.72481,19.87147],[-155.72473,19.87192],[-155.72209,19.87593],[-155.72193,19.87628],[-155.72197,19.87655],[-155.72223,19.8768],[-155.72297,19.87694],[-155.72489,19.87676],[-155.72576,19.87726],[-155.72675,19.8782],[-155.72732,19.87904],[-155.72773,19.8801],[-155.72815,19.88215],[-155.72873,19.8831],[-155.72945,19.88367],[-155.73161,19.88421],[-155.73347,19.88499],[-155.73406,19.8854],[-155.73536,19.88671],[-155.73613,19.88793],[-155.73733,19.89135],[-155.73733,19.89224],[-155.73777,19.89302],[-155.73781,19.89356],[-155.73801,19.89397],[-155.73771,19.89462],[-155.73809,19.89508],[-155.73818,19.89564],[-155.73877,19.89609],[-155.73928,19.89712],[-155.7395,19.89802],[-155.73927,19.89865],[-155.73929,19.89937],[-155.73623,19.90179],[-155.73493,19.90362],[-155.73484,19.90428],[-155.73605,19.90481],[-155.7371,19.90429],[-155.73785,19.9038],[-155.7399,19.90146],[-155.74033,19.90135],[-155.7407,19.90166],[-155.74163,19.9037],[-155.74323,19.90503],[-155.74481,19.90574],[-155.74555,19.90579],[-155.74675,19.90556],[-155.7475,19.90582],[-155.7483,19.90578],[-155.74947,19.90598],[-155.74976,19.90615],[-155.74999,19.90669],[-155.75025,19.90764],[-155.75007,19.90883],[-155.74957,19.90954],[-155.74897,19.90952],[-155.74865,19.90986],[-155.74826,19.90989],[-155.7491,19.91053],[-155.749,19.91223],[-155.74824,19.91347],[-155.7472,19.91459],[-155.74623,19.91512],[-155.74395,19.91575],[-155.7424,19.91662],[-155.74098,19.91687],[-155.73911,19.9177],[-155.73664,19.91835],[-155.73423,19.91857],[-155.73346,19.91887],[-155.73313,19.91919],[-155.73276,19.91934],[-155.72967,19.91951],[-155.72798,19.92008],[-155.727,19.91997],[-155.72676,19.92016],[-155.72676,19.92061],[-155.72661,19.92084],[-155.72605,19.92091],[-155.72437,19.92157],[-155.722,19.92157],[-155.72112,19.92087],[-155.72038,19.92146],[-155.71969,19.92175],[-155.71926,19.92147],[-155.71873,19.9216],[-155.71828,19.92118],[-155.71768,19.92097],[-155.71748,19.921],[-155.71712,19.9214],[-155.71644,19.92136],[-155.7157,19.92086],[-155.71358,19.9204],[-155.7115,19.92167],[-155.70997,19.92187],[-155.70998,19.92235],[-155.70958,19.92333],[-155.70749,19.92514],[-155.70706,19.92477],[-155.70623,19.92474],[-155.70492,19.92418],[-155.70408,19.92358],[-155.70385,19.92145],[-155.70367,19.92119],[-155.70321,19.92128],[-155.70269,19.92164],[-155.70219,19.92179],[-155.70046,19.92172],[-155.69969,19.92188],[-155.69908,19.92155],[-155.69877,19.92152],[-155.69808,19.92184],[-155.69566,19.92255],[-155.69429,19.92256],[-155.6938,19.92312],[-155.6922,19.92603],[-155.69127,19.92717],[-155.69083,19.92833],[-155.69008,19.92852],[-155.68926,19.92898],[-155.68799,19.92883],[-155.6871,19.92938],[-155.68647,19.92927],[-155.68591,19.92937],[-155.68447,19.93068],[-155.68445,19.93088],[-155.68498,19.93188],[-155.68709,19.93426],[-155.6876,19.93564],[-155.68705,19.93732],[-155.68672,19.9395],[-155.68579,19.94024],[-155.68382,19.94124],[-155.6831,19.94188],[-155.68209,19.9416],[-155.68131,19.94103],[-155.68059,19.94086],[-155.68044,19.94088],[-155.68015,19.94136],[-155.67986,19.94138],[-155.67957,19.94107],[-155.67961,19.94064],[-155.67938,19.94056],[-155.67904,19.94072],[-155.67871,19.94127],[-155.67788,19.94137],[-155.67712,19.94174],[-155.67507,19.94236],[-155.67445,19.94281],[-155.67367,19.94247],[-155.67322,19.94165],[-155.67236,19.94113],[-155.6705,19.94077],[-155.66783,19.94093],[-155.66737,19.9405],[-155.66706,19.94077],[-155.66691,19.94135],[-155.6665,19.94194],[-155.66575,19.94257],[-155.66526,19.94281],[-155.66442,19.94305],[-155.66378,19.94307],[-155.66285,19.94256],[-155.66136,19.94306],[-155.65964,19.94307],[-155.65932,19.94298],[-155.65897,19.94245],[-155.65815,19.94177],[-155.65729,19.9414],[-155.65686,19.94063],[-155.65655,19.94037],[-155.65613,19.94024],[-155.6549,19.94024],[-155.65466,19.94042],[-155.6547,19.94065],[-155.65556,19.94137],[-155.65605,19.94218],[-155.65593,19.9426],[-155.65526,19.94311],[-155.65486,19.94369],[-155.65511,19.94383],[-155.65555,19.9437],[-155.65619,19.944],[-155.65628,19.94426],[-155.65604,19.94497],[-155.65545,19.94529],[-155.65503,19.94499],[-155.6546,19.94504],[-155.65439,19.94531],[-155.65428,19.94599],[-155.65411,19.9461],[-155.65372,19.94581],[-155.65274,19.94589],[-155.6524,19.9458],[-155.6522,19.94557],[-155.65218,19.9449],[-155.65184,19.94424],[-155.65149,19.94402],[-155.65095,19.94422],[-155.65087,19.9444],[-155.65099,19.94522],[-155.65178,19.94624],[-155.65155,19.94661],[-155.65154,19.94758],[-155.65145,19.94765],[-155.65058,19.94722],[-155.6501,19.94727],[-155.64982,19.94695],[-155.6494,19.94732],[-155.64881,19.94748],[-155.64851,19.94816],[-155.64833,19.94965],[-155.64878,19.9503],[-155.64895,19.95088],[-155.64856,19.95102],[-155.64797,19.95067],[-155.64774,19.95067],[-155.64756,19.95175],[-155.64729,19.95199],[-155.64633,19.95169],[-155.6451,19.95036],[-155.6446,19.95032],[-155.64372,19.94999],[-155.64392,19.94913],[-155.6438,19.94873],[-155.64356,19.94848],[-155.64213,19.94869],[-155.64072,19.94837],[-155.64042,19.94818],[-155.64044,19.94795],[-155.64106,19.94742],[-155.64141,19.94731],[-155.64165,19.94742],[-155.64177,19.94791],[-155.64223,19.9482],[-155.64243,19.9482],[-155.6428,19.94726],[-155.64332,19.94692],[-155.64364,19.94595],[-155.64386,19.94564],[-155.64409,19.94561],[-155.64465,19.94611],[-155.64485,19.94607],[-155.64499,19.94587],[-155.64471,19.94548],[-155.64355,19.94511],[-155.64383,19.94485],[-155.64375,19.94469],[-155.64245,19.94426],[-155.64185,19.94423],[-155.64106,19.94383],[-155.64116,19.94438],[-155.64047,19.94459],[-155.64033,19.94479],[-155.64067,19.94558],[-155.64098,19.94576],[-155.6409,19.94618],[-155.64072,19.94643],[-155.63975,19.94659],[-155.63925,19.94714],[-155.63924,19.94748],[-155.63954,19.94792],[-155.63882,19.949],[-155.63899,19.94988],[-155.63878,19.94997],[-155.63836,19.9496],[-155.63813,19.94967],[-155.63789,19.95042],[-155.63789,19.95105],[-155.63758,19.95148],[-155.63777,19.952],[-155.63902,19.95343],[-155.63902,19.9545],[-155.63882,19.9548],[-155.63914,19.95527],[-155.63925,19.95576],[-155.63903,19.95637],[-155.63886,19.95659],[-155.63869,19.9566],[-155.63851,19.95618],[-155.63863,19.95585],[-155.63832,19.95567],[-155.63768,19.95615],[-155.63733,19.95681],[-155.63611,19.95666],[-155.63578,19.95718],[-155.63486,19.95772],[-155.63473,19.95811],[-155.63394,19.95878],[-155.63382,19.95902],[-155.63402,19.95957],[-155.63484,19.95998],[-155.63585,19.96113],[-155.63683,19.96153],[-155.63692,19.96199],[-155.63723,19.96255],[-155.63669,19.96452],[-155.636,19.96538],[-155.63519,19.96675],[-155.63472,19.96706],[-155.63392,19.96682],[-155.63301,19.96566],[-155.63246,19.96557],[-155.63198,19.96511],[-155.63081,19.96442],[-155.63005,19.96458],[-155.6296,19.96361],[-155.62928,19.96341],[-155.62915,19.96364],[-155.62858,19.96394],[-155.62847,19.96425],[-155.62899,19.96468],[-155.62927,19.96516],[-155.62957,19.96656],[-155.62885,19.967],[-155.62835,19.96705],[-155.62767,19.96675],[-155.62747,19.96699],[-155.62758,19.96739],[-155.62826,19.96824],[-155.62823,19.96878],[-155.62665,19.96951],[-155.62469,19.96949],[-155.62331,19.97113],[-155.62133,19.97212],[-155.62083,19.9727],[-155.62044,19.97294],[-155.61951,19.97294],[-155.61819,19.97225],[-155.61684,19.97056],[-155.61628,19.9701],[-155.61585,19.96929],[-155.61503,19.96925],[-155.61423,19.96959],[-155.61282,19.96928],[-155.61204,19.96892],[-155.61102,19.96904],[-155.61026,19.96881],[-155.60913,19.96875],[-155.6089,19.96858],[-155.60878,19.96802],[-155.60862,19.96786],[-155.60783,19.96817],[-155.60617,19.96836],[-155.60498,19.96874],[-155.60356,19.96884],[-155.60278,19.96861],[-155.60212,19.96897],[-155.60089,19.969],[-155.60056,19.96914],[-155.60025,19.96968],[-155.59998,19.97111],[-155.59958,19.97171],[-155.59889,19.97209],[-155.59785,19.97221],[-155.59461,19.97207],[-155.59289,19.97294],[-155.59241,19.97337],[-155.59088,19.97363],[-155.5895,19.9747],[-155.589,19.97547],[-155.58828,19.97581],[-155.58747,19.97591],[-155.58713,19.97613],[-155.5868,19.97694],[-155.58592,19.97692],[-155.58505,19.97744],[-155.58467,19.97784],[-155.5844,19.97863],[-155.58411,19.97892],[-155.58246,19.97903],[-155.58006,19.97844],[-155.57941,19.97848],[-155.57882,19.9787],[-155.57824,19.97835],[-155.57733,19.97828],[-155.57708,19.97804],[-155.5761,19.97768],[-155.57533,19.97759],[-155.57477,19.97791],[-155.5746,19.9783],[-155.57431,19.97814],[-155.57389,19.97825],[-155.5735,19.97882],[-155.57293,19.979],[-155.57251,19.97942],[-155.57239,19.97924],[-155.57236,19.97863],[-155.57263,19.97814],[-155.57318,19.97782],[-155.5731,19.9775],[-155.57255,19.97745],[-155.57238,19.97718],[-155.57151,19.9777],[-155.5712,19.9776],[-155.5707,19.97714],[-155.57004,19.97737],[-155.57079,19.97662],[-155.57132,19.97579],[-155.57122,19.97574],[-155.57066,19.97602],[-155.5704,19.97581],[-155.57038,19.97555],[-155.57081,19.9751],[-155.57094,19.97455],[-155.57086,19.97424],[-155.57043,19.97385],[-155.57019,19.97279],[-155.56939,19.97203],[-155.56906,19.97191],[-155.56877,19.97209],[-155.56829,19.9732]]]]},"properties":{"fire_id":"ufid:2021-HIHAWX-015240","source_collection":"history-2021","source_objectid":14266,"incident_name":"Mana Road Fire","mapped_acres":40000.0,"mapped_acres_source":"poly_GISAcres","gis_acres":40000.0,"auto_acres":41017.2979944839,"reported_acres":40000.0,"percent_contained":95.0,"state":"HI","state_wfigs":"US-HI","county":"Hawaii","discovery_time_utc":"2021-07-30T20:47:00Z","perimeter_time_utc":"2021-07-31T01:47:00Z","perimeter_edit_time_utc":"2021-09-07T18:12:06Z","incident_modified_time_utc":"2021-08-10T19:44:24Z","containment_time_utc":null,"control_time_utc":null,"fire_out_time_utc":null,"fire_cause":"Human","fire_cause_general":null,"map_method":"Image Interpretation","source_dataset":"2021 NIFS","unique_fire_identifier":"2021-HIHAWX-015240","irwin_id":"{708EB1C3-9B04-4529-BFB9-01D39F41D59E}","global_id":"9ac741b6-754c-47d0-b2dd-f196fc872b27"}}]}
