{"type":"FeatureCollection","features":[{"type":"Feature","geometry":{"type":"Polygon","coordinates":[[[-69.06706,44.42863],[-69.06796,44.42858],[-69.06806,44.42881],[-69.06798,44.42912],[-69.06807,44.42962],[-69.06779,44.42985],[-69.06802,44.43016],[-69.06697,44.43039],[-69.06685,44.43064],[-69.06681,44.4304],[-69.06577,44.43045],[-69.06526,44.43014],[-69.06615,44.4295],[-69.06591,44.42933],[-69.0661,44.42911],[-69.06706,44.42863]]]},"properties":{"fire_id":"ufid:2021-MEMES-21001985","source_collection":"history-2021","source_objectid":660,"incident_name":"Pasture Fire","mapped_acres":2.5,"mapped_acres_source":"poly_GISAcres","gis_acres":2.5,"auto_acres":7.79874495515669,"reported_acres":8.0,"percent_contained":null,"state":"ME","state_wfigs":"US-ME","county":"Waldo","discovery_time_utc":"2021-03-30T21:18:00Z","perimeter_time_utc":"2021-03-31T02:18:00Z","perimeter_edit_time_utc":"2021-05-04T22:56:20Z","incident_modified_time_utc":"2021-04-08T16:55:10Z","containment_time_utc":"2021-03-30T22:00:00Z","control_time_utc":"2021-03-30T22:53:00Z","fire_out_time_utc":"2021-03-30T22:53:00Z","fire_cause":"Human","fire_cause_general":"Equipment","map_method":"Auto-generated","source_dataset":"2021 NIFS","unique_fire_identifier":"2021-MEMES-21001985","irwin_id":"{C2702479-7E85-4DEB-B297-59F730900AB4}","global_id":"b131fca2-893b-440c-b431-42a7780bb81d"}},{"type":"Feature","geometry":{"type":"Polygon","coordinates":[[[-68.38341,44.70622],[-68.3834,44.70633],[-68.38276,44.70649],[-68.38263,44.70632],[-68.38265,44.70582],[-68.38297,44.70568],[-68.38354,44.70586],[-68.38376,44.70609],[-68.38352,44.70628],[-68.38341,44.70622]]]},"properties":{"fire_id":"ufid:2021-MEMES-21003264","source_collection":"history-2021","source_objectid":1146,"incident_name":"Hardwood Island Fire","mapped_acres":1.5,"mapped_acres_source":"poly_GISAcres","gis_acres":1.5,"auto_acres":1.34023669681331,"reported_acres":1.5,"percent_contained":null,"state":"ME","state_wfigs":"US-ME","county":"Hancock","discovery_time_utc":"2021-05-16T15:31:00Z","perimeter_time_utc":"2021-05-16T20:31:00Z","perimeter_edit_time_utc":"2021-05-16T19:33:27Z","incident_modified_time_utc":"2021-05-17T10:52:52Z","containment_time_utc":"2021-05-16T17:28:00Z","control_time_utc":"2021-05-16T17:30:00Z","fire_out_time_utc":"2021-05-16T19:15:00Z","fire_cause":"Human","fire_cause_general":"Debris/Open Burning","map_method":"Auto-generated","source_dataset":"2021 NIFS","unique_fire_identifier":"2021-MEMES-21003264","irwin_id":"{8BDCF86E-088A-4D63-B96C-DA3FF14C3A7A}","global_id":"b33a9d73-df92-4e88-b90b-18451ad04588"}},{"type":"Feature","geometry":{"type":"MultiPolygon","coordinates":[[[[-68.87713,44.90963],[-68.87707,44.90975],[-68.87724,44.91004],[-68.87709,44.91024],[-68.87659,44.91027],[-68.87644,44.91009],[-68.87652,44.90988],[-68.87599,44.90966],[-68.87612,44.90941],[-68.87659,44.90915],[-68.87713,44.90963]]],[[[-68.87642,44.90986],[-68.8764,44.90984],[-68.87641,44.90984],[-68.87642,44.90986]]]]},"properties":{"fire_id":"ufid:2021-MEMES-21003488","source_collection":"history-2021","source_objectid":1755,"incident_name":"Morin","mapped_acres":1.7,"mapped_acres_source":"poly_GISAcres","gis_acres":1.7,"auto_acres":1.69668262594092,"reported_acres":2.0,"percent_contained":null,"state":"ME","state_wfigs":"US-ME","county":"Penobscot","discovery_time_utc":"2021-05-26T21:26:00Z","perimeter_time_utc":"2021-05-26T21:45:00Z","perimeter_edit_time_utc":"2021-06-21T14:11:01Z","incident_modified_time_utc":"2021-06-11T11:28:26Z","containment_time_utc":null,"control_time_utc":"2021-05-26T21:30:00Z","fire_out_time_utc":"2021-05-26T22:39:00Z","fire_cause":"Human","fire_cause_general":"Debris/Open Burning","map_method":"Mixed Methods","source_dataset":"2021 NIFS","unique_fire_identifier":"2021-MEMES-21003488","irwin_id":"{6238F0B6-B484-43CD-BD58-F861027AAC7F}","global_id":"7280ef7e-ada2-469b-95f4-1726d222acb6"}},{"type":"Feature","geometry":{"type":"Polygon","coordinates":[[[-69.18606,44.0175],[-69.18667,44.01765],[-69.18631,44.01781],[-69.18599,44.01767],[-69.18606,44.0175]]]},"properties":{"fire_id":"ufid:2021-MEMES-21005930","source_collection":"history-2021","source_objectid":3961,"incident_name":"Jones Brook","mapped_acres":0.28,"mapped_acres_source":"poly_GISAcres","gis_acres":0.28,"auto_acres":0.276719328654451,"reported_acres":0.3,"percent_contained":null,"state":"ME","state_wfigs":"US-ME","county":"Knox","discovery_time_utc":"2021-10-13T18:23:00Z","perimeter_time_utc":"2021-10-14T08:00:00Z","perimeter_edit_time_utc":"2021-10-18T16:13:40Z","incident_modified_time_utc":"2021-11-26T20:14:11Z","containment_time_utc":"2021-10-13T19:50:00Z","control_time_utc":"2021-10-13T20:30:00Z","fire_out_time_utc":"2021-10-14T15:27:23Z","fire_cause":"Human","fire_cause_general":"Incendiary","map_method":"Mixed Methods","source_dataset":"2021 NIFS","unique_fire_identifier":"2021-MEMES-21005930","irwin_id":"{464B6B81-1827-494C-A71E-9BFDC70948F5}","global_id":"6154fd77-2d82-4fb2-b030-65d8e8de740b"}},{"type":"Feature","geometry":{"type":"Polygon","coordinates":[[[-69.36735,44.18267],[-69.36712,44.18264],[-69.36736,44.18262],[-69.36735,44.18267]]]},"properties":{"fire_id":"ufid:2021-MEMES-21002051","source_collection":"history-2021","source_objectid":4031,"incident_name":"Early 4th Fire","mapped_acres":0.0283766672193287,"mapped_acres_source":"poly_Acres_AutoCalc_fallback","gis_acres":null,"auto_acres":0.0283766672193287,"reported_acres":0.2,"percent_contained":null,"state":"ME","state_wfigs":"US-ME","county":"Lincoln","discovery_time_utc":"2021-04-03T19:48:00Z","perimeter_time_utc":"2021-04-04T11:57:06Z","perimeter_edit_time_utc":"2021-05-05T20:21:31Z","incident_modified_time_utc":"2021-04-16T17:12:36Z","containment_time_utc":"2021-04-03T20:22:00Z","control_time_utc":"2021-04-03T20:22:00Z","fire_out_time_utc":"2021-04-03T20:30:00Z","fire_cause":"Human","fire_cause_general":"Incendiary","map_method":"Hand Sketch","source_dataset":"2021 NIFS","unique_fire_identifier":"2021-MEMES-21002051","irwin_id":"{E3369B60-2783-4657-9988-82D85C550B01}","global_id":"4189b3ff-b7d1-4f26-8994-e5bb1a04b849"}},{"type":"Feature","geometry":{"type":"MultiPolygon","coordinates":[[[[-69.31789,44.90142],[-69.31833,44.90166],[-69.31812,44.90224],[-69.318,44.90205],[-69.31726,44.90185],[-69.31789,44.90142]]],[[[-69.31774,44.90209],[-69.31773,44.90208],[-69.31774,44.90206],[-69.31774,44.90209]]]]},"properties":{"fire_id":"ufid:2021-MEMES-21002386","source_collection":"history-2021","source_objectid":4199,"incident_name":"Riding mower fire","mapped_acres":5.0,"mapped_acres_source":"poly_GISAcres","gis_acres":5.0,"auto_acres":1.0158400820688593,"reported_acres":1.1,"percent_contained":null,"state":"ME","state_wfigs":"US-ME","county":"Somerset","discovery_time_utc":"2021-04-14T18:46:00Z","perimeter_time_utc":"2021-04-14T20:46:00Z","perimeter_edit_time_utc":"2023-03-14T15:13:42Z","incident_modified_time_utc":"2022-01-24T19:42:20Z","containment_time_utc":"2021-04-14T20:16:58Z","control_time_utc":"2021-04-14T20:17:00Z","fire_out_time_utc":"2021-04-14T21:00:00Z","fire_cause":"Human","fire_cause_general":"Equipment and vehicle use","map_method":"Hand Sketch","source_dataset":"FFP","unique_fire_identifier":"2021-MEMES-21002386","irwin_id":"{071EAA7F-DFB2-41EC-9A2B-70FA707E13D6}","global_id":"52cbb82f-1ca8-4d2c-ba4c-a563afc03b38"}},{"type":"Feature","geometry":{"type":"Polygon","coordinates":[[[-69.35662,44.21547],[-69.35674,44.21535],[-69.35698,44.21538],[-69.35743,44.21584],[-69.3569,44.21596],[-69.35662,44.21547]]]},"properties":{"fire_id":"ufid:2021-MEMES-21001769","source_collection":"history-2021","source_objectid":4841,"incident_name":"Trailer and Trash","mapped_acres":0.59,"mapped_acres_source":"poly_GISAcres","gis_acres":0.59,"auto_acres":0.5876711048196327,"reported_acres":0.6,"percent_contained":null,"state":"ME","state_wfigs":"US-ME","county":"Knox","discovery_time_utc":"2021-03-22T18:00:00Z","perimeter_time_utc":null,"perimeter_edit_time_utc":"2023-03-14T15:13:42Z","incident_modified_time_utc":"2021-04-19T13:12:16Z","containment_time_utc":"2021-03-22T18:25:00Z","control_time_utc":"2021-03-22T18:28:00Z","fire_out_time_utc":"2021-03-22T20:01:00Z","fire_cause":"Human","fire_cause_general":"Equipment and vehicle use","map_method":"Mixed Methods","source_dataset":"FFP","unique_fire_identifier":"2021-MEMES-21001769","irwin_id":"{D6119F6A-8D34-43CC-8925-CF07349A5529}","global_id":"96f83d4d-9461-46bd-972f-d88fb650a31b"}},{"type":"Feature","geometry":{"type":"Polygon","coordinates":[[[-68.53553,44.42856],[-68.53535,44.42891],[-68.53512,44.42879],[-68.53521,44.42864],[-68.53505,44.42869],[-68.53507,44.42891],[-68.53527,44.42898],[-68.53514,44.42928],[-68.53462,44.42926],[-68.53432,44.42909],[-68.5346,44.42899],[-68.5342,44.42891],[-68.53444,44.42876],[-68.53433,44.42877],[-68.53413,44.42839],[-68.5344,44.4282],[-68.53478,44.42838],[-68.53503,44.4283],[-68.53553,44.42856]]]},"properties":{"fire_id":"ufid:2021-MEMES-21003993","source_collection":"history-2021","source_objectid":4912,"incident_name":"Clayfield Fire","mapped_acres":6.5,"mapped_acres_source":"poly_GISAcres","gis_acres":6.5,"auto_acres":1.98908167055239,"reported_acres":2.0,"percent_contained":null,"state":"ME","state_wfigs":"US-ME","county":"Hancock","discovery_time_utc":"2021-06-19T03:30:00Z","perimeter_time_utc":"2021-06-19T08:30:00Z","perimeter_edit_time_utc":"2021-06-23T10:31:23Z","incident_modified_time_utc":"2021-06-23T10:31:21Z","containment_time_utc":"2021-06-19T09:00:00Z","control_time_utc":"2021-06-19T13:00:00Z","fire_out_time_utc":"2021-06-19T21:00:00Z","fire_cause":"Human","fire_cause_general":"Camping","map_method":"Auto-generated","source_dataset":"Decertified","unique_fire_identifier":"2021-MEMES-21003993","irwin_id":"{7A796B30-83E2-4773-86A3-093B0866AFD2}","global_id":"3db23a1a-4861-4d54-8f62-5bdff7e8d521"}},{"type":"Feature","geometry":{"type":"Polygon","coordinates":[[[-69.8114,43.73726],[-69.81177,43.7369],[-69.81254,43.73698],[-69.81169,43.73735],[-69.8114,43.73726]]]},"properties":{"fire_id":"ufid:2021-MEMES-21005186","source_collection":"history-2021","source_objectid":5477,"incident_name":"Campbell Island","mapped_acres":0.52,"mapped_acres_source":"poly_GISAcres","gis_acres":0.52,"auto_acres":0.5225194504546181,"reported_acres":0.5,"percent_contained":null,"state":"ME","state_wfigs":"US-ME","county":"Sagadahoc","discovery_time_utc":"2021-08-27T20:30:00Z","perimeter_time_utc":"2021-08-28T08:00:00Z","perimeter_edit_time_utc":"2023-03-14T15:13:42Z","incident_modified_time_utc":"2021-09-12T19:34:43Z","containment_time_utc":"2021-08-28T16:22:00Z","control_time_utc":"2021-08-28T16:22:00Z","fire_out_time_utc":"2021-09-01T19:42:54Z","fire_cause":"Human","fire_cause_general":"Recreation and ceremony","map_method":"Mixed Methods","source_dataset":"FFP","unique_fire_identifier":"2021-MEMES-21005186","irwin_id":"{C6969F82-E999-40DF-96A3-7B653D8F5775}","global_id":"1c1613af-d5c1-4653-a20c-2a2ddaa28e69"}},{"type":"Feature","geometry":{"type":"Polygon","coordinates":[[[-69.68697,43.94447],[-69.68734,43.94452],[-69.68765,43.94523],[-69.68811,43.9455],[-69.68789,43.94583],[-69.68726,43.94574],[-69.68646,43.94484],[-69.68697,43.94447]]]},"properties":{"fire_id":"ufid:2021-MEMES-21002865","source_collection":"history-2021","source_objectid":5478,"incident_name":"Powerline Pine Fire","mapped_acres":2.0,"mapped_acres_source":"poly_GISAcres","gis_acres":2.0,"auto_acres":2.30840859369761,"reported_acres":2.3,"percent_contained":null,"state":"ME","state_wfigs":"US-ME","county":"Lincoln","discovery_time_utc":"2021-04-26T19:54:00Z","perimeter_time_utc":"2021-04-27T00:54:00Z","perimeter_edit_time_utc":"2021-05-09T17:46:14Z","incident_modified_time_utc":"2021-05-09T17:46:12Z","containment_time_utc":"2021-04-26T20:55:00Z","control_time_utc":"2021-04-26T20:55:00Z","fire_out_time_utc":"2021-04-27T15:55:00Z","fire_cause":"Human","fire_cause_general":"Utilities","map_method":"Hand Sketch","source_dataset":"Decertified","unique_fire_identifier":"2021-MEMES-21002865","irwin_id":"{EBF85672-7023-4461-855D-B4731A9C2A85}","global_id":"c0478061-7638-4ea9-a50d-db7fe2ef4a2c"}},{"type":"Feature","geometry":{"type":"Polygon","coordinates":[[[-67.13593,44.7751],[-67.13642,44.7753],[-67.13686,44.77603],[-67.13686,44.77639],[-67.13652,44.77637],[-67.13638,44.77659],[-67.13465,44.77707],[-67.13421,44.77733],[-67.1337,44.77727],[-67.13335,44.77759],[-67.13161,44.77815],[-67.13076,44.77785],[-67.13069,44.77749],[-67.13049,44.77729],[-67.13097,44.77706],[-67.13159,44.7763],[-67.13293,44.7757],[-67.13284,44.77547],[-67.13302,44.77537],[-67.13373,44.77518],[-67.1356,44.77534],[-67.13593,44.7751]]]},"properties":{"fire_id":"ufid:2021-MEMES-21001980","source_collection":"history-2021","source_objectid":5559,"incident_name":"East Stream Fire","mapped_acres":23.0,"mapped_acres_source":"poly_GISAcres","gis_acres":23.0,"auto_acres":22.83499832372641,"reported_acres":23.0,"percent_contained":null,"state":"ME","state_wfigs":"US-ME","county":"Washington","discovery_time_utc":"2021-03-30T16:53:00Z","perimeter_time_utc":"2021-03-30T21:53:00Z","perimeter_edit_time_utc":"2023-03-14T15:13:42Z","incident_modified_time_utc":"2021-05-13T23:01:03Z","containment_time_utc":"2021-03-30T19:37:00Z","control_time_utc":"2021-03-30T23:31:00Z","fire_out_time_utc":"2021-03-31T16:00:00Z","fire_cause":"Human","fire_cause_general":"Arson","map_method":"Auto-generated","source_dataset":"FFP","unique_fire_identifier":"2021-MEMES-21001980","irwin_id":"{0E7F0D60-AB00-4EB1-AB45-DB0D7D3BCFF0}","global_id":"5d45b3b6-0a18-4f67-9ad7-52dae142029e"}},{"type":"Feature","geometry":{"type":"Polygon","coordinates":[[[-69.25509,43.9661],[-69.25456,43.96602],[-69.25445,43.96551],[-69.25483,43.96519],[-69.25552,43.96528],[-69.25578,43.9658],[-69.25509,43.9661]]]},"properties":{"fire_id":"ufid:2021-MEMES-21003259","source_collection":"history-2021","source_objectid":5638,"incident_name":"Smugglers Cove Fire","mapped_acres":1.91583229959791,"mapped_acres_source":"poly_Acres_AutoCalc_fallback","gis_acres":null,"auto_acres":1.91583229959791,"reported_acres":2.0,"percent_contained":null,"state":"ME","state_wfigs":"US-ME","county":"Knox","discovery_time_utc":"2021-05-15T19:00:00Z","perimeter_time_utc":null,"perimeter_edit_time_utc":"2021-11-27T16:12:50Z","incident_modified_time_utc":"2021-11-27T16:12:49Z","containment_time_utc":"2021-05-15T20:50:00Z","control_time_utc":"2021-05-15T21:30:00Z","fire_out_time_utc":"2021-05-16T15:11:00Z","fire_cause":"Human","fire_cause_general":"Other Human Cause","map_method":"Hand Sketch","source_dataset":"Decertified","unique_fire_identifier":"2021-MEMES-21003259","irwin_id":"{3BF1F8A9-3288-490C-90A5-878D0788118A}","global_id":"15c730a0-fc67-4635-94ea-d18d8a7ab049"}},{"type":"Feature","geometry":{"type":"Polygon","coordinates":[[[-69.88011,44.78682],[-69.88037,44.78691],[-69.88017,44.787],[-69.88011,44.78682]]]},"properties":{"fire_id":"ufid:2021-MEMES-21003858","source_collection":"history-2021","source_objectid":5859,"incident_name":"Pine Needle Fire","mapped_acres":1.0,"mapped_acres_source":"poly_GISAcres","gis_acres":1.0,"auto_acres":0.06404266190405011,"reported_acres":0.1,"percent_contained":null,"state":"ME","state_wfigs":"US-ME","county":"Somerset","discovery_time_utc":"2021-06-10T22:50:00Z","perimeter_time_utc":"2021-06-11T03:50:00Z","perimeter_edit_time_utc":"2023-03-14T15:13:42Z","incident_modified_time_utc":"2022-01-24T21:17:02Z","containment_time_utc":"2021-06-11T00:00:00Z","control_time_utc":"2021-06-11T01:32:00Z","fire_out_time_utc":"2021-06-11T20:00:00Z","fire_cause":"Human","fire_cause_general":"Recreation and ceremony","map_method":"Hand Sketch","source_dataset":"FFP","unique_fire_identifier":"2021-MEMES-21003858","irwin_id":"{C7107788-6E3F-4B60-9A00-92A907ACAC6D}","global_id":"830db0fa-c39a-46e3-8d65-d064a9465b38"}},{"type":"Feature","geometry":{"type":"MultiPolygon","coordinates":[[[[-68.56346,44.30315],[-68.56298,44.30344],[-68.56304,44.30311],[-68.56261,44.30307],[-68.56256,44.30289],[-68.5623,44.30278],[-68.56237,44.3025],[-68.56279,44.30223],[-68.56305,44.30234],[-68.56303,44.30243],[-68.56328,44.30252],[-68.56327,44.30309],[-68.56346,44.30315]]],[[[-68.5635,44.30316],[-68.56346,44.30315],[-68.56347,44.30314],[-68.5635,44.30316]]]]},"properties":{"fire_id":"ufid:2021-MEMES-21003237","source_collection":"history-2021","source_objectid":5959,"incident_name":"Schooner afire","mapped_acres":0.3,"mapped_acres_source":"poly_GISAcres","gis_acres":0.3,"auto_acres":1.5660061965628476,"reported_acres":1.6,"percent_contained":null,"state":"ME","state_wfigs":"US-ME","county":"Hancock","discovery_time_utc":"2021-05-15T20:32:00Z","perimeter_time_utc":"2021-05-16T01:32:00Z","perimeter_edit_time_utc":"2023-03-14T15:13:42Z","incident_modified_time_utc":"2021-05-16T11:17:09Z","containment_time_utc":"2021-05-15T20:50:00Z","control_time_utc":"2021-05-15T21:15:00Z","fire_out_time_utc":"2021-05-15T21:46:00Z","fire_cause":"Human","fire_cause_general":"Debris and open burning","map_method":"Auto-generated","source_dataset":"FFP","unique_fire_identifier":"2021-MEMES-21003237","irwin_id":"{5A415D9B-FB37-4B25-AAE9-355B41E709B4}","global_id":"6f680750-e0cd-45f3-a88e-08fe42881102"}},{"type":"Feature","geometry":{"type":"Polygon","coordinates":[[[-68.98544,44.52513],[-68.98601,44.52509],[-68.98605,44.52535],[-68.98591,44.52559],[-68.98537,44.5255],[-68.98531,44.52526],[-68.98544,44.52513]]]},"properties":{"fire_id":"ufid:2021-MEMES-21003000","source_collection":"history-2021","source_objectid":6108,"incident_name":"Browntail tail moths have to go","mapped_acres":0.7,"mapped_acres_source":"poly_GISAcres","gis_acres":0.7,"auto_acres":0.674193690880503,"reported_acres":0.7,"percent_contained":null,"state":"ME","state_wfigs":"US-ME","county":"Waldo","discovery_time_utc":"2021-05-15T15:32:00Z","perimeter_time_utc":"2021-05-15T22:30:00Z","perimeter_edit_time_utc":"2021-05-26T13:47:55Z","incident_modified_time_utc":"2021-05-26T13:47:54Z","containment_time_utc":"2021-05-15T16:31:00Z","control_time_utc":"2021-05-15T16:31:00Z","fire_out_time_utc":"2021-05-15T18:05:00Z","fire_cause":"Human","fire_cause_general":"Other Human Cause","map_method":"Hand Sketch","source_dataset":"Decertified","unique_fire_identifier":"2021-MEMES-21003000","irwin_id":"{173014B7-A64C-4D37-8F0E-3A9A7C400B49}","global_id":"ba704ffb-f23e-411a-9011-28d8369e1176"}},{"type":"Feature","geometry":{"type":"Polygon","coordinates":[[[-69.67834,43.99284],[-69.67851,43.99307],[-69.67841,43.99332],[-69.67801,43.99358],[-69.67778,43.99353],[-69.67786,43.99334],[-69.67772,43.99278],[-69.67818,43.99256],[-69.6784,43.99269],[-69.67834,43.99284]]]},"properties":{"fire_id":"ufid:2021-MEMES-21002908","source_collection":"history-2021","source_objectid":6230,"incident_name":"21001111","mapped_acres":1.22,"mapped_acres_source":"poly_GISAcres","gis_acres":1.22,"auto_acres":1.216338472888388,"reported_acres":1.2,"percent_contained":null,"state":"ME","state_wfigs":"US-ME","county":"Lincoln","discovery_time_utc":"2021-05-02T17:14:37Z","perimeter_time_utc":null,"perimeter_edit_time_utc":"2023-03-14T15:13:42Z","incident_modified_time_utc":"2021-05-08T15:50:59Z","containment_time_utc":"2021-05-02T17:20:00Z","control_time_utc":"2021-05-02T18:20:00Z","fire_out_time_utc":"2021-05-02T19:25:00Z","fire_cause":"Human","fire_cause_general":"Recreation and ceremony","map_method":"Mixed Methods","source_dataset":"FFP","unique_fire_identifier":"2021-MEMES-21002908","irwin_id":"{23359E34-1B91-4C53-90D0-245F14D44DE1}","global_id":"62694762-3e66-4b00-97fc-ac4d160e8665"}},{"type":"Feature","geometry":{"type":"Polygon","coordinates":[[[-69.99914,43.79442],[-69.9997,43.79496],[-69.99934,43.79593],[-69.99873,43.79591],[-69.99833,43.79623],[-69.99761,43.79606],[-69.99787,43.79548],[-69.99846,43.79496],[-69.99896,43.7948],[-69.99914,43.79442]]]},"properties":{"fire_id":"ufid:2021-MEMES-21001684","source_collection":"history-2021","source_objectid":6364,"incident_name":"Water view Fire","mapped_acres":3.1,"mapped_acres_source":"poly_GISAcres","gis_acres":3.1,"auto_acres":4.252076628554597,"reported_acres":3.1,"percent_contained":null,"state":"ME","state_wfigs":"US-ME","county":"Cumberland","discovery_time_utc":"2021-03-21T15:49:00Z","perimeter_time_utc":"2021-03-21T20:49:00Z","perimeter_edit_time_utc":"2023-03-14T15:13:42Z","incident_modified_time_utc":"2021-04-15T17:55:47Z","containment_time_utc":"2021-03-21T17:30:00Z","control_time_utc":"2021-03-21T17:51:00Z","fire_out_time_utc":"2021-03-21T18:51:00Z","fire_cause":"Human","fire_cause_general":"Debris and open burning","map_method":"Hand Sketch","source_dataset":"FFP","unique_fire_identifier":"2021-MEMES-21001684","irwin_id":"{C9C29F02-E6F9-4A83-9B64-7D105DA0F373}","global_id":"e0532901-cde2-4a9a-8b9f-f604978e9f52"}},{"type":"Feature","geometry":{"type":"Polygon","coordinates":[[[-67.0674,44.98256],[-67.06768,44.98288],[-67.06682,44.98335],[-67.06679,44.98359],[-67.06629,44.98365],[-67.0661,44.98347],[-67.06634,44.98304],[-67.0674,44.98256]]]},"properties":{"fire_id":"ufid:2021-MEMES-21001782","source_collection":"history-2021","source_objectid":6530,"incident_name":"McPhail","mapped_acres":1.0,"mapped_acres_source":"poly_GISAcres","gis_acres":1.0,"auto_acres":1.8070832981421552,"reported_acres":1.8,"percent_contained":null,"state":"ME","state_wfigs":"US-ME","county":"Washington","discovery_time_utc":"2021-03-22T21:35:00Z","perimeter_time_utc":"2021-03-23T02:35:00Z","perimeter_edit_time_utc":"2023-03-14T15:13:42Z","incident_modified_time_utc":"2021-05-13T22:46:06Z","containment_time_utc":null,"control_time_utc":"2021-03-23T18:13:00Z","fire_out_time_utc":"2021-03-23T18:14:00Z","fire_cause":"Human","fire_cause_general":"Debris and open burning","map_method":"Auto-generated","source_dataset":"FFP","unique_fire_identifier":"2021-MEMES-21001782","irwin_id":"{658211C8-A7A5-48B0-83C8-418951F04EC6}","global_id":"d9d8e333-49a8-4c30-a404-83b652c732e8"}},{"type":"Feature","geometry":{"type":"MultiPolygon","coordinates":[[[[-69.38955,44.12818],[-69.38933,44.12842],[-69.38955,44.12846],[-69.3896,44.12871],[-69.38949,44.12882],[-69.38962,44.1289],[-69.38907,44.12904],[-69.38856,44.12898],[-69.38824,44.12825],[-69.38783,44.128],[-69.38786,44.12786],[-69.38764,44.12754],[-69.38821,44.12721],[-69.38828,44.12739],[-69.38891,44.12731],[-69.38905,44.12753],[-69.38954,44.12758],[-69.38953,44.12773],[-69.39059,44.12758],[-69.39079,44.12789],[-69.39069,44.12804],[-69.39025,44.12809],[-69.39018,44.12793],[-69.38955,44.12818]]],[[[-69.38853,44.12897],[-69.38855,44.12897],[-69.38853,44.12898],[-69.38853,44.12897]]],[[[-69.3885,44.129],[-69.38854,44.12899],[-69.38853,44.129],[-69.3885,44.129]]]]},"properties":{"fire_id":"ufid:2021-MEMES-21003895","source_collection":"history-2021","source_objectid":6583,"incident_name":"Wagner Bridge","mapped_acres":6.3,"mapped_acres_source":"poly_GISAcres","gis_acres":6.3,"auto_acres":6.05569325974621,"reported_acres":6.3,"percent_contained":null,"state":"ME","state_wfigs":"US-ME","county":"Lincoln","discovery_time_utc":"2021-06-13T18:31:00Z","perimeter_time_utc":"2021-06-13T23:31:00Z","perimeter_edit_time_utc":"2021-11-27T15:43:55Z","incident_modified_time_utc":"2021-11-27T15:43:53Z","containment_time_utc":"2021-06-13T20:35:00Z","control_time_utc":"2021-06-13T22:35:00Z","fire_out_time_utc":null,"fire_cause":"Human","fire_cause_general":"Incendiary","map_method":"Hand Sketch","source_dataset":"Decertified","unique_fire_identifier":"2021-MEMES-21003895","irwin_id":"{62CDF323-661C-4E48-A385-0500AD9951BB}","global_id":"6dc6be8e-b3b8-4a5e-a00f-0619e89e184c"}},{"type":"Feature","geometry":{"type":"Polygon","coordinates":[[[-69.75934,44.23031],[-69.7593,44.23025],[-69.75938,44.23025],[-69.75934,44.23031]]]},"properties":{"fire_id":"ufid:2021-MEMES-21002764","source_collection":"history-2021","source_objectid":6931,"incident_name":"Hillside Fire","mapped_acres":0.009489245821929289,"mapped_acres_source":"poly_Acres_AutoCalc_fallback","gis_acres":null,"auto_acres":0.009489245821929289,"reported_acres":0.1,"percent_contained":null,"state":"ME","state_wfigs":"US-ME","county":"Kennebec","discovery_time_utc":"2021-04-25T20:30:09Z","perimeter_time_utc":"2021-04-26T15:51:51Z","perimeter_edit_time_utc":"2023-03-14T15:13:42Z","incident_modified_time_utc":"2021-04-30T16:47:23Z","containment_time_utc":"2021-04-25T20:50:00Z","control_time_utc":"2021-04-25T20:50:00Z","fire_out_time_utc":"2021-04-25T20:50:00Z","fire_cause":"Human","fire_cause_general":"Recreation and ceremony","map_method":"Hand Sketch","source_dataset":"FFP","unique_fire_identifier":"2021-MEMES-21002764","irwin_id":"{8997DEAA-04EE-4E6D-8705-AC2BDD57F034}","global_id":"78f9376a-4e01-4a26-88c9-7c8eafdc22a9"}},{"type":"Feature","geometry":{"type":"Polygon","coordinates":[[[-69.4249,44.92836],[-69.42518,44.9289],[-69.42499,44.92906],[-69.42484,44.92906],[-69.42468,44.92878],[-69.42431,44.92874],[-69.42446,44.92847],[-69.42466,44.9284],[-69.4249,44.92836]]]},"properties":{"fire_id":"ufid:2021-MEMES-21003055","source_collection":"history-2021","source_objectid":7270,"incident_name":"spot","mapped_acres":0.8,"mapped_acres_source":"poly_GISAcres","gis_acres":0.8,"auto_acres":0.770412751468936,"reported_acres":0.8,"percent_contained":null,"state":"ME","state_wfigs":"US-ME","county":"Somerset","discovery_time_utc":"2021-04-28T17:57:00Z","perimeter_time_utc":"2021-04-29T01:27:00Z","perimeter_edit_time_utc":"2021-05-08T17:31:51Z","incident_modified_time_utc":"2021-05-08T17:31:49Z","containment_time_utc":"2021-04-28T19:17:00Z","control_time_utc":"2021-04-28T19:17:00Z","fire_out_time_utc":"2021-04-29T00:10:00Z","fire_cause":"Human","fire_cause_general":"Other Human Cause","map_method":"Hand Sketch","source_dataset":"Decertified","unique_fire_identifier":"2021-MEMES-21003055","irwin_id":"{5E9D04DE-928D-4EFE-9566-CA0A37FE7129}","global_id":"0b7677b4-8da0-4b00-9e2c-77b67789d373"}},{"type":"Feature","geometry":{"type":"Polygon","coordinates":[[[-68.73958,44.64989],[-68.73963,44.65005],[-68.73947,44.65017],[-68.73916,44.65005],[-68.73929,44.64991],[-68.73958,44.64989]]]},"properties":{"fire_id":"ufid:2021-MEMES-21002700","source_collection":"history-2021","source_objectid":7383,"incident_name":"Peaceful Valley Fire","mapped_acres":1.0,"mapped_acres_source":"poly_GISAcres","gis_acres":1.0,"auto_acres":0.21237756553172046,"reported_acres":0.3,"percent_contained":null,"state":"ME","state_wfigs":"US-ME","county":"Hancock","discovery_time_utc":"2021-04-24T16:45:00Z","perimeter_time_utc":"2021-04-24T21:45:00Z","perimeter_edit_time_utc":"2023-03-14T15:13:42Z","incident_modified_time_utc":"2021-05-13T23:42:22Z","containment_time_utc":"2021-04-24T17:34:00Z","control_time_utc":"2021-04-24T17:35:00Z","fire_out_time_utc":"2021-04-24T18:30:00Z","fire_cause":"Natural","fire_cause_general":"Natural","map_method":"Auto-generated","source_dataset":"FFP","unique_fire_identifier":"2021-MEMES-21002700","irwin_id":"{EE1A769A-8A32-441C-ADD7-C62F20DAA944}","global_id":"c0b611da-1ffd-420f-88fd-af0018f922fc"}},{"type":"Feature","geometry":{"type":"Polygon","coordinates":[[[-69.50725,44.51883],[-69.50761,44.51887],[-69.50744,44.51939],[-69.5068,44.51946],[-69.50603,44.5191],[-69.50619,44.51881],[-69.5067,44.51849],[-69.50725,44.51883]]]},"properties":{"fire_id":"ufid:2021-MEMES-21003039","source_collection":"history-2021","source_objectid":7461,"incident_name":"Clearing Fire","mapped_acres":1.0,"mapped_acres_source":"poly_GISAcres","gis_acres":1.0,"auto_acres":2.104331177276165,"reported_acres":2.1,"percent_contained":null,"state":"ME","state_wfigs":"US-ME","county":"Kennebec","discovery_time_utc":"2021-05-07T19:12:00Z","perimeter_time_utc":"2021-05-08T01:07:00Z","perimeter_edit_time_utc":"2023-03-14T15:13:42Z","incident_modified_time_utc":"2021-05-08T15:11:34Z","containment_time_utc":"2021-05-07T20:30:00Z","control_time_utc":"2021-05-07T20:59:00Z","fire_out_time_utc":"2021-05-07T21:45:00Z","fire_cause":"Human","fire_cause_general":"Debris and open burning","map_method":"Auto-generated","source_dataset":"FFP","unique_fire_identifier":"2021-MEMES-21003039","irwin_id":"{399363E1-332E-470F-9F24-C6843E2E24E8}","global_id":"a47768e3-2a62-4f64-9970-9d22990962a1"}},{"type":"Feature","geometry":{"type":"Polygon","coordinates":[[[-69.32474,44.16065],[-69.32541,44.16097],[-69.32545,44.16149],[-69.32416,44.16163],[-69.32383,44.16153],[-69.32391,44.16135],[-69.32375,44.16104],[-69.32455,44.16033],[-69.32479,44.16046],[-69.32474,44.16065]]]},"properties":{"fire_id":"ufid:2021-MEMES-21002772","source_collection":"history-2021","source_objectid":7592,"incident_name":"2100111","mapped_acres":4.0,"mapped_acres_source":"poly_GISAcres","gis_acres":4.0,"auto_acres":3.14384500147495,"reported_acres":4.0,"percent_contained":null,"state":"ME","state_wfigs":"US-ME","county":"Lincoln","discovery_time_utc":"2021-04-26T18:15:00Z","perimeter_time_utc":"2021-04-27T00:57:00Z","perimeter_edit_time_utc":"2021-04-30T17:04:15Z","incident_modified_time_utc":"2021-04-30T17:04:15Z","containment_time_utc":"2021-04-26T19:15:00Z","control_time_utc":"2021-04-26T19:15:00Z","fire_out_time_utc":"2021-04-26T21:00:00Z","fire_cause":"Human","fire_cause_general":"Debris/Open Burning","map_method":"Auto-generated","source_dataset":"Decertified","unique_fire_identifier":"2021-MEMES-21002772","irwin_id":"{BA11C0A0-8E1D-442E-98C9-D157561D78B7}","global_id":"71503e8a-ea82-495b-911e-99f5d1415f99"}},{"type":"Feature","geometry":{"type":"Polygon","coordinates":[[[-69.34881,44.29195],[-69.34879,44.29188],[-69.34896,44.29189],[-69.34881,44.29195]]]},"properties":{"fire_id":"ufid:2021-MEMES-21002708","source_collection":"history-2021","source_objectid":7711,"incident_name":"Well Fire","mapped_acres":0.02054065825216986,"mapped_acres_source":"poly_Acres_AutoCalc_fallback","gis_acres":null,"auto_acres":0.02054065825216986,"reported_acres":0.1,"percent_contained":null,"state":"ME","state_wfigs":"US-ME","county":"Knox","discovery_time_utc":"2021-04-24T18:45:00Z","perimeter_time_utc":"2021-04-25T12:00:42Z","perimeter_edit_time_utc":"2023-03-14T15:13:42Z","incident_modified_time_utc":"2021-04-30T16:22:45Z","containment_time_utc":"2021-04-24T19:01:00Z","control_time_utc":"2021-04-24T19:01:00Z","fire_out_time_utc":"2021-04-24T19:01:00Z","fire_cause":"Human","fire_cause_general":"Debris and open burning","map_method":"Hand Sketch","source_dataset":"FFP","unique_fire_identifier":"2021-MEMES-21002708","irwin_id":"{AB3784E5-2ED7-4284-B356-26970E804502}","global_id":"d79c9c4c-181f-461b-9674-42898a744ac2"}},{"type":"Feature","geometry":{"type":"MultiPolygon","coordinates":[[[[-68.9599,44.34315],[-68.96005,44.34327],[-68.95983,44.3434],[-68.95989,44.34352],[-68.95954,44.34339],[-68.95953,44.34325],[-68.9599,44.34315]]],[[[-68.95957,44.34322],[-68.95953,44.34325],[-68.95944,44.34324],[-68.95957,44.34322]]]]},"properties":{"fire_id":"ufid:2021-MEMES-21003301","source_collection":"history-2021","source_objectid":8042,"incident_name":"Under the lines Fire","mapped_acres":1.0,"mapped_acres_source":"poly_GISAcres","gis_acres":1.0,"auto_acres":0.21904578493145607,"reported_acres":0.2,"percent_contained":null,"state":"ME","state_wfigs":"US-ME","county":"Waldo","discovery_time_utc":"2021-05-17T16:00:00Z","perimeter_time_utc":"2021-05-18T00:17:00Z","perimeter_edit_time_utc":"2023-03-14T15:13:42Z","incident_modified_time_utc":"2021-05-26T14:37:30Z","containment_time_utc":"2021-05-17T17:17:00Z","control_time_utc":"2021-05-17T17:17:00Z","fire_out_time_utc":"2021-05-17T19:10:00Z","fire_cause":"Human","fire_cause_general":"Power generation / transmission / distribution","map_method":"Auto-generated","source_dataset":"FFP","unique_fire_identifier":"2021-MEMES-21003301","irwin_id":"{10B70B3C-C86B-4B1D-949E-7AED22EC8C9C}","global_id":"592474fe-fbc7-4d44-8c0a-8cb27af2aa80"}},{"type":"Feature","geometry":{"type":"Polygon","coordinates":[[[-69.70009,44.83076],[-69.70019,44.83104],[-69.70051,44.83098],[-69.7008,44.83113],[-69.70079,44.83166],[-69.69987,44.83168],[-69.70021,44.83144],[-69.70005,44.83128],[-69.7,44.83078],[-69.70009,44.83076]]]},"properties":{"fire_id":"ufid:2021-MEMES-21002018","source_collection":"history-2021","source_objectid":8165,"incident_name":"309 Field","mapped_acres":1.0,"mapped_acres_source":"poly_GISAcres","gis_acres":1.0,"auto_acres":1.0179534469376676,"reported_acres":1.0,"percent_contained":null,"state":"ME","state_wfigs":"US-ME","county":"Somerset","discovery_time_utc":"2021-03-30T21:17:00Z","perimeter_time_utc":"2021-03-31T02:17:00Z","perimeter_edit_time_utc":"2023-03-14T15:13:42Z","incident_modified_time_utc":"2021-04-09T16:11:20Z","containment_time_utc":"2021-03-30T21:32:00Z","control_time_utc":"2021-03-30T22:30:00Z","fire_out_time_utc":"2021-03-30T22:30:00Z","fire_cause":"Human","fire_cause_general":"Debris and open burning","map_method":"Hand Sketch","source_dataset":"FFP","unique_fire_identifier":"2021-MEMES-21002018","irwin_id":"{E31C3211-1F54-40B7-BDEB-74DD474671F8}","global_id":"12d71e39-2a7d-4bdf-9deb-24d40652bf66"}},{"type":"Feature","geometry":{"type":"Polygon","coordinates":[[[-69.66558,44.19216],[-69.66547,44.19232],[-69.66507,44.19237],[-69.66462,44.19284],[-69.66452,44.19279],[-69.66456,44.19252],[-69.66439,44.19226],[-69.66468,44.19163],[-69.6655,44.19157],[-69.66605,44.19167],[-69.66615,44.1918],[-69.66587,44.19214],[-69.66558,44.19216]]]},"properties":{"fire_id":"ufid:2021-MEMES-21002366","source_collection":"history-2021","source_objectid":8262,"incident_name":"From the Air","mapped_acres":2.3,"mapped_acres_source":"poly_GISAcres","gis_acres":2.3,"auto_acres":2.5464012966599543,"reported_acres":2.4,"percent_contained":null,"state":"ME","state_wfigs":"US-ME","county":"Kennebec","discovery_time_utc":"2021-04-13T21:32:00Z","perimeter_time_utc":"2021-04-13T23:30:00Z","perimeter_edit_time_utc":"2023-03-14T15:13:42Z","incident_modified_time_utc":"2021-04-30T15:43:02Z","containment_time_utc":"2021-04-13T23:16:00Z","control_time_utc":"2021-04-13T23:16:00Z","fire_out_time_utc":"2021-04-13T23:41:00Z","fire_cause":"Human","fire_cause_general":"Recreation and ceremony","map_method":"Mixed Methods","source_dataset":"FFP","unique_fire_identifier":"2021-MEMES-21002366","irwin_id":"{6FAF51FD-8997-4C1B-B47E-610A2A7A7CEF}","global_id":"c2c0864e-bdc2-4e10-bd44-b3e5c04bedb6"}},{"type":"Feature","geometry":{"type":"Polygon","coordinates":[[[-68.86136,44.79082],[-68.86106,44.79087],[-68.86088,44.79111],[-68.86067,44.79116],[-68.86089,44.79071],[-68.86136,44.79082]]]},"properties":{"fire_id":"ufid:2021-MEMES-21002698","source_collection":"history-2021","source_objectid":8401,"incident_name":"Electric feel fire","mapped_acres":1.0,"mapped_acres_source":"poly_GISAcres","gis_acres":1.0,"auto_acres":0.30330184380874753,"reported_acres":1.0,"percent_contained":null,"state":"ME","state_wfigs":"US-ME","county":"Penobscot","discovery_time_utc":"2021-04-24T16:03:00Z","perimeter_time_utc":"2021-04-24T21:03:00Z","perimeter_edit_time_utc":"2023-03-14T15:13:42Z","incident_modified_time_utc":"2021-10-13T16:16:57Z","containment_time_utc":"2021-04-24T17:00:00Z","control_time_utc":"2021-04-24T17:05:06Z","fire_out_time_utc":"2021-04-24T19:00:00Z","fire_cause":"Human","fire_cause_general":"Power generation / transmission / distribution","map_method":"Auto-generated","source_dataset":"FFP","unique_fire_identifier":"2021-MEMES-21002698","irwin_id":"{D90BBF50-CC89-42F9-A2EA-136B85FECB8C}","global_id":"1749a34e-a439-4042-a902-87f40b772b99"}},{"type":"Feature","geometry":{"type":"Polygon","coordinates":[[[-67.71579,44.51787],[-67.71615,44.51823],[-67.71591,44.51837],[-67.71585,44.5182],[-67.7155,44.51808],[-67.71534,44.51785],[-67.71545,44.51777],[-67.71579,44.51787]]]},"properties":{"fire_id":"ufid:2021-MEMES-21002086","source_collection":"history-2021","source_objectid":8583,"incident_name":"Mooseneck Road Fire","mapped_acres":1.0,"mapped_acres_source":"poly_GISAcres","gis_acres":1.0,"auto_acres":0.4214809666603963,"reported_acres":0.4,"percent_contained":null,"state":"ME","state_wfigs":"US-ME","county":"Washington","discovery_time_utc":"2021-04-04T23:14:00Z","perimeter_time_utc":"2021-04-05T05:00:00Z","perimeter_edit_time_utc":"2023-03-14T15:13:42Z","incident_modified_time_utc":"2021-05-13T23:04:54Z","containment_time_utc":"2021-04-04T23:40:00Z","control_time_utc":"2021-04-04T23:40:00Z","fire_out_time_utc":"2021-04-05T00:00:00Z","fire_cause":"Human","fire_cause_general":"Arson","map_method":"Auto-generated","source_dataset":"FFP","unique_fire_identifier":"2021-MEMES-21002086","irwin_id":"{DB047D6D-A46A-4FEF-8632-ED1BED2C4C8F}","global_id":"c7ad1032-cd23-4c3c-ace7-20d149a1c3cf"}},{"type":"Feature","geometry":{"type":"Polygon","coordinates":[[[-69.29677,44.5321],[-69.29719,44.53211],[-69.29736,44.5319],[-69.29764,44.53197],[-69.29757,44.53224],[-69.29705,44.53246],[-69.29677,44.5323],[-69.29677,44.5321]]]},"properties":{"fire_id":"ufid:2021-MEMES-21002292","source_collection":"history-2021","source_objectid":8677,"incident_name":"Clean Garden","mapped_acres":1.0,"mapped_acres_source":"poly_GISAcres","gis_acres":1.0,"auto_acres":0.618490772447716,"reported_acres":0.6,"percent_contained":null,"state":"ME","state_wfigs":"US-ME","county":"Waldo","discovery_time_utc":"2021-04-11T18:27:00Z","perimeter_time_utc":"2021-04-12T00:54:00Z","perimeter_edit_time_utc":"2021-04-16T18:33:07Z","incident_modified_time_utc":"2021-04-16T18:33:08Z","containment_time_utc":"2021-04-11T19:00:00Z","control_time_utc":"2021-04-11T19:26:00Z","fire_out_time_utc":"2021-04-11T19:26:00Z","fire_cause":"Human","fire_cause_general":"Debris/Open Burning","map_method":"Auto-generated","source_dataset":"Decertified","unique_fire_identifier":"2021-MEMES-21002292","irwin_id":"{D785660C-018F-4D9C-9991-E4AD0B205C1C}","global_id":"2870dfdd-b642-4aa6-8d4e-6785a2162a97"}},{"type":"Feature","geometry":{"type":"MultiPolygon","coordinates":[[[[-69.03648,44.59937],[-69.03655,44.59944],[-69.036482,44.599388],[-69.03648,44.59937]]],[[[-69.03655,44.59944],[-69.03656,44.59945],[-69.03655,44.59946],[-69.03655,44.59944]]],[[[-69.03615,44.59986],[-69.03626,44.5999],[-69.03621,44.6],[-69.03594,44.60014],[-69.03574,44.59986],[-69.03545,44.59983],[-69.03562,44.59944],[-69.03621,44.59918],[-69.036482,44.599388],[-69.03651,44.59962],[-69.03615,44.59986]]],[[[-69.03624,44.59985],[-69.03624,44.59984],[-69.03625,44.59985],[-69.03624,44.59985]]]]},"properties":{"fire_id":"ufid:2021-MEMES-21003357","source_collection":"history-2021","source_objectid":8866,"incident_name":"Staple Gun Fire","mapped_acres":1.5,"mapped_acres_source":"poly_GISAcres","gis_acres":1.5,"auto_acres":1.27689037509108,"reported_acres":1.5,"percent_contained":null,"state":"ME","state_wfigs":"US-ME","county":"Waldo","discovery_time_utc":"2021-05-19T18:37:00Z","perimeter_time_utc":"2021-05-19T19:28:00Z","perimeter_edit_time_utc":"2021-06-16T17:18:38Z","incident_modified_time_utc":"2021-06-16T17:18:37Z","containment_time_utc":"2021-05-19T19:57:00Z","control_time_utc":"2021-05-19T19:57:00Z","fire_out_time_utc":"2021-05-20T14:34:00Z","fire_cause":"Human","fire_cause_general":"Incendiary","map_method":"Hand Sketch","source_dataset":"Decertified","unique_fire_identifier":"2021-MEMES-21003357","irwin_id":"{B17E98CF-D52B-435A-8FB8-59AB3F5897D5}","global_id":"5a309112-3e2c-4b8f-850b-6fd4c04c7575"}},{"type":"Feature","geometry":{"type":"Polygon","coordinates":[[[-68.50202,44.80522],[-68.50185,44.80468],[-68.50219,44.80477],[-68.5025,44.80464],[-68.50291,44.805],[-68.50309,44.80543],[-68.50254,44.80561],[-68.50202,44.80522]]]},"properties":{"fire_id":"ufid:2021-MEMES-21002909","source_collection":"history-2021","source_objectid":9068,"incident_name":"Nickerson hill fire","mapped_acres":1.0,"mapped_acres_source":"poly_GISAcres","gis_acres":1.0,"auto_acres":1.6661118948676557,"reported_acres":1.0,"percent_contained":null,"state":"ME","state_wfigs":"US-ME","county":"Penobscot","discovery_time_utc":"2021-05-02T17:50:00Z","perimeter_time_utc":"2021-05-02T22:50:00Z","perimeter_edit_time_utc":"2023-03-14T15:13:42Z","incident_modified_time_utc":"2022-01-25T20:17:05Z","containment_time_utc":"2021-05-02T18:15:00Z","control_time_utc":"2021-05-02T18:20:59Z","fire_out_time_utc":"2021-05-02T22:00:00Z","fire_cause":"Human","fire_cause_general":"Debris and open burning","map_method":"Auto-generated","source_dataset":"FFP","unique_fire_identifier":"2021-MEMES-21002909","irwin_id":"{2932683F-2C46-41FB-B257-A27B749E4511}","global_id":"064965f6-f37f-4e1f-b5a8-e86e9ee2af1f"}},{"type":"Feature","geometry":{"type":"MultiPolygon","coordinates":[[[[-69.38372,44.45908],[-69.38373,44.45908],[-69.38372,44.45909],[-69.38372,44.45908]]],[[[-69.38491,44.45939],[-69.38472,44.45955],[-69.38422,44.45963],[-69.38361,44.45939],[-69.38358,44.4592],[-69.38398,44.45898],[-69.38461,44.45915],[-69.38491,44.45939]]],[[[-69.38359,44.45936],[-69.38361,44.45939],[-69.38359,44.45939],[-69.38359,44.45936]]]]},"properties":{"fire_id":"ufid:2021-MEMES-21003354","source_collection":"history-2021","source_objectid":9079,"incident_name":"Down in the dip fire","mapped_acres":1.28,"mapped_acres_source":"poly_GISAcres","gis_acres":1.28,"auto_acres":1.177974441469998,"reported_acres":1.2,"percent_contained":null,"state":"ME","state_wfigs":"US-ME","county":"Waldo","discovery_time_utc":"2021-05-19T17:00:00Z","perimeter_time_utc":"2021-05-19T22:00:00Z","perimeter_edit_time_utc":"2023-03-14T15:13:42Z","incident_modified_time_utc":"2021-05-26T14:56:03Z","containment_time_utc":"2021-05-19T18:00:00Z","control_time_utc":"2021-05-19T18:00:00Z","fire_out_time_utc":"2021-05-19T22:30:00Z","fire_cause":"Human","fire_cause_general":"Debris and open burning","map_method":"Hand Sketch","source_dataset":"FFP","unique_fire_identifier":"2021-MEMES-21003354","irwin_id":"{66BE7DA1-39BF-47D5-8D85-7F0CDBEB8EF8}","global_id":"9d78ab99-3dff-4886-951e-8182189c3444"}},{"type":"Feature","geometry":{"type":"Polygon","coordinates":[[[-67.46715,44.69882],[-67.46811,44.69871],[-67.46822,44.699],[-67.46728,44.69914],[-67.46688,44.69897],[-67.46715,44.69882]]]},"properties":{"fire_id":"ufid:2021-MEMES-21001376","source_collection":"history-2021","source_objectid":9251,"incident_name":"Cook Ashes","mapped_acres":0.5,"mapped_acres_source":"poly_GISAcres","gis_acres":0.5,"auto_acres":0.7411871869677946,"reported_acres":0.7,"percent_contained":null,"state":"ME","state_wfigs":"US-ME","county":"Washington","discovery_time_utc":"2021-03-08T18:57:12Z","perimeter_time_utc":"2021-03-09T00:57:12Z","perimeter_edit_time_utc":"2023-03-14T15:13:42Z","incident_modified_time_utc":"2021-05-13T22:49:49Z","containment_time_utc":"2021-03-08T19:10:00Z","control_time_utc":null,"fire_out_time_utc":"2021-03-08T20:47:00Z","fire_cause":"Human","fire_cause_general":"Debris and open burning","map_method":"Auto-generated","source_dataset":"FFP","unique_fire_identifier":"2021-MEMES-21001376","irwin_id":"{D8624B23-1C33-4914-A936-AC5214477908}","global_id":"b3598744-00b4-400d-9368-9616fd6ed4b1"}},{"type":"Feature","geometry":{"type":"Polygon","coordinates":[[[-68.41084,44.34507],[-68.41083,44.34477],[-68.4111,44.34449],[-68.4119,44.34447],[-68.41194,44.34506],[-68.41084,44.34507]]]},"properties":{"fire_id":"ufid:2021-MEMES-21000610","source_collection":"history-2021","source_objectid":9518,"incident_name":"Bartlett Landing Fire","mapped_acres":1.32452050418661,"mapped_acres_source":"poly_Acres_AutoCalc_fallback","gis_acres":null,"auto_acres":1.32452050418661,"reported_acres":1.0,"percent_contained":null,"state":"ME","state_wfigs":"US-ME","county":"Hancock","discovery_time_utc":"2021-01-24T15:32:00Z","perimeter_time_utc":"2021-03-18T16:09:52Z","perimeter_edit_time_utc":"2023-03-14T15:13:42Z","incident_modified_time_utc":"2021-05-13T22:47:30Z","containment_time_utc":"2021-01-24T16:16:00Z","control_time_utc":"2021-01-24T17:01:00Z","fire_out_time_utc":"2021-01-24T17:16:00Z","fire_cause":"Human","fire_cause_general":"Debris and open burning","map_method":"Hand Sketch","source_dataset":"FFP","unique_fire_identifier":"2021-MEMES-21000610","irwin_id":"{E4204F3F-577C-42BA-9AFE-444E61813FBB}","global_id":"c9fde660-f355-4f3d-ab44-375babdb2532"}},{"type":"Feature","geometry":{"type":"Polygon","coordinates":[[[-69.64087,44.11894],[-69.64075,44.1189],[-69.64082,44.11886],[-69.64087,44.11894]]]},"properties":{"fire_id":"ufid:2021-MEMES-21003191","source_collection":"history-2021","source_objectid":9568,"incident_name":"Tree Top Fire","mapped_acres":0.0121503964073835,"mapped_acres_source":"poly_Acres_AutoCalc_fallback","gis_acres":null,"auto_acres":0.0121503964073835,"reported_acres":0.1,"percent_contained":null,"state":"ME","state_wfigs":"US-ME","county":"Lincoln","discovery_time_utc":"2021-05-14T18:05:00Z","perimeter_time_utc":"2021-05-18T14:26:08Z","perimeter_edit_time_utc":"2021-05-26T14:49:46Z","incident_modified_time_utc":"2021-05-26T14:49:45Z","containment_time_utc":"2021-05-14T18:29:00Z","control_time_utc":"2021-05-14T18:29:00Z","fire_out_time_utc":"2021-05-14T18:29:00Z","fire_cause":"Human","fire_cause_general":"Debris/Open Burning","map_method":"Hand Sketch","source_dataset":"Decertified","unique_fire_identifier":"2021-MEMES-21003191","irwin_id":"{428C30D1-32BE-4E29-AD6B-37203337213B}","global_id":"1c6919b1-9ff5-49c4-8cc3-117a87bc007c"}},{"type":"Feature","geometry":{"type":"MultiPolygon","coordinates":[[[[-69.41642,44.31228],[-69.41611,44.31213],[-69.41623,44.31204],[-69.41617,44.31162],[-69.41635,44.31162],[-69.41627,44.31145],[-69.4164,44.31135],[-69.41655,44.31186],[-69.41642,44.31228]]],[[[-69.41652,44.3123],[-69.41651,44.31243],[-69.41644,44.31232],[-69.41652,44.3123]]],[[[-69.41644,44.31232],[-69.41641,44.31231],[-69.41642,44.31228],[-69.41644,44.31232]]],[[[-69.41651,44.31243],[-69.41654,44.31244],[-69.41649,44.31245],[-69.41651,44.31243]]]]},"properties":{"fire_id":"ufid:2021-MEMES-21003992","source_collection":"history-2021","source_objectid":9615,"incident_name":"21003992","mapped_acres":1.0,"mapped_acres_source":"poly_GISAcres","gis_acres":1.0,"auto_acres":0.4962728603577407,"reported_acres":0.5,"percent_contained":null,"state":"ME","state_wfigs":"US-ME","county":"Knox","discovery_time_utc":"2021-06-19T01:30:00Z","perimeter_time_utc":"2021-06-19T19:55:00Z","perimeter_edit_time_utc":"2023-03-14T15:13:42Z","incident_modified_time_utc":"2021-07-10T18:25:09Z","containment_time_utc":"2021-06-19T02:03:00Z","control_time_utc":"2021-06-19T02:03:00Z","fire_out_time_utc":"2021-06-19T10:00:00Z","fire_cause":"Human","fire_cause_general":"Equipment and vehicle use","map_method":"Auto-generated","source_dataset":"FFP","unique_fire_identifier":"2021-MEMES-21003992","irwin_id":"{9EE59C99-1A27-4E9F-9E09-8BD0A7EB0E52}","global_id":"57db94c6-8a5e-4bee-aef9-4a7bdd743214"}},{"type":"Feature","geometry":{"type":"Polygon","coordinates":[[[-68.38233,44.99089],[-68.38261,44.98996],[-68.38305,44.99016],[-68.38331,44.99014],[-68.38379,44.99088],[-68.38366,44.99132],[-68.38393,44.9915],[-68.38335,44.9917],[-68.3826,44.99139],[-68.38233,44.99089]]]},"properties":{"fire_id":"ufid:2021-MEMES-21003455","source_collection":"history-2021","source_objectid":9948,"incident_name":"Sketch Car Fire","mapped_acres":4.01,"mapped_acres_source":"poly_GISAcres","gis_acres":4.01,"auto_acres":4.013670141752121,"reported_acres":4.1,"percent_contained":null,"state":"ME","state_wfigs":"US-ME","county":"Hancock","discovery_time_utc":"2021-05-25T14:59:00Z","perimeter_time_utc":"2021-05-25T23:00:00Z","perimeter_edit_time_utc":"2023-03-14T15:13:42Z","incident_modified_time_utc":"2021-10-13T15:10:21Z","containment_time_utc":"2021-05-25T23:44:00Z","control_time_utc":"2021-05-26T16:00:00Z","fire_out_time_utc":"2021-05-27T10:00:00Z","fire_cause":"Human","fire_cause_general":"Equipment and vehicle use","map_method":"Mixed Methods","source_dataset":"FFP","unique_fire_identifier":"2021-MEMES-21003455","irwin_id":"{57771A3B-8232-4C37-A24A-AB0329AC8DA2}","global_id":"368e5ef9-45de-483c-add2-f87c867e18fc"}},{"type":"Feature","geometry":{"type":"Polygon","coordinates":[[[-69.46954,44.24373],[-69.46892,44.24381],[-69.46855,44.24356],[-69.46854,44.24339],[-69.46836,44.24329],[-69.46844,44.24311],[-69.46835,44.24304],[-69.46859,44.2427],[-69.46902,44.24277],[-69.46889,44.24295],[-69.46911,44.24325],[-69.46973,44.24337],[-69.46954,44.24373]]]},"properties":{"fire_id":"ufid:2021-MEMES-21002789","source_collection":"history-2021","source_objectid":9996,"incident_name":"Red Flag Burn Fire","mapped_acres":3.0,"mapped_acres_source":"poly_GISAcres","gis_acres":3.0,"auto_acres":1.7595967837419435,"reported_acres":1.8,"percent_contained":null,"state":"ME","state_wfigs":"US-ME","county":"Lincoln","discovery_time_utc":"2021-04-27T16:24:00Z","perimeter_time_utc":"2021-04-27T21:24:00Z","perimeter_edit_time_utc":"2023-03-14T15:13:42Z","incident_modified_time_utc":"2021-05-09T17:34:15Z","containment_time_utc":"2021-04-27T18:31:00Z","control_time_utc":"2021-04-27T19:00:00Z","fire_out_time_utc":"2021-04-28T12:31:17Z","fire_cause":"Human","fire_cause_general":"Debris and open burning","map_method":"Auto-generated","source_dataset":"FFP","unique_fire_identifier":"2021-MEMES-21002789","irwin_id":"{350A3672-FB5C-4E90-8F35-3DAC8F0703BD}","global_id":"1e34a904-7441-484b-9011-209c1a327be2"}},{"type":"Feature","geometry":{"type":"MultiPolygon","coordinates":[[[[-69.16407,44.94709],[-69.1641,44.94711],[-69.16409,44.94715],[-69.16407,44.94709]]],[[[-69.16462,44.94689],[-69.16471,44.94716],[-69.16445,44.94714],[-69.1644,44.94737],[-69.16458,44.94741],[-69.16396,44.94762],[-69.16381,44.94729],[-69.16418,44.94718],[-69.16401,44.94697],[-69.16433,44.94674],[-69.16462,44.94689]]]]},"properties":{"fire_id":"ufid:2021-MEMES-21003249","source_collection":"history-2021","source_objectid":10306,"incident_name":"Nap Time Fire","mapped_acres":0.92,"mapped_acres_source":"poly_GISAcres","gis_acres":0.92,"auto_acres":0.9245379134517027,"reported_acres":1.0,"percent_contained":null,"state":"ME","state_wfigs":"US-ME","county":"Penobscot","discovery_time_utc":"2021-05-16T00:00:00Z","perimeter_time_utc":"2021-05-16T19:45:00Z","perimeter_edit_time_utc":"2023-03-14T15:13:42Z","incident_modified_time_utc":"2021-05-17T21:12:26Z","containment_time_utc":"2021-05-16T03:00:00Z","control_time_utc":null,"fire_out_time_utc":"2021-05-16T03:30:00Z","fire_cause":"Human","fire_cause_general":"Debris and open burning","map_method":"Mixed Methods","source_dataset":"FFP","unique_fire_identifier":"2021-MEMES-21003249","irwin_id":"{851AB829-1F33-4D3C-8B40-EAAA49B666BB}","global_id":"bdb41121-f906-4ee0-bc3f-c3b5aba3dd22"}},{"type":"Feature","geometry":{"type":"Polygon","coordinates":[[[-69.10237,44.17231],[-69.1007,44.17294],[-69.10026,44.1727],[-69.10221,44.17203],[-69.10237,44.17231]]]},"properties":{"fire_id":"ufid:2021-MEMES-21001680","source_collection":"history-2021","source_objectid":10526,"incident_name":"Neighbor","mapped_acres":1.47,"mapped_acres_source":"poly_GISAcres","gis_acres":1.47,"auto_acres":1.4689671438877583,"reported_acres":1.5,"percent_contained":null,"state":"ME","state_wfigs":"US-ME","county":"Knox","discovery_time_utc":"2021-03-21T15:53:00Z","perimeter_time_utc":null,"perimeter_edit_time_utc":"2023-03-14T15:13:42Z","incident_modified_time_utc":"2021-03-25T13:51:11Z","containment_time_utc":"2021-03-21T16:18:00Z","control_time_utc":"2021-03-21T16:28:00Z","fire_out_time_utc":"2021-03-21T17:20:00Z","fire_cause":"Human","fire_cause_general":"Debris and open burning","map_method":"Mixed Methods","source_dataset":"FFP","unique_fire_identifier":"2021-MEMES-21001680","irwin_id":"{8422E863-49CE-4F69-B90D-41C0243082F2}","global_id":"d661ab07-428e-45c4-bbca-2e54a2920f00"}},{"type":"Feature","geometry":{"type":"Polygon","coordinates":[[[-69.24418,44.13335],[-69.244011,44.133314],[-69.2443,44.13345],[-69.24412,44.13365],[-69.24416,44.1338],[-69.24392,44.13387],[-69.24345,44.13344],[-69.24313,44.13336],[-69.24354,44.13315],[-69.243993,44.133308],[-69.24415,44.13321],[-69.24418,44.13335]]]},"properties":{"fire_id":"ufid:2021-MEMES-21001795","source_collection":"history-2021","source_objectid":10546,"incident_name":"21001795","mapped_acres":1.0,"mapped_acres_source":"poly_GISAcres","gis_acres":1.0,"auto_acres":0.8609256877039352,"reported_acres":0.9,"percent_contained":null,"state":"ME","state_wfigs":"US-ME","county":"Knox","discovery_time_utc":"2021-03-23T18:20:00Z","perimeter_time_utc":"2021-03-23T23:20:00Z","perimeter_edit_time_utc":"2023-03-14T15:13:42Z","incident_modified_time_utc":"2021-03-30T14:04:08Z","containment_time_utc":"2021-03-23T19:15:00Z","control_time_utc":"2021-03-23T19:31:00Z","fire_out_time_utc":null,"fire_cause":"Human","fire_cause_general":"Debris and open burning","map_method":"Auto-generated","source_dataset":"FFP","unique_fire_identifier":"2021-MEMES-21001795","irwin_id":"{611B5F87-569B-43D5-9246-F789F5DAE78A}","global_id":"a93f8669-c34b-4539-af57-de65696b563f"}},{"type":"Feature","geometry":{"type":"MultiPolygon","coordinates":[[[[-67.52268,44.6562],[-67.52229,44.65626],[-67.52212,44.65588],[-67.52259,44.65592],[-67.5225,44.65581],[-67.52184,44.65576],[-67.52179,44.65563],[-67.5221,44.65544],[-67.52267,44.65553],[-67.52288,44.65578],[-67.52264,44.6559],[-67.52268,44.6562]]],[[[-67.52305,44.65625],[-67.52318,44.65631],[-67.52306,44.65655],[-67.52344,44.65692],[-67.52322,44.65715],[-67.52291,44.65687],[-67.52305,44.65625]]],[[[-67.52302,44.65623],[-67.52268,44.6562],[-67.52288,44.65619],[-67.52302,44.65623]]]]},"properties":{"fire_id":"ufid:2021-MEMES-21003358","source_collection":"history-2021","source_objectid":10768,"incident_name":"Hammond Spot Fire","mapped_acres":2.0,"mapped_acres_source":"poly_GISAcres","gis_acres":2.0,"auto_acres":1.51421090211486,"reported_acres":2.0,"percent_contained":null,"state":"ME","state_wfigs":"US-ME","county":"Washington","discovery_time_utc":"2021-05-19T19:43:00Z","perimeter_time_utc":"2021-05-20T00:43:00Z","perimeter_edit_time_utc":"2021-05-20T18:22:34Z","incident_modified_time_utc":"2021-05-20T18:22:32Z","containment_time_utc":"2021-05-19T20:50:00Z","control_time_utc":"2021-05-19T21:16:00Z","fire_out_time_utc":"2021-05-20T16:00:00Z","fire_cause":"Human","fire_cause_general":"Debris/Open Burning","map_method":"Auto-generated","source_dataset":"Decertified","unique_fire_identifier":"2021-MEMES-21003358","irwin_id":"{A5D51683-7610-498B-81B8-349BB3DC4A4D}","global_id":"959a2149-0e6a-45ab-9f6c-910b6584b5e7"}},{"type":"Feature","geometry":{"type":"Polygon","coordinates":[[[-67.47918,44.62518],[-67.479,44.62492],[-67.47825,44.62495],[-67.47817,44.62467],[-67.47833,44.6239],[-67.47897,44.62403],[-67.47908,44.62423],[-67.4797,44.6245],[-67.48069,44.62477],[-67.48108,44.62436],[-67.48125,44.6244],[-67.48128,44.62455],[-67.48083,44.62548],[-67.47956,44.62536],[-67.47918,44.62518]]]},"properties":{"fire_id":"ufid:2021-MEMES-21002696","source_collection":"history-2021","source_objectid":10796,"incident_name":"Roque Farmer Fire","mapped_acres":5.0,"mapped_acres_source":"poly_GISAcres","gis_acres":5.0,"auto_acres":5.75929354208065,"reported_acres":5.8,"percent_contained":null,"state":"ME","state_wfigs":"US-ME","county":"Washington","discovery_time_utc":"2021-04-24T15:33:00Z","perimeter_time_utc":"2021-04-24T20:33:00Z","perimeter_edit_time_utc":"2021-05-13T23:41:05Z","incident_modified_time_utc":"2021-05-13T18:05:26Z","containment_time_utc":"2021-04-24T16:01:00Z","control_time_utc":null,"fire_out_time_utc":"2021-04-24T16:35:00Z","fire_cause":"Human","fire_cause_general":"Debris/Open Burning","map_method":"Auto-generated","source_dataset":"Decertified","unique_fire_identifier":"2021-MEMES-21002696","irwin_id":"{FFCD74D7-2C8E-4005-A5A7-3A7048F61F92}","global_id":"b54fc63e-4960-4cb2-b9fe-eeb065c9f6f9"}},{"type":"Feature","geometry":{"type":"Polygon","coordinates":[[[-69.67075,44.27365],[-69.67064,44.27362],[-69.67072,44.27357],[-69.67075,44.27365]]]},"properties":{"fire_id":"ufid:2021-MEMES-21003206","source_collection":"history-2021","source_objectid":11118,"incident_name":"Rainbow Lighter Fire","mapped_acres":0.016365301087883442,"mapped_acres_source":"poly_Acres_AutoCalc_fallback","gis_acres":null,"auto_acres":0.016365301087883442,"reported_acres":0.1,"percent_contained":null,"state":"ME","state_wfigs":"US-ME","county":"Kennebec","discovery_time_utc":"2021-05-14T08:42:34Z","perimeter_time_utc":"2021-05-18T15:22:53Z","perimeter_edit_time_utc":"2023-03-14T15:13:42Z","incident_modified_time_utc":"2021-05-26T14:54:54Z","containment_time_utc":"2021-05-14T08:53:00Z","control_time_utc":"2021-05-14T08:53:00Z","fire_out_time_utc":"2021-05-14T08:53:00Z","fire_cause":"Human","fire_cause_general":"Other causes","map_method":"Hand Sketch","source_dataset":"FFP","unique_fire_identifier":"2021-MEMES-21003206","irwin_id":"{CC5A1EA1-9207-4742-BE65-012BD35DA271}","global_id":"2bc2847b-3911-4858-8dde-f0b9cc5dca71"}},{"type":"Feature","geometry":{"type":"MultiPolygon","coordinates":[[[[-67.37778,44.74314],[-67.37841,44.74338],[-67.37833,44.74357],[-67.37809,44.74367],[-67.37765,44.74362],[-67.37757,44.74348],[-67.37714,44.74352],[-67.37714,44.74334],[-67.37748,44.74318],[-67.37748,44.74304],[-67.37778,44.74314]]],[[[-67.37783,44.7431],[-67.3783,44.74328],[-67.37778,44.74313],[-67.37783,44.7431]]],[[[-67.37778,44.74313],[-67.37778,44.74314],[-67.37758,44.74306],[-67.37778,44.74313]]]]},"properties":{"fire_id":"ufid:2021-MEMES-21002394","source_collection":"history-2021","source_objectid":11453,"incident_name":"352 Main Street Fire","mapped_acres":1.0,"mapped_acres_source":"poly_GISAcres","gis_acres":1.0,"auto_acres":1.043782511289591,"reported_acres":1.0,"percent_contained":null,"state":"ME","state_wfigs":"US-ME","county":"Washington","discovery_time_utc":"2021-04-15T15:39:00Z","perimeter_time_utc":"2021-04-15T20:39:00Z","perimeter_edit_time_utc":"2023-03-14T15:13:42Z","incident_modified_time_utc":"2021-05-13T23:33:13Z","containment_time_utc":"2021-04-15T16:36:00Z","control_time_utc":"2021-04-15T16:36:00Z","fire_out_time_utc":"2021-04-15T16:36:00Z","fire_cause":"Human","fire_cause_general":"Debris and open burning","map_method":"Hand Sketch","source_dataset":"FFP","unique_fire_identifier":"2021-MEMES-21002394","irwin_id":"{CCB1ED12-1B6D-454D-AD90-B0709E28D020}","global_id":"545d983d-5735-403c-9101-19017182169b"}},{"type":"Feature","geometry":{"type":"Polygon","coordinates":[[[-69.42442,44.92776],[-69.42429,44.92763],[-69.42445,44.92753],[-69.42468,44.92775],[-69.42475,44.92803],[-69.42465,44.92817],[-69.42401,44.92806],[-69.42424,44.92795],[-69.42422,44.9278],[-69.42442,44.92776]]]},"properties":{"fire_id":"ufid:2021-MEMES-21002813","source_collection":"history-2021","source_objectid":11609,"incident_name":"charcoal","mapped_acres":1.0,"mapped_acres_source":"poly_GISAcres","gis_acres":1.0,"auto_acres":0.60574877460946,"reported_acres":0.6,"percent_contained":null,"state":"ME","state_wfigs":"US-ME","county":"Somerset","discovery_time_utc":"2021-04-28T17:57:00Z","perimeter_time_utc":"2021-04-29T01:25:00Z","perimeter_edit_time_utc":"2021-05-08T17:27:02Z","incident_modified_time_utc":"2021-05-08T17:27:01Z","containment_time_utc":"2021-04-28T19:17:00Z","control_time_utc":"2021-04-28T19:20:00Z","fire_out_time_utc":"2021-04-29T00:10:00Z","fire_cause":"Human","fire_cause_general":"Other Human Cause","map_method":"Hand Sketch","source_dataset":"Decertified","unique_fire_identifier":"2021-MEMES-21002813","irwin_id":"{CCA689EC-0B47-45DB-A2D6-FA7C73B84AAA}","global_id":"433931bc-a8e6-4533-a3c8-cef0e7fe5f4b"}},{"type":"Feature","geometry":{"type":"Polygon","coordinates":[[[-69.79408,44.71797],[-69.79415,44.71799],[-69.79412,44.71802],[-69.79408,44.71797]]]},"properties":{"fire_id":"ufid:2021-MEMES-21001572","source_collection":"history-2021","source_objectid":11782,"incident_name":"Burnt Out Fire","mapped_acres":0.1,"mapped_acres_source":"poly_GISAcres","gis_acres":0.1,"auto_acres":0.003794289849855807,"reported_acres":0.1,"percent_contained":null,"state":"ME","state_wfigs":"US-ME","county":"Somerset","discovery_time_utc":"2021-03-16T14:19:00Z","perimeter_time_utc":"2021-03-16T19:19:00Z","perimeter_edit_time_utc":"2023-03-14T15:13:42Z","incident_modified_time_utc":"2021-03-26T15:05:33Z","containment_time_utc":"2021-03-16T17:30:00Z","control_time_utc":"2021-03-16T17:30:00Z","fire_out_time_utc":"2021-03-16T18:17:00Z","fire_cause":"Human","fire_cause_general":"Recreation and ceremony","map_method":"Auto-generated","source_dataset":"FFP","unique_fire_identifier":"2021-MEMES-21001572","irwin_id":"{655127E5-9C12-449B-9FED-2A56CF0A4A43}","global_id":"f8600e79-9e81-4ba0-bb09-ed4e4d1032a9"}},{"type":"Feature","geometry":{"type":"MultiPolygon","coordinates":[[[[-67.17527,44.94766],[-67.17476,44.94737],[-67.17492,44.94725],[-67.17466,44.94708],[-67.17476,44.94694],[-67.17468,44.94675],[-67.1752,44.94705],[-67.17534,44.94735],[-67.17527,44.94766]]],[[[-67.17526,44.94767],[-67.17522,44.94768],[-67.17525,44.94767],[-67.17526,44.94767]]]]},"properties":{"fire_id":"ufid:2021-MEMES-21001756","source_collection":"history-2021","source_objectid":12195,"incident_name":"Old County Fire","mapped_acres":1.0,"mapped_acres_source":"poly_GISAcres","gis_acres":1.0,"auto_acres":0.7215693843110559,"reported_acres":0.8,"percent_contained":null,"state":"ME","state_wfigs":"US-ME","county":"Washington","discovery_time_utc":"2021-03-22T17:10:00Z","perimeter_time_utc":"2021-03-22T22:10:00Z","perimeter_edit_time_utc":"2023-03-14T15:13:42Z","incident_modified_time_utc":"2021-05-13T22:58:08Z","containment_time_utc":"2021-03-22T17:39:00Z","control_time_utc":"2021-03-22T18:27:00Z","fire_out_time_utc":"2021-03-22T18:28:00Z","fire_cause":"Human","fire_cause_general":"Debris and open burning","map_method":"Auto-generated","source_dataset":"FFP","unique_fire_identifier":"2021-MEMES-21001756","irwin_id":"{2191B576-A6C9-4980-89D2-8C9DEDC8A433}","global_id":"7d9670e0-97ec-4ec6-a427-506edd2a4b17"}},{"type":"Feature","geometry":{"type":"MultiPolygon","coordinates":[[[[-67.60567,44.87332],[-67.60519,44.87363],[-67.60503,44.87404],[-67.60476,44.8742],[-67.60333,44.8745],[-67.60324,44.87445],[-67.6033,44.87414],[-67.60308,44.87397],[-67.60253,44.87398],[-67.60248,44.87387],[-67.60275,44.87368],[-67.60258,44.87347],[-67.60211,44.8733],[-67.60199,44.87304],[-67.60244,44.87276],[-67.60237,44.87249],[-67.60283,44.87151],[-67.60365,44.87121],[-67.60407,44.87144],[-67.6041,44.87181],[-67.60428,44.87185],[-67.60462,44.87153],[-67.60543,44.87143],[-67.60542,44.8718],[-67.60571,44.87182],[-67.60552,44.87206],[-67.60555,44.87221],[-67.60539,44.8723],[-67.60532,44.87268],[-67.60555,44.87265],[-67.6056,44.87278],[-67.60515,44.8734],[-67.60522,44.87352],[-67.60567,44.87332]]],[[[-67.60571,44.87322],[-67.60573,44.8733],[-67.60567,44.87332],[-67.60571,44.87322]]]]},"properties":{"fire_id":"ufid:2021-MEMES-21003363","source_collection":"history-2021","source_objectid":12250,"incident_name":"Townline Fire","mapped_acres":17.5,"mapped_acres_source":"poly_GISAcres","gis_acres":17.5,"auto_acres":17.282218508790628,"reported_acres":17.5,"percent_contained":null,"state":"ME","state_wfigs":"US-ME","county":"Washington","discovery_time_utc":"2021-05-19T22:00:00Z","perimeter_time_utc":"2021-05-20T03:00:00Z","perimeter_edit_time_utc":"2023-03-14T15:13:42Z","incident_modified_time_utc":"2021-05-25T08:42:42Z","containment_time_utc":"2021-05-20T19:53:00Z","control_time_utc":null,"fire_out_time_utc":null,"fire_cause":"Human","fire_cause_general":"Equipment and vehicle use","map_method":"Hand Sketch","source_dataset":"FFP","unique_fire_identifier":"2021-MEMES-21003363","irwin_id":"{69150998-7F5D-4827-8A57-F9C91750715A}","global_id":"105af46f-c62d-4112-ae41-02f59107d1ee"}},{"type":"Feature","geometry":{"type":"Polygon","coordinates":[[[-69.69943,44.2514],[-69.69941,44.25138],[-69.69945,44.25139],[-69.69943,44.2514]]]},"properties":{"fire_id":"ufid:2021-MEMES-21003196","source_collection":"history-2021","source_objectid":12258,"incident_name":"Stump Fire","mapped_acres":0.0011678121905627445,"mapped_acres_source":"poly_Acres_AutoCalc_fallback","gis_acres":null,"auto_acres":0.0011678121905627445,"reported_acres":0.1,"percent_contained":null,"state":"ME","state_wfigs":"US-ME","county":"Kennebec","discovery_time_utc":"2021-05-14T06:53:00Z","perimeter_time_utc":"2021-05-18T15:33:52Z","perimeter_edit_time_utc":"2023-03-14T15:13:42Z","incident_modified_time_utc":"2021-05-26T14:51:19Z","containment_time_utc":"2021-05-14T06:56:00Z","control_time_utc":"2021-05-14T19:00:00Z","fire_out_time_utc":"2021-05-14T19:00:00Z","fire_cause":"Undetermined","fire_cause_general":"Undetermined","map_method":"Hand Sketch","source_dataset":"FFP","unique_fire_identifier":"2021-MEMES-21003196","irwin_id":"{59D5919D-F53E-4EE2-9477-70823FA1D060}","global_id":"27df6bcf-63df-4d58-8662-069b9f68c20d"}},{"type":"Feature","geometry":{"type":"MultiPolygon","coordinates":[[[[-67.85071,44.63283],[-67.85053,44.63324],[-67.85055,44.63353],[-67.85015,44.63354],[-67.84987,44.63329],[-67.84934,44.63328],[-67.84973,44.63288],[-67.8501,44.63278],[-67.85071,44.63283]]],[[[-67.85081,44.63269],[-67.85079,44.63277],[-67.85071,44.63283],[-67.85081,44.63269]]]]},"properties":{"fire_id":"ufid:2021-MEMES-21002683","source_collection":"history-2021","source_objectid":12333,"incident_name":"Konyak","mapped_acres":3.0,"mapped_acres_source":"poly_GISAcres","gis_acres":3.0,"auto_acres":1.4124081814133893,"reported_acres":3.0,"percent_contained":null,"state":"ME","state_wfigs":"US-ME","county":"Washington","discovery_time_utc":"2021-04-23T20:52:00Z","perimeter_time_utc":"2021-04-24T01:52:00Z","perimeter_edit_time_utc":"2023-03-14T15:13:42Z","incident_modified_time_utc":"2021-05-13T23:39:21Z","containment_time_utc":"2021-04-23T22:01:11Z","control_time_utc":"2021-04-23T22:01:14Z","fire_out_time_utc":"2021-04-23T23:30:00Z","fire_cause":"Human","fire_cause_general":"Debris and open burning","map_method":"Auto-generated","source_dataset":"FFP","unique_fire_identifier":"2021-MEMES-21002683","irwin_id":"{E7E7008C-5222-4526-BB5B-78C74041D87F}","global_id":"292771dc-cdd6-4b98-80d7-e365772ed03b"}},{"type":"Feature","geometry":{"type":"MultiPolygon","coordinates":[[[[-68.95564,44.59698],[-68.95565,44.59704],[-68.95564,44.59706],[-68.95564,44.59698]]],[[[-68.95816,44.59654],[-68.95876,44.59672],[-68.95873,44.597],[-68.95851,44.5971],[-68.95813,44.59703],[-68.95777,44.59751],[-68.9578,44.5977],[-68.9572,44.598],[-68.95723,44.59815],[-68.9569,44.59803],[-68.95663,44.59821],[-68.95631,44.59804],[-68.95606,44.59808],[-68.95607,44.59788],[-68.9557,44.59763],[-68.95579,44.59738],[-68.95562,44.59689],[-68.95572,44.59674],[-68.95624,44.59652],[-68.95662,44.59611],[-68.95681,44.59611],[-68.95685,44.59593],[-68.95709,44.59598],[-68.95699,44.59621],[-68.95804,44.59635],[-68.95816,44.59654]]]]},"properties":{"fire_id":"ufid:2021-MEMES-21002569","source_collection":"history-2021","source_objectid":12858,"incident_name":"Manner land fire","mapped_acres":8.9,"mapped_acres_source":"poly_GISAcres","gis_acres":8.9,"auto_acres":8.860454129937178,"reported_acres":8.9,"percent_contained":null,"state":"ME","state_wfigs":"US-ME","county":"Waldo","discovery_time_utc":"2021-04-19T18:56:00Z","perimeter_time_utc":"2021-04-20T01:08:00Z","perimeter_edit_time_utc":"2023-03-14T15:13:42Z","incident_modified_time_utc":"2021-05-08T17:18:04Z","containment_time_utc":"2021-04-19T21:48:00Z","control_time_utc":"2021-04-19T21:49:00Z","fire_out_time_utc":"2021-05-08T21:48:58Z","fire_cause":"Human","fire_cause_general":"Debris and open burning","map_method":"Hand Sketch","source_dataset":"FFP","unique_fire_identifier":"2021-MEMES-21002569","irwin_id":"{DBBCCB2C-23A4-4BC8-9427-861B66460052}","global_id":"8c88c5bc-229e-4f8b-9938-80af10197422"}},{"type":"Feature","geometry":{"type":"MultiPolygon","coordinates":[[[[-68.71811,44.78836],[-68.71857,44.78922],[-68.71812,44.78955],[-68.71806,44.78975],[-68.71767,44.78982],[-68.71733,44.78957],[-68.71689,44.78956],[-68.71675,44.78978],[-68.71649,44.78979],[-68.71635,44.79002],[-68.71596,44.79011],[-68.71607,44.79002],[-68.7159,44.78988],[-68.71596,44.7897],[-68.71668,44.78934],[-68.71668,44.78901],[-68.71735,44.78845],[-68.71811,44.78836]]],[[[-68.71842,44.78889],[-68.71815,44.78835],[-68.71845,44.78854],[-68.71855,44.7888],[-68.71842,44.78889]]],[[[-68.71857,44.78922],[-68.71848,44.78902],[-68.71872,44.78919],[-68.71857,44.78922]]],[[[-68.71848,44.78902],[-68.71842,44.78891],[-68.71842,44.7889],[-68.71848,44.78902]]]]},"properties":{"fire_id":"ufid:2021-MEMES-21001755","source_collection":"history-2021","source_objectid":12971,"incident_name":"LAMBERT","mapped_acres":3.5,"mapped_acres_source":"poly_GISAcres","gis_acres":3.5,"auto_acres":5.08853104593242,"reported_acres":5.1,"percent_contained":null,"state":"ME","state_wfigs":"US-ME","county":"Penobscot","discovery_time_utc":"2021-03-22T17:02:00Z","perimeter_time_utc":"2021-03-22T22:02:00Z","perimeter_edit_time_utc":"2021-05-13T22:56:40Z","incident_modified_time_utc":"2021-05-13T22:56:39Z","containment_time_utc":"2021-03-22T18:09:00Z","control_time_utc":"2021-03-22T19:00:00Z","fire_out_time_utc":"2021-03-22T19:05:00Z","fire_cause":"Human","fire_cause_general":"Debris/Open Burning","map_method":"Auto-generated","source_dataset":"Decertified","unique_fire_identifier":"2021-MEMES-21001755","irwin_id":"{5FC55644-D656-4428-8AFF-E143F2921DDC}","global_id":"59ed6aaf-9faf-46ec-969e-f5cf13987093"}},{"type":"Feature","geometry":{"type":"Polygon","coordinates":[[[-69.18673,44.00153],[-69.18751,44.00166],[-69.18722,44.00207],[-69.18677,44.00221],[-69.18624,44.00192],[-69.18584,44.00199],[-69.18545,44.00167],[-69.18557,44.0015],[-69.18508,44.00122],[-69.18508,44.00096],[-69.18541,44.00079],[-69.18625,44.00106],[-69.18604,44.00141],[-69.18618,44.00144],[-69.18628,44.00124],[-69.18665,44.00127],[-69.18678,44.00133],[-69.18673,44.00153]]]},"properties":{"fire_id":"ufid:2021-MEMES-21003511","source_collection":"history-2021","source_objectid":13017,"incident_name":"Steel Cut Fire","mapped_acres":3.0,"mapped_acres_source":"poly_GISAcres","gis_acres":3.0,"auto_acres":3.5544174823466888,"reported_acres":3.6,"percent_contained":null,"state":"ME","state_wfigs":"US-ME","county":"Knox","discovery_time_utc":"2021-05-28T00:30:00Z","perimeter_time_utc":"2021-05-28T19:36:00Z","perimeter_edit_time_utc":"2023-03-14T15:13:42Z","incident_modified_time_utc":"2021-06-16T17:34:56Z","containment_time_utc":"2021-05-28T02:00:00Z","control_time_utc":"2021-05-28T02:00:00Z","fire_out_time_utc":"2021-05-28T16:00:00Z","fire_cause":"Human","fire_cause_general":"Equipment and vehicle use","map_method":"Auto-generated","source_dataset":"FFP","unique_fire_identifier":"2021-MEMES-21003511","irwin_id":"{71128317-7C95-49D5-977D-B59715E637D3}","global_id":"52a9a85a-8215-4e63-abb7-656603de5cfc"}},{"type":"Feature","geometry":{"type":"MultiPolygon","coordinates":[[[[-68.79672,44.86814],[-68.79727,44.86868],[-68.79731,44.86899],[-68.79676,44.86932],[-68.79661,44.86991],[-68.79592,44.87006],[-68.79589,44.86989],[-68.79543,44.8696],[-68.79533,44.86939],[-68.79557,44.8692],[-68.79594,44.86922],[-68.79602,44.86896],[-68.79572,44.86871],[-68.79597,44.8686],[-68.79625,44.86822],[-68.79672,44.86814]]],[[[-68.79682,44.86805],[-68.79716,44.86827],[-68.79725,44.86863],[-68.79677,44.86813],[-68.79682,44.86805]]]]},"properties":{"fire_id":"ufid:2021-MEMES-21003981","source_collection":"history-2021","source_objectid":15203,"incident_name":"Fatal Fox Fire","mapped_acres":5.0,"mapped_acres_source":"poly_GISAcres","gis_acres":5.0,"auto_acres":4.5670714050643895,"reported_acres":4.6,"percent_contained":null,"state":"ME","state_wfigs":"US-ME","county":"Penobscot","discovery_time_utc":"2021-06-18T17:52:00Z","perimeter_time_utc":"2023-02-13T16:21:55Z","perimeter_edit_time_utc":"2023-03-14T15:13:42Z","incident_modified_time_utc":"2022-02-23T15:26:36Z","containment_time_utc":"2021-06-18T20:32:00Z","control_time_utc":"2021-06-18T21:53:00Z","fire_out_time_utc":"2021-06-20T23:00:00Z","fire_cause":"Human","fire_cause_general":"Equipment and vehicle use","map_method":"Auto-generated","source_dataset":"FFP","unique_fire_identifier":"2021-MEMES-21003981","irwin_id":"{C102D8BA-B728-4F9E-B525-6E5645D2F885}","global_id":"3d38823c-c8dd-46df-8a0d-423599c0be20"}},{"type":"Feature","geometry":{"type":"Polygon","coordinates":[[[-69.50671,44.15556],[-69.5066,44.1558],[-69.50708,44.15605],[-69.50692,44.15657],[-69.50679,44.1566],[-69.50599,44.15613],[-69.50574,44.1561],[-69.50553,44.15551],[-69.50594,44.15512],[-69.5059,44.15504],[-69.5065,44.15485],[-69.50662,44.15495],[-69.50654,44.15503],[-69.50671,44.15556]]]},"properties":{"fire_id":"ufid:2021-MEMES-21003232","source_collection":"history-2021","source_objectid":15275,"incident_name":"Bunker Fire","mapped_acres":3.0,"mapped_acres_source":"poly_GISAcres","gis_acres":3.0,"auto_acres":3.287795063306881,"reported_acres":3.3,"percent_contained":null,"state":"ME","state_wfigs":"US-ME","county":"Lincoln","discovery_time_utc":"2021-05-03T18:25:00Z","perimeter_time_utc":"2023-02-12T19:34:28Z","perimeter_edit_time_utc":"2023-03-14T15:13:42Z","incident_modified_time_utc":"2021-05-25T19:38:25Z","containment_time_utc":"2021-05-03T19:45:00Z","control_time_utc":"2021-05-03T19:45:00Z","fire_out_time_utc":"2021-05-03T20:00:00Z","fire_cause":"Human","fire_cause_general":"Debris and open burning","map_method":"Auto-generated","source_dataset":"FFP","unique_fire_identifier":"2021-MEMES-21003232","irwin_id":"{FA225491-ECB6-4CAE-AB2A-497266522E95}","global_id":"2e17706e-8e38-471c-9f6e-6991858ed95a"}}]}
