{"type":"FeatureCollection","features":[{"type":"Feature","geometry":{"type":"Polygon","coordinates":[[[-70.66017,45.00021],[-70.66098,45.00042],[-70.6606,45.00063],[-70.66002,45.00046],[-70.66017,45.00021]]]},"properties":{"fire_id":"ufid:2021-MEMES-21003927","source_collection":"history-2021","source_objectid":7572,"incident_name":"Quarry Fire","mapped_acres":0.6,"mapped_acres_source":"poly_GISAcres","gis_acres":0.6,"auto_acres":0.5632967589266451,"reported_acres":0.6,"percent_contained":null,"state":"ME","state_wfigs":"US-ME","county":"Franklin","discovery_time_utc":"2021-06-15T02:30:00Z","perimeter_time_utc":"2021-06-15T07:30:00Z","perimeter_edit_time_utc":"2023-03-14T15:13:42Z","incident_modified_time_utc":"2021-06-15T18:53:44Z","containment_time_utc":null,"control_time_utc":null,"fire_out_time_utc":null,"fire_cause":"Human","fire_cause_general":"Debris and open burning","map_method":"Hand Sketch","source_dataset":"FFP","unique_fire_identifier":"2021-MEMES-21003927","irwin_id":"{5484354E-5A39-4B48-AD65-BDB440C3DAAB}","global_id":"85016dde-2af6-4277-9ee9-e629bfb1c7da"}}]}
