{"type":"FeatureCollection","features":[{"type":"Feature","geometry":{"type":"Polygon","coordinates":[[[-86.67005,46.55497],[-86.67005,46.55494],[-86.67007,46.55495],[-86.67005,46.55497]]]},"properties":{"fire_id":"ufid:2021-MIHIF-210364","source_collection":"history-2021","source_objectid":683,"incident_name":"364","mapped_acres":0.1,"mapped_acres_source":"poly_GISAcres","gis_acres":0.1,"auto_acres":0.00158456297792906,"reported_acres":0.1,"percent_contained":null,"state":"MI","state_wfigs":"US-MI","county":"Alger","discovery_time_utc":"2021-10-01T17:50:00Z","perimeter_time_utc":"2021-10-01T22:50:12Z","perimeter_edit_time_utc":"2021-10-04T20:22:40Z","incident_modified_time_utc":"2021-10-27T13:42:35Z","containment_time_utc":"2021-10-01T20:32:00Z","control_time_utc":"2021-10-04T19:55:00Z","fire_out_time_utc":"2021-10-04T19:55:00Z","fire_cause":"Natural","fire_cause_general":"Lightning","map_method":"Hand Sketch","source_dataset":"2021 NIFS","unique_fire_identifier":"2021-MIHIF-210364","irwin_id":"{40D48B58-F3A5-44BB-94FA-40E493662A3E}","global_id":"942d7e33-898d-42d3-a74f-6c57c243d282"}},{"type":"Feature","geometry":{"type":"Polygon","coordinates":[[[-88.74427,46.66648],[-88.74429,46.66663],[-88.74414,46.66667],[-88.74399,46.66696],[-88.74418,46.66695],[-88.74417,46.66714],[-88.74391,46.66713],[-88.74387,46.66732],[-88.74355,46.66733],[-88.74333,46.6675],[-88.74316,46.66742],[-88.74346,46.66736],[-88.74347,46.66725],[-88.74319,46.66718],[-88.74262,46.66727],[-88.74245,46.6671],[-88.74103,46.66713],[-88.7415,46.66678],[-88.74213,46.66656],[-88.74248,46.66661],[-88.74267,46.6664],[-88.74294,46.66657],[-88.74317,46.66638],[-88.74427,46.66648]]]},"properties":{"fire_id":"ufid:2021-MIOTF-210286","source_collection":"history-2021","source_objectid":5176,"incident_name":"Silver Mountain","mapped_acres":0.1,"mapped_acres_source":"poly_GISAcres","gis_acres":0.1,"auto_acres":4.047167354557937,"reported_acres":4.3,"percent_contained":null,"state":"MI","state_wfigs":"US-MI","county":"Houghton","discovery_time_utc":"2021-06-07T18:24:00Z","perimeter_time_utc":"2021-06-07T23:24:00Z","perimeter_edit_time_utc":"2023-03-14T15:13:42Z","incident_modified_time_utc":"2021-06-23T18:35:12Z","containment_time_utc":"2021-06-07T22:24:00Z","control_time_utc":"2021-06-10T17:57:00Z","fire_out_time_utc":"2021-06-14T17:56:00Z","fire_cause":"Undetermined","fire_cause_general":"Undetermined","map_method":"Auto-generated","source_dataset":"FFP","unique_fire_identifier":"2021-MIOTF-210286","irwin_id":"{AD3B4D33-73DE-4BE0-B22B-808E5509928F}","global_id":"6a01ee29-215d-4a91-9ff1-57d9032b88e6"}},{"type":"Feature","geometry":{"type":"Polygon","coordinates":[[[-86.00918,46.66825],[-86.00961,46.66811],[-86.00977,46.66819],[-86.00918,46.66825]]]},"properties":{"fire_id":"ufid:2021-MIPRP-210003","source_collection":"history-2021","source_objectid":7004,"incident_name":"Sable Falls","mapped_acres":0.1,"mapped_acres_source":"poly_GISAcres","gis_acres":0.1,"auto_acres":0.08921222776778955,"reported_acres":0.1,"percent_contained":null,"state":"MI","state_wfigs":"US-MI","county":"Alger","discovery_time_utc":"2021-11-19T03:30:37Z","perimeter_time_utc":"2021-11-19T09:30:37Z","perimeter_edit_time_utc":"2023-03-14T15:13:42Z","incident_modified_time_utc":"2021-12-08T17:40:32Z","containment_time_utc":null,"control_time_utc":null,"fire_out_time_utc":"2021-12-08T17:34:25Z","fire_cause":"Human","fire_cause_general":"Equipment and vehicle use","map_method":"Hand Sketch","source_dataset":"FFP","unique_fire_identifier":"2021-MIPRP-210003","irwin_id":"{09EEC4CD-4E03-4AFD-A509-6DE74C16EBC0}","global_id":"4ce00fd6-8cb8-48ed-a2c1-43de5170b45b"}},{"type":"Feature","geometry":{"type":"Polygon","coordinates":[[[-86.22567,46.62546],[-86.22549,46.62687],[-86.22444,46.62705],[-86.22372,46.62702],[-86.22285,46.62678],[-86.22257,46.62656],[-86.22257,46.62577],[-86.22356,46.62527],[-86.22567,46.62546]]]},"properties":{"fire_id":"ufid:2021-MIPRP-210002","source_collection":"history-2021","source_objectid":8031,"incident_name":"Sable point fire","mapped_acres":9.621317,"mapped_acres_source":"poly_GISAcres","gis_acres":9.621317,"auto_acres":9.621278604448321,"reported_acres":9.6,"percent_contained":null,"state":"MI","state_wfigs":"US-MI","county":"Alger","discovery_time_utc":"2021-07-19T20:00:21Z","perimeter_time_utc":null,"perimeter_edit_time_utc":"2023-03-14T15:13:42Z","incident_modified_time_utc":"2021-08-03T19:49:46Z","containment_time_utc":null,"control_time_utc":null,"fire_out_time_utc":"2021-07-29T18:00:00Z","fire_cause":"Human","fire_cause_general":"Recreation and ceremony","map_method":"Mixed Methods","source_dataset":"FFP","unique_fire_identifier":"2021-MIPRP-210002","irwin_id":"{1224D84F-8768-44B9-80CE-80C6A6D0F303}","global_id":"e9650c00-13cd-49ee-9a2f-e51f8ce00252"}},{"type":"Feature","geometry":{"type":"Polygon","coordinates":[[[-89.12499,46.17936],[-89.12546,46.17912],[-89.12607,46.1792],[-89.126,46.17933],[-89.12521,46.1796],[-89.12499,46.17954],[-89.12499,46.17936]]]},"properties":{"fire_id":"ufid:2021-MIOTF-210234","source_collection":"history-2021","source_objectid":8188,"incident_name":"Scout Lake","mapped_acres":0.7387316819008488,"mapped_acres_source":"poly_Acres_AutoCalc_fallback","gis_acres":null,"auto_acres":0.7387316819008488,"reported_acres":0.8,"percent_contained":null,"state":"MI","state_wfigs":"US-MI","county":"Gogebic","discovery_time_utc":"2021-05-17T22:28:00Z","perimeter_time_utc":"2021-05-28T14:22:47Z","perimeter_edit_time_utc":"2023-03-14T15:13:42Z","incident_modified_time_utc":"2021-06-01T16:40:55Z","containment_time_utc":"2021-05-17T23:42:00Z","control_time_utc":"2021-05-18T21:18:00Z","fire_out_time_utc":"2021-05-21T17:30:00Z","fire_cause":"Human","fire_cause_general":"Recreation and ceremony","map_method":"Hand Sketch","source_dataset":"FFP","unique_fire_identifier":"2021-MIOTF-210234","irwin_id":"{019027AE-7EAA-46D4-97C1-B659B205BCAF}","global_id":"3986e149-f778-4e4a-8829-420dc937b649"}},{"type":"Feature","geometry":{"type":"Polygon","coordinates":[[[-86.68251,46.49612],[-86.68235,46.496],[-86.68262,46.49598],[-86.68251,46.49612]]]},"properties":{"fire_id":"ufid:2021-MIHIF-210331","source_collection":"history-2021","source_objectid":10201,"incident_name":"Hemlock","mapped_acres":0.1,"mapped_acres_source":"poly_GISAcres","gis_acres":0.1,"auto_acres":0.059908686360726604,"reported_acres":0.1,"percent_contained":null,"state":"MI","state_wfigs":"US-MI","county":"Alger","discovery_time_utc":"2021-07-21T12:57:00Z","perimeter_time_utc":"2021-07-21T17:57:00Z","perimeter_edit_time_utc":"2023-03-14T15:13:42Z","incident_modified_time_utc":"2021-07-26T15:24:37Z","containment_time_utc":"2021-07-22T15:05:00Z","control_time_utc":"2021-07-22T16:37:00Z","fire_out_time_utc":"2021-07-22T16:37:00Z","fire_cause":"Human","fire_cause_general":"Recreation and ceremony","map_method":"Hand Sketch","source_dataset":"FFP","unique_fire_identifier":"2021-MIHIF-210331","irwin_id":"{C9C73207-1E33-4A07-9573-38066AB30D9C}","global_id":"d8bd611a-ddb0-4430-9558-a3ccab64a274"}},{"type":"Feature","geometry":{"type":"Polygon","coordinates":[[[-89.26189,46.19745],[-89.26187,46.1975],[-89.26182,46.1975],[-89.26189,46.19745]]]},"properties":{"fire_id":"ufid:2021-MIOTF-210354","source_collection":"history-2021","source_objectid":10506,"incident_name":"Deer","mapped_acres":0.1,"mapped_acres_source":"poly_GISAcres","gis_acres":0.1,"auto_acres":0.007654696401918264,"reported_acres":0.1,"percent_contained":null,"state":"MI","state_wfigs":"US-MI","county":"Gogebic","discovery_time_utc":"2021-09-01T14:00:00Z","perimeter_time_utc":"2021-09-02T02:20:00Z","perimeter_edit_time_utc":"2023-03-14T15:13:42Z","incident_modified_time_utc":"2021-09-08T13:17:20Z","containment_time_utc":"2021-09-03T17:20:00Z","control_time_utc":"2021-09-04T15:20:00Z","fire_out_time_utc":"2021-09-05T14:15:00Z","fire_cause":"Human","fire_cause_general":"Recreation and ceremony","map_method":"Auto-generated","source_dataset":"FFP","unique_fire_identifier":"2021-MIOTF-210354","irwin_id":"{A568664C-21B1-4D81-9822-85B5149F4D31}","global_id":"7f3ab0c1-ea94-420c-8cb8-2945b83b905b"}},{"type":"Feature","geometry":{"type":"Polygon","coordinates":[[[-89.25179,46.24348],[-89.25183,46.24351],[-89.25178,46.24351],[-89.25179,46.24348]]]},"properties":{"fire_id":"ufid:2021-MIOTF-210291","source_collection":"history-2021","source_objectid":10602,"incident_name":"Wolf","mapped_acres":1.0,"mapped_acres_source":"poly_GISAcres","gis_acres":1.0,"auto_acres":0.00272831817771815,"reported_acres":0.1,"percent_contained":null,"state":"MI","state_wfigs":"US-MI","county":"Gogebic","discovery_time_utc":"2021-06-11T17:41:00Z","perimeter_time_utc":"2021-06-11T22:41:59Z","perimeter_edit_time_utc":"2023-03-14T15:13:42Z","incident_modified_time_utc":"2021-06-22T16:57:03Z","containment_time_utc":"2021-06-11T19:05:00Z","control_time_utc":"2021-06-12T16:34:00Z","fire_out_time_utc":"2021-06-21T15:02:00Z","fire_cause":"Human","fire_cause_general":"Camping","map_method":"Hand Sketch","source_dataset":"Decertified","unique_fire_identifier":"2021-MIOTF-210291","irwin_id":"{8F3E8E84-6CA3-4D90-B0F6-032989F7CD12}","global_id":"863a3e87-9471-41fa-8127-dea4507896de"}},{"type":"Feature","geometry":{"type":"Polygon","coordinates":[[[-89.39622,46.56191],[-89.39627,46.56191],[-89.39624,46.56227],[-89.39622,46.56191]]]},"properties":{"fire_id":"ufid:2021-MIOTF-210300","source_collection":"history-2021","source_objectid":10608,"incident_name":"Norwich UTL","mapped_acres":1.0,"mapped_acres_source":"poly_GISAcres","gis_acres":1.0,"auto_acres":0.03911235463920599,"reported_acres":0.1,"percent_contained":null,"state":"MI","state_wfigs":"US-MI","county":"Ontonagon","discovery_time_utc":"2021-06-16T16:18:38Z","perimeter_time_utc":"2021-06-16T21:18:38Z","perimeter_edit_time_utc":"2023-03-14T15:13:42Z","incident_modified_time_utc":"2021-06-22T16:57:55Z","containment_time_utc":"2021-06-18T16:30:00Z","control_time_utc":"2021-06-18T16:30:00Z","fire_out_time_utc":"2021-06-20T18:34:00Z","fire_cause":"Undetermined","fire_cause_general":"Undetermined","map_method":"Hand Sketch","source_dataset":"Decertified","unique_fire_identifier":"2021-MIOTF-210300","irwin_id":"{3A3CAA47-83A2-4588-AF21-7A3CA9A7390C}","global_id":"096cfc85-fc1c-4c20-8750-d69035b05eef"}},{"type":"Feature","geometry":{"type":"Polygon","coordinates":[[[-88.41113,46.77518],[-88.41082,46.77504],[-88.41077,46.77484],[-88.41113,46.77518]]]},"properties":{"fire_id":"ufid:2021-MIMIA-210351","source_collection":"history-2021","source_objectid":11297,"incident_name":"Pond","mapped_acres":0.3,"mapped_acres_source":"poly_GISAcres","gis_acres":0.3,"auto_acres":0.10121824049336935,"reported_acres":0.3,"percent_contained":null,"state":"MI","state_wfigs":"US-MI","county":"Baraga","discovery_time_utc":"2021-08-26T22:28:00Z","perimeter_time_utc":"2021-08-27T03:28:00Z","perimeter_edit_time_utc":"2023-03-14T15:13:42Z","incident_modified_time_utc":"2021-08-30T17:19:36Z","containment_time_utc":"2021-08-27T14:11:00Z","control_time_utc":"2021-08-30T17:10:00Z","fire_out_time_utc":"2021-08-30T17:10:00Z","fire_cause":"Human","fire_cause_general":"Debris and open burning","map_method":"Hand Sketch","source_dataset":"FFP","unique_fire_identifier":"2021-MIMIA-210351","irwin_id":"{A0150A1D-D4B3-4129-B902-3BF8EAD39AB2}","global_id":"86c1f6ab-e531-41f6-be51-bee09a82bacc"}},{"type":"Feature","geometry":{"type":"MultiPolygon","coordinates":[[[[-88.46995,48.16757],[-88.46857,48.16704],[-88.46728,48.1659],[-88.46729,48.16546],[-88.46787,48.16503],[-88.46806,48.16468],[-88.46929,48.16416],[-88.46913,48.1635],[-88.46892,48.16329],[-88.46823,48.16357],[-88.46812,48.16392],[-88.46799,48.16384],[-88.46781,48.16402],[-88.46708,48.16409],[-88.46631,48.1648],[-88.46657,48.16492],[-88.46646,48.16508],[-88.46618,48.16507],[-88.46601,48.16535],[-88.4657,48.16534],[-88.46565,48.16548],[-88.46513,48.16558],[-88.46517,48.16584],[-88.46499,48.16594],[-88.46498,48.16609],[-88.46478,48.16588],[-88.46442,48.16595],[-88.46448,48.16613],[-88.4635,48.16611],[-88.4635,48.16585],[-88.46311,48.16559],[-88.46376,48.16504],[-88.46678,48.1631],[-88.46856,48.16226],[-88.4694,48.16157],[-88.47021,48.16117],[-88.47044,48.16086],[-88.46957,48.16099],[-88.46922,48.16094],[-88.46917,48.16083],[-88.46945,48.16056],[-88.47055,48.16012],[-88.46966,48.16009],[-88.46953,48.15996],[-88.47135,48.15902],[-88.47181,48.15917],[-88.47253,48.15899],[-88.47321,48.15924],[-88.47456,48.1591],[-88.4769,48.15845],[-88.47851,48.15863],[-88.48053,48.15837],[-88.48644,48.15672],[-88.48719,48.15627],[-88.49213,48.15508],[-88.49326,48.15451],[-88.50083,48.15258],[-88.50094,48.15243],[-88.50179,48.15251],[-88.50216,48.15269],[-88.50203,48.15318],[-88.50149,48.15359],[-88.50145,48.15376],[-88.50268,48.15345],[-88.50286,48.15352],[-88.50277,48.15384],[-88.50283,48.15464],[-88.50272,48.15465],[-88.50282,48.15474],[-88.5026,48.15511],[-88.50294,48.1553],[-88.50258,48.15558],[-88.49553,48.15946],[-88.49214,48.16116],[-88.49144,48.1608],[-88.4915,48.16072],[-88.49107,48.16043],[-88.49023,48.16089],[-88.49,48.16063],[-88.48971,48.16068],[-88.48956,48.16094],[-88.48917,48.1611],[-88.48923,48.16124],[-88.48911,48.16131],[-88.48668,48.16213],[-88.48605,48.16166],[-88.48549,48.16166],[-88.48498,48.16192],[-88.48461,48.16178],[-88.48387,48.16177],[-88.48189,48.16255],[-88.4787,48.16461],[-88.47821,48.16597],[-88.479,48.16622],[-88.48051,48.16592],[-88.48269,48.16496],[-88.4838,48.16488],[-88.48409,48.16513],[-88.48485,48.16544],[-88.48507,48.16576],[-88.48442,48.16647],[-88.48405,48.16661],[-88.48378,48.16646],[-88.4834,48.16645],[-88.4825,48.16695],[-88.48235,48.16723],[-88.48176,48.16768],[-88.48133,48.16772],[-88.47928,48.16742],[-88.47602,48.1692],[-88.47508,48.16958],[-88.47438,48.16964],[-88.47301,48.16927],[-88.47185,48.16867],[-88.47109,48.16844],[-88.46995,48.16757]]],[[[-88.45532,48.16494],[-88.4542,48.165],[-88.45409,48.16486],[-88.45438,48.16465],[-88.45464,48.1641],[-88.45529,48.16378],[-88.45571,48.16335],[-88.45815,48.16275],[-88.45859,48.16247],[-88.45912,48.16276],[-88.45902,48.16301],[-88.45788,48.16387],[-88.45532,48.16494]]]]},"properties":{"fire_id":"ufid:2021-MIIRP-2021000001","source_collection":"history-2021","source_objectid":13493,"incident_name":"Horne","mapped_acres":521.0,"mapped_acres_source":"poly_GISAcres","gis_acres":521.0,"auto_acres":485.70699484133,"reported_acres":521.0,"percent_contained":85.0,"state":"MI","state_wfigs":"US-MI","county":"Keweenaw","discovery_time_utc":"2021-08-10T19:02:16Z","perimeter_time_utc":"2021-09-05T16:00:00Z","perimeter_edit_time_utc":"2021-09-07T14:40:08Z","incident_modified_time_utc":"2022-06-10T14:36:53Z","containment_time_utc":"2022-06-06T17:00:00Z","control_time_utc":"2021-10-28T17:00:00Z","fire_out_time_utc":"2022-06-10T13:30:00Z","fire_cause":"Natural","fire_cause_general":"Lightning","map_method":"Mixed Methods","source_dataset":"2021 NIFS","unique_fire_identifier":"2021-MIIRP-2021000001","irwin_id":"{471B706D-DBF3-47DB-9ECE-E3FB97E4FEF8}","global_id":"027e67ca-4652-41ab-954c-386b780454a3"}}]}
