{"type":"FeatureCollection","features":[{"type":"Feature","geometry":{"type":"Polygon","coordinates":[[[-93.27077,43.50206],[-93.27044,43.50164],[-93.27138,43.50094],[-93.27185,43.50091],[-93.2725,43.50186],[-93.27235,43.50258],[-93.27183,43.50285],[-93.27077,43.50206]]]},"properties":{"fire_id":"ufid:2021-MNMNS-343020","source_collection":"history-2021","source_objectid":2080,"incident_name":"Panicum","mapped_acres":2.0,"mapped_acres_source":"poly_GISAcres","gis_acres":2.0,"auto_acres":5.33698094813438,"reported_acres":5.34,"percent_contained":null,"state":"MN","state_wfigs":"US-MN","county":"Freeborn","discovery_time_utc":"2021-11-27T10:52:00Z","perimeter_time_utc":"2021-11-29T20:38:51Z","perimeter_edit_time_utc":"2021-11-29T18:37:16Z","incident_modified_time_utc":"2022-01-11T22:08:56Z","containment_time_utc":"2021-11-27T11:50:00Z","control_time_utc":"2021-11-27T12:10:00Z","fire_out_time_utc":"2021-11-28T20:31:00Z","fire_cause":"Human","fire_cause_general":"Other Human Cause","map_method":"Hand Sketch","source_dataset":"2021 NIFS","unique_fire_identifier":"2021-MNMNS-343020","irwin_id":"{94407E48-EC2F-4242-BA26-7E26F3EFFA06}","global_id":"aff66bda-9477-4910-bbd8-bcf10716f492"}},{"type":"Feature","geometry":{"type":"Polygon","coordinates":[[[-93.26738,44.7948],[-93.2688,44.79412],[-93.26945,44.79557],[-93.26806,44.79535],[-93.26738,44.7948]]]},"properties":{"fire_id":"ufid:2021-MNMNS-341009","source_collection":"history-2021","source_objectid":4593,"incident_name":"Cliff Road","mapped_acres":8.0,"mapped_acres_source":"poly_GISAcres","gis_acres":8.0,"auto_acres":3.3832572498205877,"reported_acres":8.0,"percent_contained":null,"state":"MN","state_wfigs":"US-MN","county":"Dakota","discovery_time_utc":"2021-04-21T13:45:00Z","perimeter_time_utc":"2021-04-21T18:45:00Z","perimeter_edit_time_utc":"2023-03-14T15:13:42Z","incident_modified_time_utc":"2022-01-10T16:45:48Z","containment_time_utc":"2021-04-21T14:55:00Z","control_time_utc":"2021-04-21T14:55:00Z","fire_out_time_utc":"2021-04-21T16:00:00Z","fire_cause":"Undetermined","fire_cause_general":"Undetermined","map_method":"Hand Sketch","source_dataset":"FFP","unique_fire_identifier":"2021-MNMNS-341009","irwin_id":"{348AC3D3-2C28-4054-991C-712016957F8F}","global_id":"c4779192-6827-4ace-bc90-1547085ad60c"}},{"type":"Feature","geometry":{"type":"Polygon","coordinates":[[[-92.64149,44.21009],[-92.64181,44.21028],[-92.64176,44.21036],[-92.64163,44.21044],[-92.64136,44.21027],[-92.64149,44.21009]]]},"properties":{"fire_id":"ufid:2021-MNMNS-341004","source_collection":"history-2021","source_objectid":5562,"incident_name":"PI Ditch","mapped_acres":0.1,"mapped_acres_source":"poly_GISAcres","gis_acres":0.1,"auto_acres":0.17860938376242805,"reported_acres":0.1,"percent_contained":null,"state":"MN","state_wfigs":"US-MN","county":"Goodhue","discovery_time_utc":"2021-04-03T15:05:17Z","perimeter_time_utc":"2021-04-03T20:05:17Z","perimeter_edit_time_utc":"2023-03-14T15:13:42Z","incident_modified_time_utc":"2022-01-10T16:51:03Z","containment_time_utc":"2021-04-03T15:15:08Z","control_time_utc":"2021-04-03T15:15:08Z","fire_out_time_utc":"2021-04-03T15:16:08Z","fire_cause":"Human","fire_cause_general":"Equipment and vehicle use","map_method":"Hand Sketch","source_dataset":"FFP","unique_fire_identifier":"2021-MNMNS-341004","irwin_id":"{8BBA0E12-2E4B-4B50-9A54-BB1D161804A1}","global_id":"e7a06068-eff0-491c-b93b-32d371d302b5"}},{"type":"Feature","geometry":{"type":"Polygon","coordinates":[[[-92.5121,44.5399],[-92.51256,44.5399],[-92.51351,44.54051],[-92.51352,44.54096],[-92.51328,44.54132],[-92.51331,44.54194],[-92.51304,44.54165],[-92.51305,44.54208],[-92.51336,44.54244],[-92.5132,44.54255],[-92.51272,44.54242],[-92.51219,44.54262],[-92.51248,44.54289],[-92.51253,44.54301],[-92.51233,44.54312],[-92.51267,44.54349],[-92.51265,44.54431],[-92.51404,44.54545],[-92.51393,44.54553],[-92.51306,44.54542],[-92.51283,44.54521],[-92.51233,44.54522],[-92.51214,44.54512],[-92.51197,44.5447],[-92.51172,44.54476],[-92.51152,44.54513],[-92.51193,44.54362],[-92.51161,44.54304],[-92.51135,44.54291],[-92.51143,44.54015],[-92.5121,44.5399]]]},"properties":{"fire_id":"ufid:2021-MNMNS-341006","source_collection":"history-2021","source_objectid":8049,"incident_name":"solar garden fire","mapped_acres":16.624065696527648,"mapped_acres_source":"poly_Acres_AutoCalc_fallback","gis_acres":null,"auto_acres":16.624065696527648,"reported_acres":17.0,"percent_contained":null,"state":"MN","state_wfigs":"US-MN","county":"Goodhue","discovery_time_utc":"2021-04-03T17:05:00Z","perimeter_time_utc":"2021-04-06T10:47:21Z","perimeter_edit_time_utc":"2023-03-14T15:13:42Z","incident_modified_time_utc":"2022-01-10T16:50:31Z","containment_time_utc":null,"control_time_utc":"2021-04-04T01:30:00Z","fire_out_time_utc":"2021-04-05T14:30:00Z","fire_cause":"Human","fire_cause_general":"Other causes","map_method":"Hand Sketch","source_dataset":"FFP","unique_fire_identifier":"2021-MNMNS-341006","irwin_id":"{0EBA4590-255F-4E35-B494-3DD3AE1F5434}","global_id":"87ed1bef-5678-4be4-8eda-f187710c6a99"}},{"type":"Feature","geometry":{"type":"Polygon","coordinates":[[[-94.79893,44.11601],[-94.79881,44.11598],[-94.79895,44.11596],[-94.79893,44.11601]]]},"properties":{"fire_id":"ufid:2021-MNMNS-343001","source_collection":"history-2021","source_objectid":9150,"incident_name":"Wood Lake WMA Fire","mapped_acres":0.01499276529941784,"mapped_acres_source":"poly_Acres_AutoCalc_fallback","gis_acres":null,"auto_acres":0.01499276529941784,"reported_acres":0.1,"percent_contained":null,"state":"MN","state_wfigs":"US-MN","county":"Brown","discovery_time_utc":"2021-03-10T03:15:00Z","perimeter_time_utc":"2021-03-15T20:47:23Z","perimeter_edit_time_utc":"2023-03-14T15:13:42Z","incident_modified_time_utc":"2021-12-07T20:38:59Z","containment_time_utc":"2021-03-10T04:20:00Z","control_time_utc":"2021-03-10T04:25:00Z","fire_out_time_utc":"2021-03-10T04:30:00Z","fire_cause":"Undetermined","fire_cause_general":"Undetermined","map_method":"Hand Sketch","source_dataset":"FFP","unique_fire_identifier":"2021-MNMNS-343001","irwin_id":"{60813CB6-89EF-4C0C-BA6F-A057F675002A}","global_id":"745e11b9-85d8-442b-a3d6-de222f2bd045"}},{"type":"Feature","geometry":{"type":"Polygon","coordinates":[[[-93.28833,44.48729],[-93.28893,44.48751],[-93.28923,44.48818],[-93.28841,44.48834],[-93.28764,44.48916],[-93.28717,44.49023],[-93.28674,44.49057],[-93.28614,44.49464],[-93.28498,44.49495],[-93.28434,44.49455],[-93.28412,44.49357],[-93.27773,44.49351],[-93.27743,44.49241],[-93.27996,44.4914],[-93.28232,44.49017],[-93.28245,44.48993],[-93.28511,44.48901],[-93.2873,44.48766],[-93.28833,44.48729]]]},"properties":{"fire_id":"ufid:2021-MNMNS-343007","source_collection":"history-2021","source_objectid":9261,"incident_name":"Hazelwood","mapped_acres":76.97366109336893,"mapped_acres_source":"poly_Acres_AutoCalc_fallback","gis_acres":null,"auto_acres":76.97366109336893,"reported_acres":90.0,"percent_contained":null,"state":"MN","state_wfigs":"US-MN","county":"Rice","discovery_time_utc":"2021-04-04T17:45:46Z","perimeter_time_utc":"2021-04-15T14:02:51Z","perimeter_edit_time_utc":"2023-03-14T15:13:42Z","incident_modified_time_utc":"2021-12-07T20:35:42Z","containment_time_utc":null,"control_time_utc":"2021-04-04T20:26:00Z","fire_out_time_utc":"2021-04-08T14:05:00Z","fire_cause":"Human","fire_cause_general":"Debris and open burning","map_method":"Hand Sketch","source_dataset":"FFP","unique_fire_identifier":"2021-MNMNS-343007","irwin_id":"{F733EF02-851C-4401-944D-0C448100E790}","global_id":"fb05f824-088f-4126-b179-14ba14e89078"}},{"type":"Feature","geometry":{"type":"Polygon","coordinates":[[[-92.92453,44.79736],[-92.92967,44.79728],[-92.93079,44.80139],[-92.93165,44.8017],[-92.93183,44.80341],[-92.9295,44.80347],[-92.92915,44.80243],[-92.92832,44.8027],[-92.9284,44.80349],[-92.92751,44.80347],[-92.92676,44.80212],[-92.92632,44.80058],[-92.92527,44.79943],[-92.92561,44.79845],[-92.92453,44.79736]]]},"properties":{"fire_id":"ufid:2021-MNMNS-344080","source_collection":"history-2021","source_objectid":10252,"incident_name":"Two Swamp Fire","mapped_acres":60.0,"mapped_acres_source":"poly_GISAcres","gis_acres":60.0,"auto_acres":59.87718056731227,"reported_acres":46.0,"percent_contained":null,"state":"MN","state_wfigs":"US-MN","county":"Washington","discovery_time_utc":"2021-04-30T19:27:46Z","perimeter_time_utc":"2021-05-01T00:27:46Z","perimeter_edit_time_utc":"2023-03-14T15:13:42Z","incident_modified_time_utc":"2022-01-11T18:27:54Z","containment_time_utc":"2021-04-30T22:57:00Z","control_time_utc":"2021-04-30T22:57:00Z","fire_out_time_utc":"2021-05-28T17:00:00Z","fire_cause":"Human","fire_cause_general":"Debris and open burning","map_method":"Hand Sketch","source_dataset":"FFP","unique_fire_identifier":"2021-MNMNS-344080","irwin_id":"{88456AB7-0911-47DD-A669-378E8A3C75B4}","global_id":"d7c9a018-c8e4-45ff-8419-0dc8e69f7b87"}},{"type":"Feature","geometry":{"type":"Polygon","coordinates":[[[-93.70841,44.10342],[-93.70781,44.1033],[-93.70798,44.1029],[-93.70832,44.10259],[-93.70841,44.10342]]]},"properties":{"fire_id":"ufid:2021-MNMNS-343011","source_collection":"history-2021","source_objectid":10698,"incident_name":"Quade grass","mapped_acres":0.6276841539899918,"mapped_acres_source":"poly_Acres_AutoCalc_fallback","gis_acres":null,"auto_acres":0.6276841539899918,"reported_acres":0.5,"percent_contained":null,"state":"MN","state_wfigs":"US-MN","county":"Waseca","discovery_time_utc":"2021-06-24T00:54:09Z","perimeter_time_utc":"2021-07-01T19:03:46Z","perimeter_edit_time_utc":"2023-03-14T15:13:42Z","incident_modified_time_utc":"2021-12-07T20:26:27Z","containment_time_utc":"2021-06-24T01:06:00Z","control_time_utc":"2021-06-24T01:07:00Z","fire_out_time_utc":"2021-06-24T01:10:00Z","fire_cause":"Human","fire_cause_general":"Other causes","map_method":"Hand Sketch","source_dataset":"FFP","unique_fire_identifier":"2021-MNMNS-343011","irwin_id":"{83628A28-C206-4076-A17D-C46856F3EE6C}","global_id":"2437f5d1-25e8-495f-82d8-bba9bd9b4979"}},{"type":"Feature","geometry":{"type":"Polygon","coordinates":[[[-93.19599,44.89833],[-93.19583,44.8982],[-93.1961,44.89805],[-93.19647,44.89793],[-93.1968,44.89799],[-93.19685,44.89821],[-93.19599,44.89833]]]},"properties":{"fire_id":"ufid:2021-MNMSP-210001","source_collection":"history-2021","source_objectid":12963,"incident_name":"Coldwater Springs","mapped_acres":0.5,"mapped_acres_source":"poly_GISAcres","gis_acres":0.5,"auto_acres":0.5901994781797678,"reported_acres":0.5,"percent_contained":null,"state":"MN","state_wfigs":"US-MN","county":"Hennepin","discovery_time_utc":"2021-03-20T16:16:15Z","perimeter_time_utc":"2021-03-20T21:16:15Z","perimeter_edit_time_utc":"2023-03-14T15:13:42Z","incident_modified_time_utc":"2021-04-16T21:25:47Z","containment_time_utc":null,"control_time_utc":null,"fire_out_time_utc":"2021-04-15T19:42:57Z","fire_cause":"Human","fire_cause_general":"Other causes","map_method":"Hand Sketch","source_dataset":"FFP","unique_fire_identifier":"2021-MNMSP-210001","irwin_id":"{A472B0C5-916A-4F46-ACE6-EE101362A870}","global_id":"c932769c-7ad5-4caf-9a25-94166fc22eb5"}}]}
