{"type":"FeatureCollection","features":[{"type":"Feature","geometry":{"type":"Polygon","coordinates":[[[-97.03473,33.9577],[-97.03395,33.95658],[-97.03551,33.95658],[-97.03473,33.9577]]]},"properties":{"fire_id":"ufid:2021-MNMNS-261007","source_collection":"history-2021","source_objectid":49952,"incident_name":"ARK","mapped_acres":2.2,"mapped_acres_source":"poly_GISAcres","gis_acres":2.2,"auto_acres":23.492784886162767,"reported_acres":18.0,"percent_contained":null,"state":"MN","state_wfigs":"US-MN","county":"Koochiching","discovery_time_utc":"2021-05-25T20:01:13Z","perimeter_time_utc":"2026-01-02T17:00:37Z","perimeter_edit_time_utc":"2026-01-02T16:59:29Z","incident_modified_time_utc":"2022-01-10T19:32:22Z","containment_time_utc":null,"control_time_utc":"2021-05-26T00:00:00Z","fire_out_time_utc":"2021-05-28T14:00:00Z","fire_cause":"Undetermined","fire_cause_general":"Undetermined","map_method":"Auto-generated for InFORM","source_dataset":"FFP","unique_fire_identifier":"2021-MNMNS-261007","irwin_id":"{C1CE8775-D4FF-42E2-8AF9-FB625C983D54}","global_id":"607cae75-d14f-4844-b5f0-21589890e647"}}]}
