{"type":"FeatureCollection","features":[{"type":"Feature","geometry":{"type":"Polygon","coordinates":[[[-89.74805,47.91429],[-89.74708,47.91495],[-89.74705,47.91491],[-89.74805,47.91429]]]},"properties":{"fire_id":"ufid:2021-MNGPA-202101","source_collection":"history-2021","source_objectid":8736,"incident_name":"Nine Starts","mapped_acres":0.11,"mapped_acres_source":"poly_GISAcres","gis_acres":0.11,"auto_acres":0.11016620216207688,"reported_acres":1.0,"percent_contained":null,"state":"MN","state_wfigs":"US-MN","county":"Cook","discovery_time_utc":"2021-06-03T22:40:10Z","perimeter_time_utc":"2021-06-08T08:00:00Z","perimeter_edit_time_utc":"2023-03-14T15:13:42Z","incident_modified_time_utc":"2022-01-25T04:47:09Z","containment_time_utc":null,"control_time_utc":null,"fire_out_time_utc":"2021-06-03T22:55:00Z","fire_cause":"Human","fire_cause_general":"Equipment and vehicle use","map_method":"Mixed Methods","source_dataset":"FFP","unique_fire_identifier":"2021-MNGPA-202101","irwin_id":"{5F93F70B-88D9-494A-AF6E-B485E212783D}","global_id":"874a99bb-b6d6-4062-ac64-85cbccee98a7"}}]}
