{"type":"FeatureCollection","features":[{"type":"Feature","geometry":{"type":"Polygon","coordinates":[[[-80.38496,36.35263],[-80.38421,36.35284],[-80.38386,36.35321],[-80.38296,36.35367],[-80.38286,36.35379],[-80.38313,36.35394],[-80.38301,36.35422],[-80.38232,36.3549],[-80.38185,36.35497],[-80.38094,36.35455],[-80.38101,36.35441],[-80.38089,36.3542],[-80.38025,36.35356],[-80.38005,36.35311],[-80.38004,36.35276],[-80.38031,36.35262],[-80.38082,36.35262],[-80.38079,36.35249],[-80.3812,36.35199],[-80.381,36.35164],[-80.38132,36.35149],[-80.38149,36.35122],[-80.3813,36.35075],[-80.38138,36.35039],[-80.3817,36.35032],[-80.38184,36.35056],[-80.38217,36.35069],[-80.38275,36.35065],[-80.38374,36.34997],[-80.384,36.3503],[-80.38556,36.35073],[-80.38584,36.35043],[-80.38606,36.35038],[-80.38652,36.35079],[-80.38643,36.3511],[-80.38593,36.35133],[-80.38583,36.35158],[-80.38515,36.35219],[-80.38496,36.35263]]]},"properties":{"fire_id":"ufid:2021-NCNCS-210031","source_collection":"history-2021","source_objectid":1840,"incident_name":"Sauratown Mountain","mapped_acres":40.0574934616722,"mapped_acres_source":"poly_GISAcres","gis_acres":40.0574934616722,"auto_acres":40.0863869189466,"reported_acres":40.0,"percent_contained":100.0,"state":"NC","state_wfigs":"US-NC","county":"Stokes","discovery_time_utc":"2021-11-09T15:45:00Z","perimeter_time_utc":"2021-11-09T21:45:00Z","perimeter_edit_time_utc":"2021-11-30T17:24:17Z","incident_modified_time_utc":"2022-04-18T20:08:51Z","containment_time_utc":null,"control_time_utc":null,"fire_out_time_utc":null,"fire_cause":"Human","fire_cause_general":null,"map_method":"Auto-generated","source_dataset":"2021 NIFS","unique_fire_identifier":"2021-NCNCS-210031","irwin_id":"{90B558EC-CB5D-4554-96D4-DCBCD4C634D5}","global_id":"3626df17-1814-4639-b832-f0f150e98803"}},{"type":"Feature","geometry":{"type":"Polygon","coordinates":[[[-80.47985,36.3324],[-80.48171,36.33283],[-80.48248,36.33314],[-80.48335,36.3331],[-80.48404,36.33287],[-80.48493,36.33336],[-80.48719,36.33371],[-80.488,36.33456],[-80.48801,36.33519],[-80.48833,36.3359],[-80.48815,36.33622],[-80.48937,36.3371],[-80.49006,36.33697],[-80.4908,36.33711],[-80.49116,36.33699],[-80.49182,36.33729],[-80.4926,36.33814],[-80.49253,36.33854],[-80.49209,36.3389],[-80.4919,36.33929],[-80.49231,36.33989],[-80.49244,36.34051],[-80.49194,36.3409],[-80.49192,36.34127],[-80.49214,36.3418],[-80.49292,36.34198],[-80.49348,36.3431],[-80.49392,36.34352],[-80.49375,36.34356],[-80.49402,36.34377],[-80.49417,36.34427],[-80.4941,36.34476],[-80.49304,36.34642],[-80.49069,36.34835],[-80.49004,36.34853],[-80.48875,36.34946],[-80.48719,36.34983],[-80.48612,36.34977],[-80.4845,36.34911],[-80.48208,36.34884],[-80.48136,36.3483],[-80.48142,36.34807],[-80.47921,36.34843],[-80.47761,36.34855],[-80.47594,36.34755],[-80.47544,36.34753],[-80.47362,36.34798],[-80.47297,36.34776],[-80.47197,36.34709],[-80.47143,36.34712],[-80.47064,36.34678],[-80.47031,36.34635],[-80.46755,36.3457],[-80.46684,36.34531],[-80.46681,36.34512],[-80.46627,36.3447],[-80.4659,36.34361],[-80.46565,36.34338],[-80.46482,36.34311],[-80.46388,36.34256],[-80.4637,36.34169],[-80.46326,36.34132],[-80.46262,36.34113],[-80.46227,36.34117],[-80.46146,36.34058],[-80.45959,36.33991],[-80.45911,36.33915],[-80.4587,36.33912],[-80.45873,36.3384],[-80.45858,36.33794],[-80.45874,36.33765],[-80.4597,36.33651],[-80.46074,36.33657],[-80.4612,36.33639],[-80.46185,36.33545],[-80.46172,36.33474],[-80.46312,36.336],[-80.46378,36.33624],[-80.46479,36.33624],[-80.46508,36.33592],[-80.46542,36.33515],[-80.46584,36.33499],[-80.46608,36.33419],[-80.4665,36.33338],[-80.4669,36.33307],[-80.46698,36.33273],[-80.46682,36.33239],[-80.46718,36.33196],[-80.46787,36.33168],[-80.46853,36.3316],[-80.46924,36.33238],[-80.46965,36.3322],[-80.47128,36.33296],[-80.47224,36.33286],[-80.4728,36.33316],[-80.47315,36.33311],[-80.47346,36.3329],[-80.4741,36.33283],[-80.47448,36.33309],[-80.47512,36.33383],[-80.47566,36.33359],[-80.47596,36.33325],[-80.47625,36.3325],[-80.47645,36.33236],[-80.47674,36.33172],[-80.47698,36.3315],[-80.47776,36.3312],[-80.4782,36.33121],[-80.47913,36.33165],[-80.47938,36.33186],[-80.47931,36.33197],[-80.47987,36.3323],[-80.47985,36.3324]]]},"properties":{"fire_id":"ufid:2021-NCNCS-210033","source_collection":"history-2021","source_objectid":2204,"incident_name":"Grindstone","mapped_acres":1049.32964007466,"mapped_acres_source":"poly_GISAcres","gis_acres":1049.32964007466,"auto_acres":1050.10902006686,"reported_acres":1050.0,"percent_contained":100.0,"state":"NC","state_wfigs":"US-NC","county":"Surry","discovery_time_utc":"2021-11-27T20:30:00Z","perimeter_time_utc":"2021-11-28T04:15:00Z","perimeter_edit_time_utc":"2021-11-30T14:59:38Z","incident_modified_time_utc":"2021-12-08T15:56:32Z","containment_time_utc":null,"control_time_utc":null,"fire_out_time_utc":null,"fire_cause":"Human","fire_cause_general":null,"map_method":"Auto-generated","source_dataset":"2021 NIFS","unique_fire_identifier":"2021-NCNCS-210033","irwin_id":"{FE54A69C-8DFA-439E-8D49-02B6E3C4C392}","global_id":"c43266f0-8e96-4f40-b417-adc6d4ddec61"}},{"type":"Feature","geometry":{"type":"Polygon","coordinates":[[[-82.97153,35.26971],[-82.97405,35.27003],[-82.97414,35.27025],[-82.97387,35.27039],[-82.97388,35.27073],[-82.97371,35.27102],[-82.97313,35.27131],[-82.97258,35.27106],[-82.97231,35.27116],[-82.97151,35.27112],[-82.97097,35.27048],[-82.97094,35.27024],[-82.97115,35.26984],[-82.97153,35.26971]]]},"properties":{"fire_id":"ufid:2021-NCNCF-210114","source_collection":"history-2021","source_objectid":4178,"incident_name":"LODGE","mapped_acres":1.0,"mapped_acres_source":"poly_GISAcres","gis_acres":1.0,"auto_acres":9.111484910409231,"reported_acres":9.5,"percent_contained":null,"state":"NC","state_wfigs":"US-NC","county":"Jackson","discovery_time_utc":"2021-04-06T20:40:00Z","perimeter_time_utc":"2021-04-07T01:40:00Z","perimeter_edit_time_utc":"2023-03-14T15:13:42Z","incident_modified_time_utc":"2021-07-12T18:41:45Z","containment_time_utc":null,"control_time_utc":null,"fire_out_time_utc":"2021-04-13T21:00:00Z","fire_cause":"Human","fire_cause_general":"Other causes","map_method":"Auto-generated","source_dataset":"FFP","unique_fire_identifier":"2021-NCNCF-210114","irwin_id":"{7A6F5D5B-A793-44B5-B34E-AC2393213D8F}","global_id":"10b558b8-e434-47db-a717-de5e8ed3bc73"}},{"type":"Feature","geometry":{"type":"Polygon","coordinates":[[[-82.62523,35.4319],[-82.62654,35.43175],[-82.62689,35.4321],[-82.62763,35.43229],[-82.62849,35.43207],[-82.62847,35.43358],[-82.62762,35.43417],[-82.62704,35.4344],[-82.62528,35.43412],[-82.62459,35.4336],[-82.62452,35.43314],[-82.62523,35.4319]]]},"properties":{"fire_id":"ufid:2021-NCNCF-210144","source_collection":"history-2021","source_objectid":4614,"incident_name":"SENIARD CREEK","mapped_acres":10.0,"mapped_acres_source":"poly_GISAcres","gis_acres":10.0,"auto_acres":19.557269997074457,"reported_acres":19.0,"percent_contained":null,"state":"NC","state_wfigs":"US-NC","county":"Henderson","discovery_time_utc":"2021-04-22T21:02:00Z","perimeter_time_utc":"2021-04-23T02:02:53Z","perimeter_edit_time_utc":"2023-03-14T15:13:42Z","incident_modified_time_utc":"2021-06-09T14:50:34Z","containment_time_utc":"2021-04-23T00:00:00Z","control_time_utc":"2021-04-26T17:00:00Z","fire_out_time_utc":"2021-04-26T17:18:00Z","fire_cause":"Human","fire_cause_general":"Smoking","map_method":"Hand Sketch","source_dataset":"FFP","unique_fire_identifier":"2021-NCNCF-210144","irwin_id":"{21998AB2-5053-42BB-91FD-8F9A5638FB37}","global_id":"a89ced20-53a4-4cde-89bc-694846319d4c"}},{"type":"Feature","geometry":{"type":"Polygon","coordinates":[[[-83.30509,35.46823],[-83.3054,35.4682],[-83.30523,35.46841],[-83.30509,35.46823]]]},"properties":{"fire_id":"ufid:2021-NCECA-210017","source_collection":"history-2021","source_objectid":5817,"incident_name":"RUEBEN TAYLOR #1","mapped_acres":1.0,"mapped_acres_source":"poly_GISAcres","gis_acres":1.0,"auto_acres":0.09873787938721208,"reported_acres":0.1,"percent_contained":null,"state":"NC","state_wfigs":"US-NC","county":"Jackson","discovery_time_utc":"2021-02-11T04:45:00Z","perimeter_time_utc":"2021-02-11T10:45:00Z","perimeter_edit_time_utc":"2023-03-14T15:13:42Z","incident_modified_time_utc":"2021-02-17T11:55:29Z","containment_time_utc":"2021-02-11T05:15:00Z","control_time_utc":"2021-02-11T23:00:00Z","fire_out_time_utc":"2021-02-11T23:00:00Z","fire_cause":"Human","fire_cause_general":"Debris and open burning","map_method":"Auto-generated","source_dataset":"FFP","unique_fire_identifier":"2021-NCECA-210017","irwin_id":"{AA0FAEC2-0F8A-42E7-B3AB-F1B7CE33699B}","global_id":"04c646c8-306a-4aae-b5b8-fd80bb78d449"}},{"type":"Feature","geometry":{"type":"Polygon","coordinates":[[[-81.87848,35.91453],[-81.87892,35.91388],[-81.88035,35.91382],[-81.88067,35.91377],[-81.88104,35.91351],[-81.88123,35.91357],[-81.88104,35.91369],[-81.88096,35.91413],[-81.88056,35.91442],[-81.88059,35.91461],[-81.88046,35.91472],[-81.87953,35.91475],[-81.87926,35.91451],[-81.87848,35.91453]]]},"properties":{"fire_id":"ufid:2021-NCNCF-210138","source_collection":"history-2021","source_objectid":5993,"incident_name":"Hawksbill","mapped_acres":4.52,"mapped_acres_source":"poly_GISAcres","gis_acres":4.52,"auto_acres":4.517761237812001,"reported_acres":4.5,"percent_contained":null,"state":"NC","state_wfigs":"US-NC","county":"Burke","discovery_time_utc":"2021-04-20T16:18:00Z","perimeter_time_utc":"2021-04-21T00:45:00Z","perimeter_edit_time_utc":"2023-03-14T15:13:42Z","incident_modified_time_utc":"2021-05-26T18:53:06Z","containment_time_utc":"2021-04-20T20:30:00Z","control_time_utc":"2021-04-29T14:00:00Z","fire_out_time_utc":"2021-04-29T14:00:00Z","fire_cause":"Human","fire_cause_general":"Undetermined","map_method":"GPS-Walked","source_dataset":"FFP","unique_fire_identifier":"2021-NCNCF-210138","irwin_id":"{A17D4C99-168A-4EC9-AB2E-EE04DE002B7E}","global_id":"cccb27c1-1604-4a18-ac06-14149ced43e5"}},{"type":"Feature","geometry":{"type":"Polygon","coordinates":[[[-83.00893,35.27982],[-83.00923,35.27917],[-83.00918,35.27897],[-83.00873,35.2786],[-83.00921,35.27724],[-83.00878,35.27703],[-83.00752,35.27759],[-83.0074,35.27749],[-83.00814,35.27665],[-83.00977,35.27622],[-83.01087,35.27655],[-83.01234,35.27555],[-83.01355,35.27535],[-83.01388,35.27603],[-83.01423,35.27617],[-83.01418,35.27702],[-83.01269,35.27901],[-83.0124,35.27965],[-83.01159,35.28041],[-83.00893,35.27982]]]},"properties":{"fire_id":"ufid:2021-NCNCF-210112","source_collection":"history-2021","source_objectid":8519,"incident_name":"Charleys Creek","mapped_acres":46.45,"mapped_acres_source":"poly_GISAcres","gis_acres":46.45,"auto_acres":46.452456705813276,"reported_acres":46.45,"percent_contained":null,"state":"NC","state_wfigs":"US-NC","county":"Jackson","discovery_time_utc":"2021-04-06T20:40:00Z","perimeter_time_utc":"2021-07-09T08:00:00Z","perimeter_edit_time_utc":"2023-03-14T15:13:42Z","incident_modified_time_utc":"2021-07-12T18:40:07Z","containment_time_utc":null,"control_time_utc":null,"fire_out_time_utc":"2021-04-13T21:00:00Z","fire_cause":"Human","fire_cause_general":"Other causes","map_method":"Mixed Methods","source_dataset":"FFP","unique_fire_identifier":"2021-NCNCF-210112","irwin_id":"{2E91AF85-65FF-46DD-835B-28276ED9D129}","global_id":"dbf4bb2f-fffb-4514-acec-5b11d02e9cdd"}},{"type":"Feature","geometry":{"type":"Polygon","coordinates":[[[-83.16395,35.50426],[-83.16479,35.50412],[-83.16595,35.50431],[-83.16595,35.50499],[-83.16618,35.50518],[-83.16645,35.50454],[-83.16685,35.50439],[-83.16722,35.50439],[-83.16742,35.50426],[-83.16762,35.50474],[-83.16767,35.50626],[-83.16575,35.50948],[-83.16659,35.50929],[-83.1671,35.50896],[-83.16927,35.50901],[-83.16966,35.50922],[-83.16956,35.50952],[-83.16717,35.51027],[-83.16473,35.51082],[-83.16165,35.5123],[-83.1601,35.5126],[-83.15943,35.5126],[-83.15869,35.51225],[-83.1584,35.51152],[-83.15863,35.51097],[-83.1594,35.51025],[-83.15951,35.50942],[-83.15912,35.50837],[-83.15961,35.50717],[-83.15997,35.50707],[-83.16077,35.50717],[-83.16123,35.50734],[-83.16147,35.50759],[-83.16189,35.50726],[-83.16221,35.50723],[-83.16246,35.50705],[-83.16203,35.50599],[-83.16223,35.50508],[-83.16246,35.50472],[-83.16319,35.50458],[-83.16395,35.50426]]]},"properties":{"fire_id":"ufid:2021-NCECA-210203","source_collection":"history-2021","source_objectid":9607,"incident_name":"HYATT COVE %231","mapped_acres":30.0,"mapped_acres_source":"poly_GISAcres","gis_acres":30.0,"auto_acres":125.93005670334524,"reported_acres":118.0,"percent_contained":null,"state":"NC","state_wfigs":"US-NC","county":"Jackson","discovery_time_utc":"2021-11-10T21:19:00Z","perimeter_time_utc":"2021-11-11T03:19:52Z","perimeter_edit_time_utc":"2023-03-14T15:13:42Z","incident_modified_time_utc":"2021-11-29T21:10:07Z","containment_time_utc":"2021-11-15T23:00:00Z","control_time_utc":"2021-11-27T20:30:00Z","fire_out_time_utc":"2021-11-27T20:30:00Z","fire_cause":"Human","fire_cause_general":"Debris and open burning","map_method":"Digitized-Image","source_dataset":"FFP","unique_fire_identifier":"2021-NCECA-210203","irwin_id":"{ADFF1493-F458-430F-8C15-517C55D497E5}","global_id":"802fa2b8-f026-4557-b6f4-c9756c748b93"}},{"type":"Feature","geometry":{"type":"Polygon","coordinates":[[[-83.43356,35.18132],[-83.43375,35.18086],[-83.43425,35.18119],[-83.43478,35.18134],[-83.43463,35.18134],[-83.43471,35.18153],[-83.43493,35.18155],[-83.43478,35.18165],[-83.43477,35.18187],[-83.43446,35.18204],[-83.43426,35.18247],[-83.43303,35.18267],[-83.43282,35.18225],[-83.4337,35.18158],[-83.43361,35.18161],[-83.43356,35.18132]]]},"properties":{"fire_id":"ufid:2021-NCNCF-210221","source_collection":"history-2021","source_objectid":11747,"incident_name":"RAY COVE","mapped_acres":4.818916,"mapped_acres_source":"poly_GISAcres","gis_acres":4.818916,"auto_acres":4.8188966827574715,"reported_acres":5.0,"percent_contained":null,"state":"NC","state_wfigs":"US-NC","county":"Macon","discovery_time_utc":"2021-11-30T23:23:00Z","perimeter_time_utc":"2021-12-01T05:23:56Z","perimeter_edit_time_utc":"2023-03-14T15:13:42Z","incident_modified_time_utc":"2021-12-07T16:13:53Z","containment_time_utc":"2021-12-01T19:30:00Z","control_time_utc":null,"fire_out_time_utc":"2021-12-06T22:00:00Z","fire_cause":"Human","fire_cause_general":"Other causes","map_method":"Auto-generated","source_dataset":"FFP","unique_fire_identifier":"2021-NCNCF-210221","irwin_id":"{4F438572-23CB-43C7-BE23-BC8537A45C60}","global_id":"b1ffa4a6-207b-438e-97e9-d59968d98a46"}},{"type":"Feature","geometry":{"type":"MultiPolygon","coordinates":[[[[-81.82107,36.02075],[-81.82182,36.02136],[-81.82272,36.02169],[-81.82395,36.02242],[-81.8245,36.02264],[-81.82498,36.02264],[-81.82622,36.02342],[-81.82691,36.02441],[-81.82752,36.0248],[-81.82794,36.02525],[-81.82794,36.02541],[-81.82849,36.02575],[-81.82979,36.02702],[-81.83096,36.02775],[-81.83116,36.02814],[-81.83116,36.02858],[-81.83089,36.02902],[-81.83082,36.02941],[-81.83006,36.02963],[-81.83006,36.02975],[-81.82972,36.02975],[-81.8291,36.03025],[-81.82656,36.0303],[-81.82546,36.0313],[-81.82347,36.0318],[-81.82292,36.03208],[-81.82251,36.03208],[-81.82176,36.03247],[-81.82134,36.03247],[-81.821,36.03224],[-81.81983,36.03224],[-81.81922,36.03258],[-81.81867,36.03263],[-81.81825,36.03241],[-81.81812,36.03202],[-81.81764,36.03202],[-81.81716,36.03247],[-81.81674,36.03247],[-81.81585,36.03291],[-81.8151,36.03291],[-81.81434,36.03319],[-81.8129,36.03341],[-81.81056,36.03347],[-81.80974,36.03369],[-81.80864,36.03369],[-81.80768,36.03347],[-81.80692,36.03347],[-81.80672,36.0333],[-81.80589,36.03313],[-81.80576,36.0328],[-81.80514,36.03252],[-81.80507,36.03213],[-81.8048,36.03186],[-81.80425,36.0318],[-81.80315,36.03136],[-81.80329,36.03125],[-81.80548,36.03119],[-81.80603,36.03141],[-81.80692,36.03208],[-81.8085,36.03263],[-81.81063,36.03263],[-81.81571,36.03197],[-81.81647,36.0313],[-81.81695,36.03108],[-81.81915,36.03075],[-81.81935,36.03063],[-81.81942,36.03008],[-81.8188,36.02908],[-81.81784,36.02908],[-81.81585,36.02836],[-81.81455,36.02836],[-81.81393,36.02819],[-81.8129,36.02814],[-81.81242,36.02764],[-81.81228,36.0273],[-81.81221,36.02597],[-81.81132,36.02541],[-81.8085,36.0248],[-81.80802,36.0248],[-81.80754,36.02569],[-81.80665,36.02669],[-81.80624,36.02708],[-81.80576,36.02719],[-81.80514,36.02908],[-81.80425,36.02997],[-81.80356,36.02991],[-81.80219,36.02897],[-81.80177,36.02897],[-81.80102,36.02925],[-81.8002,36.02925],[-81.79999,36.02886],[-81.79999,36.02858],[-81.80054,36.02814],[-81.80054,36.02758],[-81.8002,36.02747],[-81.79971,36.02691],[-81.79814,36.02586],[-81.79793,36.0253],[-81.79759,36.02491],[-81.79759,36.02458],[-81.79772,36.02447],[-81.79903,36.02392],[-81.79923,36.02314],[-81.79862,36.02297],[-81.79793,36.02208],[-81.79759,36.02186],[-81.79724,36.02125],[-81.79676,36.02108],[-81.79491,36.02092],[-81.79388,36.02036],[-81.79354,36.02036],[-81.79347,36.01958],[-81.79422,36.01903],[-81.79436,36.01775],[-81.79367,36.01736],[-81.79367,36.01725],[-81.79196,36.01731],[-81.79202,36.0167],[-81.79216,36.01653],[-81.79216,36.01542],[-81.79244,36.01458],[-81.79299,36.01381],[-81.79299,36.01325],[-81.79326,36.01281],[-81.79429,36.01309],[-81.79518,36.01408],[-81.79601,36.01458],[-81.79594,36.01608],[-81.79683,36.01642],[-81.79868,36.01647],[-81.79951,36.01608],[-81.80129,36.01553],[-81.80143,36.01531],[-81.80184,36.01508],[-81.80404,36.01458],[-81.80521,36.01408],[-81.80871,36.01397],[-81.80905,36.01431],[-81.81056,36.01475],[-81.81118,36.01531],[-81.81297,36.01592],[-81.81365,36.01692],[-81.814,36.01797],[-81.81674,36.01786],[-81.81716,36.01836],[-81.81736,36.01931],[-81.81791,36.01936],[-81.81819,36.01919],[-81.81873,36.01919],[-81.8197,36.02025],[-81.82073,36.02031],[-81.82107,36.02075]]],[[[-81.81413,36.03324],[-81.81372,36.03341],[-81.81407,36.03324],[-81.81413,36.03324]]]]},"properties":{"fire_id":"ufid:2021-NCNCF-210237","source_collection":"history-2021","source_objectid":12805,"incident_name":"LOST COVE","mapped_acres":957.8579409409114,"mapped_acres_source":"poly_Acres_AutoCalc_fallback","gis_acres":null,"auto_acres":957.8579409409114,"reported_acres":1000.0,"percent_contained":null,"state":"NC","state_wfigs":"US-NC","county":"Avery","discovery_time_utc":"2021-12-24T14:41:00Z","perimeter_time_utc":null,"perimeter_edit_time_utc":"2023-03-14T15:13:42Z","incident_modified_time_utc":"2022-01-14T21:16:42Z","containment_time_utc":"2022-01-03T22:00:00Z","control_time_utc":"2022-01-06T14:15:00Z","fire_out_time_utc":"2022-01-17T13:00:00Z","fire_cause":"Human","fire_cause_general":"Undetermined","map_method":"Hand Sketch","source_dataset":"FFP","unique_fire_identifier":"2021-NCNCF-210237","irwin_id":"{420B161C-D17A-4DF2-9E1F-9E38F21FC9E2}","global_id":"c50d0267-0a03-4a66-9c3f-c470ef4e996f"}},{"type":"Feature","geometry":{"type":"Polygon","coordinates":[[[-82.20988,35.62503],[-82.21022,35.62525],[-82.21009,35.62603],[-82.20941,35.62555],[-82.20944,35.62529],[-82.20988,35.62503]]]},"properties":{"fire_id":"ufid:2021-NCNCF-210076","source_collection":"history-2021","source_objectid":14797,"incident_name":"Sand Pile","mapped_acres":1.3,"mapped_acres_source":"poly_GISAcres","gis_acres":1.3,"auto_acres":1.29761099136765,"reported_acres":1.3,"percent_contained":null,"state":"NC","state_wfigs":"US-NC","county":"McDowell","discovery_time_utc":"2021-03-13T13:52:00Z","perimeter_time_utc":null,"perimeter_edit_time_utc":"2021-04-09T15:04:42Z","incident_modified_time_utc":"2022-01-26T16:14:11Z","containment_time_utc":"2021-03-13T17:00:00Z","control_time_utc":null,"fire_out_time_utc":"2021-04-09T16:00:00Z","fire_cause":"Human","fire_cause_general":"Equipment","map_method":"GPS-Walked","source_dataset":"Decertified","unique_fire_identifier":"2021-NCNCF-210076","irwin_id":"{B21969EB-2D98-4DFB-93BE-5B7A7BF2D5D8}","global_id":"480078b9-16d8-4879-9aa0-e39168f6ba7c"}}]}
