{"type":"FeatureCollection","features":[{"type":"Feature","geometry":{"type":"Polygon","coordinates":[[[-79.48548,34.99631],[-79.48613,35.00993],[-79.48905,35.00917],[-79.49427,35.01155],[-79.49942,35.01112],[-79.50052,35.01304],[-79.49355,35.01325],[-79.4868,35.01193],[-79.48674,35.01201],[-79.48296,35.01106],[-79.48242,35.01128],[-79.47605,35.00845],[-79.4759,35.008],[-79.47595,35.00746],[-79.47646,35.00666],[-79.47648,35.00583],[-79.47597,35.00562],[-79.47541,35.00516],[-79.47548,35.00487],[-79.47647,35.0046],[-79.47672,35.00438],[-79.4764,35.00307],[-79.47676,35.00187],[-79.47646,35.00083],[-79.47663,35.00044],[-79.4765,34.99928],[-79.47658,34.99899],[-79.4775,34.9985],[-79.47774,34.99818],[-79.47839,34.99781],[-79.48004,34.99776],[-79.48041,34.99744],[-79.48109,34.998],[-79.4811,34.99819],[-79.48211,34.99829],[-79.4824,34.99804],[-79.48237,34.99758],[-79.48252,34.99739],[-79.48548,34.99631]]]},"properties":{"fire_id":"ufid:2021-NCNCS-210016","source_collection":"history-2021","source_objectid":122,"incident_name":"Drop Zone","mapped_acres":284.0,"mapped_acres_source":"poly_GISAcres","gis_acres":284.0,"auto_acres":381.749054093252,"reported_acres":284.0,"percent_contained":100.0,"state":"NC","state_wfigs":"US-NC","county":"Scotland","discovery_time_utc":"2021-05-04T19:30:00Z","perimeter_time_utc":"2021-05-05T00:30:00Z","perimeter_edit_time_utc":"2021-05-20T16:06:15Z","incident_modified_time_utc":"2022-05-31T18:23:56Z","containment_time_utc":null,"control_time_utc":null,"fire_out_time_utc":null,"fire_cause":"Human","fire_cause_general":null,"map_method":"Image Interpretation","source_dataset":"2021 NIFS","unique_fire_identifier":"2021-NCNCS-210016","irwin_id":"{CC94958B-A2F6-46DB-92F3-D4DC2041CB84}","global_id":"309a7908-87cd-4adf-99ae-70b5a4b0f7fa"}},{"type":"Feature","geometry":{"type":"Polygon","coordinates":[[[-79.95745,35.46205],[-79.95698,35.46231],[-79.95669,35.46276],[-79.95693,35.46339],[-79.95636,35.46359],[-79.95539,35.46355],[-79.95469,35.46435],[-79.95449,35.46434],[-79.95413,35.46396],[-79.95401,35.46397],[-79.95359,35.46416],[-79.95335,35.46464],[-79.95275,35.4647],[-79.95248,35.46496],[-79.9518,35.46469],[-79.95083,35.46346],[-79.95084,35.46333],[-79.95123,35.46325],[-79.95167,35.46282],[-79.9517,35.4623],[-79.95153,35.4622],[-79.95158,35.46174],[-79.95172,35.46149],[-79.95189,35.46148],[-79.95216,35.46121],[-79.95198,35.46072],[-79.95207,35.46046],[-79.95255,35.46041],[-79.95267,35.46003],[-79.95279,35.46],[-79.95339,35.46013],[-79.9537,35.46049],[-79.95378,35.46091],[-79.95341,35.46163],[-79.95367,35.4615],[-79.95425,35.46167],[-79.95482,35.46153],[-79.95524,35.46123],[-79.95643,35.46109],[-79.9573,35.46173],[-79.95745,35.46205]]]},"properties":{"fire_id":"ufid:2021-NCNCF-210222","source_collection":"history-2021","source_objectid":4989,"incident_name":"Tower Road","mapped_acres":43.16277,"mapped_acres_source":"poly_GISAcres","gis_acres":43.16277,"auto_acres":43.16261445876743,"reported_acres":44.0,"percent_contained":null,"state":"NC","state_wfigs":"US-NC","county":"Montgomery","discovery_time_utc":"2021-12-01T16:43:00Z","perimeter_time_utc":"2021-12-02T13:00:00Z","perimeter_edit_time_utc":"2023-03-14T15:13:42Z","incident_modified_time_utc":"2021-12-22T16:14:10Z","containment_time_utc":"2021-12-01T20:45:00Z","control_time_utc":null,"fire_out_time_utc":"2021-12-10T17:00:00Z","fire_cause":"Undetermined","fire_cause_general":"Undetermined","map_method":"Mixed Methods","source_dataset":"FFP","unique_fire_identifier":"2021-NCNCF-210222","irwin_id":"{F017624E-B7F8-429F-9E6F-83C4FF00CC98}","global_id":"e0af0dfd-8be7-44a2-99d9-0c2a4f7e1418"}},{"type":"Feature","geometry":{"type":"Polygon","coordinates":[[[-79.97642,35.4025],[-79.97648,35.40225],[-79.9768,35.40218],[-79.97804,35.40221],[-79.9785,35.40257],[-79.97911,35.40282],[-79.97983,35.40415],[-79.97987,35.40467],[-79.97974,35.40489],[-79.97932,35.40524],[-79.97823,35.40529],[-79.97775,35.40565],[-79.97705,35.40566],[-79.97671,35.40549],[-79.97657,35.40517],[-79.97588,35.40458],[-79.97573,35.40416],[-79.97579,35.40388],[-79.97611,35.40347],[-79.97619,35.40303],[-79.9765,35.40276],[-79.97642,35.4025]]]},"properties":{"fire_id":"ufid:2021-NCNCF-210132","source_collection":"history-2021","source_objectid":8809,"incident_name":"CATTAIL BRANCH","mapped_acres":10.0,"mapped_acres_source":"poly_GISAcres","gis_acres":10.0,"auto_acres":26.01939495549213,"reported_acres":26.0,"percent_contained":null,"state":"NC","state_wfigs":"US-NC","county":"Montgomery","discovery_time_utc":"2021-04-19T11:16:00Z","perimeter_time_utc":"2021-04-19T16:16:00Z","perimeter_edit_time_utc":"2023-03-14T15:13:42Z","incident_modified_time_utc":"2021-06-04T17:30:39Z","containment_time_utc":"2021-04-19T13:20:00Z","control_time_utc":null,"fire_out_time_utc":"2021-05-01T13:00:00Z","fire_cause":"Human","fire_cause_general":"Recreation and ceremony","map_method":"Hand Sketch","source_dataset":"FFP","unique_fire_identifier":"2021-NCNCF-210132","irwin_id":"{BB14D936-6FB8-41D4-BA24-8AC18D1FA25C}","global_id":"9b54b020-0223-4e69-90ae-f0b4f53bac1b"}},{"type":"Feature","geometry":{"type":"Polygon","coordinates":[[[-79.82828,35.28751],[-79.82806,35.28745],[-79.82779,35.28707],[-79.82677,35.28687],[-79.82687,35.28658],[-79.82739,35.28661],[-79.82797,35.28647],[-79.82795,35.28555],[-79.82816,35.28537],[-79.82815,35.28519],[-79.82732,35.2851],[-79.82624,35.28531],[-79.82599,35.28505],[-79.826,35.2845],[-79.82463,35.28385],[-79.82414,35.28339],[-79.82423,35.28309],[-79.82405,35.28302],[-79.82341,35.28222],[-79.82357,35.28162],[-79.82437,35.28135],[-79.82464,35.28139],[-79.82509,35.28094],[-79.82572,35.28066],[-79.82696,35.28057],[-79.8271,35.28087],[-79.82759,35.2811],[-79.8285,35.28203],[-79.82883,35.28294],[-79.82872,35.28356],[-79.82931,35.28438],[-79.82955,35.2845],[-79.83013,35.28432],[-79.8305,35.28443],[-79.83064,35.28521],[-79.83057,35.28606],[-79.83087,35.28631],[-79.83087,35.28669],[-79.83103,35.28693],[-79.83099,35.28745],[-79.83123,35.28757],[-79.83132,35.28788],[-79.83076,35.28789],[-79.83053,35.28827],[-79.8307,35.28847],[-79.83037,35.28844],[-79.83048,35.28842],[-79.83044,35.28812],[-79.83023,35.28858],[-79.82929,35.28831],[-79.82866,35.28795],[-79.82828,35.28751]]]},"properties":{"fire_id":"ufid:2021-NCNCF-210154","source_collection":"history-2021","source_objectid":13900,"incident_name":"LEWIS MILL POND","mapped_acres":1.0,"mapped_acres_source":"poly_GISAcres","gis_acres":1.0,"auto_acres":69.78925460393863,"reported_acres":70.0,"percent_contained":null,"state":"NC","state_wfigs":"US-NC","county":"Montgomery","discovery_time_utc":"2021-04-30T19:58:00Z","perimeter_time_utc":"2021-05-01T00:58:00Z","perimeter_edit_time_utc":"2023-03-14T15:13:42Z","incident_modified_time_utc":"2021-06-04T17:37:31Z","containment_time_utc":"2021-05-01T00:30:00Z","control_time_utc":null,"fire_out_time_utc":"2021-05-13T13:00:00Z","fire_cause":"Undetermined","fire_cause_general":"Undetermined","map_method":"Hand Sketch","source_dataset":"FFP","unique_fire_identifier":"2021-NCNCF-210154","irwin_id":"{E61DE2F0-87C4-4B7E-B87F-D9409E597E49}","global_id":"0077a4ba-80fb-4d04-ae87-9ae5a9ec0aa6"}}]}
