{"type":"FeatureCollection","features":[{"type":"Feature","geometry":{"type":"Polygon","coordinates":[[[-108.92293,35.05786],[-108.92355,35.05762],[-108.92375,35.05775],[-108.92348,35.05805],[-108.92314,35.05806],[-108.92293,35.05786]]]},"properties":{"fire_id":"ufid:2021-NMZUA-000298","source_collection":"history-2021","source_objectid":4056,"incident_name":"RAINBOW SPRINGS","mapped_acres":1.0,"mapped_acres_source":"poly_GISAcres","gis_acres":1.0,"auto_acres":0.5745113029694278,"reported_acres":19.0,"percent_contained":null,"state":"NM","state_wfigs":"US-NM","county":"McKinley","discovery_time_utc":"2021-07-01T22:10:00Z","perimeter_time_utc":"2021-07-02T03:10:40Z","perimeter_edit_time_utc":"2023-03-14T15:13:42Z","incident_modified_time_utc":"2021-11-19T00:11:03Z","containment_time_utc":"2021-07-04T16:00:00Z","control_time_utc":"2021-07-05T22:30:00Z","fire_out_time_utc":"2021-07-05T22:30:00Z","fire_cause":"Undetermined","fire_cause_general":"Undetermined","map_method":"Hand Sketch","source_dataset":"FFP","unique_fire_identifier":"2021-NMZUA-000298","irwin_id":"{BC14E30E-5D4F-4A45-B4A5-43B6F6A166A0}","global_id":"9dd4dc31-d3bf-4f51-b673-94cce1c8be86"}},{"type":"Feature","geometry":{"type":"Polygon","coordinates":[[[-108.35159,35.2311],[-108.35113,35.23263],[-108.35042,35.23282],[-108.34983,35.23279],[-108.3493,35.23244],[-108.34918,35.23097],[-108.34939,35.23053],[-108.34971,35.23039],[-108.34998,35.22983],[-108.35038,35.22989],[-108.35049,35.23008],[-108.35111,35.23038],[-108.35125,35.2306],[-108.35122,35.23096],[-108.35159,35.2311]]]},"properties":{"fire_id":"ufid:2021-NMCIF-000313","source_collection":"history-2021","source_objectid":4761,"incident_name":"CAMP 2","mapped_acres":1.0,"mapped_acres_source":"poly_GISAcres","gis_acres":1.0,"auto_acres":13.163495278439193,"reported_acres":13.01,"percent_contained":null,"state":"NM","state_wfigs":"US-NM","county":"Cibola","discovery_time_utc":"2021-07-07T22:58:13Z","perimeter_time_utc":"2021-07-08T03:58:13Z","perimeter_edit_time_utc":"2023-03-14T15:13:42Z","incident_modified_time_utc":"2021-08-31T18:34:55Z","containment_time_utc":"2021-07-08T23:25:00Z","control_time_utc":"2021-07-30T19:00:00Z","fire_out_time_utc":"2021-07-30T19:00:00Z","fire_cause":"Natural","fire_cause_general":"Natural","map_method":"GPS-Unknown Travel Method","source_dataset":"FFP","unique_fire_identifier":"2021-NMCIF-000313","irwin_id":"{6EF5A436-B826-4445-8F59-3ADCEDE5E023}","global_id":"23b9e87b-8ee2-4b96-b952-8775eae1ab8e"}},{"type":"Feature","geometry":{"type":"MultiPolygon","coordinates":[[[[-105.97752,36.47825],[-105.97753,36.47808],[-105.97773,36.47817],[-105.97791,36.47807],[-105.97828,36.47829],[-105.97835,36.47852],[-105.97866,36.47859],[-105.9786,36.47893],[-105.978585,36.478955],[-105.9786,36.47894],[-105.97838,36.4793],[-105.9782,36.47933],[-105.97832,36.47949],[-105.97768,36.47966],[-105.97758,36.47943],[-105.97717,36.47919],[-105.97729,36.47911],[-105.97699,36.47884],[-105.977,36.47866],[-105.97727,36.47829],[-105.97752,36.47825]]],[[[-105.9785,36.47849],[-105.9785,36.4785],[-105.97848,36.47849],[-105.9785,36.47849]]],[[[-105.9786,36.47894],[-105.9786,36.47893],[-105.97863,36.47894],[-105.9786,36.47894]]],[[[-105.97723,36.47926],[-105.97723,36.47928],[-105.97722,36.47926],[-105.97723,36.47926]]]]},"properties":{"fire_id":"ufid:2021-NMCAF-000427","source_collection":"history-2021","source_objectid":5039,"incident_name":"Comanche","mapped_acres":4.179647099831482,"mapped_acres_source":"poly_Acres_AutoCalc_fallback","gis_acres":null,"auto_acres":4.179647099831482,"reported_acres":12.0,"percent_contained":null,"state":"NM","state_wfigs":"US-NM","county":"Rio Arriba","discovery_time_utc":"2021-07-28T21:45:53Z","perimeter_time_utc":"2022-08-25T19:42:11Z","perimeter_edit_time_utc":"2023-03-14T15:13:42Z","incident_modified_time_utc":"2022-02-28T20:45:38Z","containment_time_utc":"2021-08-18T21:15:00Z","control_time_utc":"2021-08-18T21:15:00Z","fire_out_time_utc":"2021-08-23T19:00:00Z","fire_cause":"Natural","fire_cause_general":"Natural","map_method":"Hand Sketch","source_dataset":"FFP","unique_fire_identifier":"2021-NMCAF-000427","irwin_id":"{AA0716F7-4455-46A5-B686-81199A77DA39}","global_id":"1ba387c2-ccbf-4c2c-85de-cccdba13e624"}},{"type":"Feature","geometry":{"type":"Polygon","coordinates":[[[-108.3542,36.98698],[-108.35447,36.98753],[-108.35356,36.98779],[-108.35356,36.98797],[-108.35337,36.9881],[-108.35266,36.98794],[-108.35211,36.98742],[-108.35192,36.98741],[-108.35163,36.98677],[-108.35168,36.98603],[-108.35152,36.98596],[-108.35146,36.98583],[-108.35157,36.98577],[-108.35115,36.9853],[-108.35133,36.9848],[-108.35118,36.98456],[-108.35156,36.98467],[-108.35178,36.98431],[-108.35192,36.98443],[-108.35226,36.98427],[-108.35241,36.98457],[-108.35249,36.98437],[-108.35273,36.98441],[-108.35307,36.98414],[-108.35366,36.98407],[-108.35391,36.98425],[-108.35408,36.98416],[-108.35431,36.98423],[-108.3546,36.9847],[-108.35483,36.98473],[-108.35524,36.98435],[-108.35566,36.98469],[-108.35557,36.98492],[-108.35591,36.98495],[-108.35626,36.98555],[-108.35644,36.98562],[-108.3564,36.98576],[-108.35667,36.9857],[-108.35689,36.98629],[-108.35667,36.98669],[-108.35704,36.98713],[-108.35669,36.98718],[-108.35659,36.98739],[-108.35692,36.98752],[-108.35665,36.98783],[-108.35631,36.98788],[-108.35599,36.98774],[-108.35578,36.98795],[-108.35557,36.98782],[-108.35574,36.9875],[-108.35542,36.98734],[-108.35486,36.9876],[-108.35475,36.98725],[-108.3544,36.98725],[-108.35453,36.98703],[-108.3542,36.98698]]]},"properties":{"fire_id":"ufid:2021-COUMA-000423","source_collection":"history-2021","source_objectid":5585,"incident_name":"Barker","mapped_acres":0.3,"mapped_acres_source":"poly_GISAcres","gis_acres":0.3,"auto_acres":39.43917244353763,"reported_acres":40.0,"percent_contained":null,"state":"NM","state_wfigs":"US-NM","county":"San Juan","discovery_time_utc":"2021-06-16T22:08:00Z","perimeter_time_utc":"2021-06-17T03:08:00Z","perimeter_edit_time_utc":"2023-03-14T15:13:42Z","incident_modified_time_utc":"2021-07-04T23:20:04Z","containment_time_utc":"2021-06-18T03:47:00Z","control_time_utc":"2021-06-18T18:47:00Z","fire_out_time_utc":"2021-06-26T07:20:00Z","fire_cause":"Natural","fire_cause_general":"Natural","map_method":"Other","source_dataset":"FFP","unique_fire_identifier":"2021-COUMA-000423","irwin_id":"{098DC24B-D51B-460E-ADBB-EACEDAE75DEB}","global_id":"5bfb3c78-9ea9-4624-8e0f-02fe01a2f032"}},{"type":"Feature","geometry":{"type":"Polygon","coordinates":[[[-107.72289,36.96243],[-107.72324,36.96243],[-107.7233,36.96255],[-107.72307,36.96266],[-107.72285,36.96253],[-107.72289,36.96243]]]},"properties":{"fire_id":"ufid:2021-NMFAD-000324","source_collection":"history-2021","source_objectid":6198,"incident_name":"Inc 324 Rattlesnake Canyon","mapped_acres":0.1,"mapped_acres_source":"poly_GISAcres","gis_acres":0.1,"auto_acres":0.16512317853582006,"reported_acres":48.0,"percent_contained":null,"state":"NM","state_wfigs":"US-NM","county":"San Juan","discovery_time_utc":"2021-07-10T22:23:00Z","perimeter_time_utc":"2021-07-11T03:23:05Z","perimeter_edit_time_utc":"2023-03-14T15:13:42Z","incident_modified_time_utc":"2021-09-08T20:36:36Z","containment_time_utc":"2021-07-15T18:40:00Z","control_time_utc":"2021-08-02T16:05:00Z","fire_out_time_utc":"2021-08-02T16:05:00Z","fire_cause":"Natural","fire_cause_general":"Natural","map_method":"Hand Sketch","source_dataset":"FFP","unique_fire_identifier":"2021-NMFAD-000324","irwin_id":"{91997C61-0AF9-4E63-B9E5-0292E94096A8}","global_id":"ea7a9e49-62ec-4571-aceb-90668607394a"}},{"type":"Feature","geometry":{"type":"Polygon","coordinates":[[[-108.73697,36.83602],[-108.73656,36.83541],[-108.73642,36.83426],[-108.73602,36.83329],[-108.73553,36.83259],[-108.73473,36.83049],[-108.73481,36.82768],[-108.73523,36.82716],[-108.73631,36.82628],[-108.73667,36.82574],[-108.73832,36.82565],[-108.73974,36.82607],[-108.74008,36.82641],[-108.74327,36.82853],[-108.74353,36.82907],[-108.7439,36.83083],[-108.74476,36.83179],[-108.74598,36.83263],[-108.7465,36.83351],[-108.74645,36.83502],[-108.74628,36.83553],[-108.74568,36.83641],[-108.74537,36.8367],[-108.74498,36.83684],[-108.74484,36.83778],[-108.74453,36.83798],[-108.74461,36.83866],[-108.74501,36.8394],[-108.74501,36.83985],[-108.74485,36.84062],[-108.74451,36.84104],[-108.744,36.84237],[-108.74429,36.84246],[-108.74466,36.84286],[-108.74531,36.84453],[-108.74566,36.84621],[-108.74569,36.84731],[-108.74524,36.84788],[-108.74507,36.84834],[-108.74379,36.84834],[-108.7426,36.84784],[-108.74226,36.84755],[-108.74223,36.84684],[-108.74183,36.8471],[-108.74158,36.8469],[-108.74157,36.84611],[-108.74171,36.8456],[-108.7414,36.84509],[-108.73924,36.84507],[-108.73651,36.84485],[-108.73603,36.84462],[-108.7368,36.84388],[-108.73676,36.84329],[-108.73559,36.84079],[-108.73559,36.84025],[-108.73604,36.8392],[-108.73695,36.83863],[-108.73734,36.83792],[-108.73722,36.8369],[-108.73697,36.83602]]]},"properties":{"fire_id":"ufid:2021-AZNAA-000074","source_collection":"history-2021","source_objectid":7705,"incident_name":"Salt Creek","mapped_acres":50.0,"mapped_acres_source":"poly_GISAcres","gis_acres":50.0,"auto_acres":427.2064421278683,"reported_acres":422.0,"percent_contained":null,"state":"NM","state_wfigs":"US-NM","county":"San Juan","discovery_time_utc":"2021-05-02T07:30:39Z","perimeter_time_utc":"2021-05-02T12:30:39Z","perimeter_edit_time_utc":"2023-03-14T15:13:42Z","incident_modified_time_utc":"2021-08-26T17:24:34Z","containment_time_utc":"2021-05-04T18:00:00Z","control_time_utc":"2021-05-28T17:23:00Z","fire_out_time_utc":"2021-06-05T17:00:00Z","fire_cause":"Human","fire_cause_general":"Arson","map_method":"Image Interpretation","source_dataset":"FFP","unique_fire_identifier":"2021-AZNAA-000074","irwin_id":"{9A9BBE92-6994-4E3F-82F0-2FAF95CC1D95}","global_id":"6c7e423f-f23b-47bf-8975-03fcd155a0d4"}},{"type":"Feature","geometry":{"type":"MultiPolygon","coordinates":[[[[-106.1793,36.42988],[-106.1784,36.42993],[-106.17767,36.43022],[-106.17747,36.43072],[-106.17733,36.43071],[-106.17716,36.43146],[-106.17679,36.43169],[-106.17568,36.43178],[-106.17509,36.43156],[-106.17488,36.43167],[-106.17478,36.43141],[-106.17455,36.43143],[-106.17429,36.43125],[-106.17418,36.43132],[-106.17404,36.43097],[-106.1732,36.43033],[-106.17319,36.43021],[-106.17333,36.43024],[-106.17325,36.4297],[-106.1727,36.42949],[-106.17265,36.4294],[-106.17281,36.42942],[-106.17284,36.42926],[-106.17237,36.42906],[-106.17239,36.42894],[-106.17262,36.4289],[-106.17255,36.42873],[-106.17269,36.42859],[-106.17258,36.42831],[-106.17281,36.42823],[-106.17262,36.42786],[-106.17272,36.42754],[-106.1725,36.42726],[-106.17324,36.42723],[-106.17305,36.42683],[-106.17343,36.42689],[-106.17348,36.42678],[-106.17329,36.42661],[-106.17348,36.42655],[-106.17348,36.42642],[-106.17315,36.42634],[-106.17327,36.42621],[-106.17317,36.42605],[-106.17325,36.42596],[-106.17356,36.42599],[-106.17362,36.42611],[-106.17348,36.4258],[-106.17371,36.42525],[-106.17346,36.42505],[-106.17383,36.42487],[-106.17408,36.42516],[-106.17416,36.42477],[-106.17442,36.42494],[-106.17483,36.4248],[-106.17487,36.42493],[-106.17511,36.42494],[-106.17512,36.42515],[-106.17546,36.4252],[-106.17539,36.4254],[-106.17557,36.42554],[-106.1754,36.42561],[-106.17569,36.42589],[-106.17552,36.4261],[-106.17532,36.42602],[-106.17537,36.42616],[-106.17584,36.42623],[-106.17616,36.4261],[-106.17625,36.42637],[-106.17659,36.4267],[-106.17654,36.42686],[-106.17675,36.42726],[-106.17717,36.42771],[-106.17724,36.42806],[-106.17753,36.42822],[-106.17735,36.42842],[-106.17738,36.42856],[-106.17813,36.4288],[-106.17851,36.42919],[-106.17892,36.42934],[-106.178904,36.42934],[-106.17893,36.42935],[-106.17928,36.42957],[-106.1793,36.42988]]],[[[-106.17265,36.42927],[-106.17263,36.42926],[-106.17264,36.42926],[-106.17265,36.42927]]],[[[-106.17268,36.42927],[-106.17267,36.42929],[-106.17265,36.42927],[-106.17268,36.42927]]],[[[-106.17894,36.42934],[-106.17893,36.42935],[-106.17892,36.42934],[-106.17894,36.42934]]],[[[-106.17913,36.42994],[-106.17912,36.42998],[-106.17912,36.42995],[-106.17913,36.42994]]]]},"properties":{"fire_id":"ufid:2021-NMCAF-000533","source_collection":"history-2021","source_objectid":7910,"incident_name":"Valle 2","mapped_acres":64.41733541200519,"mapped_acres_source":"poly_Acres_AutoCalc_fallback","gis_acres":null,"auto_acres":64.41733541200519,"reported_acres":64.42,"percent_contained":null,"state":"NM","state_wfigs":"US-NM","county":"Rio Arriba","discovery_time_utc":"2021-09-05T19:53:00Z","perimeter_time_utc":"2022-08-11T20:57:19Z","perimeter_edit_time_utc":"2023-03-14T15:13:42Z","incident_modified_time_utc":"2022-02-28T20:57:25Z","containment_time_utc":"2021-09-08T21:43:00Z","control_time_utc":"2021-09-15T20:10:00Z","fire_out_time_utc":"2021-09-23T17:35:00Z","fire_cause":"Human","fire_cause_general":"Undetermined","map_method":"Hand Sketch","source_dataset":"FFP","unique_fire_identifier":"2021-NMCAF-000533","irwin_id":"{F5CB64EC-E0F4-4276-9544-528C896B3C60}","global_id":"63a5ad51-514b-47db-b302-99f517d6e3aa"}},{"type":"Feature","geometry":{"type":"Polygon","coordinates":[[[-106.19544,36.48814],[-106.19573,36.48918],[-106.19534,36.49059],[-106.19594,36.49047],[-106.19653,36.48975],[-106.19682,36.48883],[-106.19703,36.48859],[-106.19832,36.48835],[-106.19922,36.4879],[-106.19946,36.48752],[-106.19953,36.48697],[-106.2007,36.48614],[-106.20144,36.48538],[-106.20227,36.4849],[-106.20246,36.48442],[-106.20217,36.48423],[-106.20208,36.48376],[-106.20248,36.48333],[-106.20401,36.48264],[-106.20379,36.482],[-106.20253,36.48173],[-106.20251,36.48109],[-106.2027,36.48043],[-106.20275,36.47955],[-106.20384,36.47964],[-106.20439,36.47907],[-106.20432,36.47814],[-106.20396,36.4766],[-106.20377,36.47407],[-106.20327,36.47317],[-106.20322,36.47224],[-106.20332,36.47188],[-106.20377,36.47203],[-106.20439,36.47255],[-106.20572,36.47226],[-106.20674,36.47276],[-106.20784,36.47357],[-106.20867,36.47398],[-106.20874,36.47433],[-106.20843,36.47481],[-106.20846,36.47532],[-106.20727,36.47562],[-106.20703,36.4761],[-106.20736,36.47676],[-106.20739,36.47719],[-106.20681,36.47733],[-106.20643,36.47783],[-106.20684,36.47843],[-106.20681,36.47886],[-106.206,36.48005],[-106.20596,36.48083],[-106.20655,36.48159],[-106.20705,36.483],[-106.20512,36.484],[-106.20517,36.48457],[-106.20546,36.4848],[-106.20605,36.48488],[-106.20788,36.48447],[-106.20827,36.48454],[-106.20843,36.48507],[-106.20834,36.48549],[-106.20857,36.48602],[-106.20872,36.48628],[-106.20941,36.48683],[-106.2091,36.48716],[-106.20915,36.48764],[-106.20938,36.48804],[-106.21119,36.48714],[-106.21188,36.48726],[-106.21193,36.48766],[-106.21224,36.48804],[-106.21179,36.4889],[-106.21217,36.49018],[-106.21222,36.4914],[-106.2116,36.49173],[-106.21126,36.49225],[-106.21148,36.49242],[-106.21198,36.49232],[-106.21319,36.49147],[-106.21336,36.49166],[-106.21331,36.49218],[-106.21269,36.4929],[-106.21326,36.49332],[-106.21379,36.49306],[-106.21398,36.4933],[-106.21367,36.49406],[-106.21383,36.49435],[-106.21433,36.49468],[-106.21429,36.49501],[-106.214,36.49525],[-106.2139,36.49573],[-106.2135,36.49601],[-106.21293,36.49615],[-106.21286,36.49644],[-106.21331,36.49642],[-106.21379,36.49703],[-106.21414,36.49711],[-106.21414,36.49825],[-106.21433,36.4987],[-106.21414,36.49953],[-106.21459,36.49982],[-106.21469,36.50046],[-106.21552,36.50096],[-106.21609,36.50094],[-106.2163,36.50111],[-106.21621,36.50191],[-106.21589,36.50266],[-106.21595,36.5034],[-106.21536,36.50396],[-106.21533,36.50429],[-106.21562,36.50467],[-106.21559,36.50498],[-106.21531,36.50551],[-106.21438,36.50553],[-106.21417,36.50608],[-106.21431,36.50646],[-106.21471,36.50681],[-106.21524,36.50691],[-106.21524,36.50734],[-106.21559,36.50731],[-106.21588,36.50812],[-106.21638,36.50853],[-106.21607,36.50903],[-106.21576,36.50917],[-106.21583,36.50979],[-106.21659,36.50965],[-106.21726,36.51029],[-106.21728,36.51093],[-106.21778,36.51105],[-106.21809,36.51131],[-106.21824,36.51179],[-106.21869,36.51226],[-106.21864,36.51267],[-106.21809,36.51274],[-106.21762,36.51224],[-106.21714,36.51222],[-106.21705,36.51191],[-106.21671,36.51162],[-106.21502,36.51112],[-106.21395,36.51134],[-106.2126,36.51105],[-106.21124,36.51114],[-106.21022,36.51095],[-106.20986,36.51107],[-106.2091,36.51067],[-106.2085,36.51053],[-106.2075,36.51105],[-106.20746,36.51136],[-106.20622,36.51148],[-106.20622,36.51167],[-106.20593,36.51174],[-106.20522,36.51134],[-106.20332,36.51134],[-106.20222,36.51095],[-106.20182,36.51098],[-106.20139,36.51131],[-106.20103,36.51136],[-106.20022,36.51117],[-106.19998,36.51055],[-106.19996,36.50996],[-106.19982,36.50981],[-106.1991,36.50991],[-106.19878,36.50881],[-106.19746,36.50722],[-106.19694,36.50693],[-106.19625,36.50703],[-106.19592,36.507],[-106.19577,36.50686],[-106.19568,36.50577],[-106.19544,36.50558],[-106.19565,36.50515],[-106.19627,36.50474],[-106.1963,36.50441],[-106.19561,36.50417],[-106.19477,36.50429],[-106.19451,36.50374],[-106.19399,36.50332],[-106.1938,36.50289],[-106.1933,36.5026],[-106.19297,36.50217],[-106.19266,36.5021],[-106.19332,36.5017],[-106.19344,36.50148],[-106.19304,36.50129],[-106.19237,36.50122],[-106.19175,36.50051],[-106.19168,36.50022],[-106.19199,36.49944],[-106.1928,36.49915],[-106.19275,36.49853],[-106.19242,36.49803],[-106.1912,36.49756],[-106.19037,36.49772],[-106.18968,36.49763],[-106.18847,36.49777],[-106.18787,36.49811],[-106.18783,36.49853],[-106.18809,36.49877],[-106.18647,36.49987],[-106.18626,36.50227],[-106.18597,36.50241],[-106.18554,36.50127],[-106.18533,36.50001],[-106.18492,36.49868],[-106.18518,36.49784],[-106.18576,36.49732],[-106.18747,36.49694],[-106.18799,36.49653],[-106.18764,36.49584],[-106.18828,36.49477],[-106.18913,36.49463],[-106.19009,36.4942],[-106.1903,36.49373],[-106.19004,36.49325],[-106.1893,36.49266],[-106.18923,36.49225],[-106.19006,36.49216],[-106.19073,36.49239],[-106.19071,36.49213],[-106.19047,36.49199],[-106.19061,36.49151],[-106.19123,36.4908],[-106.19189,36.49051],[-106.19285,36.49059],[-106.19327,36.49044],[-106.19342,36.49016],[-106.19332,36.48959],[-106.19342,36.48945],[-106.19282,36.48871],[-106.19249,36.48875],[-106.19237,36.48861],[-106.19268,36.48844],[-106.19258,36.48814],[-106.1912,36.48733],[-106.18963,36.4868],[-106.18785,36.48661],[-106.18661,36.48687],[-106.18578,36.48668],[-106.18488,36.48597],[-106.18499,36.48478],[-106.18547,36.48445],[-106.18592,36.48433],[-106.18618,36.48442],[-106.18673,36.48545],[-106.18706,36.48585],[-106.18742,36.48599],[-106.19063,36.48626],[-106.19142,36.48654],[-106.19223,36.48661],[-106.19239,36.48628],[-106.19261,36.48628],[-106.1933,36.48661],[-106.19285,36.48706],[-106.19304,36.48723],[-106.19423,36.48795],[-106.19544,36.48814]]]},"properties":{"fire_id":"ufid:2021-NMCAF-000175","source_collection":"history-2021","source_objectid":9157,"incident_name":"Poso","mapped_acres":1425.254,"mapped_acres_source":"poly_GISAcres","gis_acres":1425.254,"auto_acres":1425.9806913120833,"reported_acres":2057.0,"percent_contained":null,"state":"NM","state_wfigs":"US-NM","county":"Rio Arriba","discovery_time_utc":"2021-05-29T23:53:00Z","perimeter_time_utc":"2021-06-15T00:00:00Z","perimeter_edit_time_utc":"2023-03-14T15:13:42Z","incident_modified_time_utc":"2021-10-06T22:01:09Z","containment_time_utc":"2021-06-28T18:40:00Z","control_time_utc":"2021-07-24T15:00:00Z","fire_out_time_utc":"2021-10-06T21:00:15Z","fire_cause":"Natural","fire_cause_general":"Natural","map_method":"Infrared Image","source_dataset":"FFP","unique_fire_identifier":"2021-NMCAF-000175","irwin_id":"{8E384CAA-9CF2-4D0F-A06E-0FE0A5999BED}","global_id":"31fc0eb0-d2f2-4a1d-81e4-c1f68b4dca4e"}},{"type":"Feature","geometry":{"type":"Polygon","coordinates":[[[-108.75047,36.85542],[-108.75136,36.85438],[-108.75138,36.8542],[-108.75127,36.85396],[-108.75028,36.85337],[-108.74912,36.85241],[-108.74803,36.85201],[-108.74719,36.85258],[-108.74617,36.85264],[-108.74595,36.85246],[-108.74614,36.85195],[-108.74742,36.8504],[-108.74756,36.8498],[-108.748,36.84931],[-108.74809,36.84869],[-108.74881,36.84861],[-108.75079,36.84875],[-108.75187,36.84935],[-108.75287,36.84947],[-108.75347,36.84981],[-108.75376,36.85019],[-108.75378,36.85072],[-108.75358,36.85092],[-108.75356,36.85118],[-108.75435,36.85157],[-108.7548,36.85132],[-108.75507,36.85179],[-108.75538,36.85502],[-108.75531,36.85557],[-108.75485,36.85582],[-108.75461,36.85615],[-108.75245,36.85576],[-108.75058,36.85582],[-108.75047,36.85542]]]},"properties":{"fire_id":"ufid:2021-AZNAA-000034","source_collection":"history-2021","source_objectid":10445,"incident_name":"2nd Wash 1","mapped_acres":150.0,"mapped_acres_source":"poly_GISAcres","gis_acres":150.0,"auto_acres":98.2383761251088,"reported_acres":89.0,"percent_contained":null,"state":"NM","state_wfigs":"US-NM","county":"San Juan","discovery_time_utc":"2021-04-04T20:15:18Z","perimeter_time_utc":"2021-04-05T01:15:18Z","perimeter_edit_time_utc":"2023-03-14T15:13:42Z","incident_modified_time_utc":"2021-08-26T17:32:59Z","containment_time_utc":"2021-04-05T23:00:00Z","control_time_utc":"2021-04-07T18:00:00Z","fire_out_time_utc":"2021-05-05T16:55:00Z","fire_cause":"Human","fire_cause_general":"Debris and open burning","map_method":"Image Interpretation","source_dataset":"FFP","unique_fire_identifier":"2021-AZNAA-000034","irwin_id":"{5EEBAFC5-7FE9-4CED-88C3-953A15079F47}","global_id":"017e3f58-51b6-4cef-b0dd-b57b9ad1608a"}},{"type":"Feature","geometry":{"type":"Polygon","coordinates":[[[-108.83767,35.06478],[-108.83868,35.06669],[-108.83839,35.06871],[-108.83851,35.06941],[-108.83507,35.06525],[-108.83767,35.06478]]]},"properties":{"fire_id":"ufid:2021-NMZUA-000119","source_collection":"history-2021","source_objectid":11879,"incident_name":"RIVERBED","mapped_acres":1.0,"mapped_acres_source":"poly_GISAcres","gis_acres":1.0,"auto_acres":18.810760174927573,"reported_acres":13.0,"percent_contained":null,"state":"NM","state_wfigs":"US-NM","county":"McKinley","discovery_time_utc":"2021-04-08T22:49:00Z","perimeter_time_utc":"2021-04-09T04:26:00Z","perimeter_edit_time_utc":"2023-03-14T15:13:42Z","incident_modified_time_utc":"2021-05-16T20:19:53Z","containment_time_utc":"2021-04-09T01:27:00Z","control_time_utc":"2021-04-20T22:30:00Z","fire_out_time_utc":"2021-04-20T22:30:00Z","fire_cause":"Human","fire_cause_general":"Other causes","map_method":"Hand Sketch","source_dataset":"FFP","unique_fire_identifier":"2021-NMZUA-000119","irwin_id":"{CBCC82E8-3E26-4B2F-946B-35C90375F039}","global_id":"209deee4-9012-4f20-9515-e723b5768e3b"}},{"type":"Feature","geometry":{"type":"MultiPolygon","coordinates":[[[[-106.9043,36.49249],[-106.90384,36.493],[-106.90309,36.49313],[-106.9027,36.49232],[-106.90108,36.49267],[-106.90065,36.49336],[-106.90114,36.49437],[-106.901,36.49469],[-106.90017,36.49435],[-106.90009,36.49451],[-106.90037,36.49501],[-106.9002,36.4952],[-106.89996,36.49518],[-106.89977,36.49497],[-106.899,36.49512],[-106.89856,36.49629],[-106.89755,36.49606],[-106.89708,36.4962],[-106.8969,36.49656],[-106.89718,36.49759],[-106.89781,36.4978],[-106.89811,36.49812],[-106.89801,36.49857],[-106.8968,36.49891],[-106.89646,36.49854],[-106.89575,36.49814],[-106.89471,36.49816],[-106.89401,36.49762],[-106.89397,36.49715],[-106.89377,36.49678],[-106.89377,36.49568],[-106.89403,36.49554],[-106.89386,36.49509],[-106.89318,36.49458],[-106.89359,36.49428],[-106.89381,36.49349],[-106.89353,36.49302],[-106.89257,36.493],[-106.89239,36.4921],[-106.89376,36.49156],[-106.89388,36.4911],[-106.89458,36.49094],[-106.89483,36.49059],[-106.89484,36.49024],[-106.89509,36.49002],[-106.89479,36.48975],[-106.8948,36.48839],[-106.89462,36.48784],[-106.89486,36.48694],[-106.8946,36.48691],[-106.89431,36.48665],[-106.89466,36.48641],[-106.89466,36.48622],[-106.89432,36.48623],[-106.89424,36.48577],[-106.89423,36.48543],[-106.89475,36.48527],[-106.89451,36.48469],[-106.89504,36.48456],[-106.89602,36.4846],[-106.89619,36.48413],[-106.896,36.48388],[-106.89675,36.48369],[-106.89723,36.48295],[-106.8979,36.48251],[-106.89876,36.48138],[-106.89964,36.48098],[-106.9007,36.48081],[-106.90089,36.4803],[-106.90143,36.47992],[-106.90197,36.47987],[-106.90298,36.47866],[-106.90324,36.47808],[-106.90309,36.47755],[-106.90421,36.47716],[-106.90509,36.47726],[-106.90548,36.47706],[-106.90562,36.47663],[-106.90643,36.47699],[-106.90673,36.47696],[-106.90674,36.47662],[-106.90718,36.47626],[-106.90806,36.47629],[-106.90898,36.47601],[-106.90924,36.47565],[-106.90976,36.47539],[-106.90956,36.47517],[-106.90872,36.47486],[-106.90875,36.47433],[-106.90935,36.47423],[-106.90986,36.47397],[-106.91079,36.47326],[-106.91095,36.473],[-106.91226,36.47224],[-106.9123,36.47202],[-106.91231,36.47183],[-106.91193,36.47168],[-106.91127,36.47187],[-106.91047,36.47146],[-106.91125,36.47113],[-106.9126,36.4713],[-106.91284,36.47061],[-106.91329,36.47048],[-106.91413,36.47047],[-106.91429,36.47069],[-106.91449,36.47069],[-106.91593,36.47034],[-106.9175,36.47015],[-106.91853,36.46916],[-106.91917,36.46873],[-106.92146,36.46779],[-106.92351,36.4675],[-106.9251,36.46753],[-106.92574,36.46719],[-106.92679,36.46692],[-106.92851,36.46621],[-106.92903,36.46642],[-106.92936,36.46636],[-106.93015,36.46677],[-106.93016,36.46707],[-106.92987,36.4677],[-106.92906,36.46757],[-106.9289,36.46783],[-106.9293,36.46803],[-106.93021,36.46801],[-106.93064,36.46824],[-106.93089,36.46868],[-106.93028,36.46956],[-106.93054,36.46993],[-106.93037,36.47029],[-106.92707,36.47011],[-106.92595,36.46971],[-106.92555,36.46971],[-106.925,36.47012],[-106.92506,36.47037],[-106.92494,36.47047],[-106.9245,36.47054],[-106.92253,36.46997],[-106.92175,36.47018],[-106.92096,36.47065],[-106.91991,36.47088],[-106.91933,36.47129],[-106.91898,36.47182],[-106.91842,36.47226],[-106.91756,36.47244],[-106.91663,36.47329],[-106.91608,36.47413],[-106.91607,36.47442],[-106.91672,36.47437],[-106.91685,36.47463],[-106.91683,36.47497],[-106.91639,36.47507],[-106.91578,36.47494],[-106.91579,36.47572],[-106.91362,36.47767],[-106.91345,36.47821],[-106.91292,36.47851],[-106.91181,36.48023],[-106.9118,36.4804],[-106.91221,36.48043],[-106.9128,36.48045],[-106.9129,36.48027],[-106.9135,36.48045],[-106.91407,36.4803],[-106.91436,36.48037],[-106.91457,36.48065],[-106.91447,36.48099],[-106.91421,36.48123],[-106.91268,36.48123],[-106.91238,36.48173],[-106.91152,36.48227],[-106.91084,36.48346],[-106.90986,36.48357],[-106.90955,36.48382],[-106.90904,36.48393],[-106.90874,36.48439],[-106.90786,36.48448],[-106.90733,36.48515],[-106.90693,36.48531],[-106.90656,36.48513],[-106.90574,36.4851],[-106.90538,36.48521],[-106.90551,36.48554],[-106.90592,36.4856],[-106.9061,36.48609],[-106.90584,36.48651],[-106.90645,36.4872],[-106.90643,36.48744],[-106.90569,36.4876],[-106.90545,36.48806],[-106.90443,36.48883],[-106.90349,36.489],[-106.90325,36.48916],[-106.9023,36.48922],[-106.9022,36.48948],[-106.90304,36.48968],[-106.90282,36.48998],[-106.90343,36.48992],[-106.90356,36.49011],[-106.90342,36.49056],[-106.90398,36.49145],[-106.90389,36.49193],[-106.90426,36.49195],[-106.9051,36.49156],[-106.90623,36.49199],[-106.90676,36.49171],[-106.90703,36.49189],[-106.90701,36.49209],[-106.90626,36.49284],[-106.90571,36.49283],[-106.90463,36.49237],[-106.9043,36.49249]]],[[[-106.90592,36.48991],[-106.90513,36.48991],[-106.90497,36.48977],[-106.90509,36.48929],[-106.90577,36.48916],[-106.90608,36.48932],[-106.9062,36.4898],[-106.90592,36.48991]]]]},"properties":{"fire_id":"ufid:2021-NMSNF-000150","source_collection":"history-2021","source_objectid":12559,"incident_name":"Wolf Draw","mapped_acres":710.3644,"mapped_acres_source":"poly_GISAcres","gis_acres":710.3644,"auto_acres":710.4192850246792,"reported_acres":712.0,"percent_contained":null,"state":"NM","state_wfigs":"US-NM","county":"Rio Arriba","discovery_time_utc":"2021-05-29T23:13:00Z","perimeter_time_utc":"2021-06-09T00:00:00Z","perimeter_edit_time_utc":"2023-03-14T15:13:42Z","incident_modified_time_utc":"2021-08-10T15:29:39Z","containment_time_utc":"2021-06-21T20:00:00Z","control_time_utc":"2021-07-05T17:39:00Z","fire_out_time_utc":"2021-07-12T20:00:00Z","fire_cause":"Human","fire_cause_general":"Recreation and ceremony","map_method":"Infrared Image","source_dataset":"FFP","unique_fire_identifier":"2021-NMSNF-000150","irwin_id":"{9CB65727-2A79-41A8-BB64-895A3181D86A}","global_id":"9375ed91-056d-4d3d-a9a9-4f5dfb775d8a"}},{"type":"Feature","geometry":{"type":"Polygon","coordinates":[[[-105.53794,35.89137],[-105.53807,35.89095],[-105.53853,35.89088],[-105.53862,35.89044],[-105.53917,35.89068],[-105.53896,35.89016],[-105.53964,35.89019],[-105.5398,35.89006],[-105.53988,35.88989],[-105.53952,35.88962],[-105.53954,35.88939],[-105.54041,35.88953],[-105.54095,35.88983],[-105.54087,35.88998],[-105.54011,35.89025],[-105.54003,35.89044],[-105.54015,35.8908],[-105.54041,35.89095],[-105.54049,35.8912],[-105.54034,35.89175],[-105.54095,35.8919],[-105.54116,35.89244],[-105.54133,35.89252],[-105.54215,35.89208],[-105.5425,35.89237],[-105.54329,35.8922],[-105.54324,35.89201],[-105.54301,35.89186],[-105.54342,35.89149],[-105.5438,35.8916],[-105.5442,35.89196],[-105.54725,35.89057],[-105.54796,35.89068],[-105.54854,35.89102],[-105.54899,35.89152],[-105.54929,35.89212],[-105.54938,35.89281],[-105.54928,35.89352],[-105.54859,35.8949],[-105.54656,35.89742],[-105.5457,35.89872],[-105.5443,35.90206],[-105.54393,35.90267],[-105.54284,35.90367],[-105.54215,35.90404],[-105.53918,35.90516],[-105.53783,35.90582],[-105.53689,35.9068],[-105.53576,35.90879],[-105.53536,35.90906],[-105.53486,35.90915],[-105.53432,35.90899],[-105.53384,35.90868],[-105.5332,35.90781],[-105.53249,35.90566],[-105.5309,35.90255],[-105.52978,35.89973],[-105.52958,35.89856],[-105.52963,35.89739],[-105.52982,35.89682],[-105.53018,35.89629],[-105.5307,35.89583],[-105.53546,35.89376],[-105.53547,35.89353],[-105.53519,35.89311],[-105.5346,35.89309],[-105.5342,35.89353],[-105.53372,35.89323],[-105.5337,35.89304],[-105.53427,35.8929],[-105.53424,35.89275],[-105.53443,35.89252],[-105.53513,35.89262],[-105.53557,35.89244],[-105.53554,35.89201],[-105.53522,35.89194],[-105.53521,35.89183],[-105.53523,35.89168],[-105.53553,35.89161],[-105.53569,35.89141],[-105.53564,35.89116],[-105.53618,35.89102],[-105.5366,35.89144],[-105.5372,35.89171],[-105.53711,35.89155],[-105.53794,35.89137]]]},"properties":{"fire_id":"ufid:2021-NMSNF-000190","source_collection":"history-2021","source_objectid":13144,"incident_name":"Rincon","mapped_acres":533.3489,"mapped_acres_source":"poly_GISAcres","gis_acres":533.3489,"auto_acres":533.742668198176,"reported_acres":533.0,"percent_contained":null,"state":"NM","state_wfigs":"US-NM","county":"Mora","discovery_time_utc":"2021-06-11T18:02:00Z","perimeter_time_utc":"2021-06-20T00:00:00Z","perimeter_edit_time_utc":"2023-03-14T15:13:42Z","incident_modified_time_utc":"2022-01-14T18:15:51Z","containment_time_utc":"2021-07-16T23:00:00Z","control_time_utc":"2021-07-16T23:00:00Z","fire_out_time_utc":"2021-09-22T16:00:00Z","fire_cause":"Undetermined","fire_cause_general":"Undetermined","map_method":"Infrared Image","source_dataset":"FFP","unique_fire_identifier":"2021-NMSNF-000190","irwin_id":"{23C8A433-EEFD-411B-8CCC-B13AD0F29CD8}","global_id":"b3e697c4-34d8-46dd-958d-a573eb36224e"}},{"type":"Feature","geometry":{"type":"Polygon","coordinates":[[[-106.35602,35.58654],[-106.35493,35.58706],[-106.35471,35.58697],[-106.35467,35.58666],[-106.35546,35.58597],[-106.35577,35.58595],[-106.35605,35.58634],[-106.35602,35.58654]]]},"properties":{"fire_id":"ufid:2021-NMN6S-000069","source_collection":"history-2021","source_objectid":14750,"incident_name":"ROUGH","mapped_acres":2.42,"mapped_acres_source":"poly_GISAcres","gis_acres":2.42,"auto_acres":null,"reported_acres":32.59,"percent_contained":null,"state":"NM","state_wfigs":"US-NM","county":"Sandoval","discovery_time_utc":"2021-03-16T20:10:00Z","perimeter_time_utc":null,"perimeter_edit_time_utc":null,"incident_modified_time_utc":"2021-03-31T14:03:22Z","containment_time_utc":"2021-03-17T18:00:00Z","control_time_utc":"2021-03-19T01:00:00Z","fire_out_time_utc":"2021-03-22T00:00:00Z","fire_cause":"Human","fire_cause_general":null,"map_method":"Hand Sketch","source_dataset":"Inspector","unique_fire_identifier":"2021-NMN6S-000069","irwin_id":"{25F12CA8-471A-4A33-AA2A-115988349503}","global_id":"42cd7da6-72c4-41a0-a633-6c7bf9675f59"}},{"type":"Feature","geometry":{"type":"Polygon","coordinates":[[[-106.34876,35.59039],[-106.35129,35.58791],[-106.3524,35.58913],[-106.35464,35.59104],[-106.35569,35.59312],[-106.35621,35.59364],[-106.35436,35.59658],[-106.35187,35.59738],[-106.35011,35.59862],[-106.34885,35.60024],[-106.34414,35.60285],[-106.34324,35.60105],[-106.34159,35.60016],[-106.3406,35.5991],[-106.3452,35.59444],[-106.34813,35.59287],[-106.35001,35.59204],[-106.34876,35.59039]]]},"properties":{"fire_id":"ufid:2021-NMSPA-000081","source_collection":"history-2021","source_objectid":14787,"incident_name":"COCHITI 2","mapped_acres":248.07,"mapped_acres_source":"poly_GISAcres","gis_acres":248.07,"auto_acres":null,"reported_acres":248.0,"percent_contained":null,"state":"NM","state_wfigs":"US-NM","county":"Sandoval","discovery_time_utc":"2021-03-21T19:33:00Z","perimeter_time_utc":null,"perimeter_edit_time_utc":null,"incident_modified_time_utc":"2021-04-08T19:05:47Z","containment_time_utc":"2021-03-25T00:00:00Z","control_time_utc":"2021-03-30T20:00:00Z","fire_out_time_utc":"2021-04-05T22:00:00Z","fire_cause":"Unknown","fire_cause_general":null,"map_method":"Hand Sketch","source_dataset":"Inspector","unique_fire_identifier":"2021-NMSPA-000081","irwin_id":"{E2D9C98E-F100-4D04-A72F-0EB4A0C16237}","global_id":"ef3e251d-e77d-4575-9120-1b63f36fee76"}},{"type":"Feature","geometry":{"type":"MultiPolygon","coordinates":[[[[-106.35238,35.55085],[-106.35238,35.55084],[-106.35239,35.55084],[-106.35238,35.55085]]],[[[-106.3575,35.55117],[-106.35749,35.55117],[-106.3575,35.55116],[-106.3575,35.55117]]],[[[-106.35665,35.5494],[-106.35757,35.55115],[-106.35741,35.55117],[-106.35731,35.55162],[-106.35705,35.55185],[-106.357,35.55221],[-106.35681,35.55244],[-106.35704,35.55274],[-106.35675,35.55278],[-106.35652,35.55262],[-106.35607,35.55304],[-106.35599,35.55342],[-106.35567,35.55336],[-106.35532,35.5545],[-106.35501,35.5546],[-106.35476,35.55451],[-106.35467,35.55469],[-106.3544,35.55451],[-106.3544,35.55471],[-106.35428,35.55478],[-106.35396,35.55441],[-106.35385,35.55463],[-106.3537,35.55465],[-106.35356,35.55455],[-106.35358,35.55436],[-106.35342,35.55439],[-106.35358,35.55475],[-106.35392,35.55494],[-106.35422,35.55494],[-106.35439,35.55479],[-106.35484,35.55495],[-106.35548,35.55493],[-106.35557,35.55551],[-106.35499,35.55673],[-106.35462,35.55691],[-106.35456,35.55711],[-106.35215,35.55674],[-106.35164,35.55608],[-106.35169,35.55596],[-106.35121,35.5557],[-106.35026,35.55458],[-106.35047,35.55431],[-106.35037,35.55359],[-106.35022,35.55356],[-106.35015,35.55338],[-106.35029,35.55327],[-106.35022,35.55312],[-106.35037,35.55218],[-106.35127,35.55149],[-106.35158,35.55156],[-106.35157,35.55142],[-106.35185,35.55118],[-106.35241,35.55085],[-106.35214,35.5502],[-106.35224,35.55007],[-106.35178,35.54969],[-106.35192,35.54911],[-106.35182,35.54904],[-106.35184,35.54868],[-106.35144,35.54872],[-106.35124,35.54859],[-106.35163,35.54838],[-106.35151,35.54833],[-106.35238,35.54808],[-106.35473,35.54828],[-106.35621,35.54791],[-106.35637,35.54836],[-106.35632,35.54859],[-106.35665,35.54875],[-106.35665,35.5494]]],[[[-106.3537,35.55471],[-106.3537,35.5547],[-106.35371,35.5547],[-106.3537,35.55471]]],[[[-106.35367,35.55471],[-106.35367,35.5547],[-106.35368,35.5547],[-106.35367,35.55471]]],[[[-106.35278,35.5569],[-106.35276,35.55693],[-106.35278,35.55687],[-106.35278,35.5569]]],[[[-106.35033,35.55379],[-106.35033,35.55378],[-106.35034,35.55378],[-106.35033,35.55379]]],[[[-106.3503,35.55397],[-106.3503,35.55398],[-106.35029,35.55396],[-106.3503,35.55397]]],[[[-106.35035,35.55399],[-106.35031,35.554],[-106.35032,35.55398],[-106.35035,35.55399]]],[[[-106.35043,35.55421],[-106.35042,35.55421],[-106.35043,35.5542],[-106.35043,35.55421]]],[[[-106.35044,35.55423],[-106.35044,35.55422],[-106.35045,35.55423],[-106.35044,35.55423]]],[[[-106.35043,35.55424],[-106.35044,35.55423],[-106.35044,35.55424],[-106.35043,35.55424]]]]},"properties":{"fire_id":"ufid:2021-NMSPA-000396","source_collection":"history-2021","source_objectid":14804,"incident_name":"SHREK","mapped_acres":108.09,"mapped_acres_source":"poly_GISAcres","gis_acres":108.09,"auto_acres":null,"reported_acres":113.0,"percent_contained":null,"state":"NM","state_wfigs":"US-NM","county":"Sandoval","discovery_time_utc":"2021-12-04T18:00:00Z","perimeter_time_utc":null,"perimeter_edit_time_utc":null,"incident_modified_time_utc":"2021-12-13T17:30:46Z","containment_time_utc":"2021-12-08T23:30:00Z","control_time_utc":null,"fire_out_time_utc":null,"fire_cause":"Undetermined","fire_cause_general":null,"map_method":"Hand Sketch","source_dataset":"Inspector","unique_fire_identifier":"2021-NMSPA-000396","irwin_id":"{E8E66FC6-12AC-47FF-BC8B-DCD3C6AB1A35}","global_id":"25051207-2644-487b-bd58-a61696f20046"}},{"type":"Feature","geometry":{"type":"MultiPolygon","coordinates":[[[[-107.05307,36.94627],[-107.05352,36.94653],[-107.0537,36.94716],[-107.05352,36.9475],[-107.0528,36.94756],[-107.05261,36.94725],[-107.05274,36.94683],[-107.05289,36.94672],[-107.05276,36.94654],[-107.05307,36.94627]]],[[[-107.03268,36.94869],[-107.03282,36.94839],[-107.03331,36.94833],[-107.03355,36.94869],[-107.03313,36.94892],[-107.03268,36.94869]]],[[[-107.02927,36.94905],[-107.029,36.9493],[-107.02894,36.94902],[-107.02882,36.94899],[-107.02877,36.94932],[-107.02864,36.94938],[-107.02819,36.94914],[-107.02864,36.94894],[-107.02927,36.94905]]],[[[-107.03268,36.94869],[-107.03259,36.94887],[-107.03268,36.94916],[-107.03223,36.94907],[-107.0316,36.94929],[-107.03147,36.94923],[-107.03126,36.94869],[-107.03061,36.94848],[-107.03046,36.9486],[-107.03053,36.94878],[-107.02952,36.94925],[-107.02927,36.94905],[-107.02926,36.94878],[-107.02889,36.94851],[-107.02884,36.94831],[-107.0281,36.94842],[-107.02783,36.94829],[-107.02741,36.94842],[-107.02738,36.94815],[-107.02783,36.9482],[-107.0282,36.94797],[-107.0281,36.94779],[-107.02762,36.94782],[-107.02744,36.94752],[-107.02801,36.94752],[-107.02782,36.94736],[-107.02747,36.94654],[-107.02687,36.94627],[-107.02678,36.94593],[-107.02703,36.94573],[-107.02704,36.94553],[-107.02596,36.94571],[-107.02559,36.94526],[-107.02484,36.9451],[-107.02442,36.94425],[-107.02414,36.94447],[-107.02417,36.94474],[-107.02388,36.94511],[-107.02316,36.94514],[-107.02239,36.94558],[-107.02206,36.94557],[-107.02188,36.94526],[-107.023,36.94438],[-107.02271,36.94411],[-107.02261,36.94367],[-107.0224,36.94371],[-107.02226,36.94403],[-107.02186,36.94438],[-107.02172,36.94491],[-107.02109,36.9451],[-107.02123,36.94537],[-107.02112,36.94564],[-107.0212,36.94592],[-107.02109,36.94603],[-107.02085,36.946],[-107.021,36.94546],[-107.0205,36.94524],[-107.01971,36.94325],[-107.01928,36.94312],[-107.01916,36.9429],[-107.0183,36.94242],[-107.01832,36.94222],[-107.01768,36.94166],[-107.0174,36.94167],[-107.01723,36.94187],[-107.01669,36.9419],[-107.01667,36.94169],[-107.017,36.94151],[-107.0168,36.94086],[-107.01681,36.94031],[-107.01633,36.93972],[-107.01597,36.93966],[-107.01593,36.93908],[-107.01553,36.93881],[-107.01566,36.93823],[-107.01633,36.93809],[-107.0164,36.93825],[-107.01617,36.93838],[-107.01614,36.93855],[-107.01638,36.93876],[-107.01666,36.93878],[-107.01699,36.93848],[-107.01705,36.93814],[-107.01732,36.93809],[-107.01719,36.93764],[-107.01736,36.93675],[-107.01693,36.93513],[-107.01723,36.93502],[-107.01738,36.93474],[-107.01791,36.93472],[-107.01894,36.93499],[-107.01958,36.93484],[-107.02038,36.93503],[-107.02109,36.93476],[-107.02145,36.93447],[-107.02217,36.93461],[-107.02262,36.93454],[-107.02334,36.93482],[-107.02379,36.9345],[-107.02397,36.93467],[-107.0246,36.93477],[-107.02487,36.93514],[-107.02567,36.93459],[-107.02565,36.93531],[-107.02505,36.93567],[-107.0251,36.93597],[-107.02523,36.93603],[-107.02505,36.93609],[-107.02495,36.93638],[-107.02412,36.9369],[-107.02416,36.93712],[-107.02393,36.93746],[-107.02433,36.93816],[-107.02456,36.93813],[-107.0249,36.93836],[-107.02478,36.93851],[-107.02467,36.93829],[-107.02433,36.93827],[-107.0244,36.93856],[-107.02496,36.93855],[-107.02506,36.93838],[-107.02523,36.93837],[-107.02554,36.9385],[-107.02553,36.93876],[-107.02505,36.93906],[-107.02451,36.93914],[-107.02396,36.9388],[-107.02345,36.93955],[-107.02304,36.93971],[-107.0234,36.93977],[-107.02361,36.93956],[-107.02388,36.93975],[-107.0246,36.93963],[-107.02485,36.9398],[-107.02472,36.94002],[-107.02421,36.94013],[-107.02425,36.94071],[-107.02385,36.94106],[-107.02426,36.94142],[-107.02417,36.9416],[-107.02429,36.94187],[-107.02397,36.942],[-107.02334,36.94185],[-107.02358,36.94196],[-107.0231,36.94214],[-107.02293,36.94267],[-107.02262,36.94303],[-107.02271,36.94339],[-107.02352,36.94372],[-107.02588,36.94252],[-107.02611,36.94196],[-107.02643,36.94199],[-107.02641,36.94178],[-107.02669,36.9416],[-107.02683,36.94124],[-107.02702,36.94136],[-107.0274,36.94124],[-107.02788,36.94061],[-107.02786,36.94049],[-107.02774,36.9405],[-107.027,36.94108],[-107.02658,36.94043],[-107.02667,36.9398],[-107.02612,36.93953],[-107.02532,36.93944],[-107.02529,36.93924],[-107.0256,36.93892],[-107.0263,36.93852],[-107.0264,36.93873],[-107.02616,36.93908],[-107.02639,36.93919],[-107.02675,36.93901],[-107.02705,36.93872],[-107.02729,36.93783],[-107.02747,36.9377],[-107.02774,36.93772],[-107.02802,36.938],[-107.02765,36.93819],[-107.02802,36.93827],[-107.02808,36.93881],[-107.0283,36.93915],[-107.02796,36.93993],[-107.02763,36.93998],[-107.02792,36.94017],[-107.02817,36.94005],[-107.02837,36.94014],[-107.02864,36.93986],[-107.02909,36.93992],[-107.0295,36.93977],[-107.02931,36.93904],[-107.02902,36.9387],[-107.0286,36.93854],[-107.02855,36.93836],[-107.0302,36.93836],[-107.03022,36.93822],[-107.0299,36.93818],[-107.02954,36.93773],[-107.02956,36.93746],[-107.02994,36.93688],[-107.03053,36.93648],[-107.03058,36.9363],[-107.0304,36.93612],[-107.03041,36.93594],[-107.03079,36.93585],[-107.03075,36.9354],[-107.03103,36.93522],[-107.03102,36.93504],[-107.03133,36.93462],[-107.03142,36.93455],[-107.03156,36.93468],[-107.0316,36.93532],[-107.03258,36.93523],[-107.03277,36.9354],[-107.03295,36.93505],[-107.0334,36.93502],[-107.03437,36.93448],[-107.03514,36.93459],[-107.03495,36.93414],[-107.03502,36.93405],[-107.03577,36.9342],[-107.03591,36.93456],[-107.03609,36.93444],[-107.03627,36.93461],[-107.03654,36.93463],[-107.03679,36.93423],[-107.03649,36.93351],[-107.03686,36.93324],[-107.03706,36.93286],[-107.03735,36.93275],[-107.03754,36.93306],[-107.03733,36.93351],[-107.03744,36.93373],[-107.03777,36.93366],[-107.03789,36.93351],[-107.03879,36.93365],[-107.03888,36.93351],[-107.03862,36.93341],[-107.03857,36.93324],[-107.03879,36.93303],[-107.03906,36.93306],[-107.03909,36.93342],[-107.03935,36.93351],[-107.03908,36.93425],[-107.03843,36.93455],[-107.03838,36.93477],[-107.03803,36.93504],[-107.03824,36.93541],[-107.03865,36.93536],[-107.03879,36.9356],[-107.03906,36.93571],[-107.03924,36.93558],[-107.03934,36.93594],[-107.03978,36.93626],[-107.0404,36.93576],[-107.04029,36.9354],[-107.04014,36.93528],[-107.03969,36.93532],[-107.03942,36.93514],[-107.03942,36.93497],[-107.03958,36.93486],[-107.03921,36.9345],[-107.03938,36.9341],[-107.04032,36.93324],[-107.04076,36.93395],[-107.04164,36.93358],[-107.04229,36.93361],[-107.04301,36.9339],[-107.04328,36.93384],[-107.04373,36.93396],[-107.04409,36.9342],[-107.04467,36.93409],[-107.04508,36.93433],[-107.04561,36.93436],[-107.04579,36.93457],[-107.04597,36.93446],[-107.04609,36.93477],[-107.04642,36.93492],[-107.04687,36.93457],[-107.04733,36.9346],[-107.04773,36.93441],[-107.04796,36.93503],[-107.04849,36.9352],[-107.04859,36.9354],[-107.04823,36.93594],[-107.04797,36.93603],[-107.04786,36.9363],[-107.0475,36.93639],[-107.04744,36.93695],[-107.04696,36.93692],[-107.04688,36.93711],[-107.04724,36.93718],[-107.0475,36.93746],[-107.04792,36.93749],[-107.0484,36.93781],[-107.04866,36.93755],[-107.04929,36.93728],[-107.04958,36.93684],[-107.0499,36.93672],[-107.04988,36.93634],[-107.05037,36.93638],[-107.05029,36.93606],[-107.04997,36.93608],[-107.04983,36.93594],[-107.04996,36.93558],[-107.04984,36.9353],[-107.05029,36.93532],[-107.05091,36.93562],[-107.05145,36.93546],[-107.05157,36.93561],[-107.05126,36.93612],[-107.05154,36.93657],[-107.05217,36.93661],[-107.05244,36.93674],[-107.05253,36.93702],[-107.05322,36.93737],[-107.05373,36.93744],[-107.05405,36.93792],[-107.05488,36.93826],[-107.05531,36.9389],[-107.05513,36.93926],[-107.05514,36.93998],[-107.055,36.94043],[-107.05504,36.94097],[-107.05543,36.94169],[-107.05533,36.94214],[-107.05472,36.94249],[-107.0546,36.94282],[-107.05426,36.94306],[-107.0542,36.94336],[-107.05403,36.94348],[-107.05415,36.94364],[-107.05434,36.94364],[-107.05425,36.94393],[-107.05433,36.94456],[-107.05401,36.94528],[-107.05357,36.94587],[-107.05321,36.94605],[-107.05313,36.94624],[-107.05298,36.94622],[-107.05313,36.94606],[-107.0531,36.94591],[-107.0525,36.94567],[-107.05207,36.9451],[-107.0523,36.94492],[-107.05211,36.94474],[-107.05267,36.94447],[-107.05256,36.94438],[-107.05259,36.94411],[-107.05208,36.94397],[-107.0517,36.94366],[-107.052,36.94312],[-107.0519,36.94267],[-107.05145,36.94258],[-107.05085,36.94288],[-107.05047,36.9428],[-107.0502,36.94295],[-107.04976,36.94284],[-107.04957,36.94266],[-107.04957,36.94281],[-107.0505,36.94348],[-107.051,36.9442],[-107.05089,36.94438],[-107.05109,36.9451],[-107.05091,36.94546],[-107.05137,36.94555],[-107.05137,36.94645],[-107.05064,36.94671],[-107.05001,36.94671],[-107.04996,36.9472],[-107.04974,36.94743],[-107.04998,36.94758],[-107.0502,36.94736],[-107.05034,36.94752],[-107.0503,36.94806],[-107.05002,36.9483],[-107.04919,36.94817],[-107.04894,36.94772],[-107.04831,36.94775],[-107.04795,36.94746],[-107.04768,36.9476],[-107.04741,36.94752],[-107.0473,36.9477],[-107.04736,36.94797],[-107.04787,36.94851],[-107.04768,36.94868],[-107.04737,36.94856],[-107.04708,36.94822],[-107.0466,36.94808],[-107.04624,36.94829],[-107.04599,36.94788],[-107.04538,36.94784],[-107.04551,36.9476],[-107.04541,36.94716],[-107.04499,36.94675],[-107.04461,36.94679],[-107.04483,36.94734],[-107.04447,36.94779],[-107.04499,36.94816],[-107.04561,36.94797],[-107.0457,36.94806],[-107.04553,36.94835],[-107.04517,36.94847],[-107.04501,36.94871],[-107.04463,36.94841],[-107.04418,36.94858],[-107.04328,36.9485],[-107.04313,36.9486],[-107.04346,36.94908],[-107.044,36.94914],[-107.04481,36.95045],[-107.04508,36.95062],[-107.04526,36.95058],[-107.04526,36.95076],[-107.04471,36.95111],[-107.04355,36.95096],[-107.04328,36.95072],[-107.04256,36.95048],[-107.04211,36.9501],[-107.04135,36.95022],[-107.04134,36.95007],[-107.0415,36.94995],[-107.04139,36.94977],[-107.04156,36.9495],[-107.04143,36.94919],[-107.04121,36.94931],[-107.04102,36.94905],[-107.04159,36.94913],[-107.04189,36.94905],[-107.04199,36.94887],[-107.04038,36.94862],[-107.04004,36.94842],[-107.04001,36.94815],[-107.04055,36.94815],[-107.04048,36.94778],[-107.04067,36.94801],[-107.04093,36.94769],[-107.04126,36.94761],[-107.04112,36.94743],[-107.04047,36.94716],[-107.04044,36.94686],[-107.04005,36.94672],[-107.03987,36.94708],[-107.03952,36.94706],[-107.03933,36.94691],[-107.03918,36.94699],[-107.03971,36.94772],[-107.0389,36.94755],[-107.03868,36.94788],[-107.03868,36.94824],[-107.03897,36.94818],[-107.03958,36.94833],[-107.0391,36.94883],[-107.03834,36.94914],[-107.03841,36.94842],[-107.03825,36.94828],[-107.03757,36.94864],[-107.0369,36.94869],[-107.03627,36.94928],[-107.03569,36.94941],[-107.03567,36.94907],[-107.03632,36.94878],[-107.03609,36.94857],[-107.03647,36.94853],[-107.03663,36.94824],[-107.03699,36.94836],[-107.03742,36.94806],[-107.03769,36.94752],[-107.03791,36.94737],[-107.03808,36.9469],[-107.03825,36.94685],[-107.03879,36.94707],[-107.03895,36.94687],[-107.03892,36.94649],[-107.03949,36.94625],[-107.03933,36.94609],[-107.03894,36.94609],[-107.0387,36.94583],[-107.03843,36.94652],[-107.03789,36.94643],[-107.03775,36.94681],[-107.03753,36.94696],[-107.03735,36.94669],[-107.03706,36.94681],[-107.03703,36.94699],[-107.03743,36.94734],[-107.0371,36.9477],[-107.03688,36.94773],[-107.03668,36.94757],[-107.03652,36.94716],[-107.03669,36.94695],[-107.03668,36.94627],[-107.03708,36.94573],[-107.0373,36.94591],[-107.03753,36.94591],[-107.0373,36.94564],[-107.03766,36.94537],[-107.03753,36.94522],[-107.03726,36.9452],[-107.03645,36.94567],[-107.03614,36.94537],[-107.03626,36.94517],[-107.03667,36.94514],[-107.03738,36.94468],[-107.03749,36.94384],[-107.03727,36.94357],[-107.03744,36.94321],[-107.0372,36.94265],[-107.03699,36.94251],[-107.03636,36.9424],[-107.03618,36.94249],[-107.03691,36.94357],[-107.03681,36.94394],[-107.03608,36.94377],[-107.03605,36.94339],[-107.03591,36.94323],[-107.03538,36.94322],[-107.03502,36.94287],[-107.03488,36.94289],[-107.03475,36.94312],[-107.03505,36.94384],[-107.03482,36.94411],[-107.0352,36.94501],[-107.03484,36.94484],[-107.03471,36.94519],[-107.03484,36.94526],[-107.03507,36.94513],[-107.0355,36.94534],[-107.03561,36.94591],[-107.03529,36.94616],[-107.0353,36.94591],[-107.03484,36.94554],[-107.03415,36.946],[-107.03445,36.94716],[-107.03492,36.94797],[-107.03513,36.94806],[-107.03507,36.94891],[-107.03556,36.94905],[-107.03538,36.94932],[-107.03509,36.94921],[-107.03507,36.94954],[-107.03547,36.94958],[-107.03583,36.94995],[-107.03538,36.94995],[-107.0352,36.95052],[-107.035,36.95032],[-107.03461,36.9504],[-107.03457,36.95049],[-107.03503,36.95056],[-107.03518,36.95076],[-107.03511,36.95085],[-107.03448,36.95049],[-107.03402,36.95049],[-107.03398,36.9504],[-107.0343,36.95022],[-107.03494,36.95015],[-107.03507,36.94995],[-107.035,36.94968],[-107.03474,36.9496],[-107.03464,36.94942],[-107.03362,36.94941],[-107.03387,36.94923],[-107.03367,36.94887],[-107.03397,36.9486],[-107.0338,36.94838],[-107.03386,36.94797],[-107.03358,36.94776],[-107.03303,36.94805],[-107.03266,36.94842],[-107.03268,36.94869]]]]},"properties":{"fire_id":"ufid:2021-NMJIA-000439","source_collection":"history-2021","source_objectid":15466,"incident_name":"Amargo","mapped_acres":1009.31,"mapped_acres_source":"poly_GISAcres","gis_acres":1009.31,"auto_acres":null,"reported_acres":1296.0,"percent_contained":100.0,"state":"NM","state_wfigs":"US-NM","county":"Rio Arriba","discovery_time_utc":"2021-07-31T00:51:00Z","perimeter_time_utc":null,"perimeter_edit_time_utc":null,"incident_modified_time_utc":"2021-10-12T18:31:26Z","containment_time_utc":"2021-09-23T23:45:00Z","control_time_utc":"2021-10-12T18:00:00Z","fire_out_time_utc":"2021-10-13T02:21:00Z","fire_cause":"Natural","fire_cause_general":null,"map_method":"Hand Sketch","source_dataset":"Inspector","unique_fire_identifier":"2021-NMJIA-000439","irwin_id":"{AEC54F3C-3B2F-4A2E-B5E0-B791D06BFB7E}","global_id":"634a5efb-0c38-4850-a41f-ef783e4b366e"}}]}
