{"type":"FeatureCollection","features":[{"type":"Feature","geometry":{"type":"Polygon","coordinates":[[[-114.94789,36.09517],[-114.9479,36.09519],[-114.94793,36.09516],[-114.94789,36.09517]]]},"properties":{"fire_id":"ufid:2021-NVCLRX-501089","source_collection":"history-2021","source_objectid":96,"incident_name":"Well","mapped_acres":0.01,"mapped_acres_source":"poly_GISAcres","gis_acres":0.01,"auto_acres":0.000708600834652591,"reported_acres":0.1,"percent_contained":null,"state":"NV","state_wfigs":"US-NV","county":"Clark","discovery_time_utc":"2021-07-16T21:19:00Z","perimeter_time_utc":"2021-07-16T08:00:00Z","perimeter_edit_time_utc":"2021-07-21T22:49:13Z","incident_modified_time_utc":"2021-08-03T01:10:02Z","containment_time_utc":"2021-07-17T01:10:00Z","control_time_utc":"2021-07-17T01:11:00Z","fire_out_time_utc":"2021-07-19T05:00:00Z","fire_cause":"Human","fire_cause_general":"Other Human Cause","map_method":"Mixed Methods","source_dataset":"2021 NIFS","unique_fire_identifier":"2021-NVCLRX-501089","irwin_id":"{D7C8EF5E-D334-46E8-B3C3-55B93C44888B}","global_id":"e445ed60-427d-41aa-9004-fc8a35864799"}},{"type":"Feature","geometry":{"type":"Polygon","coordinates":[[[-114.58126,37.50711],[-114.58127,37.50736],[-114.58115,37.50743],[-114.58151,37.50755],[-114.58185,37.50796],[-114.58205,37.50834],[-114.58196,37.50852],[-114.58212,37.50862],[-114.58148,37.50848],[-114.58134,37.50855],[-114.58132,37.50818],[-114.581,37.50775],[-114.58109,37.50747],[-114.581,37.50736],[-114.58126,37.50711]],[[-114.58126,37.50736],[-114.58127,37.50736],[-114.58126,37.50733],[-114.58126,37.50736]]]},"properties":{"fire_id":"ufid:2021-NVELD-040087","source_collection":"history-2021","source_objectid":175,"incident_name":"Stine","mapped_acres":1.82,"mapped_acres_source":"poly_GISAcres","gis_acres":1.82,"auto_acres":1.81624619043236,"reported_acres":1.8,"percent_contained":null,"state":"NV","state_wfigs":"US-NV","county":"Lincoln","discovery_time_utc":"2021-07-08T22:39:00Z","perimeter_time_utc":"2021-07-08T08:00:00Z","perimeter_edit_time_utc":"2021-07-09T21:42:13Z","incident_modified_time_utc":"2021-11-18T16:50:07Z","containment_time_utc":"2021-07-09T17:15:00Z","control_time_utc":"2021-07-12T01:00:00Z","fire_out_time_utc":"2021-07-16T17:00:00Z","fire_cause":"Human","fire_cause_general":"Other Human Cause","map_method":"Mixed Methods","source_dataset":"2021 NIFS","unique_fire_identifier":"2021-NVELD-040087","irwin_id":"{A7547FAD-D2C5-40EE-8100-B10087FD343C}","global_id":"bd5f2030-53f5-4b0e-be2b-72d9536fde60"}},{"type":"Feature","geometry":{"type":"Polygon","coordinates":[[[-114.99235,37.68799],[-114.99288,37.68784],[-114.99337,37.68796],[-114.99392,37.68884],[-114.99387,37.68952],[-114.99323,37.69101],[-114.99326,37.69182],[-114.99387,37.69433],[-114.99444,37.69505],[-114.99534,37.69562],[-114.9991,37.69668],[-115.0015,37.69769],[-115.00249,37.69842],[-115.00327,37.69929],[-115.00415,37.69991],[-115.00513,37.7001],[-115.0095,37.70012],[-115.01061,37.70026],[-115.01149,37.70075],[-115.01247,37.70225],[-115.01309,37.70288],[-115.01479,37.70391],[-115.01516,37.70467],[-115.01494,37.70547],[-115.01452,37.70628],[-115.01458,37.7071],[-115.01494,37.70792],[-115.01573,37.70855],[-115.01674,37.70886],[-115.01782,37.70899],[-115.02359,37.70934],[-115.02471,37.70959],[-115.02683,37.71047],[-115.02849,37.7119],[-115.02904,37.71277],[-115.02957,37.71464],[-115.02961,37.71592],[-115.02935,37.71711],[-115.02912,37.71767],[-115.02873,37.71815],[-115.0282,37.71849],[-115.02652,37.71918],[-115.02558,37.71982],[-115.025,37.72001],[-115.02181,37.71995],[-115.02039,37.71952],[-115.02007,37.71954],[-115.01989,37.71977],[-115.01994,37.72013],[-115.0217,37.72111],[-115.02212,37.72168],[-115.02192,37.72228],[-115.02121,37.72252],[-115.02041,37.7226],[-115.01985,37.72298],[-115.01899,37.72418],[-115.01907,37.72475],[-115.01961,37.7253],[-115.02035,37.72574],[-115.02117,37.72604],[-115.0221,37.72615],[-115.02305,37.72599],[-115.02388,37.72608],[-115.02404,37.7267],[-115.02349,37.72732],[-115.02194,37.72867],[-115.01924,37.73188],[-115.01763,37.73322],[-115.01636,37.73486],[-115.0137,37.73786],[-115.01292,37.73845],[-115.01095,37.73879],[-115.01007,37.7392],[-115.00951,37.73993],[-115.00946,37.74077],[-115.00965,37.74156],[-115.00958,37.74233],[-115.009,37.74288],[-115.00811,37.74307],[-115.00606,37.74294],[-115.00502,37.74275],[-115.00315,37.74214],[-115.00222,37.74204],[-115.00137,37.74229],[-115.0009,37.74297],[-115.00059,37.74439],[-115.00077,37.74515],[-115.00118,37.74587],[-115.00138,37.74653],[-115.00117,37.747],[-115.00063,37.7471],[-115.00017,37.74668],[-114.99978,37.74536],[-114.99959,37.74578],[-114.99981,37.74383],[-115.00013,37.74258],[-115.0006,37.74139],[-115.00065,37.74078],[-115.00017,37.7403],[-114.99779,37.73948],[-114.99731,37.7391],[-114.9971,37.73853],[-114.9974,37.73791],[-114.99826,37.73682],[-114.99803,37.7363],[-114.99692,37.73481],[-114.99559,37.73496],[-114.99484,37.73484],[-114.99342,37.73445],[-114.99277,37.73406],[-114.99162,37.73301],[-114.99113,37.7324],[-114.99062,37.73102],[-114.98997,37.73042],[-114.98714,37.72911],[-114.98635,37.72861],[-114.98491,37.72742],[-114.98374,37.72605],[-114.98283,37.72551],[-114.98172,37.72524],[-114.98053,37.72518],[-114.97819,37.72529],[-114.97524,37.72585],[-114.97433,37.72578],[-114.97367,37.72532],[-114.97256,37.72414],[-114.97183,37.72361],[-114.9709,37.72319],[-114.9699,37.72296],[-114.96924,37.72246],[-114.96918,37.72183],[-114.96885,37.72133],[-114.96738,37.72095],[-114.96505,37.71874],[-114.96481,37.71817],[-114.965,37.71752],[-114.96595,37.71622],[-114.96638,37.71463],[-114.96641,37.71392],[-114.96622,37.71327],[-114.96574,37.71275],[-114.96493,37.71239],[-114.96408,37.71221],[-114.96163,37.71248],[-114.96023,37.71237],[-114.95984,37.71201],[-114.95987,37.71088],[-114.95964,37.7105],[-114.95866,37.71001],[-114.95711,37.70983],[-114.95698,37.70962],[-114.95715,37.70941],[-114.95815,37.7093],[-114.95978,37.70859],[-114.96228,37.7081],[-114.96467,37.70735],[-114.96802,37.70704],[-114.96909,37.70673],[-114.96977,37.70611],[-114.96966,37.7054],[-114.96898,37.7048],[-114.96432,37.7038],[-114.96172,37.7037],[-114.96118,37.70341],[-114.96129,37.70296],[-114.96191,37.70259],[-114.96468,37.70177],[-114.96576,37.70164],[-114.96901,37.70145],[-114.97128,37.70165],[-114.97243,37.70154],[-114.97471,37.70074],[-114.9759,37.70059],[-114.97716,37.70081],[-114.98387,37.70344],[-114.98457,37.70418],[-114.98666,37.7079],[-114.98728,37.70867],[-114.98829,37.70895],[-114.98933,37.70864],[-114.99032,37.70811],[-114.99118,37.70749],[-114.9917,37.70672],[-114.99149,37.70574],[-114.98969,37.70309],[-114.98883,37.7003],[-114.98742,37.69884],[-114.98755,37.69809],[-114.98905,37.69699],[-114.98946,37.69626],[-114.98916,37.69359],[-114.98841,37.69112],[-114.98865,37.69039],[-114.98929,37.68982],[-114.99075,37.6891],[-114.99235,37.68799]]]},"properties":{"fire_id":"ufid:2021-NVELD-040007","source_collection":"history-2021","source_objectid":305,"incident_name":"Big Rocks","mapped_acres":4445.76975281048,"mapped_acres_source":"poly_GISAcres","gis_acres":4445.76975281048,"auto_acres":4445.75697087137,"reported_acres":4434.0,"percent_contained":100.0,"state":"NV","state_wfigs":"US-NV","county":"Lincoln","discovery_time_utc":"2021-03-09T00:32:00Z","perimeter_time_utc":null,"perimeter_edit_time_utc":"2021-05-04T22:56:06Z","incident_modified_time_utc":"2021-06-15T17:25:43Z","containment_time_utc":"2021-03-11T20:00:00Z","control_time_utc":"2021-03-11T20:00:00Z","fire_out_time_utc":"2021-03-21T19:00:00Z","fire_cause":"Human","fire_cause_general":"Other Human Cause","map_method":"Mixed Methods","source_dataset":"2021 NIFS","unique_fire_identifier":"2021-NVELD-040007","irwin_id":"{660CFDC7-0442-4A37-9C64-23AE06C1A979}","global_id":"2aa4ed1b-59af-42dc-9dcb-099d6e026d95"}},{"type":"Feature","geometry":{"type":"Polygon","coordinates":[[[-114.17293,37.75183],[-114.17199,37.7515],[-114.17163,37.7513],[-114.17164,37.75112],[-114.17264,37.75146],[-114.17304,37.7517],[-114.17293,37.75183]]]},"properties":{"fire_id":"ufid:2021-NVELD-040046","source_collection":"history-2021","source_objectid":398,"incident_name":"Panaca Kilns","mapped_acres":0.704862611269854,"mapped_acres_source":"poly_GISAcres","gis_acres":0.704862611269854,"auto_acres":0.704068011397211,"reported_acres":0.7,"percent_contained":null,"state":"NV","state_wfigs":"US-NV","county":"Lincoln","discovery_time_utc":"2021-06-15T21:34:00Z","perimeter_time_utc":null,"perimeter_edit_time_utc":"2021-06-22T20:28:58Z","incident_modified_time_utc":"2021-07-09T15:49:03Z","containment_time_utc":"2021-06-16T02:40:00Z","control_time_utc":"2021-06-17T23:00:00Z","fire_out_time_utc":"2021-06-24T19:00:00Z","fire_cause":"Human","fire_cause_general":"Equipment","map_method":"Mixed Methods","source_dataset":"2021 NIFS","unique_fire_identifier":"2021-NVELD-040046","irwin_id":"{C42AF216-459F-40C1-8006-19557B6A0803}","global_id":"6497d030-67c2-4975-887f-35a590d1d223"}},{"type":"Feature","geometry":{"type":"Polygon","coordinates":[[[-114.70973,37.61005],[-114.70949,37.61011],[-114.70928,37.60992],[-114.70973,37.61005]]]},"properties":{"fire_id":"ufid:2021-NVELD-040086","source_collection":"history-2021","source_objectid":877,"incident_name":"West Oak","mapped_acres":0.11,"mapped_acres_source":"poly_GISAcres","gis_acres":0.11,"auto_acres":0.113314975668212,"reported_acres":0.1,"percent_contained":null,"state":"NV","state_wfigs":"US-NV","county":"Lincoln","discovery_time_utc":"2021-07-07T01:48:00Z","perimeter_time_utc":"2021-07-06T08:00:00Z","perimeter_edit_time_utc":"2021-07-07T16:29:37Z","incident_modified_time_utc":"2021-08-18T22:07:39Z","containment_time_utc":"2021-07-07T03:10:00Z","control_time_utc":"2021-07-07T03:10:00Z","fire_out_time_utc":"2021-07-12T01:00:00Z","fire_cause":"Human","fire_cause_general":"Other Human Cause","map_method":"Mixed Methods","source_dataset":"2021 NIFS","unique_fire_identifier":"2021-NVELD-040086","irwin_id":"{62887D5B-CCEE-4E1C-A0CD-264414A10E2B}","global_id":"3963f3bb-28ac-4abe-8505-80cabd0a8eda"}},{"type":"Feature","geometry":{"type":"Polygon","coordinates":[[[-114.24124,38.19556],[-114.2412,38.19601],[-114.24073,38.19711],[-114.23951,38.1986],[-114.23951,38.20093],[-114.2389,38.2025],[-114.23821,38.20339],[-114.23758,38.20388],[-114.23678,38.20477],[-114.23659,38.20476],[-114.23639,38.20462],[-114.23633,38.20435],[-114.23646,38.20342],[-114.23634,38.20314],[-114.23608,38.20294],[-114.23458,38.20251],[-114.2338,38.20177],[-114.23355,38.20084],[-114.23371,38.20027],[-114.2346,38.19917],[-114.23511,38.1983],[-114.23554,38.19787],[-114.23726,38.19747],[-114.23871,38.19695],[-114.24124,38.19556]]]},"properties":{"fire_id":"ufid:2021-NVELD-040233","source_collection":"history-2021","source_objectid":1349,"incident_name":"Bowling Wash","mapped_acres":79.0,"mapped_acres_source":"poly_GISAcres","gis_acres":79.0,"auto_acres":78.6272590743762,"reported_acres":79.0,"percent_contained":null,"state":"NV","state_wfigs":"US-NV","county":"Lincoln","discovery_time_utc":"2021-09-13T16:10:00Z","perimeter_time_utc":"2021-09-14T16:25:27Z","perimeter_edit_time_utc":"2021-09-19T15:13:11Z","incident_modified_time_utc":"2021-11-18T16:49:15Z","containment_time_utc":"2021-09-16T19:08:00Z","control_time_utc":"2021-09-18T17:00:00Z","fire_out_time_utc":"2021-09-27T16:00:00Z","fire_cause":"Natural","fire_cause_general":"Lightning","map_method":"Mixed Methods","source_dataset":"2021 NIFS","unique_fire_identifier":"2021-NVELD-040233","irwin_id":"{50C0F486-A784-44E3-BA50-ADEE24155F97}","global_id":"ece165f2-3509-472a-af0e-3020be8de1e6"}},{"type":"Feature","geometry":{"type":"MultiPolygon","coordinates":[[[[-114.98357,36.4326],[-114.98374,36.43285],[-114.98337,36.43316],[-114.9834,36.43332],[-114.98303,36.43351],[-114.98337,36.43378],[-114.9833,36.43388],[-114.98351,36.43388],[-114.98342,36.43397],[-114.98351,36.43405],[-114.98427,36.43407],[-114.98426,36.43419],[-114.98413,36.4341],[-114.98407,36.43419],[-114.98427,36.43429],[-114.98397,36.43443],[-114.98388,36.43464],[-114.9839,36.43475],[-114.98429,36.43478],[-114.98394,36.43483],[-114.98394,36.43499],[-114.98378,36.43471],[-114.98373,36.43502],[-114.98341,36.43482],[-114.98327,36.43502],[-114.98292,36.43496],[-114.98273,36.43506],[-114.98241,36.4347],[-114.98214,36.43501],[-114.98199,36.43411],[-114.98169,36.43382],[-114.98161,36.43293],[-114.98145,36.43286],[-114.98122,36.43241],[-114.98165,36.43177],[-114.98151,36.43161],[-114.98163,36.43142],[-114.98151,36.43093],[-114.9812,36.43063],[-114.98131,36.43031],[-114.98115,36.43018],[-114.98135,36.42984],[-114.9816,36.42978],[-114.9814,36.43],[-114.9816,36.43035],[-114.98207,36.43038],[-114.98208,36.43026],[-114.98232,36.43015],[-114.9823,36.42976],[-114.98217,36.42966],[-114.98255,36.42943],[-114.98259,36.42953],[-114.98233,36.42976],[-114.98277,36.42983],[-114.98238,36.43021],[-114.98241,36.43051],[-114.98306,36.43081],[-114.98353,36.4308],[-114.98369,36.43102],[-114.98395,36.4308],[-114.98415,36.43085],[-114.98418,36.43116],[-114.98388,36.43139],[-114.98364,36.43199],[-114.98336,36.43207],[-114.983285,36.432268],[-114.98329019607843,36.432299869281046],[-114.98335,36.43226],[-114.98333,36.43232],[-114.98329023668639,36.43230011834319],[-114.9833,36.43236],[-114.98394,36.43236],[-114.98338,36.4324],[-114.98338,36.43256],[-114.98357,36.4326]]],[[[-114.98303,36.43501],[-114.98303,36.43502],[-114.98297,36.43505],[-114.98303,36.43501]]],[[[-114.98327,36.43502],[-114.98329,36.43502],[-114.98329,36.43505],[-114.98327,36.43502]]],[[[-114.98329,36.43505],[-114.98333,36.4351],[-114.9833,36.43508],[-114.98329,36.43505]]],[[[-114.98333,36.4351],[-114.98339,36.43514],[-114.98337,36.43515],[-114.98333,36.4351]]],[[[-114.98325,36.43562],[-114.9831,36.43548],[-114.98312,36.43527],[-114.98337,36.43515],[-114.98351,36.43526],[-114.98343,36.43537],[-114.984,36.43547],[-114.98367,36.43545],[-114.98358,36.43567],[-114.98325,36.43562]]]]},"properties":{"fire_id":"ufid:2021-NVSND-500311","source_collection":"history-2021","source_objectid":2103,"incident_name":"Toe 2","mapped_acres":23.4247547829335,"mapped_acres_source":"poly_GISAcres","gis_acres":23.4247547829335,"auto_acres":23.4246887729576,"reported_acres":23.0,"percent_contained":null,"state":"NV","state_wfigs":"US-NV","county":"Clark","discovery_time_utc":"2021-03-28T20:46:00Z","perimeter_time_utc":null,"perimeter_edit_time_utc":"2021-05-04T22:56:12Z","incident_modified_time_utc":"2021-08-03T01:14:14Z","containment_time_utc":"2021-03-29T03:00:00Z","control_time_utc":"2021-03-30T04:00:00Z","fire_out_time_utc":"2021-03-31T05:00:00Z","fire_cause":"Human","fire_cause_general":"Firearms/Weapons","map_method":"Mixed Methods","source_dataset":"2021 NIFS","unique_fire_identifier":"2021-NVSND-500311","irwin_id":"{9B7F4010-38A5-4F30-B59B-28B06616EDE3}","global_id":"2c6a78c4-cf1a-40fc-a433-b3ee47c68f33"}},{"type":"Feature","geometry":{"type":"Polygon","coordinates":[[[-114.27973,36.77688],[-114.2792,36.77687],[-114.27905,36.77704],[-114.27871,36.77709],[-114.27863,36.77698],[-114.27759,36.77725],[-114.27702,36.77721],[-114.27385,36.77781],[-114.27503,36.77749],[-114.27966,36.77669],[-114.2798,36.77672],[-114.27973,36.77688]]]},"properties":{"fire_id":"ufid:2021-NVSND-501377","source_collection":"history-2021","source_objectid":2280,"incident_name":"MM 110","mapped_acres":1.7,"mapped_acres_source":"poly_GISAcres","gis_acres":1.7,"auto_acres":1.70331426967886,"reported_acres":1.7,"percent_contained":null,"state":"NV","state_wfigs":"US-NV","county":"Clark","discovery_time_utc":"2021-08-31T00:54:00Z","perimeter_time_utc":"2021-08-30T08:00:00Z","perimeter_edit_time_utc":"2021-09-07T17:22:26Z","incident_modified_time_utc":"2021-10-06T21:05:09Z","containment_time_utc":"2021-08-31T03:57:00Z","control_time_utc":"2021-08-31T03:57:00Z","fire_out_time_utc":"2021-09-02T04:00:00Z","fire_cause":"Human","fire_cause_general":"Other Human Cause","map_method":"Mixed Methods","source_dataset":"2021 NIFS","unique_fire_identifier":"2021-NVSND-501377","irwin_id":"{DC6E1EBE-53CB-4451-BE39-CFFAC79606CF}","global_id":"66d29f05-be29-4f94-ac0c-b78fb480e82c"}},{"type":"Feature","geometry":{"type":"Polygon","coordinates":[[[-114.62975,38.69002],[-114.62996,38.68959],[-114.63004,38.68891],[-114.63024,38.68862],[-114.63012,38.68935],[-114.63027,38.68951],[-114.62975,38.69002]]]},"properties":{"fire_id":"ufid:2021-NVELD-040204","source_collection":"history-2021","source_objectid":2393,"incident_name":"Mill Creek","mapped_acres":0.469565939537907,"mapped_acres_source":"poly_GISAcres","gis_acres":0.469565939537907,"auto_acres":0.469564177206775,"reported_acres":0.25,"percent_contained":null,"state":"NV","state_wfigs":"US-NV","county":"White Pine","discovery_time_utc":"2021-08-20T16:44:00Z","perimeter_time_utc":null,"perimeter_edit_time_utc":"2021-08-23T11:43:31Z","incident_modified_time_utc":"2021-11-18T16:49:11Z","containment_time_utc":"2021-08-20T18:30:00Z","control_time_utc":"2021-08-20T21:25:00Z","fire_out_time_utc":"2021-08-25T22:00:00Z","fire_cause":"Human","fire_cause_general":"Other Human Cause","map_method":"Mixed Methods","source_dataset":"2021 NIFS","unique_fire_identifier":"2021-NVELD-040204","irwin_id":"{BB5A0474-BBBA-4A6E-B1A7-DEB02FFEF1AC}","global_id":"7bdf960d-2522-4d7b-9dd2-fc0a21b996ee"}},{"type":"Feature","geometry":{"type":"MultiPolygon","coordinates":[[[[-114.10895,37.74812],[-114.10787,37.75121],[-114.10783,37.74896],[-114.10792,37.74901],[-114.10794,37.74842],[-114.10818,37.74752],[-114.10895,37.74812]]],[[[-114.10788,37.75131],[-114.10784,37.75132],[-114.10787,37.75121],[-114.10788,37.75131]]]]},"properties":{"fire_id":"ufid:2021-NVELD-040095","source_collection":"history-2021","source_objectid":2418,"incident_name":"Uvada","mapped_acres":9.65,"mapped_acres_source":"poly_GISAcres","gis_acres":9.65,"auto_acres":4.32310745602807,"reported_acres":9.65,"percent_contained":null,"state":"NV","state_wfigs":"US-NV","county":"Lincoln","discovery_time_utc":"2021-07-12T23:04:00Z","perimeter_time_utc":"2021-07-13T16:51:05Z","perimeter_edit_time_utc":"2021-07-13T19:55:28Z","incident_modified_time_utc":"2021-08-18T22:07:46Z","containment_time_utc":"2021-07-15T14:30:00Z","control_time_utc":"2021-07-15T17:00:00Z","fire_out_time_utc":"2021-07-19T15:00:00Z","fire_cause":"Natural","fire_cause_general":"Lightning","map_method":"Mixed Methods","source_dataset":"2021 NIFS","unique_fire_identifier":"2021-NVELD-040095","irwin_id":"{4170A92F-B377-40C4-BA2E-0BE116C1FCE7}","global_id":"e6c1b9e8-f34b-4524-8d1f-4dcfb5325127"}},{"type":"Feature","geometry":{"type":"Polygon","coordinates":[[[-114.49396,37.661],[-114.49411,37.66097],[-114.49421,37.66119],[-114.49442,37.66119],[-114.49449,37.66141],[-114.49469,37.66149],[-114.49476,37.66189],[-114.49428,37.66228],[-114.49438,37.66246],[-114.49392,37.6626],[-114.49389,37.66282],[-114.49357,37.66271],[-114.49358,37.66308],[-114.49318,37.6632],[-114.49288,37.66312],[-114.49198,37.66451],[-114.49176,37.66461],[-114.4916,37.66488],[-114.49186,37.6649],[-114.49213,37.66517],[-114.49174,37.66572],[-114.49192,37.66575],[-114.49203,37.66599],[-114.49193,37.66605],[-114.49158,37.66576],[-114.49133,37.6653],[-114.49094,37.66612],[-114.49064,37.66616],[-114.49396,37.661]]]},"properties":{"fire_id":"ufid:2021-NVLINX-040040","source_collection":"history-2021","source_objectid":2456,"incident_name":"Cove","mapped_acres":7.48855105291602,"mapped_acres_source":"poly_GISAcres","gis_acres":7.48855105291602,"auto_acres":7.48852294725792,"reported_acres":7.5,"percent_contained":null,"state":"NV","state_wfigs":"US-NV","county":"Lincoln","discovery_time_utc":"2021-06-07T20:26:00Z","perimeter_time_utc":null,"perimeter_edit_time_utc":"2021-06-16T16:25:17Z","incident_modified_time_utc":"2021-07-09T15:49:02Z","containment_time_utc":"2021-06-07T23:22:00Z","control_time_utc":"2021-06-09T01:00:00Z","fire_out_time_utc":"2021-06-10T17:00:00Z","fire_cause":"Human","fire_cause_general":"Other Human Cause","map_method":"Mixed Methods","source_dataset":"2021 NIFS","unique_fire_identifier":"2021-NVLINX-040040","irwin_id":"{12175243-3EAF-4420-AC36-508B6F683D89}","global_id":"8dd6d0e9-724c-4331-a74b-318d92543620"}},{"type":"Feature","geometry":{"type":"Polygon","coordinates":[[[-114.18073,37.24807],[-114.18117,37.24694],[-114.18122,37.24706],[-114.18137,37.24695],[-114.18149,37.24704],[-114.18139,37.24793],[-114.18108,37.24848],[-114.18091,37.24857],[-114.18073,37.24807]]]},"properties":{"fire_id":"ufid:2021-NVELD-040021","source_collection":"history-2021","source_objectid":2665,"incident_name":"Lime Mountain","mapped_acres":1.77403066771266,"mapped_acres_source":"poly_GISAcres","gis_acres":1.77403066771266,"auto_acres":1.77196491620891,"reported_acres":1.8,"percent_contained":null,"state":"NV","state_wfigs":"US-NV","county":"Lincoln","discovery_time_utc":"2021-05-17T20:48:00Z","perimeter_time_utc":null,"perimeter_edit_time_utc":"2021-06-22T20:28:58Z","incident_modified_time_utc":"2021-06-15T17:27:59Z","containment_time_utc":"2021-05-18T01:30:00Z","control_time_utc":"2021-05-18T01:30:00Z","fire_out_time_utc":"2021-05-27T21:00:00Z","fire_cause":"Natural","fire_cause_general":"Lightning","map_method":"Mixed Methods","source_dataset":"2021 NIFS","unique_fire_identifier":"2021-NVELD-040021","irwin_id":"{7D2C2199-CA00-41D0-BB1E-DDF20469B17E}","global_id":"9d6383da-a35d-4411-bdb6-33cd7d2da46f"}},{"type":"Feature","geometry":{"type":"Polygon","coordinates":[[[-114.198,39.0116],[-114.19738,39.01212],[-114.19715,39.01196],[-114.19735,39.01148],[-114.19722,39.01133],[-114.19772,39.0109],[-114.1983,39.01112],[-114.198,39.0116]]]},"properties":{"fire_id":"ufid:2021-NVWHIX-040218","source_collection":"history-2021","source_objectid":2843,"incident_name":"Lehman","mapped_acres":1.74,"mapped_acres_source":"poly_GISAcres","gis_acres":1.74,"auto_acres":1.74229581190887,"reported_acres":1.7,"percent_contained":null,"state":"NV","state_wfigs":"US-NV","county":"White Pine","discovery_time_utc":"2021-08-31T17:29:00Z","perimeter_time_utc":"2021-08-31T08:00:00Z","perimeter_edit_time_utc":"2021-09-07T17:04:07Z","incident_modified_time_utc":"2021-11-18T16:49:13Z","containment_time_utc":"2021-09-01T00:25:00Z","control_time_utc":"2021-09-01T17:00:00Z","fire_out_time_utc":"2021-09-02T15:00:00Z","fire_cause":"Human","fire_cause_general":"Equipment","map_method":"Mixed Methods","source_dataset":"2021 NIFS","unique_fire_identifier":"2021-NVWHIX-040218","irwin_id":"{7060F2CE-44A7-43B6-B041-E05838B90244}","global_id":"94995c29-9e98-481b-8a66-f0a4e3889e8a"}},{"type":"Feature","geometry":{"type":"Polygon","coordinates":[[[-114.65679,37.01729],[-114.65679,37.01753],[-114.65637,37.01796],[-114.65642,37.0181],[-114.65582,37.0181],[-114.65633,37.01792],[-114.65589,37.01794],[-114.65604,37.01777],[-114.65575,37.01775],[-114.65571,37.0176],[-114.65609,37.01745],[-114.65647,37.01758],[-114.65665,37.01749],[-114.65665,37.01729],[-114.65679,37.01729]]]},"properties":{"fire_id":"ufid:2021-NVELD-040067","source_collection":"history-2021","source_objectid":2877,"incident_name":"Galt","mapped_acres":0.99,"mapped_acres_source":"poly_GISAcres","gis_acres":0.99,"auto_acres":0.993761871190347,"reported_acres":1.0,"percent_contained":null,"state":"NV","state_wfigs":"US-NV","county":"Lincoln","discovery_time_utc":"2021-06-28T19:45:00Z","perimeter_time_utc":"2021-06-28T08:00:00Z","perimeter_edit_time_utc":"2021-06-29T15:26:34Z","incident_modified_time_utc":"2021-07-09T15:49:09Z","containment_time_utc":"2021-06-28T20:00:00Z","control_time_utc":"2021-06-28T20:00:00Z","fire_out_time_utc":"2021-07-06T15:00:00Z","fire_cause":"Natural","fire_cause_general":"Lightning","map_method":"Mixed Methods","source_dataset":"2021 NIFS","unique_fire_identifier":"2021-NVELD-040067","irwin_id":"{BD877055-9822-42C8-8AFB-6B5CD48CED34}","global_id":"5b65cac8-67d2-4f03-9325-a96ef1aff8b8"}},{"type":"Feature","geometry":{"type":"Polygon","coordinates":[[[-114.75408,36.50164],[-114.75502,36.5014],[-114.75506,36.50114],[-114.75529,36.50097],[-114.75587,36.50095],[-114.75644,36.50113],[-114.75666,36.50105],[-114.75688,36.50118],[-114.75673,36.50154],[-114.75671,36.50229],[-114.75602,36.50235],[-114.75507,36.5029],[-114.75434,36.50304],[-114.75398,36.50334],[-114.75391,36.50371],[-114.75359,36.50377],[-114.75339,36.50353],[-114.75398,36.50297],[-114.75412,36.50223],[-114.75408,36.50164]]]},"properties":{"fire_id":"ufid:2021-NVSND-500450","source_collection":"history-2021","source_objectid":2975,"incident_name":"BIA 2 CHEVRON","mapped_acres":8.0,"mapped_acres_source":"poly_GISAcres","gis_acres":8.0,"auto_acres":10.7371552634927,"reported_acres":10.5,"percent_contained":null,"state":"NV","state_wfigs":"US-NV","county":"Clark","discovery_time_utc":"2021-05-02T03:53:00Z","perimeter_time_utc":"2021-05-02T08:53:00Z","perimeter_edit_time_utc":"2021-05-10T15:07:54Z","incident_modified_time_utc":"2021-08-03T01:14:38Z","containment_time_utc":"2021-05-03T00:00:00Z","control_time_utc":"2021-05-06T00:00:00Z","fire_out_time_utc":"2021-05-09T15:00:00Z","fire_cause":"Human","fire_cause_general":"Incendiary","map_method":"Other","source_dataset":"2021 NIFS","unique_fire_identifier":"2021-NVSND-500450","irwin_id":"{883D4102-3F71-471E-BFA3-5B8D04CE1AE5}","global_id":"9e0b979a-5faf-476c-a854-546233f68b73"}},{"type":"Feature","geometry":{"type":"Polygon","coordinates":[[[-114.40333,36.75007],[-114.40321,36.75009],[-114.40376,36.74991],[-114.40333,36.75007]]]},"properties":{"fire_id":"ufid:2021-NVSND-501050","source_collection":"history-2021","source_objectid":3143,"incident_name":"Mormon Mesa","mapped_acres":0.0794984155397135,"mapped_acres_source":"poly_GISAcres","gis_acres":0.0794984155397135,"auto_acres":0.0794981182542911,"reported_acres":0.25,"percent_contained":null,"state":"NV","state_wfigs":"US-NV","county":"Clark","discovery_time_utc":"2021-07-12T22:32:00Z","perimeter_time_utc":null,"perimeter_edit_time_utc":"2021-07-29T17:39:56Z","incident_modified_time_utc":"2021-08-03T01:10:00Z","containment_time_utc":"2021-07-13T00:16:00Z","control_time_utc":"2021-07-13T00:16:00Z","fire_out_time_utc":"2021-07-20T23:00:00Z","fire_cause":"Human","fire_cause_general":"Equipment","map_method":"Mixed Methods","source_dataset":"2021 NIFS","unique_fire_identifier":"2021-NVSND-501050","irwin_id":"{460046A5-8A6C-406F-9A2B-151A310CFF53}","global_id":"a5506a38-30e8-4a1e-acd9-4742953d75c1"}},{"type":"Feature","geometry":{"type":"Polygon","coordinates":[[[-114.51706,37.02473],[-114.51647,37.02514],[-114.5154,37.02516],[-114.51332,37.02434],[-114.51309,37.02399],[-114.51321,37.02346],[-114.51376,37.0231],[-114.51352,37.02268],[-114.5131,37.02234],[-114.51312,37.02211],[-114.51337,37.02191],[-114.51478,37.02218],[-114.51509,37.02141],[-114.51469,37.02089],[-114.51321,37.01995],[-114.51253,37.01922],[-114.51251,37.01871],[-114.51325,37.0184],[-114.51348,37.01846],[-114.51355,37.01831],[-114.5135,37.01782],[-114.5132,37.01721],[-114.51316,37.01606],[-114.5135,37.01612],[-114.51415,37.01663],[-114.51445,37.01668],[-114.51496,37.01661],[-114.51553,37.01597],[-114.51763,37.01641],[-114.51797,37.01662],[-114.51842,37.01741],[-114.51886,37.01751],[-114.51924,37.01793],[-114.51902,37.01919],[-114.5191,37.01991],[-114.5189,37.02041],[-114.51899,37.02069],[-114.51957,37.02116],[-114.51966,37.02155],[-114.51925,37.02191],[-114.51846,37.02225],[-114.51828,37.02295],[-114.51741,37.0238],[-114.51706,37.02473]]]},"properties":{"fire_id":"ufid:2021-NVELD-040211","source_collection":"history-2021","source_objectid":3318,"incident_name":"Vigo","mapped_acres":106.66746044907,"mapped_acres_source":"poly_GISAcres","gis_acres":106.66746044907,"auto_acres":106.667064062451,"reported_acres":107.0,"percent_contained":null,"state":"NV","state_wfigs":"US-NV","county":"Lincoln","discovery_time_utc":"2021-08-25T23:18:00Z","perimeter_time_utc":null,"perimeter_edit_time_utc":"2021-09-28T20:17:07Z","incident_modified_time_utc":"2021-11-18T16:52:03Z","containment_time_utc":"2021-08-27T17:00:00Z","control_time_utc":"2021-08-28T02:00:00Z","fire_out_time_utc":"2021-08-30T19:00:00Z","fire_cause":"Natural","fire_cause_general":"Lightning","map_method":"Mixed Methods","source_dataset":"2021 NIFS","unique_fire_identifier":"2021-NVELD-040211","irwin_id":"{79C8CEC9-AC78-43FE-AFA8-463381AEACB6}","global_id":"19019dbf-fb5e-4fce-a035-0750854399f0"}},{"type":"Feature","geometry":{"type":"Polygon","coordinates":[[[-114.6202,37.68299],[-114.62077,37.68318],[-114.6219,37.68316],[-114.62233,37.68336],[-114.62263,37.68328],[-114.62316,37.68384],[-114.62385,37.68401],[-114.62427,37.68366],[-114.62453,37.68375],[-114.62489,37.68397],[-114.62462,37.68434],[-114.62487,37.68474],[-114.62491,37.68513],[-114.62471,37.68531],[-114.62413,37.68539],[-114.62389,37.68562],[-114.62312,37.6855],[-114.62264,37.68557],[-114.6222,37.68533],[-114.62169,37.68543],[-114.62149,37.68519],[-114.62061,37.68516],[-114.62009,37.68534],[-114.61943,37.68532],[-114.61865,37.68499],[-114.61782,37.68503],[-114.61718,37.68475],[-114.61663,37.68468],[-114.61614,37.68439],[-114.61754,37.68436],[-114.61701,37.6843],[-114.61658,37.68403],[-114.61621,37.68399],[-114.61707,37.68405],[-114.61712,37.6839],[-114.61665,37.68374],[-114.617,37.68363],[-114.61796,37.68376],[-114.61867,37.6834],[-114.61924,37.68342],[-114.61978,37.68326],[-114.6202,37.68299]]]},"properties":{"fire_id":"ufid:2021-NVELD-040050","source_collection":"history-2021","source_objectid":3323,"incident_name":"Antelope Canyon","mapped_acres":34.2473664426705,"mapped_acres_source":"poly_GISAcres","gis_acres":34.2473664426705,"auto_acres":34.2472381746548,"reported_acres":34.0,"percent_contained":null,"state":"NV","state_wfigs":"US-NV","county":"Lincoln","discovery_time_utc":"2021-06-18T23:03:00Z","perimeter_time_utc":"2021-06-19T15:58:02Z","perimeter_edit_time_utc":"2021-06-21T15:24:00Z","incident_modified_time_utc":"2021-07-09T15:49:04Z","containment_time_utc":"2021-06-21T00:30:00Z","control_time_utc":"2021-06-25T00:00:00Z","fire_out_time_utc":"2021-06-25T01:00:00Z","fire_cause":"Natural","fire_cause_general":"Lightning","map_method":"Mixed Methods","source_dataset":"2021 NIFS","unique_fire_identifier":"2021-NVELD-040050","irwin_id":"{1C175025-575C-4262-A6E1-182D4C8CFD05}","global_id":"832b1513-8307-4724-8ada-24c69e490751"}},{"type":"Feature","geometry":{"type":"Polygon","coordinates":[[[-114.97874,36.44356],[-114.97885,36.44359],[-114.97878,36.44361],[-114.97874,36.44356]]]},"properties":{"fire_id":"ufid:2021-NVSND-500309","source_collection":"history-2021","source_objectid":3404,"incident_name":"Toe 1","mapped_acres":0.00500030907521121,"mapped_acres_source":"poly_GISAcres","gis_acres":0.00500030907521121,"auto_acres":0.00500034400137352,"reported_acres":0.1,"percent_contained":null,"state":"NV","state_wfigs":"US-NV","county":"Clark","discovery_time_utc":"2021-03-27T19:15:00Z","perimeter_time_utc":null,"perimeter_edit_time_utc":"2021-05-04T22:56:12Z","incident_modified_time_utc":"2021-08-03T01:18:08Z","containment_time_utc":"2021-03-27T19:50:00Z","control_time_utc":"2021-03-27T19:50:00Z","fire_out_time_utc":"2021-03-27T19:50:00Z","fire_cause":"Human","fire_cause_general":"Firearms/Weapons","map_method":"Mixed Methods","source_dataset":"2021 NIFS","unique_fire_identifier":"2021-NVSND-500309","irwin_id":"{677FD8A6-CFD6-4497-9ECA-208CDB27FDC3}","global_id":"4fbbc2a3-47a4-47cc-8e17-0cfdba52c104"}},{"type":"Feature","geometry":{"type":"Polygon","coordinates":[[[-114.10456,37.26159],[-114.10553,37.26177],[-114.10637,37.26133],[-114.10693,37.2614],[-114.10658,37.26214],[-114.10613,37.26212],[-114.10629,37.2628],[-114.10691,37.2631],[-114.10753,37.26421],[-114.10817,37.26442],[-114.10849,37.26354],[-114.10872,37.26331],[-114.10949,37.26325],[-114.10983,37.26261],[-114.11043,37.26193],[-114.11074,37.26191],[-114.11106,37.26145],[-114.1114,37.2618],[-114.11181,37.26176],[-114.11195,37.2616],[-114.11183,37.26121],[-114.11047,37.26069],[-114.11018,37.26052],[-114.10996,37.26011],[-114.10953,37.26005],[-114.10981,37.25958],[-114.11064,37.2596],[-114.10998,37.25931],[-114.1102,37.25904],[-114.1106,37.25892],[-114.11034,37.25816],[-114.11104,37.25789],[-114.11154,37.25797],[-114.11171,37.25836],[-114.11098,37.25887],[-114.11218,37.25935],[-114.11598,37.26031],[-114.11499,37.25949],[-114.11585,37.25896],[-114.11977,37.26104],[-114.12112,37.26094],[-114.12262,37.26169],[-114.124,37.26308],[-114.1241,37.26394],[-114.12354,37.26448],[-114.12419,37.26453],[-114.12473,37.26491],[-114.12445,37.26513],[-114.12341,37.26529],[-114.12347,37.26549],[-114.12309,37.26565],[-114.1228,37.26558],[-114.12244,37.26581],[-114.12185,37.26652],[-114.12172,37.26645],[-114.12163,37.26687],[-114.12144,37.26702],[-114.12155,37.26707],[-114.12203,37.26662],[-114.12294,37.26646],[-114.12299,37.26664],[-114.12263,37.26716],[-114.12258,37.26748],[-114.12222,37.26785],[-114.12198,37.26785],[-114.12201,37.26803],[-114.12218,37.26806],[-114.122,37.26831],[-114.12146,37.26854],[-114.12116,37.2684],[-114.12091,37.26875],[-114.12069,37.26869],[-114.12047,37.26884],[-114.12081,37.26921],[-114.12061,37.26938],[-114.12057,37.26978],[-114.12104,37.26948],[-114.12087,37.26985],[-114.12122,37.26994],[-114.12058,37.27022],[-114.12151,37.27015],[-114.12179,37.27034],[-114.12176,37.27076],[-114.12062,37.27094],[-114.12095,37.27123],[-114.12012,37.27168],[-114.11961,37.27222],[-114.12027,37.27205],[-114.1204,37.27191],[-114.12125,37.27231],[-114.12105,37.27264],[-114.12061,37.27286],[-114.12059,37.27314],[-114.12014,37.27302],[-114.12037,37.27312],[-114.12041,37.27329],[-114.12029,37.27337],[-114.11934,37.27323],[-114.11847,37.27354],[-114.11866,37.27354],[-114.11899,37.27383],[-114.11937,37.27364],[-114.11968,37.27386],[-114.11978,37.27396],[-114.11966,37.27418],[-114.11985,37.27496],[-114.11956,37.27508],[-114.11991,37.27527],[-114.12046,37.27527],[-114.12002,37.27558],[-114.11906,37.27586],[-114.11906,37.27605],[-114.11824,37.27574],[-114.11853,37.27612],[-114.11975,37.2766],[-114.11941,37.27716],[-114.1189,37.27719],[-114.1186,37.27702],[-114.11805,37.27733],[-114.11808,37.27809],[-114.11741,37.27839],[-114.11692,37.27797],[-114.11569,37.27805],[-114.11541,37.27835],[-114.11556,37.27888],[-114.11566,37.27869],[-114.11595,37.27876],[-114.11652,37.27966],[-114.11647,37.28005],[-114.11556,37.27964],[-114.11566,37.28028],[-114.11583,37.28055],[-114.11499,37.2804],[-114.1147,37.28065],[-114.11416,37.2807],[-114.11349,37.2804],[-114.11219,37.28007],[-114.1112,37.27949],[-114.11074,37.27947],[-114.11121,37.27984],[-114.11041,37.27984],[-114.11,37.27969],[-114.10972,37.27945],[-114.10995,37.27945],[-114.10963,37.27896],[-114.10973,37.27878],[-114.10989,37.27884],[-114.10976,37.27893],[-114.10988,37.27924],[-114.1108,37.27939],[-114.11094,37.27914],[-114.1106,37.27891],[-114.11036,37.27894],[-114.1102,37.27847],[-114.11048,37.27827],[-114.11026,37.27819],[-114.10979,37.27814],[-114.1091,37.2784],[-114.10888,37.27862],[-114.10855,37.27864],[-114.10826,37.27905],[-114.10839,37.27924],[-114.10821,37.27927],[-114.10767,37.27918],[-114.10812,37.27897],[-114.10767,37.27892],[-114.10764,37.27871],[-114.10678,37.27873],[-114.10629,37.27827],[-114.10649,37.27807],[-114.10641,37.27801],[-114.10608,37.27804],[-114.10599,37.27829],[-114.10612,37.27853],[-114.10602,37.2787],[-114.10558,37.27831],[-114.10513,37.27813],[-114.10489,37.27787],[-114.10482,37.27741],[-114.10428,37.27716],[-114.10409,37.2767],[-114.10384,37.27652],[-114.10389,37.27639],[-114.10365,37.27623],[-114.10367,37.27588],[-114.10344,37.27594],[-114.10338,37.27624],[-114.10279,37.27556],[-114.10263,37.27563],[-114.10244,37.27548],[-114.1026,37.27578],[-114.10182,37.27549],[-114.10166,37.27495],[-114.10173,37.27458],[-114.10141,37.27432],[-114.10143,37.27416],[-114.10169,37.27447],[-114.10232,37.27449],[-114.10257,37.27525],[-114.10285,37.27562],[-114.10316,37.27555],[-114.1033,37.27533],[-114.10309,37.27511],[-114.10333,37.27512],[-114.10344,37.27552],[-114.10439,37.27629],[-114.1047,37.27586],[-114.10523,37.27602],[-114.10521,37.27589],[-114.10537,37.2758],[-114.10534,37.27607],[-114.10568,37.27607],[-114.106,37.27634],[-114.10607,37.276],[-114.10598,37.27586],[-114.10614,37.2757],[-114.10602,37.27564],[-114.10593,37.27581],[-114.10554,37.27573],[-114.10595,37.27533],[-114.10571,37.27518],[-114.10575,37.27475],[-114.10552,37.27471],[-114.1055,37.27442],[-114.10526,37.27428],[-114.1054,37.27471],[-114.10518,37.2749],[-114.1051,37.27534],[-114.10487,37.27537],[-114.10403,37.27487],[-114.10401,37.27497],[-114.10377,37.27489],[-114.10355,37.2751],[-114.10322,37.27489],[-114.10301,37.27495],[-114.10264,37.27474],[-114.10255,37.27442],[-114.10214,37.27428],[-114.10227,37.2739],[-114.10249,37.27391],[-114.10285,37.2737],[-114.10355,37.27377],[-114.10332,37.27338],[-114.1028,37.27308],[-114.10192,37.27289],[-114.10155,37.27257],[-114.10124,37.27249],[-114.10108,37.27236],[-114.10131,37.27227],[-114.10122,37.27211],[-114.1009,37.27217],[-114.10111,37.27195],[-114.10095,37.27184],[-114.10119,37.2717],[-114.1011,37.27166],[-114.10119,37.27152],[-114.10143,37.27147],[-114.10177,37.27165],[-114.10171,37.27135],[-114.10225,37.27168],[-114.10237,37.27157],[-114.10267,37.27161],[-114.10252,37.27139],[-114.10277,37.27116],[-114.10263,37.27106],[-114.10243,37.27123],[-114.1023,37.27113],[-114.10168,37.27008],[-114.10182,37.26994],[-114.10212,37.27013],[-114.10201,37.2696],[-114.10165,37.26965],[-114.10156,37.26943],[-114.1013,37.26932],[-114.10151,37.26918],[-114.10152,37.26895],[-114.10176,37.26895],[-114.1018,37.2688],[-114.10198,37.26876],[-114.10187,37.26914],[-114.10207,37.26933],[-114.10229,37.26928],[-114.10245,37.26947],[-114.10246,37.26934],[-114.10264,37.26934],[-114.10291,37.26974],[-114.10283,37.26936],[-114.10301,37.26927],[-114.1031,37.26902],[-114.10299,37.2686],[-114.10315,37.2685],[-114.10344,37.26858],[-114.10413,37.26991],[-114.10411,37.27028],[-114.10446,37.27067],[-114.10446,37.27096],[-114.10419,37.27113],[-114.10457,37.2714],[-114.10508,37.27224],[-114.10601,37.2724],[-114.10613,37.27254],[-114.10675,37.2727],[-114.10663,37.27295],[-114.10596,37.27321],[-114.10601,37.27345],[-114.10813,37.27371],[-114.1082,37.27333],[-114.10771,37.27293],[-114.10758,37.27261],[-114.10807,37.2723],[-114.10713,37.27106],[-114.10814,37.27095],[-114.10804,37.27054],[-114.10749,37.27008],[-114.1074,37.26961],[-114.10792,37.26953],[-114.10826,37.26964],[-114.1086,37.26958],[-114.1088,37.26937],[-114.10831,37.26914],[-114.10696,37.26896],[-114.10643,37.26873],[-114.1067,37.26834],[-114.10788,37.26791],[-114.10698,37.2675],[-114.10672,37.26787],[-114.10622,37.26786],[-114.10584,37.26813],[-114.10542,37.26793],[-114.10493,37.2683],[-114.10432,37.26843],[-114.10529,37.26768],[-114.1052,37.26737],[-114.10526,37.2666],[-114.10584,37.26671],[-114.10601,37.26652],[-114.10575,37.26636],[-114.10577,37.26574],[-114.10545,37.26555],[-114.10563,37.26536],[-114.10614,37.2653],[-114.10606,37.26514],[-114.1053,37.26478],[-114.1057,37.26472],[-114.10657,37.26418],[-114.10616,37.26419],[-114.10577,37.26397],[-114.10579,37.26373],[-114.10532,37.26363],[-114.10511,37.26377],[-114.10476,37.26356],[-114.1046,37.26377],[-114.10423,37.26376],[-114.10462,37.26358],[-114.10455,37.26335],[-114.10486,37.26294],[-114.10483,37.26267],[-114.10451,37.26253],[-114.10449,37.26232],[-114.10432,37.26218],[-114.10437,37.26191],[-114.10456,37.26177],[-114.10456,37.26159]]]},"properties":{"fire_id":"ufid:2021-NVELD-040023","source_collection":"history-2021","source_objectid":3472,"incident_name":"Bunker Peak","mapped_acres":725.797527479275,"mapped_acres_source":"poly_GISAcres","gis_acres":725.797527479275,"auto_acres":725.013249879175,"reported_acres":725.0,"percent_contained":100.0,"state":"NV","state_wfigs":"US-NV","county":"Lincoln","discovery_time_utc":"2021-05-18T21:34:00Z","perimeter_time_utc":null,"perimeter_edit_time_utc":"2021-06-22T20:28:58Z","incident_modified_time_utc":"2021-06-15T17:28:00Z","containment_time_utc":"2021-05-21T02:00:00Z","control_time_utc":"2021-05-22T00:00:00Z","fire_out_time_utc":"2021-05-27T21:00:00Z","fire_cause":"Natural","fire_cause_general":"Lightning","map_method":"Mixed Methods","source_dataset":"2021 NIFS","unique_fire_identifier":"2021-NVELD-040023","irwin_id":"{AFD93534-A5D0-4DC9-82BC-DD3D144E9405}","global_id":"0ce89aad-fcf8-4010-8ddc-08549ba11af4"}},{"type":"Feature","geometry":{"type":"MultiPolygon","coordinates":[[[[-114.50183,38.60725],[-114.50188,38.60725],[-114.50183,38.60729],[-114.50183,38.60725]]],[[[-114.50058,38.60788],[-114.50078,38.60764],[-114.50078,38.60741],[-114.50091,38.60736],[-114.50133,38.6073],[-114.50139,38.6075],[-114.50163,38.60755],[-114.50159,38.60774],[-114.50147,38.60763],[-114.50147,38.60777],[-114.50129,38.60776],[-114.50111,38.60759],[-114.50061,38.60801],[-114.50058,38.60788]]]]},"properties":{"fire_id":"ufid:2021-NVELD-040031","source_collection":"history-2021","source_objectid":3474,"incident_name":"Gouge Eye","mapped_acres":0.691561922092074,"mapped_acres_source":"poly_GISAcres","gis_acres":0.691561922092074,"auto_acres":0.691559324347822,"reported_acres":0.9,"percent_contained":null,"state":"NV","state_wfigs":"US-NV","county":"Lincoln","discovery_time_utc":"2021-06-04T21:42:00Z","perimeter_time_utc":null,"perimeter_edit_time_utc":"2021-06-16T16:21:35Z","incident_modified_time_utc":"2021-06-15T17:25:49Z","containment_time_utc":"2021-06-05T14:14:00Z","control_time_utc":"2021-06-06T15:35:00Z","fire_out_time_utc":"2021-06-10T17:00:00Z","fire_cause":"Natural","fire_cause_general":"Lightning","map_method":"GPS-Walked","source_dataset":"2021 NIFS","unique_fire_identifier":"2021-NVELD-040031","irwin_id":"{681F6A35-FAD1-4F42-9B2E-7F2A76A2B654}","global_id":"dce70ed0-b2ce-4756-aef9-20bac3472e89"}},{"type":"Feature","geometry":{"type":"MultiPolygon","coordinates":[[[[-114.42137,39.91592],[-114.4214,39.91593],[-114.42142,39.91595],[-114.42137,39.91592]]],[[[-114.42143,39.91588],[-114.42151,39.91598],[-114.4214,39.91593],[-114.42143,39.91588]]]]},"properties":{"fire_id":"ufid:2021-NVELD-040166","source_collection":"history-2021","source_objectid":3860,"incident_name":"Mitten","mapped_acres":0.0172338523788073,"mapped_acres_source":"poly_GISAcres","gis_acres":0.0172338523788073,"auto_acres":0.0172337877978115,"reported_acres":0.1,"percent_contained":null,"state":"NV","state_wfigs":"US-NV","county":"White Pine","discovery_time_utc":"2021-07-28T14:08:00Z","perimeter_time_utc":null,"perimeter_edit_time_utc":"2021-07-29T16:51:17Z","incident_modified_time_utc":"2021-11-18T16:51:56Z","containment_time_utc":"2021-07-28T19:15:00Z","control_time_utc":"2021-07-28T19:15:00Z","fire_out_time_utc":"2021-08-04T18:00:00Z","fire_cause":"Natural","fire_cause_general":"Lightning","map_method":"Mixed Methods","source_dataset":"2021 NIFS","unique_fire_identifier":"2021-NVELD-040166","irwin_id":"{EA4BB32E-61D3-414D-9354-86A0C8C4AF48}","global_id":"99b26386-9f55-439b-805f-2a200f388569"}},{"type":"Feature","geometry":{"type":"Polygon","coordinates":[[[-114.71381,37.61119],[-114.71384,37.61109],[-114.71415,37.61118],[-114.71416,37.61132],[-114.71381,37.61119]]]},"properties":{"fire_id":"ufid:2021-NVELD-040082","source_collection":"history-2021","source_objectid":3871,"incident_name":"Tyler","mapped_acres":0.1,"mapped_acres_source":"poly_GISAcres","gis_acres":0.1,"auto_acres":0.100712264243415,"reported_acres":0.1,"percent_contained":null,"state":"NV","state_wfigs":"US-NV","county":"Lincoln","discovery_time_utc":"2021-07-03T18:25:00Z","perimeter_time_utc":"2021-07-03T08:00:00Z","perimeter_edit_time_utc":"2021-08-09T17:45:08Z","incident_modified_time_utc":"2021-08-18T22:07:38Z","containment_time_utc":"2021-07-03T19:00:00Z","control_time_utc":"2021-07-03T19:10:00Z","fire_out_time_utc":"2021-07-08T15:00:00Z","fire_cause":"Human","fire_cause_general":"Other Human Cause","map_method":"Mixed Methods","source_dataset":"2021 NIFS","unique_fire_identifier":"2021-NVELD-040082","irwin_id":"{46506551-E22D-4003-80E7-55764D494303}","global_id":"f172f9c7-676c-4cae-b238-7dfaf8f5a6ce"}},{"type":"Feature","geometry":{"type":"Polygon","coordinates":[[[-114.36029,36.74336],[-114.36032,36.74346],[-114.35985,36.74353],[-114.36077,36.74293],[-114.36105,36.74301],[-114.36082,36.7431],[-114.36065,36.7434],[-114.36029,36.74336]]]},"properties":{"fire_id":"ufid:2021-NVSND-501109","source_collection":"history-2021","source_objectid":3962,"incident_name":"Huntsman","mapped_acres":0.58,"mapped_acres_source":"poly_GISAcres","gis_acres":0.58,"auto_acres":0.577739106489951,"reported_acres":0.58,"percent_contained":null,"state":"NV","state_wfigs":"US-NV","county":"Clark","discovery_time_utc":"2021-07-18T23:39:00Z","perimeter_time_utc":"2021-07-18T08:00:00Z","perimeter_edit_time_utc":"2021-07-19T14:49:05Z","incident_modified_time_utc":"2021-08-03T01:08:53Z","containment_time_utc":"2021-07-19T05:22:00Z","control_time_utc":"2021-07-19T06:02:00Z","fire_out_time_utc":"2021-07-22T23:00:00Z","fire_cause":"Human","fire_cause_general":"Other Human Cause","map_method":"Mixed Methods","source_dataset":"2021 NIFS","unique_fire_identifier":"2021-NVSND-501109","irwin_id":"{44BE834B-E1D0-4F86-ACAB-D1A770168ECD}","global_id":"7e2837b6-234a-4df5-a744-4e15fb41e96a"}},{"type":"Feature","geometry":{"type":"Polygon","coordinates":[[[-114.38313,38.261],[-114.38556,38.26114],[-114.38877,38.26152],[-114.38947,38.26168],[-114.39003,38.26197],[-114.39035,38.26235],[-114.39064,38.26363],[-114.39125,38.26446],[-114.39116,38.26466],[-114.39023,38.26519],[-114.3897,38.2657],[-114.38952,38.26615],[-114.38978,38.26648],[-114.39168,38.26683],[-114.39259,38.26659],[-114.39287,38.26628],[-114.39292,38.2659],[-114.39237,38.26459],[-114.39247,38.26439],[-114.39273,38.26432],[-114.39682,38.26622],[-114.39708,38.26646],[-114.39724,38.26686],[-114.39691,38.26775],[-114.39646,38.26805],[-114.39451,38.26865],[-114.39428,38.26899],[-114.39442,38.26937],[-114.39483,38.2696],[-114.39644,38.26954],[-114.39703,38.26974],[-114.39729,38.27003],[-114.39838,38.27252],[-114.39935,38.27391],[-114.40004,38.27441],[-114.40297,38.27556],[-114.4036,38.27598],[-114.40378,38.27628],[-114.40377,38.27659],[-114.40355,38.2768],[-114.40265,38.27694],[-114.40234,38.27714],[-114.40168,38.2785],[-114.40071,38.27964],[-114.39998,38.28015],[-114.39908,38.28052],[-114.39809,38.28065],[-114.39677,38.28041],[-114.39601,38.28008],[-114.39409,38.27885],[-114.393,38.27853],[-114.392,38.27876],[-114.38987,38.28015],[-114.38949,38.28059],[-114.38954,38.28088],[-114.39154,38.28207],[-114.39276,38.28302],[-114.39323,38.28356],[-114.39355,38.28436],[-114.39327,38.28487],[-114.39241,38.28509],[-114.39149,38.28503],[-114.39111,38.28487],[-114.3909,38.28458],[-114.39075,38.28365],[-114.39006,38.28238],[-114.38923,38.28156],[-114.38856,38.2813],[-114.38646,38.28138],[-114.38067,38.28309],[-114.37975,38.28318],[-114.37919,38.28307],[-114.37874,38.28281],[-114.37849,38.28242],[-114.37815,38.28134],[-114.37785,38.28099],[-114.37726,38.28071],[-114.37668,38.28084],[-114.37582,38.28174],[-114.37455,38.2826],[-114.37358,38.28368],[-114.37315,38.28388],[-114.37268,38.28386],[-114.37122,38.28301],[-114.36962,38.28298],[-114.36893,38.28277],[-114.36847,38.28198],[-114.3682,38.28179],[-114.36671,38.28169],[-114.36666,38.28152],[-114.36683,38.28133],[-114.36784,38.28085],[-114.36819,38.2805],[-114.36826,38.28],[-114.36793,38.27957],[-114.36746,38.27953],[-114.36562,38.28016],[-114.36456,38.28013],[-114.36345,38.27955],[-114.36242,38.27821],[-114.36207,38.27796],[-114.36129,38.27771],[-114.35978,38.27787],[-114.35905,38.27765],[-114.35868,38.27729],[-114.35847,38.27652],[-114.35875,38.27593],[-114.3621,38.274],[-114.36569,38.27264],[-114.36878,38.27245],[-114.37079,38.27101],[-114.37305,38.27059],[-114.37521,38.26979],[-114.37557,38.2695],[-114.37645,38.26817],[-114.37688,38.26785],[-114.37764,38.26781],[-114.3789,38.26845],[-114.38013,38.26872],[-114.38083,38.26955],[-114.38128,38.26981],[-114.38193,38.26981],[-114.38232,38.26952],[-114.38247,38.26876],[-114.3823,38.26798],[-114.38096,38.26672],[-114.38064,38.26626],[-114.38054,38.26503],[-114.37985,38.2635],[-114.37991,38.26192],[-114.37979,38.26127],[-114.37924,38.26054],[-114.37731,38.2592],[-114.37717,38.25889],[-114.37722,38.25788],[-114.37682,38.25751],[-114.37613,38.25746],[-114.37517,38.25779],[-114.37431,38.25833],[-114.37382,38.25888],[-114.37362,38.25953],[-114.3737,38.26024],[-114.37481,38.26248],[-114.37495,38.26357],[-114.37457,38.26434],[-114.37392,38.26491],[-114.37334,38.26508],[-114.37295,38.26492],[-114.37292,38.26469],[-114.3734,38.26413],[-114.37348,38.26376],[-114.37279,38.26298],[-114.37244,38.26199],[-114.37295,38.26033],[-114.37308,38.25927],[-114.37294,38.25859],[-114.37196,38.25631],[-114.37186,38.25547],[-114.3722,38.25469],[-114.3733,38.25365],[-114.37358,38.25323],[-114.37357,38.25281],[-114.37281,38.2513],[-114.37293,38.25035],[-114.3735,38.24962],[-114.37518,38.24818],[-114.37618,38.24763],[-114.3766,38.24756],[-114.37853,38.24842],[-114.38079,38.24839],[-114.38118,38.24849],[-114.38145,38.24872],[-114.38163,38.2494],[-114.3814,38.25042],[-114.3803,38.25249],[-114.37884,38.25481],[-114.37859,38.25599],[-114.37862,38.25693],[-114.379,38.25777],[-114.37994,38.25854],[-114.38258,38.25924],[-114.38313,38.261]]]},"properties":{"fire_id":"ufid:2021-NVELD-040026","source_collection":"history-2021","source_objectid":7511,"incident_name":"Wilson Creek","mapped_acres":1505.363,"mapped_acres_source":"poly_GISAcres","gis_acres":1505.363,"auto_acres":1505.3570341055463,"reported_acres":1614.0,"percent_contained":null,"state":"NV","state_wfigs":"US-NV","county":"Lincoln","discovery_time_utc":"2021-05-20T17:26:00Z","perimeter_time_utc":null,"perimeter_edit_time_utc":"2023-03-14T15:13:42Z","incident_modified_time_utc":"2021-08-18T22:00:28Z","containment_time_utc":"2021-06-09T01:00:00Z","control_time_utc":"2021-07-08T21:00:00Z","fire_out_time_utc":"2021-07-22T01:00:00Z","fire_cause":"Natural","fire_cause_general":"Natural","map_method":"Mixed Methods","source_dataset":"FFP","unique_fire_identifier":"2021-NVELD-040026","irwin_id":"{0F33F291-9FC7-49B0-9EC9-AF6AF5199B4E}","global_id":"e27326dd-45d1-4b96-8ed5-d221b9021968"}},{"type":"Feature","geometry":{"type":"Polygon","coordinates":[[[-114.64647,35.03902],[-114.64633,35.03628],[-114.64564,35.03287],[-114.64589,35.03248],[-114.64582,35.03226],[-114.64634,35.03204],[-114.64687,35.03213],[-114.64744,35.03256],[-114.64795,35.03274],[-114.64801,35.0329],[-114.64827,35.03289],[-114.6483,35.03309],[-114.64876,35.03316],[-114.64906,35.03349],[-114.64929,35.03344],[-114.64988,35.03376],[-114.65011,35.03373],[-114.65019,35.03413],[-114.65002,35.03425],[-114.6502,35.03437],[-114.65006,35.03443],[-114.65023,35.03473],[-114.65013,35.03489],[-114.6503,35.03502],[-114.65024,35.03522],[-114.6507,35.03529],[-114.65078,35.03545],[-114.65104,35.03542],[-114.65109,35.03557],[-114.6515,35.03551],[-114.65171,35.03563],[-114.65162,35.03575],[-114.65184,35.03588],[-114.65186,35.03618],[-114.65149,35.0364],[-114.65198,35.03658],[-114.65169,35.03691],[-114.65172,35.03704],[-114.65143,35.03717],[-114.65174,35.03736],[-114.65176,35.03781],[-114.65089,35.03787],[-114.65078,35.03774],[-114.65001,35.03781],[-114.64981,35.03771],[-114.64974,35.03807],[-114.64922,35.0383],[-114.64923,35.03798],[-114.64896,35.03797],[-114.64889,35.03807],[-114.64902,35.03822],[-114.64886,35.03865],[-114.64905,35.039],[-114.64883,35.03916],[-114.64856,35.03911],[-114.64822,35.03924],[-114.6483,35.03957],[-114.6482,35.03972],[-114.64793,35.0395],[-114.64778,35.03987],[-114.64746,35.03988],[-114.64724,35.03961],[-114.64651,35.03998],[-114.64642,35.03985],[-114.64659,35.03974],[-114.64656,35.03954],[-114.64691,35.03953],[-114.64719,35.03928],[-114.64699,35.03917],[-114.64697,35.03898],[-114.64647,35.03902]]]},"properties":{"fire_id":"ufid:2021-AZCRA-000319","source_collection":"history-2021","source_objectid":10184,"incident_name":"BIA 2 Golf Course","mapped_acres":70.55,"mapped_acres_source":"poly_GISAcres","gis_acres":70.55,"auto_acres":70.54917834323065,"reported_acres":71.0,"percent_contained":null,"state":"NV","state_wfigs":"US-NV","county":"Clark","discovery_time_utc":"2021-04-20T06:54:00Z","perimeter_time_utc":"2021-04-20T12:00:00Z","perimeter_edit_time_utc":"2023-03-14T15:13:42Z","incident_modified_time_utc":"2021-05-17T18:51:09Z","containment_time_utc":"2021-04-22T16:30:00Z","control_time_utc":"2021-04-24T20:00:00Z","fire_out_time_utc":"2021-05-17T18:15:00Z","fire_cause":"Human","fire_cause_general":"Firearms and explosives use","map_method":"Mixed Methods","source_dataset":"FFP","unique_fire_identifier":"2021-AZCRA-000319","irwin_id":"{72DF7F2B-1EA2-4C58-B883-02F2C79E9052}","global_id":"0e6215a2-daeb-4247-bb00-671c47748416"}},{"type":"Feature","geometry":{"type":"MultiPolygon","coordinates":[[[[-114.13634,37.50147],[-114.13633,37.50147],[-114.13631,37.50146],[-114.13634,37.50147]]],[[[-114.13511,37.50089],[-114.13535,37.50133],[-114.13523,37.50151],[-114.13533,37.50181],[-114.13573,37.50168],[-114.13584,37.50151],[-114.1362,37.50146],[-114.13627,37.50146],[-114.1371,37.50165],[-114.13725,37.50184],[-114.13784,37.50205],[-114.13812,37.50233],[-114.13804,37.5027],[-114.13813,37.50289],[-114.13838,37.50318],[-114.13853,37.50319],[-114.13846,37.50375],[-114.13873,37.50424],[-114.13856,37.50451],[-114.13831,37.50442],[-114.13821,37.50414],[-114.13775,37.50431],[-114.1381,37.50474],[-114.13804,37.50496],[-114.13817,37.50526],[-114.13788,37.50536],[-114.13773,37.50519],[-114.13684,37.50547],[-114.13674,37.50511],[-114.13632,37.50518],[-114.13612,37.50505],[-114.13582,37.50468],[-114.13624,37.50444],[-114.13651,37.50326],[-114.13469,37.50274],[-114.134,37.50282],[-114.13362,37.50307],[-114.1332,37.50351],[-114.13298,37.50407],[-114.1326,37.50421],[-114.13276,37.5044],[-114.13268,37.50454],[-114.13166,37.50511],[-114.13125,37.50477],[-114.13085,37.50488],[-114.13064,37.50444],[-114.13034,37.50433],[-114.12962,37.50415],[-114.12922,37.50433],[-114.12838,37.50407],[-114.12811,37.50327],[-114.12837,37.50293],[-114.12803,37.50196],[-114.12867,37.50211],[-114.12829,37.50174],[-114.12828,37.50155],[-114.12867,37.5021],[-114.12953,37.50119],[-114.12955,37.50094],[-114.12978,37.50075],[-114.13008,37.50081],[-114.13184,37.50053],[-114.13359,37.50066],[-114.13379,37.50078],[-114.13382,37.50095],[-114.13511,37.50089]]]]},"properties":{"fire_id":"ufid:2021-NVELD-040092","source_collection":"history-2021","source_objectid":13544,"incident_name":"Pine ridge","mapped_acres":73.0,"mapped_acres_source":"poly_GISAcres","gis_acres":73.0,"auto_acres":73.4120748043638,"reported_acres":73.0,"percent_contained":null,"state":"NV","state_wfigs":"US-NV","county":"Lincoln","discovery_time_utc":"2021-07-12T19:06:00Z","perimeter_time_utc":"2021-07-13T08:00:00Z","perimeter_edit_time_utc":"2021-07-13T19:54:35Z","incident_modified_time_utc":"2021-08-18T22:07:42Z","containment_time_utc":"2021-07-14T23:47:00Z","control_time_utc":"2021-07-16T20:30:00Z","fire_out_time_utc":"2021-07-19T15:00:00Z","fire_cause":"Natural","fire_cause_general":"Lightning","map_method":"Mixed Methods","source_dataset":"2021 NIFS","unique_fire_identifier":"2021-NVELD-040092","irwin_id":"{66DBDA18-18DB-4BAD-92A0-BA5A0BC82797}","global_id":"a5c0a381-c778-4143-aaa3-97ddcf34939c"}},{"type":"Feature","geometry":{"type":"MultiPolygon","coordinates":[[[[-114.7396,37.07645],[-114.73959,37.0762],[-114.73962,37.07629],[-114.7396,37.07645]]],[[[-114.73596,37.07161],[-114.73556,37.07168],[-114.7356,37.0718],[-114.73587,37.07186],[-114.7355,37.07223],[-114.7358,37.07246],[-114.73609,37.07249],[-114.73606,37.07287],[-114.7358,37.07301],[-114.73516,37.07294],[-114.73499,37.07285],[-114.73501,37.07261],[-114.7347,37.07252],[-114.73396,37.07269],[-114.73488,37.07302],[-114.7352,37.07335],[-114.73541,37.07326],[-114.73528,37.07348],[-114.73503,37.07358],[-114.73535,37.07361],[-114.73541,37.07388],[-114.73446,37.07371],[-114.73437,37.07383],[-114.73449,37.07397],[-114.73483,37.07389],[-114.7352,37.07418],[-114.73541,37.07413],[-114.73536,37.07467],[-114.7358,37.0749],[-114.73574,37.07507],[-114.73598,37.07492],[-114.73606,37.07504],[-114.73599,37.07521],[-114.73617,37.07546],[-114.73589,37.07578],[-114.7361,37.07585],[-114.7362,37.07571],[-114.73681,37.07599],[-114.7372,37.07561],[-114.73749,37.07552],[-114.73744,37.07587],[-114.73791,37.07589],[-114.73781,37.07605],[-114.73729,37.07618],[-114.73726,37.07637],[-114.73686,37.07636],[-114.7372,37.07641],[-114.73738,37.07665],[-114.73761,37.07665],[-114.73706,37.07684],[-114.7369,37.07725],[-114.73744,37.07732],[-114.7377,37.07753],[-114.73818,37.07747],[-114.73806,37.07688],[-114.73826,37.07689],[-114.73831,37.07664],[-114.7385,37.07657],[-114.73856,37.07617],[-114.73864,37.07622],[-114.73878,37.07606],[-114.73894,37.07639],[-114.73937,37.07655],[-114.7396,37.07645],[-114.73967,37.077],[-114.73928,37.07709],[-114.73909,37.07731],[-114.73918,37.07745],[-114.73903,37.07752],[-114.73917,37.07771],[-114.73887,37.07796],[-114.7386,37.07845],[-114.73841,37.07853],[-114.73846,37.07836],[-114.73815,37.07813],[-114.73744,37.0786],[-114.73716,37.079],[-114.73667,37.07907],[-114.73591,37.07977],[-114.73527,37.08074],[-114.73475,37.08107],[-114.73446,37.08157],[-114.73371,37.08197],[-114.73309,37.08305],[-114.73247,37.08327],[-114.7323,37.08352],[-114.73231,37.08376],[-114.73167,37.08384],[-114.73098,37.08433],[-114.73083,37.0841],[-114.72993,37.0837],[-114.72982,37.08299],[-114.73026,37.08285],[-114.73079,37.0822],[-114.73112,37.08209],[-114.73143,37.08171],[-114.73188,37.08151],[-114.73158,37.08147],[-114.73134,37.08089],[-114.73152,37.08076],[-114.7315,37.08061],[-114.73194,37.08045],[-114.73205,37.08014],[-114.73246,37.08],[-114.73245,37.07968],[-114.73203,37.07924],[-114.73053,37.0784],[-114.73039,37.07858],[-114.73007,37.07859],[-114.72965,37.07882],[-114.72939,37.07866],[-114.72904,37.07886],[-114.72889,37.07879],[-114.729,37.07877],[-114.72895,37.0787],[-114.72866,37.07864],[-114.72858,37.07846],[-114.7284,37.07858],[-114.72805,37.07846],[-114.72797,37.07835],[-114.72806,37.07821],[-114.72858,37.07814],[-114.72847,37.07718],[-114.72868,37.07672],[-114.72884,37.07672],[-114.72888,37.07657],[-114.72866,37.07613],[-114.72888,37.07576],[-114.72907,37.07568],[-114.72903,37.07522],[-114.73,37.07408],[-114.73082,37.07384],[-114.73172,37.07389],[-114.73186,37.07376],[-114.73179,37.0735],[-114.73196,37.07305],[-114.73234,37.07286],[-114.73228,37.07261],[-114.73247,37.07231],[-114.73325,37.072],[-114.73333,37.07178],[-114.73378,37.07186],[-114.73415,37.07144],[-114.73512,37.07138],[-114.7358,37.07148],[-114.73596,37.07161]]]]},"properties":{"fire_id":"ufid:2021-NVELD-040066","source_collection":"history-2021","source_objectid":13659,"incident_name":"Sunflower","mapped_acres":157.44,"mapped_acres_source":"poly_GISAcres","gis_acres":157.44,"auto_acres":157.441412293852,"reported_acres":158.0,"percent_contained":null,"state":"NV","state_wfigs":"US-NV","county":"Lincoln","discovery_time_utc":"2021-06-28T19:39:00Z","perimeter_time_utc":"2021-06-29T08:00:00Z","perimeter_edit_time_utc":"2021-06-29T20:16:29Z","incident_modified_time_utc":"2021-07-09T15:49:08Z","containment_time_utc":"2021-06-30T00:00:00Z","control_time_utc":"2021-06-30T15:00:00Z","fire_out_time_utc":"2021-07-06T15:00:00Z","fire_cause":"Natural","fire_cause_general":"Lightning","map_method":"Mixed Methods","source_dataset":"2021 NIFS","unique_fire_identifier":"2021-NVELD-040066","irwin_id":"{916BDB4C-BC67-4E3D-98CA-5641DA54BBE0}","global_id":"429df6c1-7c9b-4c67-ac22-c6405b507479"}}]}
