{"type":"FeatureCollection","features":[{"type":"Feature","geometry":{"type":"Polygon","coordinates":[[[-94.80198,35.83246],[-94.80205,35.83226],[-94.80132,35.83202],[-94.80117,35.83126],[-94.80147,35.83107],[-94.80068,35.831],[-94.80022,35.832],[-94.80087,35.83228],[-94.80103,35.83276],[-94.80088,35.83305],[-94.80066,35.83304],[-94.80042,35.83255],[-94.80008,35.83244],[-94.79993,35.83158],[-94.79985,35.83151],[-94.79964,35.83174],[-94.7995,35.83172],[-94.79971,35.83131],[-94.79931,35.83122],[-94.79864,35.83151],[-94.79855,35.83122],[-94.7984,35.83115],[-94.79832,35.83073],[-94.79805,35.83064],[-94.79794,35.83111],[-94.79829,35.83123],[-94.79884,35.83202],[-94.79846,35.83202],[-94.7981,35.83173],[-94.79796,35.83188],[-94.79797,35.83224],[-94.79771,35.83232],[-94.79789,35.83297],[-94.79759,35.83311],[-94.79745,35.83282],[-94.79701,35.83275],[-94.79686,35.83291],[-94.79636,35.83289],[-94.79666,35.83231],[-94.79665,35.83184],[-94.79593,35.83142],[-94.79541,35.83074],[-94.79575,35.83025],[-94.79627,35.82999],[-94.7965,35.82918],[-94.79658,35.82794],[-94.79694,35.82768],[-94.79693,35.82681],[-94.79716,35.8267],[-94.79694,35.82624],[-94.79695,35.82562],[-94.79746,35.82538],[-94.79818,35.82538],[-94.79825,35.82465],[-94.79862,35.82385],[-94.79885,35.82362],[-94.79883,35.82248],[-94.79906,35.8218],[-94.79891,35.82166],[-94.79884,35.82122],[-94.7985,35.82088],[-94.79677,35.82123],[-94.79561,35.82121],[-94.79541,35.821],[-94.79505,35.82093],[-94.79527,35.82071],[-94.79519,35.81958],[-94.79601,35.81904],[-94.79661,35.81896],[-94.7968,35.81955],[-94.79704,35.81979],[-94.79844,35.81915],[-94.79874,35.81883],[-94.79933,35.81896],[-94.79942,35.81817],[-94.79883,35.81809],[-94.79827,35.81766],[-94.79867,35.81707],[-94.79913,35.81685],[-94.79935,35.81589],[-94.79971,35.81539],[-94.79979,35.81484],[-94.79947,35.81438],[-94.7995,35.81327],[-94.80008,35.81291],[-94.80017,35.81255],[-94.80063,35.81247],[-94.80135,35.813],[-94.80154,35.81357],[-94.80176,35.81364],[-94.80263,35.81333],[-94.80241,35.81261],[-94.803,35.81276],[-94.80323,35.81261],[-94.80443,35.81263],[-94.80483,35.81247],[-94.80482,35.81298],[-94.80497,35.81305],[-94.80497,35.81268],[-94.80548,35.81269],[-94.80577,35.81313],[-94.80584,35.81357],[-94.80643,35.81357],[-94.80664,35.81444],[-94.80737,35.81451],[-94.80748,35.81473],[-94.80812,35.81481],[-94.80839,35.8151],[-94.80803,35.81523],[-94.80859,35.81536],[-94.80909,35.81517],[-94.80905,35.81568],[-94.80883,35.81546],[-94.80866,35.81555],[-94.80883,35.8159],[-94.80913,35.8161],[-94.80912,35.81634],[-94.80942,35.81648],[-94.80971,35.81619],[-94.8099,35.81639],[-94.81042,35.81617],[-94.81053,35.81583],[-94.81115,35.81614],[-94.81124,35.81641],[-94.8116,35.8164],[-94.81164,35.81659],[-94.81204,35.81664],[-94.81184,35.81683],[-94.81217,35.81694],[-94.81299,35.81692],[-94.81347,35.81669],[-94.8138,35.81619],[-94.81524,35.81617],[-94.81552,35.81641],[-94.81561,35.81608],[-94.81511,35.81585],[-94.81592,35.81561],[-94.81615,35.81585],[-94.81598,35.81637],[-94.81631,35.81656],[-94.81649,35.81619],[-94.81672,35.81619],[-94.81731,35.81656],[-94.81794,35.81655],[-94.81873,35.81725],[-94.81882,35.81737],[-94.81846,35.81777],[-94.81906,35.81803],[-94.81904,35.81886],[-94.81842,35.81906],[-94.81799,35.81958],[-94.81762,35.8194],[-94.81743,35.81977],[-94.81685,35.81955],[-94.81663,35.81933],[-94.81628,35.81969],[-94.81583,35.81984],[-94.81584,35.82006],[-94.81561,35.8202],[-94.81511,35.81995],[-94.81466,35.82006],[-94.81467,35.82064],[-94.81437,35.82101],[-94.81438,35.82123],[-94.81406,35.82122],[-94.81421,35.82167],[-94.81459,35.82174],[-94.81438,35.82216],[-94.81384,35.82226],[-94.81347,35.82275],[-94.81311,35.82283],[-94.81277,35.82217],[-94.81228,35.82208],[-94.81138,35.82232],[-94.8112,35.8225],[-94.81146,35.82276],[-94.81175,35.82341],[-94.81029,35.82349],[-94.81,35.82378],[-94.80989,35.82411],[-94.80948,35.82424],[-94.80949,35.82458],[-94.80907,35.82468],[-94.80898,35.82516],[-94.80996,35.82525],[-94.81014,35.82554],[-94.80907,35.82568],[-94.80941,35.82615],[-94.80877,35.82636],[-94.80869,35.8256],[-94.80804,35.82553],[-94.80796,35.82612],[-94.80895,35.82674],[-94.8092,35.8272],[-94.80868,35.82728],[-94.80795,35.82706],[-94.80766,35.82721],[-94.80766,35.82743],[-94.80719,35.82742],[-94.80687,35.8271],[-94.80657,35.82611],[-94.80643,35.82729],[-94.80711,35.82795],[-94.80781,35.82794],[-94.80832,35.82864],[-94.80809,35.82896],[-94.80722,35.82874],[-94.80701,35.82896],[-94.80635,35.82925],[-94.8062,35.8291],[-94.80598,35.82911],[-94.80599,35.8294],[-94.80664,35.82991],[-94.80649,35.83005],[-94.80635,35.8299],[-94.80579,35.82991],[-94.80568,35.83057],[-94.80522,35.83065],[-94.8051,35.83153],[-94.80482,35.8318],[-94.80453,35.83187],[-94.8043,35.83232],[-94.8038,35.83231],[-94.8037,35.8328],[-94.80317,35.8329],[-94.80292,35.83326],[-94.80232,35.83325],[-94.80212,35.83304],[-94.80183,35.83297],[-94.80173,35.83258],[-94.80198,35.83246]]]},"properties":{"fire_id":"ufid:2021-OKOKS-300072","source_collection":"history-2021","source_objectid":2628,"incident_name":"Caney Creek","mapped_acres":960.0,"mapped_acres_source":"poly_GISAcres","gis_acres":960.0,"auto_acres":615.27530505119,"reported_acres":960.0,"percent_contained":100.0,"state":"OK","state_wfigs":"US-OK","county":"Adair","discovery_time_utc":"2021-03-09T17:30:00Z","perimeter_time_utc":"2021-03-09T23:30:00Z","perimeter_edit_time_utc":"2021-05-20T20:42:56Z","incident_modified_time_utc":"2021-05-20T20:44:35Z","containment_time_utc":null,"control_time_utc":null,"fire_out_time_utc":null,"fire_cause":"Human","fire_cause_general":null,"map_method":"Image Interpretation","source_dataset":"2021 NIFS","unique_fire_identifier":"2021-OKOKS-300072","irwin_id":"{F528C9AB-9FDC-4158-9D58-95426DE5D28F}","global_id":"42942662-62c9-4a67-a55f-63288885f7ca"}},{"type":"Feature","geometry":{"type":"Polygon","coordinates":[[[-94.89717,35.83665],[-94.89837,35.83638],[-94.899,35.83528],[-94.89957,35.83669],[-94.90043,35.83669],[-94.9007,35.83681],[-94.90028,35.83705],[-94.89894,35.83707],[-94.89941,35.83731],[-94.89986,35.83731],[-94.90034,35.83752],[-94.89962,35.83812],[-94.89708,35.83826],[-94.89681,35.83853],[-94.89684,35.83904],[-94.8974,35.83919],[-94.90025,35.8386],[-94.9021,35.83885],[-94.90252,35.83909],[-94.90329,35.83921],[-94.90652,35.83919],[-94.9073,35.83895],[-94.90775,35.83839],[-94.90745,35.83746],[-94.90769,35.83692],[-94.90817,35.83639],[-94.90836,35.83573],[-94.90883,35.8357],[-94.90919,35.83525],[-94.91233,35.83595],[-94.91304,35.837],[-94.91339,35.83942],[-94.91369,35.8402],[-94.91369,35.84113],[-94.91209,35.84456],[-94.91167,35.84498],[-94.91086,35.84689],[-94.91079,35.84778],[-94.91004,35.84898],[-94.90932,35.84921],[-94.90813,35.84927],[-94.90553,35.84914],[-94.90476,35.84903],[-94.90404,35.84863],[-94.9035,35.84856],[-94.90284,35.84862],[-94.90251,35.84892],[-94.90251,35.84859],[-94.90227,35.84823],[-94.90084,35.8482],[-94.90084,35.8485],[-94.90066,35.84858],[-94.90042,35.84846],[-94.90036,35.84822],[-94.90012,35.84804],[-94.8995,35.8478],[-94.89623,35.84714],[-94.8944,35.84762],[-94.89316,35.84719],[-94.89147,35.84616],[-94.89002,35.84548],[-94.88861,35.84456],[-94.88794,35.84396],[-94.88756,35.84113],[-94.8873,35.83526],[-94.88779,35.83452],[-94.88847,35.83445],[-94.88868,35.8347],[-94.88903,35.83586],[-94.88938,35.83615],[-94.89019,35.83604],[-94.88981,35.83569],[-94.89016,35.83548],[-94.89084,35.83456],[-94.89221,35.83446],[-94.89289,35.83478],[-94.8931,35.83457],[-94.89483,35.83454],[-94.8954,35.83497],[-94.89582,35.83497],[-94.896,35.83454],[-94.89628,35.83444],[-94.89681,35.83451],[-94.89678,35.83469],[-94.89716,35.83501],[-94.89773,35.83501],[-94.89783,35.83522],[-94.89698,35.8355],[-94.89667,35.83585],[-94.89666,35.83617],[-94.89717,35.83665]]]},"properties":{"fire_id":"ufid:2021-OKOKS-300130","source_collection":"history-2021","source_objectid":3715,"incident_name":"Manes Hollow","mapped_acres":670.0,"mapped_acres_source":"poly_GISAcres","gis_acres":670.0,"auto_acres":688.513153735749,"reported_acres":670.0,"percent_contained":100.0,"state":"OK","state_wfigs":"US-OK","county":"Cherokee","discovery_time_utc":"2021-03-31T17:38:00Z","perimeter_time_utc":"2021-03-31T22:38:00Z","perimeter_edit_time_utc":"2021-05-20T21:02:29Z","incident_modified_time_utc":"2021-05-20T21:02:59Z","containment_time_utc":null,"control_time_utc":null,"fire_out_time_utc":null,"fire_cause":"Human","fire_cause_general":null,"map_method":"Image Interpretation","source_dataset":"2021 NIFS","unique_fire_identifier":"2021-OKOKS-300130","irwin_id":"{43A0AC2D-7273-4A01-809C-AE2FA978DA7A}","global_id":"6751d6ad-2221-4d24-a0c5-3195d9df5dae"}},{"type":"Feature","geometry":{"type":"Polygon","coordinates":[[[-94.94296,36.30256],[-94.9426,36.30248],[-94.94335,36.30226],[-94.94402,36.30227],[-94.94508,36.30148],[-94.94462,36.30055],[-94.94307,36.30008],[-94.94274,36.29971],[-94.94265,36.29911],[-94.9409,36.29627],[-94.94642,36.29901],[-94.94764,36.29935],[-94.94774,36.29964],[-94.94741,36.29981],[-94.94618,36.2999],[-94.94592,36.30006],[-94.94641,36.30136],[-94.94755,36.30262],[-94.94841,36.30283],[-94.94987,36.30357],[-94.94841,36.3056],[-94.94912,36.30591],[-94.94905,36.30657],[-94.94848,36.30706],[-94.94835,36.30736],[-94.94926,36.30948],[-94.94948,36.31104],[-94.94871,36.3119],[-94.94772,36.31258],[-94.94729,36.31271],[-94.94613,36.31218],[-94.94597,36.31181],[-94.94627,36.31151],[-94.94631,36.31062],[-94.94648,36.31029],[-94.94635,36.30969],[-94.94588,36.30989],[-94.94578,36.31005],[-94.94518,36.31011],[-94.94509,36.31024],[-94.9446,36.30942],[-94.94457,36.30886],[-94.94494,36.30717],[-94.94478,36.30654],[-94.94412,36.30634],[-94.94144,36.30635],[-94.94088,36.30585],[-94.94078,36.30539],[-94.94109,36.30463],[-94.94172,36.3044],[-94.94212,36.30444],[-94.94212,36.30427],[-94.94129,36.3039],[-94.94176,36.30371],[-94.94203,36.30308],[-94.94226,36.30288],[-94.94296,36.30256]]]},"properties":{"fire_id":"ufid:2021-OKCNA-000577","source_collection":"history-2021","source_objectid":4893,"incident_name":"BIG BUCK HOLLOW","mapped_acres":500.0,"mapped_acres_source":"poly_GISAcres","gis_acres":500.0,"auto_acres":163.07525197258127,"reported_acres":219.8,"percent_contained":null,"state":"OK","state_wfigs":"US-OK","county":"Delaware","discovery_time_utc":"2021-03-19T23:00:00Z","perimeter_time_utc":"2021-03-20T04:30:00Z","perimeter_edit_time_utc":"2023-03-14T15:13:42Z","incident_modified_time_utc":"2021-05-27T16:24:33Z","containment_time_utc":"2021-03-27T17:00:00Z","control_time_utc":"2021-03-27T23:00:00Z","fire_out_time_utc":"2021-03-29T17:00:00Z","fire_cause":"Human","fire_cause_general":"Other causes","map_method":"Hand Sketch","source_dataset":"FFP","unique_fire_identifier":"2021-OKCNA-000577","irwin_id":"{DC648226-741A-4D17-B7B9-28FA198B44E9}","global_id":"8004be3b-a5f2-4876-8bee-db03f51fd8e5"}},{"type":"Feature","geometry":{"type":"Polygon","coordinates":[[[-94.54774,35.73058],[-94.55451,35.73058],[-94.55477,35.73411],[-94.55113,35.73534],[-94.54774,35.73058]]]},"properties":{"fire_id":"ufid:2021-OKCNA-000842","source_collection":"history-2021","source_objectid":13164,"incident_name":"WREN","mapped_acres":40.0,"mapped_acres_source":"poly_GISAcres","gis_acres":40.0,"auto_acres":56.25573620915747,"reported_acres":90.0,"percent_contained":null,"state":"OK","state_wfigs":"US-OK","county":"Adair","discovery_time_utc":"2021-04-03T17:00:00Z","perimeter_time_utc":"2021-04-03T22:00:00Z","perimeter_edit_time_utc":"2023-03-14T15:13:42Z","incident_modified_time_utc":"2021-04-16T18:35:49Z","containment_time_utc":"2021-04-04T01:00:00Z","control_time_utc":"2021-04-07T00:00:00Z","fire_out_time_utc":"2021-04-16T15:30:00Z","fire_cause":"Human","fire_cause_general":"Other causes","map_method":"Other","source_dataset":"FFP","unique_fire_identifier":"2021-OKCNA-000842","irwin_id":"{43E21D54-CB83-4760-98F8-A3DD9BB4EEF8}","global_id":"bb16be2b-f3b9-4028-8736-30d769a1d3ab"}},{"type":"Feature","geometry":{"type":"Polygon","coordinates":[[[-94.78228,36.40913],[-94.78148,36.40801],[-94.78121,36.4079],[-94.78011,36.40856],[-94.77928,36.40845],[-94.77824,36.4085],[-94.77785,36.40831],[-94.77748,36.40783],[-94.77668,36.40621],[-94.77696,36.40558],[-94.7781,36.40385],[-94.77819,36.40332],[-94.77801,36.40275],[-94.77769,36.40254],[-94.77729,36.40258],[-94.77651,36.4036],[-94.77615,36.4038],[-94.77407,36.40349],[-94.77381,36.40315],[-94.77375,36.40271],[-94.77391,36.40191],[-94.77443,36.40053],[-94.77442,36.39983],[-94.77427,36.39934],[-94.7739,36.39904],[-94.77291,36.39869],[-94.7728,36.3979],[-94.77257,36.39755],[-94.77148,36.39746],[-94.77056,36.39792],[-94.77029,36.39777],[-94.77018,36.3975],[-94.77029,36.39712],[-94.77096,36.39639],[-94.77166,36.39531],[-94.77237,36.39394],[-94.773,36.3923],[-94.77404,36.39149],[-94.77492,36.39052],[-94.77562,36.38842],[-94.77649,36.38734],[-94.77771,36.38617],[-94.77819,36.38518],[-94.77905,36.38406],[-94.77935,36.38311],[-94.7794,36.3824],[-94.77926,36.38183],[-94.77753,36.37982],[-94.77792,36.37851],[-94.77828,36.37776],[-94.77822,36.37717],[-94.778,36.37673],[-94.77727,36.37589],[-94.77692,36.37493],[-94.77614,36.37447],[-94.77603,36.3742],[-94.77656,36.37331],[-94.77683,36.37257],[-94.77741,36.37172],[-94.77776,36.37075],[-94.77824,36.37045],[-94.77846,36.37015],[-94.77865,36.36905],[-94.77965,36.36841],[-94.7799,36.36795],[-94.77981,36.36733],[-94.77946,36.36662],[-94.77918,36.36634],[-94.77807,36.36572],[-94.7775,36.36473],[-94.77735,36.36427],[-94.77745,36.36363],[-94.77727,36.36282],[-94.77737,36.36229],[-94.77774,36.36185],[-94.77847,36.36159],[-94.77883,36.36126],[-94.77937,36.35936],[-94.78011,36.35886],[-94.78011,36.35787],[-94.7807,36.3574],[-94.78077,36.35649],[-94.78104,36.3563],[-94.78221,36.35626],[-94.78302,36.35594],[-94.7845,36.35582],[-94.78524,36.35606],[-94.78594,36.35669],[-94.78637,36.35684],[-94.78716,36.35642],[-94.78907,36.3561],[-94.79218,36.3562],[-94.79304,36.35669],[-94.79316,36.35699],[-94.79312,36.35764],[-94.79367,36.35793],[-94.79516,36.35707],[-94.79616,36.35708],[-94.79762,36.35672],[-94.79965,36.35685],[-94.80075,36.35658],[-94.80195,36.35649],[-94.80296,36.35573],[-94.80335,36.35559],[-94.80478,36.35568],[-94.80567,36.35587],[-94.80646,36.35622],[-94.8066,36.35637],[-94.80663,36.35678],[-94.80596,36.35825],[-94.80576,36.36106],[-94.80524,36.36171],[-94.80496,36.3625],[-94.8044,36.36334],[-94.80335,36.36429],[-94.8021,36.36619],[-94.80143,36.36778],[-94.79997,36.36988],[-94.79965,36.37109],[-94.79909,36.37133],[-94.7989,36.37162],[-94.79885,36.37199],[-94.79905,36.3724],[-94.80023,36.3732],[-94.80052,36.37376],[-94.80033,36.37421],[-94.79971,36.37454],[-94.79942,36.37488],[-94.79941,36.37517],[-94.79984,36.37574],[-94.79929,36.37664],[-94.79866,36.37818],[-94.79837,36.37838],[-94.797,36.37867],[-94.79593,36.37958],[-94.79409,36.37976],[-94.79381,36.37961],[-94.79346,36.37833],[-94.7924,36.3765],[-94.79214,36.37646],[-94.79195,36.37661],[-94.79118,36.378],[-94.7912,36.37832],[-94.79179,36.37884],[-94.79191,36.3792],[-94.79204,36.38064],[-94.79163,36.38197],[-94.79198,36.38388],[-94.79265,36.38535],[-94.79267,36.38661],[-94.79313,36.38744],[-94.79455,36.38866],[-94.7948,36.38911],[-94.79475,36.38949],[-94.79439,36.38989],[-94.7942,36.39035],[-94.79404,36.3917],[-94.79333,36.39263],[-94.7931,36.39317],[-94.79313,36.39393],[-94.7935,36.39473],[-94.79361,36.39608],[-94.79235,36.39686],[-94.79138,36.39711],[-94.79063,36.39682],[-94.78969,36.39692],[-94.78839,36.39619],[-94.78758,36.39599],[-94.787,36.39599],[-94.78593,36.39686],[-94.78573,36.39743],[-94.78586,36.39762],[-94.78674,36.39801],[-94.78735,36.39853],[-94.78755,36.3985],[-94.78829,36.3979],[-94.78968,36.39841],[-94.79059,36.39922],[-94.78953,36.39995],[-94.7895,36.40039],[-94.78987,36.40066],[-94.79081,36.40077],[-94.79202,36.40021],[-94.79252,36.40011],[-94.79315,36.40023],[-94.7933,36.40049],[-94.79219,36.40126],[-94.79108,36.40181],[-94.7905,36.40275],[-94.78997,36.40416],[-94.79006,36.40432],[-94.7908,36.40447],[-94.79091,36.40474],[-94.79081,36.40509],[-94.78964,36.40534],[-94.78755,36.40708],[-94.787,36.40716],[-94.78643,36.40657],[-94.78608,36.40645],[-94.78398,36.40632],[-94.78322,36.40657],[-94.78288,36.40751],[-94.78285,36.40795],[-94.783,36.40823],[-94.78362,36.4085],[-94.78382,36.40877],[-94.78387,36.41006],[-94.78372,36.41046],[-94.78305,36.41061],[-94.78257,36.41044],[-94.7824,36.41009],[-94.78228,36.40913]]]},"properties":{"fire_id":"ufid:2021-OKOKS-300071","source_collection":"history-2021","source_objectid":13512,"incident_name":"Brush Creek","mapped_acres":2895.0,"mapped_acres_source":"poly_GISAcres","gis_acres":2895.0,"auto_acres":2460.43140284498,"reported_acres":2895.0,"percent_contained":100.0,"state":"OK","state_wfigs":"US-OK","county":"Delaware","discovery_time_utc":"2021-03-07T19:45:00Z","perimeter_time_utc":"2021-03-08T01:45:00Z","perimeter_edit_time_utc":"2021-05-04T22:55:37Z","incident_modified_time_utc":"2021-04-06T20:35:11Z","containment_time_utc":null,"control_time_utc":null,"fire_out_time_utc":null,"fire_cause":"Human","fire_cause_general":null,"map_method":"Image Interpretation","source_dataset":"2021 NIFS","unique_fire_identifier":"2021-OKOKS-300071","irwin_id":"{3D03386D-9AD8-4CB1-9369-45F20EAB1263}","global_id":"491f5532-50a9-41d9-ac0c-be95e1e3e9b9"}},{"type":"Feature","geometry":{"type":"Polygon","coordinates":[[[-94.52659,35.7483],[-94.52638,35.74779],[-94.52658,35.74781],[-94.52697,35.7473],[-94.52728,35.74716],[-94.52713,35.74689],[-94.52757,35.74654],[-94.52746,35.7464],[-94.52709,35.74643],[-94.52676,35.74682],[-94.52655,35.74673],[-94.52638,35.74607],[-94.52581,35.74528],[-94.52592,35.74492],[-94.52577,35.74456],[-94.52586,35.7442],[-94.52567,35.74339],[-94.52557,35.74319],[-94.52526,35.74308],[-94.52516,35.74277],[-94.52522,35.74268],[-94.52553,35.74277],[-94.52557,35.74307],[-94.52593,35.74295],[-94.52586,35.74277],[-94.52605,35.7425],[-94.52589,35.74205],[-94.526,35.74095],[-94.52648,35.74045],[-94.5266,35.74012],[-94.52725,35.73951],[-94.5276,35.73949],[-94.52862,35.74],[-94.52889,35.73993],[-94.529,35.73963],[-94.52889,35.73874],[-94.52844,35.7382],[-94.52804,35.73784],[-94.52714,35.73735],[-94.52638,35.73667],[-94.5259,35.73662],[-94.52545,35.73635],[-94.52537,35.73616],[-94.52555,35.73578],[-94.52548,35.73551],[-94.5258,35.73488],[-94.52561,35.73363],[-94.52649,35.7321],[-94.52658,35.73141],[-94.52718,35.7313],[-94.52808,35.73151],[-94.52907,35.73154],[-94.52965,35.73107],[-94.5315,35.73013],[-94.53268,35.72914],[-94.53296,35.72872],[-94.5336,35.7283],[-94.53621,35.72828],[-94.5363,35.72851],[-94.53621,35.72884],[-94.53553,35.7295],[-94.53597,35.73017],[-94.53663,35.73028],[-94.53691,35.73054],[-94.53675,35.73085],[-94.53694,35.73147],[-94.5366,35.73291],[-94.53676,35.73336],[-94.53659,35.73398],[-94.53669,35.7348],[-94.53687,35.73498],[-94.53744,35.73503],[-94.53774,35.73596],[-94.53834,35.73673],[-94.53888,35.73775],[-94.53857,35.7382],[-94.53783,35.74062],[-94.53773,35.74116],[-94.5379,35.74151],[-94.53768,35.74172],[-94.53761,35.74225],[-94.53709,35.74268],[-94.53717,35.74315],[-94.53682,35.74397],[-94.53629,35.74429],[-94.5343,35.74612],[-94.53382,35.74605],[-94.53364,35.74622],[-94.53293,35.74618],[-94.53185,35.74636],[-94.53167,35.74625],[-94.53149,35.74651],[-94.53122,35.74641],[-94.531,35.74658],[-94.53051,35.74664],[-94.5299,35.74698],[-94.52979,35.74718],[-94.52871,35.74733],[-94.52846,35.74772],[-94.52791,35.74785],[-94.52746,35.74826],[-94.52659,35.7483]]]},"properties":{"fire_id":"ufid:2021-OKOZPR-000427","source_collection":"history-2021","source_objectid":15326,"incident_name":"WHITE OAK","mapped_acres":448.25,"mapped_acres_source":"poly_GISAcres","gis_acres":448.25,"auto_acres":null,"reported_acres":160.0,"percent_contained":100.0,"state":"OK","state_wfigs":"US-OK","county":"Adair","discovery_time_utc":"2021-03-07T19:30:00Z","perimeter_time_utc":null,"perimeter_edit_time_utc":null,"incident_modified_time_utc":"2021-03-15T13:05:07Z","containment_time_utc":"2021-03-10T19:30:00Z","control_time_utc":"2021-03-15T13:00:00Z","fire_out_time_utc":"2021-03-15T13:00:00Z","fire_cause":"Human","fire_cause_general":null,"map_method":"Hand Sketch","source_dataset":"Inspector","unique_fire_identifier":"2021-OKOZPR-000427","irwin_id":"{194D3C42-E731-4BC9-B284-3BCB028E35B7}","global_id":"e81812e7-4e03-4e67-a27f-2a1450ba2bf5"}},{"type":"Feature","geometry":{"type":"Polygon","coordinates":[[[-94.84867,36.29511],[-94.8473,36.29487],[-94.84661,36.29304],[-94.84677,36.29202],[-94.84646,36.29176],[-94.84648,36.2914],[-94.84745,36.28941],[-94.84813,36.28905],[-94.84868,36.28858],[-94.84923,36.28854],[-94.84954,36.28859],[-94.84972,36.28914],[-94.84997,36.28929],[-94.85015,36.28921],[-94.85114,36.28936],[-94.85177,36.28927],[-94.85222,36.2895],[-94.85277,36.29038],[-94.85289,36.2913],[-94.8529,36.29198],[-94.85245,36.29363],[-94.85237,36.29478],[-94.85204,36.29495],[-94.85141,36.29461],[-94.85087,36.29452],[-94.85006,36.29502],[-94.84867,36.29511]]]},"properties":{"fire_id":"ufid:2021-OKCNA-000369","source_collection":"history-2021","source_objectid":15861,"incident_name":"DAY TOWN","mapped_acres":81.63,"mapped_acres_source":"poly_GISAcres","gis_acres":81.63,"auto_acres":null,"reported_acres":79.6,"percent_contained":null,"state":"OK","state_wfigs":"US-OK","county":"Delaware","discovery_time_utc":"2021-03-04T20:00:00Z","perimeter_time_utc":null,"perimeter_edit_time_utc":null,"incident_modified_time_utc":"2021-03-11T14:51:59Z","containment_time_utc":"2021-03-04T23:15:00Z","control_time_utc":"2021-03-08T18:00:00Z","fire_out_time_utc":"2021-03-09T14:00:00Z","fire_cause":"Human","fire_cause_general":"Incendiary","map_method":"Hand Sketch","source_dataset":"Inspector","unique_fire_identifier":"2021-OKCNA-000369","irwin_id":"{873686D3-1DB8-4C04-BC7F-24C89FF13FBC}","global_id":"5727f67e-2335-4d41-9a22-2f0dfab5aecf"}},{"type":"Feature","geometry":{"type":"Polygon","coordinates":[[[-94.85101,36.28937],[-94.85044,36.28929],[-94.85023,36.2891],[-94.84994,36.28933],[-94.84963,36.28914],[-94.84951,36.28827],[-94.84956,36.28689],[-94.84934,36.28674],[-94.8495,36.28616],[-94.84943,36.28583],[-94.84996,36.28585],[-94.85141,36.28643],[-94.85143,36.28667],[-94.85118,36.28703],[-94.85112,36.28754],[-94.85095,36.28769],[-94.85135,36.2879],[-94.85103,36.28856],[-94.85175,36.28825],[-94.85211,36.28839],[-94.85281,36.28834],[-94.85273,36.28877],[-94.85248,36.28895],[-94.85208,36.28851],[-94.8516,36.28855],[-94.85131,36.28892],[-94.85141,36.28928],[-94.85101,36.28937]]]},"properties":{"fire_id":"ufid:2021-OKCNA-000662","source_collection":"history-2021","source_objectid":15862,"incident_name":"DAY TOWN WEST","mapped_acres":15.36,"mapped_acres_source":"poly_GISAcres","gis_acres":15.36,"auto_acres":15.12445093624943,"reported_acres":15.36,"percent_contained":null,"state":"OK","state_wfigs":"US-OK","county":"Delaware","discovery_time_utc":"2021-03-22T14:30:00Z","perimeter_time_utc":"2021-03-22T19:30:00Z","perimeter_edit_time_utc":"2023-04-06T20:18:02Z","incident_modified_time_utc":"2021-03-26T14:28:02Z","containment_time_utc":"2021-03-22T16:00:00Z","control_time_utc":"2021-03-22T16:00:00Z","fire_out_time_utc":"2021-03-25T20:00:00Z","fire_cause":"Human","fire_cause_general":"Debris and open burning","map_method":"Auto-generated","source_dataset":"FFP","unique_fire_identifier":"2021-OKCNA-000662","irwin_id":"{207FE8FC-6AC1-4DE7-9DFD-90A922014858}","global_id":"1fc3405e-0236-42d3-b3d3-e4d4f6a8472e"}}]}
