{"type":"FeatureCollection","features":[{"type":"Feature","geometry":{"type":"MultiPolygon","coordinates":[[[[-101.63715,36.69659],[-101.63715,36.69653],[-101.63721,36.69653],[-101.63715,36.69659]]],[[[-101.62244,36.71295],[-101.62238,36.71295],[-101.62244,36.71289],[-101.62244,36.71295]]],[[[-101.61134,36.69279],[-101.61134,36.69285],[-101.61127,36.69278],[-101.61134,36.69279]]],[[[-101.51685,36.71965],[-101.51544,36.71934],[-101.51534,36.71868],[-101.51562,36.71839],[-101.51612,36.71822],[-101.51735,36.71829],[-101.51853,36.71728],[-101.51902,36.71719],[-101.5193,36.71663],[-101.51913,36.71591],[-101.51902,36.71587],[-101.51874,36.71617],[-101.5185,36.7173],[-101.51815,36.71721],[-101.51775,36.71651],[-101.5172,36.71622],[-101.51653,36.71635],[-101.51627,36.71707],[-101.51602,36.71729],[-101.51536,36.71728],[-101.51473,36.71689],[-101.51648,36.71495],[-101.51715,36.71482],[-101.51765,36.71501],[-101.51802,36.715],[-101.51994,36.71444],[-101.5206,36.71394],[-101.52069,36.71348],[-101.5206,36.71283],[-101.51981,36.71223],[-101.51973,36.71177],[-101.51994,36.71157],[-101.52052,36.71166],[-101.52083,36.71158],[-101.52133,36.71054],[-101.52014,36.70918],[-101.5197,36.7084],[-101.51947,36.70716],[-101.51984,36.70622],[-101.52065,36.70521],[-101.52208,36.70433],[-101.52344,36.70401],[-101.52548,36.70411],[-101.52593,36.70365],[-101.52635,36.70269],[-101.52726,36.70215],[-101.52746,36.70187],[-101.52734,36.70163],[-101.52684,36.70164],[-101.52667,36.7013],[-101.52644,36.70117],[-101.52471,36.70102],[-101.52452,36.70088],[-101.52517,36.70061],[-101.52675,36.70042],[-101.52768,36.69985],[-101.52785,36.69945],[-101.52767,36.69927],[-101.52587,36.69931],[-101.52561,36.69909],[-101.52586,36.69881],[-101.52694,36.69841],[-101.52705,36.69811],[-101.52745,36.69776],[-101.5275,36.69715],[-101.52778,36.6965],[-101.52607,36.69603],[-101.52464,36.69596],[-101.52398,36.69564],[-101.52397,36.69544],[-101.52431,36.69528],[-101.52509,36.69546],[-101.52604,36.69533],[-101.52559,36.69494],[-101.52566,36.69443],[-101.52556,36.69421],[-101.52486,36.69354],[-101.52537,36.69215],[-101.52506,36.69186],[-101.52271,36.6913],[-101.52238,36.69101],[-101.52237,36.69074],[-101.5226,36.69068],[-101.52592,36.69135],[-101.52638,36.69131],[-101.52684,36.69094],[-101.52748,36.6897],[-101.53056,36.68896],[-101.53117,36.68857],[-101.53213,36.68766],[-101.53257,36.68744],[-101.53498,36.68712],[-101.53678,36.68728],[-101.53825,36.68698],[-101.53947,36.68644],[-101.54008,36.68631],[-101.541,36.68647],[-101.54198,36.68691],[-101.54338,36.68732],[-101.54395,36.68734],[-101.54505,36.68711],[-101.54871,36.68784],[-101.55143,36.68721],[-101.55248,36.68707],[-101.55309,36.68723],[-101.55429,36.68693],[-101.55524,36.68714],[-101.55591,36.68781],[-101.55769,36.68788],[-101.55888,36.68769],[-101.55923,36.68824],[-101.55938,36.68924],[-101.55961,36.68958],[-101.56209,36.69004],[-101.56287,36.69005],[-101.56377,36.6893],[-101.56449,36.68892],[-101.56472,36.68847],[-101.56445,36.68793],[-101.56391,36.68777],[-101.56298,36.68873],[-101.5627,36.68879],[-101.56229,36.68829],[-101.56202,36.68759],[-101.56212,36.68713],[-101.56341,36.68643],[-101.56383,36.68597],[-101.56398,36.68531],[-101.56389,36.68431],[-101.56401,36.68358],[-101.56421,36.68334],[-101.5644,36.68361],[-101.5646,36.68533],[-101.56479,36.68572],[-101.56608,36.68635],[-101.56754,36.68647],[-101.56894,36.68595],[-101.56995,36.68644],[-101.57059,36.6865],[-101.57262,36.68609],[-101.57414,36.68596],[-101.57486,36.68561],[-101.57565,36.68573],[-101.57719,36.6857],[-101.58239,36.68508],[-101.58545,36.68519],[-101.58781,36.68448],[-101.58859,36.68447],[-101.58951,36.68413],[-101.59025,36.68406],[-101.59181,36.68414],[-101.59292,36.68497],[-101.59385,36.6852],[-101.5945,36.68522],[-101.59541,36.68487],[-101.59637,36.68475],[-101.59734,36.68529],[-101.59948,36.68534],[-101.6002,36.68555],[-101.60073,36.68587],[-101.60183,36.68605],[-101.60468,36.68591],[-101.60605,36.68626],[-101.60686,36.68629],[-101.61016,36.68573],[-101.61614,36.68619],[-101.61661,36.68608],[-101.61702,36.68561],[-101.61735,36.68546],[-101.61778,36.6856],[-101.6194,36.68564],[-101.62033,36.68601],[-101.62107,36.68612],[-101.62126,36.68603],[-101.62167,36.68546],[-101.62205,36.68531],[-101.6251,36.68501],[-101.62713,36.68504],[-101.62856,36.68474],[-101.62879,36.68435],[-101.62869,36.68395],[-101.62757,36.68355],[-101.62721,36.68292],[-101.62717,36.6824],[-101.62756,36.68068],[-101.63047,36.68034],[-101.63327,36.67983],[-101.63566,36.67968],[-101.63611,36.67913],[-101.63629,36.67787],[-101.63664,36.67764],[-101.6369,36.67779],[-101.63724,36.67862],[-101.6375,36.67883],[-101.63799,36.67898],[-101.63937,36.67905],[-101.64104,36.67988],[-101.64207,36.68007],[-101.64377,36.68007],[-101.6448,36.67976],[-101.64659,36.6797],[-101.648,36.67938],[-101.64888,36.6794],[-101.64976,36.67963],[-101.65197,36.67974],[-101.65847,36.67919],[-101.66061,36.67924],[-101.66206,36.67934],[-101.66292,36.67956],[-101.66383,36.68029],[-101.66442,36.68051],[-101.66564,36.68054],[-101.66723,36.68096],[-101.66821,36.68086],[-101.6691,36.6812],[-101.67024,36.68128],[-101.67101,36.68175],[-101.67189,36.68196],[-101.67251,36.68231],[-101.67314,36.68202],[-101.6738,36.6813],[-101.67434,36.68115],[-101.67846,36.68142],[-101.68039,36.68175],[-101.68168,36.68216],[-101.68379,36.68227],[-101.68495,36.68251],[-101.6862,36.68258],[-101.68684,36.68287],[-101.68785,36.68403],[-101.68986,36.68453],[-101.69169,36.68543],[-101.6934,36.68561],[-101.69428,36.68585],[-101.69534,36.68579],[-101.69793,36.68626],[-101.69832,36.68658],[-101.69855,36.68746],[-101.69913,36.68767],[-101.69978,36.68834],[-101.70141,36.68843],[-101.70183,36.68869],[-101.70175,36.68899],[-101.70146,36.68925],[-101.69918,36.69004],[-101.69808,36.69095],[-101.69631,36.69121],[-101.69416,36.69204],[-101.69098,36.69223],[-101.68484,36.69296],[-101.68363,36.69273],[-101.68245,36.69283],[-101.68066,36.69371],[-101.67994,36.69421],[-101.67815,36.69617],[-101.67672,36.69733],[-101.67096,36.6993],[-101.6706,36.6993],[-101.67041,36.69915],[-101.67036,36.69821],[-101.67026,36.69813],[-101.66911,36.69856],[-101.6676,36.69871],[-101.66596,36.69915],[-101.66376,36.6995],[-101.66261,36.7001],[-101.66235,36.70004],[-101.66185,36.69964],[-101.66112,36.69976],[-101.65967,36.6997],[-101.65886,36.69936],[-101.65871,36.69915],[-101.65876,36.69897],[-101.66093,36.69914],[-101.66158,36.6989],[-101.66193,36.69855],[-101.66197,36.6983],[-101.66137,36.69857],[-101.65998,36.69873],[-101.65901,36.69857],[-101.65841,36.69825],[-101.65763,36.69759],[-101.65674,36.69624],[-101.65661,36.69639],[-101.65664,36.69669],[-101.65744,36.69805],[-101.65748,36.69852],[-101.65602,36.69934],[-101.65553,36.70007],[-101.65478,36.70076],[-101.65276,36.7019],[-101.65177,36.70206],[-101.65151,36.70182],[-101.65196,36.70098],[-101.65191,36.7],[-101.65077,36.69994],[-101.64989,36.70014],[-101.64971,36.70033],[-101.64953,36.70121],[-101.64884,36.702],[-101.64875,36.70264],[-101.6483,36.70372],[-101.64733,36.70477],[-101.64673,36.70511],[-101.64574,36.70531],[-101.64453,36.70594],[-101.64285,36.70636],[-101.64211,36.70682],[-101.64184,36.70748],[-101.64163,36.70764],[-101.63971,36.70778],[-101.63855,36.7084],[-101.63721,36.7086],[-101.63609,36.7082],[-101.63486,36.70837],[-101.63424,36.70802],[-101.63333,36.70833],[-101.63298,36.7082],[-101.6329,36.70792],[-101.63301,36.70772],[-101.63386,36.70728],[-101.63385,36.70709],[-101.63362,36.70704],[-101.63095,36.70814],[-101.63074,36.70859],[-101.63123,36.70933],[-101.63053,36.70976],[-101.63008,36.70969],[-101.62965,36.70927],[-101.62935,36.7092],[-101.62737,36.70992],[-101.62711,36.70979],[-101.62678,36.70917],[-101.62613,36.70915],[-101.62558,36.70938],[-101.62515,36.70983],[-101.62454,36.71086],[-101.62428,36.71181],[-101.6233,36.71223],[-101.62246,36.71289],[-101.62236,36.71231],[-101.62213,36.71223],[-101.62152,36.71297],[-101.62122,36.71368],[-101.62024,36.71405],[-101.61725,36.71354],[-101.61365,36.71221],[-101.61428,36.71285],[-101.61687,36.71387],[-101.61695,36.71403],[-101.61675,36.7145],[-101.61637,36.71468],[-101.61593,36.71467],[-101.61439,36.71409],[-101.61361,36.71407],[-101.6128,36.71437],[-101.61218,36.71489],[-101.61245,36.71499],[-101.61337,36.71478],[-101.61343,36.71493],[-101.61318,36.71523],[-101.61191,36.71584],[-101.61107,36.71565],[-101.61073,36.71572],[-101.6096,36.71645],[-101.60941,36.71633],[-101.60929,36.71596],[-101.60834,36.71538],[-101.6082,36.71499],[-101.60907,36.71423],[-101.61058,36.71361],[-101.61081,36.71344],[-101.61078,36.71334],[-101.60946,36.71342],[-101.60828,36.71278],[-101.60781,36.71284],[-101.60726,36.71272],[-101.60655,36.71298],[-101.60601,36.71299],[-101.60501,36.71246],[-101.60344,36.71279],[-101.60116,36.71288],[-101.60093,36.71268],[-101.6009,36.71202],[-101.60108,36.7117],[-101.60175,36.71119],[-101.60168,36.71106],[-101.60086,36.71116],[-101.5994,36.71163],[-101.59795,36.71161],[-101.598,36.71135],[-101.59941,36.71058],[-101.59966,36.71024],[-101.60127,36.70908],[-101.60196,36.70876],[-101.60326,36.70853],[-101.60346,36.70824],[-101.60508,36.70855],[-101.60616,36.70921],[-101.60847,36.71007],[-101.60906,36.71058],[-101.60996,36.71075],[-101.61093,36.71037],[-101.61101,36.71024],[-101.61087,36.70993],[-101.61105,36.7098],[-101.61167,36.70987],[-101.61253,36.7102],[-101.6127,36.71013],[-101.61281,36.70981],[-101.61326,36.70967],[-101.61405,36.70963],[-101.61476,36.70985],[-101.61573,36.70964],[-101.61657,36.70904],[-101.61751,36.70881],[-101.61804,36.70815],[-101.61894,36.70758],[-101.6196,36.70665],[-101.62046,36.70634],[-101.62085,36.70637],[-101.62111,36.70697],[-101.62132,36.70713],[-101.62331,36.70741],[-101.62377,36.70805],[-101.62405,36.70819],[-101.62674,36.70767],[-101.62768,36.70699],[-101.62847,36.70706],[-101.62875,36.70744],[-101.62892,36.70749],[-101.63023,36.7072],[-101.63219,36.7064],[-101.63239,36.7061],[-101.63227,36.70578],[-101.63164,36.7058],[-101.62937,36.70658],[-101.6289,36.70644],[-101.62875,36.70613],[-101.62895,36.70598],[-101.63102,36.70549],[-101.63115,36.70523],[-101.63084,36.70473],[-101.63084,36.70438],[-101.63109,36.70402],[-101.63149,36.70384],[-101.63242,36.7039],[-101.63422,36.70508],[-101.63539,36.70534],[-101.63648,36.70516],[-101.63735,36.70442],[-101.63816,36.7046],[-101.63902,36.70461],[-101.64198,36.70396],[-101.64352,36.70276],[-101.64369,36.70252],[-101.64365,36.70231],[-101.64151,36.70314],[-101.64047,36.70266],[-101.63888,36.70258],[-101.63864,36.7024],[-101.63888,36.70198],[-101.63873,36.70176],[-101.63827,36.70169],[-101.63734,36.70184],[-101.63707,36.70167],[-101.63702,36.70006],[-101.63634,36.69919],[-101.63627,36.69875],[-101.63609,36.69851],[-101.63365,36.69812],[-101.63214,36.69816],[-101.63181,36.69808],[-101.63172,36.69787],[-101.63215,36.69767],[-101.63355,36.69749],[-101.63537,36.69779],[-101.63612,36.6974],[-101.63662,36.69731],[-101.63842,36.69734],[-101.64114,36.69765],[-101.64231,36.69744],[-101.64284,36.69725],[-101.64326,36.69688],[-101.64341,36.69658],[-101.64331,36.69611],[-101.6439,36.69553],[-101.64389,36.69516],[-101.64348,36.69468],[-101.64289,36.69461],[-101.64093,36.69585],[-101.63883,36.69634],[-101.63722,36.69653],[-101.63652,36.69602],[-101.63554,36.69573],[-101.63465,36.69376],[-101.63394,36.6926],[-101.63316,36.69193],[-101.63275,36.6914],[-101.63194,36.69112],[-101.63155,36.69072],[-101.63136,36.69091],[-101.63023,36.69117],[-101.62779,36.69148],[-101.62646,36.69226],[-101.62503,36.69248],[-101.62467,36.69281],[-101.62459,36.69337],[-101.62436,36.69353],[-101.6236,36.69264],[-101.62244,36.69211],[-101.6164,36.69234],[-101.61559,36.69226],[-101.61504,36.69193],[-101.61466,36.69189],[-101.61329,36.69212],[-101.61126,36.69278],[-101.61083,36.692],[-101.60951,36.69208],[-101.60883,36.69167],[-101.60856,36.69176],[-101.60807,36.69238],[-101.60717,36.69275],[-101.60664,36.69334],[-101.60609,36.69363],[-101.60408,36.69406],[-101.6011,36.69414],[-101.59992,36.69577],[-101.59973,36.69576],[-101.59929,36.69529],[-101.59888,36.69533],[-101.59767,36.69647],[-101.5961,36.69715],[-101.59501,36.69778],[-101.5946,36.6978],[-101.59398,36.69714],[-101.5933,36.69703],[-101.59213,36.69799],[-101.59109,36.69843],[-101.5905,36.6985],[-101.58998,36.69831],[-101.58975,36.69798],[-101.58986,36.69758],[-101.59022,36.69709],[-101.59015,36.69686],[-101.58942,36.69679],[-101.58851,36.69731],[-101.58791,36.69733],[-101.58755,36.69705],[-101.58759,36.69619],[-101.58726,36.696],[-101.58488,36.69657],[-101.58197,36.69687],[-101.58149,36.69664],[-101.58165,36.69639],[-101.5844,36.69615],[-101.58449,36.69593],[-101.58392,36.69569],[-101.58332,36.69564],[-101.58202,36.69587],[-101.58102,36.69588],[-101.58018,36.69619],[-101.57965,36.69623],[-101.57678,36.69559],[-101.57575,36.69548],[-101.57288,36.69578],[-101.57264,36.69652],[-101.57196,36.69654],[-101.57145,36.69629],[-101.57173,36.69534],[-101.57131,36.695],[-101.57117,36.69458],[-101.56952,36.69357],[-101.56907,36.69397],[-101.56867,36.69412],[-101.5658,36.69432],[-101.56414,36.69472],[-101.56382,36.69493],[-101.56331,36.69577],[-101.56242,36.69621],[-101.55783,36.69601],[-101.55731,36.69613],[-101.55687,36.69664],[-101.5576,36.69762],[-101.55774,36.69875],[-101.55765,36.69915],[-101.5567,36.70083],[-101.55491,36.70222],[-101.55107,36.70442],[-101.54884,36.70511],[-101.54722,36.70598],[-101.54274,36.70758],[-101.5403,36.70882],[-101.53919,36.70911],[-101.53444,36.71135],[-101.53053,36.71429],[-101.52985,36.71526],[-101.52981,36.71517],[-101.52968,36.71525],[-101.52887,36.71624],[-101.52814,36.71688],[-101.52446,36.71856],[-101.52196,36.72006],[-101.52024,36.72044],[-101.5177,36.72193],[-101.51687,36.72211],[-101.51681,36.72164],[-101.51771,36.72123],[-101.51775,36.72092],[-101.51685,36.71965]]],[[[-101.62128,36.71374],[-101.62122,36.71375],[-101.62122,36.71368],[-101.62128,36.71374]]],[[[-101.52984,36.71526],[-101.52984,36.71533],[-101.52977,36.71534],[-101.52984,36.71526]]],[[[-101.52977,36.71534],[-101.52977,36.71541],[-101.5297,36.71541],[-101.52977,36.71534]]],[[[-101.52963,36.71547],[-101.52963,36.71541],[-101.5297,36.71541],[-101.52963,36.71547]]],[[[-101.52054,36.72045],[-101.52048,36.72045],[-101.52054,36.72038],[-101.52054,36.72045]]],[[[-101.51682,36.72225],[-101.5168,36.72213],[-101.51687,36.72211],[-101.51682,36.72225]]]]},"properties":{"fire_id":"ufid:2021-OKOKS-400018","source_collection":"history-2021","source_objectid":14853,"incident_name":"Cobb Fire","mapped_acres":null,"mapped_acres_source":null,"gis_acres":null,"auto_acres":null,"reported_acres":7987.0,"percent_contained":100.0,"state":"OK","state_wfigs":"US-OK","county":"Texas","discovery_time_utc":"2021-12-15T17:23:00Z","perimeter_time_utc":null,"perimeter_edit_time_utc":null,"incident_modified_time_utc":"2021-12-22T20:39:11Z","containment_time_utc":null,"control_time_utc":null,"fire_out_time_utc":null,"fire_cause":"Undetermined","fire_cause_general":null,"map_method":"Image Interpretation","source_dataset":"Inspector","unique_fire_identifier":"2021-OKOKS-400018","irwin_id":"{A5F80A98-BBF3-46A8-ADD1-7AEE851B8CE1}","global_id":"a453814b-9cdd-4632-84ec-f5493985a052"}},{"type":"Feature","geometry":{"type":"Polygon","coordinates":[[[-102.28417,36.60973],[-102.28383,36.60965],[-102.28347,36.60995],[-102.28361,36.6043],[-102.2891,36.60311],[-102.29057,36.60296],[-102.29423,36.60204],[-102.29605,36.60174],[-102.29833,36.60157],[-102.29973,36.60114],[-102.30095,36.60102],[-102.30149,36.60068],[-102.30195,36.59999],[-102.30226,36.5998],[-102.30414,36.59922],[-102.30602,36.59937],[-102.30721,36.59864],[-102.31136,36.59733],[-102.3124,36.59671],[-102.31355,36.59641],[-102.31445,36.59597],[-102.31473,36.59556],[-102.31477,36.59501],[-102.31521,36.59449],[-102.31353,36.59466],[-102.31275,36.59448],[-102.31179,36.59444],[-102.31156,36.59432],[-102.31156,36.59417],[-102.31194,36.59397],[-102.31324,36.59378],[-102.31383,36.59355],[-102.31424,36.59316],[-102.31446,36.59241],[-102.31553,36.59176],[-102.31753,36.59157],[-102.32231,36.59062],[-102.32377,36.59053],[-102.32726,36.58969],[-102.32928,36.58942],[-102.33338,36.58808],[-102.33488,36.58779],[-102.33564,36.58751],[-102.33994,36.58687],[-102.34181,36.58685],[-102.34347,36.58665],[-102.34552,36.58821],[-102.34623,36.58896],[-102.34615,36.58921],[-102.34565,36.58943],[-102.3447,36.58956],[-102.34314,36.58954],[-102.34034,36.59143],[-102.33769,36.59228],[-102.33316,36.594],[-102.33067,36.59468],[-102.32926,36.5953],[-102.32715,36.596],[-102.32607,36.5961],[-102.32369,36.59684],[-102.32107,36.59779],[-102.32022,36.59798],[-102.31923,36.59784],[-102.31833,36.59793],[-102.31542,36.59888],[-102.31419,36.59915],[-102.31243,36.59985],[-102.31192,36.60027],[-102.31035,36.60116],[-102.30816,36.60186],[-102.30511,36.60331],[-102.3024,36.60392],[-102.29839,36.60521],[-102.29386,36.6062],[-102.29092,36.60758],[-102.28873,36.60842],[-102.28801,36.60845],[-102.28686,36.60897],[-102.2846,36.60944],[-102.28417,36.60973]]]},"properties":{"fire_id":"ufid:2021-OKOKS-400023","source_collection":"history-2021","source_objectid":14929,"incident_name":"Star Camp","mapped_acres":null,"mapped_acres_source":null,"gis_acres":null,"auto_acres":null,"reported_acres":1600.0,"percent_contained":100.0,"state":"OK","state_wfigs":"US-OK","county":"Cimarron","discovery_time_utc":"2021-12-29T21:30:00Z","perimeter_time_utc":null,"perimeter_edit_time_utc":null,"incident_modified_time_utc":"2021-12-31T19:50:28Z","containment_time_utc":null,"control_time_utc":null,"fire_out_time_utc":null,"fire_cause":"Undetermined","fire_cause_general":null,"map_method":"Hand Sketch","source_dataset":"Inspector","unique_fire_identifier":"2021-OKOKS-400023","irwin_id":"{B15BA6B0-CF8B-4D03-A9C2-12A37733141C}","global_id":"031c2c10-e4d1-4458-8839-608e6aef0c75"}}]}
