{"type":"FeatureCollection","features":[{"type":"Feature","geometry":{"type":"Polygon","coordinates":[[[-121.09893,45.63354],[-121.09907,45.63319],[-121.09921,45.63323],[-121.09929,45.63342],[-121.09899,45.63343],[-121.09893,45.63354]]]},"properties":{"fire_id":"ufid:2021-ORCGF-000603","source_collection":"history-2021","source_objectid":869,"incident_name":"SIGNAL HILL - MCFR ASSIST","mapped_acres":0.1,"mapped_acres_source":"poly_GISAcres","gis_acres":0.1,"auto_acres":0.16457738081282,"reported_acres":0.1,"percent_contained":null,"state":"OR","state_wfigs":"US-OR","county":"Wasco","discovery_time_utc":"2021-07-20T01:38:42Z","perimeter_time_utc":"2021-07-20T06:38:42Z","perimeter_edit_time_utc":"2021-12-10T00:03:14Z","incident_modified_time_utc":"2021-12-10T17:10:09Z","containment_time_utc":null,"control_time_utc":null,"fire_out_time_utc":null,"fire_cause":"Undetermined","fire_cause_general":"Camping","map_method":"Hand Sketch","source_dataset":"2021 NIFS","unique_fire_identifier":"2021-ORCGF-000603","irwin_id":"{3C743506-8B40-4880-9BAF-D413620B6B58}","global_id":"218d121c-adbe-4a2a-8e06-b1a3df0ae360"}},{"type":"Feature","geometry":{"type":"Polygon","coordinates":[[[-121.52788,45.60612],[-121.52799,45.60562],[-121.5294,45.60577],[-121.52921,45.60612],[-121.52844,45.60605],[-121.52829,45.6062],[-121.52788,45.60612]]]},"properties":{"fire_id":"ufid:2021-OR954S-000579","source_collection":"history-2021","source_objectid":1051,"incident_name":"BONE DRIVE","mapped_acres":0.3,"mapped_acres_source":"poly_GISAcres","gis_acres":0.3,"auto_acres":1.23071627419406,"reported_acres":3.0,"percent_contained":null,"state":"OR","state_wfigs":"US-OR","county":"Hood River","discovery_time_utc":"2021-07-17T21:15:43Z","perimeter_time_utc":"2021-07-18T02:15:43Z","perimeter_edit_time_utc":"2021-12-10T00:35:16Z","incident_modified_time_utc":"2021-12-10T17:31:03Z","containment_time_utc":"2021-07-17T23:44:00Z","control_time_utc":"2021-08-06T16:17:00Z","fire_out_time_utc":"2021-08-06T16:17:00Z","fire_cause":"Human","fire_cause_general":"Other Human Cause","map_method":"Hand Sketch","source_dataset":"2021 NIFS","unique_fire_identifier":"2021-OR954S-000579","irwin_id":"{B1914643-94C9-4FBF-9774-0F0F37C0C217}","global_id":"3815d125-0ea7-4c30-b8eb-74e105f77dd3"}},{"type":"Feature","geometry":{"type":"MultiPolygon","coordinates":[[[[-121.07123,45.16083],[-121.07122,45.16085],[-121.07121,45.16084],[-121.07123,45.16083]]],[[[-121.07125,45.16082],[-121.07124,45.16083],[-121.07123,45.16082],[-121.07125,45.16082]]],[[[-121.07036,45.1604],[-121.07111,45.16088],[-121.07138,45.16081],[-121.0716,45.1612],[-121.0725,45.16319],[-121.07248,45.16372],[-121.07224,45.16389],[-121.07075,45.16412],[-121.07033,45.1639],[-121.07031,45.16351],[-121.06985,45.16288],[-121.06946,45.16188],[-121.06891,45.16153],[-121.06946,45.16162],[-121.06983,45.16151],[-121.07002,45.16082],[-121.07036,45.1604]]]]},"properties":{"fire_id":"ufid:2021-ORMUPN-000188","source_collection":"history-2021","source_objectid":1255,"incident_name":"0188 RN","mapped_acres":15.89,"mapped_acres_source":"poly_GISAcres","gis_acres":15.89,"auto_acres":15.8942353259791,"reported_acres":15.0,"percent_contained":null,"state":"OR","state_wfigs":"US-OR","county":"Wasco","discovery_time_utc":"2021-05-19T20:59:00Z","perimeter_time_utc":"2021-05-20T01:59:16Z","perimeter_edit_time_utc":"2021-11-10T22:10:03Z","incident_modified_time_utc":"2021-12-20T17:35:34Z","containment_time_utc":"2021-05-19T22:36:00Z","control_time_utc":null,"fire_out_time_utc":"2021-06-01T16:22:17Z","fire_cause":"Human","fire_cause_general":"Other Human Cause","map_method":"GPS-Walked","source_dataset":"2021 NIFS","unique_fire_identifier":"2021-ORMUPN-000188","irwin_id":"{1D977295-A618-40EF-919F-C608CFAAE8B7}","global_id":"199c7341-061d-411a-bc11-c6054042e8a8"}},{"type":"Feature","geometry":{"type":"Polygon","coordinates":[[[-120.02632,45.00971],[-120.02664,45.00979],[-120.02636,45.00984],[-120.02632,45.00971]]]},"properties":{"fire_id":"ufid:2021-OR952S-021096","source_collection":"history-2021","source_objectid":2343,"incident_name":"Oxhead Ridge 21096","mapped_acres":1.0,"mapped_acres_source":"poly_GISAcres","gis_acres":1.0,"auto_acres":0.0897453611048406,"reported_acres":0.1,"percent_contained":null,"state":"OR","state_wfigs":"US-OR","county":"Wheeler","discovery_time_utc":"2021-06-17T16:08:08Z","perimeter_time_utc":"2021-06-17T21:08:08Z","perimeter_edit_time_utc":"2021-06-18T19:19:46Z","incident_modified_time_utc":"2021-07-12T15:10:01Z","containment_time_utc":"2021-06-17T20:47:00Z","control_time_utc":"2021-06-17T23:24:00Z","fire_out_time_utc":"2021-06-23T20:43:00Z","fire_cause":"Natural","fire_cause_general":null,"map_method":"Auto-generated","source_dataset":"2021 NIFS","unique_fire_identifier":"2021-OR952S-021096","irwin_id":"{53F3FA4A-1747-4E73-BB1A-80E29AF469E6}","global_id":"e7095dad-c0dc-4aec-8563-e945f9756d3f"}},{"type":"Feature","geometry":{"type":"Polygon","coordinates":[[[-121.11421,45.55563],[-121.11506,45.55536],[-121.11511,45.5562],[-121.11524,45.55635],[-121.11661,45.55711],[-121.11721,45.55775],[-121.11697,45.5599],[-121.11642,45.56189],[-121.11538,45.56354],[-121.11522,45.56422],[-121.11415,45.56569],[-121.11431,45.56617],[-121.11502,45.56721],[-121.11883,45.56748],[-121.1213,45.5664],[-121.12391,45.56583],[-121.12363,45.56692],[-121.1216,45.56851],[-121.12218,45.57095],[-121.12328,45.57253],[-121.12467,45.57522],[-121.12497,45.57615],[-121.12605,45.57848],[-121.12775,45.57932],[-121.13082,45.58136],[-121.13097,45.58158],[-121.13089,45.58187],[-121.12916,45.5833],[-121.12874,45.58344],[-121.12746,45.58292],[-121.12564,45.58292],[-121.12434,45.5826],[-121.12424,45.58279],[-121.12491,45.58311],[-121.1249,45.58383],[-121.12422,45.58357],[-121.12316,45.58275],[-121.12215,45.5823],[-121.1214,45.58178],[-121.11876,45.58087],[-121.11788,45.5808],[-121.11643,45.58122],[-121.11553,45.58129],[-121.11444,45.58119],[-121.11255,45.58077],[-121.11138,45.57995],[-121.10849,45.57865],[-121.10771,45.57887],[-121.10603,45.57802],[-121.10536,45.57751],[-121.10463,45.57645],[-121.10432,45.57563],[-121.10432,45.5748],[-121.1032,45.5741],[-121.09985,45.57447],[-121.09739,45.57526],[-121.09537,45.57521],[-121.0941,45.57462],[-121.09329,45.57358],[-121.09312,45.57258],[-121.09604,45.56929],[-121.09716,45.56921],[-121.1035,45.56988],[-121.10504,45.56955],[-121.10417,45.56793],[-121.1027,45.56645],[-121.10217,45.56569],[-121.10251,45.56439],[-121.10368,45.56294],[-121.10389,45.56244],[-121.10376,45.56151],[-121.10388,45.56127],[-121.10351,45.5607],[-121.10358,45.56036],[-121.1053,45.55884],[-121.10703,45.55851],[-121.10854,45.55781],[-121.10956,45.55673],[-121.11016,45.55635],[-121.11206,45.55561],[-121.11421,45.55563]]]},"properties":{"fire_id":"ufid:2021-OR954S-000422","source_collection":"history-2021","source_objectid":2966,"incident_name":"SUNSET VALLEY","mapped_acres":986.744432334995,"mapped_acres_source":"poly_GISAcres","gis_acres":986.744432334995,"auto_acres":986.740321169859,"reported_acres":650.0,"percent_contained":100.0,"state":"OR","state_wfigs":"US-OR","county":"Wasco","discovery_time_utc":"2021-07-01T22:46:57Z","perimeter_time_utc":"2021-07-02T03:46:57Z","perimeter_edit_time_utc":"2021-11-11T02:55:50Z","incident_modified_time_utc":"2021-07-05T18:43:38Z","containment_time_utc":null,"control_time_utc":null,"fire_out_time_utc":"2021-07-05T17:45:00Z","fire_cause":"Undetermined","fire_cause_general":null,"map_method":"Mixed Methods","source_dataset":"2021 NIFS","unique_fire_identifier":"2021-OR954S-000422","irwin_id":"{8F21D52D-F4A5-4E3B-81CC-0CB79D57570B}","global_id":"4f7ec0a1-4205-4df8-bc93-4b3bdc88e282"}},{"type":"Feature","geometry":{"type":"Polygon","coordinates":[[[-120.96028,45.65005],[-120.96129,45.64946],[-120.96133,45.64959],[-120.96061,45.65007],[-120.96028,45.65005]]]},"properties":{"fire_id":"ufid:2021-ORCGF-000287","source_collection":"history-2021","source_objectid":3380,"incident_name":"CELILO PARK","mapped_acres":0.1,"mapped_acres_source":"poly_GISAcres","gis_acres":0.1,"auto_acres":0.294799253713314,"reported_acres":0.25,"percent_contained":null,"state":"OR","state_wfigs":"US-OR","county":"Wasco","discovery_time_utc":"2021-06-05T08:10:00Z","perimeter_time_utc":"2021-06-05T13:10:00Z","perimeter_edit_time_utc":"2021-12-09T23:57:09Z","incident_modified_time_utc":"2021-12-14T15:58:07Z","containment_time_utc":"2021-06-05T15:26:00Z","control_time_utc":"2021-06-09T20:56:00Z","fire_out_time_utc":"2021-06-11T21:27:00Z","fire_cause":"Undetermined","fire_cause_general":"Other Human Cause","map_method":"Hand Sketch","source_dataset":"2021 NIFS","unique_fire_identifier":"2021-ORCGF-000287","irwin_id":"{D7999AAD-2715-4CE7-9366-9D9DABF3C1F0}","global_id":"b1d3970b-bdf8-4e08-b914-ced95bc56d79"}},{"type":"Feature","geometry":{"type":"Polygon","coordinates":[[[-121.01198,45.4857],[-121.01052,45.48596],[-121.00932,45.48642],[-121.00797,45.48623],[-121.00709,45.48636],[-121.0066,45.48623],[-121.00615,45.48645],[-121.00714,45.48751],[-121.00803,45.48775],[-121.00842,45.48813],[-121.00842,45.48857],[-121.00952,45.48937],[-121.01124,45.48993],[-121.0114,45.49007],[-121.01142,45.49065],[-121.01193,45.49127],[-121.01186,45.49171],[-121.01115,45.4922],[-121.01102,45.49284],[-121.01038,45.49316],[-121.00997,45.49322],[-121.00896,45.49267],[-121.00803,45.4924],[-121.00705,45.49253],[-121.00645,45.49286],[-121.00682,45.49422],[-121.00733,45.49529],[-121.00731,45.49588],[-121.00749,45.4967],[-121.00733,45.49701],[-121.00739,45.49722],[-121.00763,45.49728],[-121.00882,45.49815],[-121.00983,45.49932],[-121.00841,45.49968],[-121.00841,45.49988],[-121.0094,45.50004],[-121.0095,45.5002],[-121.00947,45.50114],[-121.01014,45.50137],[-121.01127,45.50139],[-121.01152,45.50183],[-121.01061,45.50291],[-121.01098,45.50399],[-121.01215,45.50462],[-121.01275,45.50512],[-121.01358,45.50547],[-121.01471,45.50668],[-121.01502,45.50727],[-121.01492,45.50767],[-121.01199,45.50547],[-121.01055,45.50548],[-121.0096,45.50587],[-121.00746,45.50607],[-121.00481,45.50657],[-121.00189,45.5077],[-120.99961,45.50664],[-120.98989,45.50817],[-120.9852,45.50871],[-120.97932,45.50849],[-120.97798,45.50564],[-120.97734,45.49866],[-120.97657,45.49327],[-120.97579,45.49014],[-120.97039,45.48596],[-120.96966,45.4817],[-120.9711,45.47872],[-120.96855,45.47602],[-120.9638,45.47214],[-120.96035,45.4697],[-120.95631,45.46782],[-120.95205,45.4678],[-120.95072,45.46658],[-120.95466,45.46439],[-120.95416,45.46268],[-120.9508,45.46104],[-120.9399,45.45886],[-120.93481,45.45695],[-120.93521,45.45481],[-120.94349,45.45309],[-120.94621,45.44906],[-120.95041,45.44636],[-120.95276,45.43927],[-120.9507,45.436],[-120.94679,45.43461],[-120.951,45.42564],[-120.95526,45.42124],[-120.96208,45.41944],[-120.96879,45.41843],[-120.97417,45.41852],[-120.97872,45.42183],[-120.97973,45.42731],[-120.98172,45.42796],[-120.98146,45.42824],[-120.98147,45.42847],[-120.98212,45.42931],[-120.9824,45.42931],[-120.98241,45.42951],[-120.98216,45.42966],[-120.98243,45.43019],[-120.9823,45.4307],[-120.98208,45.43087],[-120.98152,45.43096],[-120.98121,45.43125],[-120.9813,45.43149],[-120.98074,45.43166],[-120.98035,45.43237],[-120.97985,45.43267],[-120.97925,45.43349],[-120.97903,45.4356],[-120.97926,45.43815],[-120.97991,45.44032],[-120.98038,45.44293],[-120.9802,45.44559],[-120.97996,45.4477],[-120.97888,45.44757],[-120.97795,45.44766],[-120.97765,45.44837],[-120.97766,45.45282],[-120.97787,45.45407],[-120.97736,45.45416],[-120.97806,45.45536],[-120.97847,45.45641],[-120.97829,45.45672],[-120.97836,45.45704],[-120.97876,45.45714],[-120.97906,45.45781],[-120.97903,45.45862],[-120.97971,45.45884],[-120.98007,45.45932],[-120.97995,45.4596],[-120.98049,45.45978],[-120.98041,45.46022],[-120.9807,45.46053],[-120.9811,45.46063],[-120.9809,45.46086],[-120.98131,45.46129],[-120.98171,45.46142],[-120.9816,45.46158],[-120.98184,45.46183],[-120.98183,45.46203],[-120.98224,45.4621],[-120.98215,45.46247],[-120.98238,45.46263],[-120.9823,45.4629],[-120.98249,45.46317],[-120.98231,45.46338],[-120.98252,45.46363],[-120.98238,45.46404],[-120.98261,45.46413],[-120.98254,45.46437],[-120.98376,45.46722],[-120.98416,45.46759],[-120.98374,45.46789],[-120.9833,45.46786],[-120.98273,45.46811],[-120.98289,45.46883],[-120.9837,45.46885],[-120.98422,45.4693],[-120.98577,45.46937],[-120.98606,45.46985],[-120.98632,45.46998],[-120.9864,45.47032],[-120.98678,45.47075],[-120.98741,45.4711],[-120.98772,45.47155],[-120.98751,45.47206],[-120.9875,45.47246],[-120.98759,45.47296],[-120.98793,45.47312],[-120.98782,45.47842],[-120.98819,45.47864],[-120.98871,45.4778],[-120.98958,45.47698],[-120.98983,45.47656],[-120.99005,45.47668],[-120.98991,45.47739],[-120.98923,45.47815],[-120.98921,45.47915],[-120.98971,45.47946],[-120.99096,45.47978],[-120.99164,45.47943],[-120.99175,45.47923],[-120.99207,45.47926],[-120.99251,45.47964],[-120.99332,45.47994],[-120.99345,45.48019],[-120.99315,45.48072],[-120.99299,45.48151],[-120.99298,45.48192],[-120.99313,45.48222],[-120.99403,45.48194],[-120.99576,45.48055],[-120.99623,45.48048],[-120.99664,45.48051],[-120.99691,45.48068],[-120.99759,45.48199],[-120.99799,45.48214],[-120.9984,45.48194],[-120.99852,45.48157],[-120.99876,45.48135],[-121.00048,45.48085],[-121.00103,45.48096],[-121.00186,45.48209],[-121.00284,45.48249],[-121.00566,45.48262],[-121.00648,45.4825],[-121.00679,45.48234],[-121.00783,45.48107],[-121.00849,45.48075],[-121.00988,45.48038],[-121.01005,45.48124],[-121.012,45.48197],[-121.00997,45.48268],[-121.00972,45.48292],[-121.00879,45.4833],[-121.00605,45.48331],[-121.00516,45.48348],[-121.00532,45.48376],[-121.00516,45.48402],[-121.0048,45.48411],[-121.00395,45.48378],[-121.00354,45.48378],[-121.00313,45.48399],[-121.00336,45.48443],[-121.00341,45.48536],[-121.00358,45.48571],[-121.00387,45.48591],[-121.00471,45.48588],[-121.00496,45.48575],[-121.00498,45.4852],[-121.00531,45.48433],[-121.00627,45.48406],[-121.00773,45.48395],[-121.00847,45.48373],[-121.01223,45.48371],[-121.01263,45.48491],[-121.01262,45.48533],[-121.01198,45.4857]]]},"properties":{"fire_id":"ufid:2021-OR954S-000396","source_collection":"history-2021","source_objectid":3764,"incident_name":"WRENTHAM MARKET","mapped_acres":5798.096515565,"mapped_acres_source":"poly_GISAcres","gis_acres":5798.096515565,"auto_acres":5798.07479619282,"reported_acres":7222.0,"percent_contained":100.0,"state":"OR","state_wfigs":"US-OR","county":"Wasco","discovery_time_utc":"2021-06-29T21:05:00Z","perimeter_time_utc":"2021-07-01T21:34:45Z","perimeter_edit_time_utc":"2021-11-10T21:42:39Z","incident_modified_time_utc":"2021-07-04T03:29:06Z","containment_time_utc":null,"control_time_utc":null,"fire_out_time_utc":null,"fire_cause":"Undetermined","fire_cause_general":null,"map_method":"Mixed Methods","source_dataset":"2021 NIFS","unique_fire_identifier":"2021-OR954S-000396","irwin_id":"{8C1E4886-6B55-480D-8201-8F50305379E1}","global_id":"625d4132-f10a-41a1-bf32-1ea5463225f3"}},{"type":"Feature","geometry":{"type":"Polygon","coordinates":[[[-121.33263,45.20835],[-121.33226,45.20839],[-121.33169,45.20811],[-121.33171,45.20798],[-121.33197,45.20774],[-121.33253,45.20782],[-121.33274,45.20802],[-121.33253,45.20835],[-121.33263,45.20835]]]},"properties":{"fire_id":"ufid:2021-OR954S-000300","source_collection":"history-2021","source_objectid":3797,"incident_name":"WOODCOCK ROAD","mapped_acres":1.0,"mapped_acres_source":"poly_GISAcres","gis_acres":1.0,"auto_acres":1.04705885998263,"reported_acres":1.0,"percent_contained":null,"state":"OR","state_wfigs":"US-OR","county":"Wasco","discovery_time_utc":"2021-06-09T18:32:45Z","perimeter_time_utc":"2021-06-09T23:32:45Z","perimeter_edit_time_utc":"2021-07-12T22:13:15Z","incident_modified_time_utc":"2021-06-10T19:34:06Z","containment_time_utc":null,"control_time_utc":null,"fire_out_time_utc":"2021-06-10T16:30:00Z","fire_cause":"Undetermined","fire_cause_general":null,"map_method":"Image Interpretation","source_dataset":"2021 NIFS","unique_fire_identifier":"2021-OR954S-000300","irwin_id":"{F20B8301-6246-42CB-95A8-662D60323267}","global_id":"c181f18d-2332-4785-a5de-8d6531992a92"}},{"type":"Feature","geometry":{"type":"Polygon","coordinates":[[[-121.33048,45.20645],[-121.33047,45.20658],[-121.32989,45.20652],[-121.32962,45.20617],[-121.32945,45.2064],[-121.32894,45.20658],[-121.32904,45.20683],[-121.32964,45.20705],[-121.32973,45.20724],[-121.32964,45.20794],[-121.32758,45.20813],[-121.32333,45.20817],[-121.32329,45.20783],[-121.32394,45.20684],[-121.32451,45.20638],[-121.32509,45.20626],[-121.32518,45.20612],[-121.32574,45.20609],[-121.32581,45.2058],[-121.32623,45.2055],[-121.32746,45.2054],[-121.32746,45.20556],[-121.32821,45.20561],[-121.32821,45.20576],[-121.32867,45.20604],[-121.32893,45.20588],[-121.32955,45.20582],[-121.32987,45.20595],[-121.33025,45.2065],[-121.33048,45.20645]]]},"properties":{"fire_id":"ufid:2021-OR954S-000467","source_collection":"history-2021","source_objectid":3904,"incident_name":"WOODCOCK 2","mapped_acres":10.0,"mapped_acres_source":"poly_GISAcres","gis_acres":10.0,"auto_acres":28.5610316711518,"reported_acres":30.4,"percent_contained":null,"state":"OR","state_wfigs":"US-OR","county":"Wasco","discovery_time_utc":"2021-07-06T20:50:24Z","perimeter_time_utc":"2021-07-07T01:50:24Z","perimeter_edit_time_utc":"2021-07-12T22:14:49Z","incident_modified_time_utc":"2021-07-10T22:10:42Z","containment_time_utc":"2021-07-07T20:50:00Z","control_time_utc":"2021-07-07T23:26:00Z","fire_out_time_utc":"2021-07-10T22:09:00Z","fire_cause":"Undetermined","fire_cause_general":null,"map_method":"Image Interpretation","source_dataset":"2021 NIFS","unique_fire_identifier":"2021-OR954S-000467","irwin_id":"{B05DB72B-797A-4DBC-B40F-CC0E36E12D5D}","global_id":"e0793a4f-1d9f-432e-91ea-5941f19935bf"}},{"type":"Feature","geometry":{"type":"Polygon","coordinates":[[[-121.23057,45.62573],[-121.23166,45.62515],[-121.23205,45.62436],[-121.23207,45.62393],[-121.23186,45.6232],[-121.23205,45.62296],[-121.2334,45.62547],[-121.23333,45.62566],[-121.23314,45.62571],[-121.23309,45.62627],[-121.23281,45.62656],[-121.23278,45.6269],[-121.23298,45.62731],[-121.23279,45.62785],[-121.23201,45.62798],[-121.23166,45.6279],[-121.23154,45.62701],[-121.23082,45.6269],[-121.23057,45.62573]]]},"properties":{"fire_id":"ufid:2021-ORCGF-000955","source_collection":"history-2021","source_objectid":4146,"incident_name":"CHENOWETH RIM","mapped_acres":0.1,"mapped_acres_source":"poly_GISAcres","gis_acres":0.1,"auto_acres":14.4059760191679,"reported_acres":14.3,"percent_contained":null,"state":"OR","state_wfigs":"US-OR","county":"Wasco","discovery_time_utc":"2021-08-31T22:55:00Z","perimeter_time_utc":"2021-09-01T03:55:56Z","perimeter_edit_time_utc":"2023-03-14T15:13:42Z","incident_modified_time_utc":"2021-12-11T00:22:38Z","containment_time_utc":"2021-09-02T22:05:00Z","control_time_utc":"2021-09-10T01:30:00Z","fire_out_time_utc":"2021-09-10T01:30:00Z","fire_cause":"Undetermined","fire_cause_general":"Undetermined","map_method":"Hand Sketch","source_dataset":"FFP","unique_fire_identifier":"2021-ORCGF-000955","irwin_id":"{9CA2236E-9BE2-477E-87B6-333FC417139A}","global_id":"fb8a5369-e7c8-46f9-bcb7-ca852ba08503"}},{"type":"Feature","geometry":{"type":"Polygon","coordinates":[[[-121.22627,45.63019],[-121.23087,45.63173],[-121.23121,45.63301],[-121.23051,45.63369],[-121.2293,45.63404],[-121.22861,45.63459],[-121.22683,45.63427],[-121.22626,45.63372],[-121.22543,45.63354],[-121.22334,45.63341],[-121.2232,45.63292],[-121.22413,45.63223],[-121.2246,45.63211],[-121.22569,45.63123],[-121.22627,45.63019]]]},"properties":{"fire_id":"ufid:2021-ORCGF-000583","source_collection":"history-2021","source_objectid":5190,"incident_name":"CHENOWETH - MCFR Assist","mapped_acres":25.0,"mapped_acres_source":"poly_GISAcres","gis_acres":25.0,"auto_acres":42.80752916335768,"reported_acres":30.0,"percent_contained":null,"state":"OR","state_wfigs":"US-OR","county":"Wasco","discovery_time_utc":"2021-07-18T02:33:54Z","perimeter_time_utc":"2021-07-18T07:33:54Z","perimeter_edit_time_utc":"2023-03-14T15:13:42Z","incident_modified_time_utc":"2021-12-13T19:26:08Z","containment_time_utc":null,"control_time_utc":null,"fire_out_time_utc":null,"fire_cause":"Undetermined","fire_cause_general":"Undetermined","map_method":"Hand Sketch","source_dataset":"FFP","unique_fire_identifier":"2021-ORCGF-000583","irwin_id":"{540DAC0E-4343-4D2E-BA03-77E66A3124D2}","global_id":"99f01583-8865-4caf-abd8-c0987820ecd2"}},{"type":"Feature","geometry":{"type":"Polygon","coordinates":[[[-121.36025,45.6944],[-121.36286,45.69327],[-121.3631,45.69441],[-121.36034,45.69505],[-121.36042,45.69476],[-121.36025,45.6944]]]},"properties":{"fire_id":"ufid:2021-OR954S-000311","source_collection":"history-2021","source_objectid":7563,"incident_name":"I84 MM 72","mapped_acres":5.0,"mapped_acres_source":"poly_GISAcres","gis_acres":5.0,"auto_acres":5.23654171845525,"reported_acres":3.38,"percent_contained":null,"state":"OR","state_wfigs":"US-OR","county":"Wasco","discovery_time_utc":"2021-06-13T00:55:18Z","perimeter_time_utc":"2021-06-13T05:55:18Z","perimeter_edit_time_utc":"2023-03-14T15:13:42Z","incident_modified_time_utc":"2021-12-15T23:22:07Z","containment_time_utc":"2021-06-13T05:45:00Z","control_time_utc":"2021-06-16T17:45:00Z","fire_out_time_utc":"2021-06-16T17:45:00Z","fire_cause":"Undetermined","fire_cause_general":"Undetermined","map_method":"Hand Sketch","source_dataset":"FFP","unique_fire_identifier":"2021-OR954S-000311","irwin_id":"{FAED208A-C46C-48B3-9C7F-77389EBE24A4}","global_id":"d827ef60-e36f-4b9d-a1d1-548e02a5d150"}},{"type":"Feature","geometry":{"type":"Polygon","coordinates":[[[-121.45879,45.69612],[-121.45963,45.69631],[-121.45861,45.69616],[-121.45879,45.69612]]]},"properties":{"fire_id":"ufid:2021-OR954S-000312","source_collection":"history-2021","source_objectid":7647,"incident_name":"I84 MM 66","mapped_acres":0.4,"mapped_acres_source":"poly_GISAcres","gis_acres":0.4,"auto_acres":0.14057792846666348,"reported_acres":0.4,"percent_contained":null,"state":"OR","state_wfigs":"US-OR","county":"Hood River","discovery_time_utc":"2021-06-13T02:14:41Z","perimeter_time_utc":"2021-06-13T07:14:41Z","perimeter_edit_time_utc":"2023-03-14T15:13:42Z","incident_modified_time_utc":"2021-12-15T23:17:35Z","containment_time_utc":"2021-06-13T03:21:00Z","control_time_utc":"2021-06-13T03:22:00Z","fire_out_time_utc":"2021-06-15T18:20:00Z","fire_cause":"Undetermined","fire_cause_general":"Undetermined","map_method":"Hand Sketch","source_dataset":"FFP","unique_fire_identifier":"2021-OR954S-000312","irwin_id":"{DC002809-FAD2-45DE-89A5-7906C7125160}","global_id":"05c86170-7201-45ae-abc2-e8df4a63dd2d"}},{"type":"Feature","geometry":{"type":"Polygon","coordinates":[[[-121.46576,45.69799],[-121.46587,45.69799],[-121.46585,45.69804],[-121.46576,45.69799]]]},"properties":{"fire_id":"ufid:2021-OR954S-000182","source_collection":"history-2021","source_objectid":8726,"incident_name":"MP 66","mapped_acres":0.1,"mapped_acres_source":"poly_GISAcres","gis_acres":0.1,"auto_acres":0.010023324368304512,"reported_acres":0.1,"percent_contained":null,"state":"OR","state_wfigs":"US-OR","county":"Hood River","discovery_time_utc":"2021-05-10T19:32:41Z","perimeter_time_utc":"2021-05-11T00:32:41Z","perimeter_edit_time_utc":"2023-03-14T15:13:42Z","incident_modified_time_utc":"2021-12-15T23:13:08Z","containment_time_utc":"2021-05-10T20:15:00Z","control_time_utc":"2021-05-10T20:16:00Z","fire_out_time_utc":"2021-05-10T20:17:00Z","fire_cause":"Human","fire_cause_general":"Railroad operations and maintenance","map_method":"Hand Sketch","source_dataset":"FFP","unique_fire_identifier":"2021-OR954S-000182","irwin_id":"{BBA0AA75-E324-4FFE-811D-4FC5B11DFC51}","global_id":"6bb2b245-96a9-409a-8e19-385f79bc96b0"}},{"type":"Feature","geometry":{"type":"Polygon","coordinates":[[[-121.20674,45.62934],[-121.20681,45.62961],[-121.20703,45.62972],[-121.20783,45.62953],[-121.20844,45.62962],[-121.20872,45.6311],[-121.20866,45.63231],[-121.21063,45.63139],[-121.21178,45.63104],[-121.21267,45.63094],[-121.21265,45.63121],[-121.21181,45.63307],[-121.20901,45.63896],[-121.20865,45.64014],[-121.20875,45.64137],[-121.20925,45.64133],[-121.2094,45.64144],[-121.21148,45.64353],[-121.2122,45.64475],[-121.21156,45.64489],[-121.21118,45.64475],[-121.21093,45.64445],[-121.21043,45.64452],[-121.21046,45.64487],[-121.20807,45.64503],[-121.20816,45.64468],[-121.20844,45.64466],[-121.20845,45.64402],[-121.20869,45.6437],[-121.20838,45.6423],[-121.20813,45.64235],[-121.20797,45.64193],[-121.20581,45.64149],[-121.20708,45.64104],[-121.20765,45.64056],[-121.20753,45.63973],[-121.20687,45.6401],[-121.20608,45.64018],[-121.20575,45.63942],[-121.20541,45.63956],[-121.20506,45.63919],[-121.20474,45.63954],[-121.20483,45.63985],[-121.20458,45.63998],[-121.20398,45.63993],[-121.20333,45.64034],[-121.20374,45.64066],[-121.20475,45.6407],[-121.20498,45.64087],[-121.20473,45.6414],[-121.20249,45.64132],[-121.20217,45.64014],[-121.2016,45.64007],[-121.20159,45.63976],[-121.20264,45.63999],[-121.20284,45.64024],[-121.20345,45.64001],[-121.2046,45.6395],[-121.20471,45.63888],[-121.20556,45.63916],[-121.20591,45.63904],[-121.20679,45.63951],[-121.20714,45.63946],[-121.20733,45.63919],[-121.20675,45.63827],[-121.20652,45.63751],[-121.20588,45.63747],[-121.20567,45.63791],[-121.20479,45.63871],[-121.20449,45.6384],[-121.2041,45.63748],[-121.20445,45.63766],[-121.20537,45.63745],[-121.2056,45.63719],[-121.20538,45.63672],[-121.2058,45.63661],[-121.20507,45.63608],[-121.20481,45.63613],[-121.20475,45.63628],[-121.20403,45.63643],[-121.20376,45.63621],[-121.20343,45.63617],[-121.20292,45.63524],[-121.20374,45.63517],[-121.20332,45.63544],[-121.20363,45.63604],[-121.20455,45.63603],[-121.20465,45.63579],[-121.20535,45.63555],[-121.20482,45.63476],[-121.20416,45.63488],[-121.20383,45.63438],[-121.20292,45.6345],[-121.20313,45.63502],[-121.20271,45.63507],[-121.20325,45.63623],[-121.20263,45.63638],[-121.2021,45.6351],[-121.2015,45.63552],[-121.20028,45.63504],[-121.20061,45.63472],[-121.20135,45.63451],[-121.20179,45.63454],[-121.20464,45.63383],[-121.20471,45.63342],[-121.20409,45.63339],[-121.20212,45.63409],[-121.20129,45.63405],[-121.20104,45.63385],[-121.20191,45.63393],[-121.20309,45.63359],[-121.2038,45.63325],[-121.20355,45.63274],[-121.20416,45.63271],[-121.20379,45.63301],[-121.20395,45.63321],[-121.20451,45.63278],[-121.20442,45.63254],[-121.20423,45.63251],[-121.20414,45.63174],[-121.20462,45.63185],[-121.20487,45.63211],[-121.20459,45.63254],[-121.20462,45.6327],[-121.20575,45.6319],[-121.20601,45.6321],[-121.20596,45.63234],[-121.20671,45.63247],[-121.20717,45.63228],[-121.20718,45.63207],[-121.20583,45.63139],[-121.20437,45.63036],[-121.2036,45.62881],[-121.20442,45.62893],[-121.20532,45.62963],[-121.20612,45.62984],[-121.20674,45.62934]]]},"properties":{"fire_id":"ufid:2021-ORCGF-000277","source_collection":"history-2021","source_objectid":9378,"incident_name":"MILEPOST 85","mapped_acres":5.0,"mapped_acres_source":"poly_GISAcres","gis_acres":5.0,"auto_acres":153.80129060521324,"reported_acres":170.0,"percent_contained":null,"state":"OR","state_wfigs":"US-OR","county":"Wasco","discovery_time_utc":"2021-06-02T20:31:06Z","perimeter_time_utc":"2021-06-03T01:31:06Z","perimeter_edit_time_utc":"2023-03-14T15:13:42Z","incident_modified_time_utc":"2021-11-18T23:52:16Z","containment_time_utc":"2021-06-03T04:00:00Z","control_time_utc":"2021-06-03T04:30:00Z","fire_out_time_utc":"2021-06-04T23:00:00Z","fire_cause":"Human","fire_cause_general":"Debris and open burning","map_method":"Hand Sketch","source_dataset":"FFP","unique_fire_identifier":"2021-ORCGF-000277","irwin_id":"{ADCB501D-312F-41D9-85CD-CAE21A66C1EC}","global_id":"9be54f51-1133-47fb-bf45-16a7affc7417"}},{"type":"Feature","geometry":{"type":"Polygon","coordinates":[[[-121.42982,45.6873],[-121.43075,45.68757],[-121.42977,45.68736],[-121.42982,45.6873]]]},"properties":{"fire_id":"ufid:2021-OR954S-000313","source_collection":"history-2021","source_objectid":10650,"incident_name":"I84 MM 67","mapped_acres":1.0,"mapped_acres_source":"poly_GISAcres","gis_acres":1.0,"auto_acres":0.13491673518462413,"reported_acres":0.1,"percent_contained":null,"state":"OR","state_wfigs":"US-OR","county":"Wasco","discovery_time_utc":"2021-06-13T03:24:45Z","perimeter_time_utc":"2021-06-13T08:24:45Z","perimeter_edit_time_utc":"2023-03-14T15:13:42Z","incident_modified_time_utc":"2021-12-15T17:14:11Z","containment_time_utc":"2021-06-13T03:44:00Z","control_time_utc":"2021-06-13T03:45:00Z","fire_out_time_utc":"2021-06-15T18:28:00Z","fire_cause":"Undetermined","fire_cause_general":"Undetermined","map_method":"Hand Sketch","source_dataset":"FFP","unique_fire_identifier":"2021-OR954S-000313","irwin_id":"{0CD065E6-3F48-48D5-B3E3-FA6BD0ECFF53}","global_id":"b7009df9-edaf-498f-8207-d5ed6690feb4"}},{"type":"Feature","geometry":{"type":"Polygon","coordinates":[[[-120.93116,45.07984],[-120.93107,45.07818],[-120.93006,45.07739],[-120.92927,45.07309],[-120.92751,45.07452],[-120.92685,45.0747],[-120.92647,45.07511],[-120.92607,45.07529],[-120.92595,45.07531],[-120.92623,45.07503],[-120.9259,45.07507],[-120.92573,45.07483],[-120.92559,45.07487],[-120.92568,45.07509],[-120.92536,45.075],[-120.9252,45.07512],[-120.92502,45.07492],[-120.92492,45.07452],[-120.92505,45.0743],[-120.92473,45.07408],[-120.9247,45.07365],[-120.92444,45.07316],[-120.92468,45.07277],[-120.92492,45.07288],[-120.92508,45.0725],[-120.92545,45.07257],[-120.92585,45.07237],[-120.92577,45.07196],[-120.92537,45.07193],[-120.9254,45.07161],[-120.92496,45.0714],[-120.92498,45.07117],[-120.92474,45.07099],[-120.92487,45.07065],[-120.92471,45.07051],[-120.92469,45.07002],[-120.92491,45.06983],[-120.92507,45.06987],[-120.92489,45.06967],[-120.92496,45.06959],[-120.9253,45.07033],[-120.92556,45.07016],[-120.92547,45.06996],[-120.92559,45.06964],[-120.92519,45.06921],[-120.92558,45.06847],[-120.92534,45.06814],[-120.92543,45.06784],[-120.9258,45.0676],[-120.92695,45.0676],[-120.92801,45.06599],[-120.92937,45.0635],[-120.9305,45.06195],[-120.93135,45.0613],[-120.9336,45.06048],[-120.93485,45.06026],[-120.93616,45.06039],[-120.93742,45.06089],[-120.93857,45.06153],[-120.9397,45.06259],[-120.94274,45.06444],[-120.94592,45.06585],[-120.94643,45.0667],[-120.94664,45.06761],[-120.9472,45.06834],[-120.94938,45.06927],[-120.94998,45.07006],[-120.95013,45.07107],[-120.95055,45.07203],[-120.95153,45.07269],[-120.95387,45.07357],[-120.95484,45.0742],[-120.95533,45.0751],[-120.95506,45.07608],[-120.95434,45.07701],[-120.95337,45.07786],[-120.95208,45.07836],[-120.95063,45.07865],[-120.94911,45.07862],[-120.94766,45.07824],[-120.94629,45.07771],[-120.9451,45.07706],[-120.93998,45.07341],[-120.93883,45.0731],[-120.93796,45.07345],[-120.93777,45.07421],[-120.93807,45.07499],[-120.93919,45.07651],[-120.93957,45.07745],[-120.93957,45.07834],[-120.9389,45.07903],[-120.93778,45.07931],[-120.9365,45.07926],[-120.93533,45.07957],[-120.93464,45.0802],[-120.93166,45.08411],[-120.93123,45.08496],[-120.9307,45.0867],[-120.93085,45.08754],[-120.93117,45.08831],[-120.93068,45.08884],[-120.92976,45.08893],[-120.92917,45.08837],[-120.92911,45.08763],[-120.92944,45.08525],[-120.93003,45.08365],[-120.93121,45.08215],[-120.93146,45.08137],[-120.93116,45.07984]]]},"properties":{"fire_id":"ufid:2021-ORPRD-000700","source_collection":"history-2021","source_objectid":13285,"incident_name":"JOHNSON RIDGE 0700 RN","mapped_acres":791.2853,"mapped_acres_source":"poly_GISAcres","gis_acres":791.2853,"auto_acres":791.2823030910109,"reported_acres":772.0,"percent_contained":null,"state":"OR","state_wfigs":"US-OR","county":"Wasco","discovery_time_utc":"2021-07-30T15:16:00Z","perimeter_time_utc":"2021-08-01T20:16:13Z","perimeter_edit_time_utc":"2023-03-14T15:13:42Z","incident_modified_time_utc":"2021-09-05T20:13:14Z","containment_time_utc":"2021-08-03T16:17:00Z","control_time_utc":"2021-08-07T21:00:00Z","fire_out_time_utc":"2021-08-12T19:57:00Z","fire_cause":"Natural","fire_cause_general":"Natural","map_method":"Mixed Methods","source_dataset":"FFP","unique_fire_identifier":"2021-ORPRD-000700","irwin_id":"{AEA87A38-20F8-467B-95AD-553CF1306EE2}","global_id":"8ed3e168-9151-4e91-a8b2-b64657590da5"}},{"type":"Feature","geometry":{"type":"MultiPolygon","coordinates":[[[[-121.39635,45.05268],[-121.39607,45.05286],[-121.3953,45.05402],[-121.39467,45.05461],[-121.39381,45.05488],[-121.3916,45.05435],[-121.38998,45.05266],[-121.39037,45.05233],[-121.38931,45.05155],[-121.38685,45.05083],[-121.38535,45.0506],[-121.38476,45.04946],[-121.38308,45.04786],[-121.38303,45.0467],[-121.38213,45.04591],[-121.38215,45.04508],[-121.38273,45.04405],[-121.38368,45.04436],[-121.38463,45.04485],[-121.3856,45.04471],[-121.38662,45.04437],[-121.38677,45.04366],[-121.38641,45.04276],[-121.38689,45.04208],[-121.38783,45.0418],[-121.3889,45.04253],[-121.38933,45.04224],[-121.38965,45.0412],[-121.39135,45.04179],[-121.39292,45.04279],[-121.39445,45.04347],[-121.39742,45.04253],[-121.39966,45.04348],[-121.3994,45.0455],[-121.39825,45.04687],[-121.39814,45.04785],[-121.39752,45.04906],[-121.39703,45.04904],[-121.39627,45.04757],[-121.39553,45.04747],[-121.39505,45.04796],[-121.39506,45.04829],[-121.39589,45.04909],[-121.39614,45.04965],[-121.39674,45.05015],[-121.39653,45.05045],[-121.39628,45.05235],[-121.39635,45.05268]]],[[[-121.45839,45.09371],[-121.45809,45.09374],[-121.45763,45.09401],[-121.4564,45.09407],[-121.45597,45.09396],[-121.45533,45.09421],[-121.45461,45.09391],[-121.45399,45.09388],[-121.45388,45.09374],[-121.454,45.09359],[-121.45249,45.0938],[-121.44869,45.09304],[-121.44747,45.09318],[-121.4472,45.09303],[-121.44726,45.09284],[-121.44715,45.09264],[-121.44655,45.09284],[-121.44603,45.09282],[-121.44593,45.09241],[-121.44624,45.09214],[-121.44486,45.09185],[-121.44201,45.09172],[-121.4396,45.09219],[-121.43541,45.09199],[-121.43295,45.09119],[-121.4327,45.09103],[-121.43245,45.09055],[-121.43144,45.0905],[-121.4315,45.09038],[-121.42724,45.08955],[-121.42572,45.08974],[-121.4255,45.08991],[-121.42535,45.09032],[-121.42572,45.09039],[-121.42568,45.09058],[-121.42531,45.09048],[-121.42471,45.0909],[-121.42346,45.09111],[-121.42293,45.09059],[-121.42142,45.09022],[-121.41757,45.08891],[-121.41681,45.08907],[-121.41653,45.08885],[-121.41647,45.0886],[-121.41593,45.08844],[-121.41386,45.08878],[-121.41342,45.08905],[-121.41306,45.08906],[-121.41292,45.08893],[-121.41099,45.08924],[-121.41097,45.08832],[-121.40981,45.08782],[-121.4082,45.08658],[-121.40582,45.08616],[-121.4046,45.08626],[-121.4029,45.08683],[-121.40292,45.08672],[-121.40116,45.08608],[-121.39793,45.08607],[-121.39475,45.08411],[-121.39333,45.08348],[-121.39293,45.08142],[-121.39324,45.0811],[-121.3937,45.08093],[-121.39387,45.08101],[-121.39466,45.0809],[-121.3954,45.08009],[-121.39449,45.07957],[-121.39311,45.0794],[-121.39293,45.07871],[-121.39264,45.07839],[-121.39109,45.07824],[-121.39093,45.07783],[-121.3909,45.0765],[-121.39051,45.07593],[-121.39083,45.07517],[-121.38995,45.07397],[-121.3908,45.07351],[-121.39194,45.07495],[-121.39307,45.07488],[-121.39424,45.07519],[-121.39515,45.07562],[-121.39609,45.0765],[-121.3971,45.07651],[-121.39721,45.07553],[-121.39738,45.07549],[-121.39765,45.075],[-121.3982,45.07486],[-121.39873,45.07447],[-121.3992,45.0739],[-121.3995,45.07382],[-121.39994,45.07394],[-121.40053,45.07363],[-121.4009,45.07365],[-121.40013,45.07287],[-121.40005,45.07224],[-121.39765,45.07185],[-121.39616,45.07099],[-121.39509,45.07],[-121.39493,45.06836],[-121.39431,45.06802],[-121.39238,45.06823],[-121.39109,45.06774],[-121.39065,45.06678],[-121.39076,45.06592],[-121.39211,45.06582],[-121.392,45.06498],[-121.39245,45.06404],[-121.39323,45.0631],[-121.39276,45.06202],[-121.39227,45.06139],[-121.39224,45.05966],[-121.39286,45.0586],[-121.39353,45.05858],[-121.39405,45.0579],[-121.39482,45.05737],[-121.3949,45.05598],[-121.39575,45.05709],[-121.39649,45.05763],[-121.39779,45.05643],[-121.39802,45.05557],[-121.39913,45.05502],[-121.40069,45.05487],[-121.40193,45.05411],[-121.40162,45.05297],[-121.40292,45.05156],[-121.40466,45.05084],[-121.40539,45.05032],[-121.40473,45.04992],[-121.40501,45.04903],[-121.40368,45.04874],[-121.40327,45.04816],[-121.4041,45.04626],[-121.4077,45.04577],[-121.40778,45.04452],[-121.40886,45.04468],[-121.40888,45.04412],[-121.40818,45.04349],[-121.40922,45.04275],[-121.4107,45.04316],[-121.41161,45.04391],[-121.41335,45.04267],[-121.41327,45.04247],[-121.41391,45.04139],[-121.41415,45.03949],[-121.4164,45.03571],[-121.41695,45.03505],[-121.41792,45.03468],[-121.4188,45.03455],[-121.41921,45.03468],[-121.41925,45.03505],[-121.41986,45.03541],[-121.41986,45.03561],[-121.42024,45.03575],[-121.42034,45.03596],[-121.42128,45.03604],[-121.42184,45.03637],[-121.42185,45.03674],[-121.42222,45.03744],[-121.42157,45.03742],[-121.42117,45.0379],[-121.42134,45.03847],[-121.4219,45.03858],[-121.42222,45.03898],[-121.42245,45.03971],[-121.42292,45.0405],[-121.42329,45.04072],[-121.42353,45.04115],[-121.42415,45.04171],[-121.42333,45.04321],[-121.42374,45.04331],[-121.42382,45.04274],[-121.42415,45.04253],[-121.42481,45.04275],[-121.42535,45.04346],[-121.42562,45.04408],[-121.42502,45.04447],[-121.42519,45.0447],[-121.42491,45.04502],[-121.42494,45.04542],[-121.42535,45.0458],[-121.4254,45.04644],[-121.42465,45.04671],[-121.42555,45.04691],[-121.42572,45.04942],[-121.42616,45.04973],[-121.42621,45.05012],[-121.42613,45.05102],[-121.42631,45.05199],[-121.4259,45.05204],[-121.42605,45.05314],[-121.42586,45.05423],[-121.42571,45.05441],[-121.42594,45.05495],[-121.42556,45.05512],[-121.42575,45.05536],[-121.4254,45.05558],[-121.42547,45.05592],[-121.42694,45.05612],[-121.42721,45.05696],[-121.42827,45.05653],[-121.43048,45.05749],[-121.43017,45.05809],[-121.43028,45.05822],[-121.43092,45.0579],[-121.43079,45.05748],[-121.43096,45.05734],[-121.43034,45.05599],[-121.43113,45.05633],[-121.43127,45.05752],[-121.43082,45.05859],[-121.43081,45.059],[-121.43211,45.0589],[-121.43662,45.05819],[-121.43686,45.05879],[-121.43826,45.05834],[-121.43798,45.05798],[-121.4382,45.05776],[-121.43882,45.05777],[-121.4389,45.0573],[-121.43974,45.05773],[-121.44047,45.05678],[-121.44026,45.05659],[-121.44059,45.05663],[-121.44116,45.05592],[-121.4412,45.05523],[-121.44141,45.0546],[-121.44143,45.05374],[-121.44124,45.0537],[-121.44119,45.05398],[-121.44086,45.05407],[-121.44047,45.05381],[-121.44018,45.05388],[-121.43989,45.05345],[-121.43986,45.05314],[-121.44011,45.05272],[-121.44041,45.0525],[-121.43937,45.0525],[-121.43976,45.05128],[-121.44038,45.051],[-121.44121,45.0511],[-121.44163,45.05094],[-121.44202,45.05037],[-121.44272,45.0505],[-121.44251,45.05098],[-121.44333,45.05116],[-121.44452,45.05177],[-121.44509,45.05194],[-121.44596,45.05199],[-121.44915,45.05298],[-121.45006,45.05308],[-121.45048,45.05337],[-121.45158,45.05374],[-121.45241,45.05433],[-121.45187,45.05513],[-121.45213,45.05558],[-121.45205,45.05599],[-121.45214,45.05616],[-121.45158,45.05646],[-121.45262,45.05668],[-121.45339,45.0564],[-121.45379,45.05709],[-121.45422,45.05711],[-121.4551,45.05654],[-121.45579,45.0558],[-121.45603,45.05495],[-121.45635,45.05474],[-121.45664,45.054],[-121.45775,45.05342],[-121.45768,45.05395],[-121.45793,45.05461],[-121.45773,45.05493],[-121.45778,45.05532],[-121.45701,45.05574],[-121.45696,45.05615],[-121.45773,45.05647],[-121.45842,45.05629],[-121.45874,45.05587],[-121.45888,45.05529],[-121.45873,45.05465],[-121.45876,45.05355],[-121.45887,45.05328],[-121.45925,45.05295],[-121.45982,45.05296],[-121.4613,45.05388],[-121.46176,45.05442],[-121.46305,45.05497],[-121.46503,45.05547],[-121.46515,45.05566],[-121.46613,45.05577],[-121.46555,45.05519],[-121.46532,45.05468],[-121.46569,45.05446],[-121.46533,45.05434],[-121.46536,45.05397],[-121.46509,45.0538],[-121.46516,45.05357],[-121.46557,45.05327],[-121.46604,45.05341],[-121.46601,45.0538],[-121.4662,45.05415],[-121.46634,45.05407],[-121.46701,45.05423],[-121.46677,45.05521],[-121.46739,45.05566],[-121.46849,45.05548],[-121.4689,45.05554],[-121.4699,45.05505],[-121.47069,45.05511],[-121.47073,45.05496],[-121.4719,45.05498],[-121.47206,45.05549],[-121.47244,45.05534],[-121.4728,45.05555],[-121.473,45.05585],[-121.47422,45.05628],[-121.47405,45.05593],[-121.47542,45.05597],[-121.47575,45.05612],[-121.4754,45.05641],[-121.47624,45.05645],[-121.47653,45.05605],[-121.47725,45.05606],[-121.47785,45.05693],[-121.47809,45.05765],[-121.47993,45.05765],[-121.47933,45.05808],[-121.47912,45.05841],[-121.47853,45.05849],[-121.47756,45.05991],[-121.47697,45.06025],[-121.47586,45.06086],[-121.47414,45.06087],[-121.47413,45.06129],[-121.47478,45.06186],[-121.47489,45.06276],[-121.47409,45.06248],[-121.47346,45.06256],[-121.47299,45.06306],[-121.47327,45.06339],[-121.47424,45.06337],[-121.4741,45.06382],[-121.47345,45.06473],[-121.47193,45.06584],[-121.4721,45.06606],[-121.47194,45.06635],[-121.47152,45.06628],[-121.47054,45.06648],[-121.46978,45.0668],[-121.46956,45.06724],[-121.46863,45.06723],[-121.46715,45.06768],[-121.46464,45.06893],[-121.46442,45.06934],[-121.46327,45.06992],[-121.46192,45.07029],[-121.46068,45.07087],[-121.45936,45.07023],[-121.45855,45.07066],[-121.45782,45.07125],[-121.45798,45.07132],[-121.45754,45.07155],[-121.45674,45.07168],[-121.45671,45.07214],[-121.4563,45.07222],[-121.45632,45.0727],[-121.45547,45.0729],[-121.45533,45.07305],[-121.45495,45.07302],[-121.45487,45.07317],[-121.45799,45.07411],[-121.45842,45.07524],[-121.45945,45.07627],[-121.46119,45.07707],[-121.46254,45.07688],[-121.46761,45.08125],[-121.46821,45.08135],[-121.46945,45.0827],[-121.46922,45.08377],[-121.46942,45.0847],[-121.46972,45.08491],[-121.46919,45.08718],[-121.46902,45.08746],[-121.46905,45.08776],[-121.46979,45.08829],[-121.4699,45.08863],[-121.47071,45.08848],[-121.47377,45.08854],[-121.47391,45.08874],[-121.47389,45.08912],[-121.47358,45.08922],[-121.47379,45.08926],[-121.47366,45.08934],[-121.4737,45.08961],[-121.47409,45.08985],[-121.47413,45.09011],[-121.47412,45.0903],[-121.47403,45.09026],[-121.47382,45.09053],[-121.47392,45.09068],[-121.47385,45.09087],[-121.47405,45.0911],[-121.47387,45.0912],[-121.4743,45.09139],[-121.47427,45.09172],[-121.47449,45.09181],[-121.47415,45.09215],[-121.47364,45.09196],[-121.47352,45.09217],[-121.47367,45.09251],[-121.47343,45.09264],[-121.47347,45.09281],[-121.47308,45.09302],[-121.47239,45.09294],[-121.4721,45.09318],[-121.47143,45.09306],[-121.47088,45.09325],[-121.47062,45.09277],[-121.47006,45.09285],[-121.46969,45.09247],[-121.46931,45.09258],[-121.46808,45.09237],[-121.46667,45.0926],[-121.46533,45.09242],[-121.46543,45.09257],[-121.46522,45.09299],[-121.46538,45.09307],[-121.46512,45.09301],[-121.46471,45.09321],[-121.4647,45.09338],[-121.46426,45.09361],[-121.46391,45.09402],[-121.46361,45.094],[-121.46275,45.0935],[-121.46128,45.09404],[-121.46042,45.09422],[-121.45839,45.09371]]]]},"properties":{"fire_id":"ufid:2021-ORWSA-000026","source_collection":"history-2021","source_objectid":13508,"incident_name":"S-503","mapped_acres":6679.41890745699,"mapped_acres_source":"poly_GISAcres","gis_acres":6679.41890745699,"auto_acres":6685.893546299,"reported_acres":6680.0,"percent_contained":97.0,"state":"OR","state_wfigs":"US-OR","county":"Wasco","discovery_time_utc":"2021-06-18T23:45:00Z","perimeter_time_utc":"2021-06-25T04:51:51Z","perimeter_edit_time_utc":"2021-06-25T16:19:18Z","incident_modified_time_utc":"2021-11-04T16:38:51Z","containment_time_utc":"2021-08-18T15:00:00Z","control_time_utc":"2021-08-19T15:00:00Z","fire_out_time_utc":"2021-11-04T15:00:00Z","fire_cause":"Human","fire_cause_general":null,"map_method":"Infrared Image","source_dataset":"2021 NIFS","unique_fire_identifier":"2021-ORWSA-000026","irwin_id":"{4A640368-B79C-49DE-B37C-7D072C6BCD9F}","global_id":"487ad5c5-0281-4a28-94f0-6bd6e0b1836b"}},{"type":"Feature","geometry":{"type":"Polygon","coordinates":[[[-120.78711,45.26163],[-120.78681,45.26153],[-120.78616,45.26055],[-120.78597,45.26051],[-120.78482,45.26069],[-120.78353,45.26117],[-120.78293,45.26124],[-120.78273,45.26151],[-120.78119,45.26112],[-120.78104,45.26098],[-120.78127,45.26084],[-120.7812,45.26075],[-120.78003,45.26056],[-120.77898,45.26076],[-120.77885,45.26088],[-120.78029,45.26112],[-120.78003,45.26134],[-120.78068,45.26146],[-120.78013,45.26187],[-120.78017,45.26238],[-120.78079,45.26228],[-120.7815,45.26285],[-120.78033,45.26315],[-120.77967,45.26347],[-120.77674,45.26405],[-120.77457,45.2641],[-120.77349,45.26375],[-120.77308,45.2634],[-120.77273,45.2634],[-120.77066,45.26391],[-120.76861,45.2641],[-120.76722,45.26454],[-120.76619,45.26462],[-120.76497,45.26505],[-120.76145,45.26536],[-120.76125,45.26554],[-120.76153,45.26575],[-120.76126,45.26581],[-120.76092,45.26615],[-120.76099,45.26646],[-120.76064,45.26659],[-120.76066,45.26668],[-120.76113,45.26664],[-120.76142,45.26639],[-120.76355,45.26664],[-120.76352,45.26675],[-120.76267,45.267],[-120.76258,45.26762],[-120.76269,45.26795],[-120.76324,45.26762],[-120.76448,45.26772],[-120.766,45.26721],[-120.76686,45.26822],[-120.76702,45.26897],[-120.76724,45.26929],[-120.76815,45.26972],[-120.76912,45.27044],[-120.76922,45.27069],[-120.76802,45.27098],[-120.76724,45.27167],[-120.76374,45.27264],[-120.76309,45.27297],[-120.76226,45.27298],[-120.76147,45.27329],[-120.75942,45.27348],[-120.75741,45.27416],[-120.75692,45.274],[-120.75677,45.27365],[-120.75662,45.27365],[-120.75295,45.27532],[-120.75162,45.27629],[-120.75112,45.27627],[-120.75033,45.27695],[-120.74898,45.2778],[-120.74852,45.27793],[-120.74822,45.27775],[-120.74824,45.2756],[-120.74885,45.27491],[-120.75145,45.27269],[-120.75222,45.27149],[-120.75276,45.27108],[-120.75263,45.26988],[-120.7533,45.26871],[-120.75425,45.26805],[-120.75441,45.26735],[-120.7552,45.26679],[-120.75532,45.2668],[-120.7552,45.267],[-120.75529,45.26709],[-120.75592,45.26679],[-120.75657,45.26683],[-120.75762,45.26589],[-120.75856,45.26571],[-120.7589,45.26551],[-120.75955,45.26432],[-120.76014,45.26382],[-120.76075,45.26375],[-120.76064,45.26342],[-120.76096,45.26295],[-120.76174,45.26207],[-120.76429,45.25994],[-120.7647,45.2594],[-120.76491,45.25884],[-120.76577,45.25797],[-120.76695,45.25789],[-120.76866,45.2574],[-120.76938,45.25801],[-120.77079,45.25826],[-120.77163,45.25821],[-120.77212,45.25839],[-120.77185,45.25854],[-120.7727,45.25865],[-120.77304,45.25857],[-120.77296,45.25828],[-120.77417,45.25799],[-120.77408,45.25761],[-120.77417,45.25749],[-120.77479,45.25764],[-120.7761,45.25723],[-120.77706,45.2574],[-120.77698,45.25712],[-120.77718,45.25706],[-120.7776,45.25728],[-120.77734,45.25756],[-120.77754,45.25791],[-120.77851,45.25788],[-120.77801,45.25826],[-120.77806,45.25863],[-120.77817,45.25865],[-120.7789,45.25835],[-120.7801,45.25757],[-120.7798,45.25699],[-120.78043,45.25605],[-120.78153,45.25744],[-120.78249,45.25812],[-120.78311,45.25816],[-120.78459,45.25768],[-120.78492,45.25735],[-120.78511,45.25673],[-120.78539,45.25651],[-120.78569,45.25654],[-120.78572,45.2568],[-120.78627,45.25719],[-120.78769,45.25708],[-120.7879,45.25657],[-120.78785,45.25619],[-120.78811,45.25609],[-120.78852,45.25526],[-120.78886,45.25505],[-120.78891,45.25576],[-120.78915,45.25647],[-120.78954,45.25682],[-120.79002,45.25693],[-120.7901,45.2571],[-120.78956,45.25733],[-120.78876,45.25736],[-120.78863,45.25753],[-120.78866,45.25783],[-120.7894,45.25813],[-120.79036,45.25811],[-120.7906,45.25864],[-120.79056,45.25904],[-120.79035,45.25931],[-120.78891,45.26035],[-120.78846,45.26103],[-120.78785,45.2612],[-120.78711,45.26163]]]},"properties":{"fire_id":"ufid:2021-ORNMAN-000408","source_collection":"history-2021","source_objectid":14479,"incident_name":"FINNIGAN 0408 RN","mapped_acres":565.0,"mapped_acres_source":"poly_GISAcres","gis_acres":565.0,"auto_acres":565.4556114053466,"reported_acres":1000.0,"percent_contained":null,"state":"OR","state_wfigs":"US-OR","county":"Sherman","discovery_time_utc":"2021-06-27T21:55:00Z","perimeter_time_utc":"2021-06-28T02:55:00Z","perimeter_edit_time_utc":"2023-03-14T15:13:42Z","incident_modified_time_utc":"2021-07-14T23:02:04Z","containment_time_utc":null,"control_time_utc":null,"fire_out_time_utc":null,"fire_cause":"Human","fire_cause_general":"Equipment and vehicle use","map_method":"Image Interpretation","source_dataset":"FFP","unique_fire_identifier":"2021-ORNMAN-000408","irwin_id":"{54D2496E-304C-4DD2-858A-03C6B34D3D18}","global_id":"383520f8-830a-47f0-8c35-10df8f1b78ff"}},{"type":"Feature","geometry":{"type":"Polygon","coordinates":[[[-120.65464,45.69893],[-120.65439,45.69854],[-120.65446,45.69801],[-120.6543,45.69729],[-120.65403,45.69713],[-120.64783,45.69815],[-120.64666,45.69818],[-120.64406,45.69871],[-120.64235,45.69882],[-120.64154,45.69859],[-120.641,45.69885],[-120.64073,45.69829],[-120.63983,45.69822],[-120.63974,45.69819],[-120.63989,45.6981],[-120.63929,45.69787],[-120.63877,45.69793],[-120.6386,45.69783],[-120.63875,45.69768],[-120.63965,45.69747],[-120.63956,45.69698],[-120.63899,45.69609],[-120.63934,45.69607],[-120.64037,45.69681],[-120.64217,45.69739],[-120.64451,45.6971],[-120.64622,45.69657],[-120.64788,45.69536],[-120.6486,45.695],[-120.65097,45.6945],[-120.65143,45.69414],[-120.65198,45.69406],[-120.65332,45.69335],[-120.65412,45.69315],[-120.65466,45.69248],[-120.65547,45.69099],[-120.65502,45.6901],[-120.65433,45.68974],[-120.65472,45.68916],[-120.65529,45.68924],[-120.65544,45.68911],[-120.65544,45.68887],[-120.6552,45.68866],[-120.65495,45.68812],[-120.65624,45.68799],[-120.65696,45.68758],[-120.65703,45.68737],[-120.6567,45.68722],[-120.65725,45.68733],[-120.65844,45.68726],[-120.65997,45.68739],[-120.65998,45.68749],[-120.6584,45.68848],[-120.65763,45.68927],[-120.65779,45.68965],[-120.65835,45.69018],[-120.65824,45.69056],[-120.65828,45.69117],[-120.65765,45.69225],[-120.65768,45.69351],[-120.65756,45.6943],[-120.65765,45.69479],[-120.65752,45.69493],[-120.65725,45.69493],[-120.65621,45.6946],[-120.65652,45.69513],[-120.65696,45.69553],[-120.65699,45.69576],[-120.65678,45.69612],[-120.65706,45.69675],[-120.6566,45.69733],[-120.65584,45.69775],[-120.65483,45.69791],[-120.65464,45.69893]]]},"properties":{"fire_id":"ufid:2021-ORNMAN-000281","source_collection":"history-2021","source_objectid":15961,"incident_name":"0281 RN","mapped_acres":500.0,"mapped_acres_source":"poly_GISAcres","gis_acres":500.0,"auto_acres":142.58418976226682,"reported_acres":500.0,"percent_contained":null,"state":"OR","state_wfigs":"US-OR","county":"Sherman","discovery_time_utc":"2021-06-05T19:37:00Z","perimeter_time_utc":"2021-06-06T00:37:24Z","perimeter_edit_time_utc":"2023-04-10T18:27:56Z","incident_modified_time_utc":"2021-07-08T22:00:52Z","containment_time_utc":null,"control_time_utc":null,"fire_out_time_utc":null,"fire_cause":"Undetermined","fire_cause_general":"Undetermined","map_method":"Auto-generated","source_dataset":"FFP","unique_fire_identifier":"2021-ORNMAN-000281","irwin_id":"{77F487AA-58AA-4D47-ABCB-D49056A31A61}","global_id":"41fa6345-65f7-45cd-8b0e-4e896dac8db1"}}]}
