{"type":"FeatureCollection","features":[{"type":"Feature","geometry":{"type":"Polygon","coordinates":[[[-79.59693,33.33662],[-79.59814,33.33731],[-79.59813,33.3377],[-79.598,33.33784],[-79.59858,33.3385],[-79.59864,33.33886],[-79.59825,33.33898],[-79.59753,33.33884],[-79.59655,33.33903],[-79.5964,33.33922],[-79.59643,33.33985],[-79.59661,33.34018],[-79.59652,33.34038],[-79.59636,33.34054],[-79.59579,33.34066],[-79.59478,33.34053],[-79.59483,33.34137],[-79.59452,33.34144],[-79.59434,33.3419],[-79.59415,33.34195],[-79.59379,33.34188],[-79.59363,33.34165],[-79.59118,33.34094],[-79.5908,33.34071],[-79.59053,33.34069],[-79.59047,33.34081],[-79.58973,33.34073],[-79.5896,33.34033],[-79.58973,33.33923],[-79.58901,33.33839],[-79.58833,33.33828],[-79.58805,33.33811],[-79.58766,33.33732],[-79.58764,33.33678],[-79.5879,33.33639],[-79.58901,33.33565],[-79.58962,33.33472],[-79.59033,33.33462],[-79.59046,33.33447],[-79.59013,33.33403],[-79.5898,33.33383],[-79.58994,33.33324],[-79.5902,33.33307],[-79.5906,33.33305],[-79.59129,33.33342],[-79.5915,33.33393],[-79.59206,33.33365],[-79.59252,33.33372],[-79.59278,33.3348],[-79.59263,33.33555],[-79.59335,33.33565],[-79.59426,33.33598],[-79.5957,33.3367],[-79.59616,33.33672],[-79.59646,33.33657],[-79.59693,33.33662]]]},"properties":{"fire_id":"ufid:2021-SCPRI-21FF0384","source_collection":"history-2021","source_objectid":434,"incident_name":"Canaan Bay Fire","mapped_acres":250.0,"mapped_acres_source":"poly_GISAcres","gis_acres":250.0,"auto_acres":127.76637463063,"reported_acres":246.0,"percent_contained":100.0,"state":"SC","state_wfigs":"US-SC","county":"Georgetown","discovery_time_utc":"2021-04-29T16:15:00Z","perimeter_time_utc":"2021-05-12T15:56:15Z","perimeter_edit_time_utc":"2021-05-12T16:00:08Z","incident_modified_time_utc":"2021-05-03T15:55:19Z","containment_time_utc":null,"control_time_utc":null,"fire_out_time_utc":null,"fire_cause":"Human","fire_cause_general":null,"map_method":"Image Interpretation","source_dataset":"2021 NIFS","unique_fire_identifier":"2021-SCPRI-21FF0384","irwin_id":"{22783682-EC92-4A10-9A53-B26476D5F503}","global_id":"61e53b87-6a3a-465a-ad07-6c147c8b1c43"}},{"type":"Feature","geometry":{"type":"Polygon","coordinates":[[[-79.32896,33.49722],[-79.32924,33.49654],[-79.32973,33.49625],[-79.33038,33.49625],[-79.33055,33.49543],[-79.33049,33.4949],[-79.33107,33.49449],[-79.33134,33.49392],[-79.33137,33.49341],[-79.33202,33.49315],[-79.33212,33.49281],[-79.33278,33.49193],[-79.3326,33.49008],[-79.33268,33.48923],[-79.33282,33.48906],[-79.33396,33.48902],[-79.33517,33.48954],[-79.33546,33.48954],[-79.33638,33.48916],[-79.33609,33.489],[-79.33665,33.4888],[-79.33684,33.48851],[-79.33702,33.48764],[-79.33745,33.4875],[-79.33755,33.48733],[-79.33838,33.4871],[-79.33855,33.48688],[-79.33903,33.48684],[-79.33993,33.48636],[-79.34089,33.48619],[-79.34164,33.487],[-79.34178,33.48739],[-79.34175,33.48794],[-79.34132,33.48811],[-79.34127,33.4885],[-79.341,33.48874],[-79.34114,33.48995],[-79.34145,33.49033],[-79.34323,33.49074],[-79.34006,33.49364],[-79.33932,33.49363],[-79.33857,33.49401],[-79.3383,33.49442],[-79.33738,33.49444],[-79.33686,33.49364],[-79.33524,33.49349],[-79.33523,33.49375],[-79.33463,33.49377],[-79.33467,33.49416],[-79.33521,33.49416],[-79.33542,33.49452],[-79.33554,33.49501],[-79.33546,33.49544],[-79.33568,33.49624],[-79.33562,33.49767],[-79.33616,33.49895],[-79.33623,33.49987],[-79.33483,33.50018],[-79.33381,33.49991],[-79.33246,33.49992],[-79.33207,33.4997],[-79.33149,33.49962],[-79.33067,33.49981],[-79.33053,33.49942],[-79.33014,33.4992],[-79.32924,33.49951],[-79.329,33.49927],[-79.32891,33.49859],[-79.32899,33.49815],[-79.32882,33.49777],[-79.32952,33.49755],[-79.32967,33.49726],[-79.32896,33.49722]]]},"properties":{"fire_id":"ufid:2021-SCPRI-21FF0342","source_collection":"history-2021","source_objectid":598,"incident_name":"IP Canal Road","mapped_acres":225.481456623185,"mapped_acres_source":"poly_Acres_AutoCalc_fallback","gis_acres":null,"auto_acres":225.481456623185,"reported_acres":300.0,"percent_contained":100.0,"state":"SC","state_wfigs":"US-SC","county":"Georgetown","discovery_time_utc":"2021-04-06T13:00:00Z","perimeter_time_utc":"2021-07-09T17:19:01Z","perimeter_edit_time_utc":"2021-07-09T17:25:48Z","incident_modified_time_utc":"2021-05-03T18:14:35Z","containment_time_utc":null,"control_time_utc":null,"fire_out_time_utc":null,"fire_cause":"Human","fire_cause_general":null,"map_method":"Image Interpretation","source_dataset":"2021 NIFS","unique_fire_identifier":"2021-SCPRI-21FF0342","irwin_id":"{E919956B-E413-4A2F-BEDE-69A5966B3F41}","global_id":"f9ce84d8-2a65-4500-8cb9-fc886b86ed1c"}},{"type":"Feature","geometry":{"type":"Polygon","coordinates":[[[-79.87357,33.36495],[-79.87216,33.36462],[-79.87172,33.36422],[-79.87335,33.36186],[-79.87357,33.36135],[-79.87353,33.36094],[-79.87374,33.36085],[-79.87406,33.36099],[-79.87406,33.36121],[-79.8746,33.36175],[-79.87718,33.3632],[-79.87664,33.36347],[-79.87687,33.36373],[-79.87653,33.36413],[-79.87573,33.3645],[-79.87518,33.36442],[-79.87487,33.36466],[-79.87478,33.3643],[-79.87514,33.36332],[-79.8746,33.36458],[-79.87479,33.36465],[-79.87469,33.36483],[-79.87357,33.36495]]]},"properties":{"fire_id":"ufid:2021-SCFMF-000205","source_collection":"history-2021","source_objectid":4082,"incident_name":"Greentown","mapped_acres":29.61579215285133,"mapped_acres_source":"poly_Acres_AutoCalc_fallback","gis_acres":null,"auto_acres":29.61579215285133,"reported_acres":29.62,"percent_contained":null,"state":"SC","state_wfigs":"US-SC","county":"Berkeley","discovery_time_utc":"2021-04-04T22:14:00Z","perimeter_time_utc":null,"perimeter_edit_time_utc":"2023-03-14T15:13:42Z","incident_modified_time_utc":"2022-02-14T18:20:03Z","containment_time_utc":"2021-04-05T19:00:00Z","control_time_utc":"2021-04-09T20:13:00Z","fire_out_time_utc":"2021-06-09T14:45:00Z","fire_cause":"Undetermined","fire_cause_general":"Undetermined","map_method":"GPS-Unknown Travel Method","source_dataset":"FFP","unique_fire_identifier":"2021-SCFMF-000205","irwin_id":"{2776F5B3-E325-42C6-BD01-C64BD8E7ACED}","global_id":"408f53e2-1c3b-4b18-9a9a-e8f8ff25c980"}},{"type":"Feature","geometry":{"type":"Polygon","coordinates":[[[-79.72285,33.03394],[-79.72191,33.0325],[-79.72176,33.03128],[-79.72163,33.03105],[-79.72235,33.02997],[-79.72652,33.01998],[-79.72769,33.01987],[-79.72883,33.02],[-79.73121,33.02087],[-79.73156,33.02127],[-79.73278,33.02416],[-79.73357,33.02508],[-79.73546,33.0278],[-79.73572,33.02865],[-79.73214,33.02893],[-79.73199,33.02791],[-79.73241,33.02798],[-79.73239,33.02826],[-79.73268,33.02838],[-79.73291,33.02817],[-79.7329,33.02799],[-79.73233,33.02767],[-79.73268,33.02673],[-79.73271,33.02607],[-79.73256,33.02582],[-79.73227,33.02568],[-79.73228,33.02529],[-79.73203,33.02495],[-79.73163,33.02493],[-79.73097,33.02518],[-79.73029,33.0259],[-79.72995,33.02554],[-79.72886,33.0258],[-79.72937,33.02794],[-79.72924,33.02811],[-79.72881,33.02781],[-79.72838,33.02806],[-79.72803,33.02855],[-79.72806,33.02869],[-79.72779,33.02885],[-79.72789,33.0291],[-79.7273,33.02949],[-79.7271,33.02937],[-79.72702,33.02856],[-79.72681,33.02866],[-79.72666,33.03015],[-79.72687,33.03029],[-79.7281,33.03038],[-79.72829,33.03006],[-79.7292,33.02961],[-79.72973,33.02958],[-79.73031,33.0298],[-79.73063,33.02979],[-79.73087,33.02972],[-79.731,33.02904],[-79.73145,33.02918],[-79.73159,33.02944],[-79.73154,33.02959],[-79.73085,33.03016],[-79.73078,33.03093],[-79.73084,33.03125],[-79.73113,33.03155],[-79.73146,33.03232],[-79.73199,33.03239],[-79.7317,33.03287],[-79.73173,33.03308],[-79.73189,33.03318],[-79.73111,33.03357],[-79.7306,33.03338],[-79.73001,33.03346],[-79.7281,33.03198],[-79.72779,33.03085],[-79.72717,33.03069],[-79.72652,33.03108],[-79.72615,33.03158],[-79.72573,33.03184],[-79.72559,33.03173],[-79.72567,33.03151],[-79.72543,33.03141],[-79.72504,33.03157],[-79.72468,33.03195],[-79.72467,33.03212],[-79.72445,33.03214],[-79.7243,33.03189],[-79.7242,33.03193],[-79.72388,33.03294],[-79.72331,33.03302],[-79.72285,33.03394]]]},"properties":{"fire_id":"ufid:2021-SCFMF-000141","source_collection":"history-2021","source_objectid":4951,"incident_name":"Hampton","mapped_acres":50.0,"mapped_acres_source":"poly_GISAcres","gis_acres":50.0,"auto_acres":232.2462596337091,"reported_acres":232.0,"percent_contained":null,"state":"SC","state_wfigs":"US-SC","county":"Charleston","discovery_time_utc":"2021-03-13T18:54:00Z","perimeter_time_utc":"2021-03-14T00:54:00Z","perimeter_edit_time_utc":"2023-03-14T15:13:42Z","incident_modified_time_utc":"2022-02-14T18:53:19Z","containment_time_utc":"2021-03-14T12:30:00Z","control_time_utc":"2021-04-01T13:55:00Z","fire_out_time_utc":"2021-04-01T14:00:00Z","fire_cause":"Human","fire_cause_general":"Undetermined","map_method":"Hand Sketch","source_dataset":"FFP","unique_fire_identifier":"2021-SCFMF-000141","irwin_id":"{E93CED3B-9E01-479B-B1F7-DE9873CD211D}","global_id":"6972fd87-7e17-4b43-bf24-0bac04b24d3d"}},{"type":"Feature","geometry":{"type":"Polygon","coordinates":[[[-79.81688,33.31469],[-79.81644,33.31495],[-79.81644,33.31527],[-79.8162,33.31553],[-79.81549,33.31582],[-79.81491,33.31581],[-79.81428,33.3155],[-79.81409,33.31499],[-79.81351,33.31425],[-79.81379,33.31379],[-79.81449,33.31354],[-79.81462,33.31363],[-79.81468,33.31406],[-79.81514,33.31416],[-79.81559,33.31381],[-79.81541,33.31358],[-79.81561,33.3133],[-79.81608,33.3132],[-79.81668,33.31351],[-79.81688,33.31469]]]},"properties":{"fire_id":"ufid:2021-SCFMF-000239","source_collection":"history-2021","source_objectid":5310,"incident_name":"Wedboo     FM","mapped_acres":14.51601303314648,"mapped_acres_source":"poly_Acres_AutoCalc_fallback","gis_acres":null,"auto_acres":14.51601303314648,"reported_acres":14.5,"percent_contained":null,"state":"SC","state_wfigs":"US-SC","county":"Berkeley","discovery_time_utc":"2021-04-17T11:23:00Z","perimeter_time_utc":null,"perimeter_edit_time_utc":"2023-03-14T15:13:42Z","incident_modified_time_utc":"2022-02-14T16:38:18Z","containment_time_utc":"2021-04-18T14:07:00Z","control_time_utc":"2021-04-29T17:09:00Z","fire_out_time_utc":"2021-04-29T17:10:00Z","fire_cause":"Human","fire_cause_general":"Other causes","map_method":"GPS-Unknown Travel Method","source_dataset":"FFP","unique_fire_identifier":"2021-SCFMF-000239","irwin_id":"{B59F14E3-243A-4AF9-9D90-A083F16A7B2F}","global_id":"71b37035-c803-4405-8e09-2cb33a637e57"}},{"type":"Feature","geometry":{"type":"Polygon","coordinates":[[[-79.82778,32.97508],[-79.82724,32.97499],[-79.82679,32.97474],[-79.82648,32.97436],[-79.82637,32.97391],[-79.82646,32.97346],[-79.82675,32.97307],[-79.82719,32.97281],[-79.82772,32.9727],[-79.82826,32.97277],[-79.8288,32.97307],[-79.8291,32.97346],[-79.82919,32.97391],[-79.82907,32.97436],[-79.82877,32.97474],[-79.82831,32.97499],[-79.82778,32.97508]]]},"properties":{"fire_id":"ufid:2021-SCFMF-000227","source_collection":"history-2021","source_objectid":5792,"incident_name":"Pepper","mapped_acres":13.512716229668007,"mapped_acres_source":"poly_Acres_AutoCalc_fallback","gis_acres":null,"auto_acres":13.512716229668007,"reported_acres":13.5,"percent_contained":null,"state":"SC","state_wfigs":"US-SC","county":"Berkeley","discovery_time_utc":"2021-04-11T00:20:00Z","perimeter_time_utc":null,"perimeter_edit_time_utc":"2023-03-14T15:13:42Z","incident_modified_time_utc":"2022-02-14T17:15:42Z","containment_time_utc":"2021-04-11T20:41:00Z","control_time_utc":"2021-04-19T14:17:00Z","fire_out_time_utc":"2021-04-29T13:56:00Z","fire_cause":"Human","fire_cause_general":"Other causes","map_method":"Hand Sketch","source_dataset":"FFP","unique_fire_identifier":"2021-SCFMF-000227","irwin_id":"{27B919E4-3E14-43B7-AB95-0B22095C13E5}","global_id":"c31f3005-42ca-4439-ab17-69889d7d4308"}},{"type":"Feature","geometry":{"type":"Polygon","coordinates":[[[-79.89105,33.15059],[-79.89045,33.15051],[-79.88894,33.14992],[-79.88802,33.14926],[-79.88696,33.14951],[-79.88662,33.14917],[-79.88625,33.14838],[-79.88591,33.14818],[-79.88622,33.14731],[-79.88672,33.1468],[-79.88717,33.14596],[-79.88724,33.14517],[-79.88672,33.14484],[-79.88665,33.14459],[-79.88716,33.14437],[-79.88735,33.14374],[-79.88801,33.14337],[-79.88824,33.14285],[-79.88828,33.14238],[-79.88911,33.14138],[-79.88965,33.14041],[-79.89026,33.1398],[-79.89101,33.13931],[-79.8921,33.14182],[-79.89368,33.14404],[-79.8956,33.14554],[-79.89643,33.14642],[-79.89724,33.14691],[-79.89756,33.14736],[-79.89745,33.14771],[-79.89663,33.14786],[-79.89583,33.14818],[-79.89485,33.14824],[-79.8939,33.14874],[-79.89339,33.14886],[-79.89252,33.14941],[-79.89195,33.15037],[-79.89105,33.15059]]]},"properties":{"fire_id":"ufid:2021-SCFMF-000153","source_collection":"history-2021","source_objectid":8661,"incident_name":"Twin","mapped_acres":167.12311260276476,"mapped_acres_source":"poly_Acres_AutoCalc_fallback","gis_acres":null,"auto_acres":167.12311260276476,"reported_acres":167.12,"percent_contained":null,"state":"SC","state_wfigs":"US-SC","county":"Berkeley","discovery_time_utc":"2021-03-16T00:07:00Z","perimeter_time_utc":null,"perimeter_edit_time_utc":"2023-03-14T15:13:42Z","incident_modified_time_utc":"2022-02-14T18:51:50Z","containment_time_utc":"2021-04-12T19:00:00Z","control_time_utc":"2021-05-04T21:00:00Z","fire_out_time_utc":"2021-06-09T14:45:00Z","fire_cause":"Undetermined","fire_cause_general":"Undetermined","map_method":"Hand Sketch","source_dataset":"FFP","unique_fire_identifier":"2021-SCFMF-000153","irwin_id":"{F6EA6626-D7D6-4975-88FD-77FFDDD10884}","global_id":"b2b9dcf1-ef68-4778-86f7-d573371439df"}},{"type":"Feature","geometry":{"type":"Polygon","coordinates":[[[-79.76023,33.21153],[-79.75972,33.21146],[-79.7592,33.21119],[-79.75885,33.21077],[-79.75872,33.21027],[-79.75885,33.20977],[-79.75913,33.20941],[-79.75963,33.20911],[-79.76023,33.20901],[-79.76083,33.20911],[-79.76126,33.20935],[-79.76161,33.20977],[-79.76174,33.21027],[-79.76165,33.21069],[-79.76133,33.21113],[-79.76083,33.21143],[-79.76023,33.21153]]]},"properties":{"fire_id":"ufid:2021-SCFMF-000249","source_collection":"history-2021","source_objectid":9853,"incident_name":"Boggy","mapped_acres":15.284267223903722,"mapped_acres_source":"poly_Acres_AutoCalc_fallback","gis_acres":null,"auto_acres":15.284267223903722,"reported_acres":22.0,"percent_contained":null,"state":"SC","state_wfigs":"US-SC","county":"Berkeley","discovery_time_utc":"2021-04-22T14:53:00Z","perimeter_time_utc":null,"perimeter_edit_time_utc":"2023-03-14T15:13:42Z","incident_modified_time_utc":"2022-02-14T16:35:15Z","containment_time_utc":"2021-04-22T21:45:00Z","control_time_utc":"2021-05-19T18:28:00Z","fire_out_time_utc":"2021-05-19T18:29:00Z","fire_cause":"Undetermined","fire_cause_general":"Undetermined","map_method":"Other","source_dataset":"FFP","unique_fire_identifier":"2021-SCFMF-000249","irwin_id":"{71701C93-DCD4-4910-AA16-CE9665D6D519}","global_id":"d0415134-14aa-40f0-95ff-178b091dd289"}},{"type":"Feature","geometry":{"type":"Polygon","coordinates":[[[-79.85673,33.35028],[-79.8554,33.35013],[-79.8553,33.35007],[-79.85545,33.34996],[-79.8554,33.34986],[-79.85461,33.3497],[-79.85448,33.34948],[-79.85456,33.34927],[-79.85442,33.34927],[-79.85425,33.34905],[-79.85443,33.34852],[-79.85437,33.3481],[-79.85415,33.34784],[-79.85336,33.3477],[-79.85232,33.34775],[-79.85215,33.34735],[-79.85265,33.34678],[-79.85338,33.34659],[-79.85372,33.34636],[-79.8537,33.34617],[-79.85399,33.34598],[-79.85404,33.3457],[-79.85436,33.3456],[-79.85423,33.34543],[-79.85437,33.34539],[-79.85433,33.34526],[-79.85472,33.34517],[-79.85484,33.34476],[-79.85509,33.34466],[-79.85511,33.34441],[-79.85492,33.34419],[-79.85497,33.34375],[-79.85527,33.34365],[-79.85552,33.34324],[-79.85528,33.34295],[-79.85538,33.34273],[-79.85535,33.34203],[-79.85573,33.34226],[-79.85553,33.34238],[-79.85583,33.34255],[-79.85568,33.34262],[-79.85577,33.34284],[-79.85619,33.34305],[-79.85629,33.34276],[-79.8561,33.34278],[-79.85597,33.34264],[-79.85611,33.34251],[-79.856,33.34231],[-79.85626,33.34228],[-79.85647,33.34258],[-79.85663,33.34253],[-79.85683,33.34271],[-79.85701,33.3427],[-79.85676,33.34232],[-79.8568,33.34196],[-79.85773,33.34227],[-79.85754,33.34247],[-79.8576,33.3427],[-79.85742,33.34283],[-79.85838,33.34367],[-79.85833,33.34392],[-79.8581,33.34412],[-79.85773,33.34407],[-79.85756,33.34389],[-79.85737,33.34396],[-79.85738,33.34442],[-79.85722,33.34465],[-79.85818,33.34528],[-79.85786,33.34551],[-79.85811,33.34597],[-79.85774,33.34645],[-79.8583,33.34644],[-79.85915,33.347],[-79.85952,33.34742],[-79.85955,33.34764],[-79.85932,33.34778],[-79.85931,33.34793],[-79.85958,33.34837],[-79.85911,33.34877],[-79.85866,33.34892],[-79.85844,33.34961],[-79.85791,33.34972],[-79.85769,33.34953],[-79.85735,33.34954],[-79.85673,33.35028]]]},"properties":{"fire_id":"ufid:2021-SCFMF-000322","source_collection":"history-2021","source_objectid":13847,"incident_name":"Late      FM","mapped_acres":2.0,"mapped_acres_source":"poly_GISAcres","gis_acres":2.0,"auto_acres":78.3138931069232,"reported_acres":78.5,"percent_contained":null,"state":"SC","state_wfigs":"US-SC","county":"Berkeley","discovery_time_utc":"2021-11-29T21:42:00Z","perimeter_time_utc":"2021-12-02T05:00:00Z","perimeter_edit_time_utc":"2023-03-14T15:13:42Z","incident_modified_time_utc":"2022-02-14T14:38:06Z","containment_time_utc":"2021-12-02T23:00:00Z","control_time_utc":"2021-12-13T21:30:00Z","fire_out_time_utc":"2021-12-28T21:30:00Z","fire_cause":"Undetermined","fire_cause_general":"Undetermined","map_method":"GPS-Unknown Travel Method","source_dataset":"FFP","unique_fire_identifier":"2021-SCFMF-000322","irwin_id":"{C5389D35-F0C6-4968-97E2-B578285D0F10}","global_id":"64278b41-7b45-4c76-853e-448e2ac720c4"}}]}
