{"type":"FeatureCollection","features":[{"type":"Feature","geometry":{"type":"Polygon","coordinates":[[[-99.56777,44.17858],[-99.56807,44.17823],[-99.56818,44.17766],[-99.56738,44.17778],[-99.56676,44.17764],[-99.56714,44.17734],[-99.56846,44.17728],[-99.5687,44.17743],[-99.56869,44.17825],[-99.56823,44.17883],[-99.56777,44.17858]]]},"properties":{"fire_id":"ufid:2021-SDLBA-000001","source_collection":"history-2021","source_objectid":2238,"incident_name":"DINNER","mapped_acres":1.0,"mapped_acres_source":"poly_GISAcres","gis_acres":1.0,"auto_acres":2.8584272259829,"reported_acres":2.8,"percent_contained":null,"state":"SD","state_wfigs":"US-SD","county":"Lyman","discovery_time_utc":"2021-04-21T23:30:00Z","perimeter_time_utc":"2021-04-22T03:30:00Z","perimeter_edit_time_utc":"2021-06-18T22:54:24Z","incident_modified_time_utc":"2021-06-18T22:54:25Z","containment_time_utc":"2021-04-22T00:00:00Z","control_time_utc":null,"fire_out_time_utc":"2021-04-22T01:00:00Z","fire_cause":"Human","fire_cause_general":"Incendiary","map_method":"Hand Sketch","source_dataset":"2021 NIFS","unique_fire_identifier":"2021-SDLBA-000001","irwin_id":"{1C2D111E-B04F-4EBB-9E62-9C6837FB2608}","global_id":"faedda83-4787-4f99-8a05-4d6fc1703952"}},{"type":"Feature","geometry":{"type":"Polygon","coordinates":[[[-99.45054,44.03332],[-99.45016,44.03237],[-99.45032,44.03236],[-99.45059,44.03279],[-99.45073,44.03273],[-99.45073,44.03327],[-99.45054,44.03332]]]},"properties":{"fire_id":"ufid:2021-SDLBA-SD-LBA06","source_collection":"history-2021","source_objectid":4651,"incident_name":"Good","mapped_acres":0.6,"mapped_acres_source":"poly_GISAcres","gis_acres":0.6,"auto_acres":0.5285646545803382,"reported_acres":0.6,"percent_contained":null,"state":"SD","state_wfigs":"US-SD","county":"Lyman","discovery_time_utc":"2021-06-28T03:00:12Z","perimeter_time_utc":"2022-08-11T14:08:00Z","perimeter_edit_time_utc":"2023-03-14T15:13:42Z","incident_modified_time_utc":"2021-06-30T16:08:01Z","containment_time_utc":"2021-06-28T03:35:00Z","control_time_utc":"2021-06-28T03:45:00Z","fire_out_time_utc":"2021-06-30T16:00:00Z","fire_cause":"Human","fire_cause_general":"Other causes","map_method":"Hand Sketch","source_dataset":"FFP","unique_fire_identifier":"2021-SDLBA-SD-LBA06","irwin_id":"{79683AEE-C06D-4950-B6E7-E692FAAE074B}","global_id":"5b5a4093-5a85-41c1-b2c9-c8e6c3385b3b"}},{"type":"Feature","geometry":{"type":"Polygon","coordinates":[[[-98.53424,43.08376],[-98.53087,43.0726],[-98.5347,43.0721],[-98.53577,43.07057],[-98.5396,43.07292],[-98.53843,43.07564],[-98.5377,43.0781],[-98.53918,43.08057],[-98.53803,43.08066],[-98.53703,43.08119],[-98.5366,43.08245],[-98.53541,43.08295],[-98.53424,43.08376]]]},"properties":{"fire_id":"ufid:2021-SDSDS-210515","source_collection":"history-2021","source_objectid":6115,"incident_name":"Saint Francis","mapped_acres":1.0,"mapped_acres_source":"poly_GISAcres","gis_acres":1.0,"auto_acres":147.20528791075543,"reported_acres":152.0,"percent_contained":null,"state":"SD","state_wfigs":"US-SD","county":"Charles Mix","discovery_time_utc":"2021-07-03T19:00:00Z","perimeter_time_utc":"2021-07-04T00:00:00Z","perimeter_edit_time_utc":"2023-03-14T15:13:42Z","incident_modified_time_utc":"2021-07-21T16:13:52Z","containment_time_utc":null,"control_time_utc":null,"fire_out_time_utc":"2021-07-07T23:00:00Z","fire_cause":"Human","fire_cause_general":"Debris and open burning","map_method":"Hand Sketch","source_dataset":"FFP","unique_fire_identifier":"2021-SDSDS-210515","irwin_id":"{CBE4302F-E39E-4563-8130-3D6819B03B3E}","global_id":"c16aa1ee-dd25-45b0-9615-a6154720a1d5"}},{"type":"Feature","geometry":{"type":"MultiPolygon","coordinates":[[[[-99.72814,43.88036],[-99.72723,43.88008],[-99.7282,43.88027],[-99.72814,43.88036]]],[[[-99.72602,43.87992],[-99.72571,43.87995],[-99.7256,43.88009],[-99.7257,43.88115],[-99.72541,43.88079],[-99.72545,43.88041],[-99.72457,43.87997],[-99.72449,43.87971],[-99.72602,43.87992]]],[[[-99.74098,43.88275],[-99.74045,43.88274],[-99.74078,43.88272],[-99.74098,43.88275]]],[[[-99.7431,43.88299],[-99.74316,43.88313],[-99.74198,43.8829],[-99.74212,43.88277],[-99.7431,43.88299]]],[[[-99.74542,43.88488],[-99.7442,43.88348],[-99.74412,43.88313],[-99.74826,43.88384],[-99.74853,43.88425],[-99.74776,43.88429],[-99.74705,43.88454],[-99.74688,43.88473],[-99.74627,43.88465],[-99.74626,43.88498],[-99.74582,43.8849],[-99.74529,43.88429],[-99.74546,43.88456],[-99.74542,43.88488]]],[[[-99.73689,43.88669],[-99.73699,43.88619],[-99.73751,43.88535],[-99.73753,43.88489],[-99.73742,43.88474],[-99.73756,43.8838],[-99.73716,43.88396],[-99.73703,43.88374],[-99.73678,43.88366],[-99.73704,43.88356],[-99.73714,43.88271],[-99.73732,43.88233],[-99.73768,43.88199],[-99.73875,43.88216],[-99.73904,43.88232],[-99.739,43.8828],[-99.73871,43.88271],[-99.73872,43.88287],[-99.73884,43.8829],[-99.73852,43.88323],[-99.73857,43.88366],[-99.739,43.88391],[-99.73937,43.88434],[-99.73948,43.88452],[-99.73942,43.88486],[-99.74004,43.88557],[-99.74021,43.886],[-99.74007,43.88631],[-99.73994,43.88608],[-99.73947,43.88606],[-99.73861,43.88547],[-99.73843,43.8856],[-99.73838,43.8859],[-99.73806,43.88609],[-99.73812,43.88545],[-99.73828,43.88524],[-99.73823,43.885],[-99.73765,43.88573],[-99.73735,43.88654],[-99.7377,43.8868],[-99.73765,43.88709],[-99.73731,43.88668],[-99.73698,43.88693],[-99.73689,43.88669]]],[[[-99.7314,43.89082],[-99.7307,43.89082],[-99.73089,43.89073],[-99.73005,43.88855],[-99.72998,43.88768],[-99.73009,43.88729],[-99.72966,43.88676],[-99.72983,43.88655],[-99.73047,43.8866],[-99.73057,43.88648],[-99.73061,43.88599],[-99.7304,43.88548],[-99.73036,43.88436],[-99.73053,43.88333],[-99.73058,43.88097],[-99.73085,43.88094],[-99.73098,43.88079],[-99.7355,43.88159],[-99.73544,43.88183],[-99.73497,43.88164],[-99.73443,43.88161],[-99.73483,43.88192],[-99.73531,43.88274],[-99.73552,43.88282],[-99.73554,43.88398],[-99.73542,43.88379],[-99.73507,43.88385],[-99.73502,43.88425],[-99.73504,43.88444],[-99.73554,43.88481],[-99.73561,43.88902],[-99.73553,43.88876],[-99.73513,43.8888],[-99.73489,43.88906],[-99.73498,43.8896],[-99.7354,43.89013],[-99.73561,43.89017],[-99.73549,43.89071],[-99.73536,43.89085],[-99.73196,43.89083],[-99.73191,43.89063],[-99.7314,43.89082]]],[[[-99.76507,43.88739],[-99.76563,43.88757],[-99.76505,43.88747],[-99.76507,43.88739]]],[[[-99.75427,43.89042],[-99.75365,43.89053],[-99.75339,43.89044],[-99.75327,43.88988],[-99.75326,43.88934],[-99.75359,43.88808],[-99.75366,43.88712],[-99.75413,43.88613],[-99.75442,43.8859],[-99.7547,43.88502],[-99.75625,43.88532],[-99.75637,43.88544],[-99.75588,43.88545],[-99.75576,43.88689],[-99.75616,43.88707],[-99.75586,43.88722],[-99.75596,43.88974],[-99.7564,43.89003],[-99.75641,43.89043],[-99.75614,43.89061],[-99.75635,43.8908],[-99.7548,43.89086],[-99.7546,43.89077],[-99.75495,43.89057],[-99.75469,43.89012],[-99.75435,43.89018],[-99.75427,43.89042]]]]},"properties":{"fire_id":"ufid:2021-SDSDS-210763","source_collection":"history-2021","source_objectid":7549,"incident_name":"Old Hwy 16 CA","mapped_acres":160.85656020743497,"mapped_acres_source":"poly_Acres_AutoCalc_fallback","gis_acres":null,"auto_acres":160.85656020743497,"reported_acres":160.9,"percent_contained":null,"state":"SD","state_wfigs":"US-SD","county":"Lyman","discovery_time_utc":"2021-08-14T19:18:00Z","perimeter_time_utc":null,"perimeter_edit_time_utc":"2023-03-14T15:13:42Z","incident_modified_time_utc":"2021-12-03T18:45:26Z","containment_time_utc":"2021-08-14T22:07:00Z","control_time_utc":"2021-08-15T17:22:00Z","fire_out_time_utc":"2021-10-10T18:00:00Z","fire_cause":"Human","fire_cause_general":"Railroad operations and maintenance","map_method":"Mixed Methods","source_dataset":"FFP","unique_fire_identifier":"2021-SDSDS-210763","irwin_id":"{523A2B29-AC7F-4B31-93D4-AD7C90759E23}","global_id":"3165565e-c7e3-44db-8b6c-12629cd63b40"}},{"type":"Feature","geometry":{"type":"Polygon","coordinates":[[[-98.40716,43.00707],[-98.40742,43.00707],[-98.40741,43.0072],[-98.40716,43.0072],[-98.40716,43.00707]]]},"properties":{"fire_id":"ufid:2021-SDYAA-000004","source_collection":"history-2021","source_objectid":14986,"incident_name":"East Marty","mapped_acres":0.08,"mapped_acres_source":"poly_GISAcres","gis_acres":0.08,"auto_acres":null,"reported_acres":1.0,"percent_contained":null,"state":"SD","state_wfigs":"US-SD","county":"Charles Mix","discovery_time_utc":"2021-08-23T01:01:57Z","perimeter_time_utc":null,"perimeter_edit_time_utc":null,"incident_modified_time_utc":"2022-12-29T21:58:37Z","containment_time_utc":null,"control_time_utc":null,"fire_out_time_utc":null,"fire_cause":null,"fire_cause_general":null,"map_method":"Hand Sketch","source_dataset":"Inspector","unique_fire_identifier":"2021-SDYAA-000004","irwin_id":"{EC30CE1E-9E80-457D-9F9C-D8FF5B581799}","global_id":"0a1e1bed-8403-4a9c-a6bd-946bebf478a5"}}]}
