{"type":"FeatureCollection","features":[{"type":"Feature","geometry":{"type":"Polygon","coordinates":[[[-100.48161,45.8878],[-100.47996,45.88754],[-100.47927,45.88824],[-100.47859,45.88826],[-100.4782,45.88846],[-100.47756,45.88815],[-100.47695,45.88828],[-100.47659,45.88759],[-100.47654,45.8871],[-100.47678,45.88672],[-100.47677,45.88642],[-100.47705,45.8856],[-100.47826,45.8845],[-100.47903,45.8832],[-100.47998,45.8826],[-100.48047,45.88261],[-100.48102,45.88289],[-100.4818,45.88355],[-100.48135,45.88584],[-100.48177,45.88658],[-100.48173,45.88747],[-100.48161,45.8878]]]},"properties":{"fire_id":"ufid:2021-NDSRA-000088","source_collection":"history-2021","source_objectid":4445,"incident_name":"1806 & Hunkpapa Creek","mapped_acres":42.0,"mapped_acres_source":"poly_GISAcres","gis_acres":42.0,"auto_acres":44.40868151584345,"reported_acres":44.4,"percent_contained":null,"state":"SD","state_wfigs":"US-SD","county":"Corson","discovery_time_utc":"2021-07-26T18:58:39Z","perimeter_time_utc":"2021-07-26T23:58:39Z","perimeter_edit_time_utc":"2023-03-14T15:13:42Z","incident_modified_time_utc":"2021-08-30T19:50:12Z","containment_time_utc":null,"control_time_utc":null,"fire_out_time_utc":"2021-08-03T23:30:00Z","fire_cause":"Human","fire_cause_general":"Power generation / transmission / distribution","map_method":"Hand Sketch","source_dataset":"FFP","unique_fire_identifier":"2021-NDSRA-000088","irwin_id":"{E73E26E6-471D-42BF-85C9-A222A408E7BA}","global_id":"f9d19bb5-bfee-4a2e-8785-c7538d58924c"}},{"type":"Feature","geometry":{"type":"Polygon","coordinates":[[[-100.92997,45.77523],[-100.93008,45.77588],[-100.93,45.77678],[-100.92959,45.77723],[-100.92949,45.77767],[-100.92909,45.778],[-100.92868,45.77934],[-100.92816,45.77974],[-100.92742,45.78097],[-100.92727,45.78295],[-100.92669,45.78304],[-100.92634,45.78238],[-100.92597,45.78232],[-100.92468,45.78145],[-100.92449,45.781],[-100.92418,45.78087],[-100.92335,45.7798],[-100.92254,45.77902],[-100.92028,45.77545],[-100.91913,45.77523],[-100.92491,45.77516],[-100.92535,45.77506],[-100.92535,45.77493],[-100.92565,45.77482],[-100.92621,45.77506],[-100.92741,45.77498],[-100.92746,45.77349],[-100.92697,45.77313],[-100.92679,45.77275],[-100.92721,45.7726],[-100.92731,45.77241],[-100.9272,45.7716],[-100.92729,45.77123],[-100.9277,45.77022],[-100.92792,45.7702],[-100.92822,45.77039],[-100.92837,45.77158],[-100.92878,45.77278],[-100.92896,45.77495],[-100.92997,45.77523]]]},"properties":{"fire_id":"ufid:2021-NDSRA-000018","source_collection":"history-2021","source_objectid":4918,"incident_name":"112th St. West #2","mapped_acres":110.8,"mapped_acres_source":"poly_GISAcres","gis_acres":110.8,"auto_acres":110.89315818815082,"reported_acres":110.8,"percent_contained":null,"state":"SD","state_wfigs":"US-SD","county":"Corson","discovery_time_utc":"2021-04-02T18:51:00Z","perimeter_time_utc":"2021-04-02T23:51:00Z","perimeter_edit_time_utc":"2023-03-14T15:13:42Z","incident_modified_time_utc":"2021-08-29T19:41:59Z","containment_time_utc":null,"control_time_utc":null,"fire_out_time_utc":"2021-04-10T23:30:00Z","fire_cause":"Human","fire_cause_general":"Equipment and vehicle use","map_method":"Hand Sketch","source_dataset":"FFP","unique_fire_identifier":"2021-NDSRA-000018","irwin_id":"{548261C7-CC2C-43FE-955B-7EA8E2806010}","global_id":"19ec8920-b726-405d-9a2a-c03cc50494be"}},{"type":"Feature","geometry":{"type":"Polygon","coordinates":[[[-103.13757,45.35187],[-103.13696,45.35225],[-103.13652,45.35228],[-103.13642,45.35216],[-103.13657,45.35195],[-103.13649,45.35178],[-103.13623,45.35176],[-103.13599,45.35152],[-103.13634,45.35145],[-103.13613,45.35134],[-103.13612,45.35121],[-103.13629,45.35113],[-103.13825,45.35084],[-103.13876,45.35108],[-103.13776,45.35157],[-103.13757,45.35187]]]},"properties":{"fire_id":"ufid:2021-MTMCD-000104","source_collection":"history-2021","source_objectid":5101,"incident_name":"Adams","mapped_acres":4.1695632387114125,"mapped_acres_source":"poly_Acres_AutoCalc_fallback","gis_acres":null,"auto_acres":4.1695632387114125,"reported_acres":4.2,"percent_contained":null,"state":"SD","state_wfigs":"US-SD","county":"Harding","discovery_time_utc":"2021-06-11T17:07:00Z","perimeter_time_utc":null,"perimeter_edit_time_utc":"2023-03-14T15:13:42Z","incident_modified_time_utc":"2021-07-08T19:14:05Z","containment_time_utc":"2021-06-12T18:00:00Z","control_time_utc":"2021-06-13T16:13:00Z","fire_out_time_utc":"2021-06-24T14:00:00Z","fire_cause":"Natural","fire_cause_general":"Lightning","map_method":"GPS-Walked/Driven","source_dataset":"Decertified","unique_fire_identifier":"2021-MTMCD-000104","irwin_id":"{F788B469-13D7-4607-BF5D-44219ADE1B1A}","global_id":"76ba9008-97c8-495c-8bf8-d19a2112f8c2"}},{"type":"Feature","geometry":{"type":"Polygon","coordinates":[[[-102.16227,45.72989],[-102.16161,45.72954],[-102.1613,45.72966],[-102.16097,45.72947],[-102.161,45.72919],[-102.16064,45.72889],[-102.16077,45.72843],[-102.16112,45.7283],[-102.16177,45.72875],[-102.1621,45.72882],[-102.16245,45.72956],[-102.16227,45.72989]]]},"properties":{"fire_id":"ufid:2021-NDDPF-210277","source_collection":"history-2021","source_objectid":5635,"incident_name":"Cactus","mapped_acres":3.4,"mapped_acres_source":"poly_GISAcres","gis_acres":3.4,"auto_acres":3.4448481001573703,"reported_acres":3.4,"percent_contained":null,"state":"SD","state_wfigs":"US-SD","county":"Perkins","discovery_time_utc":"2021-09-14T19:00:00Z","perimeter_time_utc":"2021-09-15T00:46:04Z","perimeter_edit_time_utc":"2023-03-14T15:13:42Z","incident_modified_time_utc":"2021-09-20T21:04:10Z","containment_time_utc":"2021-09-14T19:45:00Z","control_time_utc":"2021-09-14T20:30:00Z","fire_out_time_utc":"2021-09-14T21:00:00Z","fire_cause":"Human","fire_cause_general":"Other causes","map_method":"Hand Sketch","source_dataset":"FFP","unique_fire_identifier":"2021-NDDPF-210277","irwin_id":"{7C508A97-073D-4B08-8C62-37A6DD1BF29E}","global_id":"ebafa3df-0319-49df-b44b-34113a520ec2"}},{"type":"Feature","geometry":{"type":"Polygon","coordinates":[[[-103.94214,45.39952],[-103.94254,45.39971],[-103.94253,45.39992],[-103.94235,45.40011],[-103.94204,45.40008],[-103.94202,45.40019],[-103.94181,45.40022],[-103.94153,45.40004],[-103.9417,45.39967],[-103.94214,45.39952]]]},"properties":{"fire_id":"ufid:2021-MTMCD-000091","source_collection":"history-2021","source_objectid":6607,"incident_name":"Short","mapped_acres":1.006090921264505,"mapped_acres_source":"poly_Acres_AutoCalc_fallback","gis_acres":null,"auto_acres":1.006090921264505,"reported_acres":1.0,"percent_contained":null,"state":"SD","state_wfigs":"US-SD","county":"Harding","discovery_time_utc":"2021-06-05T19:07:00Z","perimeter_time_utc":null,"perimeter_edit_time_utc":"2023-03-14T15:13:42Z","incident_modified_time_utc":"2021-08-02T19:36:15Z","containment_time_utc":"2021-06-06T16:30:00Z","control_time_utc":"2021-06-06T22:10:00Z","fire_out_time_utc":"2021-07-29T14:00:00Z","fire_cause":"Natural","fire_cause_general":"Natural","map_method":"GPS-Walked/Driven","source_dataset":"FFP","unique_fire_identifier":"2021-MTMCD-000091","irwin_id":"{373F17C3-DA23-4FD9-A20D-57B2992F2EFE}","global_id":"ada02eef-5724-4cf8-9bf8-b13b75c2abce"}},{"type":"Feature","geometry":{"type":"Polygon","coordinates":[[[-100.45662,45.64159],[-100.45734,45.64091],[-100.45816,45.64115],[-100.46035,45.64213],[-100.46213,45.64345],[-100.46419,45.64447],[-100.46499,45.64474],[-100.46708,45.64484],[-100.4688,45.64606],[-100.47013,45.64611],[-100.47129,45.64641],[-100.47274,45.64789],[-100.47329,45.64873],[-100.47414,45.64943],[-100.4763,45.65173],[-100.4769,45.65257],[-100.47712,45.65343],[-100.47348,45.6534],[-100.47267,45.65299],[-100.4721,45.65222],[-100.47082,45.65206],[-100.46998,45.65169],[-100.46935,45.65088],[-100.46914,45.65003],[-100.46851,45.64955],[-100.46586,45.64914],[-100.46379,45.64837],[-100.46256,45.64734],[-100.46245,45.64609],[-100.46157,45.64548],[-100.46034,45.64541],[-100.45936,45.645],[-100.45812,45.64485],[-100.45714,45.64442],[-100.4566,45.64355],[-100.45724,45.64323],[-100.45731,45.643],[-100.45647,45.64233],[-100.45662,45.64159]]]},"properties":{"fire_id":"ufid:2021-NDSRA-000048","source_collection":"history-2021","source_objectid":6982,"incident_name":"TH Equipment Fire","mapped_acres":163.3,"mapped_acres_source":"poly_GISAcres","gis_acres":163.3,"auto_acres":166.36359539941805,"reported_acres":166.4,"percent_contained":null,"state":"SD","state_wfigs":"US-SD","county":"Corson","discovery_time_utc":"2021-06-21T20:04:07Z","perimeter_time_utc":"2021-06-22T01:04:07Z","perimeter_edit_time_utc":"2023-03-14T15:13:42Z","incident_modified_time_utc":"2021-08-29T19:01:29Z","containment_time_utc":null,"control_time_utc":null,"fire_out_time_utc":"2021-07-10T23:30:00Z","fire_cause":"Human","fire_cause_general":"Equipment and vehicle use","map_method":"Hand Sketch","source_dataset":"FFP","unique_fire_identifier":"2021-NDSRA-000048","irwin_id":"{C9A46799-C188-4647-81BB-D498F7BF8E0A}","global_id":"5a1ce79c-f7d2-404d-baae-f0616cdbb422"}},{"type":"Feature","geometry":{"type":"Polygon","coordinates":[[[-103.8129,45.11397],[-103.81127,45.11197],[-103.81127,45.11166],[-103.81143,45.11162],[-103.8113,45.11132],[-103.81188,45.11087],[-103.81312,45.11126],[-103.81339,45.11156],[-103.81354,45.11207],[-103.81306,45.11258],[-103.81316,45.11268],[-103.81299,45.11303],[-103.81313,45.11309],[-103.81312,45.11344],[-103.81323,45.11355],[-103.81317,45.11405],[-103.8129,45.11397]]]},"properties":{"fire_id":"ufid:2021-SDSDD-000132","source_collection":"history-2021","source_objectid":7999,"incident_name":"Battle Creek","mapped_acres":8.2,"mapped_acres_source":"poly_GISAcres","gis_acres":8.2,"auto_acres":8.935249828720067,"reported_acres":8.9,"percent_contained":null,"state":"SD","state_wfigs":"US-SD","county":"Butte","discovery_time_utc":"2021-06-15T09:30:00Z","perimeter_time_utc":"2021-06-15T19:30:00Z","perimeter_edit_time_utc":"2023-03-14T15:13:42Z","incident_modified_time_utc":"2021-07-01T16:22:08Z","containment_time_utc":"2021-06-15T12:00:00Z","control_time_utc":"2021-06-15T12:30:00Z","fire_out_time_utc":"2021-06-28T14:00:00Z","fire_cause":"Natural","fire_cause_general":"Natural","map_method":"GPS-Walked","source_dataset":"FFP","unique_fire_identifier":"2021-SDSDD-000132","irwin_id":"{15FF8539-D8C2-452D-BACD-87DDCDF3B041}","global_id":"1ab8731d-de5d-4cfe-ac28-60871727028c"}},{"type":"Feature","geometry":{"type":"Polygon","coordinates":[[[-102.56082,45.58997],[-102.56012,45.58998],[-102.55995,45.59015],[-102.56,45.5905],[-102.56068,45.59091],[-102.56065,45.59115],[-102.5603,45.59128],[-102.55992,45.59108],[-102.5592,45.59124],[-102.55913,45.59101],[-102.55867,45.59072],[-102.55903,45.5904],[-102.55899,45.59018],[-102.55856,45.58986],[-102.55822,45.58928],[-102.55779,45.58911],[-102.55744,45.58874],[-102.5572,45.58844],[-102.55714,45.58809],[-102.55653,45.58773],[-102.55642,45.58735],[-102.55592,45.58722],[-102.55606,45.58709],[-102.556,45.58641],[-102.55567,45.58636],[-102.55543,45.58652],[-102.55547,45.58636],[-102.55603,45.58589],[-102.55541,45.58526],[-102.55487,45.58418],[-102.55573,45.58359],[-102.5558,45.58329],[-102.55549,45.58299],[-102.55478,45.58316],[-102.55453,45.58309],[-102.55471,45.58279],[-102.55464,45.58247],[-102.55595,45.58169],[-102.5561,45.58124],[-102.55581,45.5804],[-102.55625,45.58016],[-102.55648,45.57976],[-102.55719,45.57977],[-102.55769,45.57992],[-102.55833,45.58066],[-102.55866,45.58087],[-102.55876,45.58124],[-102.55942,45.5819],[-102.55916,45.58239],[-102.55974,45.58323],[-102.56,45.58335],[-102.56058,45.58425],[-102.56065,45.58475],[-102.56052,45.58485],[-102.56059,45.58501],[-102.56047,45.5853],[-102.56089,45.58541],[-102.56133,45.58597],[-102.56202,45.58583],[-102.56224,45.58608],[-102.56226,45.58648],[-102.5618,45.58696],[-102.56191,45.58716],[-102.56236,45.58731],[-102.56316,45.58706],[-102.56359,45.5864],[-102.564,45.58623],[-102.56467,45.58655],[-102.56414,45.58762],[-102.56389,45.5877],[-102.56361,45.58808],[-102.56266,45.58856],[-102.56228,45.58822],[-102.56188,45.58826],[-102.56212,45.58837],[-102.56207,45.58868],[-102.56221,45.58908],[-102.56151,45.58958],[-102.56085,45.58959],[-102.56068,45.58982],[-102.56082,45.58997]]]},"properties":{"fire_id":"ufid:2021-NDDPF-210178","source_collection":"history-2021","source_objectid":9270,"incident_name":"Square Top","mapped_acres":80.0,"mapped_acres_source":"poly_GISAcres","gis_acres":80.0,"auto_acres":106.8007160748305,"reported_acres":107.0,"percent_contained":null,"state":"SD","state_wfigs":"US-SD","county":"Perkins","discovery_time_utc":"2021-07-04T14:09:00Z","perimeter_time_utc":"2021-07-05T19:09:25Z","perimeter_edit_time_utc":"2023-03-14T15:13:42Z","incident_modified_time_utc":"2021-07-20T16:53:09Z","containment_time_utc":"2021-07-05T14:30:00Z","control_time_utc":"2021-07-05T16:30:00Z","fire_out_time_utc":"2021-07-08T17:00:00Z","fire_cause":"Natural","fire_cause_general":"Natural","map_method":"Hand Sketch","source_dataset":"FFP","unique_fire_identifier":"2021-NDDPF-210178","irwin_id":"{900E5BA7-8F18-4CE8-89CA-D768AA554459}","global_id":"082a8699-b668-4ea3-9eed-ec5ab35d632d"}},{"type":"Feature","geometry":{"type":"Polygon","coordinates":[[[-103.53482,45.74207],[-103.53457,45.74201],[-103.53406,45.74216],[-103.53282,45.74174],[-103.53259,45.74159],[-103.53246,45.74094],[-103.53222,45.74053],[-103.53284,45.74058],[-103.53385,45.7411],[-103.53476,45.74111],[-103.53507,45.74125],[-103.53541,45.74181],[-103.53482,45.74207]]]},"properties":{"fire_id":"ufid:2021-MTMCD-000504","source_collection":"history-2021","source_objectid":9689,"incident_name":"Spring","mapped_acres":5.950328254900047,"mapped_acres_source":"poly_Acres_AutoCalc_fallback","gis_acres":null,"auto_acres":5.950328254900047,"reported_acres":6.0,"percent_contained":null,"state":"SD","state_wfigs":"US-SD","county":"Harding","discovery_time_utc":"2021-08-24T18:06:00Z","perimeter_time_utc":null,"perimeter_edit_time_utc":"2023-03-14T15:13:42Z","incident_modified_time_utc":"2022-02-01T18:19:46Z","containment_time_utc":"2021-08-25T13:30:00Z","control_time_utc":"2021-08-25T19:35:00Z","fire_out_time_utc":"2021-09-03T14:00:00Z","fire_cause":"Natural","fire_cause_general":"Natural","map_method":"GPS-Walked/Driven","source_dataset":"FFP","unique_fire_identifier":"2021-MTMCD-000504","irwin_id":"{F7A942C8-5026-4B22-AD56-658F8C8B908A}","global_id":"4830372b-4a4c-415e-872a-8f9ee4b02e54"}},{"type":"Feature","geometry":{"type":"Polygon","coordinates":[[[-101.14655,45.71277],[-101.14726,45.71307],[-101.14845,45.714],[-101.14903,45.71478],[-101.14911,45.7151],[-101.14945,45.71529],[-101.15034,45.71701],[-101.1508,45.71897],[-101.14587,45.71897],[-101.14572,45.71888],[-101.14541,45.71567],[-101.14559,45.71379],[-101.14607,45.71305],[-101.14655,45.71277]]]},"properties":{"fire_id":"ufid:2021-NDSRA-000105","source_collection":"history-2021","source_objectid":10298,"incident_name":"RBO Field Fire","mapped_acres":5.0,"mapped_acres_source":"poly_GISAcres","gis_acres":5.0,"auto_acres":51.31950662675396,"reported_acres":51.0,"percent_contained":null,"state":"SD","state_wfigs":"US-SD","county":"Corson","discovery_time_utc":"2021-08-17T18:50:45Z","perimeter_time_utc":"2021-08-17T23:50:45Z","perimeter_edit_time_utc":"2023-03-14T15:13:42Z","incident_modified_time_utc":"2021-08-30T20:02:54Z","containment_time_utc":null,"control_time_utc":null,"fire_out_time_utc":"2021-08-24T23:30:00Z","fire_cause":"Human","fire_cause_general":"Equipment and vehicle use","map_method":"Hand Sketch","source_dataset":"FFP","unique_fire_identifier":"2021-NDSRA-000105","irwin_id":"{1B51D245-BC17-4111-A009-820A7D49D88F}","global_id":"51a17e12-23da-44ee-977e-7cd5dbdda94a"}},{"type":"Feature","geometry":{"type":"Polygon","coordinates":[[[-100.5839,45.5766],[-100.58256,45.57607],[-100.58235,45.57585],[-100.58125,45.57404],[-100.58136,45.57395],[-100.58201,45.57398],[-100.58182,45.57392],[-100.58181,45.57371],[-100.58185,45.57331],[-100.58208,45.57316],[-100.58203,45.5729],[-100.58273,45.5725],[-100.58463,45.57343],[-100.58455,45.57384],[-100.58402,45.57388],[-100.58401,45.57397],[-100.58502,45.57429],[-100.58488,45.57621],[-100.58468,45.5769],[-100.58444,45.57717],[-100.58372,45.57721],[-100.58334,45.57703],[-100.58339,45.57693],[-100.58382,45.57696],[-100.5839,45.5766]]]},"properties":{"fire_id":"ufid:2021-NDSRA-000069","source_collection":"history-2021","source_objectid":10687,"incident_name":"Snake Creek","mapped_acres":23.0,"mapped_acres_source":"poly_GISAcres","gis_acres":23.0,"auto_acres":23.022983213556632,"reported_acres":23.0,"percent_contained":null,"state":"SD","state_wfigs":"US-SD","county":"Corson","discovery_time_utc":"2021-07-04T22:08:24Z","perimeter_time_utc":"2021-07-05T03:08:24Z","perimeter_edit_time_utc":"2023-03-14T15:13:42Z","incident_modified_time_utc":"2021-08-29T18:42:37Z","containment_time_utc":null,"control_time_utc":null,"fire_out_time_utc":"2021-07-14T23:30:00Z","fire_cause":"Human","fire_cause_general":"Fireworks","map_method":"Hand Sketch","source_dataset":"FFP","unique_fire_identifier":"2021-NDSRA-000069","irwin_id":"{E0BD82C8-18B9-47D7-ACE5-B02D50BC2259}","global_id":"853ed032-9b8f-4bd4-92b9-9e217db42988"}},{"type":"Feature","geometry":{"type":"Polygon","coordinates":[[[-103.5055,45.7217],[-103.5048,45.72096],[-103.50393,45.72048],[-103.50372,45.71995],[-103.5044,45.72009],[-103.50617,45.72099],[-103.50636,45.72142],[-103.5055,45.7217]]]},"properties":{"fire_id":"ufid:2021-MTMCD-000089","source_collection":"history-2021","source_objectid":11199,"incident_name":"Brown-Johnson","mapped_acres":3.660836662711411,"mapped_acres_source":"poly_Acres_AutoCalc_fallback","gis_acres":null,"auto_acres":3.660836662711411,"reported_acres":3.7,"percent_contained":null,"state":"SD","state_wfigs":"US-SD","county":"Harding","discovery_time_utc":"2021-06-04T21:04:00Z","perimeter_time_utc":null,"perimeter_edit_time_utc":"2023-03-14T15:13:42Z","incident_modified_time_utc":"2021-07-08T19:13:40Z","containment_time_utc":"2021-06-05T00:20:00Z","control_time_utc":"2021-06-05T01:40:00Z","fire_out_time_utc":"2021-06-22T14:00:00Z","fire_cause":"Natural","fire_cause_general":"Natural","map_method":"GPS-Walked","source_dataset":"FFP","unique_fire_identifier":"2021-MTMCD-000089","irwin_id":"{A992E899-20C6-4577-8E78-51DF81AC29BF}","global_id":"7a609bf5-8725-4923-9f4c-9fb1fa779e77"}},{"type":"Feature","geometry":{"type":"Polygon","coordinates":[[[-100.62805,45.73224],[-100.62797,45.73244],[-100.62773,45.73256],[-100.62789,45.73272],[-100.62782,45.73307],[-100.62699,45.73423],[-100.62619,45.73442],[-100.62562,45.73422],[-100.6249,45.73362],[-100.62458,45.73353],[-100.6242,45.73268],[-100.62395,45.73248],[-100.62359,45.73178],[-100.62357,45.73162],[-100.62396,45.73166],[-100.6238,45.73114],[-100.62347,45.73075],[-100.62338,45.73028],[-100.62346,45.72987],[-100.62372,45.72969],[-100.62388,45.72983],[-100.62392,45.73045],[-100.62405,45.73076],[-100.6243,45.73095],[-100.62464,45.73065],[-100.62471,45.7298],[-100.62516,45.72964],[-100.62522,45.72942],[-100.6254,45.72947],[-100.62562,45.7293],[-100.62648,45.73005],[-100.62671,45.72998],[-100.62658,45.72968],[-100.62664,45.72939],[-100.62692,45.72948],[-100.6272,45.73002],[-100.62721,45.7306],[-100.62712,45.73112],[-100.62689,45.73133],[-100.6276,45.73242],[-100.62792,45.7322],[-100.62805,45.73224]]]},"properties":{"fire_id":"ufid:2021-NDSRA-000067","source_collection":"history-2021","source_objectid":11287,"incident_name":"Rattlesnake Lightning","mapped_acres":10.0,"mapped_acres_source":"poly_GISAcres","gis_acres":10.0,"auto_acres":30.98073942873599,"reported_acres":30.9,"percent_contained":null,"state":"SD","state_wfigs":"US-SD","county":"Corson","discovery_time_utc":"2021-07-03T23:09:47Z","perimeter_time_utc":"2021-07-04T04:09:47Z","perimeter_edit_time_utc":"2023-03-14T15:13:42Z","incident_modified_time_utc":"2021-08-30T20:12:20Z","containment_time_utc":null,"control_time_utc":null,"fire_out_time_utc":"2021-07-18T23:30:00Z","fire_cause":"Natural","fire_cause_general":"Natural","map_method":"Hand Sketch","source_dataset":"FFP","unique_fire_identifier":"2021-NDSRA-000067","irwin_id":"{FCAB396D-4755-47B4-9F69-1558736F8D86}","global_id":"622868e6-c85b-43ac-a3f3-a355739fd8ea"}},{"type":"Feature","geometry":{"type":"Polygon","coordinates":[[[-103.90103,45.72733],[-103.90085,45.7274],[-103.89977,45.72713],[-103.89943,45.72693],[-103.89955,45.72677],[-103.89908,45.72671],[-103.89938,45.72666],[-103.8993,45.72659],[-103.90046,45.72647],[-103.90166,45.72603],[-103.90191,45.72583],[-103.90228,45.7264],[-103.90214,45.72674],[-103.90246,45.72695],[-103.90245,45.72727],[-103.90256,45.72735],[-103.90239,45.72767],[-103.90214,45.72777],[-103.90143,45.72766],[-103.90138,45.72746],[-103.90103,45.72733]]]},"properties":{"fire_id":"ufid:2021-MTMCD-000490","source_collection":"history-2021","source_objectid":12252,"incident_name":"Wagon","mapped_acres":6.924091315084682,"mapped_acres_source":"poly_Acres_AutoCalc_fallback","gis_acres":null,"auto_acres":6.924091315084682,"reported_acres":7.0,"percent_contained":null,"state":"SD","state_wfigs":"US-SD","county":"Harding","discovery_time_utc":"2021-08-19T00:03:00Z","perimeter_time_utc":null,"perimeter_edit_time_utc":"2023-03-14T15:13:42Z","incident_modified_time_utc":"2021-10-04T19:39:48Z","containment_time_utc":"2021-08-19T03:30:00Z","control_time_utc":"2021-08-19T03:30:00Z","fire_out_time_utc":"2021-09-02T14:00:00Z","fire_cause":"Natural","fire_cause_general":"Natural","map_method":"GPS-Walked/Driven","source_dataset":"FFP","unique_fire_identifier":"2021-MTMCD-000490","irwin_id":"{7687293B-5D09-49A7-A618-FC73E48DD29C}","global_id":"15af1186-a760-4748-ae0d-75606c9059e4"}},{"type":"Feature","geometry":{"type":"Polygon","coordinates":[[[-100.81532,45.68608],[-100.81618,45.68594],[-100.81632,45.68604],[-100.81636,45.68643],[-100.81593,45.68655],[-100.81564,45.68648],[-100.81532,45.68608]]]},"properties":{"fire_id":"ufid:2021-NDSRA-000003","source_collection":"history-2021","source_objectid":12296,"incident_name":"RA-001-21","mapped_acres":2.64,"mapped_acres_source":"poly_GISAcres","gis_acres":2.64,"auto_acres":0.9945728104832811,"reported_acres":2.64,"percent_contained":null,"state":"SD","state_wfigs":"US-SD","county":"Corson","discovery_time_utc":"2021-03-03T17:35:00Z","perimeter_time_utc":"2021-03-04T23:35:05Z","perimeter_edit_time_utc":"2023-03-14T15:13:42Z","incident_modified_time_utc":"2021-06-26T20:06:33Z","containment_time_utc":null,"control_time_utc":null,"fire_out_time_utc":"2021-03-04T00:21:00Z","fire_cause":"Human","fire_cause_general":"Other causes","map_method":"Auto-generated","source_dataset":"FFP","unique_fire_identifier":"2021-NDSRA-000003","irwin_id":"{027494D9-A2E4-4ABB-824C-A54AB0B3DB85}","global_id":"c228a5e0-71e8-44ff-b781-2023d830cbbc"}},{"type":"Feature","geometry":{"type":"Polygon","coordinates":[[[-100.9107,45.52663],[-100.91059,45.52702],[-100.90967,45.52815],[-100.90932,45.52839],[-100.90731,45.52876],[-100.90576,45.52829],[-100.90557,45.52816],[-100.90555,45.52591],[-100.90582,45.52521],[-100.90552,45.52366],[-100.90564,45.5235],[-100.90594,45.52349],[-100.90911,45.52355],[-100.90925,45.52365],[-100.90915,45.52411],[-100.90948,45.52462],[-100.9097,45.5255],[-100.91051,45.52594],[-100.9107,45.52663]]]},"properties":{"fire_id":"ufid:2021-NDSRA-000077","source_collection":"history-2021","source_objectid":13031,"incident_name":"HWY 20 MM 171","mapped_acres":31.0,"mapped_acres_source":"poly_GISAcres","gis_acres":31.0,"auto_acres":46.50065818219385,"reported_acres":46.4,"percent_contained":null,"state":"SD","state_wfigs":"US-SD","county":"Corson","discovery_time_utc":"2021-07-12T21:27:36Z","perimeter_time_utc":"2021-07-13T02:27:36Z","perimeter_edit_time_utc":"2023-03-14T15:13:42Z","incident_modified_time_utc":"2021-11-22T15:05:54Z","containment_time_utc":null,"control_time_utc":null,"fire_out_time_utc":"2021-07-19T23:30:00Z","fire_cause":"Human","fire_cause_general":"Equipment and vehicle use","map_method":"Hand Sketch","source_dataset":"FFP","unique_fire_identifier":"2021-NDSRA-000077","irwin_id":"{D8EC93E5-7E3D-48CD-BFDD-612F1ACAA4E3}","global_id":"a22a6aa6-df10-4852-a9fc-db08017e3bc1"}},{"type":"Feature","geometry":{"type":"Polygon","coordinates":[[[-103.49183,45.52714],[-103.49167,45.52559],[-103.49217,45.52508],[-103.49223,45.52425],[-103.49266,45.52376],[-103.49274,45.52332],[-103.49094,45.52245],[-103.49052,45.52142],[-103.48959,45.51994],[-103.48798,45.51902],[-103.48705,45.51808],[-103.4816,45.51437],[-103.48161,45.51424],[-103.48189,45.51431],[-103.48345,45.51502],[-103.4857,45.51671],[-103.4859,45.5167],[-103.48599,45.51656],[-103.48574,45.51584],[-103.48433,45.51324],[-103.48291,45.5116],[-103.48158,45.5096],[-103.4802,45.50667],[-103.4783,45.50488],[-103.47762,45.50395],[-103.47612,45.5031],[-103.47422,45.5015],[-103.47415,45.50123],[-103.47436,45.50056],[-103.47414,45.49974],[-103.47415,45.49867],[-103.47255,45.49678],[-103.47233,45.49621],[-103.47244,45.49588],[-103.47345,45.49519],[-103.47408,45.49456],[-103.47526,45.49386],[-103.47722,45.49354],[-103.47926,45.49241],[-103.48013,45.49267],[-103.48053,45.49246],[-103.48061,45.49194],[-103.47984,45.49158],[-103.47911,45.49022],[-103.47823,45.48935],[-103.47783,45.48782],[-103.47838,45.48699],[-103.47888,45.48669],[-103.47967,45.48651],[-103.4814,45.48641],[-103.48225,45.48667],[-103.48302,45.48629],[-103.48546,45.48552],[-103.48669,45.48458],[-103.48698,45.4841],[-103.48693,45.48346],[-103.48638,45.48282],[-103.48653,45.48238],[-103.48834,45.48133],[-103.48894,45.48121],[-103.48933,45.48127],[-103.48976,45.48164],[-103.49029,45.48286],[-103.49026,45.48449],[-103.48961,45.48674],[-103.48972,45.48846],[-103.49045,45.48941],[-103.49065,45.48996],[-103.49059,45.49059],[-103.49003,45.49211],[-103.49046,45.49548],[-103.49147,45.49702],[-103.49318,45.49863],[-103.4941,45.49933],[-103.49677,45.50206],[-103.49755,45.50352],[-103.49783,45.50451],[-103.49784,45.50641],[-103.49738,45.50742],[-103.49732,45.50786],[-103.49749,45.50902],[-103.49745,45.51046],[-103.49801,45.51332],[-103.49792,45.51464],[-103.49767,45.51577],[-103.49793,45.5174],[-103.49763,45.51852],[-103.49762,45.5193],[-103.49705,45.52025],[-103.49729,45.52102],[-103.49686,45.5221],[-103.49733,45.52288],[-103.4971,45.52307],[-103.49612,45.52301],[-103.49584,45.52314],[-103.49568,45.5235],[-103.49572,45.5239],[-103.49556,45.52461],[-103.49563,45.52509],[-103.49596,45.52561],[-103.49644,45.5259],[-103.49749,45.52591],[-103.49822,45.52606],[-103.49882,45.52592],[-103.49911,45.52563],[-103.49915,45.52511],[-103.4987,45.52459],[-103.49758,45.52401],[-103.49759,45.52373],[-103.49785,45.52337],[-103.49831,45.52318],[-103.49911,45.52329],[-103.50045,45.52314],[-103.50104,45.52249],[-103.50142,45.5223],[-103.50165,45.52235],[-103.50215,45.52294],[-103.50344,45.52269],[-103.50371,45.52217],[-103.50343,45.52161],[-103.50403,45.52157],[-103.50424,45.52138],[-103.50438,45.52105],[-103.50432,45.52037],[-103.50457,45.52035],[-103.5048,45.52053],[-103.50571,45.52213],[-103.50614,45.52344],[-103.50675,45.52427],[-103.50743,45.52467],[-103.50768,45.52508],[-103.50774,45.52691],[-103.50753,45.52793],[-103.50768,45.52923],[-103.508,45.53011],[-103.50808,45.53439],[-103.5088,45.53534],[-103.50954,45.53594],[-103.51037,45.53783],[-103.51095,45.53868],[-103.51169,45.54029],[-103.5123,45.54129],[-103.51266,45.54328],[-103.51365,45.5446],[-103.51515,45.54757],[-103.51538,45.54863],[-103.51532,45.54953],[-103.51498,45.55065],[-103.5149,45.55188],[-103.51464,45.55205],[-103.51405,45.55196],[-103.51278,45.55099],[-103.51037,45.55005],[-103.50794,45.54781],[-103.50754,45.54685],[-103.5071,45.5464],[-103.50441,45.54486],[-103.50342,45.54415],[-103.50196,45.54352],[-103.50145,45.54315],[-103.50078,45.54237],[-103.50034,45.54135],[-103.49999,45.54096],[-103.50006,45.54013],[-103.49973,45.53938],[-103.49826,45.53824],[-103.49727,45.53726],[-103.49609,45.53556],[-103.49597,45.53475],[-103.49557,45.534],[-103.49545,45.5331],[-103.49455,45.53207],[-103.49408,45.53081],[-103.49327,45.53001],[-103.4927,45.52924],[-103.49183,45.52714]]]},"properties":{"fire_id":"ufid:2021-SDHRX-000064","source_collection":"history-2021","source_objectid":14091,"incident_name":"Highway 20","mapped_acres":1990.0,"mapped_acres_source":"poly_GISAcres","gis_acres":1990.0,"auto_acres":1890.81925231266,"reported_acres":1890.8,"percent_contained":null,"state":"SD","state_wfigs":"US-SD","county":"Harding","discovery_time_utc":"2021-04-17T19:04:00Z","perimeter_time_utc":"2021-04-21T00:04:00Z","perimeter_edit_time_utc":"2021-05-04T22:56:54Z","incident_modified_time_utc":"2021-07-03T20:17:07Z","containment_time_utc":"2021-04-18T05:00:00Z","control_time_utc":"2021-04-18T05:00:00Z","fire_out_time_utc":"2021-04-18T05:00:00Z","fire_cause":"Human","fire_cause_general":"Equipment","map_method":"Image Interpretation","source_dataset":"2021 NIFS","unique_fire_identifier":"2021-SDHRX-000064","irwin_id":"{CC32AE0C-9145-4578-8F37-789FE45481BF}","global_id":"8669e24d-3575-4426-851b-6ad85bcd3b43"}},{"type":"Feature","geometry":{"type":"MultiPolygon","coordinates":[[[[-102.93773,45.45005],[-102.93775,45.45053],[-102.93741,45.45061],[-102.93688,45.45039],[-102.93699,45.45005],[-102.93692,45.44984],[-102.93773,45.45005]]],[[[-102.93586,45.45095],[-102.93773,45.45105],[-102.93433,45.4511],[-102.93426,45.45087],[-102.93458,45.45067],[-102.93502,45.45092],[-102.93545,45.45082],[-102.93586,45.45095]]],[[[-102.60352,45.51587],[-102.60332,45.51586],[-102.60332,45.51573],[-102.60354,45.51572],[-102.60352,45.51587]]],[[[-102.60191,45.51715],[-102.60203,45.51709],[-102.60221,45.51731],[-102.60251,45.51725],[-102.60294,45.51751],[-102.60392,45.51773],[-102.60425,45.51803],[-102.60331,45.51803],[-102.60203,45.51769],[-102.60189,45.51752],[-102.60191,45.51715]]],[[[-102.60447,45.51805],[-102.60448,45.51818],[-102.60427,45.51819],[-102.60425,45.51803],[-102.60447,45.51805]]],[[[-102.60919,45.51852],[-102.60899,45.51851],[-102.60899,45.51838],[-102.60921,45.51837],[-102.60919,45.51852]]],[[[-102.60966,45.51869],[-102.60946,45.51868],[-102.60946,45.51855],[-102.60968,45.51853],[-102.60966,45.51869]]],[[[-102.6125,45.51968],[-102.61229,45.51967],[-102.6123,45.51954],[-102.61252,45.51952],[-102.6125,45.51968]]],[[[-102.67964,45.55989],[-102.67879,45.55959],[-102.67763,45.55954],[-102.67688,45.55927],[-102.67679,45.55943],[-102.67693,45.55967],[-102.67672,45.55972],[-102.67634,45.55949],[-102.67645,45.55911],[-102.67546,45.55904],[-102.6748,45.55874],[-102.67367,45.55875],[-102.67238,45.55904],[-102.67208,45.55883],[-102.67202,45.55835],[-102.67189,45.55825],[-102.67007,45.55822],[-102.66957,45.55794],[-102.66829,45.55759],[-102.66746,45.55772],[-102.66688,45.55711],[-102.66403,45.55663],[-102.66374,45.55636],[-102.66428,45.55613],[-102.66357,45.55582],[-102.66267,45.5561],[-102.66153,45.5559],[-102.66138,45.55576],[-102.66149,45.55555],[-102.66236,45.55522],[-102.66009,45.55468],[-102.65882,45.55419],[-102.65373,45.55325],[-102.65206,45.55247],[-102.65136,45.55264],[-102.65086,45.55293],[-102.64999,45.55281],[-102.64965,45.55306],[-102.64896,45.55273],[-102.64891,45.55258],[-102.64921,45.55233],[-102.64977,45.5524],[-102.64976,45.55214],[-102.6495,45.55198],[-102.64803,45.55164],[-102.64779,45.55168],[-102.6476,45.55207],[-102.64732,45.55181],[-102.64567,45.55148],[-102.64521,45.55157],[-102.645,45.55132],[-102.6446,45.5513],[-102.64442,45.55143],[-102.64437,45.55221],[-102.6441,45.55241],[-102.64353,45.55239],[-102.64369,45.55205],[-102.64358,45.55183],[-102.64284,45.55224],[-102.64276,45.55185],[-102.64298,45.55103],[-102.64276,45.55058],[-102.64275,45.5493],[-102.64296,45.54881],[-102.64277,45.5485],[-102.64292,45.54806],[-102.64278,45.54778],[-102.64363,45.54744],[-102.64439,45.54686],[-102.6443,45.5467],[-102.64354,45.54661],[-102.64342,45.5459],[-102.64314,45.5457],[-102.643,45.54593],[-102.64316,45.54644],[-102.64282,45.54629],[-102.64264,45.5457],[-102.64247,45.54626],[-102.64227,45.5465],[-102.64046,45.54612],[-102.64054,45.54602],[-102.64147,45.54597],[-102.64147,45.54586],[-102.63997,45.54577],[-102.64017,45.54567],[-102.64166,45.54565],[-102.64175,45.54556],[-102.64161,45.54551],[-102.6353,45.54553],[-102.6353,45.54563],[-102.63606,45.54572],[-102.63635,45.54636],[-102.63596,45.54658],[-102.63585,45.54708],[-102.63548,45.54723],[-102.63514,45.54791],[-102.63487,45.54797],[-102.63474,45.54785],[-102.63473,45.54751],[-102.63513,45.54693],[-102.63499,45.54663],[-102.63519,45.54623],[-102.6348,45.54552],[-102.62932,45.54533],[-102.6287,45.54505],[-102.62847,45.5453],[-102.62815,45.54533],[-102.62685,45.54515],[-102.6265,45.54486],[-102.62537,45.545],[-102.62364,45.54469],[-102.62241,45.54467],[-102.62162,45.54421],[-102.61901,45.54348],[-102.6188,45.54324],[-102.61854,45.54347],[-102.61764,45.54337],[-102.61727,45.54367],[-102.61492,45.54368],[-102.61194,45.54289],[-102.61121,45.54282],[-102.61075,45.54255],[-102.61002,45.54249],[-102.61012,45.54237],[-102.61177,45.54228],[-102.61182,45.54081],[-102.6117,45.54057],[-102.61083,45.54037],[-102.6102,45.54045],[-102.61025,45.54067],[-102.61149,45.54106],[-102.6115,45.54116],[-102.61126,45.5412],[-102.61059,45.54104],[-102.60895,45.54102],[-102.60758,45.54072],[-102.60606,45.54069],[-102.60436,45.54017],[-102.60379,45.53968],[-102.60424,45.53955],[-102.60426,45.53969],[-102.60443,45.53971],[-102.60447,45.53956],[-102.60332,45.53927],[-102.60341,45.53909],[-102.60433,45.53923],[-102.60554,45.53968],[-102.60716,45.5399],[-102.60819,45.54019],[-102.60977,45.54019],[-102.6099,45.53998],[-102.60948,45.53937],[-102.60967,45.53921],[-102.6097,45.53937],[-102.60989,45.53937],[-102.60991,45.53924],[-102.60968,45.53922],[-102.60963,45.53905],[-102.609,45.53903],[-102.60898,45.53888],[-102.6085,45.53888],[-102.60811,45.53841],[-102.60668,45.53822],[-102.60186,45.53822],[-102.60168,45.53811],[-102.60163,45.53754],[-102.60151,45.53744],[-102.60124,45.53797],[-102.60141,45.53828],[-102.60139,45.53861],[-102.60121,45.53888],[-102.60141,45.53924],[-102.60141,45.5399],[-102.60121,45.54004],[-102.60056,45.54005],[-102.6003,45.53992],[-102.60087,45.53966],[-102.60092,45.53952],[-102.60055,45.53932],[-102.60065,45.53893],[-102.60005,45.53864],[-102.59991,45.53794],[-102.59965,45.53817],[-102.59906,45.53806],[-102.59525,45.53807],[-102.5947,45.53836],[-102.59374,45.53851],[-102.59323,45.53834],[-102.59303,45.53809],[-102.59251,45.53801],[-102.5921,45.53776],[-102.59042,45.53736],[-102.59042,45.53726],[-102.59113,45.53709],[-102.59213,45.53702],[-102.59135,45.53655],[-102.59146,45.53641],[-102.59204,45.53642],[-102.59326,45.53678],[-102.59339,45.53689],[-102.59317,45.53691],[-102.59322,45.53707],[-102.59337,45.53705],[-102.59339,45.5369],[-102.59446,45.53687],[-102.59441,45.5366],[-102.59477,45.53641],[-102.59517,45.53643],[-102.59568,45.53672],[-102.59614,45.5367],[-102.59592,45.53629],[-102.59541,45.5361],[-102.59398,45.53604],[-102.594,45.53579],[-102.59344,45.53554],[-102.59315,45.53524],[-102.59492,45.53561],[-102.5952,45.53588],[-102.59682,45.5361],[-102.59732,45.53639],[-102.59943,45.5364],[-102.59992,45.53628],[-102.60103,45.5367],[-102.60119,45.53651],[-102.60111,45.53579],[-102.60016,45.53572],[-102.59988,45.53545],[-102.59917,45.53538],[-102.59914,45.53529],[-102.59944,45.53513],[-102.59889,45.53503],[-102.598,45.53461],[-102.59702,45.53442],[-102.59613,45.53456],[-102.59567,45.53413],[-102.59492,45.53423],[-102.59489,45.53414],[-102.59522,45.53401],[-102.59521,45.53381],[-102.59399,45.53345],[-102.59218,45.53341],[-102.59137,45.53323],[-102.59109,45.53287],[-102.59122,45.5325],[-102.59044,45.5313],[-102.58846,45.53127],[-102.58732,45.53106],[-102.58744,45.53095],[-102.58864,45.53094],[-102.58949,45.53107],[-102.58994,45.53095],[-102.59177,45.53093],[-102.59192,45.53088],[-102.59187,45.53081],[-102.58647,45.53078],[-102.58579,45.53062],[-102.58353,45.53056],[-102.58344,45.52956],[-102.58317,45.52916],[-102.5826,45.52881],[-102.58145,45.52893],[-102.58113,45.52852],[-102.58111,45.52737],[-102.58131,45.52702],[-102.58137,45.52642],[-102.58223,45.52623],[-102.5816,45.52603],[-102.5818,45.5253],[-102.58139,45.52507],[-102.5813,45.52456],[-102.58106,45.52423],[-102.58,45.52411],[-102.57983,45.52369],[-102.57867,45.523],[-102.57762,45.52321],[-102.57677,45.52395],[-102.57645,45.52395],[-102.57644,45.52371],[-102.57703,45.52323],[-102.57601,45.52314],[-102.57549,45.52275],[-102.57608,45.52277],[-102.57657,45.52209],[-102.57667,45.52175],[-102.57726,45.52157],[-102.57654,45.52153],[-102.57626,45.52179],[-102.57598,45.52154],[-102.57503,45.52146],[-102.57498,45.52113],[-102.5754,45.52077],[-102.57533,45.52055],[-102.57446,45.52036],[-102.57369,45.52049],[-102.57322,45.52023],[-102.57293,45.5203],[-102.5726,45.52004],[-102.5715,45.52048],[-102.57079,45.52013],[-102.5706,45.51989],[-102.56943,45.51971],[-102.56886,45.51993],[-102.56883,45.52033],[-102.569,45.52063],[-102.56854,45.52115],[-102.56779,45.52147],[-102.56701,45.52138],[-102.56737,45.52163],[-102.56729,45.52197],[-102.56673,45.52178],[-102.56627,45.52126],[-102.5665,45.52107],[-102.56703,45.52116],[-102.56733,45.52098],[-102.567,45.52076],[-102.5671,45.5206],[-102.56696,45.52032],[-102.56714,45.52004],[-102.56706,45.51988],[-102.56678,45.5199],[-102.5664,45.52047],[-102.56554,45.52101],[-102.56491,45.52098],[-102.56483,45.52076],[-102.56514,45.52055],[-102.56591,45.52047],[-102.5662,45.52007],[-102.56614,45.51973],[-102.5656,45.52017],[-102.56373,45.52021],[-102.5637,45.5203],[-102.56401,45.5204],[-102.56408,45.52055],[-102.5637,45.52084],[-102.56294,45.52062],[-102.56223,45.52008],[-102.56228,45.51991],[-102.56263,45.51978],[-102.56263,45.5196],[-102.56202,45.51945],[-102.56154,45.51878],[-102.56145,45.51845],[-102.56063,45.518],[-102.5607,45.51775],[-102.55738,45.51715],[-102.55688,45.51687],[-102.55655,45.51648],[-102.55563,45.51614],[-102.55649,45.516],[-102.55783,45.5161],[-102.55782,45.51593],[-102.55813,45.5158],[-102.55755,45.51566],[-102.55751,45.51549],[-102.55763,45.5154],[-102.55855,45.51542],[-102.55901,45.51584],[-102.55941,45.51544],[-102.55966,45.5154],[-102.55982,45.51555],[-102.55969,45.51582],[-102.56006,45.51603],[-102.55992,45.51649],[-102.56016,45.51653],[-102.56051,45.51614],[-102.56085,45.51543],[-102.56167,45.51502],[-102.5611,45.51485],[-102.56059,45.51449],[-102.56053,45.51371],[-102.56038,45.51346],[-102.56062,45.51295],[-102.56121,45.51252],[-102.56124,45.51234],[-102.56079,45.51241],[-102.56036,45.51167],[-102.56027,45.51116],[-102.55993,45.51103],[-102.55974,45.51079],[-102.55787,45.50997],[-102.55717,45.51007],[-102.55471,45.50955],[-102.55424,45.50922],[-102.55364,45.50831],[-102.55328,45.50812],[-102.5524,45.5083],[-102.55175,45.5086],[-102.55043,45.50859],[-102.54969,45.50843],[-102.54742,45.50844],[-102.54697,45.50856],[-102.5467,45.50829],[-102.54518,45.50826],[-102.54371,45.50794],[-102.54258,45.50795],[-102.54103,45.50826],[-102.54072,45.50815],[-102.54095,45.50806],[-102.54077,45.50794],[-102.54071,45.5081],[-102.54033,45.50814],[-102.54002,45.50838],[-102.54004,45.50882],[-102.54039,45.50898],[-102.54039,45.50908],[-102.54009,45.50925],[-102.53941,45.50923],[-102.5392,45.50896],[-102.53865,45.50866],[-102.53918,45.50831],[-102.53934,45.50868],[-102.53951,45.50871],[-102.53975,45.5085],[-102.53973,45.50802],[-102.53935,45.50805],[-102.53867,45.50773],[-102.53876,45.5075],[-102.53852,45.50715],[-102.53794,45.50688],[-102.539,45.50653],[-102.53845,45.5064],[-102.53849,45.50616],[-102.53794,45.5059],[-102.53832,45.50568],[-102.53829,45.50517],[-102.53772,45.5049],[-102.53734,45.50451],[-102.53678,45.5044],[-102.53654,45.50415],[-102.53507,45.50412],[-102.53461,45.50399],[-102.53418,45.50408],[-102.53411,45.50383],[-102.53426,45.5035],[-102.53364,45.50315],[-102.53377,45.50216],[-102.53494,45.50234],[-102.53639,45.50279],[-102.5372,45.5028],[-102.53733,45.50269],[-102.53582,45.5021],[-102.53521,45.50169],[-102.5342,45.50145],[-102.53356,45.50103],[-102.53255,45.50079],[-102.53169,45.50038],[-102.53135,45.50044],[-102.52953,45.50014],[-102.52903,45.49986],[-102.52812,45.49981],[-102.52738,45.49953],[-102.52454,45.49886],[-102.52358,45.4988],[-102.52301,45.49851],[-102.52259,45.49856],[-102.52283,45.49894],[-102.52358,45.4993],[-102.52454,45.49936],[-102.52485,45.49973],[-102.52535,45.50109],[-102.52508,45.50191],[-102.52483,45.5021],[-102.52421,45.5023],[-102.52285,45.50231],[-102.52259,45.50225],[-102.52274,45.50195],[-102.52255,45.50182],[-102.52138,45.50182],[-102.52039,45.50198],[-102.51893,45.50183],[-102.5188,45.50189],[-102.51898,45.50221],[-102.51893,45.50275],[-102.51756,45.50264],[-102.51728,45.50236],[-102.51693,45.50243],[-102.51644,45.50221],[-102.51725,45.502],[-102.51817,45.50195],[-102.51828,45.50179],[-102.51822,45.50153],[-102.51794,45.50134],[-102.51673,45.50112],[-102.51554,45.50062],[-102.51506,45.50004],[-102.51456,45.50043],[-102.5147,45.50063],[-102.51477,45.50141],[-102.51506,45.50179],[-102.51561,45.50204],[-102.51544,45.50265],[-102.51566,45.50312],[-102.51566,45.50352],[-102.51503,45.50351],[-102.51421,45.50425],[-102.51385,45.50402],[-102.51378,45.50446],[-102.51356,45.50447],[-102.51355,45.50463],[-102.51293,45.50444],[-102.51241,45.50389],[-102.51253,45.50355],[-102.5124,45.50337],[-102.51244,45.50319],[-102.51299,45.50283],[-102.51371,45.50297],[-102.51444,45.50289],[-102.51407,45.50257],[-102.51398,45.50205],[-102.51361,45.50177],[-102.51336,45.50124],[-102.5135,45.50073],[-102.51316,45.5006],[-102.51302,45.50024],[-102.51266,45.50007],[-102.51253,45.49971],[-102.51132,45.49919],[-102.50988,45.4988],[-102.50966,45.49853],[-102.50924,45.49849],[-102.50883,45.49865],[-102.50882,45.50047],[-102.50856,45.50077],[-102.50795,45.50077],[-102.50791,45.5006],[-102.50808,45.50026],[-102.50749,45.49997],[-102.5074,45.49976],[-102.50759,45.49951],[-102.5082,45.49979],[-102.50834,45.49968],[-102.50834,45.4984],[-102.50818,45.49809],[-102.50835,45.49777],[-102.50835,45.49614],[-102.50812,45.49558],[-102.50841,45.4949],[-102.50906,45.49469],[-102.50904,45.49431],[-102.50876,45.49391],[-102.50796,45.49348],[-102.50777,45.49324],[-102.50683,45.4929],[-102.5061,45.49284],[-102.50588,45.49258],[-102.50163,45.49091],[-102.50114,45.49092],[-102.50084,45.49117],[-102.5004,45.49085],[-102.50047,45.4906],[-102.49998,45.49041],[-102.49909,45.49054],[-102.49897,45.49047],[-102.49904,45.49026],[-102.49872,45.4903],[-102.49875,45.49084],[-102.49974,45.49059],[-102.50003,45.49077],[-102.49944,45.49126],[-102.49931,45.49168],[-102.49899,45.49184],[-102.49883,45.4911],[-102.49827,45.491],[-102.49785,45.49075],[-102.49709,45.49067],[-102.49566,45.48952],[-102.49506,45.48863],[-102.49449,45.48868],[-102.49437,45.48815],[-102.49387,45.48729],[-102.49235,45.48686],[-102.49167,45.48643],[-102.49137,45.48652],[-102.49123,45.48721],[-102.49087,45.48658],[-102.49005,45.48646],[-102.48971,45.48657],[-102.48924,45.48652],[-102.48904,45.48634],[-102.48917,45.48599],[-102.48881,45.48571],[-102.48854,45.48515],[-102.48868,45.48484],[-102.48854,45.48453],[-102.4896,45.48426],[-102.49049,45.48457],[-102.49083,45.48419],[-102.49065,45.48366],[-102.49085,45.48324],[-102.49063,45.48269],[-102.49085,45.48207],[-102.49022,45.48173],[-102.48999,45.48137],[-102.4907,45.48082],[-102.49124,45.48081],[-102.49232,45.48128],[-102.49268,45.48123],[-102.49285,45.48097],[-102.49326,45.48079],[-102.49426,45.4808],[-102.49505,45.48108],[-102.49529,45.48091],[-102.49544,45.48051],[-102.49644,45.48032],[-102.49663,45.4816],[-102.49686,45.48174],[-102.49716,45.48166],[-102.49907,45.48199],[-102.49989,45.48336],[-102.50073,45.48414],[-102.50108,45.48468],[-102.50165,45.48495],[-102.50183,45.48523],[-102.50298,45.48604],[-102.50398,45.4862],[-102.50425,45.48613],[-102.50541,45.48644],[-102.50606,45.48686],[-102.50663,45.48696],[-102.50713,45.4874],[-102.50866,45.48739],[-102.50876,45.48732],[-102.50866,45.48714],[-102.50882,45.48709],[-102.50922,45.48738],[-102.51013,45.48744],[-102.51035,45.48787],[-102.51131,45.48811],[-102.51155,45.48836],[-102.51206,45.48846],[-102.51201,45.48887],[-102.51399,45.48946],[-102.51454,45.49002],[-102.51513,45.49027],[-102.5152,45.49045],[-102.51519,45.49152],[-102.51498,45.49188],[-102.5152,45.49238],[-102.51485,45.49249],[-102.51455,45.49243],[-102.51429,45.49278],[-102.51431,45.493],[-102.51457,45.49332],[-102.51493,45.49337],[-102.51565,45.49293],[-102.51587,45.4931],[-102.51595,45.49362],[-102.51647,45.49418],[-102.51672,45.49433],[-102.5175,45.49441],[-102.51821,45.49473],[-102.5183,45.49542],[-102.51862,45.49599],[-102.5194,45.49581],[-102.51963,45.49563],[-102.51953,45.49541],[-102.51968,45.49537],[-102.52004,45.49565],[-102.52076,45.49572],[-102.52216,45.49632],[-102.52327,45.49651],[-102.52385,45.4964],[-102.52433,45.49683],[-102.52501,45.49681],[-102.52527,45.49639],[-102.52541,45.49676],[-102.52595,45.49714],[-102.53158,45.49852],[-102.53185,45.4988],[-102.53278,45.49913],[-102.53322,45.49901],[-102.53346,45.49928],[-102.5342,45.49963],[-102.53559,45.49968],[-102.53597,45.49998],[-102.53795,45.50018],[-102.53933,45.50049],[-102.53966,45.50046],[-102.53977,45.5003],[-102.53977,45.49486],[-102.53848,45.49439],[-102.53743,45.4943],[-102.53717,45.49401],[-102.53716,45.4931],[-102.53728,45.4929],[-102.53908,45.49286],[-102.53941,45.49257],[-102.54004,45.49255],[-102.54129,45.49301],[-102.54184,45.49293],[-102.54257,45.49327],[-102.54318,45.49384],[-102.54465,45.49391],[-102.5441,45.49408],[-102.54385,45.4944],[-102.54412,45.49467],[-102.54934,45.49472],[-102.54992,45.49554],[-102.54964,45.4966],[-102.54871,45.49684],[-102.548,45.49669],[-102.54696,45.4967],[-102.5469,45.49678],[-102.54713,45.49721],[-102.54736,45.49742],[-102.54817,45.49754],[-102.54932,45.49814],[-102.55005,45.49821],[-102.55027,45.49847],[-102.55171,45.49886],[-102.55212,45.49912],[-102.55293,45.49937],[-102.55424,45.50011],[-102.55619,45.50069],[-102.55638,45.50093],[-102.55684,45.50111],[-102.55884,45.50153],[-102.55931,45.50187],[-102.55897,45.50211],[-102.55944,45.50244],[-102.55977,45.50243],[-102.55968,45.50204],[-102.56001,45.50201],[-102.56029,45.50225],[-102.56033,45.50361],[-102.56065,45.50426],[-102.56079,45.50407],[-102.56081,45.50245],[-102.56115,45.50234],[-102.56131,45.50288],[-102.56171,45.50292],[-102.56176,45.50385],[-102.56238,45.50469],[-102.56175,45.50494],[-102.56204,45.50573],[-102.56279,45.50609],[-102.56376,45.50631],[-102.56421,45.50658],[-102.56474,45.50666],[-102.56567,45.50726],[-102.56592,45.50715],[-102.56462,45.50623],[-102.56468,45.50599],[-102.56661,45.50693],[-102.56803,45.50706],[-102.56809,45.50691],[-102.56794,45.50669],[-102.56806,45.50663],[-102.56872,45.50681],[-102.56904,45.50731],[-102.56863,45.50736],[-102.56841,45.50783],[-102.56851,45.50802],[-102.56844,45.50825],[-102.57037,45.5088],[-102.57045,45.50896],[-102.5703,45.50921],[-102.5705,45.50937],[-102.57114,45.50932],[-102.57135,45.50948],[-102.57127,45.50971],[-102.57304,45.51065],[-102.57362,45.5112],[-102.57439,45.51128],[-102.57464,45.51143],[-102.57495,45.51236],[-102.57456,45.51268],[-102.57513,45.51295],[-102.57525,45.51332],[-102.57563,45.51364],[-102.57563,45.51399],[-102.57526,45.51433],[-102.57562,45.5148],[-102.57574,45.51518],[-102.57637,45.51556],[-102.57618,45.51571],[-102.57554,45.51569],[-102.5748,45.51533],[-102.57466,45.51509],[-102.57434,45.51493],[-102.57428,45.51508],[-102.57441,45.51532],[-102.57385,45.51551],[-102.57506,45.51619],[-102.57577,45.51638],[-102.57685,45.51623],[-102.57747,45.51638],[-102.57982,45.51635],[-102.58035,45.51614],[-102.58044,45.5158],[-102.58084,45.51528],[-102.58088,45.51453],[-102.58101,45.51443],[-102.58266,45.51492],[-102.58352,45.51533],[-102.58385,45.51527],[-102.58422,45.51568],[-102.58551,45.51627],[-102.58586,45.51665],[-102.58643,45.51674],[-102.58686,45.517],[-102.58736,45.51675],[-102.58787,45.517],[-102.58855,45.51684],[-102.58886,45.51656],[-102.58951,45.51674],[-102.58961,45.51702],[-102.58946,45.51719],[-102.58878,45.51733],[-102.58854,45.51708],[-102.58825,45.5171],[-102.58847,45.51746],[-102.58885,45.51762],[-102.58899,45.51799],[-102.5892,45.51762],[-102.58952,45.51754],[-102.58965,45.51784],[-102.5902,45.51788],[-102.59043,45.51802],[-102.59134,45.51789],[-102.59184,45.51817],[-102.59375,45.51857],[-102.59397,45.51883],[-102.59549,45.51935],[-102.59778,45.51936],[-102.59823,45.51948],[-102.59929,45.51919],[-102.59907,45.51972],[-102.59972,45.52026],[-102.5996,45.52062],[-102.60014,45.52087],[-102.6003,45.5213],[-102.60074,45.52151],[-102.60107,45.52149],[-102.60118,45.52133],[-102.6012,45.51881],[-102.60159,45.51848],[-102.6017,45.5181],[-102.60191,45.51793],[-102.60331,45.51803],[-102.60387,45.51848],[-102.6043,45.51838],[-102.6049,45.51858],[-102.60529,45.51898],[-102.60574,45.51857],[-102.60602,45.51856],[-102.60599,45.51881],[-102.60697,45.51907],[-102.60718,45.51931],[-102.60791,45.51923],[-102.60814,45.51949],[-102.61034,45.52022],[-102.61151,45.52106],[-102.61164,45.52163],[-102.61223,45.52192],[-102.61239,45.52281],[-102.61267,45.52279],[-102.61315,45.52235],[-102.61433,45.52221],[-102.61476,45.52262],[-102.61496,45.52239],[-102.61525,45.52236],[-102.61568,45.52281],[-102.61622,45.52305],[-102.61659,45.52346],[-102.6174,45.52385],[-102.61746,45.52402],[-102.61728,45.52439],[-102.61767,45.5249],[-102.61776,45.5254],[-102.61859,45.52571],[-102.61826,45.52602],[-102.61828,45.52613],[-102.61905,45.52646],[-102.61972,45.52635],[-102.62075,45.52655],[-102.62069,45.52677],[-102.61968,45.52695],[-102.61893,45.52682],[-102.61872,45.52691],[-102.61908,45.52721],[-102.61893,45.5277],[-102.61942,45.52838],[-102.61999,45.52865],[-102.62014,45.52891],[-102.62096,45.5295],[-102.62153,45.53038],[-102.62179,45.53057],[-102.62283,45.53093],[-102.6243,45.53095],[-102.62468,45.53107],[-102.62514,45.53095],[-102.627,45.53094],[-102.62765,45.5311],[-102.62946,45.53111],[-102.63,45.53126],[-102.63073,45.53112],[-102.63129,45.53141],[-102.6322,45.53146],[-102.63274,45.53165],[-102.63283,45.53194],[-102.63209,45.53195],[-102.63124,45.53215],[-102.63101,45.53232],[-102.63108,45.53258],[-102.63036,45.53289],[-102.62869,45.53257],[-102.62879,45.53226],[-102.62866,45.53212],[-102.62727,45.53224],[-102.6271,45.53182],[-102.62666,45.5315],[-102.62546,45.53112],[-102.62534,45.53123],[-102.62594,45.53185],[-102.62605,45.53222],[-102.62746,45.53321],[-102.62828,45.53347],[-102.62892,45.53389],[-102.63036,45.53429],[-102.63056,45.53453],[-102.6308,45.53431],[-102.63135,45.53431],[-102.63176,45.53488],[-102.63253,45.53512],[-102.63313,45.53553],[-102.63419,45.53595],[-102.63502,45.53652],[-102.63691,45.53736],[-102.63764,45.53738],[-102.63808,45.53695],[-102.63852,45.53703],[-102.63874,45.5369],[-102.63971,45.53691],[-102.64024,45.53719],[-102.64084,45.53717],[-102.64105,45.53699],[-102.64118,45.53662],[-102.6417,45.53653],[-102.64179,45.53637],[-102.6407,45.53553],[-102.64055,45.53513],[-102.63909,45.53496],[-102.63775,45.53507],[-102.63757,45.53497],[-102.63759,45.53467],[-102.63814,45.53454],[-102.63834,45.5343],[-102.63884,45.53411],[-102.63985,45.53409],[-102.64037,45.53441],[-102.64236,45.53444],[-102.6426,45.53486],[-102.64314,45.53481],[-102.64338,45.53503],[-102.64343,45.53467],[-102.64299,45.5342],[-102.64305,45.53117],[-102.64343,45.53105],[-102.64609,45.53102],[-102.6466,45.53123],[-102.64848,45.53277],[-102.65026,45.53394],[-102.65098,45.53465],[-102.65082,45.53514],[-102.6513,45.53571],[-102.6528,45.53627],[-102.65299,45.53651],[-102.65368,45.53685],[-102.65488,45.53705],[-102.6551,45.53661],[-102.65542,45.53644],[-102.65592,45.53678],[-102.65601,45.53729],[-102.65621,45.53739],[-102.65727,45.53692],[-102.65754,45.53693],[-102.65758,45.53718],[-102.65708,45.53767],[-102.65673,45.53781],[-102.65673,45.53814],[-102.65753,45.53825],[-102.65817,45.53868],[-102.65891,45.53884],[-102.65903,45.53869],[-102.65884,45.53835],[-102.65897,45.53824],[-102.66012,45.53834],[-102.6606,45.53825],[-102.66118,45.53871],[-102.66136,45.53864],[-102.66149,45.53827],[-102.66186,45.53828],[-102.66206,45.53844],[-102.66192,45.53878],[-102.66229,45.53911],[-102.66219,45.53932],[-102.66241,45.5398],[-102.66272,45.53985],[-102.66292,45.53957],[-102.66326,45.53943],[-102.66347,45.5396],[-102.66339,45.53983],[-102.66419,45.54025],[-102.66424,45.54073],[-102.66409,45.54086],[-102.66366,45.54084],[-102.66342,45.54058],[-102.66291,45.54048],[-102.66253,45.54008],[-102.66221,45.54004],[-102.66173,45.54009],[-102.66101,45.54067],[-102.66205,45.54109],[-102.66242,45.54149],[-102.66324,45.54174],[-102.66363,45.54214],[-102.6641,45.54205],[-102.66483,45.54233],[-102.66582,45.54248],[-102.66585,45.54224],[-102.66525,45.5418],[-102.66542,45.54171],[-102.66605,45.54201],[-102.66774,45.54207],[-102.66801,45.54239],[-102.6676,45.54261],[-102.66759,45.54294],[-102.66842,45.54307],[-102.66858,45.54363],[-102.66933,45.54372],[-102.66965,45.54409],[-102.66963,45.54445],[-102.66929,45.54439],[-102.6688,45.54457],[-102.66908,45.54514],[-102.67003,45.54548],[-102.67042,45.54549],[-102.67056,45.54542],[-102.67048,45.54522],[-102.67101,45.54529],[-102.67149,45.54488],[-102.67174,45.54505],[-102.67192,45.54547],[-102.67302,45.54549],[-102.67316,45.54541],[-102.6728,45.54526],[-102.67275,45.54494],[-102.67282,45.54472],[-102.67307,45.54469],[-102.67364,45.54561],[-102.6734,45.5461],[-102.67306,45.54605],[-102.6728,45.54625],[-102.67354,45.54631],[-102.67417,45.5454],[-102.67395,45.54486],[-102.67391,45.54412],[-102.6737,45.54385],[-102.67449,45.54369],[-102.67531,45.54442],[-102.67538,45.54523],[-102.67576,45.54556],[-102.67559,45.54594],[-102.67566,45.54678],[-102.67646,45.54704],[-102.67696,45.54764],[-102.67718,45.54758],[-102.67701,45.5473],[-102.67709,45.54704],[-102.67779,45.54727],[-102.67806,45.54702],[-102.67837,45.54706],[-102.6784,45.548],[-102.67802,45.54824],[-102.67833,45.54844],[-102.67778,45.54844],[-102.67714,45.54786],[-102.6768,45.54805],[-102.67682,45.54827],[-102.67754,45.54877],[-102.67868,45.5488],[-102.6802,45.54845],[-102.68145,45.54783],[-102.68168,45.54789],[-102.68228,45.5486],[-102.68294,45.54864],[-102.6831,45.54857],[-102.68318,45.54809],[-102.68332,45.54803],[-102.6835,45.54912],[-102.68224,45.54913],[-102.6814,45.54897],[-102.67939,45.54924],[-102.67942,45.54942],[-102.68013,45.54993],[-102.6807,45.55012],[-102.68166,45.55018],[-102.68157,45.55046],[-102.68146,45.5503],[-102.68125,45.55035],[-102.68128,45.55046],[-102.68149,45.55046],[-102.68158,45.55075],[-102.68205,45.55034],[-102.68236,45.55034],[-102.68242,45.55064],[-102.68222,45.55093],[-102.68231,45.55109],[-102.68331,45.55124],[-102.68333,45.55104],[-102.68298,45.5509],[-102.68294,45.55073],[-102.684,45.55059],[-102.68393,45.55036],[-102.68423,45.54949],[-102.68561,45.54994],[-102.68809,45.5503],[-102.68903,45.55024],[-102.68926,45.55003],[-102.68912,45.54974],[-102.68921,45.54965],[-102.68968,45.54969],[-102.68988,45.55009],[-102.69039,45.54966],[-102.69186,45.54964],[-102.69209,45.54975],[-102.69217,45.55023],[-102.6924,45.55029],[-102.69351,45.54987],[-102.69347,45.54969],[-102.69312,45.54956],[-102.69291,45.54902],[-102.69439,45.54884],[-102.69441,45.54908],[-102.69383,45.54939],[-102.69444,45.54988],[-102.69445,45.55056],[-102.6939,45.55109],[-102.69332,45.55103],[-102.6931,45.5512],[-102.69312,45.55139],[-102.69347,45.55136],[-102.69361,45.55156],[-102.69488,45.55217],[-102.69503,45.55239],[-102.69658,45.55317],[-102.69738,45.55423],[-102.69951,45.55555],[-102.70079,45.55548],[-102.70115,45.55589],[-102.70176,45.55616],[-102.70223,45.55683],[-102.7026,45.55772],[-102.70329,45.55819],[-102.70457,45.55879],[-102.70466,45.55946],[-102.7049,45.55966],[-102.70526,45.55961],[-102.70594,45.55976],[-102.70617,45.56002],[-102.70666,45.56009],[-102.70741,45.56043],[-102.70782,45.56085],[-102.70948,45.56108],[-102.70945,45.56132],[-102.70976,45.56148],[-102.70921,45.56166],[-102.70976,45.56176],[-102.71047,45.5621],[-102.71066,45.56234],[-102.71113,45.56225],[-102.71185,45.5624],[-102.71279,45.56283],[-102.71314,45.56273],[-102.71352,45.56282],[-102.71374,45.56259],[-102.71409,45.56268],[-102.71448,45.56258],[-102.71542,45.56306],[-102.7158,45.56364],[-102.71616,45.56359],[-102.71748,45.56415],[-102.71761,45.56408],[-102.71769,45.56359],[-102.71801,45.56381],[-102.71818,45.56342],[-102.71918,45.56317],[-102.71964,45.56291],[-102.7201,45.56317],[-102.72135,45.56341],[-102.7216,45.56361],[-102.72172,45.56398],[-102.72222,45.56417],[-102.72251,45.56414],[-102.72274,45.56372],[-102.72339,45.56398],[-102.72368,45.56391],[-102.72512,45.56523],[-102.72526,45.56563],[-102.72678,45.56606],[-102.72701,45.56621],[-102.72691,45.56645],[-102.72712,45.56662],[-102.72768,45.56654],[-102.72813,45.56681],[-102.72862,45.56687],[-102.72903,45.56712],[-102.73078,45.56765],[-102.73196,45.56754],[-102.73311,45.56786],[-102.7333,45.56844],[-102.73422,45.56894],[-102.73479,45.56886],[-102.73592,45.56946],[-102.73684,45.5695],[-102.73855,45.56985],[-102.73923,45.57011],[-102.73996,45.57002],[-102.74018,45.57027],[-102.74132,45.57076],[-102.74256,45.57101],[-102.74275,45.57125],[-102.7435,45.5715],[-102.74372,45.57176],[-102.74481,45.57217],[-102.74717,45.5723],[-102.74731,45.57216],[-102.74735,45.5716],[-102.74755,45.57157],[-102.74992,45.5727],[-102.75357,45.57414],[-102.7546,45.57437],[-102.7557,45.57483],[-102.75961,45.57718],[-102.76032,45.57741],[-102.76123,45.57738],[-102.76203,45.57784],[-102.76327,45.57799],[-102.76431,45.57848],[-102.76553,45.57845],[-102.76582,45.57865],[-102.76586,45.57911],[-102.7655,45.57915],[-102.76393,45.57888],[-102.75924,45.57745],[-102.75889,45.57748],[-102.75847,45.57784],[-102.75827,45.57784],[-102.75804,45.57764],[-102.7577,45.57658],[-102.75588,45.57642],[-102.75552,45.57627],[-102.75507,45.57641],[-102.75475,45.57633],[-102.75449,45.57473],[-102.75435,45.57453],[-102.75289,45.57459],[-102.75227,45.57429],[-102.75077,45.57391],[-102.7484,45.57386],[-102.74533,45.57265],[-102.74406,45.57279],[-102.74241,45.57261],[-102.7416,45.57243],[-102.7411,45.57215],[-102.73957,45.57212],[-102.73809,45.5718],[-102.73758,45.57183],[-102.73742,45.57222],[-102.73719,45.57228],[-102.73641,45.57167],[-102.73569,45.5716],[-102.7349,45.57131],[-102.73426,45.57142],[-102.73405,45.57118],[-102.73236,45.57083],[-102.72936,45.57062],[-102.72645,45.57],[-102.72298,45.56963],[-102.72227,45.56936],[-102.722,45.56961],[-102.72157,45.56963],[-102.72078,45.56943],[-102.72051,45.569],[-102.72031,45.56905],[-102.7204,45.56923],[-102.72031,45.5693],[-102.71925,45.56931],[-102.71913,45.5692],[-102.71965,45.56912],[-102.71973,45.56893],[-102.71889,45.56868],[-102.71784,45.56864],[-102.71594,45.56833],[-102.71383,45.56831],[-102.71133,45.56768],[-102.70863,45.56749],[-102.70621,45.56705],[-102.70535,45.56732],[-102.70495,45.56703],[-102.7036,45.56684],[-102.70211,45.56701],[-102.70114,45.56686],[-102.70059,45.567],[-102.69892,45.56701],[-102.69751,45.56685],[-102.69742,45.56697],[-102.69844,45.56721],[-102.69872,45.56744],[-102.69867,45.56795],[-102.6979,45.56797],[-102.69642,45.56745],[-102.69645,45.56706],[-102.69702,45.56693],[-102.69679,45.56671],[-102.6957,45.56683],[-102.69452,45.56659],[-102.69456,45.56589],[-102.69584,45.56629],[-102.69614,45.5652],[-102.69603,45.56505],[-102.69575,45.56501],[-102.69458,45.56515],[-102.69311,45.56461],[-102.6931,45.56443],[-102.69335,45.56422],[-102.69362,45.56407],[-102.69399,45.56408],[-102.69403,45.56335],[-102.69422,45.56303],[-102.69382,45.56276],[-102.69392,45.56242],[-102.69313,45.56233],[-102.69244,45.56189],[-102.69108,45.56172],[-102.69015,45.56186],[-102.69002,45.56177],[-102.68994,45.56129],[-102.68971,45.56122],[-102.68955,45.56137],[-102.68975,45.56173],[-102.68969,45.56216],[-102.68908,45.5622],[-102.68837,45.56205],[-102.68755,45.56233],[-102.68721,45.56226],[-102.68662,45.563],[-102.68631,45.56316],[-102.6858,45.56279],[-102.68663,45.5625],[-102.68662,45.56176],[-102.68605,45.56166],[-102.68515,45.56125],[-102.68486,45.56142],[-102.68447,45.562],[-102.68426,45.56162],[-102.68389,45.56163],[-102.68389,45.56097],[-102.68424,45.561],[-102.68431,45.5609],[-102.68433,45.56004],[-102.68423,45.55977],[-102.68278,45.5599],[-102.68266,45.56006],[-102.68193,45.5599],[-102.67964,45.55989]],[[-102.60941,45.53887],[-102.60939,45.53873],[-102.60902,45.53873],[-102.60898,45.53888],[-102.60941,45.53887]],[[-102.50992,45.49501],[-102.51182,45.49519],[-102.51209,45.49512],[-102.51228,45.49471],[-102.51174,45.49447],[-102.51154,45.49424],[-102.5113,45.49449],[-102.51081,45.49458],[-102.51089,45.49478],[-102.51079,45.49484],[-102.51012,45.49483],[-102.50977,45.49454],[-102.50906,45.49469],[-102.50992,45.49501]],[[-102.4911,45.48656],[-102.49108,45.48642],[-102.49089,45.48642],[-102.49087,45.48658],[-102.4911,45.48656]],[[-102.54018,45.49485],[-102.54024,45.49475],[-102.53986,45.49469],[-102.53977,45.49486],[-102.54018,45.49485]],[[-102.68379,45.55956],[-102.68363,45.55957],[-102.68362,45.5597],[-102.68385,45.55973],[-102.68379,45.55956]]],[[[-102.63284,45.53209],[-102.63283,45.53194],[-102.63306,45.53194],[-102.63307,45.5321],[-102.63284,45.53209]]],[[[-102.63308,45.53226],[-102.63307,45.5321],[-102.6333,45.53211],[-102.63331,45.53227],[-102.63308,45.53226]]],[[[-102.63398,45.53342],[-102.6332,45.53313],[-102.63246,45.53306],[-102.63194,45.53272],[-102.63195,45.53248],[-102.6324,45.53231],[-102.63298,45.53242],[-102.63331,45.53228],[-102.63368,45.5323],[-102.63445,45.53301],[-102.63445,45.53335],[-102.63398,45.53342]]],[[[-102.63854,45.5369],[-102.6385,45.53678],[-102.63869,45.53674],[-102.63874,45.53683],[-102.63854,45.5369]]],[[[-102.60847,45.53914],[-102.60833,45.53921],[-102.60759,45.53898],[-102.6085,45.53888],[-102.60847,45.53914]]],[[[-102.67305,45.5437],[-102.67359,45.5437],[-102.6737,45.54384],[-102.67326,45.54402],[-102.67303,45.54398],[-102.67305,45.5437]]],[[[-102.64251,45.54664],[-102.6423,45.54665],[-102.64228,45.54649],[-102.6425,45.54651],[-102.64251,45.54664]]],[[[-102.6829,45.5602],[-102.68269,45.56021],[-102.68267,45.56006],[-102.68289,45.56007],[-102.6829,45.5602]]],[[[-102.55923,45.46505],[-102.55915,45.4649],[-102.55935,45.46489],[-102.55936,45.46503],[-102.55923,45.46505]]],[[[-102.58606,45.48923],[-102.58607,45.48908],[-102.58629,45.48907],[-102.5863,45.48923],[-102.58606,45.48923]]],[[[-102.58631,45.48939],[-102.5863,45.48923],[-102.58653,45.48924],[-102.58654,45.48939],[-102.58631,45.48939]]],[[[-102.58676,45.48941],[-102.58676,45.48954],[-102.58656,45.48955],[-102.58654,45.48939],[-102.58676,45.48941]]],[[[-102.51542,45.49241],[-102.51541,45.49269],[-102.51522,45.49268],[-102.5152,45.49238],[-102.51542,45.49241]]],[[[-102.60269,45.49354],[-102.60261,45.49339],[-102.60282,45.49338],[-102.60283,45.49351],[-102.60269,45.49354]]],[[[-102.54742,45.49734],[-102.54734,45.49719],[-102.54754,45.49719],[-102.54755,45.49732],[-102.54742,45.49734]]],[[[-102.62972,45.52391],[-102.62913,45.52378],[-102.62871,45.52352],[-102.62712,45.52335],[-102.6261,45.52353],[-102.62577,45.52382],[-102.62427,45.52383],[-102.62167,45.52351],[-102.61971,45.52281],[-102.6176,45.52183],[-102.61707,45.52146],[-102.6169,45.52104],[-102.61523,45.52098],[-102.61482,45.52056],[-102.61397,45.52029],[-102.6134,45.51973],[-102.61252,45.51952],[-102.61218,45.51922],[-102.61095,45.51888],[-102.61027,45.51883],[-102.61004,45.51858],[-102.60968,45.51853],[-102.60966,45.51837],[-102.60921,45.51837],[-102.60863,45.5179],[-102.6079,45.51784],[-102.60678,45.51725],[-102.60573,45.517],[-102.60443,45.51593],[-102.60354,45.51572],[-102.60195,45.51468],[-102.60186,45.51367],[-102.60124,45.51336],[-102.60097,45.51296],[-102.60095,45.51243],[-102.60116,45.51209],[-102.60119,45.51152],[-102.60113,45.51129],[-102.60089,45.51112],[-102.59945,45.51123],[-102.59917,45.51096],[-102.59811,45.5106],[-102.59748,45.5108],[-102.59706,45.51123],[-102.59633,45.51122],[-102.59618,45.5105],[-102.59534,45.50987],[-102.5952,45.50947],[-102.59488,45.50948],[-102.59475,45.50985],[-102.59448,45.50991],[-102.59392,45.50954],[-102.59431,45.50929],[-102.59404,45.50897],[-102.59335,45.50877],[-102.59298,45.50881],[-102.59259,45.50906],[-102.59229,45.50892],[-102.59221,45.50863],[-102.59241,45.50832],[-102.5924,45.50801],[-102.59143,45.50698],[-102.5911,45.50699],[-102.5907,45.50756],[-102.59023,45.50732],[-102.58971,45.50741],[-102.58896,45.50707],[-102.58785,45.50631],[-102.58594,45.50592],[-102.58407,45.50532],[-102.58334,45.50526],[-102.58196,45.50484],[-102.58145,45.50492],[-102.58127,45.50451],[-102.5808,45.50401],[-102.5794,45.50319],[-102.57889,45.50327],[-102.57846,45.50299],[-102.57834,45.50305],[-102.57838,45.50328],[-102.57788,45.50326],[-102.57824,45.5027],[-102.5781,45.50239],[-102.57818,45.50219],[-102.57717,45.50179],[-102.57684,45.50116],[-102.57651,45.5013],[-102.57588,45.50072],[-102.57529,45.50047],[-102.57513,45.50004],[-102.57467,45.49969],[-102.5744,45.49954],[-102.57408,45.4996],[-102.57372,45.49921],[-102.57287,45.49891],[-102.57326,45.49875],[-102.57303,45.49854],[-102.57184,45.49789],[-102.57144,45.49794],[-102.57087,45.49723],[-102.57011,45.49715],[-102.56747,45.49631],[-102.56663,45.49573],[-102.56507,45.49496],[-102.5647,45.49456],[-102.56369,45.49432],[-102.56309,45.49391],[-102.56097,45.49292],[-102.56081,45.49298],[-102.56076,45.49359],[-102.56062,45.49365],[-102.56052,45.49282],[-102.56015,45.49262],[-102.56031,45.49231],[-102.56019,45.49206],[-102.55781,45.49159],[-102.55699,45.49198],[-102.55666,45.492],[-102.55653,45.49176],[-102.55713,45.49134],[-102.55722,45.49118],[-102.55714,45.49109],[-102.55595,45.49108],[-102.556,45.49132],[-102.55576,45.49166],[-102.555,45.49169],[-102.5551,45.49066],[-102.55436,45.48992],[-102.55402,45.48974],[-102.55358,45.48975],[-102.55342,45.49031],[-102.5533,45.49033],[-102.5528,45.48982],[-102.55272,45.4893],[-102.5525,45.48912],[-102.55141,45.48885],[-102.54999,45.48819],[-102.5493,45.48772],[-102.54904,45.4873],[-102.54962,45.4872],[-102.55011,45.48683],[-102.54951,45.48548],[-102.55098,45.48462],[-102.55191,45.48475],[-102.55382,45.48476],[-102.55486,45.4846],[-102.55546,45.4849],[-102.55614,45.48493],[-102.55666,45.4849],[-102.55663,45.48463],[-102.55703,45.4846],[-102.55718,45.48467],[-102.5571,45.48488],[-102.55796,45.48509],[-102.55777,45.48487],[-102.55783,45.48479],[-102.55855,45.48463],[-102.55919,45.48491],[-102.5596,45.48462],[-102.55959,45.48325],[-102.55914,45.48238],[-102.55931,45.48202],[-102.5592,45.48184],[-102.55957,45.48154],[-102.55961,45.48117],[-102.55919,45.4807],[-102.55909,45.48036],[-102.55664,45.48026],[-102.556,45.47983],[-102.555,45.47959],[-102.5548,45.47935],[-102.55423,45.47909],[-102.55328,45.47822],[-102.5539,45.47773],[-102.55391,45.47725],[-102.55355,45.47708],[-102.5534,45.47669],[-102.55258,45.47608],[-102.55325,45.47599],[-102.55432,45.47631],[-102.55457,45.47626],[-102.55481,45.476],[-102.55567,45.476],[-102.55617,45.47628],[-102.55725,45.47648],[-102.55705,45.47625],[-102.55703,45.47526],[-102.55724,45.47516],[-102.55767,45.47529],[-102.55815,45.47518],[-102.55861,45.47526],[-102.55861,45.47507],[-102.55821,45.47482],[-102.55861,45.47458],[-102.55884,45.47426],[-102.55849,45.47389],[-102.55935,45.4737],[-102.55903,45.4732],[-102.55778,45.4731],[-102.55861,45.47296],[-102.55889,45.4727],[-102.55788,45.47173],[-102.55756,45.47162],[-102.5569,45.47105],[-102.55617,45.47098],[-102.55517,45.4706],[-102.55471,45.46963],[-102.55484,45.46926],[-102.55443,45.46871],[-102.55439,45.46785],[-102.55419,45.46751],[-102.55435,45.46712],[-102.55419,45.46688],[-102.55422,45.46661],[-102.55455,45.46654],[-102.55506,45.46665],[-102.55532,45.4663],[-102.55537,45.46569],[-102.55551,45.46556],[-102.55846,45.46554],[-102.55882,45.46536],[-102.55907,45.46506],[-102.55951,45.46518],[-102.55969,45.46494],[-102.56001,45.46482],[-102.55991,45.46463],[-102.56005,45.46435],[-102.55992,45.46411],[-102.56023,45.4641],[-102.56056,45.46487],[-102.56054,45.46602],[-102.56032,45.46644],[-102.56036,45.46713],[-102.56048,45.46715],[-102.56084,45.46676],[-102.56135,45.46684],[-102.56162,45.46658],[-102.56196,45.46704],[-102.56186,45.46716],[-102.56099,45.46704],[-102.5608,45.46718],[-102.56078,45.46937],[-102.56067,45.46948],[-102.5604,45.46941],[-102.56034,45.46952],[-102.56054,45.46987],[-102.56061,45.4713],[-102.5612,45.47162],[-102.56122,45.47142],[-102.56084,45.47107],[-102.56113,45.47087],[-102.56152,45.47085],[-102.56279,45.47148],[-102.564,45.4717],[-102.56441,45.47212],[-102.56545,45.47255],[-102.56629,45.47312],[-102.56761,45.47372],[-102.56862,45.47459],[-102.56922,45.47471],[-102.56936,45.47509],[-102.57015,45.47503],[-102.56982,45.47523],[-102.56981,45.4754],[-102.57015,45.47554],[-102.57126,45.47659],[-102.57202,45.47684],[-102.5722,45.47709],[-102.57271,45.47728],[-102.5737,45.47735],[-102.57333,45.47763],[-102.57363,45.47828],[-102.57511,45.47917],[-102.57505,45.47941],[-102.57535,45.47951],[-102.57572,45.47992],[-102.57747,45.48114],[-102.57764,45.48139],[-102.57841,45.4818],[-102.57974,45.48307],[-102.58036,45.48333],[-102.58072,45.48371],[-102.58104,45.48349],[-102.58112,45.48461],[-102.58138,45.48518],[-102.58165,45.48553],[-102.582,45.48567],[-102.58211,45.48604],[-102.58295,45.48665],[-102.5832,45.48702],[-102.58328,45.4875],[-102.58389,45.48778],[-102.58507,45.4886],[-102.58543,45.48901],[-102.58606,45.48923],[-102.58612,45.4895],[-102.58633,45.48967],[-102.58686,45.48984],[-102.58719,45.48979],[-102.58707,45.49034],[-102.58813,45.49093],[-102.58849,45.4915],[-102.58978,45.49242],[-102.58991,45.49283],[-102.59072,45.49341],[-102.5912,45.49407],[-102.59135,45.49568],[-102.59167,45.4958],[-102.59182,45.49523],[-102.59239,45.49543],[-102.59267,45.49621],[-102.59269,45.49719],[-102.5929,45.49754],[-102.59293,45.49868],[-102.59312,45.49894],[-102.59317,45.49968],[-102.59332,45.49989],[-102.59318,45.50022],[-102.5938,45.5007],[-102.59411,45.50131],[-102.59433,45.50129],[-102.59409,45.50105],[-102.59416,45.50088],[-102.59438,45.50083],[-102.59515,45.50112],[-102.59659,45.50134],[-102.59756,45.50197],[-102.59805,45.50194],[-102.59847,45.50152],[-102.59908,45.50181],[-102.59965,45.50178],[-102.59989,45.50152],[-102.60064,45.5018],[-102.60112,45.50176],[-102.60097,45.50151],[-102.60092,45.50076],[-102.60053,45.50024],[-102.60091,45.4996],[-102.6005,45.49889],[-102.60043,45.49841],[-102.59983,45.49778],[-102.60022,45.49753],[-102.60021,45.49729],[-102.60001,45.49702],[-102.60004,45.49676],[-102.60089,45.4966],[-102.60026,45.49558],[-102.60026,45.49517],[-102.6004,45.49492],[-102.60009,45.4948],[-102.5997,45.49441],[-102.59909,45.4943],[-102.59875,45.49393],[-102.59841,45.49397],[-102.59787,45.49314],[-102.59789,45.49252],[-102.59815,45.49195],[-102.59844,45.4916],[-102.59865,45.49182],[-102.59878,45.4918],[-102.59886,45.49113],[-102.59994,45.49109],[-102.60122,45.49198],[-102.60159,45.49211],[-102.60143,45.4924],[-102.60143,45.49289],[-102.60191,45.49348],[-102.6026,45.49353],[-102.60265,45.4938],[-102.60286,45.49397],[-102.60422,45.49443],[-102.60641,45.49612],[-102.60794,45.49672],[-102.60789,45.49699],[-102.60847,45.49724],[-102.61045,45.49863],[-102.61103,45.49889],[-102.61119,45.49914],[-102.61197,45.49955],[-102.61235,45.49995],[-102.61312,45.50003],[-102.61331,45.50027],[-102.61351,45.50031],[-102.61363,45.50024],[-102.61352,45.4999],[-102.61386,45.49987],[-102.61411,45.50043],[-102.61361,45.50061],[-102.61331,45.50054],[-102.61327,45.50074],[-102.61387,45.50103],[-102.61448,45.50193],[-102.61505,45.50202],[-102.61543,45.50242],[-102.61623,45.50268],[-102.61672,45.50301],[-102.61731,45.50375],[-102.61812,45.50434],[-102.61826,45.50457],[-102.61908,45.50499],[-102.61943,45.50541],[-102.62025,45.506],[-102.62098,45.50685],[-102.62131,45.50786],[-102.62218,45.50821],[-102.62225,45.50968],[-102.62328,45.50996],[-102.62379,45.51046],[-102.62323,45.51087],[-102.6243,45.51114],[-102.62453,45.51132],[-102.62463,45.5117],[-102.62516,45.51222],[-102.6257,45.51217],[-102.62573,45.5119],[-102.62554,45.51154],[-102.62583,45.51128],[-102.62597,45.51139],[-102.62604,45.51202],[-102.62655,45.51191],[-102.62689,45.51199],[-102.6269,45.51229],[-102.6265,45.51249],[-102.62649,45.51283],[-102.62748,45.51368],[-102.62825,45.51408],[-102.62841,45.51451],[-102.62994,45.51576],[-102.63021,45.51615],[-102.63032,45.51686],[-102.63057,45.51702],[-102.6315,45.51706],[-102.63206,45.51725],[-102.63231,45.51745],[-102.63244,45.51782],[-102.63348,45.51808],[-102.6348,45.51914],[-102.63584,45.51957],[-102.63668,45.52014],[-102.63745,45.52039],[-102.63786,45.52081],[-102.63883,45.52071],[-102.63903,45.5211],[-102.63926,45.52117],[-102.63938,45.5211],[-102.63924,45.52091],[-102.63928,45.52073],[-102.63989,45.52068],[-102.64071,45.52097],[-102.64141,45.52087],[-102.64167,45.52112],[-102.64196,45.52106],[-102.64223,45.52121],[-102.64251,45.52149],[-102.64253,45.52264],[-102.64269,45.52292],[-102.64253,45.52331],[-102.64273,45.52363],[-102.64278,45.52438],[-102.64298,45.52468],[-102.64301,45.52785],[-102.64342,45.5282],[-102.64375,45.52888],[-102.64412,45.52903],[-102.64445,45.52971],[-102.64505,45.53032],[-102.64501,45.53042],[-102.64436,45.5303],[-102.64351,45.53057],[-102.64327,45.53038],[-102.64316,45.52983],[-102.64275,45.52946],[-102.64258,45.52953],[-102.64276,45.52989],[-102.64265,45.53025],[-102.64202,45.53027],[-102.64142,45.53012],[-102.64055,45.53026],[-102.64005,45.52998],[-102.63932,45.52992],[-102.63886,45.52965],[-102.63833,45.52957],[-102.63627,45.52866],[-102.63526,45.52842],[-102.63462,45.52799],[-102.63295,45.52776],[-102.63271,45.52751],[-102.63219,45.52742],[-102.63107,45.52684],[-102.6305,45.52674],[-102.63028,45.52657],[-102.63014,45.52617],[-102.6289,45.52546],[-102.62888,45.52535],[-102.62914,45.52518],[-102.62976,45.52515],[-102.62977,45.5253],[-102.62989,45.52532],[-102.63,45.52519],[-102.62936,45.52494],[-102.62863,45.52426],[-102.62908,45.52416],[-102.62969,45.52427],[-102.62972,45.52391]],[[-102.55796,45.48509],[-102.55808,45.48526],[-102.55818,45.48511],[-102.55796,45.48509]],[[-102.55726,45.47664],[-102.55748,45.47664],[-102.55747,45.47648],[-102.55725,45.47648],[-102.55726,45.47664]],[[-102.55749,45.4768],[-102.55793,45.47697],[-102.55794,45.47682],[-102.55772,45.47681],[-102.55771,45.47665],[-102.55748,45.47664],[-102.55749,45.4768]]],[[[-102.53296,45.49899],[-102.53292,45.49888],[-102.53311,45.49883],[-102.53316,45.49893],[-102.53296,45.49899]]],[[[-102.57684,45.50147],[-102.57662,45.50147],[-102.57662,45.50132],[-102.57685,45.50132],[-102.57684,45.50147]]],[[[-102.51754,45.5028],[-102.51734,45.50279],[-102.51734,45.50265],[-102.51756,45.50264],[-102.51754,45.5028]]],[[[-102.51378,45.50462],[-102.51378,45.50446],[-102.51423,45.50449],[-102.51424,45.50475],[-102.5136,45.50477],[-102.51355,45.50463],[-102.51378,45.50462]]],[[[-102.56077,45.51256],[-102.56056,45.51255],[-102.56057,45.51242],[-102.56079,45.51241],[-102.56077,45.51256]]],[[[-102.60015,45.5184],[-102.60024,45.51936],[-102.59957,45.51935],[-102.5995,45.51921],[-102.59929,45.51919],[-102.59932,45.51897],[-102.60015,45.5184]]],[[[-102.60024,45.51937],[-102.60047,45.51954],[-102.60036,45.51983],[-102.59986,45.51983],[-102.59957,45.51963],[-102.60024,45.51937]]],[[[-102.56342,45.52116],[-102.5634,45.52088],[-102.56362,45.52085],[-102.5636,45.52115],[-102.56342,45.52116]]],[[[-102.59291,45.53513],[-102.59311,45.53508],[-102.59315,45.53518],[-102.59295,45.53524],[-102.59291,45.53513]]]]},"properties":{"fire_id":"ufid:2021-SDSDS-210174","source_collection":"history-2021","source_objectid":14652,"incident_name":"Divide CA","mapped_acres":9181.82,"mapped_acres_source":"poly_GISAcres","gis_acres":9181.82,"auto_acres":9181.78641276639,"reported_acres":9427.7,"percent_contained":null,"state":"SD","state_wfigs":"US-SD","county":"Perkins","discovery_time_utc":"2021-03-29T20:39:00Z","perimeter_time_utc":"2021-03-30T01:39:00Z","perimeter_edit_time_utc":"2023-03-14T15:13:42Z","incident_modified_time_utc":"2022-01-20T18:03:20Z","containment_time_utc":"2021-04-01T23:19:00Z","control_time_utc":null,"fire_out_time_utc":"2021-04-11T22:00:00Z","fire_cause":"Undetermined","fire_cause_general":"Undetermined","map_method":"Image Interpretation","source_dataset":"FFP","unique_fire_identifier":"2021-SDSDS-210174","irwin_id":"{9A8D731C-DC94-420E-A000-F0CABD4D754C}","global_id":"999d9beb-5a9f-44a7-aa40-e65b4f3927a5"}},{"type":"Feature","geometry":{"type":"Polygon","coordinates":[[[-100.43619,45.10638],[-100.4355,45.1062],[-100.43553,45.10584],[-100.43489,45.10522],[-100.43478,45.10476],[-100.4343,45.1044],[-100.43337,45.10402],[-100.43235,45.10327],[-100.43168,45.10206],[-100.43074,45.10147],[-100.43032,45.10095],[-100.42982,45.10059],[-100.42946,45.10015],[-100.42922,45.09955],[-100.42951,45.09904],[-100.42947,45.09862],[-100.43032,45.09919],[-100.43068,45.09962],[-100.43105,45.09955],[-100.43114,45.09928],[-100.4294,45.09797],[-100.42871,45.09729],[-100.42645,45.09569],[-100.42473,45.0941],[-100.42377,45.09202],[-100.42338,45.09159],[-100.42296,45.09064],[-100.42269,45.09041],[-100.42205,45.09023],[-100.4217,45.08979],[-100.42131,45.08963],[-100.42116,45.08941],[-100.42123,45.0892],[-100.42196,45.08869],[-100.42255,45.08765],[-100.42341,45.08675],[-100.4239,45.08577],[-100.42426,45.08434],[-100.42458,45.08384],[-100.42476,45.08397],[-100.42529,45.08351],[-100.42567,45.0842],[-100.42627,45.08393],[-100.42565,45.08321],[-100.42616,45.08247],[-100.42645,45.08078],[-100.42673,45.08039],[-100.42715,45.08013],[-100.42772,45.08022],[-100.42818,45.08007],[-100.42871,45.07945],[-100.42897,45.0797],[-100.42915,45.07926],[-100.42908,45.07854],[-100.42926,45.07829],[-100.4297,45.07835],[-100.43562,45.08109],[-100.44494,45.08555],[-100.44481,45.08623],[-100.44513,45.08698],[-100.44544,45.08734],[-100.44533,45.0877],[-100.4454,45.08825],[-100.44594,45.08797],[-100.44648,45.08729],[-100.44729,45.08687],[-100.44737,45.08744],[-100.44792,45.08739],[-100.44927,45.08759],[-100.45007,45.08797],[-100.45063,45.08833],[-100.45114,45.08914],[-100.45118,45.09093],[-100.45101,45.09232],[-100.45061,45.09336],[-100.45047,45.09426],[-100.44956,45.09617],[-100.44828,45.09641],[-100.44792,45.09628],[-100.44576,45.09627],[-100.4454,45.09635],[-100.44528,45.0965],[-100.44528,45.09794],[-100.44577,45.09829],[-100.4461,45.09875],[-100.44552,45.09958],[-100.445,45.1],[-100.44512,45.10054],[-100.44501,45.10189],[-100.44388,45.10309],[-100.44361,45.10319],[-100.44283,45.10314],[-100.44214,45.10368],[-100.44193,45.10416],[-100.441,45.10485],[-100.44101,45.10548],[-100.44065,45.10583],[-100.43937,45.10586],[-100.43903,45.10572],[-100.43786,45.10624],[-100.43619,45.10638]]]},"properties":{"fire_id":"ufid:2021-SDCRA-000095","source_collection":"history-2021","source_objectid":15468,"incident_name":"FUZZY","mapped_acres":1043.01,"mapped_acres_source":"poly_GISAcres","gis_acres":1043.01,"auto_acres":null,"reported_acres":1060.0,"percent_contained":100.0,"state":"SD","state_wfigs":"US-SD","county":"Dewey","discovery_time_utc":"2021-07-25T21:06:00Z","perimeter_time_utc":null,"perimeter_edit_time_utc":null,"incident_modified_time_utc":"2021-12-09T21:20:30Z","containment_time_utc":"2021-07-26T20:00:00Z","control_time_utc":"2021-07-29T23:00:00Z","fire_out_time_utc":"2021-08-04T00:00:00Z","fire_cause":"Human","fire_cause_general":"Equipment","map_method":"Hand Sketch","source_dataset":"Inspector","unique_fire_identifier":"2021-SDCRA-000095","irwin_id":"{B9A6C945-BB1A-486F-8D7C-86B02F0AC2B1}","global_id":"554350a0-cb5e-4fb9-bce3-8d5c3ca86aaf"}},{"type":"Feature","geometry":{"type":"Polygon","coordinates":[[[-101.53858,45.05051],[-101.53778,45.05048],[-101.53719,45.05005],[-101.53733,45.04969],[-101.53735,45.04636],[-101.53755,45.04555],[-101.53737,45.04456],[-101.53752,45.04402],[-101.53729,45.04379],[-101.5373,45.04357],[-101.53715,45.04339],[-101.53728,45.04294],[-101.53747,45.04281],[-101.53832,45.04315],[-101.53877,45.04306],[-101.54111,45.04332],[-101.54304,45.04416],[-101.54368,45.04478],[-101.54383,45.04555],[-101.54428,45.04609],[-101.54429,45.04681],[-101.54475,45.04821],[-101.54489,45.04828],[-101.54507,45.04816],[-101.54488,45.04762],[-101.54498,45.04717],[-101.54516,45.04701],[-101.54552,45.04697],[-101.54564,45.04744],[-101.54682,45.0483],[-101.54675,45.04882],[-101.54707,45.04933],[-101.54695,45.04949],[-101.54615,45.04964],[-101.53858,45.05051]]]},"properties":{"fire_id":"ufid:2021-SDCRA-000036","source_collection":"history-2021","source_objectid":15877,"incident_name":"FRAME DEEP COMPLEX","mapped_acres":119.3,"mapped_acres_source":"poly_GISAcres","gis_acres":119.3,"auto_acres":110.57608603997085,"reported_acres":119.3,"percent_contained":null,"state":"SD","state_wfigs":"US-SD","county":"Ziebach","discovery_time_utc":"2021-04-17T20:35:00Z","perimeter_time_utc":"2021-04-18T01:35:00Z","perimeter_edit_time_utc":"2023-04-06T20:55:21Z","incident_modified_time_utc":"2021-04-23T21:16:43Z","containment_time_utc":"2021-04-18T00:30:00Z","control_time_utc":"2021-04-18T01:00:00Z","fire_out_time_utc":"2021-04-21T18:00:00Z","fire_cause":"Human","fire_cause_general":"Other causes","map_method":"Auto-generated","source_dataset":"FFP","unique_fire_identifier":"2021-SDCRA-000036","irwin_id":"{3DDC4912-A41B-4408-9D7B-042AEA866FE3}","global_id":"cca7a194-5de6-47c0-830d-7475201c02d3"}}]}
