{"type":"FeatureCollection","features":[{"type":"Feature","geometry":{"type":"Polygon","coordinates":[[[-83.5298,35.75518],[-83.53008,35.75546],[-83.52982,35.75572],[-83.52898,35.7559],[-83.52897,35.75555],[-83.52952,35.75541],[-83.5298,35.75518]]]},"properties":{"fire_id":"ufid:2021-TNTNS-000187","source_collection":"history-2021","source_objectid":257,"incident_name":"WILDWOOD","mapped_acres":3.0,"mapped_acres_source":"poly_GISAcres","gis_acres":3.0,"auto_acres":1.00368101909809,"reported_acres":1.0,"percent_contained":null,"state":"TN","state_wfigs":"US-TN","county":"Sevier","discovery_time_utc":"2021-03-06T20:47:00Z","perimeter_time_utc":"2021-03-20T00:47:00Z","perimeter_edit_time_utc":"2021-10-14T18:34:28Z","incident_modified_time_utc":"2021-03-24T10:28:27Z","containment_time_utc":"2021-03-06T23:09:00Z","control_time_utc":"2021-03-07T00:09:00Z","fire_out_time_utc":"2021-03-07T11:09:00Z","fire_cause":"Human","fire_cause_general":"Other Human Cause","map_method":"Auto-generated","source_dataset":"2021 NIFS","unique_fire_identifier":"2021-TNTNS-000187","irwin_id":"{8120A975-4D65-4382-906A-811118A17D86}","global_id":"e9cd7948-c9c0-499c-af58-4912dccbbf8f"}},{"type":"Feature","geometry":{"type":"Polygon","coordinates":[[[-84.9946,36.40588],[-84.9937,36.40584],[-84.99382,36.40522],[-84.99464,36.40476],[-84.99328,36.40348],[-84.99318,36.40287],[-84.99276,36.40246],[-84.99275,36.40216],[-84.99291,36.40201],[-84.99173,36.40179],[-84.99016,36.401],[-84.99022,36.39997],[-84.99044,36.39976],[-84.99052,36.39879],[-84.99088,36.39868],[-84.9912,36.39837],[-84.99122,36.39681],[-84.99156,36.39664],[-84.99178,36.39629],[-84.99238,36.39627],[-84.99268,36.39656],[-84.99277,36.39686],[-84.99328,36.39724],[-84.9948,36.39718],[-84.99529,36.39756],[-84.99522,36.39723],[-84.99501,36.39703],[-84.99497,36.3962],[-84.99537,36.3957],[-84.99601,36.39561],[-84.99594,36.39498],[-84.99558,36.39475],[-84.99577,36.39411],[-84.99542,36.39345],[-84.99544,36.39303],[-84.99522,36.39262],[-84.99567,36.39227],[-84.9958,36.39187],[-84.9976,36.39141],[-84.99674,36.39115],[-84.99696,36.39072],[-84.99726,36.38934],[-84.99781,36.38876],[-84.99911,36.38903],[-84.99943,36.38952],[-84.99993,36.38982],[-85.00072,36.38992],[-85.00137,36.39021],[-85.00189,36.39028],[-85.00222,36.39064],[-85.00314,36.39112],[-85.00354,36.39172],[-85.00343,36.393],[-85.00304,36.39349],[-85.00319,36.39375],[-85.00354,36.39368],[-85.00434,36.39321],[-85.00542,36.3931],[-85.0055,36.39294],[-85.00627,36.39274],[-85.00694,36.39292],[-85.00723,36.39332],[-85.00757,36.39343],[-85.00769,36.39394],[-85.00796,36.39418],[-85.00797,36.39462],[-85.00748,36.39464],[-85.00718,36.39448],[-85.00706,36.39467],[-85.00767,36.39501],[-85.0076,36.39513],[-85.00694,36.39521],[-85.00651,36.39549],[-85.00638,36.39575],[-85.00607,36.39585],[-85.00599,36.39611],[-85.0047,36.39675],[-85.00477,36.39694],[-85.00513,36.39711],[-85.00506,36.39759],[-85.0045,36.39767],[-85.00407,36.39797],[-85.00315,36.39796],[-85.00275,36.39784],[-85.00297,36.39773],[-85.00296,36.39745],[-85.00333,36.39716],[-85.0034,36.3966],[-85.00402,36.39627],[-85.00377,36.396],[-85.00322,36.39634],[-85.00297,36.39607],[-85.00288,36.39624],[-85.00298,36.39663],[-85.00278,36.39684],[-85.00266,36.3967],[-85.00137,36.39687],[-85.0013,36.39717],[-85.00093,36.39715],[-85.00101,36.39795],[-85.00159,36.39802],[-85.00172,36.39817],[-85.00253,36.39802],[-85.00276,36.39815],[-85.0037,36.39817],[-85.00402,36.39859],[-85.00525,36.39883],[-85.00542,36.39918],[-85.0057,36.399],[-85.00571,36.39722],[-85.00614,36.3968],[-85.00671,36.39689],[-85.00657,36.39759],[-85.00715,36.39781],[-85.00731,36.39774],[-85.0074,36.39745],[-85.00829,36.39755],[-85.00845,36.39784],[-85.0083,36.39813],[-85.00843,36.39838],[-85.0076,36.39837],[-85.00767,36.39853],[-85.00807,36.39863],[-85.00843,36.39952],[-85.00868,36.39975],[-85.00839,36.40004],[-85.0083,36.40041],[-85.00816,36.39998],[-85.0071,36.4005],[-85.007,36.40092],[-85.00628,36.40069],[-85.00605,36.40127],[-85.00582,36.40101],[-85.00542,36.40143],[-85.00474,36.4015],[-85.00463,36.40186],[-85.00434,36.40193],[-85.00383,36.40317],[-85.00362,36.40327],[-85.00374,36.40347],[-85.00403,36.40331],[-85.0043,36.40339],[-85.00445,36.40366],[-85.00431,36.40395],[-85.00397,36.40403],[-85.00376,36.40461],[-85.00347,36.40468],[-85.00334,36.40496],[-85.00269,36.40519],[-85.00238,36.4051],[-85.00261,36.40482],[-85.00183,36.40486],[-85.00167,36.40468],[-85.00094,36.40455],[-85.0008,36.4044],[-85.00042,36.40513],[-85.00044,36.40548],[-84.99994,36.40527],[-84.99927,36.40542],[-84.99956,36.40576],[-84.99934,36.40598],[-85.00006,36.4059],[-84.99971,36.40574],[-84.99988,36.40563],[-85.00048,36.40561],[-85.00064,36.40576],[-85.00021,36.40609],[-85.00029,36.40637],[-85.00071,36.40669],[-85.00103,36.40652],[-85.0013,36.40706],[-85.00049,36.40731],[-84.99978,36.40775],[-84.99985,36.40823],[-85.00144,36.40831],[-85.00137,36.40852],[-85.0005,36.40881],[-84.99885,36.4088],[-84.99725,36.40896],[-84.99758,36.40919],[-84.99775,36.40952],[-84.99728,36.40971],[-84.99716,36.4101],[-84.99688,36.41018],[-84.99659,36.41054],[-84.99635,36.41141],[-84.99565,36.4116],[-84.99588,36.41211],[-84.99674,36.41286],[-84.99689,36.41332],[-84.99687,36.41384],[-84.9973,36.41416],[-84.99768,36.41388],[-84.99846,36.41366],[-84.99869,36.41396],[-84.99826,36.41436],[-84.99862,36.41467],[-84.99884,36.41591],[-84.99906,36.41612],[-84.99905,36.41648],[-84.99949,36.41647],[-84.99924,36.41681],[-84.99847,36.41703],[-84.99813,36.41685],[-84.99733,36.41721],[-84.99703,36.41706],[-84.99587,36.41699],[-84.99567,36.41677],[-84.99525,36.4172],[-84.99454,36.41737],[-84.99407,36.41786],[-84.99349,36.41807],[-84.9928,36.41779],[-84.99214,36.41799],[-84.99196,36.41766],[-84.99232,36.41692],[-84.99319,36.41612],[-84.99406,36.41562],[-84.99442,36.41512],[-84.99363,36.41323],[-84.99313,36.41344],[-84.99233,36.41291],[-84.99229,36.41192],[-84.99247,36.41158],[-84.99161,36.4114],[-84.99145,36.41186],[-84.99108,36.41084],[-84.99088,36.4112],[-84.99016,36.41119],[-84.99008,36.41185],[-84.98974,36.41263],[-84.98951,36.41286],[-84.98899,36.41279],[-84.9887,36.41252],[-84.9886,36.412],[-84.98821,36.4121],[-84.98841,36.41249],[-84.98832,36.41279],[-84.98772,36.41281],[-84.98747,36.41258],[-84.98795,36.41221],[-84.98737,36.412],[-84.98708,36.41216],[-84.98632,36.41213],[-84.98564,36.41249],[-84.98555,36.41281],[-84.98454,36.41263],[-84.98416,36.41296],[-84.98396,36.41298],[-84.98414,36.41272],[-84.98443,36.41258],[-84.98444,36.41239],[-84.98402,36.41209],[-84.98269,36.412],[-84.98256,36.41185],[-84.9824,36.41193],[-84.98241,36.41235],[-84.98213,36.41255],[-84.98125,36.41277],[-84.98123,36.41215],[-84.98158,36.41189],[-84.98171,36.41094],[-84.98103,36.41052],[-84.98112,36.4102],[-84.98182,36.40987],[-84.98184,36.40948],[-84.98132,36.40875],[-84.98139,36.40858],[-84.98175,36.4086],[-84.98176,36.4083],[-84.98091,36.4082],[-84.98058,36.40764],[-84.98017,36.40744],[-84.98001,36.40686],[-84.97886,36.40677],[-84.97895,36.40651],[-84.9793,36.40642],[-84.97944,36.40612],[-84.98009,36.40549],[-84.98044,36.40483],[-84.98124,36.40473],[-84.98167,36.40519],[-84.98182,36.4052],[-84.98273,36.40481],[-84.98385,36.40514],[-84.98383,36.40636],[-84.98438,36.40821],[-84.9851,36.40802],[-84.98566,36.40858],[-84.98523,36.40901],[-84.9853,36.40917],[-84.98585,36.40915],[-84.98613,36.40941],[-84.98609,36.41032],[-84.98666,36.41062],[-84.98704,36.41055],[-84.98691,36.41031],[-84.98713,36.40984],[-84.98748,36.40968],[-84.98767,36.40928],[-84.98823,36.40867],[-84.98848,36.40866],[-84.9888,36.40897],[-84.9887,36.40939],[-84.98798,36.40967],[-84.98797,36.41012],[-84.98837,36.41061],[-84.98852,36.41066],[-84.98859,36.41043],[-84.98887,36.41027],[-84.98908,36.41051],[-84.98979,36.41044],[-84.99025,36.41062],[-84.99038,36.41055],[-84.99023,36.41042],[-84.99037,36.41033],[-84.99073,36.41036],[-84.99081,36.40997],[-84.99115,36.41013],[-84.99123,36.41033],[-84.99167,36.4104],[-84.99179,36.41054],[-84.9921,36.41046],[-84.99181,36.41004],[-84.99173,36.40958],[-84.99107,36.40914],[-84.99087,36.40868],[-84.99024,36.4087],[-84.99024,36.4083],[-84.98973,36.40823],[-84.98964,36.40781],[-84.989,36.40784],[-84.98909,36.40695],[-84.98936,36.40673],[-84.98943,36.40619],[-84.98966,36.40599],[-84.98975,36.40534],[-84.99002,36.40558],[-84.9905,36.40554],[-84.99062,36.406],[-84.991,36.40552],[-84.99186,36.4058],[-84.99142,36.40517],[-84.99085,36.40512],[-84.99002,36.40479],[-84.99019,36.40469],[-84.99145,36.40492],[-84.99179,36.40533],[-84.99309,36.40599],[-84.99422,36.4062],[-84.9945,36.40614],[-84.9946,36.40588]],[[-84.9946,36.40588],[-84.99493,36.40585],[-84.99543,36.40556],[-84.99571,36.40516],[-84.99527,36.40463],[-84.99503,36.40454],[-84.99486,36.40477],[-84.99521,36.40502],[-84.99473,36.40513],[-84.9946,36.40588]]]},"properties":{"fire_id":"ufid:2021-TNTNS-200308","source_collection":"history-2021","source_objectid":653,"incident_name":"Gouldstown Road","mapped_acres":1000.0,"mapped_acres_source":"poly_GISAcres","gis_acres":1000.0,"auto_acres":730.615479118509,"reported_acres":1000.0,"percent_contained":36.0,"state":"TN","state_wfigs":"US-TN","county":"Fentress","discovery_time_utc":"2021-03-09T19:00:00Z","perimeter_time_utc":"2021-03-10T01:00:00Z","perimeter_edit_time_utc":"2021-05-20T18:09:34Z","incident_modified_time_utc":"2021-05-20T18:12:47Z","containment_time_utc":null,"control_time_utc":null,"fire_out_time_utc":null,"fire_cause":"Human","fire_cause_general":null,"map_method":"Image Interpretation","source_dataset":"2021 NIFS","unique_fire_identifier":"2021-TNTNS-200308","irwin_id":"{EBC1BA9B-79B4-4953-8699-8F4160110B72}","global_id":"78570f3e-e26e-43c9-818d-c921062702b4"}},{"type":"Feature","geometry":{"type":"Polygon","coordinates":[[[-84.36974,35.30753],[-84.36973,35.30673],[-84.37091,35.30608],[-84.37135,35.30639],[-84.37234,35.30675],[-84.37249,35.30736],[-84.37275,35.30759],[-84.37274,35.30777],[-84.37302,35.30806],[-84.37311,35.30838],[-84.37281,35.3088],[-84.3722,35.30907],[-84.3718,35.30968],[-84.37117,35.30969],[-84.37086,35.31011],[-84.37044,35.31016],[-84.36996,35.30968],[-84.37003,35.30963],[-84.36957,35.30959],[-84.36926,35.30922],[-84.36959,35.30852],[-84.36948,35.30819],[-84.36974,35.30753]]]},"properties":{"fire_id":"ufid:2021-TNCNF-000124","source_collection":"history-2021","source_objectid":4538,"incident_name":"Webb Creek","mapped_acres":1.0,"mapped_acres_source":"poly_GISAcres","gis_acres":1.0,"auto_acres":25.0212560497892,"reported_acres":25.0,"percent_contained":null,"state":"TN","state_wfigs":"US-TN","county":"Monroe","discovery_time_utc":"2021-04-12T22:52:00Z","perimeter_time_utc":"2021-04-13T03:52:00Z","perimeter_edit_time_utc":"2023-03-14T15:13:42Z","incident_modified_time_utc":"2022-01-26T23:00:07Z","containment_time_utc":"2021-04-13T22:16:00Z","control_time_utc":"2021-04-29T14:50:00Z","fire_out_time_utc":"2021-05-10T20:00:00Z","fire_cause":"Human","fire_cause_general":"Power generation / transmission / distribution","map_method":"GPS-Walked","source_dataset":"FFP","unique_fire_identifier":"2021-TNCNF-000124","irwin_id":"{4E53593A-019E-4F97-BDC5-9C6B8362DEA0}","global_id":"15a5f060-0db3-42f2-9504-0482973a4a09"}},{"type":"Feature","geometry":{"type":"Polygon","coordinates":[[[-82.1904,36.41095],[-82.19069,36.41064],[-82.19122,36.4105],[-82.19313,36.40939],[-82.19391,36.4097],[-82.19441,36.41043],[-82.19551,36.41089],[-82.19478,36.41124],[-82.19429,36.4119],[-82.19258,36.41242],[-82.19234,36.41269],[-82.1922,36.41313],[-82.19214,36.41241],[-82.19168,36.41172],[-82.1904,36.41095]]]},"properties":{"fire_id":"ufid:2021-TNCNF-000055","source_collection":"history-2021","source_objectid":5830,"incident_name":"Big Arm","mapped_acres":1.0,"mapped_acres_source":"poly_GISAcres","gis_acres":1.0,"auto_acres":20.340160877782907,"reported_acres":410.0,"percent_contained":null,"state":"TN","state_wfigs":"US-TN","county":"Sullivan","discovery_time_utc":"2021-03-10T14:53:00Z","perimeter_time_utc":"2021-03-10T20:53:01Z","perimeter_edit_time_utc":"2023-03-14T15:13:42Z","incident_modified_time_utc":"2021-04-07T19:07:44Z","containment_time_utc":"2021-03-14T00:00:00Z","control_time_utc":"2021-03-19T16:00:00Z","fire_out_time_utc":"2021-04-06T12:00:00Z","fire_cause":"Human","fire_cause_general":"Other causes","map_method":"Hand Sketch","source_dataset":"FFP","unique_fire_identifier":"2021-TNCNF-000055","irwin_id":"{24750244-29F8-4670-A266-BC2DFBDBE6A7}","global_id":"6dbb60dd-f98b-443a-af32-3f18f210a70c"}},{"type":"Feature","geometry":{"type":"Polygon","coordinates":[[[-82.99961,35.96933],[-82.99764,35.9632],[-82.99949,35.9626],[-83.00312,35.96206],[-83.00295,35.96705],[-83.00277,35.9687],[-83.00156,35.96967],[-83.00011,35.9696],[-82.99961,35.96933]]]},"properties":{"fire_id":"ufid:2021-TNCNF-000142","source_collection":"history-2021","source_objectid":9253,"incident_name":"Meadow Creek","mapped_acres":1.0,"mapped_acres_source":"poly_GISAcres","gis_acres":1.0,"auto_acres":75.47590313497581,"reported_acres":213.0,"percent_contained":null,"state":"TN","state_wfigs":"US-TN","county":"Cocke","discovery_time_utc":"2021-04-20T15:37:00Z","perimeter_time_utc":"2021-04-20T20:37:00Z","perimeter_edit_time_utc":"2023-03-14T15:13:42Z","incident_modified_time_utc":"2021-06-28T15:28:36Z","containment_time_utc":"2021-04-24T15:29:00Z","control_time_utc":"2021-05-18T14:03:00Z","fire_out_time_utc":"2021-05-18T14:03:00Z","fire_cause":"Human","fire_cause_general":"Other causes","map_method":"Hand Sketch","source_dataset":"FFP","unique_fire_identifier":"2021-TNCNF-000142","irwin_id":"{A9F7333C-B37A-4DBA-9C84-0F5F6B408548}","global_id":"c5a61f1d-948f-4f65-ba9c-bc68e7891646"}},{"type":"Feature","geometry":{"type":"Polygon","coordinates":[[[-83.64767,35.69841],[-83.64782,35.6984],[-83.64768,35.69853],[-83.64767,35.69841]]]},"properties":{"fire_id":"ufid:2021-TNGSP-000163","source_collection":"history-2021","source_objectid":10336,"incident_name":"Line Springs Rd","mapped_acres":0.3,"mapped_acres_source":"poly_GISAcres","gis_acres":0.3,"auto_acres":0.0421090499427642,"reported_acres":0.25,"percent_contained":null,"state":"TN","state_wfigs":"US-TN","county":"Sevier","discovery_time_utc":"2021-04-29T18:00:00Z","perimeter_time_utc":"2022-10-19T18:58:34Z","perimeter_edit_time_utc":"2023-03-14T15:13:42Z","incident_modified_time_utc":"2021-05-10T11:08:28Z","containment_time_utc":"2021-04-30T20:06:00Z","control_time_utc":"2021-04-30T20:06:00Z","fire_out_time_utc":"2021-04-30T20:06:00Z","fire_cause":"Human","fire_cause_general":"Other causes","map_method":"Auto-generated","source_dataset":"FFP","unique_fire_identifier":"2021-TNGSP-000163","irwin_id":"{D6207251-048F-4080-BD61-3EA713446ED8}","global_id":"08a5461a-57a1-4d93-9fb3-43663645764e"}},{"type":"Feature","geometry":{"type":"Polygon","coordinates":[[[-84.13036,35.35337],[-84.12941,35.3533],[-84.12871,35.35368],[-84.12809,35.35439],[-84.12727,35.35593],[-84.12613,35.35504],[-84.12537,35.35388],[-84.12532,35.35244],[-84.12483,35.35089],[-84.12537,35.35034],[-84.1258,35.35029],[-84.12651,35.35058],[-84.12679,35.35049],[-84.12703,35.34962],[-84.12749,35.34957],[-84.12834,35.34985],[-84.12906,35.34963],[-84.12938,35.34929],[-84.12941,35.34883],[-84.12979,35.34833],[-84.12974,35.34784],[-84.13016,35.34724],[-84.13233,35.34632],[-84.1325,35.34564],[-84.13248,35.3448],[-84.13226,35.34411],[-84.13089,35.3431],[-84.13113,35.34181],[-84.13112,35.34035],[-84.13067,35.33941],[-84.12933,35.33762],[-84.12896,35.33669],[-84.12825,35.33588],[-84.12904,35.3357],[-84.12921,35.33501],[-84.13019,35.33464],[-84.13057,35.33412],[-84.13131,35.33356],[-84.13232,35.3325],[-84.13337,35.33171],[-84.13406,35.33187],[-84.13569,35.33169],[-84.13777,35.33192],[-84.13811,35.33176],[-84.13887,35.33092],[-84.13973,35.33162],[-84.14087,35.33225],[-84.14187,35.33264],[-84.14303,35.33285],[-84.14295,35.3333],[-84.14256,35.33386],[-84.14125,35.33495],[-84.141,35.33541],[-84.14063,35.33572],[-84.14048,35.3379],[-84.14006,35.33913],[-84.14007,35.34007],[-84.14092,35.34137],[-84.14172,35.34231],[-84.14163,35.34325],[-84.14175,35.34431],[-84.14185,35.34466],[-84.14229,35.34493],[-84.14222,35.34572],[-84.14238,35.34644],[-84.14231,35.34678],[-84.14177,35.3475],[-84.14167,35.34823],[-84.14253,35.3492],[-84.14074,35.35049],[-84.14006,35.35131],[-84.13987,35.35127],[-84.1397,35.351],[-84.13962,35.35002],[-84.1381,35.3494],[-84.13765,35.34939],[-84.13729,35.34954],[-84.13689,35.35016],[-84.13664,35.35031],[-84.13636,35.35017],[-84.13608,35.34973],[-84.13577,35.34968],[-84.13551,35.34991],[-84.1354,35.35025],[-84.13553,35.35093],[-84.13532,35.35138],[-84.13529,35.35179],[-84.13488,35.35227],[-84.13495,35.35272],[-84.13425,35.35311],[-84.13451,35.3536],[-84.1345,35.35405],[-84.13369,35.35464],[-84.13372,35.35482],[-84.13422,35.35508],[-84.13427,35.35537],[-84.13284,35.35578],[-84.13304,35.3566],[-84.13351,35.3568],[-84.1339,35.35733],[-84.1344,35.35764],[-84.1345,35.35799],[-84.13481,35.35837],[-84.13474,35.3589],[-84.13453,35.35859],[-84.13406,35.35832],[-84.13183,35.35803],[-84.13136,35.35775],[-84.13111,35.35738],[-84.13094,35.35676],[-84.13076,35.35385],[-84.13036,35.35337]]]},"properties":{"fire_id":"ufid:2021-TNCNF-000143","source_collection":"history-2021","source_objectid":11923,"incident_name":"Long Branch","mapped_acres":621.0999,"mapped_acres_source":"poly_GISAcres","gis_acres":621.0999,"auto_acres":621.0976744542971,"reported_acres":700.0,"percent_contained":null,"state":"TN","state_wfigs":"US-TN","county":"Monroe","discovery_time_utc":"2021-04-20T17:26:00Z","perimeter_time_utc":"2021-04-23T19:00:00Z","perimeter_edit_time_utc":"2023-03-14T15:13:42Z","incident_modified_time_utc":"2022-01-26T22:59:14Z","containment_time_utc":"2021-05-07T12:00:00Z","control_time_utc":"2021-05-10T12:00:00Z","fire_out_time_utc":"2021-05-10T20:00:00Z","fire_cause":"Human","fire_cause_general":"Other causes","map_method":"Mixed Methods","source_dataset":"FFP","unique_fire_identifier":"2021-TNCNF-000143","irwin_id":"{A579FC9F-F4AD-4655-A263-DA3406B83132}","global_id":"f46a5e28-14b7-494c-bb2b-ea1362951387"}},{"type":"Feature","geometry":{"type":"Polygon","coordinates":[[[-83.15086,35.82129],[-83.1529,35.82163],[-83.15425,35.82146],[-83.15537,35.82094],[-83.15985,35.82479],[-83.16318,35.82942],[-83.15994,35.83053],[-83.15591,35.8328],[-83.15149,35.83263],[-83.14665,35.83083],[-83.144,35.82738],[-83.14703,35.82696],[-83.14831,35.82475],[-83.14718,35.82318],[-83.14913,35.82203],[-83.15086,35.82129]]]},"properties":{"fire_id":"ufid:2021-TNCNF-000147","source_collection":"history-2021","source_objectid":12652,"incident_name":"Mill Creek","mapped_acres":1.0,"mapped_acres_source":"poly_GISAcres","gis_acres":1.0,"auto_acres":348.8733963990377,"reported_acres":657.0,"percent_contained":null,"state":"TN","state_wfigs":"US-TN","county":"Cocke","discovery_time_utc":"2021-04-22T17:48:00Z","perimeter_time_utc":"2021-04-22T22:48:00Z","perimeter_edit_time_utc":"2023-03-14T15:13:42Z","incident_modified_time_utc":"2021-06-28T15:27:42Z","containment_time_utc":"2021-05-06T20:00:00Z","control_time_utc":"2021-05-09T20:00:00Z","fire_out_time_utc":"2021-05-18T16:00:00Z","fire_cause":"Human","fire_cause_general":"Other causes","map_method":"Hand Sketch","source_dataset":"FFP","unique_fire_identifier":"2021-TNCNF-000147","irwin_id":"{D9AB8EF1-521F-4479-9A28-EA79DC1E8DAC}","global_id":"64fe2fb8-8017-47b3-a3eb-4cd9966bd8eb"}}]}
