{"type":"FeatureCollection","features":[{"type":"Feature","geometry":{"type":"Polygon","coordinates":[[[-101.9377,35.84293],[-101.93589,35.8435],[-101.93487,35.84302],[-101.93408,35.84293],[-101.93219,35.845],[-101.93046,35.84535],[-101.92738,35.84697],[-101.92638,35.8483],[-101.92475,35.84984],[-101.92395,35.85026],[-101.92503,35.84816],[-101.92517,35.84689],[-101.92496,35.84525],[-101.92526,35.84516],[-101.92547,35.84527],[-101.92618,35.84506],[-101.9266,35.84518],[-101.92672,35.8451],[-101.92543,35.84293],[-101.92521,35.84304],[-101.92473,35.8437],[-101.92358,35.83933],[-101.92197,35.84036],[-101.92147,35.84046],[-101.92045,35.84015],[-101.92003,35.84028],[-101.91973,35.8408],[-101.9193,35.84062],[-101.91857,35.84062],[-101.91797,35.84024],[-101.91872,35.83978],[-101.91966,35.8395],[-101.92124,35.83929],[-101.92181,35.83939],[-101.92331,35.83901],[-101.91947,35.8318],[-101.91874,35.83015],[-101.91866,35.82975],[-101.91942,35.82813],[-101.91953,35.82678],[-101.92228,35.82679],[-101.92579,35.82759],[-101.9277,35.82789],[-101.93283,35.82823],[-101.93305,35.82636],[-101.93329,35.82579],[-101.93372,35.82524],[-101.93394,35.82437],[-101.93389,35.82374],[-101.93314,35.82161],[-101.93309,35.81941],[-101.93313,35.8178],[-101.9334,35.81708],[-101.93347,35.81563],[-101.93358,35.81528],[-101.93401,35.81478],[-101.9367,35.8145],[-101.9374,35.81456],[-101.94049,35.81417],[-101.94171,35.81423],[-101.9455,35.8135],[-101.95026,35.81339],[-101.95232,35.81366],[-101.95445,35.81265],[-101.95517,35.81248],[-101.95631,35.81185],[-101.95909,35.8109],[-101.96071,35.81105],[-101.96212,35.81058],[-101.96297,35.8105],[-101.96339,35.81073],[-101.96406,35.81057],[-101.96459,35.81022],[-101.9655,35.8113],[-101.96397,35.81475],[-101.9593,35.8178],[-101.95723,35.82222],[-101.95364,35.82615],[-101.95075,35.8288],[-101.94751,35.8335],[-101.9452,35.83541],[-101.94255,35.83785],[-101.94124,35.83956],[-101.93858,35.84108],[-101.9377,35.84293]]]},"properties":{"fire_id":"ufid:2021-TXTXS-213078","source_collection":"history-2021","source_objectid":104,"incident_name":"Blue","mapped_acres":1920.0,"mapped_acres_source":"poly_GISAcres","gis_acres":1920.0,"auto_acres":1890.1424407101,"reported_acres":1920.0,"percent_contained":100.0,"state":"TX","state_wfigs":"US-TX","county":"Moore","discovery_time_utc":"2021-10-26T23:05:00Z","perimeter_time_utc":null,"perimeter_edit_time_utc":"2021-10-28T15:05:14Z","incident_modified_time_utc":"2021-10-29T22:35:56Z","containment_time_utc":"2021-10-28T21:46:48Z","control_time_utc":"2021-10-29T21:48:50Z","fire_out_time_utc":"2021-10-29T21:49:11Z","fire_cause":"Undetermined","fire_cause_general":"Undetermined","map_method":"GPS-Driven","source_dataset":"2021 NIFS","unique_fire_identifier":"2021-TXTXS-213078","irwin_id":"{D9B1B980-C845-4E0D-B22C-CDAA89FF02E9}","global_id":"ef1daaf8-e233-4e0d-bc17-4fb98977a66d"}},{"type":"Feature","geometry":{"type":"Polygon","coordinates":[[[-102.24983,35.65137],[-102.23917,35.65498],[-102.2307,35.65803],[-102.22696,35.65908],[-102.225,35.65932],[-102.22297,35.65923],[-102.21765,35.65828],[-102.21628,35.65814],[-102.21494,35.65822],[-102.21365,35.65851],[-102.21131,35.65955],[-102.20935,35.6609],[-102.20763,35.66248],[-102.20572,35.66468],[-102.20379,35.66619],[-102.20159,35.66752],[-102.19977,35.66832],[-102.19155,35.67119],[-102.18718,35.67293],[-102.18454,35.67378],[-102.17578,35.67635],[-102.16817,35.67775],[-102.16614,35.67827],[-102.1617,35.67974],[-102.15804,35.68123],[-102.15603,35.68162],[-102.15462,35.68163],[-102.15253,35.68124],[-102.14528,35.67876],[-102.14397,35.67828],[-102.14278,35.67764],[-102.14225,35.67726],[-102.14144,35.67633],[-102.14005,35.67592],[-102.13347,35.67513],[-102.13483,35.67076],[-102.13554,35.67035],[-102.14052,35.66864],[-102.14088,35.66861],[-102.14012,35.66771],[-102.13921,35.66565],[-102.13766,35.66537],[-102.14092,35.66378],[-102.14379,35.66413],[-102.1472,35.66372],[-102.14754,35.66188],[-102.14577,35.6596],[-102.14092,35.65974],[-102.13871,35.66057],[-102.13751,35.66035],[-102.13625,35.65987],[-102.13546,35.6585],[-102.13538,35.65813],[-102.13362,35.65633],[-102.13197,35.6552],[-102.13145,35.65463],[-102.13083,35.65423],[-102.13282,35.65292],[-102.13406,35.65173],[-102.12981,35.65283],[-102.12665,35.65471],[-102.12619,35.65519],[-102.12562,35.65543],[-102.12274,35.6573],[-102.12133,35.65649],[-102.12006,35.65775],[-102.11949,35.65877],[-102.12066,35.66001],[-102.11885,35.66209],[-102.11768,35.66483],[-102.11644,35.65898],[-102.11446,35.65807],[-102.11346,35.65777],[-102.1136,35.65711],[-102.11339,35.65344],[-102.1197,35.65162],[-102.12045,35.65151],[-102.12374,35.65043],[-102.12526,35.65029],[-102.12602,35.65046],[-102.12664,35.6504],[-102.12753,35.65017],[-102.13139,35.64989],[-102.13407,35.64931],[-102.1375,35.6488],[-102.14689,35.64805],[-102.14948,35.64829],[-102.15454,35.64962],[-102.15585,35.64973],[-102.15785,35.64962],[-102.15985,35.64924],[-102.16057,35.64879],[-102.16093,35.64805],[-102.16172,35.64826],[-102.16344,35.6481],[-102.16514,35.64821],[-102.16717,35.64796],[-102.17522,35.64633],[-102.17988,35.6451],[-102.18137,35.64494],[-102.18273,35.64445],[-102.18295,35.64389],[-102.18468,35.64189],[-102.18583,35.64166],[-102.18634,35.64174],[-102.1887,35.64153],[-102.1983,35.64213],[-102.20648,35.64209],[-102.21048,35.64302],[-102.21169,35.64294],[-102.21278,35.6425],[-102.21361,35.64172],[-102.21414,35.6407],[-102.21466,35.63903],[-102.21563,35.63753],[-102.2172,35.63645],[-102.21905,35.63573],[-102.22035,35.63538],[-102.22233,35.63506],[-102.22499,35.635],[-102.23376,35.63608],[-102.23789,35.63624],[-102.24135,35.636],[-102.25213,35.63476],[-102.25948,35.63458],[-102.26146,35.6344],[-102.26344,35.63394],[-102.26533,35.63321],[-102.27294,35.62907],[-102.27488,35.62844],[-102.27539,35.62805],[-102.27703,35.62751],[-102.27871,35.62727],[-102.27989,35.62795],[-102.28031,35.6284],[-102.28117,35.62899],[-102.28313,35.62938],[-102.28586,35.62947],[-102.28922,35.62898],[-102.29244,35.62814],[-102.29682,35.62677],[-102.29739,35.62627],[-102.29863,35.62562],[-102.30286,35.62629],[-102.30421,35.62596],[-102.30512,35.62618],[-102.30799,35.62465],[-102.30845,35.62374],[-102.3088,35.62334],[-102.31383,35.61929],[-102.31607,35.618],[-102.31855,35.61717],[-102.3205,35.61688],[-102.32516,35.61685],[-102.32846,35.61659],[-102.33428,35.61561],[-102.34043,35.6142],[-102.34229,35.61373],[-102.34603,35.61251],[-102.34851,35.61193],[-102.35906,35.61057],[-102.36018,35.6108],[-102.36064,35.61107],[-102.36127,35.61182],[-102.3614,35.61275],[-102.3613,35.61323],[-102.36078,35.61417],[-102.35924,35.61589],[-102.35439,35.62034],[-102.352,35.62223],[-102.34987,35.62356],[-102.34754,35.62468],[-102.34564,35.62531],[-102.33468,35.62822],[-102.32758,35.62996],[-102.32443,35.631],[-102.322,35.632],[-102.31964,35.63315],[-102.31189,35.63783],[-102.30965,35.63901],[-102.30787,35.63977],[-102.30595,35.64025],[-102.30461,35.64035],[-102.30326,35.64025],[-102.30194,35.63997],[-102.30009,35.63928],[-102.29841,35.63835],[-102.29697,35.63719],[-102.29524,35.63545],[-102.2942,35.6347],[-102.2936,35.63442],[-102.29228,35.63412],[-102.29162,35.63408],[-102.29027,35.63425],[-102.28904,35.6347],[-102.28748,35.63568],[-102.28617,35.63686],[-102.28344,35.63969],[-102.28085,35.64204],[-102.27938,35.64313],[-102.27826,35.64372],[-102.27705,35.64415],[-102.27508,35.64453],[-102.26954,35.6449],[-102.26749,35.64531],[-102.26429,35.64642],[-102.25634,35.64961],[-102.25376,35.6504],[-102.24983,35.65137]]]},"properties":{"fire_id":"ufid:2021-TXTXS-213575","source_collection":"history-2021","source_objectid":3933,"incident_name":"Parker Creek","mapped_acres":11071.1701187662,"mapped_acres_source":"poly_GISAcres","gis_acres":11071.1701187662,"auto_acres":11071.1327633287,"reported_acres":11067.0,"percent_contained":100.0,"state":"TX","state_wfigs":"US-TX","county":"Oldham","discovery_time_utc":"2021-12-15T17:13:30Z","perimeter_time_utc":null,"perimeter_edit_time_utc":"2021-12-17T16:22:29Z","incident_modified_time_utc":"2021-12-19T15:48:34Z","containment_time_utc":"2021-12-17T23:27:53Z","control_time_utc":"2021-12-18T23:00:00Z","fire_out_time_utc":"2021-12-18T23:01:54Z","fire_cause":"Human","fire_cause_general":"Utilities","map_method":"GPS-Flight","source_dataset":"2021 NIFS","unique_fire_identifier":"2021-TXTXS-213575","irwin_id":"{4B7E8BE5-E47E-4EF0-AE34-46FFB8BA7795}","global_id":"75164587-785f-4cd0-b485-7a796b8fb3f9"}},{"type":"Feature","geometry":{"type":"Polygon","coordinates":[[[-101.52038,35.5548],[-101.51949,35.55471],[-101.51926,35.55496],[-101.51852,35.55534],[-101.51824,35.55515],[-101.51801,35.55466],[-101.51761,35.55458],[-101.51588,35.55598],[-101.51507,35.55514],[-101.51517,35.55468],[-101.51557,35.5544],[-101.51571,35.5541],[-101.51753,35.55409],[-101.51821,35.55321],[-101.51912,35.55299],[-101.52059,35.55323],[-101.52126,35.55358],[-101.52097,35.5543],[-101.52038,35.5548]]]},"properties":{"fire_id":"ufid:2021-TXTXS-LAP021019","source_collection":"history-2021","source_objectid":6632,"incident_name":"Sanford Ranch","mapped_acres":21.790296536769496,"mapped_acres_source":"poly_Acres_AutoCalc_fallback","gis_acres":null,"auto_acres":21.790296536769496,"reported_acres":22.0,"percent_contained":null,"state":"TX","state_wfigs":"US-TX","county":"Carson","discovery_time_utc":"2021-04-06T21:03:47Z","perimeter_time_utc":null,"perimeter_edit_time_utc":"2023-03-14T15:13:42Z","incident_modified_time_utc":"2021-04-07T14:14:04Z","containment_time_utc":"2021-04-06T21:39:00Z","control_time_utc":"2021-04-06T22:56:00Z","fire_out_time_utc":"2021-04-07T14:12:58Z","fire_cause":"Human","fire_cause_general":"Power generation / transmission / distribution","map_method":"GPS-Walked/Driven","source_dataset":"FFP","unique_fire_identifier":"2021-TXTXS-LAP021019","irwin_id":"{C56DC9B8-1737-4CAB-B306-4BFA142DCDF0}","global_id":"9db1fa29-1d1b-4ff5-9f41-e8084064148a"}},{"type":"Feature","geometry":{"type":"Polygon","coordinates":[[[-101.81856,35.67367],[-101.81782,35.67294],[-101.81743,35.67233],[-101.81644,35.67163],[-101.81691,35.67138],[-101.81677,35.6709],[-101.8169,35.67057],[-101.8174,35.67092],[-101.8171,35.66906],[-101.81551,35.66916],[-101.81494,35.66856],[-101.8145,35.66835],[-101.81457,35.66762],[-101.81436,35.66721],[-101.81449,35.66701],[-101.81484,35.66693],[-101.8164,35.66717],[-101.81677,35.66701],[-101.81644,35.66524],[-101.81638,35.66438],[-101.81648,35.66422],[-101.81616,35.66313],[-101.81627,35.66249],[-101.81577,35.66019],[-101.8165,35.66004],[-101.8174,35.66024],[-101.81722,35.65944],[-101.81757,35.65924],[-101.81729,35.65875],[-101.81702,35.6567],[-101.81719,35.65519],[-101.81741,35.65457],[-101.81769,35.64847],[-101.81754,35.6485],[-101.81771,35.64715],[-101.81757,35.6463],[-101.81763,35.64599],[-101.81782,35.64582],[-101.8176,35.64556],[-101.81736,35.64425],[-101.81573,35.64316],[-101.81464,35.6416],[-101.81429,35.64062],[-101.81414,35.63953],[-101.81421,35.63918],[-101.81398,35.63882],[-101.817,35.63767],[-101.81745,35.63854],[-101.81784,35.63858],[-101.81834,35.6401],[-101.81835,35.6407],[-101.81875,35.6412],[-101.81884,35.64187],[-101.8191,35.64213],[-101.81889,35.64294],[-101.81943,35.64311],[-101.81931,35.64349],[-101.81938,35.64433],[-101.8189,35.64486],[-101.81965,35.64855],[-101.82105,35.64985],[-101.82089,35.65021],[-101.82091,35.65056],[-101.82153,35.65241],[-101.82295,35.65365],[-101.82403,35.65504],[-101.82429,35.65641],[-101.82673,35.66017],[-101.82719,35.66024],[-101.82727,35.66015],[-101.82678,35.65958],[-101.82663,35.65919],[-101.82668,35.65887],[-101.82739,35.65866],[-101.82751,35.65893],[-101.82743,35.65933],[-101.82819,35.65984],[-101.82882,35.66008],[-101.83509,35.65993],[-101.83626,35.65974],[-101.83734,35.65984],[-101.83862,35.66038],[-101.84349,35.66044],[-101.84371,35.66009],[-101.8437,35.65946],[-101.84337,35.65843],[-101.84347,35.6569],[-101.84308,35.65612],[-101.84334,35.65541],[-101.84316,35.65456],[-101.84341,35.65411],[-101.84304,35.65344],[-101.84306,35.65302],[-101.84335,35.653],[-101.8433,35.65241],[-101.84353,35.65175],[-101.84344,35.65115],[-101.84385,35.65063],[-101.84389,35.64989],[-101.84339,35.6495],[-101.84205,35.64725],[-101.84172,35.64644],[-101.8424,35.6458],[-101.84245,35.64534],[-101.84226,35.64515],[-101.84243,35.64482],[-101.8428,35.64472],[-101.84291,35.64454],[-101.84255,35.64436],[-101.84149,35.64471],[-101.84074,35.64433],[-101.84074,35.64421],[-101.84104,35.64422],[-101.84114,35.64408],[-101.84095,35.64392],[-101.8411,35.64369],[-101.8407,35.64132],[-101.84085,35.64082],[-101.83981,35.64071],[-101.83957,35.64107],[-101.83887,35.64066],[-101.83833,35.63925],[-101.83812,35.63911],[-101.83741,35.6391],[-101.83683,35.63844],[-101.83728,35.63803],[-101.83697,35.63788],[-101.83657,35.63724],[-101.8361,35.63596],[-101.83557,35.63525],[-101.83524,35.63398],[-101.83498,35.63365],[-101.83501,35.63286],[-101.83544,35.63263],[-101.83567,35.6327],[-101.83606,35.63231],[-101.83542,35.63089],[-101.84647,35.62682],[-101.85215,35.62565],[-101.86117,35.62545],[-101.86245,35.62594],[-101.86445,35.62521],[-101.8694,35.62576],[-101.87527,35.62673],[-101.87221,35.62983],[-101.87099,35.63229],[-101.86927,35.63452],[-101.86731,35.63607],[-101.86419,35.63715],[-101.86443,35.63781],[-101.86417,35.63898],[-101.8641,35.64019],[-101.86123,35.65137],[-101.86323,35.65181],[-101.86328,35.65301],[-101.86344,35.65346],[-101.86515,35.65268],[-101.86711,35.65289],[-101.86704,35.65347],[-101.86739,35.65385],[-101.86762,35.65384],[-101.86856,35.65334],[-101.87038,35.65368],[-101.8705,35.65492],[-101.87043,35.65846],[-101.87081,35.65826],[-101.87177,35.65826],[-101.87195,35.65815],[-101.87217,35.65552],[-101.87238,35.65483],[-101.87251,35.6559],[-101.87302,35.65621],[-101.87375,35.65643],[-101.87425,35.65639],[-101.87606,35.65667],[-101.87604,35.6568],[-101.87488,35.65769],[-101.87425,35.65835],[-101.8722,35.65961],[-101.872,35.66001],[-101.87154,35.65983],[-101.8705,35.66043],[-101.8705,35.66116],[-101.87003,35.66182],[-101.86911,35.66216],[-101.8685,35.66224],[-101.86843,35.6625],[-101.86775,35.66272],[-101.86753,35.66271],[-101.86766,35.66247],[-101.86739,35.66209],[-101.86598,35.66247],[-101.8658,35.66263],[-101.86586,35.66285],[-101.86561,35.66301],[-101.86494,35.6642],[-101.86387,35.66503],[-101.85914,35.66666],[-101.85798,35.66737],[-101.85764,35.66743],[-101.85615,35.66698],[-101.85585,35.66706],[-101.85583,35.66749],[-101.85552,35.66768],[-101.85376,35.66744],[-101.84809,35.66733],[-101.84289,35.66812],[-101.84263,35.66806],[-101.84186,35.66725],[-101.84137,35.66735],[-101.84109,35.66668],[-101.84066,35.66651],[-101.84033,35.66697],[-101.84009,35.66694],[-101.84006,35.66676],[-101.83986,35.6672],[-101.83959,35.66699],[-101.83903,35.66778],[-101.83841,35.66809],[-101.83806,35.668],[-101.83763,35.66858],[-101.837,35.66891],[-101.83659,35.66897],[-101.83619,35.66886],[-101.836,35.66846],[-101.83616,35.66815],[-101.83579,35.66779],[-101.8354,35.6678],[-101.83438,35.6682],[-101.83376,35.66826],[-101.83365,35.66811],[-101.83382,35.66782],[-101.83358,35.66734],[-101.83338,35.66725],[-101.83313,35.66742],[-101.83267,35.66878],[-101.83242,35.66903],[-101.83226,35.66997],[-101.83143,35.6704],[-101.83086,35.67037],[-101.83082,35.67054],[-101.83043,35.67072],[-101.83015,35.67106],[-101.82962,35.6712],[-101.82926,35.67112],[-101.829,35.67125],[-101.82844,35.67117],[-101.82863,35.67148],[-101.82855,35.67162],[-101.82867,35.67198],[-101.8284,35.67211],[-101.82816,35.67189],[-101.82795,35.67193],[-101.82755,35.67228],[-101.82748,35.67251],[-101.82716,35.67264],[-101.82712,35.6732],[-101.8267,35.67345],[-101.82638,35.67321],[-101.82644,35.67304],[-101.82603,35.67285],[-101.82592,35.67236],[-101.82606,35.67194],[-101.82639,35.67182],[-101.82663,35.67126],[-101.82635,35.67085],[-101.82605,35.67069],[-101.82558,35.6708],[-101.82563,35.67126],[-101.82511,35.67127],[-101.82496,35.67111],[-101.82507,35.67099],[-101.8232,35.67132],[-101.82308,35.67146],[-101.82302,35.67204],[-101.82289,35.67172],[-101.82234,35.67194],[-101.82249,35.67248],[-101.82184,35.67294],[-101.82141,35.67288],[-101.82122,35.67303],[-101.81973,35.67322],[-101.81856,35.67367]]]},"properties":{"fire_id":"ufid:2021-TXTXS-213510","source_collection":"history-2021","source_objectid":14164,"incident_name":"Twin Creek","mapped_acres":3607.02571134712,"mapped_acres_source":"poly_GISAcres","gis_acres":3607.02571134712,"auto_acres":3607.00966156442,"reported_acres":3607.0,"percent_contained":100.0,"state":"TX","state_wfigs":"US-TX","county":"Moore","discovery_time_utc":"2021-12-10T20:57:11Z","perimeter_time_utc":null,"perimeter_edit_time_utc":"2021-12-12T23:22:49Z","incident_modified_time_utc":"2021-12-18T15:33:48Z","containment_time_utc":"2021-12-13T23:31:42Z","control_time_utc":"2021-12-17T23:00:00Z","fire_out_time_utc":"2021-12-17T23:01:00Z","fire_cause":"Human","fire_cause_general":"Utilities","map_method":"GPS-Walked/Driven","source_dataset":"2021 NIFS","unique_fire_identifier":"2021-TXTXS-213510","irwin_id":"{E4456E9A-05C5-4BD6-A59B-73BE8CCF203D}","global_id":"e00148a7-2990-4108-8efa-4ca0af184abe"}},{"type":"Feature","geometry":{"type":"Polygon","coordinates":[[[-101.28458,35.58887],[-101.27652,35.59006],[-101.26593,35.59075],[-101.26007,35.59142],[-101.25827,35.59198],[-101.25661,35.59277],[-101.25169,35.59587],[-101.24958,35.59702],[-101.24279,35.60018],[-101.24052,35.6011],[-101.23931,35.60142],[-101.23741,35.60165],[-101.23406,35.60146],[-101.22994,35.60164],[-101.22948,35.60186],[-101.22755,35.60158],[-101.2269,35.60172],[-101.22649,35.60199],[-101.22614,35.60251],[-101.22496,35.60294],[-101.22551,35.60365],[-101.22581,35.60433],[-101.22576,35.60508],[-101.2263,35.6053],[-101.22645,35.60579],[-101.22635,35.60608],[-101.22585,35.60647],[-101.22564,35.60761],[-101.22462,35.60839],[-101.22454,35.60858],[-101.22466,35.60869],[-101.22404,35.60905],[-101.22394,35.60932],[-101.22403,35.6099],[-101.22421,35.61003],[-101.22434,35.61041],[-101.22359,35.6107],[-101.22379,35.61113],[-101.22441,35.61177],[-101.22502,35.61213],[-101.22507,35.61239],[-101.22461,35.61317],[-101.22382,35.61306],[-101.22395,35.61437],[-101.22459,35.61534],[-101.22445,35.6156],[-101.22385,35.61589],[-101.22371,35.61615],[-101.22379,35.61645],[-101.22367,35.61653],[-101.22229,35.61653],[-101.22171,35.61629],[-101.22171,35.61583],[-101.22199,35.61501],[-101.22179,35.6136],[-101.22119,35.61262],[-101.22069,35.61227],[-101.21976,35.61071],[-101.21928,35.61113],[-101.21856,35.61121],[-101.21756,35.61119],[-101.21529,35.61063],[-101.21479,35.61088],[-101.21369,35.61092],[-101.2126,35.6106],[-101.21191,35.61099],[-101.21166,35.61099],[-101.21118,35.61076],[-101.21109,35.61014],[-101.21092,35.6099],[-101.2101,35.60965],[-101.20904,35.60888],[-101.20282,35.60874],[-101.20247,35.60807],[-101.20053,35.60825],[-101.19994,35.60809],[-101.19946,35.60902],[-101.19931,35.60908],[-101.19884,35.60881],[-101.19881,35.60847],[-101.19859,35.60813],[-101.19876,35.6079],[-101.19772,35.60735],[-101.1974,35.60767],[-101.19658,35.60802],[-101.19507,35.60844],[-101.19492,35.608],[-101.19513,35.60619],[-101.19445,35.60589],[-101.19319,35.60681],[-101.19274,35.60659],[-101.19214,35.60665],[-101.1924,35.60636],[-101.19212,35.60594],[-101.19185,35.60601],[-101.19074,35.6058],[-101.1887,35.60591],[-101.18747,35.60635],[-101.18716,35.60598],[-101.18657,35.60602],[-101.18611,35.60621],[-101.18505,35.60707],[-101.18487,35.60758],[-101.18484,35.6099],[-101.18432,35.60997],[-101.18406,35.60935],[-101.18292,35.61007],[-101.18118,35.61019],[-101.1808,35.61045],[-101.18031,35.61019],[-101.17949,35.61027],[-101.17889,35.61007],[-101.17868,35.60955],[-101.17859,35.60823],[-101.17828,35.60679],[-101.17831,35.60643],[-101.17858,35.60591],[-101.17845,35.60589],[-101.17808,35.60621],[-101.17627,35.6062],[-101.176,35.6061],[-101.17572,35.60658],[-101.17589,35.60763],[-101.17616,35.60781],[-101.17676,35.60791],[-101.17684,35.6085],[-101.17617,35.60889],[-101.17535,35.60912],[-101.17502,35.60986],[-101.17463,35.61028],[-101.17302,35.6113],[-101.17251,35.6115],[-101.17251,35.611],[-101.1724,35.61085],[-101.17177,35.61101],[-101.17161,35.61135],[-101.17118,35.61155],[-101.17115,35.61172],[-101.16887,35.61241],[-101.16788,35.61197],[-101.16718,35.61194],[-101.16689,35.61168],[-101.16613,35.61147],[-101.16576,35.61103],[-101.16342,35.61113],[-101.16329,35.61154],[-101.1634,35.61178],[-101.16324,35.61203],[-101.16179,35.61262],[-101.16117,35.61247],[-101.16076,35.61212],[-101.16027,35.61218],[-101.15956,35.61247],[-101.15917,35.61281],[-101.15903,35.61365],[-101.1589,35.61377],[-101.15832,35.6138],[-101.15568,35.61348],[-101.15532,35.61317],[-101.155,35.6135],[-101.15384,35.61362],[-101.15018,35.61325],[-101.14837,35.61269],[-101.14681,35.61238],[-101.14323,35.61235],[-101.14256,35.61212],[-101.14167,35.61155],[-101.1405,35.61135],[-101.14014,35.61111],[-101.13936,35.61094],[-101.13778,35.61125],[-101.13778,35.61029],[-101.13799,35.60962],[-101.13796,35.60881],[-101.13958,35.60792],[-101.13997,35.60758],[-101.14098,35.60596],[-101.1399,35.60571],[-101.1372,35.60571],[-101.13676,35.6056],[-101.13719,35.60573],[-101.13705,35.60608],[-101.13626,35.6067],[-101.13607,35.6072],[-101.13514,35.60777],[-101.1343,35.60779],[-101.13316,35.60758],[-101.12865,35.60841],[-101.12734,35.60848],[-101.12605,35.60872],[-101.12398,35.60967],[-101.12411,35.60993],[-101.12383,35.61026],[-101.12241,35.61089],[-101.12187,35.61097],[-101.12105,35.61159],[-101.12014,35.61264],[-101.11961,35.61253],[-101.11921,35.61227],[-101.11491,35.61709],[-101.11383,35.61809],[-101.1137,35.61953],[-101.11314,35.62041],[-101.1132,35.62154],[-101.11286,35.62326],[-101.11228,35.62474],[-101.11215,35.62472],[-101.11211,35.62453],[-101.11181,35.62444],[-101.11139,35.62362],[-101.11117,35.62365],[-101.11071,35.62305],[-101.10964,35.62244],[-101.10942,35.62311],[-101.10867,35.62314],[-101.10846,35.62328],[-101.10846,35.62384],[-101.1081,35.62426],[-101.10814,35.62559],[-101.10722,35.62747],[-101.10663,35.62815],[-101.1055,35.62904],[-101.10422,35.62972],[-101.10401,35.62944],[-101.10455,35.62803],[-101.10394,35.62824],[-101.1036,35.62809],[-101.10314,35.62813],[-101.10278,35.62833],[-101.10206,35.628],[-101.1016,35.62758],[-101.10129,35.62701],[-101.10117,35.62647],[-101.10169,35.62493],[-101.10164,35.6239],[-101.09929,35.62159],[-101.09828,35.62354],[-101.09742,35.62469],[-101.09718,35.62522],[-101.09516,35.62498],[-101.0942,35.6265],[-101.09362,35.62695],[-101.09354,35.62669],[-101.09393,35.62507],[-101.09319,35.62421],[-101.09247,35.6242],[-101.09194,35.62395],[-101.09129,35.62409],[-101.09091,35.62402],[-101.09066,35.62423],[-101.09061,35.62448],[-101.09015,35.62453],[-101.08954,35.62491],[-101.08839,35.62536],[-101.08832,35.62515],[-101.08763,35.62494],[-101.08679,35.62501],[-101.08614,35.62486],[-101.08465,35.62401],[-101.08423,35.62356],[-101.08389,35.62347],[-101.08353,35.6236],[-101.08294,35.62486],[-101.08198,35.62585],[-101.0812,35.62626],[-101.08006,35.62629],[-101.07956,35.62684],[-101.07906,35.62709],[-101.07759,35.62712],[-101.07633,35.62692],[-101.07534,35.62696],[-101.07352,35.62674],[-101.07119,35.62625],[-101.06826,35.62782],[-101.06726,35.62877],[-101.06685,35.629],[-101.06566,35.62895],[-101.0644,35.62909],[-101.06388,35.62898],[-101.06331,35.62933],[-101.0633,35.62959],[-101.06317,35.62965],[-101.0623,35.62941],[-101.06196,35.62908],[-101.06087,35.62895],[-101.06067,35.62918],[-101.05999,35.62939],[-101.05978,35.62977],[-101.05919,35.63018],[-101.0587,35.63034],[-101.05805,35.63032],[-101.05771,35.63022],[-101.05767,35.62996],[-101.05714,35.62996],[-101.05579,35.63078],[-101.05533,35.63062],[-101.05525,35.63079],[-101.05507,35.6308],[-101.05471,35.63058],[-101.05436,35.63082],[-101.05386,35.63079],[-101.05372,35.63089],[-101.05379,35.63115],[-101.05366,35.63121],[-101.05336,35.63095],[-101.05277,35.63077],[-101.05285,35.63021],[-101.05157,35.62987],[-101.05143,35.62952],[-101.05118,35.62934],[-101.0499,35.62978],[-101.04779,35.63008],[-101.04714,35.6303],[-101.0459,35.63013],[-101.04526,35.62937],[-101.0446,35.62897],[-101.04485,35.6286],[-101.04461,35.62824],[-101.04434,35.62725],[-101.04331,35.62536],[-101.04226,35.62594],[-101.04168,35.62667],[-101.04172,35.62695],[-101.04128,35.62711],[-101.04048,35.6278],[-101.03979,35.62768],[-101.03923,35.62722],[-101.03852,35.62699],[-101.03596,35.62741],[-101.03592,35.6277],[-101.03561,35.62806],[-101.0334,35.62896],[-101.0325,35.62922],[-101.03199,35.62886],[-101.03123,35.62925],[-101.03087,35.6297],[-101.02851,35.63052],[-101.0277,35.63059],[-101.02658,35.63105],[-101.0254,35.63109],[-101.0252,35.63136],[-101.02482,35.6315],[-101.02385,35.63164],[-101.02205,35.63223],[-101.0213,35.63232],[-101.02069,35.63263],[-101.02082,35.63315],[-101.02038,35.63295],[-101.01974,35.63292],[-101.01918,35.63324],[-101.01902,35.63299],[-101.01854,35.63285],[-101.018,35.63317],[-101.01785,35.63281],[-101.01699,35.63279],[-101.015,35.63336],[-101.0118,35.6336],[-101.00771,35.63448],[-101.00764,35.62757],[-101.00485,35.62762],[-101.00468,35.62742],[-101.00471,35.62425],[-101.0049,35.62399],[-101.00546,35.62383],[-101.00554,35.6221],[-101.00761,35.62113],[-101.00771,35.62083],[-101.00763,35.62049],[-101.00717,35.62038],[-101.00574,35.6204],[-101.00521,35.62053],[-101.00339,35.62043],[-100.99012,35.62058],[-100.99008,35.61945],[-100.99248,35.61933],[-100.99297,35.61956],[-100.99596,35.61812],[-100.99739,35.61799],[-100.99967,35.61694],[-100.99974,35.61678],[-100.99929,35.61661],[-100.99931,35.6165],[-101.00664,35.61313],[-101.00976,35.61269],[-101.01458,35.61299],[-101.01488,35.61288],[-101.01535,35.61307],[-101.01622,35.61315],[-101.01737,35.61298],[-101.01776,35.61272],[-101.01804,35.61188],[-101.01733,35.61197],[-101.01674,35.61146],[-101.01622,35.6115],[-101.01485,35.61121],[-101.01465,35.61081],[-101.01315,35.61069],[-101.01233,35.61033],[-101.0119,35.6098],[-101.01199,35.60892],[-101.0113,35.60861],[-101.01105,35.60823],[-101.01061,35.60819],[-101.00969,35.6084],[-101.00766,35.60821],[-101.00449,35.60829],[-101.00006,35.60851],[-100.99664,35.60892],[-100.996,35.60867],[-100.99516,35.60893],[-100.99403,35.60888],[-100.99404,35.60718],[-100.99623,35.60652],[-101.0004,35.60592],[-101.00347,35.60576],[-101.00565,35.60527],[-101.00768,35.60506],[-101.00897,35.60498],[-101.01139,35.60511],[-101.01192,35.60489],[-101.01501,35.6048],[-101.01535,35.60457],[-101.01624,35.60462],[-101.018,35.60427],[-101.01996,35.60451],[-101.02054,35.604],[-101.02081,35.60323],[-101.02167,35.6028],[-101.02238,35.60255],[-101.02603,35.60191],[-101.02549,35.60118],[-101.02482,35.60079],[-101.02419,35.60076],[-101.02373,35.60046],[-101.02302,35.60032],[-101.02156,35.60045],[-101.02083,35.60024],[-101.02033,35.60026],[-101.01999,35.59968],[-101.01966,35.59951],[-101.01868,35.5994],[-101.01862,35.59916],[-101.01841,35.59906],[-101.01672,35.59952],[-101.01566,35.59959],[-101.01499,35.59946],[-101.01419,35.59907],[-101.01338,35.59922],[-101.01248,35.59909],[-101.01215,35.59871],[-101.01261,35.59792],[-101.01021,35.59628],[-101.01097,35.59489],[-101.01369,35.59616],[-101.01469,35.59638],[-101.01633,35.59714],[-101.01675,35.59694],[-101.01711,35.59657],[-101.01692,35.59559],[-101.01645,35.59536],[-101.01722,35.59526],[-101.01736,35.59513],[-101.01734,35.59489],[-101.02147,35.5962],[-101.02326,35.59729],[-101.02345,35.59716],[-101.02411,35.59718],[-101.02548,35.59759],[-101.02645,35.59818],[-101.02765,35.59828],[-101.02888,35.59736],[-101.03042,35.59736],[-101.03226,35.59766],[-101.03341,35.59766],[-101.03459,35.59843],[-101.03465,35.59868],[-101.03504,35.59876],[-101.0361,35.59805],[-101.03632,35.59761],[-101.03692,35.59749],[-101.03716,35.59772],[-101.03783,35.59758],[-101.03812,35.59727],[-101.03795,35.59691],[-101.03798,35.59656],[-101.03838,35.59408],[-101.03865,35.59333],[-101.03906,35.59402],[-101.03938,35.59603],[-101.03957,35.59656],[-101.03918,35.59686],[-101.03917,35.59743],[-101.03888,35.59861],[-101.04095,35.59916],[-101.04137,35.5994],[-101.04339,35.59981],[-101.04359,35.5995],[-101.04393,35.59936],[-101.04512,35.59924],[-101.04575,35.59937],[-101.04903,35.5992],[-101.0532,35.59941],[-101.05656,35.60007],[-101.05805,35.59941],[-101.0598,35.59905],[-101.06087,35.59933],[-101.06103,35.59976],[-101.06169,35.60002],[-101.06218,35.6006],[-101.06268,35.60095],[-101.06278,35.60134],[-101.06245,35.60196],[-101.06249,35.60235],[-101.06496,35.60273],[-101.06501,35.60297],[-101.06569,35.60331],[-101.06584,35.60351],[-101.0658,35.60379],[-101.06632,35.60386],[-101.06651,35.60403],[-101.0666,35.6044],[-101.06736,35.60473],[-101.0681,35.60416],[-101.07036,35.60397],[-101.07108,35.60417],[-101.07647,35.60446],[-101.08033,35.60414],[-101.08294,35.60433],[-101.08353,35.60423],[-101.08808,35.60511],[-101.09138,35.60504],[-101.09186,35.60493],[-101.09228,35.60425],[-101.09247,35.60423],[-101.09515,35.60453],[-101.09678,35.60449],[-101.09778,35.60424],[-101.1002,35.60446],[-101.1018,35.60485],[-101.10344,35.6049],[-101.10731,35.6049],[-101.10842,35.60478],[-101.10996,35.60441],[-101.11187,35.60476],[-101.11302,35.60469],[-101.11335,35.60485],[-101.11404,35.60489],[-101.1155,35.60469],[-101.11595,35.60402],[-101.11807,35.60371],[-101.11947,35.60271],[-101.12138,35.6022],[-101.1222,35.60236],[-101.12238,35.60315],[-101.12323,35.60311],[-101.12324,35.60362],[-101.1235,35.60403],[-101.1234,35.60453],[-101.12372,35.60465],[-101.12428,35.60415],[-101.12584,35.60407],[-101.12576,35.60358],[-101.12587,35.60241],[-101.12572,35.60183],[-101.12439,35.59935],[-101.12367,35.59838],[-101.12395,35.59711],[-101.12401,35.5962],[-101.12371,35.59456],[-101.12401,35.59373],[-101.12466,35.59265],[-101.12555,35.59265],[-101.13267,35.59423],[-101.13618,35.59584],[-101.13676,35.59594],[-101.13731,35.59574],[-101.13808,35.5952],[-101.14002,35.59512],[-101.14099,35.5945],[-101.14379,35.59385],[-101.14568,35.59277],[-101.14688,35.59174],[-101.14815,35.59103],[-101.15024,35.58953],[-101.15224,35.58844],[-101.1533,35.58817],[-101.15584,35.5881],[-101.15772,35.58687],[-101.15954,35.58671],[-101.1602,35.58638],[-101.16183,35.58637],[-101.16277,35.58653],[-101.16286,35.58623],[-101.16379,35.58621],[-101.1641,35.58605],[-101.16565,35.58588],[-101.16875,35.58571],[-101.17307,35.58574],[-101.17507,35.58534],[-101.17606,35.58547],[-101.17644,35.58513],[-101.17716,35.58496],[-101.17979,35.5847],[-101.18175,35.58435],[-101.18275,35.58441],[-101.18383,35.58394],[-101.18405,35.58365],[-101.18397,35.58351],[-101.18414,35.5835],[-101.18265,35.58343],[-101.18249,35.58302],[-101.18215,35.58325],[-101.18054,35.5833],[-101.1798,35.58364],[-101.17978,35.58336],[-101.17927,35.58372],[-101.17801,35.58411],[-101.17628,35.58411],[-101.17528,35.58214],[-101.17596,35.58244],[-101.17985,35.58219],[-101.18107,35.58221],[-101.18164,35.5824],[-101.18254,35.58195],[-101.18502,35.58197],[-101.18501,35.57882],[-101.21284,35.56523],[-101.21587,35.56537],[-101.21702,35.56568],[-101.21924,35.56653],[-101.22112,35.56681],[-101.24503,35.5666],[-101.25608,35.56432],[-101.2654,35.56359],[-101.28139,35.56137],[-101.28839,35.56103],[-101.29825,35.56006],[-101.30522,35.55987],[-101.31556,35.55892],[-101.32033,35.55872],[-101.32137,35.55835],[-101.32274,35.55709],[-101.32314,35.55692],[-101.32749,35.5559],[-101.32849,35.55581],[-101.32998,35.55594],[-101.33217,35.55692],[-101.33309,35.55718],[-101.33457,35.55727],[-101.33795,35.55699],[-101.33888,35.55703],[-101.34349,35.55821],[-101.34536,35.55882],[-101.34759,35.55983],[-101.34795,35.56104],[-101.34928,35.56022],[-101.34947,35.55963],[-101.35,35.55894],[-101.35862,35.55688],[-101.36,35.5555],[-101.36119,35.55461],[-101.36209,35.55419],[-101.36358,35.55377],[-101.36564,35.55358],[-101.37077,35.55354],[-101.39035,35.55243],[-101.39053,35.55303],[-101.39038,35.55339],[-101.38965,35.55404],[-101.38276,35.55787],[-101.38037,35.55888],[-101.37597,35.56036],[-101.37417,35.5611],[-101.36414,35.56634],[-101.35386,35.57067],[-101.35295,35.57134],[-101.3523,35.57217],[-101.35142,35.57441],[-101.35087,35.5752],[-101.35007,35.57584],[-101.34858,35.57653],[-101.34745,35.57676],[-101.34685,35.57675],[-101.3457,35.57649],[-101.34467,35.57596],[-101.34234,35.57403],[-101.34109,35.57362],[-101.34042,35.57358],[-101.33977,35.57364],[-101.33856,35.57403],[-101.33552,35.57596],[-101.33437,35.57646],[-101.33249,35.57681],[-101.3312,35.57673],[-101.32997,35.57641],[-101.32887,35.57585],[-101.32795,35.5751],[-101.32672,35.57376],[-101.32567,35.57304],[-101.3244,35.57262],[-101.32242,35.57258],[-101.32119,35.5729],[-101.31959,35.57379],[-101.31638,35.57706],[-101.31509,35.57821],[-101.31364,35.57927],[-101.31195,35.58016],[-101.30553,35.58214],[-101.2969,35.58549],[-101.29316,35.58678],[-101.28927,35.58788],[-101.28458,35.58887]]]},"properties":{"fire_id":"ufid:2021-TXTXS-213583","source_collection":"history-2021","source_objectid":14165,"incident_name":"North 207","mapped_acres":23309.9366250761,"mapped_acres_source":"poly_GISAcres","gis_acres":23309.9366250761,"auto_acres":23309.7798387216,"reported_acres":23810.0,"percent_contained":100.0,"state":"TX","state_wfigs":"US-TX","county":"Carson","discovery_time_utc":"2021-12-15T19:13:34Z","perimeter_time_utc":null,"perimeter_edit_time_utc":"2021-12-17T15:55:41Z","incident_modified_time_utc":"2021-12-20T22:41:30Z","containment_time_utc":"2021-12-19T22:23:09Z","control_time_utc":"2021-12-20T22:40:32Z","fire_out_time_utc":"2021-12-20T22:40:41Z","fire_cause":"Undetermined","fire_cause_general":"Undetermined","map_method":"GPS-Flight","source_dataset":"2021 NIFS","unique_fire_identifier":"2021-TXTXS-213583","irwin_id":"{936F6D80-8E6D-43E2-B024-908F39FA2AFC}","global_id":"ce53e0f4-60bc-4ddd-a7b1-24d4665e9f88"}},{"type":"Feature","geometry":{"type":"Polygon","coordinates":[[[-101.31325,35.64248],[-101.31324,35.64218],[-101.31382,35.64145],[-101.31394,35.6411],[-101.31341,35.64034],[-101.31319,35.64047],[-101.31303,35.64101],[-101.31311,35.64137],[-101.31292,35.64164],[-101.31286,35.64218],[-101.31265,35.64232],[-101.3122,35.64201],[-101.31169,35.64188],[-101.311,35.6414],[-101.31058,35.64129],[-101.3104,35.64101],[-101.30994,35.64083],[-101.31004,35.64057],[-101.3113,35.63949],[-101.31175,35.63934],[-101.31214,35.63898],[-101.31256,35.63891],[-101.3131,35.63931],[-101.31358,35.63913],[-101.31304,35.63882],[-101.31271,35.63843],[-101.31256,35.63788],[-101.31211,35.63817],[-101.31167,35.63778],[-101.31167,35.63661],[-101.31186,35.63625],[-101.31162,35.63603],[-101.31108,35.63428],[-101.31129,35.63374],[-101.31175,35.63356],[-101.31186,35.63338],[-101.31161,35.63266],[-101.31163,35.63203],[-101.31256,35.63137],[-101.31328,35.63113],[-101.31404,35.63041],[-101.31459,35.63038],[-101.31525,35.63009],[-101.3156,35.6297],[-101.31543,35.62954],[-101.31516,35.62958],[-101.31504,35.62943],[-101.31523,35.6279],[-101.31602,35.62687],[-101.31939,35.62361],[-101.32055,35.62281],[-101.32192,35.62161],[-101.32226,35.62152],[-101.32289,35.62076],[-101.32379,35.62039],[-101.32415,35.62038],[-101.32445,35.62068],[-101.32445,35.62125],[-101.32433,35.62152],[-101.32451,35.62206],[-101.3247,35.62222],[-101.32461,35.62251],[-101.32469,35.62291],[-101.32437,35.62332],[-101.32482,35.62395],[-101.32488,35.62538],[-101.32576,35.62772],[-101.32571,35.62808],[-101.32604,35.6297],[-101.32542,35.63178],[-101.32486,35.63239],[-101.32424,35.63269],[-101.32343,35.63344],[-101.32319,35.63338],[-101.32308,35.63309],[-101.3219,35.6324],[-101.32134,35.63228],[-101.32085,35.63377],[-101.32012,35.63419],[-101.32005,35.63607],[-101.31983,35.63689],[-101.31921,35.63838],[-101.31833,35.63968],[-101.31778,35.64021],[-101.31759,35.64024],[-101.31732,35.64021],[-101.31727,35.63994],[-101.31699,35.63967],[-101.31639,35.63976],[-101.31631,35.64004],[-101.31676,35.64038],[-101.31619,35.64092],[-101.31613,35.64119],[-101.31581,35.64155],[-101.31545,35.64164],[-101.31571,35.64101],[-101.31552,35.6407],[-101.31512,35.6411],[-101.31517,35.64164],[-101.31494,35.64205],[-101.31465,35.64215],[-101.3146,35.64185],[-101.31436,35.64177],[-101.314,35.64238],[-101.31325,35.64248]]]},"properties":{"fire_id":"ufid:2021-TXTXS-021040","source_collection":"history-2021","source_objectid":15858,"incident_name":"Three fires east","mapped_acres":419.98,"mapped_acres_source":"poly_GISAcres","gis_acres":419.98,"auto_acres":419.97764988017866,"reported_acres":382.0,"percent_contained":null,"state":"TX","state_wfigs":"US-TX","county":"Carson","discovery_time_utc":"2021-10-19T19:00:54Z","perimeter_time_utc":"2023-08-10T22:36:03Z","perimeter_edit_time_utc":"2023-08-10T22:36:04Z","incident_modified_time_utc":"2021-10-29T17:18:05Z","containment_time_utc":"2021-10-19T21:00:00Z","control_time_utc":"2021-10-19T21:30:00Z","fire_out_time_utc":null,"fire_cause":"Undetermined","fire_cause_general":"Undetermined","map_method":"Hand Sketch","source_dataset":"FFP","unique_fire_identifier":"2021-TXTXS-021040","irwin_id":"{AC9448E4-E20B-4285-A628-22D91BCEDDFA}","global_id":"2f8575d9-4676-4824-b61e-2dae28fa2edd"}},{"type":"Feature","geometry":{"type":"Polygon","coordinates":[[[-101.52961,35.85832],[-101.52989,35.85838],[-101.53006,35.85872],[-101.52997,35.86122],[-101.52936,35.86166],[-101.52935,35.8619],[-101.52806,35.86255],[-101.52764,35.86257],[-101.52693,35.86314],[-101.52649,35.86204],[-101.5272,35.85998],[-101.52699,35.85956],[-101.52687,35.85854],[-101.52894,35.85849],[-101.52961,35.85832]]]},"properties":{"fire_id":"ufid:2021-TXTXS-LAP021021","source_collection":"history-2021","source_objectid":15865,"incident_name":"Herring 1","mapped_acres":29.765228078579653,"mapped_acres_source":"poly_Acres_AutoCalc_fallback","gis_acres":null,"auto_acres":29.765228078579653,"reported_acres":30.0,"percent_contained":null,"state":"TX","state_wfigs":"US-TX","county":"Hutchinson","discovery_time_utc":"2021-04-09T18:33:06Z","perimeter_time_utc":"2023-04-06T19:41:15Z","perimeter_edit_time_utc":"2023-04-06T19:41:16Z","incident_modified_time_utc":"2021-04-12T15:18:00Z","containment_time_utc":"2021-04-09T19:15:00Z","control_time_utc":"2021-04-09T21:30:00Z","fire_out_time_utc":"2021-04-11T15:00:00Z","fire_cause":"Human","fire_cause_general":"Power generation / transmission / distribution","map_method":"Mixed Methods","source_dataset":"FFP","unique_fire_identifier":"2021-TXTXS-LAP021021","irwin_id":"{0138DC63-7034-469C-BB11-7FE7D6DB133B}","global_id":"df6910a2-3cee-4318-8b77-a4aa1f8e8e0b"}}]}
