{"type":"FeatureCollection","features":[{"type":"Feature","geometry":{"type":"Polygon","coordinates":[[[-98.97295,32.0001],[-98.97268,31.99901],[-98.97233,31.99844],[-98.97216,31.99744],[-98.97241,31.99646],[-98.97163,31.99509],[-98.97107,31.99269],[-98.97131,31.99057],[-98.97122,31.98943],[-98.97176,31.9888],[-98.97183,31.98852],[-98.97173,31.9878],[-98.97129,31.98695],[-98.97149,31.98622],[-98.97098,31.98371],[-98.97122,31.98289],[-98.97138,31.98328],[-98.97193,31.98373],[-98.97243,31.98457],[-98.9728,31.98597],[-98.97309,31.98628],[-98.97345,31.98642],[-98.97516,31.98646],[-98.97525,31.98623],[-98.9751,31.98547],[-98.97525,31.98439],[-98.97497,31.9838],[-98.97494,31.98296],[-98.97411,31.98255],[-98.97353,31.9816],[-98.97269,31.98071],[-98.9725,31.98033],[-98.97257,31.98003],[-98.97313,31.9797],[-98.97476,31.97962],[-98.97509,31.9791],[-98.97481,31.97793],[-98.97451,31.97736],[-98.97396,31.97695],[-98.9729,31.97684],[-98.97269,31.97664],[-98.97279,31.97608],[-98.97269,31.97521],[-98.97299,31.97428],[-98.97355,31.97386],[-98.97423,31.97381],[-98.9735,31.97208],[-98.97324,31.97089],[-98.97314,31.96914],[-98.97332,31.96843],[-98.97324,31.96806],[-98.9734,31.96581],[-98.97356,31.96556],[-98.9744,31.96513],[-98.97492,31.96467],[-98.97558,31.96439],[-98.97553,31.96368],[-98.97524,31.96286],[-98.97557,31.96224],[-98.97491,31.96189],[-98.97485,31.96163],[-98.97498,31.96139],[-98.97554,31.96103],[-98.977,31.9595],[-98.97874,31.95812],[-98.98008,31.95774],[-98.98137,31.95759],[-98.98171,31.95777],[-98.98212,31.95841],[-98.98199,31.95948],[-98.98207,31.96015],[-98.98166,31.96062],[-98.98146,31.96238],[-98.98088,31.96407],[-98.98082,31.96546],[-98.98017,31.9662],[-98.98012,31.96669],[-98.98038,31.96755],[-98.98058,31.96772],[-98.98086,31.96764],[-98.98114,31.96704],[-98.98173,31.96702],[-98.98204,31.96718],[-98.982,31.9676],[-98.98151,31.96833],[-98.98154,31.96879],[-98.98204,31.96878],[-98.98257,31.96815],[-98.98371,31.96835],[-98.9836,31.96901],[-98.98264,31.97059],[-98.98274,31.97073],[-98.98324,31.97064],[-98.98329,31.9711],[-98.98257,31.97417],[-98.98213,31.97477],[-98.98219,31.97525],[-98.98195,31.97708],[-98.98166,31.97792],[-98.98135,31.97827],[-98.98024,31.97839],[-98.97975,31.97906],[-98.97976,31.98015],[-98.98014,31.98122],[-98.97989,31.98276],[-98.9799,31.98483],[-98.98003,31.98593],[-98.97943,31.98699],[-98.97958,31.98774],[-98.9794,31.9885],[-98.97868,31.98957],[-98.97889,31.99029],[-98.97886,31.99121],[-98.97829,31.99209],[-98.97681,31.99212],[-98.97609,31.99191],[-98.97591,31.99201],[-98.97558,31.99411],[-98.97561,31.99527],[-98.97582,31.9961],[-98.97582,31.9973],[-98.97554,31.99844],[-98.97537,31.99869],[-98.97463,31.99903],[-98.97448,31.99991],[-98.97385,32.00096],[-98.97345,32.00083],[-98.97295,32.0001]]]},"properties":{"fire_id":"ufid:2021-TXTXS-210091","source_collection":"history-2021","source_objectid":128,"incident_name":"May","mapped_acres":500.0,"mapped_acres_source":"poly_GISAcres","gis_acres":500.0,"auto_acres":716.995967114375,"reported_acres":780.0,"percent_contained":100.0,"state":"TX","state_wfigs":"US-TX","county":"Brown","discovery_time_utc":"2021-01-14T18:47:38Z","perimeter_time_utc":"2021-01-15T01:47:38Z","perimeter_edit_time_utc":"2021-05-04T22:51:24Z","incident_modified_time_utc":"2021-04-13T17:48:27Z","containment_time_utc":"2021-01-15T01:36:53Z","control_time_utc":"2021-01-19T23:00:00Z","fire_out_time_utc":"2021-01-19T23:01:00Z","fire_cause":"Human","fire_cause_general":"Debris/Open Burning","map_method":"Image Interpretation","source_dataset":"2021 NIFS","unique_fire_identifier":"2021-TXTXS-210091","irwin_id":"{99F0A4DF-6D2A-4BD8-9C80-7A75307A48EF}","global_id":"756a0ced-6b7e-4e92-82b9-dbdac0a424c2"}},{"type":"Feature","geometry":{"type":"MultiPolygon","coordinates":[[[[-99.45065,32.976],[-99.44706,32.97613],[-99.44447,32.97651],[-99.44389,32.97814],[-99.44154,32.98055],[-99.44067,32.98191],[-99.43938,32.9831],[-99.43966,32.9838],[-99.43917,32.98423],[-99.43724,32.98181],[-99.43719,32.98048],[-99.43691,32.97942],[-99.43719,32.97823],[-99.43659,32.97715],[-99.43687,32.97551],[-99.43638,32.97499],[-99.438,32.96917],[-99.43781,32.96782],[-99.43674,32.96703],[-99.4357,32.96666],[-99.43171,32.97535],[-99.43226,32.98022],[-99.43313,32.98573],[-99.43502,32.98639],[-99.43527,32.98691],[-99.43809,32.98881],[-99.44865,32.99088],[-99.45051,32.9918],[-99.45252,32.99207],[-99.45292,32.99344],[-99.45384,32.99447],[-99.45656,32.99715],[-99.45808,32.99777],[-99.45928,32.99772],[-99.46047,32.99794],[-99.46126,32.99745],[-99.4624,32.99702],[-99.46357,32.99798],[-99.46312,32.99973],[-99.46108,33.00116],[-99.46043,33.0024],[-99.45664,33.00413],[-99.45843,33.00476],[-99.45649,33.00765],[-99.45489,33.0087],[-99.45423,33.01022],[-99.45264,33.01042],[-99.4497,33.01392],[-99.44614,33.01781],[-99.44495,33.01771],[-99.44414,33.02147],[-99.44786,33.02489],[-99.44817,33.02721],[-99.44961,33.02615],[-99.45046,33.02766],[-99.45029,33.02908],[-99.44805,33.02821],[-99.44665,33.02883],[-99.44605,33.0308],[-99.44755,33.03418],[-99.44854,33.04057],[-99.44915,33.04363],[-99.44695,33.04379],[-99.44558,33.04625],[-99.44057,33.0468],[-99.43434,33.04677],[-99.43328,33.04871],[-99.43289,33.05316],[-99.43153,33.05352],[-99.43165,33.05111],[-99.43097,33.05006],[-99.43099,33.04896],[-99.43023,33.04894],[-99.42332,33.05485],[-99.41967,33.04739],[-99.41582,33.04871],[-99.41576,33.04442],[-99.41417,33.04648],[-99.4127,33.04629],[-99.40408,33.03824],[-99.39963,33.03675],[-99.39735,33.0336],[-99.39445,33.02872],[-99.39316,33.02938],[-99.3919,33.02839],[-99.38967,33.02623],[-99.38859,33.02333],[-99.38791,33.01869],[-99.38907,33.01549],[-99.38852,33.01466],[-99.38788,33.01443],[-99.38676,33.01494],[-99.38569,33.01456],[-99.38682,33.01359],[-99.38608,33.00922],[-99.38557,33.00512],[-99.38683,33.00315],[-99.39156,33.00229],[-99.39288,33.00091],[-99.39288,32.99985],[-99.3908,32.99944],[-99.38962,32.99978],[-99.38869,32.99857],[-99.38978,32.99601],[-99.38965,32.99492],[-99.38845,32.99468],[-99.3866,32.99528],[-99.38457,32.99481],[-99.38297,32.99367],[-99.38183,32.99217],[-99.38106,32.98869],[-99.37936,32.98858],[-99.37581,32.98483],[-99.37176,32.98152],[-99.37187,32.98067],[-99.37126,32.97962],[-99.37103,32.97857],[-99.37224,32.97846],[-99.37074,32.97692],[-99.36977,32.97664],[-99.36894,32.97537],[-99.36697,32.97026],[-99.36225,32.9651],[-99.36285,32.9639],[-99.36067,32.96349],[-99.35695,32.9562],[-99.35771,32.95449],[-99.35565,32.9537],[-99.35161,32.94867],[-99.35114,32.94705],[-99.35188,32.94617],[-99.35187,32.94391],[-99.34843,32.94369],[-99.34667,32.94275],[-99.34564,32.94089],[-99.34469,32.93853],[-99.34485,32.92752],[-99.34626,32.9273],[-99.34742,32.92523],[-99.35004,32.92202],[-99.35615,32.92059],[-99.36026,32.91983],[-99.36563,32.91936],[-99.36727,32.92242],[-99.36607,32.92274],[-99.36452,32.92755],[-99.36679,32.92749],[-99.36779,32.92802],[-99.36985,32.92771],[-99.37099,32.92669],[-99.37252,32.92654],[-99.3724,32.92887],[-99.37186,32.9311],[-99.3762,32.9302],[-99.37684,32.92659],[-99.37718,32.92603],[-99.38067,32.92847],[-99.38357,32.92753],[-99.38603,32.92987],[-99.38727,32.93321],[-99.39255,32.93905],[-99.39511,32.94322],[-99.40774,32.94371],[-99.4098,32.94634],[-99.41063,32.94622],[-99.41053,32.94726],[-99.40937,32.94832],[-99.40713,32.94836],[-99.40652,32.95245],[-99.40781,32.95226],[-99.40783,32.95533],[-99.40752,32.95783],[-99.40818,32.95994],[-99.4098,32.96025],[-99.41001,32.96334],[-99.41241,32.96374],[-99.41412,32.96551],[-99.41598,32.96708],[-99.41604,32.9656],[-99.41634,32.96436],[-99.41804,32.96361],[-99.41873,32.96218],[-99.4188,32.96087],[-99.41824,32.95874],[-99.4185,32.95692],[-99.4198,32.95545],[-99.42142,32.95072],[-99.42655,32.9483],[-99.42623,32.9507],[-99.42664,32.95273],[-99.42859,32.95422],[-99.43017,32.95467],[-99.43165,32.95422],[-99.43412,32.95634],[-99.43576,32.95618],[-99.43785,32.95883],[-99.43901,32.96197],[-99.44125,32.96485],[-99.44385,32.96858],[-99.44653,32.97096],[-99.45039,32.97402],[-99.45065,32.976]]],[[[-99.45136,32.97417],[-99.45143,32.97458],[-99.45065,32.976],[-99.45136,32.97417]]]]},"properties":{"fire_id":"ufid:2021-TXTXS-213123","source_collection":"history-2021","source_objectid":307,"incident_name":"Buck","mapped_acres":18656.8447354112,"mapped_acres_source":"poly_GISAcres","gis_acres":18656.8447354112,"auto_acres":18656.781758745,"reported_acres":18688.0,"percent_contained":100.0,"state":"TX","state_wfigs":"US-TX","county":"Throckmorton","discovery_time_utc":"2021-10-28T21:51:48Z","perimeter_time_utc":null,"perimeter_edit_time_utc":"2021-11-02T02:45:56Z","incident_modified_time_utc":"2021-11-05T21:24:26Z","containment_time_utc":"2021-11-03T15:17:55Z","control_time_utc":"2021-11-05T21:23:52Z","fire_out_time_utc":null,"fire_cause":"Natural","fire_cause_general":"Lightning","map_method":"GPS-Driven","source_dataset":"2021 NIFS","unique_fire_identifier":"2021-TXTXS-213123","irwin_id":"{B0D42B80-6313-46F3-9CEB-BC0CB21F8303}","global_id":"8d418c1e-b554-47ec-9a01-49a1febf7bf1"}},{"type":"Feature","geometry":{"type":"MultiPolygon","coordinates":[[[[-98.35501,33.84708],[-98.35447,33.84762],[-98.35367,33.848],[-98.35341,33.84799],[-98.35351,33.84739],[-98.35318,33.84718],[-98.35247,33.84737],[-98.35211,33.84724],[-98.3513,33.84765],[-98.3503,33.84795],[-98.3472,33.84835],[-98.34717,33.84979],[-98.3469,33.85048],[-98.3469,33.85102],[-98.34657,33.85173],[-98.34408,33.85272],[-98.34407,33.85304],[-98.34372,33.85321],[-98.3437,33.85334],[-98.34237,33.85373],[-98.34202,33.85364],[-98.34083,33.85429],[-98.33943,33.85478],[-98.33839,33.85551],[-98.33711,33.85617],[-98.33684,33.85653],[-98.33622,33.8567],[-98.33554,33.85728],[-98.33475,33.85732],[-98.33417,33.8576],[-98.33245,33.85794],[-98.33222,33.85788],[-98.33221,33.85806],[-98.33136,33.85819],[-98.33091,33.85853],[-98.32969,33.85905],[-98.32836,33.85928],[-98.32757,33.85961],[-98.32723,33.85957],[-98.3269,33.86009],[-98.31295,33.85467],[-98.3114,33.8561],[-98.3114,33.85862],[-98.31127,33.85897],[-98.31034,33.85949],[-98.30936,33.85974],[-98.30912,33.85969],[-98.30825,33.86035],[-98.30735,33.86053],[-98.30166,33.86047],[-98.30135,33.86094],[-98.30051,33.86114],[-98.30048,33.86181],[-98.29993,33.86225],[-98.29965,33.8628],[-98.29879,33.86332],[-98.29857,33.8639],[-98.29712,33.86456],[-98.2964,33.86466],[-98.29578,33.86495],[-98.29412,33.86506],[-98.29308,33.86545],[-98.29211,33.86552],[-98.29124,33.86584],[-98.29024,33.8659],[-98.28875,33.86635],[-98.28834,33.86626],[-98.28712,33.86712],[-98.28663,33.86721],[-98.28645,33.86737],[-98.28608,33.86721],[-98.28553,33.86732],[-98.28465,33.86784],[-98.28309,33.86827],[-98.28287,33.86873],[-98.28261,33.86891],[-98.28199,33.86903],[-98.28151,33.86893],[-98.27875,33.86913],[-98.27734,33.87022],[-98.27286,33.87018],[-98.27185,33.87002],[-98.26962,33.86999],[-98.26931,33.86984],[-98.26903,33.86936],[-98.26912,33.86872],[-98.26934,33.86865],[-98.2696,33.86817],[-98.27019,33.86806],[-98.27019,33.86779],[-98.27083,33.86773],[-98.27175,33.86787],[-98.27468,33.86746],[-98.27517,33.86773],[-98.27635,33.86719],[-98.27531,33.86729],[-98.27372,33.86722],[-98.27323,33.86705],[-98.27107,33.86704],[-98.27067,33.86724],[-98.26976,33.86725],[-98.26964,33.86708],[-98.26928,33.86709],[-98.26902,33.86581],[-98.27338,33.86553],[-98.27973,33.86483],[-98.28163,33.86497],[-98.2818,33.8653],[-98.28237,33.86539],[-98.28256,33.86504],[-98.28331,33.86463],[-98.28376,33.86422],[-98.28285,33.8645],[-98.282687,33.864425],[-98.28264,33.86421],[-98.28256,33.86441],[-98.28228,33.86455],[-98.28132,33.86454],[-98.28144,33.86435],[-98.28221,33.86414],[-98.28234,33.86394],[-98.28224,33.86365],[-98.28252,33.86347],[-98.28553,33.8635],[-98.28612,33.86318],[-98.28665,33.86308],[-98.28708,33.86253],[-98.2876,33.86235],[-98.28879,33.86145],[-98.28977,33.86107],[-98.29194,33.86056],[-98.29211,33.86042],[-98.29206,33.86023],[-98.29239,33.86033],[-98.29327,33.86027],[-98.29377,33.85962],[-98.29369,33.85902],[-98.2927,33.85809],[-98.29223,33.85816],[-98.2917,33.85866],[-98.29098,33.85902],[-98.29092,33.85921],[-98.29103,33.85939],[-98.29052,33.85937],[-98.29007,33.85957],[-98.28984,33.85946],[-98.28976,33.85911],[-98.28945,33.85935],[-98.28931,33.85928],[-98.28912,33.85831],[-98.2889,33.85814],[-98.2879,33.85874],[-98.28764,33.85855],[-98.28714,33.85844],[-98.28589,33.85856],[-98.28951,33.8571],[-98.29012,33.85641],[-98.29023,33.85582],[-98.28977,33.85544],[-98.28925,33.85526],[-98.28893,33.85491],[-98.2888,33.85454],[-98.28912,33.85407],[-98.28931,33.85402],[-98.28932,33.85305],[-98.29045,33.85337],[-98.29055,33.85391],[-98.29105,33.85395],[-98.29123,33.8536],[-98.292,33.85381],[-98.29241,33.85433],[-98.29241,33.85466],[-98.29478,33.85465],[-98.29486,33.85296],[-98.29507,33.85253],[-98.29569,33.85195],[-98.29518,33.85173],[-98.29575,33.85124],[-98.29625,33.85107],[-98.29716,33.85106],[-98.2976,33.85066],[-98.29923,33.85013],[-98.30062,33.84993],[-98.30117,33.84997],[-98.30175,33.84977],[-98.30213,33.84979],[-98.30328,33.85033],[-98.29427,33.84523],[-98.29475,33.84458],[-98.2947,33.83514],[-98.29487,33.83475],[-98.2971,33.83453],[-98.29768,33.83428],[-98.29818,33.83381],[-98.29887,33.83359],[-98.2998,33.83355],[-98.30128,33.83372],[-98.30167,33.83416],[-98.30256,33.83422],[-98.30283,33.83416],[-98.30258,33.83409],[-98.30264,33.83388],[-98.3025,33.83365],[-98.30273,33.83341],[-98.30302,33.83354],[-98.30294,33.83384],[-98.30305,33.83415],[-98.30371,33.83422],[-98.30428,33.83411],[-98.30545,33.8336],[-98.31028,33.83275],[-98.31066,33.83296],[-98.3108,33.83327],[-98.31107,33.83328],[-98.31128,33.83352],[-98.31261,33.83369],[-98.31208,33.83303],[-98.31168,33.832],[-98.31172,33.83179],[-98.31193,33.8317],[-98.31205,33.83123],[-98.31198,33.8307],[-98.3117,33.83024],[-98.31167,33.82941],[-98.31179,33.82934],[-98.31197,33.83003],[-98.31234,33.83024],[-98.31408,33.83021],[-98.31418,33.83041],[-98.31416,33.83116],[-98.31445,33.83152],[-98.31458,33.83211],[-98.31422,33.83258],[-98.314,33.83267],[-98.31414,33.83359],[-98.31366,33.83386],[-98.31385,33.83407],[-98.31423,33.83399],[-98.31427,33.83434],[-98.31452,33.83429],[-98.31492,33.83449],[-98.31525,33.83432],[-98.31503,33.83358],[-98.31559,33.8334],[-98.3155,33.83281],[-98.31842,33.83226],[-98.31882,33.83246],[-98.31886,33.83285],[-98.31967,33.83276],[-98.32002,33.83288],[-98.32032,33.83267],[-98.32358,33.8323],[-98.32591,33.83164],[-98.32707,33.83117],[-98.32747,33.83119],[-98.32778,33.83149],[-98.32811,33.83145],[-98.32854,33.83175],[-98.32897,33.83232],[-98.33047,33.83187],[-98.34781,33.83189],[-98.34908,33.83119],[-98.35073,33.83093],[-98.35246,33.8315],[-98.35366,33.83148],[-98.35542,33.83202],[-98.36512,33.83205],[-98.3662,33.82967],[-98.36628,33.82913],[-98.36733,33.82612],[-98.36763,33.82618],[-98.36793,33.826],[-98.36809,33.82555],[-98.36842,33.82542],[-98.368,33.82491],[-98.36774,33.82495],[-98.36658,33.82417],[-98.36826,33.82258],[-98.36948,33.82184],[-98.36982,33.82126],[-98.3695,33.82095],[-98.3688,33.82079],[-98.36897,33.82066],[-98.36827,33.82025],[-98.368,33.82043],[-98.36791,33.82022],[-98.36754,33.82016],[-98.36712,33.81976],[-98.36683,33.81907],[-98.36687,33.81828],[-98.36581,33.81591],[-98.36592,33.81569],[-98.36821,33.8157],[-98.36808,33.81549],[-98.36694,33.8154],[-98.36696,33.81505],[-98.36673,33.81433],[-98.36657,33.81425],[-98.3667,33.81392],[-98.36634,33.8133],[-98.36682,33.81303],[-98.36705,33.81253],[-98.3662,33.81167],[-98.36575,33.81086],[-98.36572,33.81056],[-98.36554,33.81055],[-98.36557,33.8074],[-98.36638,33.80757],[-98.36654,33.80811],[-98.36699,33.80808],[-98.36776,33.80874],[-98.3684,33.80992],[-98.36846,33.8106],[-98.36887,33.8109],[-98.36897,33.81141],[-98.36866,33.81133],[-98.36862,33.81223],[-98.3687,33.81274],[-98.36904,33.81298],[-98.36928,33.81418],[-98.36911,33.81464],[-98.369,33.81576],[-98.37021,33.81581],[-98.37015,33.8165],[-98.37041,33.81713],[-98.37044,33.81758],[-98.37137,33.81928],[-98.37127,33.82022],[-98.37142,33.82039],[-98.3714,33.82065],[-98.37106,33.82091],[-98.37082,33.82075],[-98.37062,33.82082],[-98.37039,33.8211],[-98.37051,33.82124],[-98.37553,33.82074],[-98.37631,33.82079],[-98.37637,33.82066],[-98.37649,33.82122],[-98.37672,33.82135],[-98.37855,33.821],[-98.38625,33.82048],[-98.38662,33.82175],[-98.38718,33.82176],[-98.38775,33.82157],[-98.38838,33.82185],[-98.38877,33.82176],[-98.38987,33.8221],[-98.39971,33.82217],[-98.40018,33.82211],[-98.40034,33.8209],[-98.40083,33.82068],[-98.40173,33.82063],[-98.40237,33.82085],[-98.40319,33.82051],[-98.40384,33.8204],[-98.41013,33.82046],[-98.41005,33.82088],[-98.40951,33.82159],[-98.40979,33.82229],[-98.4097,33.82319],[-98.40947,33.82346],[-98.40885,33.82352],[-98.40812,33.82259],[-98.4076,33.82221],[-98.40736,33.82221],[-98.40684,33.82282],[-98.40493,33.82404],[-98.40502,33.82464],[-98.40468,33.82541],[-98.40347,33.82657],[-98.40266,33.82702],[-98.40254,33.82735],[-98.40232,33.82729],[-98.40181,33.82758],[-98.4003,33.82784],[-98.39916,33.82827],[-98.39772,33.82912],[-98.39683,33.83023],[-98.39574,33.83073],[-98.39425,33.8317],[-98.39069,33.83287],[-98.39047,33.83324],[-98.39026,33.83325],[-98.3901,33.83289],[-98.38997,33.83288],[-98.3894,33.83355],[-98.3895,33.83384],[-98.38899,33.83472],[-98.38794,33.83514],[-98.38566,33.83575],[-98.38542,33.836],[-98.3843,33.83644],[-98.38387,33.83705],[-98.38338,33.83737],[-98.38328,33.83771],[-98.38258,33.83778],[-98.38266,33.83827],[-98.38246,33.83866],[-98.38236,33.83938],[-98.38057,33.83976],[-98.37907,33.83961],[-98.37757,33.84026],[-98.37622,33.84042],[-98.37616,33.84062],[-98.37644,33.84157],[-98.37558,33.84212],[-98.37446,33.84251],[-98.37377,33.84293],[-98.37359,33.84308],[-98.37344,33.84352],[-98.37301,33.84332],[-98.37303,33.84302],[-98.3733,33.84281],[-98.37253,33.84266],[-98.37253,33.84249],[-98.37276,33.84224],[-98.37262,33.84176],[-98.37237,33.84154],[-98.37263,33.8412],[-98.3731,33.84112],[-98.37347,33.84124],[-98.37397,33.841],[-98.37311,33.84041],[-98.37309,33.84014],[-98.37281,33.84006],[-98.37218,33.84044],[-98.37172,33.84062],[-98.37153,33.84057],[-98.37097,33.84104],[-98.36996,33.84148],[-98.36955,33.842],[-98.36713,33.84256],[-98.36655,33.84309],[-98.36576,33.84326],[-98.36563,33.84353],[-98.36523,33.84356],[-98.36483,33.84395],[-98.36087,33.84438],[-98.36017,33.84477],[-98.35915,33.84499],[-98.35881,33.84552],[-98.35851,33.84547],[-98.35769,33.84573],[-98.35618,33.84594],[-98.35551,33.84631],[-98.35501,33.84708]]],[[[-98.282687,33.864425],[-98.28269,33.86444],[-98.28259,33.86438],[-98.282687,33.864425]]]]},"properties":{"fire_id":"ufid:2021-TXTXS-213514","source_collection":"history-2021","source_objectid":980,"incident_name":"Arrowhead","mapped_acres":5905.09552509444,"mapped_acres_source":"poly_GISAcres","gis_acres":5905.09552509444,"auto_acres":5905.08313927174,"reported_acres":6300.0,"percent_contained":100.0,"state":"TX","state_wfigs":"US-TX","county":"Clay","discovery_time_utc":"2021-12-10T22:06:30Z","perimeter_time_utc":null,"perimeter_edit_time_utc":"2021-12-12T00:14:34Z","incident_modified_time_utc":"2021-12-16T21:21:02Z","containment_time_utc":"2021-12-12T23:52:47Z","control_time_utc":"2021-12-15T21:00:00Z","fire_out_time_utc":"2021-12-15T21:01:00Z","fire_cause":"Human","fire_cause_general":"Debris/Open Burning","map_method":"GPS-Driven","source_dataset":"2021 NIFS","unique_fire_identifier":"2021-TXTXS-213514","irwin_id":"{00295066-E99F-4F61-8FDC-DC06A97F7B52}","global_id":"c7176ac1-bf53-44d3-a5d7-12606fb78d2d"}},{"type":"Feature","geometry":{"type":"Polygon","coordinates":[[[-95.15673,33.25027],[-95.15619,33.25016],[-95.15573,33.24979],[-95.15451,33.24833],[-95.15444,33.24796],[-95.15484,33.24725],[-95.1549,33.24674],[-95.15521,33.24656],[-95.15479,33.24581],[-95.15362,33.24514],[-95.15137,33.2444],[-95.15105,33.24444],[-95.15108,33.24476],[-95.15168,33.24531],[-95.15198,33.2466],[-95.1514,33.248],[-95.15082,33.24834],[-95.15072,33.24806],[-95.15077,33.24689],[-95.15039,33.24601],[-95.14975,33.24552],[-95.14938,33.245],[-95.14913,33.24405],[-95.14933,33.24355],[-95.15018,33.2432],[-95.15015,33.24284],[-95.14991,33.24277],[-95.149,33.24341],[-95.14819,33.24363],[-95.14767,33.24342],[-95.14684,33.24272],[-95.14672,33.24202],[-95.14726,33.24054],[-95.14734,33.23992],[-95.14757,33.23959],[-95.14869,33.23879],[-95.14974,33.23865],[-95.15008,33.23877],[-95.15052,33.23933],[-95.15084,33.2395],[-95.15113,33.23869],[-95.15147,33.23854],[-95.15319,33.23871],[-95.15579,33.23926],[-95.15845,33.23877],[-95.16005,33.23896],[-95.16167,33.24019],[-95.16214,33.24077],[-95.16259,33.24091],[-95.16344,33.2408],[-95.16379,33.24091],[-95.16422,33.24199],[-95.16514,33.24264],[-95.16536,33.24331],[-95.16566,33.24363],[-95.16696,33.2437],[-95.16771,33.24474],[-95.16894,33.24473],[-95.16999,33.24505],[-95.17022,33.2454],[-95.17039,33.24613],[-95.1723,33.24618],[-95.17349,33.24599],[-95.17519,33.24644],[-95.17587,33.24686],[-95.17626,33.2467],[-95.17653,33.24674],[-95.17684,33.24724],[-95.17702,33.24798],[-95.17764,33.24801],[-95.17797,33.24835],[-95.17796,33.24861],[-95.17754,33.24889],[-95.17758,33.24931],[-95.17803,33.24954],[-95.17883,33.2495],[-95.17904,33.24981],[-95.17892,33.2504],[-95.17845,33.25089],[-95.17729,33.25104],[-95.17707,33.25117],[-95.17705,33.25141],[-95.17769,33.25177],[-95.17785,33.25199],[-95.17764,33.25239],[-95.17721,33.25259],[-95.17645,33.25256],[-95.17537,33.25192],[-95.17424,33.25171],[-95.17404,33.25181],[-95.17407,33.25241],[-95.1739,33.25263],[-95.17231,33.25257],[-95.17109,33.25189],[-95.16986,33.25175],[-95.16972,33.25158],[-95.16967,33.25113],[-95.1695,33.25105],[-95.1691,33.25147],[-95.16909,33.25178],[-95.16927,33.2522],[-95.16915,33.25237],[-95.1685,33.25251],[-95.16747,33.25226],[-95.16689,33.2525],[-95.16684,33.25296],[-95.16725,33.25373],[-95.16716,33.25454],[-95.16699,33.25467],[-95.1664,33.25445],[-95.16616,33.25422],[-95.16604,33.25372],[-95.16612,33.25298],[-95.16555,33.25296],[-95.16519,33.25245],[-95.16432,33.25195],[-95.16383,33.25218],[-95.16356,33.25215],[-95.16249,33.25104],[-95.16223,33.25104],[-95.16199,33.25123],[-95.16247,33.25189],[-95.16224,33.2528],[-95.1621,33.25296],[-95.16168,33.25302],[-95.16149,33.25294],[-95.16129,33.25261],[-95.15915,33.25179],[-95.15673,33.25027]]]},"properties":{"fire_id":"ufid:2021-TXTXS-210385","source_collection":"history-2021","source_objectid":1039,"incident_name":"Daphne Prairie","mapped_acres":100.0,"mapped_acres_source":"poly_GISAcres","gis_acres":100.0,"auto_acres":651.257690962587,"reported_acres":747.0,"percent_contained":100.0,"state":"TX","state_wfigs":"US-TX","county":"Franklin","discovery_time_utc":"2021-02-05T22:18:00Z","perimeter_time_utc":"2021-02-06T05:18:00Z","perimeter_edit_time_utc":"2021-05-04T22:51:36Z","incident_modified_time_utc":"2021-04-13T18:07:44Z","containment_time_utc":"2021-02-07T17:45:00Z","control_time_utc":"2021-02-07T17:47:00Z","fire_out_time_utc":"2021-02-09T15:44:34Z","fire_cause":"Human","fire_cause_general":"Debris/Open Burning","map_method":"Image Interpretation","source_dataset":"2021 NIFS","unique_fire_identifier":"2021-TXTXS-210385","irwin_id":"{33485A2B-768C-4EBB-8035-0444AB347C0F}","global_id":"3c7a7b2b-bbd2-461c-bcf3-d47b8cd051d5"}},{"type":"Feature","geometry":{"type":"Polygon","coordinates":[[[-99.90934,34.18888],[-99.90928,34.18915],[-99.90856,34.18968],[-99.90828,34.18968],[-99.90826,34.18935],[-99.90876,34.18889],[-99.90977,34.18661],[-99.91057,34.18545],[-99.91148,34.18552],[-99.91186,34.18537],[-99.91265,34.18392],[-99.91307,34.18261],[-99.91493,34.18144],[-99.91593,34.18125],[-99.91799,34.18017],[-99.91944,34.17796],[-99.9204,34.17764],[-99.92153,34.17746],[-99.92154,34.17722],[-99.92171,34.17706],[-99.92227,34.17682],[-99.92227,34.17658],[-99.92252,34.17613],[-99.92224,34.17594],[-99.92226,34.17559],[-99.92273,34.17531],[-99.92277,34.17516],[-99.92329,34.17502],[-99.92344,34.1748],[-99.92409,34.17476],[-99.92433,34.17456],[-99.92481,34.17444],[-99.92502,34.17409],[-99.92487,34.17396],[-99.92441,34.17418],[-99.92416,34.17406],[-99.9245,34.1736],[-99.92411,34.17337],[-99.92405,34.17298],[-99.92553,34.17293],[-99.92592,34.17308],[-99.92621,34.17287],[-99.92688,34.17317],[-99.9299,34.17281],[-99.93,34.17261],[-99.93039,34.17262],[-99.93047,34.17286],[-99.93098,34.17279],[-99.93137,34.17305],[-99.93126,34.17341],[-99.93136,34.17383],[-99.93171,34.17393],[-99.93227,34.17435],[-99.93273,34.17425],[-99.93298,34.17443],[-99.93341,34.17436],[-99.93347,34.17445],[-99.93332,34.17499],[-99.93299,34.1752],[-99.93307,34.17544],[-99.93298,34.17571],[-99.93214,34.17567],[-99.93193,34.1757],[-99.93187,34.17586],[-99.93113,34.17583],[-99.93075,34.17555],[-99.93021,34.1755],[-99.92961,34.17516],[-99.92936,34.17524],[-99.92879,34.17576],[-99.92852,34.1752],[-99.92813,34.17524],[-99.92807,34.1757],[-99.92775,34.17583],[-99.92761,34.17606],[-99.92768,34.17635],[-99.92746,34.1764],[-99.92714,34.17623],[-99.92622,34.1769],[-99.9254,34.17813],[-99.9254,34.17849],[-99.92517,34.17897],[-99.92479,34.17915],[-99.92486,34.17942],[-99.92472,34.17987],[-99.92455,34.17995],[-99.9244,34.17992],[-99.92437,34.17976],[-99.924,34.17974],[-99.92382,34.18001],[-99.92395,34.18028],[-99.92423,34.18041],[-99.92445,34.18158],[-99.92508,34.18199],[-99.92515,34.18241],[-99.92442,34.1834],[-99.92403,34.18348],[-99.92395,34.18325],[-99.92321,34.18341],[-99.92409,34.18419],[-99.9245,34.18424],[-99.92455,34.18441],[-99.92444,34.1855],[-99.92414,34.18567],[-99.92404,34.18618],[-99.9244,34.18658],[-99.92432,34.18669],[-99.92393,34.18673],[-99.92384,34.18721],[-99.92399,34.18736],[-99.92403,34.1878],[-99.92396,34.18811],[-99.92367,34.18827],[-99.92415,34.1893],[-99.92394,34.18951],[-99.9235,34.18945],[-99.92309,34.18971],[-99.9231,34.18989],[-99.92281,34.19007],[-99.92257,34.19014],[-99.92214,34.19002],[-99.92191,34.19007],[-99.92182,34.19027],[-99.92144,34.19011],[-99.92157,34.18985],[-99.92146,34.18965],[-99.9218,34.18915],[-99.92191,34.18923],[-99.92193,34.18959],[-99.92219,34.18954],[-99.92245,34.18859],[-99.92284,34.18835],[-99.92297,34.18789],[-99.92264,34.18699],[-99.92204,34.18633],[-99.92155,34.18609],[-99.92099,34.18623],[-99.91989,34.18747],[-99.91898,34.18927],[-99.91795,34.19019],[-99.91783,34.19098],[-99.91689,34.19157],[-99.91611,34.19113],[-99.9159,34.1911],[-99.91576,34.19122],[-99.91569,34.19156],[-99.9158,34.19238],[-99.91565,34.19313],[-99.91491,34.19427],[-99.91379,34.19563],[-99.91401,34.19616],[-99.91394,34.19637],[-99.91352,34.19609],[-99.91329,34.19658],[-99.91375,34.19793],[-99.91373,34.19827],[-99.91304,34.19805],[-99.91197,34.19731],[-99.91186,34.19697],[-99.91187,34.19574],[-99.91073,34.19559],[-99.91021,34.19518],[-99.90986,34.19513],[-99.90983,34.19488],[-99.91006,34.19475],[-99.91082,34.19462],[-99.91079,34.19421],[-99.91016,34.19406],[-99.91016,34.19376],[-99.91044,34.1934],[-99.91094,34.19199],[-99.91153,34.19116],[-99.91158,34.19088],[-99.91144,34.1907],[-99.91045,34.19053],[-99.91005,34.19021],[-99.91015,34.19005],[-99.91099,34.1897],[-99.91114,34.18948],[-99.91105,34.18933],[-99.91005,34.18881],[-99.90934,34.18888]]]},"properties":{"fire_id":"ufid:2021-TXTXS-210822","source_collection":"history-2021","source_objectid":1621,"incident_name":"Talking John","mapped_acres":300.0,"mapped_acres_source":"poly_GISAcres","gis_acres":300.0,"auto_acres":480.268660874227,"reported_acres":675.0,"percent_contained":100.0,"state":"TX","state_wfigs":"US-TX","county":"Foard","discovery_time_utc":"2021-03-10T21:35:31Z","perimeter_time_utc":"2021-03-11T03:35:31Z","perimeter_edit_time_utc":"2021-05-04T22:55:42Z","incident_modified_time_utc":"2021-04-13T18:37:27Z","containment_time_utc":"2021-03-12T00:20:31Z","control_time_utc":"2021-03-14T22:00:00Z","fire_out_time_utc":"2021-03-14T22:01:00Z","fire_cause":"Human","fire_cause_general":"Debris/Open Burning","map_method":"Image Interpretation","source_dataset":"2021 NIFS","unique_fire_identifier":"2021-TXTXS-210822","irwin_id":"{04C3B0EB-EB79-4F44-BA30-E7F79F19AD39}","global_id":"3fa08adc-a654-4df2-9464-5ba5e3b037c3"}},{"type":"Feature","geometry":{"type":"Polygon","coordinates":[[[-98.7363,33.15818],[-98.73471,33.16014],[-98.73471,33.16133],[-98.73354,33.16191],[-98.73352,33.16216],[-98.73202,33.16215],[-98.73122,33.16241],[-98.72807,33.16358],[-98.7275,33.16393],[-98.72664,33.16413],[-98.72608,33.16471],[-98.72548,33.16479],[-98.72472,33.16509],[-98.72439,33.1645],[-98.72498,33.16413],[-98.72312,33.1641],[-98.72242,33.16375],[-98.72197,33.16378],[-98.72153,33.16338],[-98.72114,33.16375],[-98.7214,33.16387],[-98.72139,33.16418],[-98.71971,33.16528],[-98.71855,33.16594],[-98.71745,33.16605],[-98.71534,33.16684],[-98.71471,33.1669],[-98.71237,33.16872],[-98.71025,33.16933],[-98.70998,33.16913],[-98.70943,33.16912],[-98.7084,33.16974],[-98.70744,33.16987],[-98.70533,33.16902],[-98.70425,33.16902],[-98.70402,33.16648],[-98.70447,33.16433],[-98.70499,33.16431],[-98.70516,33.16463],[-98.70529,33.16463],[-98.70708,33.16387],[-98.70845,33.1636],[-98.70998,33.16303],[-98.70816,33.16309],[-98.70466,33.16264],[-98.70455,33.16226],[-98.70464,33.16199],[-98.70581,33.16212],[-98.70705,33.16246],[-98.70842,33.1626],[-98.70898,33.16233],[-98.70967,33.16242],[-98.71129,33.16207],[-98.71161,33.16164],[-98.71194,33.16159],[-98.71229,33.16106],[-98.71553,33.16107],[-98.71637,33.16093],[-98.7167,33.1611],[-98.71983,33.16108],[-98.72003,33.16086],[-98.72025,33.16083],[-98.72021,33.16026],[-98.72044,33.16007],[-98.7215,33.16006],[-98.72156,33.16019],[-98.72165,33.16006],[-98.7228,33.15993],[-98.72292,33.15944],[-98.72288,33.15869],[-98.72299,33.15855],[-98.72358,33.15856],[-98.72366,33.15827],[-98.72413,33.15884],[-98.72411,33.1571],[-98.7271,33.15705],[-98.72709,33.15596],[-98.72777,33.15558],[-98.73029,33.15522],[-98.73131,33.15494],[-98.73141,33.15502],[-98.73136,33.15651],[-98.73154,33.1567],[-98.73417,33.15675],[-98.73527,33.15641],[-98.73612,33.15642],[-98.73628,33.15567],[-98.73619,33.15336],[-98.73649,33.15338],[-98.73663,33.15412],[-98.73702,33.15471],[-98.73771,33.15476],[-98.73776,33.15493],[-98.73794,33.15496],[-98.73979,33.15474],[-98.7402,33.15655],[-98.73779,33.15674],[-98.7363,33.15818]]]},"properties":{"fire_id":"ufid:2021-TXTXS-213512","source_collection":"history-2021","source_objectid":3091,"incident_name":"Judges","mapped_acres":509.772004063498,"mapped_acres_source":"poly_GISAcres","gis_acres":509.772004063498,"auto_acres":509.770345883289,"reported_acres":509.0,"percent_contained":100.0,"state":"TX","state_wfigs":"US-TX","county":"Young","discovery_time_utc":"2021-12-10T21:42:13Z","perimeter_time_utc":null,"perimeter_edit_time_utc":"2021-12-11T21:22:58Z","incident_modified_time_utc":"2021-12-13T22:32:03Z","containment_time_utc":"2021-12-11T17:38:19Z","control_time_utc":"2021-12-13T22:31:42Z","fire_out_time_utc":"2021-12-13T22:31:54Z","fire_cause":"Undetermined","fire_cause_general":"Undetermined","map_method":"GPS-Walked","source_dataset":"2021 NIFS","unique_fire_identifier":"2021-TXTXS-213512","irwin_id":"{7EE24F89-3668-4A5F-928A-33A9F7540403}","global_id":"d3487674-a1f6-4b72-bb81-9d3eb609adfb"}},{"type":"Feature","geometry":{"type":"Polygon","coordinates":[[[-95.13107,30.52063],[-95.13162,30.52081],[-95.13176,30.52116],[-95.13306,30.52117],[-95.13346,30.52131],[-95.13356,30.5219],[-95.1338,30.52206],[-95.13366,30.52223],[-95.13353,30.52219],[-95.13347,30.52275],[-95.13384,30.52285],[-95.13353,30.52346],[-95.13355,30.52368],[-95.134,30.52411],[-95.13375,30.52425],[-95.13316,30.52389],[-95.13296,30.5242],[-95.13263,30.52412],[-95.13242,30.52392],[-95.13205,30.52412],[-95.13202,30.52561],[-95.13162,30.52564],[-95.13123,30.52598],[-95.13083,30.52594],[-95.13059,30.52568],[-95.13029,30.52497],[-95.12968,30.52474],[-95.12943,30.52433],[-95.12948,30.52414],[-95.12895,30.52361],[-95.12902,30.52306],[-95.12927,30.52284],[-95.12908,30.52188],[-95.12924,30.52149],[-95.12975,30.52111],[-95.13085,30.52114],[-95.13086,30.52087],[-95.13107,30.52063]]]},"properties":{"fire_id":"ufid:2021-TXTXF-000172","source_collection":"history-2021","source_objectid":3659,"incident_name":"Jones Farm","mapped_acres":75.0,"mapped_acres_source":"poly_GISAcres","gis_acres":75.0,"auto_acres":44.2611735360616,"reported_acres":45.0,"percent_contained":null,"state":"TX","state_wfigs":"US-TX","county":"San Jacinto","discovery_time_utc":"2021-09-11T22:50:00Z","perimeter_time_utc":"2021-09-12T03:50:41Z","perimeter_edit_time_utc":"2021-09-23T16:55:39Z","incident_modified_time_utc":"2022-02-21T16:20:05Z","containment_time_utc":"2021-09-12T02:15:00Z","control_time_utc":null,"fire_out_time_utc":"2021-09-22T16:00:00Z","fire_cause":"Undetermined","fire_cause_general":"Debris/Open Burning","map_method":"GPS-Driven","source_dataset":"2021 NIFS","unique_fire_identifier":"2021-TXTXF-000172","irwin_id":"{03FF42D9-D59A-4A1B-ACBD-27C395B2BCAD}","global_id":"834ed458-473b-4f6a-8186-a0a2650a985e"}},{"type":"Feature","geometry":{"type":"Polygon","coordinates":[[[-97.62691,33.34639],[-97.62801,33.34692],[-97.62794,33.34745],[-97.62811,33.34864],[-97.62779,33.34906],[-97.62809,33.34934],[-97.62851,33.35024],[-97.62734,33.34998],[-97.62717,33.34949],[-97.62664,33.34921],[-97.62651,33.34894],[-97.62625,33.34879],[-97.62633,33.34859],[-97.62615,33.348],[-97.62614,33.34706],[-97.6264,33.34671],[-97.62691,33.34639]]]},"properties":{"fire_id":"ufid:2021-TXTXF-000062","source_collection":"history-2021","source_objectid":9293,"incident_name":"Hobo","mapped_acres":2.0,"mapped_acres_source":"poly_GISAcres","gis_acres":2.0,"auto_acres":13.842746910071437,"reported_acres":14.2,"percent_contained":null,"state":"TX","state_wfigs":"US-TX","county":"Wise","discovery_time_utc":"2021-03-08T22:20:00Z","perimeter_time_utc":"2021-03-09T04:20:54Z","perimeter_edit_time_utc":"2023-03-14T15:13:42Z","incident_modified_time_utc":"2021-03-26T18:33:16Z","containment_time_utc":"2021-03-13T00:00:00Z","control_time_utc":"2021-03-15T16:30:00Z","fire_out_time_utc":"2021-03-26T14:08:36Z","fire_cause":"Undetermined","fire_cause_general":"Undetermined","map_method":"Mixed Methods","source_dataset":"FFP","unique_fire_identifier":"2021-TXTXF-000062","irwin_id":"{B2BC85E0-8D87-4BC5-81C3-7856A4D762AE}","global_id":"a517c309-3277-4be2-9a1e-b0d265409fed"}},{"type":"Feature","geometry":{"type":"Polygon","coordinates":[[[-99.4642,32.56488],[-99.46398,32.56426],[-99.4639,32.56331],[-99.46411,32.56286],[-99.46352,32.5623],[-99.46361,32.56123],[-99.46416,32.55998],[-99.46433,32.55928],[-99.4646,32.55889],[-99.46529,32.55836],[-99.46561,32.55747],[-99.46551,32.55719],[-99.46462,32.55621],[-99.46461,32.55565],[-99.46557,32.55464],[-99.46839,32.55292],[-99.46982,32.55157],[-99.47062,32.55042],[-99.47152,32.54825],[-99.47187,32.54669],[-99.4722,32.54594],[-99.47221,32.54551],[-99.47204,32.54525],[-99.4703,32.54413],[-99.47003,32.54383],[-99.46917,32.54208],[-99.46891,32.5409],[-99.46904,32.54045],[-99.46977,32.53917],[-99.47163,32.53748],[-99.47182,32.53717],[-99.47211,32.53567],[-99.47212,32.53479],[-99.47162,32.53338],[-99.47158,32.53147],[-99.47117,32.53087],[-99.47113,32.5302],[-99.47123,32.52994],[-99.47144,32.52982],[-99.47266,32.52986],[-99.47288,32.53],[-99.47305,32.53093],[-99.47256,32.53142],[-99.47255,32.53171],[-99.47299,32.53231],[-99.47329,32.53356],[-99.47329,32.53558],[-99.47303,32.53612],[-99.47346,32.537],[-99.47398,32.53705],[-99.47437,32.53732],[-99.47469,32.53787],[-99.47529,32.53831],[-99.47562,32.53926],[-99.47689,32.53993],[-99.47779,32.54085],[-99.47856,32.54126],[-99.47916,32.54182],[-99.48093,32.54268],[-99.48136,32.54313],[-99.48157,32.54381],[-99.48295,32.54461],[-99.48301,32.54482],[-99.48266,32.54502],[-99.48183,32.54599],[-99.48187,32.54666],[-99.48293,32.54705],[-99.48429,32.54779],[-99.48718,32.55034],[-99.48839,32.55108],[-99.48859,32.55137],[-99.48872,32.55195],[-99.4886,32.55212],[-99.48811,32.55211],[-99.4839,32.55096],[-99.48285,32.55081],[-99.4803,32.55001],[-99.47938,32.54951],[-99.47857,32.54814],[-99.47768,32.54738],[-99.47475,32.54624],[-99.47377,32.54601],[-99.4732,32.54608],[-99.47354,32.54848],[-99.47348,32.54941],[-99.47373,32.55003],[-99.47442,32.55104],[-99.47474,32.5513],[-99.47653,32.55185],[-99.47744,32.55234],[-99.47869,32.55274],[-99.4822,32.55447],[-99.48392,32.55486],[-99.48531,32.55542],[-99.48643,32.55569],[-99.48825,32.55672],[-99.49048,32.55758],[-99.49093,32.55811],[-99.49027,32.55872],[-99.48949,32.55899],[-99.48828,32.55977],[-99.48546,32.56209],[-99.48368,32.56309],[-99.48256,32.56389],[-99.48229,32.56424],[-99.48221,32.56484],[-99.48268,32.56587],[-99.48263,32.56619],[-99.48203,32.566],[-99.48106,32.56511],[-99.48006,32.56545],[-99.47695,32.56466],[-99.47405,32.56412],[-99.47006,32.56393],[-99.46892,32.56608],[-99.46884,32.5681],[-99.46753,32.56978],[-99.46701,32.57],[-99.46658,32.56986],[-99.46628,32.56931],[-99.46675,32.56869],[-99.46673,32.56848],[-99.46545,32.56715],[-99.46461,32.56662],[-99.4644,32.5662],[-99.4642,32.56488]]]},"properties":{"fire_id":"ufid:2021-TXTXS-210388","source_collection":"history-2021","source_objectid":13592,"incident_name":"Bent Twig","mapped_acres":500.0,"mapped_acres_source":"poly_GISAcres","gis_acres":500.0,"auto_acres":1056.68122353672,"reported_acres":1100.0,"percent_contained":100.0,"state":"TX","state_wfigs":"US-TX","county":"Shackelford","discovery_time_utc":"2021-02-05T23:45:00Z","perimeter_time_utc":"2021-02-06T06:45:00Z","perimeter_edit_time_utc":"2021-05-04T22:51:36Z","incident_modified_time_utc":"2021-04-09T22:53:20Z","containment_time_utc":"2021-02-08T23:15:26Z","control_time_utc":"2021-02-08T23:15:38Z","fire_out_time_utc":"2021-02-09T23:20:00Z","fire_cause":"Human","fire_cause_general":"Debris/Open Burning","map_method":"Image Interpretation","source_dataset":"2021 NIFS","unique_fire_identifier":"2021-TXTXS-210388","irwin_id":"{5430B06F-8C04-48EC-B36C-806F25DB919D}","global_id":"15b03d2f-4f3b-4ec4-b7f4-08d2cb1c06f1"}},{"type":"Feature","geometry":{"type":"Polygon","coordinates":[[[-98.67484,31.92768],[-98.67408,31.92754],[-98.67385,31.9273],[-98.67329,31.92715],[-98.67332,31.92696],[-98.67271,31.92688],[-98.67252,31.92677],[-98.67258,31.92662],[-98.67181,31.92639],[-98.67128,31.92592],[-98.66951,31.92566],[-98.66905,31.92578],[-98.66859,31.92565],[-98.66798,31.92573],[-98.66735,31.9255],[-98.66809,31.92243],[-98.66743,31.92159],[-98.66717,31.92104],[-98.66667,31.92047],[-98.66617,31.92014],[-98.66559,31.91862],[-98.66568,31.91824],[-98.666,31.918],[-98.66638,31.91732],[-98.66685,31.91711],[-98.66699,31.91687],[-98.66692,31.91671],[-98.66669,31.91684],[-98.66643,31.91664],[-98.6664,31.9161],[-98.6666,31.91536],[-98.66646,31.91496],[-98.66668,31.91434],[-98.6672,31.91382],[-98.6672,31.91359],[-98.66778,31.91275],[-98.66778,31.91252],[-98.66808,31.91231],[-98.6678,31.91172],[-98.66745,31.91138],[-98.66636,31.91151],[-98.66593,31.91198],[-98.66524,31.91188],[-98.66511,31.91161],[-98.66518,31.911],[-98.66495,31.91062],[-98.66505,31.91039],[-98.66486,31.91031],[-98.66409,31.91061],[-98.66402,31.91077],[-98.66422,31.9113],[-98.66372,31.9118],[-98.66334,31.91198],[-98.66296,31.91182],[-98.6625,31.91214],[-98.66204,31.91195],[-98.66166,31.912],[-98.66111,31.91039],[-98.66114,31.91016],[-98.66075,31.90986],[-98.66066,31.91047],[-98.66085,31.91108],[-98.66085,31.91176],[-98.66116,31.91211],[-98.66136,31.9129],[-98.66083,31.91314],[-98.66052,31.91356],[-98.65967,31.91374],[-98.65954,31.91405],[-98.65961,31.91436],[-98.65939,31.9145],[-98.65931,31.91482],[-98.65892,31.9152],[-98.658,31.91574],[-98.65774,31.91633],[-98.65801,31.91649],[-98.65739,31.91655],[-98.65663,31.91691],[-98.65592,31.91671],[-98.65545,31.9161],[-98.65496,31.91503],[-98.65457,31.9149],[-98.65445,31.91504],[-98.65444,31.91567],[-98.65423,31.9161],[-98.6543,31.91626],[-98.65367,31.91642],[-98.65359,31.91656],[-98.65367,31.91694],[-98.65396,31.9171],[-98.6542,31.91778],[-98.65465,31.91809],[-98.65462,31.91839],[-98.65435,31.91843],[-98.65396,31.91815],[-98.65305,31.91786],[-98.65297,31.91753],[-98.65358,31.91755],[-98.65368,31.91715],[-98.65292,31.91715],[-98.65259,31.91664],[-98.65234,31.91572],[-98.65183,31.91466],[-98.65139,31.91428],[-98.65099,31.91321],[-98.65056,31.91283],[-98.65001,31.91161],[-98.64999,31.91108],[-98.64934,31.90948],[-98.64904,31.90793],[-98.64848,31.9076],[-98.64819,31.90704],[-98.64829,31.90666],[-98.64795,31.9049],[-98.64817,31.90094],[-98.64856,31.90065],[-98.65055,31.90065],[-98.65122,31.90071],[-98.65115,31.90106],[-98.65192,31.90101],[-98.65236,31.90119],[-98.6529,31.90151],[-98.65274,31.90209],[-98.6535,31.90217],[-98.65358,31.90239],[-98.65347,31.90262],[-98.65419,31.9033],[-98.65455,31.90384],[-98.65465,31.90437],[-98.65511,31.9038],[-98.65541,31.90379],[-98.65572,31.90348],[-98.65592,31.90384],[-98.65583,31.90422],[-98.65605,31.90435],[-98.65617,31.90462],[-98.6564,31.90471],[-98.65656,31.9046],[-98.65616,31.90422],[-98.65606,31.90384],[-98.65631,31.90321],[-98.65678,31.90305],[-98.65747,31.90363],[-98.65785,31.90321],[-98.65831,31.90315],[-98.65849,31.903],[-98.65831,31.90264],[-98.65811,31.90288],[-98.65793,31.90285],[-98.65786,31.9027],[-98.658,31.90262],[-98.66044,31.9021],[-98.66103,31.90233],[-98.66119,31.90256],[-98.66116,31.90364],[-98.65989,31.90544],[-98.65975,31.90612],[-98.65998,31.90669],[-98.66204,31.90566],[-98.66332,31.90543],[-98.66363,31.90445],[-98.66379,31.903],[-98.66402,31.90252],[-98.66451,31.90239],[-98.6644,31.90101],[-98.66475,31.90076],[-98.66532,31.90082],[-98.66577,31.90063],[-98.66659,31.90074],[-98.66709,31.90094],[-98.66677,31.90117],[-98.66707,31.9017],[-98.66741,31.90132],[-98.66739,31.90102],[-98.66768,31.90095],[-98.66853,31.90116],[-98.66937,31.90154],[-98.66996,31.90188],[-98.67006,31.90215],[-98.67042,31.90246],[-98.67102,31.90247],[-98.6713,31.903],[-98.67187,31.9034],[-98.67195,31.90376],[-98.67238,31.90407],[-98.6724,31.90468],[-98.67276,31.90513],[-98.67269,31.90551],[-98.67332,31.90619],[-98.67389,31.90612],[-98.67405,31.90582],[-98.67381,31.90544],[-98.67388,31.90523],[-98.674,31.90522],[-98.67438,31.90567],[-98.67446,31.90605],[-98.67431,31.90633],[-98.67365,31.90643],[-98.67401,31.90703],[-98.674,31.90733],[-98.67294,31.90765],[-98.67269,31.90788],[-98.67265,31.90826],[-98.67219,31.90856],[-98.67184,31.9091],[-98.67191,31.90936],[-98.67156,31.90933],[-98.67134,31.90948],[-98.6712,31.91],[-98.67156,31.9107],[-98.67146,31.911],[-98.67167,31.91146],[-98.67156,31.91158],[-98.67118,31.9115],[-98.67081,31.91185],[-98.67121,31.91252],[-98.67162,31.91283],[-98.67148,31.91329],[-98.67206,31.91344],[-98.67232,31.91398],[-98.67272,31.91434],[-98.67305,31.9158],[-98.67372,31.9171],[-98.67366,31.91793],[-98.67398,31.91816],[-98.67429,31.9193],[-98.67501,31.92014],[-98.67526,31.92121],[-98.67577,31.9222],[-98.67587,31.92266],[-98.67578,31.92327],[-98.67607,31.92409],[-98.67625,31.9257],[-98.67592,31.92624],[-98.67563,31.92641],[-98.6756,31.92665],[-98.67495,31.92718],[-98.67496,31.92753],[-98.67484,31.92768]]]},"properties":{"fire_id":"ufid:2021-TXTXS-212670","source_collection":"history-2021","source_objectid":15454,"incident_name":"Five Spots","mapped_acres":942.1,"mapped_acres_source":"poly_GISAcres","gis_acres":942.1,"auto_acres":null,"reported_acres":1264.0,"percent_contained":100.0,"state":"TX","state_wfigs":"US-TX","county":"Comanche","discovery_time_utc":"2021-09-20T22:46:19Z","perimeter_time_utc":null,"perimeter_edit_time_utc":null,"incident_modified_time_utc":"2021-09-27T02:40:04Z","containment_time_utc":"2021-09-22T00:57:01Z","control_time_utc":"2021-09-26T22:00:00Z","fire_out_time_utc":"2021-09-26T22:01:00Z","fire_cause":"Human","fire_cause_general":"Equipment","map_method":"Hand Sketch","source_dataset":"Inspector","unique_fire_identifier":"2021-TXTXS-212670","irwin_id":"{6D0B457B-40E2-49DB-BF0B-DC7ECFB682E2}","global_id":"091b23bd-432e-4a37-864f-55ceb1a1cb7f"}}]}
