{"type":"FeatureCollection","features":[{"type":"Feature","geometry":{"type":"MultiPolygon","coordinates":[[[[-109.06411,38.89655],[-109.06425,38.89699],[-109.06446,38.8971],[-109.06399,38.89719],[-109.06417,38.89738],[-109.06404,38.89748],[-109.06415,38.8976],[-109.06381,38.89759],[-109.06344,38.89731],[-109.06285,38.89731],[-109.06294,38.89741],[-109.06284,38.89759],[-109.063,38.8977],[-109.06272,38.89791],[-109.06293,38.89821],[-109.0627,38.89812],[-109.06278,38.89864],[-109.06215,38.89865],[-109.06225,38.89837],[-109.06174,38.89833],[-109.0621,38.898],[-109.06187,38.89763],[-109.06201,38.89749],[-109.06188,38.89718],[-109.06151,38.89683],[-109.06131,38.89684],[-109.0613,38.89604],[-109.06148,38.89592],[-109.06152,38.89571],[-109.06279,38.89577],[-109.06307,38.8959],[-109.06332,38.89623],[-109.06372,38.89627],[-109.06411,38.89655]]],[[[-109.06415,38.89655],[-109.06411,38.89655],[-109.06411,38.89654],[-109.06415,38.89655]]]]},"properties":{"fire_id":"ufid:2021-UTMOD-000284","source_collection":"history-2021","source_objectid":635,"incident_name":"Renegade Creek","mapped_acres":11.6174086417758,"mapped_acres_source":"poly_GISAcres","gis_acres":11.6174086417758,"auto_acres":11.6185832969302,"reported_acres":11.62,"percent_contained":null,"state":"UT","state_wfigs":"US-UT","county":"Grand","discovery_time_utc":"2021-07-19T20:13:00Z","perimeter_time_utc":null,"perimeter_edit_time_utc":"2021-08-04T15:42:27Z","incident_modified_time_utc":"2021-08-19T16:15:56Z","containment_time_utc":"2021-07-21T15:00:00Z","control_time_utc":"2021-07-22T01:58:00Z","fire_out_time_utc":"2021-08-12T21:00:00Z","fire_cause":"Natural","fire_cause_general":"Lightning","map_method":"GPS-Walked","source_dataset":"2021 NIFS","unique_fire_identifier":"2021-UTMOD-000284","irwin_id":"{9158C1B7-04E6-4FF3-A466-F70C2548CE15}","global_id":"ed930ee5-3891-4330-8b74-a2e057dca218"}},{"type":"Feature","geometry":{"type":"Polygon","coordinates":[[[-109.07454,39.40311],[-109.07453,39.40333],[-109.07423,39.40332],[-109.07454,39.40311]]]},"properties":{"fire_id":"ufid:2021-UTMOD-000304","source_collection":"history-2021","source_objectid":1638,"incident_name":"Bar X","mapped_acres":0.0991667956652335,"mapped_acres_source":"poly_GISAcres","gis_acres":0.0991667956652335,"auto_acres":0.100515888357057,"reported_acres":0.1,"percent_contained":null,"state":"UT","state_wfigs":"US-UT","county":"Grand","discovery_time_utc":"2021-07-21T21:43:00Z","perimeter_time_utc":"2021-07-22T08:00:00Z","perimeter_edit_time_utc":"2021-08-12T20:51:16Z","incident_modified_time_utc":"2021-08-29T18:20:10Z","containment_time_utc":"2021-07-22T18:55:00Z","control_time_utc":"2021-07-23T14:08:00Z","fire_out_time_utc":"2021-07-23T14:08:00Z","fire_cause":"Natural","fire_cause_general":"Lightning","map_method":"Mixed Methods","source_dataset":"2021 NIFS","unique_fire_identifier":"2021-UTMOD-000304","irwin_id":"{02F43D4C-17E0-4F6F-A425-C1770E5D9D23}","global_id":"ba157863-2d7d-4aba-8036-8661df9d3f1a"}},{"type":"Feature","geometry":{"type":"Polygon","coordinates":[[[-109.71137,39.06974],[-109.7107,39.07001],[-109.71032,39.07001],[-109.7094,39.06943],[-109.70876,39.06935],[-109.70784,39.06988],[-109.70718,39.07055],[-109.70677,39.07133],[-109.70676,39.07187],[-109.7071,39.072],[-109.70762,39.07155],[-109.70796,39.07159],[-109.70842,39.07257],[-109.70854,39.07324],[-109.70838,39.07368],[-109.70772,39.0745],[-109.70734,39.07553],[-109.70708,39.07572],[-109.70672,39.07559],[-109.70692,39.07477],[-109.70678,39.07438],[-109.70644,39.07436],[-109.70558,39.07471],[-109.70508,39.07474],[-109.70406,39.07449],[-109.70333,39.07412],[-109.70161,39.07244],[-109.70119,39.07183],[-109.70098,39.07125],[-109.70117,39.07054],[-109.70204,39.0697],[-109.70264,39.06958],[-109.70317,39.06989],[-109.70356,39.06991],[-109.70418,39.06948],[-109.70529,39.06837],[-109.70589,39.06815],[-109.70761,39.06792],[-109.70848,39.0674],[-109.70886,39.06684],[-109.70882,39.06636],[-109.70856,39.06613],[-109.70747,39.06604],[-109.70715,39.06583],[-109.70705,39.06553],[-109.7071,39.06431],[-109.70741,39.06407],[-109.70796,39.06438],[-109.70826,39.06438],[-109.70983,39.06279],[-109.71037,39.06283],[-109.71105,39.06324],[-109.71154,39.06376],[-109.71168,39.06441],[-109.7142,39.06611],[-109.71455,39.06647],[-109.71482,39.06708],[-109.71483,39.06772],[-109.71458,39.06837],[-109.71312,39.06978],[-109.7123,39.07005],[-109.71137,39.06974]]]},"properties":{"fire_id":"ufid:2021-UTSES-000172","source_collection":"history-2021","source_objectid":4376,"incident_name":"Sego","mapped_acres":168.0376,"mapped_acres_source":"poly_GISAcres","gis_acres":168.0376,"auto_acres":168.19135315342072,"reported_acres":168.13,"percent_contained":null,"state":"UT","state_wfigs":"US-UT","county":"Grand","discovery_time_utc":"2021-06-20T18:09:00Z","perimeter_time_utc":null,"perimeter_edit_time_utc":"2023-03-14T15:13:42Z","incident_modified_time_utc":"2022-02-16T00:40:13Z","containment_time_utc":"2021-06-27T20:30:00Z","control_time_utc":"2021-07-14T22:00:00Z","fire_out_time_utc":"2021-09-07T16:00:00Z","fire_cause":"Natural","fire_cause_general":"Natural","map_method":"Mixed Methods","source_dataset":"FFP","unique_fire_identifier":"2021-UTSES-000172","irwin_id":"{84D0F77F-8BA5-4678-8B73-C7298D5A7476}","global_id":"594ebba4-0258-4582-9708-4f9767a3bbc0"}},{"type":"Feature","geometry":{"type":"MultiPolygon","coordinates":[[[[-109.51875,39.11391],[-109.51862,39.11393],[-109.5184,39.11426],[-109.51816,39.11431],[-109.51782,39.11416],[-109.51782,39.1144],[-109.51761,39.11456],[-109.51739,39.11442],[-109.51716,39.11449],[-109.5171,39.11414],[-109.51672,39.11408],[-109.51647,39.11449],[-109.51613,39.11465],[-109.51628,39.11483],[-109.5161,39.11507],[-109.51599,39.11499],[-109.51608,39.11487],[-109.51569,39.11455],[-109.51555,39.11493],[-109.51529,39.11483],[-109.51515,39.11455],[-109.51533,39.11373],[-109.51499,39.11365],[-109.51478,39.11321],[-109.51442,39.11311],[-109.51467,39.11257],[-109.51451,39.11221],[-109.51473,39.11209],[-109.51467,39.11182],[-109.51507,39.11141],[-109.51494,39.11128],[-109.51512,39.11104],[-109.51504,39.11065],[-109.51529,39.11032],[-109.51559,39.11032],[-109.51574,39.11055],[-109.51612,39.1107],[-109.51593,39.11082],[-109.51596,39.11114],[-109.51577,39.11142],[-109.51619,39.11202],[-109.51619,39.11245],[-109.51654,39.11232],[-109.51679,39.11244],[-109.51671,39.11283],[-109.51695,39.11272],[-109.51708,39.11284],[-109.5174,39.11284],[-109.51775,39.1132],[-109.51777,39.11338],[-109.51757,39.11339],[-109.51772,39.11372],[-109.51847,39.11369],[-109.51875,39.11391]]],[[[-109.51875,39.11392],[-109.51874,39.11396],[-109.5187,39.11396],[-109.51875,39.11392]]]]},"properties":{"fire_id":"ufid:2021-UTSES-000120","source_collection":"history-2021","source_objectid":5349,"incident_name":"Turner park fire","mapped_acres":19.1952,"mapped_acres_source":"poly_GISAcres","gis_acres":19.1952,"auto_acres":19.20271127257421,"reported_acres":19.0,"percent_contained":null,"state":"UT","state_wfigs":"US-UT","county":"Grand","discovery_time_utc":"2021-06-06T00:23:00Z","perimeter_time_utc":null,"perimeter_edit_time_utc":"2023-03-14T15:13:42Z","incident_modified_time_utc":"2022-02-16T00:32:55Z","containment_time_utc":"2021-06-08T02:00:00Z","control_time_utc":"2021-06-08T21:00:00Z","fire_out_time_utc":"2021-06-29T17:30:00Z","fire_cause":"Natural","fire_cause_general":"Natural","map_method":"Mixed Methods","source_dataset":"FFP","unique_fire_identifier":"2021-UTSES-000120","irwin_id":"{244F7532-96A8-4411-9661-FF9507D9949B}","global_id":"f152d99f-f39a-4d3e-96ba-cd535baa129e"}},{"type":"Feature","geometry":{"type":"Polygon","coordinates":[[[-109.07739,37.76459],[-109.07754,37.76466],[-109.07754,37.76493],[-109.07792,37.7654],[-109.07769,37.76565],[-109.07711,37.76582],[-109.0768,37.76636],[-109.07664,37.76601],[-109.07674,37.76561],[-109.07664,37.76532],[-109.07739,37.76459]]]},"properties":{"fire_id":"ufid:2021-UTMOD-000380","source_collection":"history-2021","source_objectid":5703,"incident_name":"Coal Bed","mapped_acres":2.590486,"mapped_acres_source":"poly_GISAcres","gis_acres":2.590486,"auto_acres":2.5907180022801533,"reported_acres":2.6,"percent_contained":null,"state":"UT","state_wfigs":"US-UT","county":"San Juan","discovery_time_utc":"2021-08-07T21:57:00Z","perimeter_time_utc":null,"perimeter_edit_time_utc":"2023-03-14T15:13:42Z","incident_modified_time_utc":"2021-11-09T17:05:35Z","containment_time_utc":"2021-08-09T01:00:00Z","control_time_utc":"2021-08-10T01:00:00Z","fire_out_time_utc":"2021-08-13T17:45:00Z","fire_cause":"Natural","fire_cause_general":"Natural","map_method":"Mixed Methods","source_dataset":"FFP","unique_fire_identifier":"2021-UTMOD-000380","irwin_id":"{9D53394F-1056-43FB-AA90-EB2881B0D8D4}","global_id":"58e7fe06-bf26-4de4-be76-09fa546602c6"}},{"type":"Feature","geometry":{"type":"Polygon","coordinates":[[[-109.75184,39.10453],[-109.75155,39.10502],[-109.75043,39.10536],[-109.74938,39.10548],[-109.74904,39.10536],[-109.74888,39.10514],[-109.74924,39.10359],[-109.74941,39.1033],[-109.7497,39.10315],[-109.7504,39.10327],[-109.75158,39.10381],[-109.75194,39.10427],[-109.75202,39.10462],[-109.75184,39.10453]]]},"properties":{"fire_id":"ufid:2021-UTMOD-000169","source_collection":"history-2021","source_objectid":5850,"incident_name":"Renegade","mapped_acres":12.4879,"mapped_acres_source":"poly_GISAcres","gis_acres":12.4879,"auto_acres":12.49425663427644,"reported_acres":12.49,"percent_contained":null,"state":"UT","state_wfigs":"US-UT","county":"Grand","discovery_time_utc":"2021-06-20T15:00:00Z","perimeter_time_utc":null,"perimeter_edit_time_utc":"2023-03-14T15:13:42Z","incident_modified_time_utc":"2021-08-06T17:38:39Z","containment_time_utc":"2021-06-24T00:00:00Z","control_time_utc":"2021-06-26T00:00:00Z","fire_out_time_utc":"2021-07-28T21:00:00Z","fire_cause":"Natural","fire_cause_general":"Natural","map_method":"Mixed Methods","source_dataset":"FFP","unique_fire_identifier":"2021-UTMOD-000169","irwin_id":"{EBB70B26-D39F-4654-94DA-272B3463D8F4}","global_id":"6908c433-5ba1-462a-843f-a9333181834f"}},{"type":"Feature","geometry":{"type":"Polygon","coordinates":[[[-109.40666,38.65213],[-109.40578,38.65222],[-109.40554,38.65248],[-109.40585,38.6526],[-109.40558,38.65263],[-109.40529,38.65245],[-109.40528,38.65227],[-109.4045,38.6523],[-109.40404,38.652],[-109.40434,38.6518],[-109.40443,38.65146],[-109.40492,38.65111],[-109.40594,38.65083],[-109.40641,38.65114],[-109.40704,38.65115],[-109.40757,38.65135],[-109.40766,38.65154],[-109.40744,38.65184],[-109.40717,38.65182],[-109.40706,38.65163],[-109.40695,38.65182],[-109.40665,38.65188],[-109.40666,38.65213]]]},"properties":{"fire_id":"ufid:2021-UTSES-000183","source_collection":"history-2021","source_objectid":7088,"incident_name":"Castle Valley","mapped_acres":8.1,"mapped_acres_source":"poly_GISAcres","gis_acres":8.1,"auto_acres":8.102016849944514,"reported_acres":8.1,"percent_contained":null,"state":"UT","state_wfigs":"US-UT","county":"Grand","discovery_time_utc":"2021-06-23T14:50:00Z","perimeter_time_utc":"2021-06-23T19:50:00Z","perimeter_edit_time_utc":"2023-03-14T15:13:42Z","incident_modified_time_utc":"2022-02-23T19:03:02Z","containment_time_utc":"2021-06-23T20:35:00Z","control_time_utc":"2021-06-24T04:32:00Z","fire_out_time_utc":"2021-06-30T20:50:00Z","fire_cause":"Human","fire_cause_general":"Equipment and vehicle use","map_method":"GPS-Walked","source_dataset":"FFP","unique_fire_identifier":"2021-UTSES-000183","irwin_id":"{EC3B2EC9-0D05-4C77-A232-909B795BF8FC}","global_id":"56c49c01-b2ef-41bd-b2d2-f1df94800a0d"}},{"type":"Feature","geometry":{"type":"Polygon","coordinates":[[[-109.78623,39.55939],[-109.79399,39.55692],[-109.79892,39.56134],[-109.79465,39.57537],[-109.78173,39.58495],[-109.77952,39.58445],[-109.7786,39.58156],[-109.77692,39.57523],[-109.78623,39.55939]]]},"properties":{"fire_id":"ufid:2021-UTUOA-100121","source_collection":"history-2021","source_objectid":7536,"incident_name":"Horsecorn","mapped_acres":0.9981887,"mapped_acres_source":"poly_GISAcres","gis_acres":0.9981887,"auto_acres":832.9543702253033,"reported_acres":662.0,"percent_contained":null,"state":"UT","state_wfigs":"US-UT","county":"Uintah","discovery_time_utc":"2021-06-20T18:29:00Z","perimeter_time_utc":"2021-06-20T23:29:00Z","perimeter_edit_time_utc":"2023-03-14T15:13:42Z","incident_modified_time_utc":"2021-07-07T20:50:20Z","containment_time_utc":"2021-06-25T23:00:00Z","control_time_utc":"2021-07-05T00:00:00Z","fire_out_time_utc":"2021-07-05T00:00:00Z","fire_cause":"Natural","fire_cause_general":"Natural","map_method":"Other","source_dataset":"FFP","unique_fire_identifier":"2021-UTUOA-100121","irwin_id":"{5BB41A9A-2580-4675-9EEE-1C983A58F35D}","global_id":"0abbdf60-66a1-442f-a4ac-629b1793464c"}},{"type":"Feature","geometry":{"type":"MultiPolygon","coordinates":[[[[-109.78885,38.83473],[-109.78846,38.83439],[-109.78847,38.83424],[-109.78885,38.83473]]],[[[-109.78896,38.83481],[-109.78885,38.83474],[-109.78885,38.83473],[-109.78896,38.83481]]]]},"properties":{"fire_id":"ufid:2021-UTSES-000091","source_collection":"history-2021","source_objectid":7550,"incident_name":"191mm150  M","mapped_acres":0.08417614,"mapped_acres_source":"poly_GISAcres","gis_acres":0.08417614,"auto_acres":0.08422018270485852,"reported_acres":0.12,"percent_contained":null,"state":"UT","state_wfigs":"US-UT","county":"Grand","discovery_time_utc":"2021-05-22T15:36:00Z","perimeter_time_utc":null,"perimeter_edit_time_utc":"2023-03-14T15:13:42Z","incident_modified_time_utc":"2022-02-22T17:15:32Z","containment_time_utc":"2021-05-22T17:30:00Z","control_time_utc":"2021-05-22T17:45:00Z","fire_out_time_utc":"2021-05-24T19:49:00Z","fire_cause":"Human","fire_cause_general":"Equipment and vehicle use","map_method":"Mixed Methods","source_dataset":"FFP","unique_fire_identifier":"2021-UTSES-000091","irwin_id":"{72443D7E-0559-45B3-8E79-DBC4AC60825B}","global_id":"a1da8f0e-5e49-4f52-91c8-ad4024da2c03"}},{"type":"Feature","geometry":{"type":"Polygon","coordinates":[[[-109.7873,38.83261],[-109.78721,38.83263],[-109.78699,38.83224],[-109.7873,38.83261]]]},"properties":{"fire_id":"ufid:2021-UTSES-000092","source_collection":"history-2021","source_objectid":7769,"incident_name":"191mm150 S","mapped_acres":0.0667039,"mapped_acres_source":"poly_GISAcres","gis_acres":0.0667039,"auto_acres":0.06673885103342149,"reported_acres":0.12,"percent_contained":null,"state":"UT","state_wfigs":"US-UT","county":"Grand","discovery_time_utc":"2021-05-22T16:22:00Z","perimeter_time_utc":"2021-06-03T08:00:00Z","perimeter_edit_time_utc":"2023-03-14T15:13:42Z","incident_modified_time_utc":"2022-02-22T17:04:32Z","containment_time_utc":"2021-05-22T17:30:00Z","control_time_utc":"2021-05-22T17:45:00Z","fire_out_time_utc":"2021-05-24T19:49:00Z","fire_cause":"Human","fire_cause_general":"Equipment and vehicle use","map_method":"Mixed Methods","source_dataset":"FFP","unique_fire_identifier":"2021-UTSES-000092","irwin_id":"{A46EB7CF-EA04-44E9-8250-B126E7A90215}","global_id":"2fa67f75-48ad-41f9-ae75-254a62852395"}},{"type":"Feature","geometry":{"type":"Polygon","coordinates":[[[-109.79055,38.83714],[-109.79015,38.83652],[-109.79062,38.83704],[-109.79055,38.83714]]]},"properties":{"fire_id":"ufid:2021-UTSES-000090","source_collection":"history-2021","source_objectid":8940,"incident_name":"191mm150 N","mapped_acres":0.1070194,"mapped_acres_source":"poly_GISAcres","gis_acres":0.1070194,"auto_acres":0.10707559814809423,"reported_acres":0.12,"percent_contained":null,"state":"UT","state_wfigs":"US-UT","county":"Grand","discovery_time_utc":"2021-05-22T15:03:00Z","perimeter_time_utc":null,"perimeter_edit_time_utc":"2023-03-14T15:13:42Z","incident_modified_time_utc":"2022-02-22T17:19:27Z","containment_time_utc":"2021-05-22T17:30:00Z","control_time_utc":"2021-05-22T17:45:00Z","fire_out_time_utc":"2021-05-24T19:49:00Z","fire_cause":"Human","fire_cause_general":"Equipment and vehicle use","map_method":"Mixed Methods","source_dataset":"FFP","unique_fire_identifier":"2021-UTSES-000090","irwin_id":"{DC1F279C-B798-410F-8F60-95CB90D068AD}","global_id":"a1ec73df-aabb-410f-9399-8fd3ab71ee0c"}},{"type":"Feature","geometry":{"type":"MultiPolygon","coordinates":[[[[-109.70653,39.15147],[-109.70684,39.15158],[-109.70723,39.15206],[-109.70744,39.15283],[-109.70691,39.15316],[-109.70666,39.15375],[-109.70632,39.15406],[-109.70614,39.15495],[-109.70582,39.15519],[-109.70558,39.1552],[-109.70505,39.15494],[-109.70457,39.15431],[-109.7037,39.1538],[-109.70349,39.15349],[-109.70351,39.15316],[-109.7042,39.15224],[-109.70475,39.15216],[-109.70562,39.15235],[-109.70584,39.15222],[-109.70608,39.15167],[-109.70653,39.15147]]],[[[-109.70633,39.1544],[-109.70628,39.15468],[-109.70629,39.15458],[-109.70633,39.1544]]]]},"properties":{"fire_id":"ufid:2021-UTSES-000175","source_collection":"history-2021","source_objectid":9115,"incident_name":"Survey","mapped_acres":19.90262,"mapped_acres_source":"poly_GISAcres","gis_acres":19.90262,"auto_acres":19.912338122700568,"reported_acres":24.0,"percent_contained":null,"state":"UT","state_wfigs":"US-UT","county":"Grand","discovery_time_utc":"2021-06-20T21:34:00Z","perimeter_time_utc":"2021-06-22T08:00:00Z","perimeter_edit_time_utc":"2023-03-14T15:13:42Z","incident_modified_time_utc":"2022-02-22T16:56:09Z","containment_time_utc":"2021-06-24T00:00:00Z","control_time_utc":"2021-06-25T18:00:00Z","fire_out_time_utc":"2021-09-15T18:00:00Z","fire_cause":"Natural","fire_cause_general":"Natural","map_method":"Mixed Methods","source_dataset":"FFP","unique_fire_identifier":"2021-UTSES-000175","irwin_id":"{7F4ACC46-4EF9-4D31-AA2F-D89B6E16E4C2}","global_id":"db3a800b-eea7-4972-8727-cef6925d5a2a"}},{"type":"Feature","geometry":{"type":"Polygon","coordinates":[[[-109.61169,39.08986],[-109.61204,39.09014],[-109.61193,39.09022],[-109.61208,39.09033],[-109.6121,39.09083],[-109.61223,39.09099],[-109.61214,39.09125],[-109.61191,39.09142],[-109.6113,39.09129],[-109.61094,39.0914],[-109.6099,39.09121],[-109.60977,39.09108],[-109.60968,39.09068],[-109.60948,39.09043],[-109.6094,39.0887],[-109.60973,39.08849],[-109.60955,39.08828],[-109.60979,39.08797],[-109.60977,39.08756],[-109.61007,39.08748],[-109.61029,39.08721],[-109.61041,39.0874],[-109.61075,39.08742],[-109.61097,39.08761],[-109.61154,39.08753],[-109.61182,39.08765],[-109.61222,39.08857],[-109.61252,39.08877],[-109.61247,39.0893],[-109.6126,39.08957],[-109.6125,39.08969],[-109.61193,39.0896],[-109.61174,39.08969],[-109.61169,39.08986]]]},"properties":{"fire_id":"ufid:2021-UTMOD-000455","source_collection":"history-2021","source_objectid":9127,"incident_name":"Nash Wash","mapped_acres":23.23369,"mapped_acres_source":"poly_GISAcres","gis_acres":23.23369,"auto_acres":23.233604047730378,"reported_acres":23.2,"percent_contained":null,"state":"UT","state_wfigs":"US-UT","county":"Grand","discovery_time_utc":"2021-08-27T23:41:00Z","perimeter_time_utc":null,"perimeter_edit_time_utc":"2023-03-14T15:13:42Z","incident_modified_time_utc":"2021-11-09T17:02:14Z","containment_time_utc":"2021-08-29T01:30:00Z","control_time_utc":"2021-08-31T02:00:00Z","fire_out_time_utc":"2021-09-10T22:00:00Z","fire_cause":"Natural","fire_cause_general":"Natural","map_method":"Mixed Methods","source_dataset":"FFP","unique_fire_identifier":"2021-UTMOD-000455","irwin_id":"{EFECEE9F-CB6F-40BD-BEAB-0DB8A2A76438}","global_id":"7aeb2fe6-6341-4c1e-9170-150386f13038"}},{"type":"Feature","geometry":{"type":"Polygon","coordinates":[[[-109.9693,39.46071],[-109.9742,39.45934],[-109.97979,39.45862],[-109.97874,39.46055],[-109.97581,39.46394],[-109.97017,39.46248],[-109.9693,39.46071]]]},"properties":{"fire_id":"ufid:2021-UTUOA-100230","source_collection":"history-2021","source_objectid":10615,"incident_name":"East Desolation","mapped_acres":50.0,"mapped_acres_source":"poly_GISAcres","gis_acres":50.0,"auto_acres":73.71216862092491,"reported_acres":211.0,"percent_contained":null,"state":"UT","state_wfigs":"US-UT","county":"Grand","discovery_time_utc":"2021-08-10T14:24:00Z","perimeter_time_utc":"2021-08-10T19:24:19Z","perimeter_edit_time_utc":"2023-03-14T15:13:42Z","incident_modified_time_utc":"2021-09-17T20:01:01Z","containment_time_utc":"2021-08-26T21:35:00Z","control_time_utc":"2021-09-03T18:25:00Z","fire_out_time_utc":"2021-09-07T14:15:00Z","fire_cause":"Natural","fire_cause_general":"Natural","map_method":"Hand Sketch","source_dataset":"FFP","unique_fire_identifier":"2021-UTUOA-100230","irwin_id":"{8BED34BC-C842-40F0-93AC-C793FF792A0C}","global_id":"93d18d45-659d-4807-b3c0-9c1cce473ce6"}},{"type":"Feature","geometry":{"type":"MultiPolygon","coordinates":[[[[-109.2747,38.44939],[-109.2743,38.44931],[-109.27424,38.44893],[-109.27443,38.44885],[-109.27467,38.44902],[-109.2747,38.44939]]],[[[-109.30161,38.45265],[-109.30214,38.45275],[-109.30271,38.45323],[-109.30247,38.45358],[-109.30211,38.45364],[-109.30197,38.45385],[-109.30175,38.45383],[-109.30168,38.45349],[-109.30151,38.45347],[-109.30106,38.45293],[-109.30047,38.45281],[-109.30065,38.4525],[-109.30118,38.4524],[-109.30161,38.45265]]],[[[-109.25307,38.50347],[-109.25371,38.50296],[-109.2547,38.50169],[-109.25635,38.50099],[-109.25663,38.50038],[-109.25751,38.50016],[-109.2576,38.50068],[-109.25828,38.50143],[-109.25876,38.50098],[-109.25885,38.50038],[-109.25857,38.49978],[-109.2568,38.49918],[-109.25598,38.49871],[-109.25517,38.49904],[-109.25369,38.50022],[-109.25341,38.49982],[-109.25264,38.49975],[-109.25017,38.49997],[-109.24982,38.49931],[-109.25177,38.4989],[-109.25218,38.49864],[-109.25319,38.4986],[-109.25443,38.49795],[-109.2544,38.49769],[-109.25318,38.4973],[-109.25246,38.49675],[-109.25169,38.49571],[-109.25069,38.49352],[-109.24982,38.49316],[-109.24859,38.49309],[-109.24749,38.49341],[-109.24682,38.49403],[-109.24586,38.49442],[-109.24545,38.49501],[-109.24376,38.49582],[-109.24042,38.49685],[-109.23876,38.49783],[-109.23756,38.49815],[-109.2366,38.49999],[-109.23565,38.50071],[-109.23217,38.50016],[-109.23197,38.50037],[-109.23162,38.50043],[-109.2312,38.50001],[-109.22867,38.50031],[-109.22732,38.50011],[-109.22619,38.49951],[-109.22508,38.49847],[-109.22413,38.49792],[-109.22493,38.49757],[-109.22668,38.49818],[-109.22928,38.49871],[-109.22991,38.49862],[-109.22538,38.49378],[-109.22715,38.49296],[-109.22685,38.49254],[-109.22638,38.49259],[-109.22665,38.49207],[-109.22652,38.4918],[-109.22675,38.49173],[-109.22697,38.49139],[-109.22682,38.49086],[-109.22734,38.49055],[-109.22839,38.49051],[-109.22855,38.49021],[-109.22903,38.49011],[-109.22943,38.49045],[-109.23102,38.48967],[-109.23096,38.48936],[-109.23128,38.48929],[-109.23132,38.48864],[-109.23248,38.48862],[-109.2325,38.48796],[-109.23233,38.48733],[-109.23179,38.48701],[-109.23184,38.48644],[-109.23317,38.48574],[-109.23357,38.48567],[-109.23324,38.48517],[-109.23324,38.48492],[-109.2321,38.48554],[-109.22982,38.48505],[-109.22837,38.48439],[-109.22724,38.48307],[-109.22711,38.4819],[-109.22674,38.48103],[-109.22689,38.48038],[-109.22639,38.48005],[-109.22621,38.47909],[-109.22566,38.47844],[-109.22562,38.47809],[-109.22611,38.47704],[-109.22629,38.47609],[-109.22778,38.4756],[-109.22995,38.47397],[-109.23025,38.4732],[-109.22988,38.47135],[-109.22952,38.47124],[-109.22986,38.47087],[-109.23021,38.46994],[-109.23045,38.4698],[-109.23129,38.46994],[-109.23165,38.47023],[-109.23184,38.47126],[-109.23172,38.47272],[-109.2322,38.47343],[-109.23287,38.47389],[-109.23361,38.47418],[-109.23428,38.4742],[-109.23538,38.47276],[-109.23579,38.47274],[-109.23581,38.47298],[-109.23603,38.473],[-109.23641,38.4726],[-109.23684,38.47243],[-109.23713,38.47243],[-109.23732,38.47284],[-109.23787,38.473],[-109.23885,38.47272],[-109.24036,38.47308],[-109.24058,38.47336],[-109.2411,38.47339],[-109.24141,38.47276],[-109.24189,38.47221],[-109.24201,38.47178],[-109.24251,38.47116],[-109.24307,38.4708],[-109.24287,38.46975],[-109.2432,38.46912],[-109.24274,38.46891],[-109.24282,38.46854],[-109.24376,38.46861],[-109.24418,38.46788],[-109.24371,38.46635],[-109.2436,38.46525],[-109.24331,38.46513],[-109.24331,38.4645],[-109.24421,38.46417],[-109.24438,38.4638],[-109.24473,38.4636],[-109.24528,38.4636],[-109.24583,38.46391],[-109.24643,38.46448],[-109.24662,38.4649],[-109.24655,38.46505],[-109.24774,38.46565],[-109.24826,38.46556],[-109.24845,38.46595],[-109.24949,38.46615],[-109.25066,38.46586],[-109.25149,38.46657],[-109.25168,38.46661],[-109.25175,38.4673],[-109.25218,38.46749],[-109.2522,38.46777],[-109.25187,38.46775],[-109.25197,38.4679],[-109.25175,38.46801],[-109.25118,38.46798],[-109.25101,38.46815],[-109.25024,38.46822],[-109.25103,38.46864],[-109.25212,38.46879],[-109.25247,38.46911],[-109.25154,38.4709],[-109.25195,38.47139],[-109.25256,38.47172],[-109.25271,38.47093],[-109.25239,38.47066],[-109.25276,38.47034],[-109.25372,38.47047],[-109.25364,38.47101],[-109.25375,38.47104],[-109.2539,38.47075],[-109.25425,38.47076],[-109.25442,38.47115],[-109.2553,38.47101],[-109.25556,38.47062],[-109.2558,38.46972],[-109.2553,38.46921],[-109.2549,38.4691],[-109.25497,38.46865],[-109.25515,38.46839],[-109.25544,38.46828],[-109.25578,38.46836],[-109.2559,38.46863],[-109.25582,38.46889],[-109.25595,38.46904],[-109.25584,38.4693],[-109.25607,38.46961],[-109.25819,38.46919],[-109.25862,38.46974],[-109.2597,38.46945],[-109.26066,38.46872],[-109.26125,38.46869],[-109.26152,38.46793],[-109.26088,38.46697],[-109.25971,38.46691],[-109.25703,38.46604],[-109.2551,38.46633],[-109.25475,38.46619],[-109.25458,38.46634],[-109.2543,38.46635],[-109.25409,38.46611],[-109.25385,38.46619],[-109.25324,38.46592],[-109.25301,38.46537],[-109.25242,38.46548],[-109.25196,38.46517],[-109.25205,38.46485],[-109.25153,38.4647],[-109.25155,38.46396],[-109.25203,38.46351],[-109.25467,38.46361],[-109.25461,38.46279],[-109.25436,38.46268],[-109.25437,38.46243],[-109.25465,38.46236],[-109.25473,38.46144],[-109.25513,38.46088],[-109.25344,38.46061],[-109.25317,38.46043],[-109.2531,38.4598],[-109.25263,38.4597],[-109.25221,38.46001],[-109.25147,38.46026],[-109.25122,38.46009],[-109.25148,38.45976],[-109.25145,38.4595],[-109.25165,38.45946],[-109.25205,38.4589],[-109.25201,38.45822],[-109.25222,38.45758],[-109.25361,38.45662],[-109.25397,38.45659],[-109.25427,38.45628],[-109.25454,38.45624],[-109.25489,38.45586],[-109.25453,38.45535],[-109.254,38.45523],[-109.25414,38.45508],[-109.25439,38.45509],[-109.25423,38.45497],[-109.25465,38.45506],[-109.25542,38.45487],[-109.25641,38.45402],[-109.25671,38.45432],[-109.25683,38.45386],[-109.25671,38.45359],[-109.25706,38.45372],[-109.25753,38.45353],[-109.25786,38.45394],[-109.25847,38.45553],[-109.25864,38.45636],[-109.25987,38.45704],[-109.26088,38.45653],[-109.26124,38.45518],[-109.26164,38.45471],[-109.26092,38.45423],[-109.26093,38.45398],[-109.26187,38.45309],[-109.26179,38.45284],[-109.26192,38.45265],[-109.26223,38.4527],[-109.26418,38.45237],[-109.26466,38.45294],[-109.26579,38.45287],[-109.26601,38.45146],[-109.26562,38.45131],[-109.26568,38.45096],[-109.2665,38.4503],[-109.26713,38.45051],[-109.26803,38.45119],[-109.26803,38.45191],[-109.27009,38.4521],[-109.27136,38.45292],[-109.2719,38.45275],[-109.27211,38.45171],[-109.27242,38.45171],[-109.27235,38.452],[-109.27267,38.45235],[-109.27275,38.45268],[-109.27331,38.45313],[-109.27347,38.45277],[-109.27441,38.4526],[-109.27434,38.45163],[-109.27499,38.45182],[-109.27526,38.45245],[-109.27611,38.45203],[-109.2765,38.45206],[-109.27621,38.45162],[-109.27549,38.45123],[-109.27529,38.45075],[-109.27619,38.4505],[-109.2766,38.45001],[-109.27631,38.44981],[-109.2764,38.44962],[-109.27689,38.44947],[-109.27732,38.44951],[-109.27734,38.4497],[-109.27783,38.44969],[-109.27774,38.45045],[-109.27958,38.45173],[-109.28013,38.45188],[-109.28015,38.4511],[-109.27921,38.45031],[-109.27944,38.45003],[-109.28026,38.44969],[-109.28069,38.44969],[-109.28098,38.44949],[-109.28238,38.44959],[-109.28315,38.44934],[-109.28394,38.4494],[-109.2839,38.45008],[-109.28326,38.45093],[-109.28307,38.45166],[-109.28341,38.45214],[-109.28332,38.4527],[-109.28274,38.45239],[-109.28172,38.45133],[-109.28136,38.45112],[-109.28106,38.45122],[-109.28107,38.45282],[-109.28124,38.45324],[-109.28232,38.45372],[-109.28213,38.45435],[-109.28353,38.4549],[-109.28462,38.45492],[-109.28593,38.45488],[-109.28612,38.45435],[-109.28642,38.45407],[-109.2867,38.4544],[-109.28763,38.45467],[-109.2879,38.45431],[-109.28844,38.45436],[-109.28852,38.45494],[-109.29107,38.4557],[-109.29365,38.45713],[-109.29423,38.45722],[-109.29469,38.45711],[-109.2948,38.45759],[-109.29475,38.45787],[-109.29457,38.45802],[-109.29535,38.4586],[-109.29538,38.45912],[-109.29693,38.46021],[-109.2983,38.46028],[-109.29908,38.45959],[-109.29881,38.45874],[-109.29727,38.45868],[-109.29666,38.45817],[-109.2968,38.45732],[-109.29781,38.45727],[-109.30027,38.45752],[-109.30147,38.45791],[-109.3021,38.45794],[-109.30255,38.45787],[-109.30291,38.45736],[-109.30442,38.45712],[-109.30516,38.45741],[-109.30486,38.45808],[-109.30569,38.45867],[-109.30732,38.45952],[-109.30764,38.45954],[-109.31045,38.46117],[-109.31102,38.46139],[-109.31253,38.46153],[-109.31362,38.46101],[-109.31326,38.45976],[-109.31265,38.45926],[-109.31219,38.45854],[-109.31263,38.45833],[-109.31401,38.45811],[-109.31512,38.45727],[-109.31485,38.45616],[-109.31458,38.45564],[-109.31536,38.45497],[-109.31604,38.45375],[-109.31591,38.45318],[-109.31333,38.45304],[-109.31222,38.45331],[-109.31097,38.45259],[-109.31067,38.45185],[-109.30991,38.45183],[-109.30921,38.45197],[-109.3081,38.45096],[-109.30753,38.4499],[-109.30732,38.44876],[-109.30647,38.44814],[-109.30564,38.44838],[-109.30427,38.44946],[-109.30202,38.45069],[-109.30214,38.44921],[-109.30144,38.44939],[-109.29988,38.449],[-109.29957,38.44949],[-109.29916,38.44937],[-109.29931,38.44895],[-109.29963,38.44879],[-109.29993,38.44733],[-109.30038,38.44661],[-109.30141,38.44553],[-109.30214,38.44532],[-109.30509,38.44511],[-109.30508,38.44465],[-109.30544,38.44457],[-109.3041,38.44387],[-109.30391,38.44252],[-109.30451,38.4419],[-109.30387,38.43971],[-109.3041,38.4396],[-109.30429,38.43883],[-109.30448,38.43864],[-109.30472,38.43862],[-109.30543,38.43754],[-109.30534,38.43732],[-109.30543,38.43718],[-109.30568,38.43716],[-109.30616,38.43633],[-109.30698,38.4358],[-109.30869,38.43413],[-109.30963,38.4343],[-109.31069,38.43274],[-109.31112,38.43254],[-109.31162,38.43266],[-109.31308,38.43362],[-109.31346,38.43426],[-109.3144,38.43427],[-109.31582,38.43478],[-109.31697,38.43529],[-109.31727,38.43573],[-109.31877,38.43619],[-109.32002,38.43685],[-109.32063,38.43833],[-109.32091,38.4386],[-109.32185,38.4388],[-109.32331,38.44039],[-109.32325,38.44068],[-109.32189,38.44111],[-109.3224,38.4413],[-109.32239,38.44141],[-109.32318,38.44137],[-109.32345,38.44168],[-109.32346,38.44187],[-109.32283,38.44208],[-109.32301,38.44279],[-109.32386,38.44282],[-109.32385,38.4431],[-109.32365,38.44339],[-109.3239,38.44378],[-109.32381,38.44494],[-109.32499,38.44462],[-109.32566,38.44389],[-109.3261,38.44288],[-109.32619,38.44211],[-109.32696,38.44211],[-109.32908,38.44086],[-109.33009,38.44066],[-109.3305,38.43962],[-109.3311,38.43897],[-109.33409,38.43853],[-109.33525,38.43871],[-109.33567,38.4396],[-109.33606,38.43903],[-109.33643,38.43892],[-109.33664,38.43983],[-109.3366,38.44027],[-109.3381,38.44072],[-109.33904,38.44025],[-109.33959,38.43929],[-109.34,38.43913],[-109.34035,38.43933],[-109.34084,38.43916],[-109.34093,38.43883],[-109.34142,38.43826],[-109.34011,38.43705],[-109.33803,38.43607],[-109.33723,38.43535],[-109.337,38.43481],[-109.33701,38.43403],[-109.33736,38.43339],[-109.33796,38.43305],[-109.33738,38.43143],[-109.33644,38.43113],[-109.33533,38.43142],[-109.33495,38.4311],[-109.33491,38.43064],[-109.3343,38.43031],[-109.33314,38.42999],[-109.33254,38.42947],[-109.33154,38.42815],[-109.33116,38.4279],[-109.33036,38.42811],[-109.32983,38.42793],[-109.32877,38.42816],[-109.32758,38.42766],[-109.3285,38.42668],[-109.32777,38.42617],[-109.32777,38.42563],[-109.328,38.42547],[-109.32747,38.4247],[-109.32653,38.42422],[-109.32569,38.42422],[-109.3252,38.42359],[-109.32547,38.42267],[-109.32544,38.42194],[-109.32601,38.42159],[-109.32926,38.42213],[-109.33436,38.4247],[-109.33574,38.4256],[-109.33605,38.42649],[-109.33701,38.42663],[-109.33761,38.42644],[-109.33837,38.42658],[-109.33857,38.42634],[-109.33894,38.42627],[-109.33964,38.42714],[-109.34056,38.42703],[-109.34077,38.42682],[-109.34059,38.42636],[-109.34061,38.42595],[-109.34124,38.42603],[-109.34179,38.4263],[-109.34332,38.42568],[-109.34373,38.42592],[-109.34476,38.42598],[-109.34706,38.42571],[-109.34844,38.42579],[-109.34964,38.42603],[-109.3505,38.4266],[-109.35105,38.42736],[-109.35105,38.42796],[-109.35083,38.42858],[-109.35039,38.42885],[-109.35007,38.42926],[-109.34958,38.4305],[-109.35039,38.43126],[-109.35048,38.43197],[-109.35083,38.43224],[-109.35074,38.43337],[-109.35191,38.43359],[-109.35372,38.43425],[-109.35411,38.43455],[-109.35503,38.43571],[-109.35573,38.4362],[-109.35661,38.43654],[-109.35861,38.43699],[-109.3589,38.43649],[-109.35925,38.43627],[-109.36026,38.43627],[-109.36221,38.43663],[-109.36261,38.43625],[-109.36242,38.4357],[-109.36158,38.43462],[-109.36139,38.43419],[-109.36134,38.43348],[-109.36055,38.43232],[-109.36058,38.4318],[-109.36102,38.43156],[-109.36259,38.43199],[-109.36367,38.43205],[-109.36394,38.43283],[-109.36375,38.43416],[-109.36413,38.43473],[-109.36454,38.43473],[-109.36489,38.43421],[-109.36519,38.43413],[-109.36611,38.43486],[-109.36676,38.43519],[-109.36722,38.43638],[-109.36745,38.43642],[-109.36746,38.43654],[-109.36633,38.43717],[-109.36603,38.43914],[-109.36576,38.43947],[-109.36427,38.43931],[-109.36406,38.4399],[-109.36486,38.44026],[-109.36672,38.4404],[-109.36883,38.44091],[-109.37017,38.44148],[-109.37058,38.44053],[-109.37112,38.44012],[-109.37241,38.44018],[-109.37506,38.44158],[-109.37528,38.44184],[-109.37576,38.44189],[-109.37631,38.44224],[-109.37639,38.44241],[-109.37761,38.44256],[-109.37764,38.44272],[-109.37736,38.44299],[-109.37745,38.44307],[-109.37762,38.44308],[-109.37771,38.44289],[-109.37816,38.44264],[-109.37974,38.44268],[-109.38106,38.44307],[-109.38137,38.44347],[-109.38245,38.44397],[-109.38271,38.44396],[-109.38309,38.44366],[-109.38513,38.44465],[-109.38531,38.44607],[-109.38487,38.44631],[-109.3837,38.44612],[-109.38005,38.44502],[-109.37881,38.44486],[-109.37751,38.44488],[-109.37535,38.44542],[-109.3749,38.44571],[-109.37432,38.44639],[-109.37348,38.44674],[-109.37023,38.44737],[-109.36879,38.4475],[-109.36821,38.44712],[-109.36813,38.44692],[-109.36823,38.44522],[-109.36804,38.4448],[-109.36727,38.44396],[-109.36715,38.44311],[-109.36673,38.44249],[-109.36624,38.44249],[-109.3661,38.4422],[-109.36522,38.44195],[-109.36271,38.4408],[-109.36036,38.43947],[-109.35673,38.43812],[-109.35565,38.43793],[-109.35314,38.43807],[-109.35209,38.43785],[-109.35084,38.43718],[-109.34917,38.4357],[-109.34763,38.43529],[-109.3471,38.43602],[-109.34693,38.43671],[-109.34663,38.43807],[-109.3468,38.43878],[-109.34781,38.43878],[-109.34832,38.43907],[-109.34908,38.43899],[-109.34922,38.43949],[-109.34866,38.43976],[-109.34852,38.44042],[-109.34804,38.44092],[-109.3481,38.4412],[-109.34793,38.44145],[-109.34757,38.44123],[-109.34699,38.44187],[-109.34712,38.44224],[-109.34808,38.44305],[-109.34823,38.44381],[-109.34813,38.44407],[-109.34718,38.44501],[-109.34562,38.44483],[-109.34527,38.44586],[-109.34432,38.44655],[-109.34349,38.44791],[-109.34297,38.44817],[-109.3432,38.44853],[-109.34318,38.44895],[-109.34224,38.4506],[-109.34101,38.45155],[-109.34066,38.45168],[-109.34061,38.45191],[-109.34094,38.45272],[-109.34132,38.45282],[-109.34011,38.45485],[-109.33893,38.45556],[-109.33907,38.45582],[-109.33936,38.45592],[-109.33936,38.45729],[-109.33949,38.45774],[-109.33882,38.45893],[-109.33851,38.46044],[-109.33798,38.4608],[-109.33674,38.4604],[-109.33656,38.46084],[-109.33727,38.46152],[-109.33743,38.46218],[-109.33701,38.46287],[-109.33647,38.46293],[-109.33596,38.46358],[-109.33659,38.46378],[-109.33674,38.46399],[-109.33657,38.46439],[-109.33603,38.46485],[-109.33626,38.46519],[-109.33614,38.46572],[-109.33557,38.46583],[-109.33488,38.46554],[-109.33381,38.46632],[-109.33327,38.4663],[-109.33093,38.46753],[-109.33095,38.46822],[-109.33059,38.4689],[-109.32995,38.46901],[-109.32888,38.46885],[-109.32848,38.46857],[-109.32799,38.46866],[-109.32805,38.46842],[-109.32752,38.46787],[-109.32708,38.46794],[-109.32685,38.46814],[-109.32688,38.46847],[-109.32664,38.46876],[-109.32481,38.46816],[-109.32428,38.4683],[-109.32327,38.46805],[-109.32314,38.46836],[-109.32356,38.46876],[-109.32377,38.46927],[-109.32336,38.46952],[-109.32381,38.47025],[-109.32379,38.47045],[-109.32321,38.47045],[-109.32299,38.47003],[-109.32222,38.47064],[-109.32252,38.47145],[-109.32177,38.47234],[-109.32143,38.47321],[-109.32103,38.47339],[-109.31932,38.4737],[-109.31867,38.47359],[-109.31772,38.47399],[-109.31744,38.47437],[-109.31657,38.47478],[-109.31496,38.47453],[-109.3149,38.47435],[-109.31438,38.47528],[-109.31378,38.47576],[-109.31258,38.47585],[-109.31064,38.47505],[-109.31044,38.47434],[-109.3101,38.47412],[-109.30992,38.47371],[-109.3083,38.4735],[-109.30783,38.47301],[-109.3061,38.47198],[-109.30608,38.47141],[-109.30557,38.47109],[-109.30485,38.47099],[-109.30428,38.47118],[-109.3041,38.47159],[-109.30328,38.4717],[-109.30263,38.47163],[-109.29972,38.47043],[-109.29923,38.47089],[-109.29881,38.47107],[-109.29827,38.47092],[-109.29756,38.47138],[-109.29678,38.47115],[-109.29626,38.47139],[-109.29577,38.47078],[-109.29508,38.47034],[-109.29392,38.47025],[-109.29305,38.46978],[-109.29188,38.46879],[-109.29108,38.46889],[-109.29101,38.46934],[-109.29067,38.46959],[-109.29017,38.46947],[-109.29012,38.46909],[-109.28967,38.46867],[-109.28919,38.46881],[-109.28868,38.46925],[-109.28859,38.4695],[-109.28909,38.4701],[-109.2903,38.47075],[-109.29019,38.47157],[-109.29087,38.4718],[-109.29198,38.47306],[-109.29146,38.47359],[-109.29108,38.47362],[-109.29084,38.47327],[-109.29036,38.4733],[-109.28967,38.47271],[-109.28965,38.47344],[-109.28875,38.47364],[-109.28772,38.47361],[-109.28768,38.47426],[-109.28791,38.47455],[-109.28756,38.47453],[-109.28744,38.47426],[-109.28644,38.47436],[-109.2854,38.474],[-109.28514,38.47361],[-109.28458,38.47352],[-109.2834,38.47296],[-109.28275,38.47206],[-109.28223,38.47105],[-109.28197,38.47106],[-109.28206,38.47207],[-109.2813,38.472],[-109.28024,38.47125],[-109.2798,38.47188],[-109.27882,38.47175],[-109.27829,38.47109],[-109.2782,38.47045],[-109.27749,38.47042],[-109.27761,38.47087],[-109.27748,38.47127],[-109.27681,38.47136],[-109.27678,38.47212],[-109.27668,38.47217],[-109.27693,38.47253],[-109.2785,38.4736],[-109.27826,38.47394],[-109.2783,38.47459],[-109.27883,38.47486],[-109.27895,38.47512],[-109.27876,38.47575],[-109.27851,38.4759],[-109.27867,38.47668],[-109.27944,38.47758],[-109.28112,38.47881],[-109.28185,38.47913],[-109.28202,38.48056],[-109.28258,38.48068],[-109.28279,38.48162],[-109.28262,38.48197],[-109.28286,38.4821],[-109.28377,38.48148],[-109.28483,38.48115],[-109.2855,38.48125],[-109.28539,38.48193],[-109.2857,38.48251],[-109.28522,38.48298],[-109.28485,38.48382],[-109.28483,38.485],[-109.28437,38.48629],[-109.28488,38.48686],[-109.2846,38.48706],[-109.28459,38.48737],[-109.28445,38.48754],[-109.28369,38.48772],[-109.28338,38.48756],[-109.28329,38.48731],[-109.28188,38.48667],[-109.28053,38.48654],[-109.28033,38.48687],[-109.27954,38.48745],[-109.27924,38.48814],[-109.27892,38.48787],[-109.27819,38.48829],[-109.27802,38.48948],[-109.27622,38.48962],[-109.27613,38.49072],[-109.27568,38.4907],[-109.27567,38.49174],[-109.27514,38.49184],[-109.27489,38.49138],[-109.27497,38.4906],[-109.27425,38.49041],[-109.27382,38.48996],[-109.27326,38.49101],[-109.27397,38.49161],[-109.27384,38.49226],[-109.27278,38.49164],[-109.27217,38.4917],[-109.27228,38.49123],[-109.27081,38.49034],[-109.2699,38.49007],[-109.2693,38.49008],[-109.26889,38.49054],[-109.26957,38.49185],[-109.27074,38.49271],[-109.271,38.49398],[-109.27167,38.49423],[-109.27165,38.49475],[-109.2727,38.49566],[-109.27331,38.4957],[-109.27366,38.496],[-109.27403,38.49611],[-109.27414,38.49637],[-109.27368,38.49663],[-109.27364,38.49693],[-109.27402,38.49737],[-109.27426,38.49689],[-109.27481,38.49657],[-109.27498,38.49628],[-109.27583,38.49625],[-109.27596,38.49644],[-109.27619,38.49711],[-109.27575,38.49726],[-109.27528,38.49661],[-109.27498,38.49674],[-109.275,38.49722],[-109.2756,38.4978],[-109.27575,38.49814],[-109.27563,38.49863],[-109.27526,38.49859],[-109.27524,38.49873],[-109.27485,38.49877],[-109.2748,38.49893],[-109.274,38.4993],[-109.27395,38.4998],[-109.27357,38.49984],[-109.27324,38.49967],[-109.27321,38.49945],[-109.27238,38.4994],[-109.27213,38.49871],[-109.27118,38.49767],[-109.27021,38.49686],[-109.26887,38.49615],[-109.26846,38.49662],[-109.26967,38.49711],[-109.27009,38.49707],[-109.27005,38.49735],[-109.26981,38.49735],[-109.26979,38.49757],[-109.26933,38.49758],[-109.26939,38.49819],[-109.26976,38.49836],[-109.26952,38.49876],[-109.26971,38.49902],[-109.26941,38.49964],[-109.26915,38.49964],[-109.26741,38.50046],[-109.26642,38.49961],[-109.26603,38.49942],[-109.2657,38.49946],[-109.26499,38.49975],[-109.26458,38.50109],[-109.26376,38.50137],[-109.26328,38.5012],[-109.26279,38.50039],[-109.2625,38.50015],[-109.26214,38.50023],[-109.26209,38.50076],[-109.26249,38.50182],[-109.26241,38.50207],[-109.26196,38.50225],[-109.26138,38.50195],[-109.26111,38.50282],[-109.26047,38.50292],[-109.26042,38.5033],[-109.26023,38.50355],[-109.25977,38.50406],[-109.25959,38.50407],[-109.25948,38.50464],[-109.25924,38.50461],[-109.2585,38.50404],[-109.25798,38.50401],[-109.25613,38.50464],[-109.25615,38.5051],[-109.25479,38.50469],[-109.25458,38.50431],[-109.25344,38.50395],[-109.2534,38.50371],[-109.25357,38.50355],[-109.25307,38.50347]]],[[[-109.27541,38.49544],[-109.27552,38.49535],[-109.27567,38.49548],[-109.27548,38.49557],[-109.27541,38.49544]]],[[[-109.27073,38.5023],[-109.27038,38.50228],[-109.27041,38.50187],[-109.27068,38.50202],[-109.27073,38.5023]]],[[[-109.25379,38.45318],[-109.25365,38.45313],[-109.25374,38.45302],[-109.25379,38.45318]]],[[[-109.25086,38.4557],[-109.25114,38.45511],[-109.25165,38.45516],[-109.25218,38.45595],[-109.25212,38.45653],[-109.25188,38.45674],[-109.2517,38.45672],[-109.25157,38.4565],[-109.25139,38.45659],[-109.25129,38.45622],[-109.25086,38.4557]]],[[[-109.24999,38.46246],[-109.25026,38.46248],[-109.25041,38.46273],[-109.25036,38.46299],[-109.24992,38.463],[-109.24979,38.46325],[-109.24957,38.46313],[-109.24934,38.46328],[-109.24897,38.46326],[-109.24932,38.46273],[-109.24981,38.46266],[-109.24999,38.46246]]],[[[-109.24692,38.49735],[-109.24854,38.49786],[-109.24884,38.49764],[-109.24939,38.49753],[-109.24941,38.49813],[-109.24823,38.49885],[-109.24739,38.49884],[-109.24656,38.49854],[-109.24543,38.49864],[-109.24448,38.499],[-109.24497,38.49843],[-109.24576,38.49838],[-109.24644,38.4976],[-109.24692,38.49735]]],[[[-109.25335,38.50601],[-109.25272,38.50612],[-109.25219,38.50604],[-109.25179,38.50525],[-109.25197,38.50494],[-109.25191,38.50481],[-109.25296,38.50466],[-109.25367,38.50538],[-109.25362,38.50568],[-109.25335,38.50601]]]]},"properties":{"fire_id":"ufid:2021-UTMLF-000131","source_collection":"history-2021","source_objectid":14515,"incident_name":"Pack Creek","mapped_acres":8950.638,"mapped_acres_source":"poly_GISAcres","gis_acres":8950.638,"auto_acres":8952.851491479993,"reported_acres":8952.0,"percent_contained":null,"state":"UT","state_wfigs":"US-UT","county":"San Juan","discovery_time_utc":"2021-06-09T21:46:00Z","perimeter_time_utc":"2021-06-21T05:44:00Z","perimeter_edit_time_utc":"2023-03-14T15:13:42Z","incident_modified_time_utc":"2022-01-31T14:45:41Z","containment_time_utc":"2021-07-03T00:00:00Z","control_time_utc":"2021-07-28T21:00:00Z","fire_out_time_utc":"2021-11-15T21:00:00Z","fire_cause":"Human","fire_cause_general":"Recreation and ceremony","map_method":"Mixed Methods","source_dataset":"FFP","unique_fire_identifier":"2021-UTMLF-000131","irwin_id":"{CADF09E9-EE36-4E4A-AFE4-FED27F623CF7}","global_id":"69cc434b-25cf-4c68-a5c5-0d05807970bf"}},{"type":"Feature","geometry":{"type":"Polygon","coordinates":[[[-109.1008,39.1907],[-109.10132,39.19029],[-109.10108,39.19025],[-109.10143,39.19007],[-109.10122,39.18998],[-109.10035,39.19004],[-109.10023,39.19024],[-109.09977,39.19028],[-109.09939,39.19023],[-109.09948,39.19009],[-109.09888,39.19009],[-109.0984,39.19018],[-109.09826,39.19049],[-109.09807,39.19052],[-109.09806,39.19043],[-109.09821,39.19011],[-109.09841,39.19006],[-109.1027,39.18978],[-109.10286,39.18994],[-109.10229,39.19045],[-109.10216,39.19037],[-109.10167,39.19063],[-109.10191,39.1904],[-109.10155,39.19047],[-109.10152,39.19029],[-109.1008,39.1907]]]},"properties":{"fire_id":"ufid:2021-UTMOD-000066","source_collection":"history-2021","source_objectid":14842,"incident_name":"Harley Dome","mapped_acres":3.57396307,"mapped_acres_source":"poly_GISAcres","gis_acres":3.57396307,"auto_acres":3.57444092987797,"reported_acres":3.6,"percent_contained":null,"state":"UT","state_wfigs":"US-UT","county":"Grand","discovery_time_utc":"2021-04-14T22:32:00Z","perimeter_time_utc":null,"perimeter_edit_time_utc":"2021-08-06T17:47:30Z","incident_modified_time_utc":"2021-08-06T17:47:28Z","containment_time_utc":"2021-04-15T01:30:00Z","control_time_utc":"2021-04-15T02:10:00Z","fire_out_time_utc":"2021-04-20T15:00:00Z","fire_cause":"Human","fire_cause_general":"Equipment","map_method":"GPS-Walked","source_dataset":"Decertified","unique_fire_identifier":"2021-UTMOD-000066","irwin_id":"{97E6AD23-65F9-488A-A3DF-806EC39D7411}","global_id":"32454b06-0f51-4a76-b2e3-e54797ad0426"}}]}
