{"type":"FeatureCollection","features":[{"type":"Feature","geometry":{"type":"MultiPolygon","coordinates":[[[[-90.17231,44.02766],[-90.17232,44.02754],[-90.1719,44.02736],[-90.17159,44.02702],[-90.1717,44.02651],[-90.17138,44.02619],[-90.17159,44.02594],[-90.17133,44.02482],[-90.17326,44.02483],[-90.17317,44.02581],[-90.1736,44.02598],[-90.1744,44.02663],[-90.17455,44.02661],[-90.17448,44.02683],[-90.17484,44.02716],[-90.17478,44.02725],[-90.17546,44.02747],[-90.17527,44.02785],[-90.17639,44.02826],[-90.17689,44.02893],[-90.17791,44.02984],[-90.17763,44.03011],[-90.17786,44.03075],[-90.17835,44.03143],[-90.17858,44.03283],[-90.1788,44.03297],[-90.17894,44.03359],[-90.1792,44.0339],[-90.17905,44.03407],[-90.17873,44.03412],[-90.1785,44.0346],[-90.17819,44.03483],[-90.17826,44.03497],[-90.17741,44.03471],[-90.17668,44.03521],[-90.17654,44.03539],[-90.17644,44.03663],[-90.176,44.03713],[-90.176,44.03784],[-90.17542,44.03796],[-90.17533,44.03809],[-90.17511,44.03856],[-90.17519,44.03912],[-90.17434,44.03999],[-90.17361,44.04032],[-90.17279,44.04031],[-90.17263,44.04072],[-90.17248,44.04078],[-90.17373,44.04152],[-90.17388,44.04204],[-90.17366,44.04237],[-90.17384,44.04258],[-90.17376,44.0427],[-90.17357,44.04273],[-90.17307,44.04244],[-90.16882,44.04259],[-90.16887,44.04251],[-90.16721,44.041],[-90.16693,44.04101],[-90.16667,44.04009],[-90.16586,44.03843],[-90.16659,44.03668],[-90.16636,44.0363],[-90.16647,44.03602],[-90.16753,44.03499],[-90.1688,44.03432],[-90.16917,44.03427],[-90.16949,44.03439],[-90.16999,44.03395],[-90.1704,44.0338],[-90.17046,44.03335],[-90.17021,44.03272],[-90.17042,44.03232],[-90.17085,44.03199],[-90.17089,44.03156],[-90.17103,44.0314],[-90.17141,44.03132],[-90.17158,44.03113],[-90.17199,44.03119],[-90.17223,44.03142],[-90.17232,44.03114],[-90.17368,44.03115],[-90.17426,44.03081],[-90.17413,44.03065],[-90.17352,44.03064],[-90.17252,44.02999],[-90.17248,44.0289],[-90.1723,44.02874],[-90.17239,44.0282],[-90.17231,44.02772],[-90.17214,44.02766],[-90.17231,44.02766]]],[[[-90.17858,44.03037],[-90.17838,44.03037],[-90.17839,44.03062],[-90.17826,44.03056],[-90.1783,44.03032],[-90.17858,44.03037]]],[[[-90.17422,44.04054],[-90.17407,44.04073],[-90.1738,44.04053],[-90.17422,44.04054]]]]},"properties":{"fire_id":"ufid:2021-WIWIS-6103039202","source_collection":"history-2021","source_objectid":3833,"incident_name":"Railroad 2","mapped_acres":257.0,"mapped_acres_source":"poly_GISAcres","gis_acres":257.0,"auto_acres":256.662757092554,"reported_acres":257.0,"percent_contained":99.0,"state":"WI","state_wfigs":"US-WI","county":"Juneau","discovery_time_utc":"2021-04-04T17:12:00Z","perimeter_time_utc":"2021-04-04T22:12:00Z","perimeter_edit_time_utc":"2021-08-06T19:34:25Z","incident_modified_time_utc":"2021-04-06T21:24:41Z","containment_time_utc":null,"control_time_utc":null,"fire_out_time_utc":null,"fire_cause":"Unknown","fire_cause_general":null,"map_method":"GPS-Walked/Driven","source_dataset":"2021 NIFS","unique_fire_identifier":"2021-WIWIS-6103039202","irwin_id":"{0099EF09-32E4-45EC-ACC8-E634BD002562}","global_id":"98fc0df5-7a4f-4fd6-9e8a-d3efec9c8d8c"}}]}
