{"type":"FeatureCollection","features":[{"type":"Feature","geometry":{"type":"Polygon","coordinates":[[[-88.86393,45.73197],[-88.86377,45.73158],[-88.86391,45.73148],[-88.8643,45.73204],[-88.86393,45.73197]]]},"properties":{"fire_id":"ufid:2021-WICNF-000009","source_collection":"history-2021","source_objectid":5759,"incident_name":"DOUBLE BEND","mapped_acres":0.5,"mapped_acres_source":"poly_GISAcres","gis_acres":0.5,"auto_acres":0.35533025876815844,"reported_acres":0.62,"percent_contained":null,"state":"WI","state_wfigs":"US-WI","county":"Forest","discovery_time_utc":"2021-03-26T19:44:00Z","perimeter_time_utc":"2021-03-27T00:44:00Z","perimeter_edit_time_utc":"2023-03-14T15:13:42Z","incident_modified_time_utc":"2021-05-13T19:32:23Z","containment_time_utc":"2021-03-26T21:15:00Z","control_time_utc":"2021-03-27T15:40:00Z","fire_out_time_utc":"2021-03-29T21:19:00Z","fire_cause":"Human","fire_cause_general":"Debris and open burning","map_method":"Hand Sketch","source_dataset":"FFP","unique_fire_identifier":"2021-WICNF-000009","irwin_id":"{791DDF6F-E8EC-450D-AFC0-774CBBB4C5CB}","global_id":"de789430-2bed-4e11-ada9-23af2a6aea79"}},{"type":"Feature","geometry":{"type":"Polygon","coordinates":[[[-88.50711,45.72954],[-88.5076,45.72964],[-88.5076,45.72989],[-88.50716,45.73001],[-88.50704,45.7297],[-88.50711,45.72954]]]},"properties":{"fire_id":"ufid:2021-WICNF-000017","source_collection":"history-2021","source_objectid":8034,"incident_name":"Halls Rd","mapped_acres":1.0,"mapped_acres_source":"poly_GISAcres","gis_acres":1.0,"auto_acres":0.45026820903951853,"reported_acres":5.0,"percent_contained":null,"state":"WI","state_wfigs":"US-WI","county":"Florence","discovery_time_utc":"2021-04-05T19:27:05Z","perimeter_time_utc":"2021-04-06T00:27:05Z","perimeter_edit_time_utc":"2023-03-14T15:13:42Z","incident_modified_time_utc":"2021-05-26T19:45:47Z","containment_time_utc":null,"control_time_utc":"2021-04-06T19:30:00Z","fire_out_time_utc":"2021-04-12T16:15:00Z","fire_cause":"Human","fire_cause_general":"Debris and open burning","map_method":"Vector","source_dataset":"FFP","unique_fire_identifier":"2021-WICNF-000017","irwin_id":"{D23A6697-749D-492A-A791-BF9050EC8EA9}","global_id":"2b53039c-8987-49f1-bfc7-29c1fe48daf7"}},{"type":"Feature","geometry":{"type":"Polygon","coordinates":[[[-89.87839,46.04484],[-89.87774,46.04473],[-89.87763,46.04443],[-89.87701,46.0443],[-89.87704,46.04377],[-89.87667,46.04345],[-89.87715,46.04328],[-89.87723,46.04305],[-89.87678,46.04293],[-89.87671,46.04277],[-89.87715,46.04246],[-89.87795,46.04249],[-89.87797,46.04224],[-89.87836,46.04191],[-89.87859,46.04197],[-89.87924,46.04175],[-89.87966,46.04145],[-89.87976,46.04082],[-89.88011,46.04079],[-89.88025,46.04178],[-89.87987,46.04263],[-89.87965,46.04263],[-89.87977,46.04293],[-89.87891,46.04397],[-89.87839,46.04484]]]},"properties":{"fire_id":"ufid:2021-WIWIS-8409061","source_collection":"history-2021","source_objectid":9529,"incident_name":"Sugarbush","mapped_acres":13.92,"mapped_acres_source":"poly_GISAcres","gis_acres":13.92,"auto_acres":14.25308806534701,"reported_acres":13.92,"percent_contained":null,"state":"WI","state_wfigs":"US-WI","county":"Vilas","discovery_time_utc":"2021-05-10T20:20:25Z","perimeter_time_utc":"2021-05-11T01:20:25Z","perimeter_edit_time_utc":"2023-03-14T15:13:42Z","incident_modified_time_utc":"2021-12-17T17:57:20Z","containment_time_utc":"2021-05-10T18:03:00Z","control_time_utc":"2021-05-10T23:03:00Z","fire_out_time_utc":"2021-05-13T16:42:00Z","fire_cause":"Human","fire_cause_general":"Other causes","map_method":"Hand Sketch","source_dataset":"FFP","unique_fire_identifier":"2021-WIWIS-8409061","irwin_id":"{336AA832-7AAF-4435-BD53-C82CC5C3E67E}","global_id":"b978e088-af4e-462e-854a-99269536208c"}}]}
