{"type":"FeatureCollection","features":[{"type":"Feature","geometry":{"type":"MultiPolygon","coordinates":[[[[-88.13333,43.12886],[-88.1334,43.12858],[-88.1341,43.12853],[-88.13413,43.12874],[-88.13351,43.12892],[-88.13333,43.12886]]],[[[-88.14643,43.12932],[-88.14616,43.1293],[-88.14616,43.12852],[-88.14707,43.12846],[-88.14722,43.12856],[-88.14664,43.12893],[-88.14643,43.12932]]],[[[-88.12382,43.12854],[-88.12406,43.12915],[-88.12465,43.12935],[-88.12456,43.12953],[-88.12329,43.12939],[-88.12306,43.12908],[-88.12347,43.12859],[-88.12382,43.12854]]],[[[-88.1392,43.12917],[-88.1386,43.12906],[-88.13857,43.12896],[-88.13884,43.12877],[-88.13831,43.12864],[-88.14006,43.12851],[-88.14077,43.12874],[-88.14183,43.12851],[-88.14542,43.12854],[-88.14515,43.12927],[-88.14478,43.12969],[-88.14426,43.12977],[-88.14327,43.12957],[-88.14177,43.12962],[-88.14116,43.12944],[-88.13962,43.1294],[-88.1392,43.12917]]],[[[-88.11998,43.12923],[-88.11997,43.12898],[-88.11939,43.12883],[-88.11947,43.1286],[-88.12092,43.12875],[-88.12097,43.12903],[-88.12053,43.12946],[-88.1205,43.13048],[-88.119784,43.13055],[-88.12044,43.13099],[-88.12122,43.13095],[-88.1212,43.13123],[-88.12018,43.13149],[-88.12005,43.13178],[-88.12028,43.13209],[-88.12092,43.13236],[-88.12145,43.13302],[-88.12223,43.13294],[-88.12221,43.13272],[-88.12185,43.1324],[-88.1219,43.13206],[-88.12284,43.13215],[-88.12327,43.13231],[-88.124,43.13212],[-88.12446,43.13223],[-88.12435,43.13272],[-88.12458,43.13314],[-88.12447,43.13366],[-88.1242,43.13385],[-88.12221,43.13396],[-88.12057,43.13376],[-88.11893,43.13395],[-88.11819,43.13377],[-88.11811,43.13346],[-88.11779,43.13349],[-88.11746,43.13371],[-88.11755,43.13323],[-88.11721,43.13263],[-88.11734,43.13234],[-88.11784,43.13188],[-88.11783,43.13158],[-88.11762,43.13132],[-88.1161,43.13114],[-88.1146,43.13123],[-88.114,43.13172],[-88.11348,43.13271],[-88.11193,43.13316],[-88.11051,43.134],[-88.11149,43.13539],[-88.11085,43.13593],[-88.11083,43.13627],[-88.11201,43.13683],[-88.11249,43.13719],[-88.11195,43.13736],[-88.11161,43.138],[-88.11165,43.13829],[-88.11195,43.13829],[-88.11211,43.13792],[-88.11253,43.13773],[-88.11293,43.13713],[-88.11333,43.13701],[-88.11388,43.13718],[-88.11388,43.13732],[-88.11305,43.1379],[-88.11305,43.13844],[-88.11318,43.13849],[-88.11339,43.13821],[-88.11365,43.13818],[-88.11412,43.13863],[-88.1147,43.13872],[-88.1149,43.1389],[-88.11489,43.13912],[-88.11459,43.13933],[-88.11455,43.13964],[-88.11542,43.14016],[-88.11574,43.14076],[-88.11577,43.1415],[-88.11561,43.14186],[-88.11627,43.14233],[-88.11644,43.14275],[-88.1169,43.14327],[-88.11728,43.14342],[-88.11758,43.14411],[-88.11741,43.14449],[-88.11783,43.1449],[-88.11781,43.14564],[-88.11823,43.14589],[-88.11727,43.14624],[-88.11731,43.14642],[-88.11716,43.14658],[-88.11736,43.14673],[-88.11774,43.14789],[-88.11806,43.14807],[-88.11803,43.14817],[-88.1143,43.14827],[-88.11119,43.14818],[-88.111,43.14765],[-88.11065,43.14746],[-88.11055,43.14727],[-88.11065,43.14263],[-88.11058,43.14243],[-88.10999,43.1421],[-88.1099,43.14154],[-88.10995,43.14132],[-88.11036,43.14108],[-88.11004,43.14022],[-88.10977,43.14003],[-88.10904,43.13997],[-88.10889,43.13979],[-88.10893,43.1392],[-88.10958,43.13887],[-88.10963,43.13843],[-88.10984,43.13821],[-88.10942,43.13789],[-88.10938,43.13761],[-88.11027,43.13671],[-88.11029,43.13577],[-88.10987,43.1354],[-88.10984,43.13523],[-88.11049,43.13455],[-88.1103,43.13436],[-88.10987,43.13437],[-88.10955,43.13415],[-88.10948,43.13361],[-88.10927,43.13327],[-88.1096,43.13317],[-88.11021,43.13333],[-88.11068,43.13326],[-88.11099,43.13232],[-88.11144,43.13219],[-88.11204,43.1316],[-88.11243,43.13147],[-88.11297,43.13102],[-88.11328,43.13104],[-88.11424,43.13072],[-88.11454,43.13043],[-88.1158,43.12999],[-88.1171,43.13021],[-88.11827,43.13023],[-88.11872,43.13043],[-88.11839,43.13066],[-88.11848,43.13091],[-88.119779,43.130546],[-88.11968,43.13023],[-88.11912,43.12995],[-88.11889,43.12941],[-88.11964,43.12941],[-88.11998,43.12923]]],[[[-88.16318,43.13095],[-88.16392,43.13032],[-88.16444,43.13014],[-88.16449,43.13036],[-88.16423,43.13056],[-88.16402,43.13096],[-88.16318,43.13095]]],[[[-88.16635,43.13137],[-88.16604,43.13167],[-88.16577,43.13173],[-88.16528,43.13171],[-88.1649,43.13149],[-88.16488,43.13059],[-88.16501,43.13027],[-88.16568,43.13031],[-88.16703,43.13088],[-88.16749,43.13141],[-88.16746,43.13161],[-88.16676,43.13133],[-88.16635,43.13137]]],[[[-88.12991,43.12958],[-88.12878,43.12977],[-88.12824,43.13004],[-88.12774,43.12941],[-88.12724,43.1294],[-88.12644,43.12967],[-88.12645,43.12997],[-88.12759,43.13035],[-88.12795,43.13086],[-88.12755,43.13116],[-88.12705,43.131],[-88.12658,43.13117],[-88.12642,43.13141],[-88.12649,43.1318],[-88.1288,43.13306],[-88.12988,43.13324],[-88.13006,43.13345],[-88.12961,43.13365],[-88.12592,43.13377],[-88.12565,43.13354],[-88.12555,43.13319],[-88.1256,43.13133],[-88.12551,43.13094],[-88.12569,43.13066],[-88.12569,43.13033],[-88.12548,43.13004],[-88.12537,43.12955],[-88.12504,43.12935],[-88.1245,43.12859],[-88.12857,43.12845],[-88.13201,43.12849],[-88.13219,43.1293],[-88.13276,43.12957],[-88.13306,43.13013],[-88.13268,43.13084],[-88.1333,43.1314],[-88.13363,43.13246],[-88.13354,43.13289],[-88.13326,43.13308],[-88.13287,43.13309],[-88.13244,43.13272],[-88.13231,43.13219],[-88.13212,43.13206],[-88.13208,43.13144],[-88.13168,43.13098],[-88.13162,43.12999],[-88.13129,43.12954],[-88.12991,43.12958]]],[[[-88.13208,43.1322],[-88.13194,43.13216],[-88.13212,43.13206],[-88.13208,43.1322]]],[[[-88.13224,43.13333],[-88.13288,43.13337],[-88.13284,43.1336],[-88.13221,43.13357],[-88.13224,43.13333]]],[[[-88.11355,43.13273],[-88.11351,43.13278],[-88.11348,43.13271],[-88.11355,43.13273]]],[[[-88.10955,43.13886],[-88.10948,43.13888],[-88.1095,43.13881],[-88.10955,43.13886]]]]},"properties":{"fire_id":"ufid:2021-WIWIS-1100M06202","source_collection":"history-2021","source_objectid":14185,"incident_name":"Marcy Rd","mapped_acres":230.0,"mapped_acres_source":"poly_GISAcres","gis_acres":230.0,"auto_acres":269.825457925736,"reported_acres":230.0,"percent_contained":100.0,"state":"WI","state_wfigs":"US-WI","county":"Waukesha","discovery_time_utc":"2021-04-02T18:30:00Z","perimeter_time_utc":"2021-04-02T23:30:00Z","perimeter_edit_time_utc":"2021-05-04T22:56:22Z","incident_modified_time_utc":"2021-04-05T22:40:17Z","containment_time_utc":null,"control_time_utc":null,"fire_out_time_utc":null,"fire_cause":"Human","fire_cause_general":null,"map_method":"Image Interpretation","source_dataset":"2021 NIFS","unique_fire_identifier":"2021-WIWIS-1100M06202","irwin_id":"{75EFACBD-FF54-4B4F-A345-F723EEB6870C}","global_id":"af812ea4-4233-49d4-820b-e899df2405d8"}}]}
