{"type":"FeatureCollection","features":[{"type":"Feature","geometry":{"type":"Polygon","coordinates":[[[-81.06787,38.07244],[-81.06819,38.07238],[-81.06791,38.07247],[-81.06787,38.07244]]]},"properties":{"fire_id":"ufid:2021-WVPRI-LANSING","source_collection":"history-2021","source_objectid":1752,"incident_name":"Lansing Loop Fire","mapped_acres":0.1,"mapped_acres_source":"poly_GISAcres","gis_acres":0.1,"auto_acres":0.0243919247509236,"reported_acres":0.1,"percent_contained":null,"state":"WV","state_wfigs":"US-WV","county":"Fayette","discovery_time_utc":"2021-11-06T07:01:19Z","perimeter_time_utc":"2021-11-06T12:01:19Z","perimeter_edit_time_utc":"2021-11-08T16:31:40Z","incident_modified_time_utc":"2021-11-09T17:09:04Z","containment_time_utc":"2021-11-06T21:30:00Z","control_time_utc":"2021-11-06T22:00:00Z","fire_out_time_utc":"2021-11-06T22:04:00Z","fire_cause":"Undetermined","fire_cause_general":"Undetermined","map_method":"Hand Sketch","source_dataset":"2021 NIFS","unique_fire_identifier":"2021-WVPRI-LANSING","irwin_id":"{9A43F1DD-DB1D-4EA0-8679-FDE58531E9EC}","global_id":"e9b0fa23-985d-4e74-a4c4-f2bf6301d21f"}},{"type":"Feature","geometry":{"type":"Polygon","coordinates":[[[-81.03715,38.05045],[-81.03798,38.05039],[-81.03905,38.05116],[-81.03956,38.05134],[-81.04009,38.05117],[-81.04047,38.05129],[-81.04068,38.05159],[-81.04082,38.05146],[-81.04134,38.05152],[-81.04151,38.0517],[-81.04145,38.05181],[-81.0417,38.05196],[-81.04329,38.0524],[-81.04332,38.05221],[-81.04364,38.05215],[-81.0457,38.05251],[-81.04622,38.05286],[-81.04578,38.05319],[-81.0485,38.05385],[-81.04861,38.05404],[-81.04916,38.05421],[-81.04967,38.05404],[-81.05012,38.05439],[-81.05085,38.0544],[-81.05089,38.05453],[-81.05071,38.05459],[-81.05066,38.05484],[-81.05093,38.05484],[-81.05088,38.05498],[-81.0512,38.05517],[-81.05237,38.05516],[-81.05247,38.05536],[-81.05274,38.05536],[-81.05318,38.05602],[-81.05311,38.05618],[-81.05286,38.05627],[-81.05237,38.05631],[-81.05183,38.05663],[-81.05178,38.05679],[-81.0503,38.05713],[-81.0499,38.05685],[-81.04914,38.05675],[-81.04883,38.05652],[-81.0477,38.05643],[-81.04718,38.05653],[-81.0468,38.05677],[-81.04509,38.05623],[-81.0437,38.05617],[-81.04282,38.05595],[-81.04153,38.0553],[-81.04132,38.05552],[-81.04041,38.05555],[-81.04023,38.05567],[-81.03985,38.05555],[-81.03983,38.0553],[-81.03951,38.05529],[-81.03955,38.05507],[-81.03895,38.05456],[-81.03839,38.05463],[-81.0377,38.05448],[-81.03664,38.05481],[-81.03625,38.05479],[-81.0363,38.05466],[-81.03581,38.05466],[-81.03542,38.05441],[-81.03544,38.05394],[-81.03575,38.05367],[-81.03564,38.0534],[-81.03549,38.05338],[-81.03586,38.0533],[-81.03596,38.05302],[-81.03625,38.05301],[-81.03621,38.05257],[-81.03658,38.05239],[-81.03688,38.0516],[-81.03696,38.05162],[-81.03702,38.0514],[-81.03685,38.05138],[-81.03715,38.05045]]]},"properties":{"fire_id":"ufid:2021-WVNRP-001256","source_collection":"history-2021","source_objectid":6425,"incident_name":"Beauty Mountain Fire","mapped_acres":132.0,"mapped_acres_source":"poly_GISAcres","gis_acres":132.0,"auto_acres":131.53435447537686,"reported_acres":132.0,"percent_contained":null,"state":"WV","state_wfigs":"US-WV","county":"Fayette","discovery_time_utc":"2021-11-29T17:50:00Z","perimeter_time_utc":null,"perimeter_edit_time_utc":"2023-03-14T15:13:42Z","incident_modified_time_utc":"2022-01-11T18:05:45Z","containment_time_utc":"2021-12-05T21:30:00Z","control_time_utc":"2021-12-23T21:00:00Z","fire_out_time_utc":"2022-01-03T18:00:00Z","fire_cause":"Human","fire_cause_general":"Undetermined","map_method":"Mixed Methods","source_dataset":"FFP","unique_fire_identifier":"2021-WVNRP-001256","irwin_id":"{62DBD4BB-F657-46CF-9FE9-48BA37BCC319}","global_id":"2c6dd9b7-9796-4e28-9d4f-32f04ad92d8e"}},{"type":"Feature","geometry":{"type":"Polygon","coordinates":[[[-80.4707,38.33992],[-80.46974,38.34014],[-80.46959,38.3405],[-80.46899,38.34022],[-80.469,38.3398],[-80.46851,38.33939],[-80.46798,38.3395],[-80.46751,38.33924],[-80.46729,38.3382],[-80.46765,38.33762],[-80.46817,38.33735],[-80.47009,38.33765],[-80.4702,38.33789],[-80.47198,38.33874],[-80.47175,38.33973],[-80.4714,38.34022],[-80.4707,38.33992]]]},"properties":{"fire_id":"ufid:2021-WVMOF-000560","source_collection":"history-2021","source_objectid":9165,"incident_name":"101","mapped_acres":1.0,"mapped_acres_source":"poly_GISAcres","gis_acres":1.0,"auto_acres":21.806679734182204,"reported_acres":21.75,"percent_contained":null,"state":"WV","state_wfigs":"US-WV","county":"Webster","discovery_time_utc":"2021-04-06T19:34:00Z","perimeter_time_utc":"2021-04-03T22:08:00Z","perimeter_edit_time_utc":"2023-03-14T15:13:42Z","incident_modified_time_utc":"2021-05-20T15:05:37Z","containment_time_utc":"2021-04-07T00:04:00Z","control_time_utc":"2021-04-09T19:23:00Z","fire_out_time_utc":"2021-04-11T16:52:00Z","fire_cause":"Human","fire_cause_general":"Other causes","map_method":"Hand Sketch","source_dataset":"FFP","unique_fire_identifier":"2021-WVMOF-000560","irwin_id":"{FE7C7682-33B9-4109-B73B-694AA01B7A6F}","global_id":"b90d37a9-e341-4282-aaad-783c34d0ec44"}}]}
